"","station","valid","lon","lat","tmpf","dwpf","relh","drct","sknt","p01i","alti","mslp","vsby","gust","skyc1","skyc2","skyc3","skyc4","skyl1","skyl2","skyl3","skyl4","presentwx","metar"
"1","YBBN","2013-08-09 00:00",153.1292,-27.3917,64.4,37.4,36.74,210,14,0,30.03,"M",6.21,"M","M","M","M","M","M","M","M","M","M","YBBN 090000Z 21014KT CAVOK 18/03 Q1017 NOSIG"
