"","station","valid","lon","lat","tmpf","dwpf","relh","drct","sknt","p01i","alti","mslp","vsby","gust","skyc1","skyc2","skyc3","skyc4","skyl1","skyl2","skyl3","skyl4","presentwx","metar"
"1","YBBN","2010-09-06 00:00",153.1292,-27.3917,68,55.4,64.04,200,7,"M",30.12,"M",6.21,"M","FEW","BKN","M","M","2500.00","6400.00","M","M","M","YBBN 060000Z 20007KT 9999 FEW025 BKN064 20/13 Q1020 NOSIG"
