"","station","valid","lon","lat","tmpf","dwpf","relh","drct","sknt","p01i","alti","mslp","vsby","gust","skyc1","skyc2","skyc3","skyc4","skyl1","skyl2","skyl3","skyl4","presentwx","metar"
"1","YBBN","2010-10-17 00:00",153.1292,-27.3917,62.6,32,31.56,250,8,"M",30,"M",6.21,"M","M","M","M","M","M","M","M","M","M","YBBN 170000Z 25008KT CAVOK 17/00 Q1016 NOSIG"
