"","station","valid","lon","lat","tmpf","dwpf","relh","drct","sknt","p01i","alti","mslp","vsby","gust","skyc1","skyc2","skyc3","skyc4","skyl1","skyl2","skyl3","skyl4","presentwx","metar"
"1","YBBN","2011-12-13 00:00",153.1292,-27.3917,78.8,64.4,61.36,40,8,"M",29.71,"M",6.21,"M","FEW","M","M","M",2600,"M","M","M","M","YBBN 130000Z 04008KT 9999 FEW026 26/18 Q1006 NOSIG"
