"","station","valid","lon","lat","tmpf","dwpf","relh","drct","sknt","p01i","alti","mslp","vsby","gust","skyc1","skyc2","skyc3","skyc4","skyl1","skyl2","skyl3","skyl4","presentwx","metar"
"1","YBBN","2012-07-11 00:00",153.1292,-27.3917,64.4,62.6,93.88,0,0,0,30.24,"M",4.35,"M","SCT","BKN","M","M",600,"1600.00","M","M","VCSH","YBBN 110000Z 00000KT 7000 VCSH SCT006 BKN016 18/17 Q1024"
