"","station","valid","lon","lat","tmpf","dwpf","relh","drct","sknt","p01i","alti","mslp","vsby","gust","skyc1","skyc2","skyc3","skyc4","skyl1","skyl2","skyl3","skyl4","presentwx","metar"
"1","YBBN","2011-02-27 00:00",153.1292,-27.3917,80.6,64.4,57.84,10,8,"M",29.91,"M",6.21,"M","SCT","M","M","M","3400.00","M","M","M","M","YBBN 270000Z 01008KT 9999 SCT034 27/18 Q1013 NOSIG"
