"","station","valid","lon","lat","tmpf","dwpf","relh","drct","sknt","p01i","alti","mslp","vsby","gust","skyc1","skyc2","skyc3","skyc4","skyl1","skyl2","skyl3","skyl4","presentwx","metar"
"1","YBBN","2011-05-31 00:00",153.1292,-27.3917,64.4,50,59.5,220,9,"M",29.97,"M",6.21,"M","FEW","BKN","M","M","3500.00","23000.00","M","M","M","YBBN 310000Z 22009KT 9999 FEW035 BKN230 18/10 Q1015 RMK FU/HZ/DIST CB TOP SE NOSIG"
