"","station","valid","lon","lat","tmpf","dwpf","relh","drct","sknt","p01i","alti","mslp","vsby","gust","skyc1","skyc2","skyc3","skyc4","skyl1","skyl2","skyl3","skyl4","presentwx","metar"
"1","YBBN","2016-01-26 00:00",153.1292,-27.3917,78.8,68,69.52,130,8,0,29.94,"M",6.21,"M","FEW","BKN","BKN","M","1900.00","2300.00","9900.00","M","M","YBBN 260000Z 13008KT 9999 FEW019 BKN023 BKN099 26/20 Q1014"
