"","station","valid","lon","lat","tmpf","dwpf","relh","drct","sknt","p01i","alti","mslp","vsby","gust","skyc1","skyc2","skyc3","skyc4","skyl1","skyl2","skyl3","skyl4","presentwx","metar"
"1","YBBN","2011-10-04 00:00",153.1292,-27.3917,66.2,44.6,45.6,190,7,"M",30.15,"M",6.21,"M","FEW","M","M","M","2500.00","M","M","M","M","YBBN 040000Z 19007KT 9999 FEW025 19/07 Q1021 NOSIG"
