"","station","valid","lon","lat","tmpf","dwpf","relh","drct","sknt","p01i","alti","mslp","vsby","gust","skyc1","skyc2","skyc3","skyc4","skyl1","skyl2","skyl3","skyl4","presentwx","metar"
"1","YBBN","2013-08-23 00:00",153.1292,-27.3917,66.2,35.6,32.14,360,7,0,30.06,"M",6.21,"M","M","M","M","M","M","M","M","M","M","YBBN 230000Z 36007KT CAVOK 19/02 Q1018 RMK HAZE"
