"","station","valid","lon","lat","tmpf","dwpf","relh","drct","sknt","p01i","alti","mslp","vsby","gust","skyc1","skyc2","skyc3","skyc4","skyl1","skyl2","skyl3","skyl4","presentwx","metar"
"1","YBBN","2012-10-22 00:00",153.1292,-27.3917,82.4,64.4,54.55,30,9,0,29.91,"M",6.21,"M","FEW","BKN","M","M","3000.00","29000.00","M","M","M","YBBN 220000Z 03009KT 9999 FEW030 BKN290 28/18 Q1013"
