"","station","valid","lon","lat","tmpf","dwpf","relh","drct","sknt","p01i","alti","mslp","vsby","gust","skyc1","skyc2","skyc3","skyc4","skyl1","skyl2","skyl3","skyl4","presentwx","metar"
"1","YBBN","2012-04-14 00:00",153.1292,-27.3917,69.8,66.2,88.34,90,6,0,30.27,"M",5.59,"M","FEW","SCT","M","M",1200,"6000.00","M","M","VCSH","YBBN 140000Z 09006KT 9000 VCSH FEW012 SCT060 21/19 Q1025"
