"","station","valid","lon","lat","tmpf","dwpf","relh","drct","sknt","p01i","alti","mslp","vsby","gust","skyc1","skyc2","skyc3","skyc4","skyl1","skyl2","skyl3","skyl4","presentwx","metar"
"1","YBBN","2013-09-20 00:00",153.1292,-27.3917,77,33.8,20.74,240,11,0,29.88,"M",6.21,"M","M","M","M","M","M","M","M","M","M","YBBN 200000Z 24011KT CAVOK 25/01 Q1012"
