"","station","valid","lon","lat","tmpf","dwpf","relh","drct","sknt","p01i","alti","mslp","vsby","gust","skyc1","skyc2","skyc3","skyc4","skyl1","skyl2","skyl3","skyl4","presentwx","metar"
"1","YBBN","2011-03-18 00:00",153.1292,-27.3917,78.8,68,69.52,310,2,"M",29.97,"M",6.21,"M","FEW","BKN","M","M",2200,14500,"M","M","M","YBBN 180000Z 31002KT 9999 FEW022 BKN145 26/20 Q1015 NOSIG"
