"","station","valid","lon","lat","tmpf","dwpf","relh","drct","sknt","p01i","alti","mslp","vsby","gust","skyc1","skyc2","skyc3","skyc4","skyl1","skyl2","skyl3","skyl4","presentwx","metar"
"1","YBBN","2012-10-29 00:00",153.1292,-27.3917,71.6,50,46.43,150,9,0,30.15,"M",6.21,"M","SCT","BKN","BKN","M","4000.00","5600.00","17000.00","M","M","YBBN 290000Z 15009KT 9999 SCT040 BKN056 BKN170 22/10 Q1021"
