"","station","valid","lon","lat","tmpf","dwpf","relh","drct","sknt","p01i","alti","mslp","vsby","gust","skyc1","skyc2","skyc3","skyc4","skyl1","skyl2","skyl3","skyl4","presentwx","metar"
"1","YBBN","2012-03-09 00:00",153.1292,-27.3917,80.6,59,47.79,220,12,0,29.85,"M",6.21,"M","FEW","M","M","M","1800.00","M","M","M","M","YBBN 090000Z 22012KT 9999 FEW018 27/15 Q1011"
