"","station","valid","lon","lat","tmpf","dwpf","relh","drct","sknt","p01i","alti","mslp","vsby","gust","skyc1","skyc2","skyc3","skyc4","skyl1","skyl2","skyl3","skyl4","presentwx","metar"
"1","YBBN","2012-06-28 00:00",153.1292,-27.3917,60.8,60.8,100,200,8,0,30,"M",6.21,"M","FEW","SCT","OVC","M",700,"1500.00","3000.00","M","-SHRA","YBBN 280000Z 20008KT 9999 4000S -SHRA FEW007 SCT015 OVC030 16/16 Q1016"
