"","station","valid","lon","lat","tmpf","dwpf","relh","drct","sknt","p01i","alti","mslp","vsby","gust","skyc1","skyc2","skyc3","skyc4","skyl1","skyl2","skyl3","skyl4","presentwx","metar"
"1","YBBN","2011-03-12 00:00",153.1292,-27.3917,78.8,68,69.52,70,9,"M",30.12,"M",6.21,"M","FEW","BKN","M","M",2000,"2600.00","M","M","VCSH","YBBN 120000Z 07009KT 9999 VCSH FEW020 BKN026 26/20 Q1020 RMK SH SE NOSIG"
