"","station","valid","lon","lat","tmpf","dwpf","relh","drct","sknt","p01i","alti","mslp","vsby","gust","skyc1","skyc2","skyc3","skyc4","skyl1","skyl2","skyl3","skyl4","presentwx","metar"
"1","YBBN","2012-04-24 00:00",153.1292,-27.3917,77,69.8,78.48,180,5,0,29.94,"M",4.97,"M","FEW","SCT","BKN","M","1200.00","2300.00","7000.00","M","M","YBBN 240000Z 18005KT 8000 FEW012 SCT023 BKN070 25/21 Q1014 RMK HAZE"
