"","station","valid","lon","lat","tmpf","dwpf","relh","drct","sknt","p01i","alti","mslp","vsby","gust","skyc1","skyc2","skyc3","skyc4","skyl1","skyl2","skyl3","skyl4","presentwx","metar"
"1","YBBN","2016-07-23 00:00",153.1292,-27.3917,77,64.4,65.12,360,12,0,29.8,"M",6.21,"M","FEW","M","M","M","3000.00","M","M","M","M","YBBN 230000Z 36012KT 9999 FEW030 25/18 Q1009"
