"","station","valid","lon","lat","tmpf","dwpf","relh","drct","sknt","p01i","alti","mslp","vsby","gust","skyc1","skyc2","skyc3","skyc4","skyl1","skyl2","skyl3","skyl4","presentwx","metar"
"1","YBBN","2010-06-18 00:00",153.1292,-27.3917,66.2,57.2,72.74,210,6,"M",30.06,"M",6.21,"M","FEW","BKN","M","M","4500.00","9000.00","M","M","M","YBBN 180000Z 21006KT 9999 FEW045 BKN090 19/14 Q1018 NOSIG"
