"","station","valid","lon","lat","tmpf","dwpf","relh","drct","sknt","p01i","alti","mslp","vsby","gust","skyc1","skyc2","skyc3","skyc4","skyl1","skyl2","skyl3","skyl4","presentwx","metar"
"1","YBBN","2012-05-02 00:00",153.1292,-27.3917,71.6,62.6,73.27,140,7,0,30.18,"M",6.21,"M","FEW","SCT","BKN","M","2200.00","3500.00","8200.00","M","M","YBBN 020000Z 14007KT 9999 FEW022 SCT035 BKN082 22/17 Q1022"
