"","station","valid","lon","lat","tmpf","dwpf","relh","drct","sknt","p01i","alti","mslp","vsby","gust","skyc1","skyc2","skyc3","skyc4","skyl1","skyl2","skyl3","skyl4","presentwx","metar"
"1","YBBN","2013-01-15 00:00",153.1292,-27.3917,78.8,60.8,54.05,140,10,0,30,"M",6.21,"M","FEW","SCT","BKN","M",3500,"5500.00","9500.00","M","M","YBBN 150000Z 14010KT 9999 FEW035 SCT055 BKN095 26/16 Q1016 NOSIG"
