"","station","valid","lon","lat","tmpf","dwpf","relh","drct","sknt","p01i","alti","mslp","vsby","gust","skyc1","skyc2","skyc3","skyc4","skyl1","skyl2","skyl3","skyl4","presentwx","metar"
"1","YBBN","2012-03-26 00:00",153.1292,-27.3917,77,55.4,47.25,80,9,0,30.15,"M",6.21,"M","FEW","M","M","M","3500.00","M","M","M","M","YBBN 260000Z 08009KT 9999 FEW035 25/13 Q1021 NOSIG"
