"","station","valid","lon","lat","tmpf","dwpf","relh","drct","sknt","p01i","alti","mslp","vsby","gust","skyc1","skyc2","skyc3","skyc4","skyl1","skyl2","skyl3","skyl4","presentwx","metar"
"1","YBBN","2012-06-18 00:00",153.1292,-27.3917,62.6,37.4,39.14,220,11,0,30.18,"M",6.21,"M","M","M","M","M","M","M","M","M","M","YBBN 180000Z 22011KT CAVOK 17/03 Q1022"
