"","station","valid","lon","lat","tmpf","dwpf","relh","drct","sknt","p01i","alti","mslp","vsby","gust","skyc1","skyc2","skyc3","skyc4","skyl1","skyl2","skyl3","skyl4","presentwx","metar"
"1","YBBN","2010-03-15 00:00",153.1292,-27.3917,75.2,64.4,69.14,190,8,"M",30.18,"M",6.21,"M","FEW","SCT","BKN","M",1800,2700,"8000.00","M","VCSH","YBBN 150000Z 19008KT 9999 VCSH FEW018 SCT027 BKN080 24/18 Q1022 RMK SH TO NW FM0000 13012KT 9999 -SHRA SCT035 SCT050 INTER 0000/0200 4000 SHRA FEW010 SCT013"
