"","station","valid","lon","lat","tmpf","dwpf","relh","drct","sknt","p01i","alti","mslp","vsby","gust","skyc1","skyc2","skyc3","skyc4","skyl1","skyl2","skyl3","skyl4","presentwx","metar"
"1","YBBN","2016-09-16 00:00",153.1292,-27.3917,75.2,60.8,60.9,290,7,0,30.06,"M",6.21,"M","FEW","M","M","M","4500.00","M","M","M","M","YBBN 160000Z 29007KT 230V320 9999 FEW045 24/16 Q1018 NOSIG"
