#DEBUG: Format Typ    -> comma
#DEBUG: Time Period   -> 2016-12-11 00:00:00+00:00 2016-12-12 00:00:00+00:00
#DEBUG: Time Zone     -> Etc/UTC
#DEBUG: Data Contact   -> daryl herzmann akrherz@iastate.edu 515-294-5978
#DEBUG: Entries Found -> -1
station,valid,lon,lat,tmpf, dwpf, relh, drct, sknt, p01i, alti, mslp, vsby, gust, skyc1, skyc2, skyc3, skyc4, skyl1, skyl2, skyl3, skyl4, presentwx, metar
YBBN,2016-12-11 00:00,153.1292,-27.3917,75.20,57.20,53.55,130.00,9.00,0.00,30.15,M,6.21,M,SCT,BKN,M,M,3500.00,27000.00,M,M,M,YBBN 110000Z 13009KT 9999 SCT035 BKN270 24/14 Q1021
YBBN,2016-12-11 00:30,153.1292,-27.3917,77.00,55.40,47.25,110.00,9.00,0.00,30.15,M,6.21,M,SCT,BKN,M,M,3800.00,27000.00,M,M,M,YBBN 110030Z 11009KT 9999 SCT038 BKN270 25/13 Q1021 NOSIG
YBBN,2016-12-11 01:00,153.1292,-27.3917,77.00,55.40,47.25,120.00,10.00,0.00,30.15,M,6.21,M,SCT,BKN,M,M,3800.00,27000.00,M,M,M,YBBN 110100Z 12010KT 9999 SCT038 BKN270 25/13 Q1021
YBBN,2016-12-11 01:30,153.1292,-27.3917,77.00,55.40,47.25,130.00,9.00,0.00,30.15,M,6.21,M,SCT,BKN,M,M,4000.00,27000.00,M,M,M,YBBN 110130Z 13009KT 9999 SCT040 BKN270 25/13 Q1021 NOSIG
YBBN,2016-12-11 02:00,153.1292,-27.3917,77.00,57.20,50.43,110.00,9.00,0.00,30.15,M,6.21,M,FEW,SCT,BKN,M,2000.00,4000.00,27000.00,M,M,YBBN 110200Z 11009KT 9999 FEW020 SCT040 BKN270 25/14 Q1021
YBBN,2016-12-11 02:30,153.1292,-27.3917,77.00,55.40,47.25,130.00,8.00,0.00,30.15,M,6.21,M,FEW,SCT,BKN,M,2000.00,4500.00,25000.00,M,M,YBBN 110230Z 13008KT 9999 FEW020 SCT045 BKN250 25/13 Q1021 NOSIG
YBBN,2016-12-11 03:00,153.1292,-27.3917,77.00,57.20,50.43,80.00,9.00,0.00,30.15,M,6.21,M,FEW,BKN,M,M,4500.00,25000.00,M,M,M,YBBN 110300Z 08009KT 9999 FEW045 BKN250 25/14 Q1021 NOSIG
YBBN,2016-12-11 03:30,153.1292,-27.3917,75.20,55.40,50.17,90.00,8.00,0.00,30.15,M,6.21,M,FEW,BKN,M,M,4600.00,25000.00,M,M,M,YBBN 110330Z 09008KT 9999 FEW046 BKN250 24/13 Q1021 NOSIG
YBBN,2016-12-11 04:00,153.1292,-27.3917,75.20,57.20,53.55,60.00,11.00,0.00,30.12,M,6.21,M,SCT,BKN,M,M,4200.00,25000.00,M,M,M,YBBN 110400Z 06011KT 9999 SCT042 BKN250 24/14 Q1020
YBBN,2016-12-11 04:30,153.1292,-27.3917,75.20,55.40,50.17,80.00,9.00,0.00,30.12,M,6.21,M,SCT,BKN,M,M,4200.00,25000.00,M,M,M,YBBN 110430Z 08009KT 9999 SCT042 BKN250 24/13 Q1020 NOSIG
YBBN,2016-12-11 05:00,153.1292,-27.3917,75.20,55.40,50.17,90.00,9.00,0.00,30.12,M,6.21,M,FEW,SCT,BKN,M,4000.00,11000.00,25000.00,M,M,YBBN 110500Z 09009KT 9999 FEW040 SCT110 BKN250 24/13 Q1020
YBBN,2016-12-11 05:30,153.1292,-27.3917,75.20,57.20,53.55,90.00,7.00,0.00,30.12,M,6.21,M,FEW,SCT,BKN,M,4000.00,22500.00,25000.00,M,M,YBBN 110530Z 09007KT 9999 FEW040 SCT225 BKN250 24/14 Q1020 NOSIG
YBBN,2016-12-11 06:00,153.1292,-27.3917,73.40,57.20,56.88,120.00,7.00,0.00,30.12,M,6.21,M,FEW,SCT,BKN,M,4000.00,5100.00,25000.00,M,M,YBBN 110600Z 12007KT 080V140 9999 FEW040 SCT051 BKN250 23/14 Q1020
YBBN,2016-12-11 06:30,153.1292,-27.3917,75.20,55.40,50.17,110.00,7.00,0.00,30.12,M,6.21,M,FEW,SCT,BKN,M,4000.00,5000.00,25000.00,M,M,YBBN 110630Z 11007KT 9999 FEW040 SCT050 BKN250 24/13 Q1020 NOSIG
YBBN,2016-12-11 07:00,153.1292,-27.3917,73.40,57.20,56.88,110.00,7.00,0.00,30.12,M,6.21,M,FEW,SCT,BKN,M,4000.00,5000.00,25000.00,M,M,YBBN 110700Z 11007KT 9999 FEW040 SCT050 BKN250 23/14 Q1020
YBBN,2016-12-11 07:30,153.1292,-27.3917,73.40,59.00,60.67,120.00,7.00,0.00,30.12,M,6.21,M,FEW,SCT,BKN,M,2800.00,22000.00,25000.00,M,M,YBBN 110730Z 12007KT 9999 FEW028 SCT220 BKN250 23/15 Q1020 NOSIG
YBBN,2016-12-11 08:00,153.1292,-27.3917,73.40,57.20,56.88,110.00,8.00,0.00,30.15,M,6.21,M,SCT,SCT,BKN,M,3800.00,22000.00,25000.00,M,M,YBBN 110800Z 11008KT 9999 SCT038 SCT220 BKN250 23/14 Q1021 NOSIG
YBBN,2016-12-11 08:30,153.1292,-27.3917,73.40,57.20,56.88,110.00,6.00,0.00,30.15,M,6.21,M,FEW,SCT,M,M,3200.00,18000.00,M,M,M,YBBN 110830Z 11006KT 9999 FEW032 SCT180 23/14 Q1021 NOSIG
YBBN,2016-12-11 09:00,153.1292,-27.3917,73.40,59.00,60.67,110.00,7.00,0.00,30.15,M,6.21,M,FEW,BKN,M,M,2500.00,22000.00,M,M,M,YBBN 110900Z 11007KT 9999 FEW025 BKN220 23/15 Q1021 NOSIG
YBBN,2016-12-11 09:30,153.1292,-27.3917,73.40,59.00,60.67,110.00,7.00,0.00,30.15,M,6.21,M,FEW,BKN,M,M,2500.00,22000.00,M,M,M,YBBN 110930Z 11007KT 9999 FEW025 BKN220 23/15 Q1021 NOSIG
YBBN,2016-12-11 10:00,153.1292,-27.3917,73.40,59.00,60.67,110.00,7.00,0.00,30.15,M,6.21,M,FEW,BKN,M,M,2500.00,22000.00,M,M,M,YBBN 111000Z 11007KT 9999 FEW025 BKN220 23/15 Q1021
YBBN,2016-12-11 10:30,153.1292,-27.3917,71.60,59.00,64.48,110.00,7.00,0.00,30.15,M,6.21,M,M,M,M,M,M,M,M,M,M,YBBN 111030Z 11007KT CAVOK 22/15 Q1021 NOSIG
YBBN,2016-12-11 11:00,153.1292,-27.3917,73.40,59.00,60.67,120.00,6.00,0.00,30.15,M,6.21,M,FEW,BKN,M,M,2500.00,22000.00,M,M,M,YBBN 111100Z 12006KT 9999 FEW025 BKN220 23/15 Q1021
YBBN,2016-12-11 11:30,153.1292,-27.3917,73.40,59.00,60.67,120.00,7.00,0.00,30.18,M,6.21,M,FEW,BKN,M,M,2500.00,23000.00,M,M,M,YBBN 111130Z 12007KT 9999 FEW025 BKN230 23/15 Q1022 NOSIG
YBBN,2016-12-11 12:00,153.1292,-27.3917,71.60,59.00,64.48,120.00,7.00,0.00,30.18,M,6.21,M,FEW,BKN,M,M,3500.00,23000.00,M,M,M,YBBN 111200Z 12007KT 9999 FEW035 BKN230 22/15 Q1022
YBBN,2016-12-11 12:30,153.1292,-27.3917,69.80,60.80,73.09,170.00,5.00,0.00,30.18,M,6.21,M,FEW,BKN,M,M,3300.00,23000.00,M,M,M,YBBN 111230Z 17005KT 9999 FEW033 BKN230 21/16 Q1022 NOSIG
YBBN,2016-12-11 13:00,153.1292,-27.3917,69.80,60.80,73.09,170.00,5.00,0.00,30.15,M,6.21,M,SCT,BKN,M,M,3300.00,23000.00,M,M,M,YBBN 111300Z 17005KT 9999 SCT033 BKN230 21/16 Q1021
YBBN,2016-12-11 13:30,153.1292,-27.3917,69.80,60.80,73.09,170.00,5.00,0.00,30.15,M,6.21,M,FEW,BKN,M,M,3300.00,23000.00,M,M,M,YBBN 111330Z 17005KT 9999 FEW033 BKN230 21/16 Q1021 NOSIG
YBBN,2016-12-11 14:00,153.1292,-27.3917,68.00,60.80,77.75,170.00,4.00,0.00,30.15,M,6.21,M,FEW,BKN,M,M,2500.00,23000.00,M,M,M,YBBN 111400Z 17004KT 9999 FEW025 BKN230 20/16 Q1021
YBBN,2016-12-11 14:30,153.1292,-27.3917,68.00,60.80,77.75,180.00,4.00,0.00,30.15,M,6.21,M,FEW,BKN,M,M,2500.00,23000.00,M,M,M,YBBN 111430Z 18004KT 9999 FEW025 BKN230 20/16 Q1021 NOSIG
YBBN,2016-12-11 15:00,153.1292,-27.3917,68.00,60.80,77.75,190.00,3.00,0.00,30.12,M,6.21,M,FEW,BKN,M,M,2500.00,23000.00,M,M,M,YBBN 111500Z 19003KT 9999 FEW025 BKN230 20/16 Q1020
YBBN,2016-12-11 15:30,153.1292,-27.3917,68.00,60.80,77.75,190.00,5.00,0.00,30.12,M,6.21,M,FEW,BKN,M,M,3500.00,23000.00,M,M,M,YBBN 111530Z 19005KT 9999 FEW035 BKN230 20/16 Q1020 NOSIG
YBBN,2016-12-11 16:00,153.1292,-27.3917,66.20,60.80,82.74,190.00,5.00,0.00,30.12,M,6.21,M,FEW,BKN,M,M,3500.00,23000.00,M,M,M,YBBN 111600Z 19005KT 9999 FEW035 BKN230 19/16 Q1020
YBBN,2016-12-11 16:30,153.1292,-27.3917,66.20,60.80,82.74,190.00,5.00,0.00,30.12,M,6.21,M,FEW,BKN,M,M,3500.00,23000.00,M,M,M,YBBN 111630Z 19005KT 9999 FEW035 BKN230 19/16 Q1020 NOSIG
YBBN,2016-12-11 17:00,153.1292,-27.3917,66.20,60.80,82.74,190.00,5.00,0.00,30.12,M,6.21,M,SCT,BKN,M,M,3500.00,23000.00,M,M,M,YBBN 111700Z 19005KT 9999 SCT035 BKN230 19/16 Q1020
YBBN,2016-12-11 17:30,153.1292,-27.3917,66.20,60.80,82.74,160.00,4.00,0.00,30.12,M,6.21,M,FEW,SCT,M,M,3500.00,24000.00,M,M,M,YBBN 111730Z 16004KT 9999 FEW035 SCT240 19/16 Q1020 NOSIG
YBBN,2016-12-11 18:00,153.1292,-27.3917,66.20,60.80,82.74,160.00,4.00,0.00,30.12,M,6.21,M,FEW,SCT,M,M,3500.00,23000.00,M,M,M,YBBN 111800Z 16004KT 9999 FEW035 SCT230 19/16 Q1020
YBBN,2016-12-11 18:30,153.1292,-27.3917,66.20,60.80,82.74,190.00,4.00,0.00,30.12,M,6.21,M,FEW,SCT,M,M,3500.00,23000.00,M,M,M,YBBN 111830Z 19004KT 9999 FEW035 SCT230 19/16 Q1020 NOSIG
YBBN,2016-12-11 19:00,153.1292,-27.3917,66.20,60.80,82.74,190.00,5.00,0.00,30.15,M,6.21,M,FEW,SCT,M,M,2500.00,23000.00,M,M,M,YBBN 111900Z 19005KT 9999 FEW025 SCT230 19/16 Q1021
YBBN,2016-12-11 19:30,153.1292,-27.3917,68.00,60.80,77.75,180.00,6.00,0.00,30.15,M,6.21,M,FEW,M,M,M,2500.00,M,M,M,M,YBBN 111930Z 18006KT 9999 FEW025 20/16 Q1021 NOSIG
YBBN,2016-12-11 20:00,153.1292,-27.3917,69.80,60.80,73.09,180.00,6.00,0.00,30.15,M,6.21,M,FEW,M,M,M,2500.00,M,M,M,M,YBBN 112000Z 18006KT 9999 FEW025 21/16 Q1021
YBBN,2016-12-11 20:30,153.1292,-27.3917,71.60,60.80,68.75,160.00,6.00,0.00,30.18,M,6.21,M,FEW,M,M,M,2000.00,M,M,M,M,YBBN 112030Z 16006KT 9999 FEW020 22/16 Q1022 NOSIG
YBBN,2016-12-11 21:00,153.1292,-27.3917,73.40,60.80,64.69,150.00,6.00,0.00,30.18,M,6.21,M,FEW,M,M,M,1700.00,M,M,M,M,YBBN 112100Z 15006KT 9999 FEW017 23/16 Q1022 NOSIG
YBBN,2016-12-11 21:30,153.1292,-27.3917,75.20,59.00,57.12,130.00,8.00,0.00,30.18,M,6.21,M,FEW,M,M,M,2000.00,M,M,M,M,YBBN 112130Z 13008KT 9999 FEW020 24/15 Q1022 NOSIG
YBBN,2016-12-11 22:00,153.1292,-27.3917,77.00,59.00,53.80,130.00,8.00,0.00,30.18,M,6.21,M,FEW,M,M,M,2000.00,M,M,M,M,YBBN 112200Z 13008KT 9999 FEW020 25/15 Q1022 NOSIG
YBBN,2016-12-11 22:30,153.1292,-27.3917,77.00,57.20,50.43,110.00,8.00,0.00,30.18,M,6.21,M,FEW,M,M,M,3000.00,M,M,M,M,YBBN 112230Z 11008KT 9999 FEW030 25/14 Q1022 NOSIG
YBBN,2016-12-11 23:00,153.1292,-27.3917,77.00,57.20,50.43,110.00,9.00,0.00,30.18,M,6.21,M,FEW,M,M,M,3500.00,M,M,M,M,YBBN 112300Z 11009KT 9999 FEW035 25/14 Q1022 NOSIG
YBBN,2016-12-11 23:30,153.1292,-27.3917,78.80,60.80,54.05,110.00,8.00,0.00,30.18,M,6.21,M,SCT,M,M,M,3500.00,M,M,M,M,YBBN 112330Z 11008KT 9999 SCT035 26/16 Q1022 NOSIG
