#DEBUG: Format Typ    -> comma
#DEBUG: Time Period   -> 2016-12-31 00:00:00+00:00 2017-01-01 00:00:00+00:00
#DEBUG: Time Zone     -> Etc/UTC
#DEBUG: Data Contact   -> daryl herzmann akrherz@iastate.edu 515-294-5978
#DEBUG: Entries Found -> -1
station,valid,lon,lat,tmpf, dwpf, relh, drct, sknt, p01i, alti, mslp, vsby, gust, skyc1, skyc2, skyc3, skyc4, skyl1, skyl2, skyl3, skyl4, presentwx, metar
YBBN,2016-12-31 00:00,153.1292,-27.3917,84.20,73.40,70.08,20.00,13.00,0.00,29.71,M,6.21,M,FEW,M,M,M,3000.00,M,M,M,M,YBBN 310000Z 02013KT 9999 FEW030 29/23 Q1006 NOSIG
YBBN,2016-12-31 00:30,153.1292,-27.3917,84.20,75.20,74.44,30.00,15.00,0.00,29.71,M,6.21,M,FEW,M,M,M,3000.00,M,M,M,M,YBBN 310030Z 03015KT 9999 FEW030 29/24 Q1006 NOSIG
YBBN,2016-12-31 01:00,153.1292,-27.3917,86.00,75.20,70.27,20.00,16.00,0.00,29.71,M,6.21,M,FEW,M,M,M,3000.00,M,M,M,M,YBBN 310100Z 02016KT 9999 FEW030 30/24 Q1006
YBBN,2016-12-31 01:30,153.1292,-27.3917,84.20,73.40,70.08,20.00,17.00,0.00,29.68,M,6.21,M,FEW,M,M,M,3000.00,M,M,M,M,YBBN 310130Z 02017KT 9999 FEW030 29/23 Q1005 NOSIG
YBBN,2016-12-31 02:00,153.1292,-27.3917,84.20,73.40,70.08,20.00,16.00,0.00,29.68,M,6.21,M,FEW,M,M,M,3000.00,M,M,M,M,YBBN 310200Z 02016KT 9999 FEW030 29/23 Q1005 NOSIG
YBBN,2016-12-31 02:30,153.1292,-27.3917,86.00,75.20,70.27,30.00,16.00,0.00,29.68,M,6.21,M,FEW,M,M,M,3000.00,M,M,M,M,YBBN 310230Z 03016KT 9999 FEW030 30/24 Q1005 NOSIG
YBBN,2016-12-31 03:00,153.1292,-27.3917,84.20,75.20,74.44,20.00,16.00,0.00,29.65,M,6.21,M,FEW,M,M,M,3000.00,M,M,M,M,YBBN 310300Z 02016KT 9999 FEW030 29/24 Q1004
YBBN,2016-12-31 03:30,153.1292,-27.3917,86.00,73.40,66.15,20.00,19.00,0.00,29.65,M,6.21,M,FEW,M,M,M,3000.00,M,M,M,M,YBBN 310330Z 02019KT 9999 FEW030 30/23 Q1004 NOSIG
YBBN,2016-12-31 04:00,153.1292,-27.3917,86.00,75.20,70.27,20.00,18.00,0.00,29.65,M,6.21,M,FEW,M,M,M,3000.00,M,M,M,M,YBBN 310400Z 02018KT 9999 FEW030 30/24 Q1004
YBBN,2016-12-31 04:30,153.1292,-27.3917,84.20,75.20,74.44,10.00,19.00,0.00,29.62,M,6.21,M,FEW,M,M,M,3000.00,M,M,M,M,YBBN 310430Z 01019KT 9999 FEW030 29/24 Q1003 NOSIG
YBBN,2016-12-31 05:00,153.1292,-27.3917,84.20,73.40,70.08,10.00,17.00,0.00,29.62,M,6.21,M,FEW,M,M,M,3000.00,M,M,M,M,YBBN 310500Z 01017KT 9999 FEW030 29/23 Q1003
YBBN,2016-12-31 05:30,153.1292,-27.3917,84.20,75.20,74.44,10.00,19.00,0.00,29.62,M,6.21,M,FEW,M,M,M,3000.00,M,M,M,M,YBBN 310530Z 01019KT 9999 FEW030 29/24 Q1003 NOSIG
YBBN,2016-12-31 06:00,153.1292,-27.3917,82.40,75.20,78.90,20.00,17.00,0.00,29.62,M,6.21,M,FEW,M,M,M,2800.00,M,M,M,M,YBBN 310600Z 02017KT 9999 FEW028 28/24 Q1003
YBBN,2016-12-31 06:30,153.1292,-27.3917,82.40,75.20,78.90,10.00,18.00,0.00,29.62,M,6.21,M,FEW,M,M,M,2500.00,M,M,M,M,YBBN 310630Z 01018KT 9999 FEW025 28/24 Q1003 NOSIG
YBBN,2016-12-31 07:00,153.1292,-27.3917,82.40,75.20,78.90,10.00,18.00,0.00,29.62,M,6.21,M,FEW,M,M,M,2500.00,M,M,M,M,YBBN 310700Z 01018KT 9999 FEW025 28/24 Q1003
YBBN,2016-12-31 07:30,153.1292,-27.3917,82.40,75.20,78.90,10.00,18.00,0.00,29.62,M,6.21,M,M,M,M,M,M,M,M,M,M,YBBN 310730Z 01018KT CAVOK 28/24 Q1003
YBBN,2016-12-31 08:00,153.1292,-27.3917,80.60,75.20,83.66,10.00,18.00,0.00,29.62,M,6.21,M,FEW,M,M,M,1000.00,M,M,M,M,YBBN 310800Z 01018KT 9999 FEW010 27/24 Q1003
YBBN,2016-12-31 09:00,153.1292,-27.3917,80.60,75.20,83.66,10.00,16.00,0.00,29.62,M,6.21,M,M,M,M,M,M,M,M,M,M,YBBN 310900Z 01016KT CAVOK 27/24 Q1003
YBBN,2016-12-31 10:00,153.1292,-27.3917,80.60,75.20,83.66,10.00,15.00,0.00,29.65,M,6.21,M,M,M,M,M,M,M,M,M,M,YBBN 311000Z 01015KT CAVOK 27/24 Q1004
YBBN,2016-12-31 11:00,153.1292,-27.3917,80.60,75.20,83.66,360.00,18.00,0.00,29.65,M,6.21,M,M,M,M,M,M,M,M,M,M,YBBN 311100Z 36018KT CAVOK 27/24 Q1004
YBBN,2016-12-31 11:14,153.1292,-27.3917,80.60,75.20,83.66,10.00,17.00,0.00,29.68,M,6.21,27.00,M,M,M,M,M,M,M,M,M,YBBN 311114Z 01017G27KT CAVOK 27/24 Q1005
YBBN,2016-12-31 12:00,153.1292,-27.3917,78.80,75.20,88.75,360.00,17.00,0.00,29.68,M,6.21,M,M,M,M,M,M,M,M,M,M,YBBN 311200Z 36017KT CAVOK 26/24 Q1005
YBBN,2016-12-31 13:00,153.1292,-27.3917,78.80,75.20,88.75,10.00,15.00,0.00,29.68,M,6.21,M,M,M,M,M,M,M,M,M,M,YBBN 311300Z 01015KT CAVOK 26/24 Q1005
YBBN,2016-12-31 14:00,153.1292,-27.3917,78.80,75.20,88.75,360.00,13.00,0.00,29.68,M,6.21,M,M,M,M,M,M,M,M,M,M,YBBN 311400Z 36013KT CAVOK 26/24 Q1005
YBBN,2016-12-31 15:00,153.1292,-27.3917,78.80,71.60,78.62,360.00,13.00,0.00,29.65,M,6.21,M,M,M,M,M,M,M,M,M,M,YBBN 311500Z 36013KT CAVOK 26/22 Q1004 NOSIG
YBBN,2016-12-31 15:30,153.1292,-27.3917,78.80,71.60,78.62,360.00,13.00,0.00,29.65,M,6.21,M,M,M,M,M,M,M,M,M,M,YBBN 311530Z 36013KT CAVOK 26/22 Q1004 NOSIG
YBBN,2016-12-31 16:00,153.1292,-27.3917,78.80,71.60,78.62,350.00,12.00,0.00,29.65,M,6.21,M,M,M,M,M,M,M,M,M,M,YBBN 311600Z 35012KT CAVOK 26/22 Q1004 NOSIG
YBBN,2016-12-31 16:30,153.1292,-27.3917,77.00,73.40,88.67,360.00,9.00,0.00,29.65,M,6.21,M,M,M,M,M,M,M,M,M,M,YBBN 311630Z 36009KT CAVOK 25/23 Q1004 NOSIG
YBBN,2016-12-31 17:00,153.1292,-27.3917,77.00,73.40,88.67,360.00,9.00,0.00,29.65,M,6.21,M,M,M,M,M,M,M,M,M,M,YBBN 311700Z 36009KT CAVOK 25/23 Q1004 NOSIG
YBBN,2016-12-31 17:30,153.1292,-27.3917,77.00,71.60,83.44,360.00,12.00,0.00,29.65,M,6.21,M,M,M,M,M,M,M,M,M,M,YBBN 311730Z 36012KT CAVOK 25/22 Q1004 NOSIG
YBBN,2016-12-31 18:00,153.1292,-27.3917,77.00,73.40,88.67,360.00,11.00,0.00,29.65,M,6.21,M,M,M,M,M,M,M,M,M,M,YBBN 311800Z 36011KT CAVOK 25/23 Q1004
YBBN,2016-12-31 18:30,153.1292,-27.3917,77.00,73.40,88.67,360.00,11.00,0.00,29.68,M,6.21,M,M,M,M,M,M,M,M,M,M,YBBN 311830Z 36011KT CAVOK 25/23 Q1005 NOSIG
YBBN,2016-12-31 19:00,153.1292,-27.3917,77.00,73.40,88.67,350.00,10.00,0.00,29.68,M,6.21,M,FEW,M,M,M,1200.00,M,M,M,M,YBBN 311900Z 35010KT 9999 FEW012 25/23 Q1005
YBBN,2016-12-31 19:30,153.1292,-27.3917,77.00,73.40,88.67,350.00,9.00,0.00,29.68,M,6.21,M,M,M,M,M,M,M,M,M,M,YBBN 311930Z 35009KT CAVOK 25/23 Q1005 NOSIG
YBBN,2016-12-31 20:00,153.1292,-27.3917,78.80,73.40,83.55,350.00,11.00,0.00,29.71,M,6.21,M,M,M,M,M,M,M,M,M,M,YBBN 312000Z 35011KT CAVOK 26/23 Q1006
YBBN,2016-12-31 20:30,153.1292,-27.3917,80.60,73.40,78.76,360.00,11.00,0.00,29.71,M,6.21,M,FEW,M,M,M,2000.00,M,M,M,M,YBBN 312030Z 36011KT 9999 FEW020 27/23 Q1006 NOSIG
YBBN,2016-12-31 21:00,153.1292,-27.3917,80.60,73.40,78.76,360.00,12.00,0.00,29.74,M,6.21,M,FEW,M,M,M,2000.00,M,M,M,M,YBBN 312100Z 36012KT 9999 FEW020 27/23 Q1007
YBBN,2016-12-31 21:30,153.1292,-27.3917,82.40,71.60,69.90,350.00,13.00,0.00,29.74,M,6.21,M,FEW,M,M,M,2000.00,M,M,M,M,YBBN 312130Z 35013KT 9999 FEW020 28/22 Q1007 NOSIG
YBBN,2016-12-31 22:00,153.1292,-27.3917,82.40,73.40,74.28,360.00,11.00,0.00,29.74,M,6.21,M,FEW,M,M,M,2000.00,M,M,M,M,YBBN 312200Z 36011KT 9999 FEW020 28/23 Q1007
YBBN,2016-12-31 22:30,153.1292,-27.3917,84.20,73.40,70.08,360.00,11.00,0.00,29.74,M,6.21,M,FEW,M,M,M,2000.00,M,M,M,M,YBBN 312230Z 36011KT 9999 FEW020 29/23 Q1007 NOSIG
YBBN,2016-12-31 23:00,153.1292,-27.3917,84.20,73.40,70.08,10.00,13.00,0.00,29.71,M,6.21,M,FEW,M,M,M,2400.00,M,M,M,M,YBBN 312300Z 01013KT 9999 FEW024 29/23 Q1006
YBBN,2016-12-31 23:30,153.1292,-27.3917,86.00,75.20,70.27,20.00,15.00,0.00,29.71,M,6.21,M,FEW,M,M,M,2400.00,M,M,M,M,YBBN 312330Z 02015KT 9999 FEW024 30/24 Q1006 NOSIG
