#DEBUG: Format Typ    -> comma
#DEBUG: Time Period   -> 2016-10-25 00:00:00+00:00 2016-10-26 00:00:00+00:00
#DEBUG: Time Zone     -> Etc/UTC
#DEBUG: Data Contact   -> daryl herzmann akrherz@iastate.edu 515-294-5978
#DEBUG: Entries Found -> -1
station,valid,lon,lat,tmpf, dwpf, relh, drct, sknt, p01i, alti, mslp, vsby, gust, skyc1, skyc2, skyc3, skyc4, skyl1, skyl2, skyl3, skyl4, presentwx, metar
YBBN,2016-10-25 01:00,153.1292,-27.3917,75.20,53.60,46.98,30.00,11.00,0.00,30.09,M,6.21,M,M,M,M,M,M,M,M,M,M,YBBN 250100Z 03011KT CAVOK 24/12 Q1019 NOSIG
YBBN,2016-10-25 01:30,153.1292,-27.3917,75.20,53.60,46.98,20.00,13.00,0.00,30.09,M,6.21,M,M,M,M,M,M,M,M,M,M,YBBN 250130Z 02013KT CAVOK 24/12 Q1019 NOSIG
YBBN,2016-10-25 02:00,153.1292,-27.3917,77.00,53.60,44.25,30.00,15.00,0.00,30.06,M,6.21,M,M,M,M,M,M,M,M,M,M,YBBN 250200Z 03015KT CAVOK 25/12 Q1018
YBBN,2016-10-25 02:30,153.1292,-27.3917,77.00,55.40,47.25,30.00,16.00,0.00,30.06,M,6.21,M,M,M,M,M,M,M,M,M,M,YBBN 250230Z 03016KT CAVOK 25/13 Q1018 NOSIG
YBBN,2016-10-25 03:00,153.1292,-27.3917,75.20,55.40,50.17,20.00,17.00,0.00,30.06,M,6.21,M,FEW,M,M,M,4500.00,M,M,M,M,YBBN 250300Z 02017KT 9999 FEW045 24/13 Q1018 NOSIG
YBBN,2016-10-25 03:30,153.1292,-27.3917,77.00,57.20,50.43,20.00,18.00,0.00,30.03,M,6.21,M,FEW,M,M,M,4500.00,M,M,M,M,YBBN 250330Z 02018KT 9999 FEW045 25/14 Q1017 NOSIG
YBBN,2016-10-25 04:00,153.1292,-27.3917,75.20,57.20,53.55,20.00,16.00,0.00,30.03,M,6.21,M,FEW,M,M,M,4000.00,M,M,M,M,YBBN 250400Z 02016KT 9999 FEW040 24/14 Q1017
YBBN,2016-10-25 04:30,153.1292,-27.3917,75.20,57.20,53.55,20.00,16.00,0.00,30.03,M,6.21,M,FEW,M,M,M,4000.00,M,M,M,M,YBBN 250430Z 02016KT 9999 FEW040 24/14 Q1017 NOSIG
YBBN,2016-10-25 05:00,153.1292,-27.3917,75.20,59.00,57.12,10.00,16.00,0.00,30.03,M,6.21,M,FEW,M,M,M,3600.00,M,M,M,M,YBBN 250500Z 01016KT 9999 FEW036 24/15 Q1017 NOSIG
YBBN,2016-10-25 05:30,153.1292,-27.3917,73.40,59.00,60.67,10.00,17.00,0.00,30.03,M,6.21,M,FEW,M,M,M,3200.00,M,M,M,M,YBBN 250530Z 01017KT 9999 FEW032 23/15 Q1017 NOSIG
YBBN,2016-10-25 06:00,153.1292,-27.3917,73.40,59.00,60.67,10.00,18.00,0.00,30.03,M,6.21,M,FEW,M,M,M,3200.00,M,M,M,M,YBBN 250600Z 01018KT 9999 FEW032 23/15 Q1017
YBBN,2016-10-25 06:30,153.1292,-27.3917,73.40,59.00,60.67,10.00,17.00,0.00,30.03,M,6.21,M,FEW,M,M,M,4000.00,M,M,M,M,YBBN 250630Z 01017KT 9999 FEW040 23/15 Q1017 NOSIG
YBBN,2016-10-25 07:00,153.1292,-27.3917,71.60,57.20,60.44,10.00,17.00,0.00,30.03,M,6.21,M,FEW,M,M,M,4500.00,M,M,M,M,YBBN 250700Z 01017KT 9999 FEW045 22/14 Q1017 NOSIG
YBBN,2016-10-25 07:30,153.1292,-27.3917,71.60,59.00,64.48,10.00,16.00,0.00,30.03,M,6.21,M,FEW,M,M,M,4500.00,M,M,M,M,YBBN 250730Z 01016KT 9999 FEW045 22/15 Q1017 NOSIG
YBBN,2016-10-25 08:00,153.1292,-27.3917,69.80,57.20,64.26,10.00,16.00,0.00,30.06,M,6.21,M,M,M,M,M,M,M,M,M,M,YBBN 250800Z 01016KT CAVOK 21/14 Q1018
YBBN,2016-10-25 08:30,153.1292,-27.3917,69.80,57.20,64.26,10.00,16.00,0.00,30.06,M,6.21,M,M,M,M,M,M,M,M,M,M,YBBN 250830Z 01016KT CAVOK 21/14 Q1018 NOSIG
YBBN,2016-10-25 09:00,153.1292,-27.3917,69.80,57.20,64.26,360.00,15.00,0.00,30.06,M,6.21,M,M,M,M,M,M,M,M,M,M,YBBN 250900Z 36015KT CAVOK 21/14 Q1018
YBBN,2016-10-25 09:30,153.1292,-27.3917,69.80,57.20,64.26,360.00,15.00,0.00,30.06,M,6.21,M,M,M,M,M,M,M,M,M,M,YBBN 250930Z 36015KT CAVOK 21/14 Q1018 NOSIG
YBBN,2016-10-25 10:00,153.1292,-27.3917,69.80,55.40,60.21,360.00,15.00,0.00,30.09,M,6.21,M,M,M,M,M,M,M,M,M,M,YBBN 251000Z 36015KT CAVOK 21/13 Q1019
YBBN,2016-10-25 10:30,153.1292,-27.3917,69.80,55.40,60.21,360.00,15.00,0.00,30.09,M,6.21,M,M,M,M,M,M,M,M,M,M,YBBN 251030Z 36015KT CAVOK 21/13 Q1019 NOSIG
YBBN,2016-10-25 11:00,153.1292,-27.3917,69.80,57.20,64.26,360.00,15.00,0.00,30.09,M,6.21,M,M,M,M,M,M,M,M,M,M,YBBN 251100Z 36015KT CAVOK 21/14 Q1019 NOSIG
YBBN,2016-10-25 11:30,153.1292,-27.3917,69.80,57.20,64.26,360.00,15.00,0.00,30.09,M,6.21,M,M,M,M,M,M,M,M,M,M,YBBN 251130Z 36015KT CAVOK 21/14 Q1019 NOSIG
YBBN,2016-10-25 12:00,153.1292,-27.3917,68.00,55.40,64.04,350.00,12.00,0.00,30.09,M,6.21,M,M,M,M,M,M,M,M,M,M,YBBN 251200Z 35012KT CAVOK 20/13 Q1019 NOSIG
YBBN,2016-10-25 12:30,153.1292,-27.3917,68.00,57.20,68.35,350.00,9.00,0.00,30.09,M,6.21,M,M,M,M,M,M,M,M,M,M,YBBN 251230Z 35009KT CAVOK 20/14 Q1019 NOSIG
YBBN,2016-10-25 13:00,153.1292,-27.3917,66.20,57.20,72.74,340.00,9.00,0.00,30.12,M,6.21,M,M,M,M,M,M,M,M,M,M,YBBN 251300Z 34009KT CAVOK 19/14 Q1020 NOSIG
YBBN,2016-10-25 13:30,153.1292,-27.3917,66.20,55.40,68.15,300.00,5.00,0.00,30.09,M,6.21,M,M,M,M,M,M,M,M,M,M,YBBN 251330Z 30005KT CAVOK 19/13 Q1019 NOSIG
YBBN,2016-10-25 14:00,153.1292,-27.3917,64.40,55.40,72.56,330.00,5.00,0.00,30.09,M,6.21,M,M,M,M,M,M,M,M,M,M,YBBN 251400Z 33005KT CAVOK 18/13 Q1019 NOSIG
YBBN,2016-10-25 14:30,153.1292,-27.3917,64.40,55.40,72.56,310.00,5.00,0.00,30.09,M,6.21,M,M,M,M,M,M,M,M,M,M,YBBN 251430Z 31005KT CAVOK 18/13 Q1019 NOSIG
YBBN,2016-10-25 15:00,153.1292,-27.3917,62.60,55.40,77.29,300.00,4.00,0.00,30.09,M,6.21,M,M,M,M,M,M,M,M,M,M,YBBN 251500Z 30004KT CAVOK 17/13 Q1019
YBBN,2016-10-25 15:30,153.1292,-27.3917,62.60,55.40,77.29,280.00,1.00,0.00,30.09,M,6.21,M,M,M,M,M,M,M,M,M,M,YBBN 251530Z 28001KT CAVOK 17/13 Q1019 NOSIG
YBBN,2016-10-25 16:00,153.1292,-27.3917,62.60,55.40,77.29,0.00,0.00,0.00,30.09,M,6.21,M,M,M,M,M,M,M,M,M,M,YBBN 251600Z 00000KT CAVOK 17/13 Q1019
YBBN,2016-10-25 16:30,153.1292,-27.3917,60.80,55.40,82.37,300.00,5.00,0.00,30.09,M,6.21,M,M,M,M,M,M,M,M,M,M,YBBN 251630Z 30005KT CAVOK 16/13 Q1019 NOSIG
YBBN,2016-10-25 17:00,153.1292,-27.3917,60.80,55.40,82.37,270.00,4.00,0.00,30.06,M,6.21,M,M,M,M,M,M,M,M,M,M,YBBN 251700Z 27004KT CAVOK 16/13 Q1018 NOSIG
YBBN,2016-10-25 17:30,153.1292,-27.3917,60.80,55.40,82.37,250.00,3.00,0.00,30.06,M,6.21,M,M,M,M,M,M,M,M,M,M,YBBN 251730Z 25003KT CAVOK 16/13 Q1018 NOSIG
YBBN,2016-10-25 18:00,153.1292,-27.3917,60.80,55.40,82.37,270.00,3.00,0.00,30.09,M,6.21,M,M,M,M,M,M,M,M,M,M,YBBN 251800Z 27003KT CAVOK 16/13 Q1019
YBBN,2016-10-25 18:30,153.1292,-27.3917,59.00,55.40,87.83,250.00,3.00,0.00,30.09,M,6.21,M,M,M,M,M,M,M,M,M,M,YBBN 251830Z 25003KT CAVOK 15/13 Q1019 NOSIG
YBBN,2016-10-25 19:00,153.1292,-27.3917,59.00,55.40,87.83,0.00,0.00,0.00,30.09,M,6.21,M,M,M,M,M,M,M,M,M,M,YBBN 251900Z 00000KT CAVOK 15/13 Q1019
YBBN,2016-10-25 19:30,153.1292,-27.3917,60.80,55.40,82.37,270.00,4.00,0.00,30.09,M,6.21,M,M,M,M,M,M,M,M,M,M,YBBN 251930Z 27004KT CAVOK 16/13 Q1019 NOSIG
YBBN,2016-10-25 20:00,153.1292,-27.3917,62.60,57.20,82.50,240.00,5.00,0.00,30.12,M,6.21,M,M,M,M,M,M,M,M,M,M,YBBN 252000Z 24005KT CAVOK 17/14 Q1020 NOSIG
YBBN,2016-10-25 20:30,153.1292,-27.3917,66.20,55.40,68.15,260.00,6.00,0.00,30.12,M,6.21,M,M,M,M,M,M,M,M,M,M,YBBN 252030Z 26006KT CAVOK 19/13 Q1020 NOSIG
YBBN,2016-10-25 21:00,153.1292,-27.3917,69.80,55.40,60.21,300.00,7.00,0.00,30.12,M,6.21,M,M,M,M,M,M,M,M,M,M,YBBN 252100Z 30007KT CAVOK 21/13 Q1020 NOSIG
YBBN,2016-10-25 21:30,153.1292,-27.3917,71.60,55.40,56.63,310.00,9.00,0.00,30.15,M,6.21,M,M,M,M,M,M,M,M,M,M,YBBN 252130Z 31009KT CAVOK 22/13 Q1021 NOSIG
YBBN,2016-10-25 22:00,153.1292,-27.3917,73.40,55.40,53.29,320.00,10.00,0.00,30.15,M,6.21,M,M,M,M,M,M,M,M,M,M,YBBN 252200Z 32010KT CAVOK 23/13 Q1021 NOSIG
YBBN,2016-10-25 22:30,153.1292,-27.3917,73.40,55.40,53.29,350.00,9.00,0.00,30.15,M,6.21,M,FEW,M,M,M,4000.00,M,M,M,M,YBBN 252230Z 35009KT 9999 FEW040 23/13 Q1021 NOSIG
YBBN,2016-10-25 23:00,153.1292,-27.3917,75.20,55.40,50.17,360.00,10.00,0.00,30.12,M,6.21,M,FEW,M,M,M,4000.00,M,M,M,M,YBBN 252300Z 36010KT 9999 FEW040 24/13 Q1020 NOSIG
YBBN,2016-10-25 23:30,153.1292,-27.3917,75.20,57.20,53.55,10.00,11.00,0.00,30.12,M,6.21,M,FEW,M,M,M,3500.00,M,M,M,M,YBBN 252330Z 01011KT 9999 FEW035 24/14 Q1020 NOSIG
