#DEBUG: Format Typ    -> comma
#DEBUG: Time Period   -> 2010-04-13 00:00:00+00:00 2010-04-14 00:00:00+00:00
#DEBUG: Time Zone     -> Etc/UTC
#DEBUG: Data Contact   -> daryl herzmann akrherz@iastate.edu 515-294-5978
#DEBUG: Entries Found -> -1
station,valid,lon,lat,tmpf, dwpf, relh, drct, sknt, p01i, alti, mslp, vsby, gust, skyc1, skyc2, skyc3, skyc4, skyl1, skyl2, skyl3, skyl4, presentwx, metar
YBBN,2010-04-13 02:00,153.1292,-27.3917,69.80,62.60,77.90,220.00,7.00,M,30.03,M,6.21,M,FEW,BKN,M,M,2500.00,6200.00,M,M,M,YBBN 130200Z 22007KT 9999 FEW025 BKN062 21/17 Q1017 NOSIG
YBBN,2010-04-13 02:30,153.1292,-27.3917,71.60,60.80,68.75,180.00,7.00,M,30.00,M,6.21,M,FEW,BKN,M,M,2500.00,6000.00,M,M,M,YBBN 130230Z 18007KT 9999 FEW025 BKN060 22/16 Q1016 NOSIG
YBBN,2010-04-13 03:00,153.1292,-27.3917,71.60,59.00,64.48,180.00,7.00,M,30.00,M,6.21,M,FEW,BKN,M,M,2500.00,6500.00,M,M,M,YBBN 130300Z 18007KT 9999 FEW025 BKN065 22/15 Q1016 NOSIG
YBBN,2010-04-13 03:30,153.1292,-27.3917,71.60,59.00,64.48,180.00,8.00,M,30.00,M,6.21,M,FEW,BKN,M,M,2500.00,6500.00,M,M,M,YBBN 130330Z 18008KT 9999 FEW025 BKN065 22/15 Q1016 NOSIG
YBBN,2010-04-13 04:00,153.1292,-27.3917,73.40,59.00,60.67,170.00,8.00,M,30.00,M,6.21,M,FEW,BKN,M,M,2500.00,6800.00,M,M,M,YBBN 130400Z 17008KT 9999 FEW025 BKN068 23/15 Q1016 NOSIG
YBBN,2010-04-13 04:30,153.1292,-27.3917,75.20,57.20,53.55,150.00,11.00,M,30.00,M,6.21,M,FEW,BKN,M,M,2800.00,6800.00,M,M,M,YBBN 130430Z 15011KT 9999 FEW028 BKN068 24/14 Q1016 NOSIG
YBBN,2010-04-13 05:00,153.1292,-27.3917,75.20,57.20,53.55,150.00,10.00,M,30.00,M,6.21,M,FEW,BKN,M,M,3500.00,6600.00,M,M,M,YBBN 130500Z 15010KT 9999 FEW035 BKN066 24/14 Q1016 NOSIG
YBBN,2010-04-13 05:30,153.1292,-27.3917,75.20,57.20,53.55,150.00,10.00,M,30.00,M,6.21,M,FEW,BKN,M,M,3800.00,6800.00,M,M,M,YBBN 130530Z 15010KT 9999 FEW038 BKN068 24/14 Q1016 NOSIG
YBBN,2010-04-13 06:00,153.1292,-27.3917,75.20,55.40,50.17,150.00,12.00,M,30.00,M,6.21,M,FEW,BKN,M,M,4000.00,7000.00,M,M,M,YBBN 130600Z 15012KT 9999 FEW040 BKN070 24/13 Q1016 NOSIG
YBBN,2010-04-13 06:30,153.1292,-27.3917,75.20,57.20,53.55,150.00,9.00,M,30.00,M,6.21,M,FEW,SCT,M,M,4000.00,8000.00,M,M,M,YBBN 130630Z 15009KT 9999 FEW040 SCT080 24/14 Q1016 NOSIG
YBBN,2010-04-13 07:00,153.1292,-27.3917,75.20,55.40,50.17,150.00,10.00,M,30.03,M,6.21,M,FEW,M,M,M,4000.00,M,M,M,M,YBBN 130700Z 15010KT 9999 FEW040 24/13 Q1017 NOSIG
YBBN,2010-04-13 07:30,153.1292,-27.3917,71.60,57.20,60.44,170.00,8.00,M,30.03,M,6.21,M,FEW,M,M,M,3500.00,M,M,M,M,YBBN 130730Z 17008KT 9999 FEW035 22/14 Q1017 NOSIG
YBBN,2010-04-13 08:00,153.1292,-27.3917,69.80,57.20,64.26,170.00,8.00,M,30.03,M,6.21,M,FEW,M,M,M,3000.00,M,M,M,M,YBBN 130800Z 17008KT 9999 FEW030 21/14 Q1017 NOSIG
YBBN,2010-04-13 08:30,153.1292,-27.3917,69.80,57.20,64.26,180.00,8.00,M,30.06,M,6.21,M,FEW,M,M,M,2100.00,M,M,M,VCSH,YBBN 130830Z 18008KT 9999 VCSH FEW021 21/14 Q1018 RMK SH TO EAST NOSIG
YBBN,2010-04-13 09:00,153.1292,-27.3917,69.80,57.20,64.26,180.00,8.00,M,30.06,M,6.21,M,FEW,SCT,M,M,2000.00,6200.00,M,M,VCSH,YBBN 130900Z 18008KT 9999 VCSH FEW020 SCT062 21/14 Q1018 RMK SH TO EAST NOSIG
YBBN,2010-04-13 09:30,153.1292,-27.3917,68.00,57.20,68.35,190.00,8.00,M,30.06,M,6.21,M,FEW,SCT,M,M,2000.00,6000.00,M,M,M,YBBN 130930Z 19008KT 9999 FEW020 SCT060 20/14 Q1018 RMK DISTANT SH TO EAST NOSIG
YBBN,2010-04-13 10:00,153.1292,-27.3917,69.80,57.20,64.26,200.00,7.00,M,30.09,M,6.21,M,FEW,SCT,M,M,2000.00,5700.00,M,M,M,YBBN 131000Z 20007KT 9999 FEW020 SCT057 21/14 Q1019 RMK DISTANT SH TO EAST NOSIG
YBBN,2010-04-13 10:30,153.1292,-27.3917,68.00,57.20,68.35,200.00,8.00,M,30.09,M,6.21,M,FEW,SCT,M,M,2300.00,6100.00,M,M,M,YBBN 131030Z 20008KT 9999 FEW023 SCT061 20/14 Q1019 RMK DISTANT SH TO NE NOSIG
YBBN,2010-04-13 11:00,153.1292,-27.3917,68.00,55.40,64.04,200.00,9.00,M,30.09,M,6.21,M,FEW,SCT,M,M,2300.00,6800.00,M,M,M,YBBN 131100Z 20009KT 9999 FEW023 SCT068 20/13 Q1019 RMK DISTANT SH TO NE NOSIG
YBBN,2010-04-13 11:30,153.1292,-27.3917,68.00,55.40,64.04,210.00,8.00,M,30.09,M,6.21,M,FEW,M,M,M,2300.00,M,M,M,M,YBBN 131130Z 21008KT 9999 FEW023 20/13 Q1019 RMK DISTANT SH TO NE NOSIG
YBBN,2010-04-13 12:00,153.1292,-27.3917,66.20,55.40,68.15,200.00,8.00,M,30.09,M,6.21,M,FEW,M,M,M,2300.00,M,M,M,M,YBBN 131200Z 20008KT 9999 FEW023 19/13 Q1019 RMK DISTANT SH TO NE NOSIG
YBBN,2010-04-13 12:30,153.1292,-27.3917,66.20,53.60,63.82,210.00,7.00,M,30.09,M,6.21,M,FEW,M,M,M,2300.00,M,M,M,M,YBBN 131230Z 21007KT 9999 FEW023 19/12 Q1019 RMK DISTANT SH TO NE NOSIG
YBBN,2010-04-13 13:00,153.1292,-27.3917,64.40,55.40,72.56,210.00,7.00,M,30.06,M,6.21,M,FEW,M,M,M,2300.00,M,M,M,M,YBBN 131300Z 21007KT 9999 FEW023 18/13 Q1018 NOSIG
YBBN,2010-04-13 14:00,153.1292,-27.3917,60.80,55.40,82.37,220.00,8.00,M,30.06,M,6.21,M,FEW,M,M,M,2200.00,M,M,M,M,YBBN 131400Z 22008KT 9999 FEW022 16/13 Q1018 NOSIG
YBBN,2010-04-13 14:30,153.1292,-27.3917,59.00,53.60,82.25,220.00,9.00,M,30.06,M,6.21,M,FEW,M,M,M,2200.00,M,M,M,M,YBBN 131430Z 22009KT 9999 FEW022 15/12 Q1018 NOSIG
YBBN,2010-04-13 15:00,153.1292,-27.3917,59.00,53.60,82.25,220.00,7.00,M,30.06,M,6.21,M,FEW,M,M,M,2200.00,M,M,M,M,YBBN 131500Z 22007KT 9999 FEW022 15/12 Q1018 NOSIG
YBBN,2010-04-13 15:30,153.1292,-27.3917,60.80,55.40,82.37,220.00,7.00,M,30.06,M,6.21,M,FEW,M,M,M,2200.00,M,M,M,M,YBBN 131530Z 22007KT 9999 FEW022 16/13 Q1018 NOSIG
YBBN,2010-04-13 16:00,153.1292,-27.3917,60.80,55.40,82.37,210.00,5.00,M,30.06,M,6.21,M,FEW,SCT,M,M,2200.00,6400.00,M,M,M,YBBN 131600Z 21005KT 9999 FEW022 SCT064 16/13 Q1018 NOSIG
YBBN,2010-04-13 16:30,153.1292,-27.3917,59.00,55.40,87.83,230.00,6.00,M,30.06,M,6.21,M,FEW,SCT,M,M,2200.00,6400.00,M,M,M,YBBN 131630Z 23006KT 9999 FEW022 SCT064 15/13 Q1018 NOSIG
YBBN,2010-04-13 17:00,153.1292,-27.3917,59.00,55.40,87.83,220.00,7.00,M,30.06,M,6.21,M,FEW,SCT,M,M,2200.00,6400.00,M,M,M,YBBN 131700Z 22007KT 9999 FEW022 SCT064 15/13 Q1018 NOSIG
YBBN,2010-04-13 17:30,153.1292,-27.3917,59.00,55.40,87.83,220.00,9.00,M,30.06,M,6.21,M,FEW,M,M,M,2000.00,M,M,M,M,YBBN 131730Z 22009KT 9999 FEW020 15/13 Q1018 NOSIG
YBBN,2010-04-13 18:00,153.1292,-27.3917,60.80,57.20,87.92,220.00,9.00,M,30.06,M,6.21,M,FEW,SCT,M,M,2000.00,5300.00,M,M,M,YBBN 131800Z 22009KT 9999 FEW020 SCT053 16/14 Q1018 NOSIG
YBBN,2010-04-13 18:30,153.1292,-27.3917,62.60,57.20,82.50,210.00,9.00,M,30.06,M,6.21,M,FEW,SCT,M,M,2000.00,5300.00,M,M,M,YBBN 131830Z 21009KT 9999 FEW020 SCT053 17/14 Q1018 NOSIG
YBBN,2010-04-13 19:00,153.1292,-27.3917,62.60,57.20,82.50,220.00,8.00,M,30.06,M,6.21,M,FEW,SCT,M,M,2000.00,5200.00,M,M,M,YBBN 131900Z 22008KT 9999 FEW020 SCT052 17/14 Q1018 RMK DISTANT SH TO NE NOSIG
YBBN,2010-04-13 19:30,153.1292,-27.3917,60.80,57.20,87.92,220.00,9.00,M,30.06,M,6.21,M,FEW,SCT,M,M,2000.00,4200.00,M,M,M,YBBN 131930Z 22009KT 9999 FEW020 SCT042 16/14 Q1018 RMK DISTANT SH TO NE NOSIG
YBBN,2010-04-13 20:00,153.1292,-27.3917,60.80,57.20,87.92,220.00,8.00,M,30.06,M,6.21,M,FEW,M,M,M,2000.00,M,M,M,M,YBBN 132000Z 22008KT 9999 FEW020 16/14 Q1018 NOSIG
YBBN,2010-04-13 20:30,153.1292,-27.3917,60.80,57.20,87.92,230.00,10.00,M,30.09,M,6.21,M,FEW,SCT,M,M,2000.00,6000.00,M,M,M,YBBN 132030Z 23010KT 9999 FEW020 SCT060 16/14 Q1019 NOSIG
YBBN,2010-04-13 21:00,153.1292,-27.3917,62.60,57.20,82.50,220.00,12.00,M,30.09,M,6.21,M,FEW,M,M,M,2000.00,M,M,M,M,YBBN 132100Z 22012KT 9999 FEW020 17/14 Q1019 NOSIG
YBBN,2010-04-13 21:30,153.1292,-27.3917,66.20,57.20,72.74,220.00,13.00,M,30.09,M,6.21,M,FEW,SCT,M,M,2000.00,6000.00,M,M,M,YBBN 132130Z 22013KT 9999 FEW020 SCT060 19/14 Q1019 NOSIG
YBBN,2010-04-13 22:00,153.1292,-27.3917,69.80,59.00,68.55,220.00,13.00,M,30.09,M,6.21,M,FEW,BKN,M,M,2000.00,7000.00,M,M,M,YBBN 132200Z 22013KT 9999 FEW020 BKN070 21/15 Q1019 NOSIG
YBBN,2010-04-13 22:30,153.1292,-27.3917,69.80,59.00,68.55,220.00,14.00,M,30.12,M,6.21,M,FEW,M,M,M,2500.00,M,M,M,M,YBBN 132230Z 22014KT 9999 FEW025 21/15 Q1020 NOSIG
YBBN,2010-04-13 23:00,153.1292,-27.3917,71.60,59.00,64.48,210.00,12.00,M,30.12,M,6.21,M,FEW,M,M,M,2500.00,M,M,M,M,YBBN 132300Z 21012KT 9999 FEW025 22/15 Q1020 NOSIG
YBBN,2010-04-13 23:30,153.1292,-27.3917,71.60,60.80,68.75,210.00,10.00,M,30.12,M,6.21,M,FEW,M,M,M,2500.00,M,M,M,M,YBBN 132330Z 21010KT 9999 FEW025 22/16 Q1020 NOSIG
