#DEBUG: Format Typ    -> comma
#DEBUG: Time Period   -> 2010-01-20 00:00:00+00:00 2010-01-21 00:00:00+00:00
#DEBUG: Time Zone     -> Etc/UTC
#DEBUG: Data Contact   -> daryl herzmann akrherz@iastate.edu 515-294-5978
#DEBUG: Entries Found -> -1
station,valid,lon,lat,tmpf, dwpf, relh, drct, sknt, p01i, alti, mslp, vsby, gust, skyc1, skyc2, skyc3, skyc4, skyl1, skyl2, skyl3, skyl4, presentwx, metar
YBBN,2010-01-20 00:00,153.1292,-27.3917,80.60,62.60,54.30,20.00,8.00,M,29.85,M,6.21,M,FEW,M,M,M,3500.00,M,M,M,M,YBBN 200000Z 02008KT 9999 FEW035 27/17 Q1011 NOSIG
YBBN,2010-01-20 00:30,153.1292,-27.3917,82.40,60.80,48.05,350.00,6.00,M,29.85,M,6.21,M,FEW,M,M,M,4000.00,M,M,M,M,YBBN 200030Z 35006KT 9999 FEW040 28/16 Q1011 NOSIG
YBBN,2010-01-20 01:00,153.1292,-27.3917,84.20,62.60,48.32,30.00,10.00,M,29.85,M,6.21,M,FEW,M,M,M,4000.00,M,M,M,M,YBBN 200100Z 03010KT 9999 FEW040 29/17 Q1011 NOSIG
YBBN,2010-01-20 01:30,153.1292,-27.3917,84.20,62.60,48.32,40.00,11.00,M,29.85,M,6.21,M,FEW,M,M,M,4500.00,M,M,M,M,YBBN 200130Z 04011KT 9999 FEW045 29/17 Q1011 NOSIG
YBBN,2010-01-20 02:00,153.1292,-27.3917,84.20,62.60,48.32,40.00,12.00,M,29.85,M,6.21,M,FEW,M,M,M,4500.00,M,M,M,M,YBBN 200200Z 04012KT 9999 FEW045 29/17 Q1011 NOSIG
YBBN,2010-01-20 02:30,153.1292,-27.3917,84.20,60.80,45.34,40.00,13.00,M,29.83,M,6.21,M,FEW,M,M,M,4500.00,M,M,M,M,YBBN 200230Z 04013KT 9999 FEW045 29/16 Q1010 NOSIG
YBBN,2010-01-20 03:00,153.1292,-27.3917,84.20,60.80,45.34,50.00,13.00,M,29.83,M,6.21,M,FEW,M,M,M,4500.00,M,M,M,M,YBBN 200300Z 05013KT 9999 FEW045 29/16 Q1010 NOSIG
YBBN,2010-01-20 03:30,153.1292,-27.3917,86.00,60.80,42.80,30.00,14.00,M,29.83,M,6.21,M,FEW,M,M,M,4500.00,M,M,M,M,YBBN 200330Z 03014KT 9999 FEW045 30/16 Q1010 NOSIG
YBBN,2010-01-20 04:00,153.1292,-27.3917,86.00,59.00,40.14,40.00,13.00,M,29.80,M,6.21,M,FEW,M,M,M,4500.00,M,M,M,M,YBBN 200400Z 04013KT 9999 FEW045 30/15 Q1009 NOSIG
YBBN,2010-01-20 04:30,153.1292,-27.3917,86.00,59.00,40.14,50.00,12.00,M,29.80,M,6.21,M,FEW,M,M,M,4500.00,M,M,M,M,YBBN 200430Z 05012KT 9999 FEW045 30/15 Q1009 NOSIG
YBBN,2010-01-20 05:00,153.1292,-27.3917,84.20,60.80,45.34,40.00,12.00,M,29.80,M,6.21,M,M,M,M,M,M,M,M,M,M,YBBN 200500Z 04012KT CAVOK 29/16 Q1009 NOSIG
YBBN,2010-01-20 05:30,153.1292,-27.3917,84.20,64.40,51.47,20.00,13.00,M,29.80,M,6.21,M,M,M,M,M,M,M,M,M,M,YBBN 200530Z 02013KT CAVOK 29/18 Q1009 NOSIG
YBBN,2010-01-20 06:00,153.1292,-27.3917,82.40,66.20,58.08,20.00,15.00,M,29.77,M,6.21,M,M,M,M,M,M,M,M,M,M,YBBN 200600Z 02015KT CAVOK 28/19 Q1008 NOSIG
YBBN,2010-01-20 06:30,153.1292,-27.3917,82.40,66.20,58.08,10.00,15.00,M,29.77,M,6.21,M,M,M,M,M,M,M,M,M,M,YBBN 200630Z 01015KT CAVOK 28/19 Q1008 NOSIG
YBBN,2010-01-20 07:00,153.1292,-27.3917,82.40,64.40,54.55,10.00,14.00,M,29.77,M,6.21,M,M,M,M,M,M,M,M,M,M,YBBN 200700Z 01014KT CAVOK 28/18 Q1008 NOSIG
YBBN,2010-01-20 07:30,153.1292,-27.3917,80.60,64.40,57.84,10.00,13.00,M,29.80,M,6.21,M,M,M,M,M,M,M,M,M,M,YBBN 200730Z 01013KT CAVOK 27/18 Q1009 NOSIG
YBBN,2010-01-20 08:00,153.1292,-27.3917,80.60,64.40,57.84,10.00,13.00,M,29.80,M,6.21,M,M,M,M,M,M,M,M,M,M,YBBN 200800Z 01013KT CAVOK 27/18 Q1009 NOSIG
YBBN,2010-01-20 08:30,153.1292,-27.3917,78.80,64.40,61.36,10.00,12.00,M,29.80,M,6.21,M,M,M,M,M,M,M,M,M,M,YBBN 200830Z 01012KT CAVOK 26/18 Q1009 NOSIG
YBBN,2010-01-20 09:00,153.1292,-27.3917,77.00,64.40,65.12,20.00,11.00,M,29.83,M,6.21,M,M,M,M,M,M,M,M,M,M,YBBN 200900Z 02011KT CAVOK 25/18 Q1010 NOSIG
YBBN,2010-01-20 09:30,153.1292,-27.3917,77.00,66.20,69.33,10.00,11.00,M,29.83,M,6.21,M,M,M,M,M,M,M,M,M,M,YBBN 200930Z 01011KT CAVOK 25/19 Q1010 NOSIG
YBBN,2010-01-20 10:00,153.1292,-27.3917,77.00,64.40,65.12,10.00,11.00,M,29.83,M,6.21,M,M,M,M,M,M,M,M,M,M,YBBN 201000Z 01011KT CAVOK 25/18 Q1010 NOSIG
YBBN,2010-01-20 10:30,153.1292,-27.3917,77.00,66.20,69.33,10.00,9.00,M,29.85,M,6.21,M,M,M,M,M,M,M,M,M,M,YBBN 201030Z 01009KT CAVOK 25/19 Q1011 NOSIG
YBBN,2010-01-20 11:00,153.1292,-27.3917,77.00,66.20,69.33,20.00,11.00,M,29.85,M,6.21,M,M,M,M,M,M,M,M,M,M,YBBN 201100Z 02011KT CAVOK 25/19 Q1011 NOSIG
YBBN,2010-01-20 14:00,153.1292,-27.3917,73.40,68.00,83.21,300.00,4.00,M,29.85,M,6.21,M,FEW,M,M,M,2500.00,M,M,M,M,YBBN 201400Z 30004KT 9999 FEW025 23/20 Q1011 NOSIG
YBBN,2010-01-20 14:30,153.1292,-27.3917,73.40,66.20,78.19,300.00,5.00,M,29.85,M,6.21,M,FEW,M,M,M,2500.00,M,M,M,M,YBBN 201430Z 30005KT 9999 FEW025 23/19 Q1011 NOSIG
YBBN,2010-01-20 15:00,153.1292,-27.3917,73.40,66.20,78.19,320.00,6.00,M,29.85,M,6.21,M,FEW,M,M,M,2500.00,M,M,M,M,YBBN 201500Z 32006KT 9999 FEW025 23/19 Q1011 NOSIG
YBBN,2010-01-20 15:30,153.1292,-27.3917,71.60,66.20,83.09,330.00,5.00,M,29.85,M,6.21,M,M,M,M,M,M,M,M,M,M,YBBN 201530Z 33005KT CAVOK 22/19 Q1011 NOSIG
YBBN,2010-01-20 16:00,153.1292,-27.3917,69.80,66.20,88.34,340.00,5.00,M,29.85,M,6.21,M,M,M,M,M,M,M,M,M,M,YBBN 201600Z 34005KT CAVOK 21/19 Q1011 NOSIG
YBBN,2010-01-20 16:30,153.1292,-27.3917,69.80,66.20,88.34,340.00,7.00,M,29.85,M,6.21,M,M,M,M,M,M,M,M,M,M,YBBN 201630Z 34007KT CAVOK 21/19 Q1011 NOSIG
YBBN,2010-01-20 17:00,153.1292,-27.3917,71.60,66.20,83.09,300.00,5.00,M,29.85,M,6.21,M,M,M,M,M,M,M,M,M,M,YBBN 201700Z 30005KT CAVOK 22/19 Q1011 NOSIG
YBBN,2010-01-20 17:30,153.1292,-27.3917,69.80,66.20,88.34,280.00,4.00,M,29.85,M,6.21,M,M,M,M,M,M,M,M,M,M,YBBN 201730Z 28004KT CAVOK 21/19 Q1011 NOSIG
YBBN,2010-01-20 18:00,153.1292,-27.3917,69.80,66.20,88.34,0.00,0.00,M,29.85,M,6.21,M,M,M,M,M,M,M,M,M,M,YBBN 201800Z 00000KT CAVOK 21/19 Q1011 NOSIG
YBBN,2010-01-20 18:30,153.1292,-27.3917,68.00,66.20,93.97,0.00,0.00,M,29.85,M,6.21,M,FEW,SCT,M,M,2500.00,35000.00,M,M,M,YBBN 201830Z 00000KT 9999 FEW025 SCT350 20/19 Q1011 NOSIG
YBBN,2010-01-20 19:00,153.1292,-27.3917,69.80,64.40,82.98,290.00,5.00,M,29.88,M,6.21,M,FEW,SCT,M,M,2500.00,35000.00,M,M,M,YBBN 201900Z 29005KT 9999 FEW025 SCT350 21/18 Q1012 NOSIG
YBBN,2010-01-20 19:30,153.1292,-27.3917,68.00,66.20,93.97,260.00,5.00,M,29.88,M,6.21,M,FEW,BKN,M,M,2500.00,35000.00,M,M,M,YBBN 201930Z 26005KT 9999 FEW025 BKN350 20/19 Q1012 NOSIG
YBBN,2010-01-20 20:00,153.1292,-27.3917,71.60,66.20,83.09,260.00,5.00,M,29.88,M,6.21,M,FEW,SCT,M,M,2500.00,35000.00,M,M,M,YBBN 202000Z 26005KT 9999 FEW025 SCT350 22/19 Q1012 NOSIG
YBBN,2010-01-20 20:30,153.1292,-27.3917,73.40,66.20,78.19,250.00,5.00,M,29.91,M,6.21,M,FEW,SCT,M,M,2500.00,35000.00,M,M,M,YBBN 202030Z 25005KT 9999 FEW025 SCT350 23/19 Q1013 RMK SMOKE TO WEST NOSIG
YBBN,2010-01-20 21:00,153.1292,-27.3917,77.00,66.20,69.33,260.00,5.00,M,29.91,M,6.21,M,FEW,BKN,M,M,2000.00,35000.00,M,M,M,YBBN 202100Z 26005KT 9999 FEW020 BKN350 25/19 Q1013 RMK SMOKE/HAZE NOSIG
YBBN,2010-01-20 21:30,153.1292,-27.3917,78.80,66.20,65.33,320.00,5.00,M,29.91,M,6.21,M,FEW,BKN,M,M,2600.00,35000.00,M,M,M,YBBN 202130Z 32005KT 9999 FEW026 BKN350 26/19 Q1013 RMK SMOKE/HAZE NOSIG
YBBN,2010-01-20 22:00,153.1292,-27.3917,80.60,66.20,61.58,350.00,5.00,M,29.91,M,6.21,M,FEW,BKN,M,M,3000.00,35000.00,M,M,M,YBBN 202200Z 35005KT 9999 FEW030 BKN350 27/19 Q1013 RMK SMOKE/HAZE NOSIG
YBBN,2010-01-20 22:30,153.1292,-27.3917,80.60,66.20,61.58,360.00,7.00,M,29.91,M,6.21,M,FEW,BKN,M,M,3000.00,35000.00,M,M,M,YBBN 202230Z 36007KT 9999 FEW030 BKN350 27/19 Q1013 RMK SMOKE/HAZE NOSIG
YBBN,2010-01-20 23:00,153.1292,-27.3917,82.40,66.20,58.08,10.00,8.00,M,29.91,M,6.21,M,FEW,BKN,M,M,3000.00,35000.00,M,M,M,YBBN 202300Z 01008KT 9999 FEW030 BKN350 28/19 Q1013 RMK SMOKE/HAZE NOSIG
YBBN,2010-01-20 23:30,153.1292,-27.3917,82.40,66.20,58.08,10.00,8.00,M,29.91,M,6.21,M,FEW,BKN,M,M,3000.00,35000.00,M,M,M,YBBN 202330Z 01008KT 9999 FEW030 BKN350 28/19 Q1013 RMK SMOKE/HAZE NOSIG
