#DEBUG: Format Typ    -> comma
#DEBUG: Time Period   -> 2016-02-23 00:00:00+00:00 2016-02-24 00:00:00+00:00
#DEBUG: Time Zone     -> Etc/UTC
#DEBUG: Data Contact   -> daryl herzmann akrherz@iastate.edu 515-294-5978
#DEBUG: Entries Found -> -1
station,valid,lon,lat,tmpf, dwpf, relh, drct, sknt, p01i, alti, mslp, vsby, gust, skyc1, skyc2, skyc3, skyc4, skyl1, skyl2, skyl3, skyl4, presentwx, metar
YBBN,2016-02-23 00:30,153.1292,-27.3917,82.40,64.40,54.55,120.00,12.00,0.00,30.09,M,6.21,M,FEW,M,M,M,2000.00,M,M,M,M,YBBN 230030Z 12012KT 9999 FEW020 28/18 Q1019
YBBN,2016-02-23 02:30,153.1292,-27.3917,84.20,64.40,51.47,110.00,12.00,0.00,30.06,M,6.21,M,FEW,SCT,M,M,2700.00,4200.00,M,M,M,YBBN 230230Z 11012KT 9999 FEW027 SCT042 29/18 Q1018
YBBN,2016-02-23 03:00,153.1292,-27.3917,84.20,64.40,51.47,120.00,12.00,0.00,30.03,M,6.21,M,FEW,M,M,M,2700.00,M,M,M,M,YBBN 230300Z 12012KT 9999 FEW027 29/18 Q1017
YBBN,2016-02-23 03:30,153.1292,-27.3917,84.20,62.60,48.32,110.00,14.00,0.00,30.03,M,6.21,M,FEW,M,M,M,2700.00,M,M,M,M,YBBN 230330Z 11014KT 9999 FEW027 29/17 Q1017 NOSIG
YBBN,2016-02-23 04:00,153.1292,-27.3917,82.40,62.60,51.21,110.00,12.00,0.00,30.03,M,6.21,M,FEW,M,M,M,2500.00,M,M,M,M,YBBN 230400Z 11012KT 9999 FEW025 28/17 Q1017 NOSIG
YBBN,2016-02-23 04:30,153.1292,-27.3917,82.40,64.40,54.55,110.00,12.00,0.00,30.00,M,6.21,M,FEW,SCT,M,M,2500.00,4000.00,M,M,M,YBBN 230430Z 11012KT 9999 FEW025 SCT040 28/18 Q1016 NOSIG
YBBN,2016-02-23 05:00,153.1292,-27.3917,82.40,66.20,58.08,110.00,14.00,0.00,30.00,M,6.21,M,FEW,M,M,M,2500.00,M,M,M,M,YBBN 230500Z 11014KT 9999 FEW025 28/19 Q1016
YBBN,2016-02-23 05:30,153.1292,-27.3917,82.40,64.40,54.55,120.00,12.00,0.00,30.00,M,6.21,M,FEW,M,M,M,2500.00,M,M,M,M,YBBN 230530Z 12012KT 9999 FEW025 28/18 Q1016 NOSIG
YBBN,2016-02-23 06:00,153.1292,-27.3917,82.40,64.40,54.55,110.00,12.00,0.00,30.00,M,6.21,M,FEW,M,M,M,2200.00,M,M,M,VCSH,YBBN 230600Z 11012KT 9999 VCSH FEW022 28/18 Q1016 NOSIG
YBBN,2016-02-23 06:30,153.1292,-27.3917,82.40,66.20,58.08,120.00,12.00,0.00,30.00,M,6.21,M,FEW,M,M,M,2200.00,M,M,M,M,YBBN 230630Z 12012KT 9999 FEW022 28/19 Q1016 NOSIG
YBBN,2016-02-23 07:00,153.1292,-27.3917,80.60,64.40,57.84,120.00,13.00,0.00,30.00,M,6.21,M,FEW,M,M,M,2000.00,M,M,M,M,YBBN 230700Z 12013KT 9999 FEW020 27/18 Q1016 NOSIG
YBBN,2016-02-23 07:30,153.1292,-27.3917,78.80,66.20,65.33,120.00,10.00,0.00,30.00,M,6.21,M,FEW,M,M,M,2000.00,M,M,M,M,YBBN 230730Z 12010KT 9999 FEW020 26/19 Q1016 NOSIG
YBBN,2016-02-23 08:00,153.1292,-27.3917,78.80,66.20,65.33,120.00,10.00,0.00,30.00,M,6.21,M,FEW,M,M,M,2000.00,M,M,M,M,YBBN 230800Z 12010KT 9999 FEW020 26/19 Q1016 NOSIG
YBBN,2016-02-23 08:30,153.1292,-27.3917,77.00,66.20,69.33,120.00,10.00,0.00,30.03,M,6.21,M,FEW,M,M,M,2000.00,M,M,M,M,YBBN 230830Z 12010KT 9999 FEW020 25/19 Q1017 NOSIG
YBBN,2016-02-23 09:00,153.1292,-27.3917,77.00,66.20,69.33,110.00,10.00,0.00,30.03,M,6.21,M,FEW,M,M,M,2000.00,M,M,M,M,YBBN 230900Z 11010KT 9999 FEW020 25/19 Q1017
YBBN,2016-02-23 09:30,153.1292,-27.3917,77.00,64.40,65.12,120.00,10.00,0.00,30.03,M,6.21,M,FEW,M,M,M,2000.00,M,M,M,M,YBBN 230930Z 12010KT 9999 FEW020 25/18 Q1017
YBBN,2016-02-23 10:00,153.1292,-27.3917,77.00,66.20,69.33,130.00,9.00,0.00,30.03,M,6.21,M,FEW,M,M,M,2000.00,M,M,M,M,YBBN 231000Z 13009KT 9999 FEW020 25/19 Q1017 NOSIG
YBBN,2016-02-23 10:30,153.1292,-27.3917,77.00,64.40,65.12,130.00,9.00,0.00,30.06,M,6.21,M,FEW,M,M,M,2000.00,M,M,M,M,YBBN 231030Z 13009KT 9999 FEW020 25/18 Q1018 NOSIG
YBBN,2016-02-23 11:00,153.1292,-27.3917,77.00,66.20,69.33,120.00,8.00,0.00,30.06,M,6.21,M,BKN,M,M,M,2700.00,M,M,M,M,YBBN 231100Z 12008KT 9999 BKN027 25/19 Q1018 NOSIG
YBBN,2016-02-23 11:30,153.1292,-27.3917,77.00,64.40,65.12,120.00,7.00,0.00,30.06,M,6.21,17.00,BKN,M,M,M,2700.00,M,M,M,M,YBBN 231130Z 12007G17KT 9999 BKN027 25/18 Q1018 NOSIG
YBBN,2016-02-23 12:00,153.1292,-27.3917,77.00,64.40,65.12,120.00,8.00,0.00,30.06,M,6.21,M,BKN,M,M,M,2700.00,M,M,M,M,YBBN 231200Z 12008KT 9999 BKN027 25/18 Q1018 NOSIG
YBBN,2016-02-23 12:30,153.1292,-27.3917,75.20,64.40,69.14,130.00,8.00,0.00,30.03,M,6.21,M,SCT,M,M,M,2700.00,M,M,M,M,YBBN 231230Z 13008KT 9999 SCT027 24/18 Q1017 NOSIG
YBBN,2016-02-23 13:00,153.1292,-27.3917,75.20,64.40,69.14,150.00,5.00,0.00,30.03,M,6.21,M,SCT,M,M,M,2700.00,M,M,M,M,YBBN 231300Z 15005KT 120V180 9999 SCT027 24/18 Q1017
YBBN,2016-02-23 13:30,153.1292,-27.3917,73.40,66.20,78.19,190.00,1.00,0.00,30.03,M,6.21,M,SCT,M,M,M,2700.00,M,M,M,M,YBBN 231330Z 19001KT 9999 SCT027 23/19 Q1017 NOSIG
YBBN,2016-02-23 14:00,153.1292,-27.3917,73.40,66.20,78.19,200.00,4.00,0.00,30.03,M,6.21,M,SCT,SCT,M,M,2700.00,3900.00,M,M,M,YBBN 231400Z 20004KT 9999 SCT027 SCT039 23/19 Q1017 NOSIG
YBBN,2016-02-23 14:30,153.1292,-27.3917,75.20,66.20,73.61,190.00,4.00,0.00,30.03,M,6.21,M,SCT,SCT,M,M,2700.00,4800.00,M,M,M,YBBN 231430Z 19004KT 9999 SCT027 SCT048 24/19 Q1017 NOSIG
YBBN,2016-02-23 15:00,153.1292,-27.3917,73.40,64.40,73.44,180.00,5.00,0.00,30.00,M,6.21,M,SCT,M,M,M,2700.00,M,M,M,M,YBBN 231500Z 18005KT 9999 SCT027 23/18 Q1016 NOSIG
YBBN,2016-02-23 15:30,153.1292,-27.3917,73.40,64.40,73.44,190.00,5.00,0.00,30.00,M,6.21,M,SCT,M,M,M,2700.00,M,M,M,M,YBBN 231530Z 19005KT 9999 SCT027 23/18 Q1016 NOSIG
YBBN,2016-02-23 16:00,153.1292,-27.3917,71.60,64.40,78.04,190.00,5.00,0.00,30.00,M,6.21,M,FEW,M,M,M,2700.00,M,M,M,M,YBBN 231600Z 19005KT 9999 FEW027 22/18 Q1016 NOSIG
YBBN,2016-02-23 16:30,153.1292,-27.3917,71.60,64.40,78.04,180.00,4.00,0.00,30.00,M,6.21,M,SCT,M,M,M,2700.00,M,M,M,M,YBBN 231630Z 18004KT 9999 SCT027 22/18 Q1016 NOSIG
YBBN,2016-02-23 17:00,153.1292,-27.3917,71.60,64.40,78.04,190.00,5.00,0.00,30.00,M,6.21,M,FEW,M,M,M,2500.00,M,M,M,M,YBBN 231700Z 19005KT 9999 FEW025 22/18 Q1016 NOSIG
YBBN,2016-02-23 17:30,153.1292,-27.3917,71.60,64.40,78.04,190.00,5.00,0.00,30.00,M,6.21,M,SCT,M,M,M,2500.00,M,M,M,M,YBBN 231730Z 19005KT 9999 SCT025 22/18 Q1016 NOSIG
YBBN,2016-02-23 18:00,153.1292,-27.3917,71.60,64.40,78.04,190.00,6.00,0.00,30.00,M,6.21,M,SCT,M,M,M,2500.00,M,M,M,M,YBBN 231800Z 19006KT 9999 SCT025 22/18 Q1016
YBBN,2016-02-23 18:30,153.1292,-27.3917,69.80,64.40,82.98,190.00,5.00,0.00,30.00,M,6.21,M,FEW,M,M,M,2000.00,M,M,M,M,YBBN 231830Z 19005KT 9999 FEW020 21/18 Q1016 NOSIG
YBBN,2016-02-23 19:00,153.1292,-27.3917,69.80,64.40,82.98,200.00,6.00,0.00,30.00,M,6.21,M,FEW,M,M,M,2000.00,M,M,M,M,YBBN 231900Z 20006KT 9999 FEW020 21/18 Q1016
YBBN,2016-02-23 19:30,153.1292,-27.3917,68.00,64.40,88.26,200.00,5.00,0.00,30.00,M,6.21,M,FEW,M,M,M,2000.00,M,M,M,M,YBBN 231930Z 20005KT 9999 FEW020 20/18 Q1016
YBBN,2016-02-23 20:00,153.1292,-27.3917,68.00,64.40,88.26,200.00,6.00,0.00,30.00,M,6.21,M,FEW,M,M,M,2000.00,M,M,M,M,YBBN 232000Z 20006KT 9999 FEW020 20/18 Q1016 NOSIG
YBBN,2016-02-23 23:00,153.1292,-27.3917,80.60,60.80,50.95,130.00,8.00,0.00,30.03,M,6.21,M,FEW,M,M,M,3500.00,M,M,M,M,YBBN 232300Z 13008KT 100V180 9999 FEW035 27/16 Q1017 NOSIG
YBBN,2016-02-23 23:30,153.1292,-27.3917,80.60,59.00,47.79,120.00,8.00,0.00,30.03,M,6.21,M,FEW,M,M,M,4500.00,M,M,M,M,YBBN 232330Z 12008KT 9999 FEW045 27/15 Q1017 NOSIG
