#DEBUG: Format Typ    -> comma
#DEBUG: Time Period   -> 2016-04-04 00:00:00+00:00 2016-04-05 00:00:00+00:00
#DEBUG: Time Zone     -> Etc/UTC
#DEBUG: Data Contact   -> daryl herzmann akrherz@iastate.edu 515-294-5978
#DEBUG: Entries Found -> -1
station,valid,lon,lat,tmpf, dwpf, relh, drct, sknt, p01i, alti, mslp, vsby, gust, skyc1, skyc2, skyc3, skyc4, skyl1, skyl2, skyl3, skyl4, presentwx, metar
YBBN,2016-04-04 00:00,153.1292,-27.3917,80.60,60.80,50.95,120.00,10.00,0.00,30.09,M,6.21,M,SCT,M,M,M,3500.00,M,M,M,M,YBBN 040000Z 12010KT 9999 SCT035 27/16 Q1019 NOSIG
YBBN,2016-04-04 00:30,153.1292,-27.3917,82.40,64.40,54.55,110.00,10.00,0.00,30.09,M,6.21,M,SCT,M,M,M,3800.00,M,M,M,M,YBBN 040030Z 11010KT 9999 SCT038 28/18 Q1019 NOSIG
YBBN,2016-04-04 01:00,153.1292,-27.3917,82.40,62.60,51.21,120.00,10.00,0.00,30.09,M,6.21,M,SCT,M,M,M,3700.00,M,M,M,M,YBBN 040100Z 12010KT 9999 SCT037 28/17 Q1019 NOSIG
YBBN,2016-04-04 01:30,153.1292,-27.3917,82.40,60.80,48.05,140.00,10.00,0.00,30.06,M,6.21,M,SCT,M,M,M,4000.00,M,M,M,M,YBBN 040130Z 14010KT 9999 SCT040 28/16 Q1018 NOSIG
YBBN,2016-04-04 02:00,153.1292,-27.3917,82.40,62.60,51.21,120.00,11.00,0.00,30.06,M,6.21,M,SCT,M,M,M,4200.00,M,M,M,M,YBBN 040200Z 12011KT 9999 SCT042 28/17 Q1018 NOSIG
YBBN,2016-04-04 02:30,153.1292,-27.3917,80.60,66.20,61.58,120.00,10.00,0.00,30.03,M,6.21,M,SCT,M,M,M,4200.00,M,M,M,M,YBBN 040230Z 12010KT 9999 SCT042 27/19 Q1017 NOSIG
YBBN,2016-04-04 03:00,153.1292,-27.3917,82.40,64.40,54.55,140.00,19.00,0.00,30.03,M,6.21,M,FEW,M,M,M,4000.00,M,M,M,M,YBBN 040300Z 14019KT 9999 FEW040 28/18 Q1017
YBBN,2016-04-04 03:30,153.1292,-27.3917,80.60,64.40,57.84,140.00,12.00,0.00,30.03,M,6.21,M,SCT,M,M,M,4000.00,M,M,M,M,YBBN 040330Z 14012KT 9999 SCT040 27/18 Q1017 NOSIG
YBBN,2016-04-04 04:00,153.1292,-27.3917,82.40,60.80,48.05,140.00,12.00,0.00,30.00,M,6.21,M,FEW,M,M,M,4000.00,M,M,M,M,YBBN 040400Z 14012KT 9999 FEW040 28/16 Q1016 NOSIG
YBBN,2016-04-04 04:30,153.1292,-27.3917,80.60,62.60,54.30,130.00,12.00,0.00,30.00,M,6.21,M,SCT,M,M,M,4000.00,M,M,M,VCSH,YBBN 040430Z 13012KT 9999 VCSH SCT040 27/17 Q1016 NOSIG
YBBN,2016-04-04 05:00,153.1292,-27.3917,78.80,66.20,65.33,130.00,10.00,0.00,30.00,M,6.21,M,SCT,SCT,M,M,3500.00,6400.00,M,M,VCSH,YBBN 040500Z 13010KT 9999 VCSH SCT035 SCT064 26/19 Q1016 NOSIG
YBBN,2016-04-04 05:30,153.1292,-27.3917,80.60,62.60,54.30,110.00,13.00,0.00,30.00,M,6.21,M,FEW,SCT,M,M,3500.00,6500.00,M,M,-SHRA,YBBN 040530Z 11013KT 9999 -SHRA FEW035 SCT065 27/17 Q1016 NOSIG
YBBN,2016-04-04 06:00,153.1292,-27.3917,78.80,60.80,54.05,100.00,7.00,0.00,30.00,M,6.21,M,FEW,SCT,M,M,3500.00,6500.00,M,M,-SHRA,YBBN 040600Z 10007KT 9999 -SHRA FEW035 SCT065 26/16 Q1016
YBBN,2016-04-04 06:30,153.1292,-27.3917,78.80,62.60,57.60,140.00,9.00,0.00,30.00,M,6.21,M,FEW,SCT,M,M,3500.00,7500.00,M,M,VCSH,YBBN 040630Z 14009KT 9999 VCSH FEW035 SCT075 26/17 Q1016 NOSIG
YBBN,2016-04-04 07:00,153.1292,-27.3917,78.80,60.80,54.05,130.00,11.00,0.00,30.00,M,6.21,M,FEW,SCT,M,M,3500.00,8000.00,M,M,VCSH,YBBN 040700Z 13011KT 9999 VCSH FEW035 SCT080 26/16 Q1016 NOSIG
YBBN,2016-04-04 07:30,153.1292,-27.3917,77.00,60.80,57.36,140.00,12.00,0.00,30.03,M,6.21,M,FEW,M,M,M,2500.00,M,M,M,M,YBBN 040730Z 14012KT 9999 FEW025 25/16 Q1017 NOSIG
YBBN,2016-04-04 08:00,153.1292,-27.3917,77.00,60.80,57.36,140.00,10.00,0.00,30.03,M,6.21,M,FEW,M,M,M,2000.00,M,M,M,M,YBBN 040800Z 14010KT 9999 FEW020 25/16 Q1017
YBBN,2016-04-04 08:30,153.1292,-27.3917,75.20,64.40,69.14,130.00,10.00,0.00,30.03,M,6.21,M,FEW,M,M,M,2000.00,M,M,M,M,YBBN 040830Z 13010KT 9999 FEW020 24/18 Q1017 NOSIG
YBBN,2016-04-04 09:00,153.1292,-27.3917,75.20,66.20,73.61,130.00,10.00,0.00,30.06,M,6.21,M,FEW,M,M,M,2000.00,M,M,M,M,YBBN 040900Z 13010KT 9999 FEW020 24/19 Q1018
YBBN,2016-04-04 09:30,153.1292,-27.3917,75.20,66.20,73.61,110.00,9.00,0.00,30.06,M,6.21,M,FEW,BKN,M,M,2000.00,8000.00,M,M,M,YBBN 040930Z 11009KT 9999 FEW020 BKN080 24/19 Q1018 NOSIG
YBBN,2016-04-04 10:00,153.1292,-27.3917,75.20,64.40,69.14,120.00,8.00,0.00,30.06,M,6.21,M,FEW,BKN,M,M,3200.00,5000.00,M,M,M,YBBN 041000Z 12008KT 9999 FEW032 BKN050 24/18 Q1018
YBBN,2016-04-04 10:30,153.1292,-27.3917,75.20,64.40,69.14,100.00,9.00,0.00,30.09,M,6.21,M,SCT,BKN,M,M,3500.00,8500.00,M,M,M,YBBN 041030Z 10009KT 9999 SCT035 BKN085 24/18 Q1019 NOSIG
YBBN,2016-04-04 11:00,153.1292,-27.3917,73.40,62.60,68.94,130.00,12.00,0.00,30.09,M,5.59,M,FEW,SCT,BKN,M,2500.00,3300.00,4500.00,M,VCSH,YBBN 041100Z 13012KT 9000 VCSH FEW025 SCT033 BKN045 23/17 Q1019 NOSIG
YBBN,2016-04-04 11:30,153.1292,-27.3917,73.40,60.80,64.69,150.00,5.00,0.00,30.09,M,6.21,M,FEW,BKN,M,M,3500.00,9000.00,M,M,M,YBBN 041130Z 15005KT 9999 FEW035 BKN090 23/16 Q1019 NOSIG
YBBN,2016-04-04 12:00,153.1292,-27.3917,73.40,62.60,68.94,160.00,7.00,0.00,30.06,M,6.21,M,FEW,SCT,BKN,M,2200.00,3300.00,9500.00,M,M,YBBN 041200Z 16007KT 9999 FEW022 SCT033 BKN095 23/17 Q1018 NOSIG
YBBN,2016-04-04 12:30,153.1292,-27.3917,73.40,64.40,73.44,160.00,5.00,0.00,30.09,M,6.21,M,SCT,BKN,M,M,2900.00,9500.00,M,M,M,YBBN 041230Z 16005KT 9999 SCT029 BKN095 23/18 Q1019 NOSIG
YBBN,2016-04-04 13:00,153.1292,-27.3917,75.20,64.40,69.14,150.00,5.00,0.00,30.06,M,6.21,M,FEW,SCT,BKN,M,2000.00,3100.00,4800.00,M,M,YBBN 041300Z 15005KT 9999 FEW020 SCT031 BKN048 24/18 Q1018 NOSIG
YBBN,2016-04-04 13:30,153.1292,-27.3917,75.20,64.40,69.14,120.00,9.00,0.00,30.06,M,6.21,M,FEW,SCT,BKN,M,2000.00,3200.00,10000.00,M,M,YBBN 041330Z 12009KT 9999 FEW020 SCT032 BKN100 24/18 Q1018 NOSIG
YBBN,2016-04-04 14:00,153.1292,-27.3917,73.40,62.60,68.94,130.00,9.00,0.00,30.06,M,6.21,M,FEW,SCT,BKN,M,2000.00,3500.00,11000.00,M,M,YBBN 041400Z 13009KT 9999 FEW020 SCT035 BKN110 23/17 Q1018
YBBN,2016-04-04 14:30,153.1292,-27.3917,71.60,64.40,78.04,190.00,6.00,0.00,30.06,M,6.21,M,M,M,M,M,M,M,M,M,M,YBBN 041430Z 19006KT CAVOK 22/18 Q1018 NOSIG
YBBN,2016-04-04 15:00,153.1292,-27.3917,71.60,62.60,73.27,190.00,4.00,0.00,30.06,M,6.21,M,M,M,M,M,M,M,M,M,M,YBBN 041500Z 19004KT CAVOK 22/17 Q1018 NOSIG
YBBN,2016-04-04 15:30,153.1292,-27.3917,71.60,60.80,68.75,190.00,5.00,0.00,30.03,M,6.21,M,FEW,SCT,M,M,2000.00,11000.00,M,M,M,YBBN 041530Z 19005KT 9999 FEW020 SCT110 22/16 Q1017 NOSIG
YBBN,2016-04-04 16:00,153.1292,-27.3917,69.80,60.80,73.09,190.00,6.00,0.00,30.03,M,6.21,M,FEW,SCT,M,M,4000.00,11000.00,M,M,M,YBBN 041600Z 19006KT 9999 FEW040 SCT110 21/16 Q1017
YBBN,2016-04-04 16:30,153.1292,-27.3917,69.80,60.80,73.09,190.00,7.00,0.00,30.03,M,6.21,M,FEW,SCT,M,M,2000.00,12000.00,M,M,M,YBBN 041630Z 19007KT 9999 FEW020 SCT120 21/16 Q1017 NOSIG
YBBN,2016-04-04 17:00,153.1292,-27.3917,69.80,60.80,73.09,190.00,6.00,0.00,30.03,M,6.21,M,FEW,SCT,M,M,2200.00,12000.00,M,M,M,YBBN 041700Z 19006KT 9999 FEW022 SCT120 21/16 Q1017
YBBN,2016-04-04 17:30,153.1292,-27.3917,69.80,59.00,68.55,190.00,7.00,0.00,30.03,M,6.21,M,SCT,BKN,M,M,3800.00,4900.00,M,M,M,YBBN 041730Z 19007KT 9999 SCT038 BKN049 21/15 Q1017 NOSIG
YBBN,2016-04-04 18:00,153.1292,-27.3917,68.00,59.00,72.92,200.00,7.00,0.00,30.03,M,6.21,M,SCT,M,M,M,3800.00,M,M,M,M,YBBN 041800Z 20007KT 9999 SCT038 20/15 Q1017
YBBN,2016-04-04 18:30,153.1292,-27.3917,68.00,59.00,72.92,200.00,7.00,0.00,30.03,M,6.21,M,SCT,M,M,M,3800.00,M,M,M,M,YBBN 041830Z 20007KT 9999 SCT038 20/15 Q1017 NOSIG
YBBN,2016-04-04 19:00,153.1292,-27.3917,64.40,59.00,82.62,210.00,7.00,0.00,30.03,M,6.21,M,FEW,M,M,M,4000.00,M,M,M,M,YBBN 041900Z 21007KT 9999 FEW040 18/15 Q1017
YBBN,2016-04-04 19:30,153.1292,-27.3917,64.40,59.00,82.62,210.00,9.00,0.00,30.06,M,6.21,M,FEW,M,M,M,4000.00,M,M,M,M,YBBN 041930Z 21009KT 9999 FEW040 18/15 Q1018
YBBN,2016-04-04 20:00,153.1292,-27.3917,64.40,59.00,82.62,200.00,8.00,0.00,30.06,M,6.21,M,FEW,M,M,M,4000.00,M,M,M,M,YBBN 042000Z 20008KT 9999 FEW040 18/15 Q1018 NOSIG
YBBN,2016-04-04 23:30,153.1292,-27.3917,78.80,60.80,54.05,130.00,10.00,0.00,30.09,M,6.21,M,FEW,M,M,M,3500.00,M,M,M,M,YBBN 042330Z 13010KT 120V180 9999 FEW035 26/16 Q1019 NOSIG
