#DEBUG: Format Typ    -> comma
#DEBUG: Time Period   -> 2016-12-08 00:00:00+00:00 2016-12-09 00:00:00+00:00
#DEBUG: Time Zone     -> Etc/UTC
#DEBUG: Data Contact   -> daryl herzmann akrherz@iastate.edu 515-294-5978
#DEBUG: Entries Found -> -1
station,valid,lon,lat,tmpf, dwpf, relh, drct, sknt, p01i, alti, mslp, vsby, gust, skyc1, skyc2, skyc3, skyc4, skyl1, skyl2, skyl3, skyl4, presentwx, metar
YBBN,2016-12-08 00:00,153.1292,-27.3917,77.00,71.60,83.44,30.00,4.00,0.00,29.88,M,4.97,M,BKN,OVC,M,M,800.00,3000.00,M,M,-DZ,YBBN 080000Z 03004KT 350V050 8000 -DZ BKN008 OVC030 25/22 Q1012
YBBN,2016-12-08 00:30,153.1292,-27.3917,77.00,73.40,88.67,290.00,4.00,0.00,29.88,M,6.21,M,FEW,SCT,OVC,M,700.00,1100.00,3000.00,M,M,YBBN 080030Z 29004KT 250V330 9999 FEW007 SCT011 OVC030 25/23 Q1012
YBBN,2016-12-08 01:00,153.1292,-27.3917,78.80,73.40,83.55,320.00,4.00,0.00,29.85,M,6.21,M,BKN,OVC,M,M,1100.00,3400.00,M,M,M,YBBN 080100Z 32004KT 270V350 9999 BKN011 OVC034 26/23 Q1011
YBBN,2016-12-08 01:30,153.1292,-27.3917,78.80,73.40,83.55,10.00,7.00,0.00,29.85,M,6.21,M,SCT,SCT,OVC,M,1500.00,2000.00,3000.00,M,M,YBBN 080130Z 01007KT 9999 SCT015 SCT020 OVC030 26/23 Q1011
YBBN,2016-12-08 02:30,153.1292,-27.3917,78.80,73.40,83.55,10.00,10.00,0.00,29.83,M,6.21,M,FEW,SCT,BKN,M,1400.00,2800.00,12500.00,M,VCSH,YBBN 080230Z 01010KT 9999 VCSH FEW014 SCT028 BKN125 26/23 Q1010 NOSIG
YBBN,2016-12-08 03:00,153.1292,-27.3917,78.80,73.40,83.55,20.00,12.00,0.00,29.83,M,6.21,M,FEW,BKN,M,M,2400.00,12000.00,M,M,M,YBBN 080300Z 02012KT 9999 FEW024 BKN120 26/23 Q1010
YBBN,2016-12-08 03:30,153.1292,-27.3917,78.80,71.60,78.62,20.00,12.00,0.00,29.80,M,6.21,M,FEW,SCT,BKN,M,2400.00,12000.00,15500.00,M,M,YBBN 080330Z 02012KT 9999 FEW024 SCT120 BKN155 26/22 Q1009 NOSIG
YBBN,2016-12-08 04:00,153.1292,-27.3917,77.00,73.40,88.67,20.00,14.00,0.00,29.80,M,6.21,M,FEW,SCT,BKN,M,2600.00,12000.00,14000.00,M,-SHRA,YBBN 080400Z 02014KT 9999 -SHRA FEW026 SCT120 BKN140 25/23 Q1009
YBBN,2016-12-08 04:30,153.1292,-27.3917,77.00,73.40,88.67,20.00,14.00,0.00,29.77,M,6.21,M,FEW,SCT,BKN,M,1800.00,12000.00,15000.00,M,-SHRA,YBBN 080430Z 02014KT 9999 -SHRA FEW018 SCT120 BKN150 25/23 Q1008 NOSIG
YBBN,2016-12-08 05:00,153.1292,-27.3917,77.00,71.60,83.44,20.00,16.00,0.00,29.74,M,6.21,M,FEW,SCT,BKN,M,2500.00,14000.00,16000.00,M,VCSH,YBBN 080500Z 02016KT 9999 VCSH FEW025 SCT140 BKN160 25/22 Q1007 NOSIG
YBBN,2016-12-08 06:00,153.1292,-27.3917,78.80,71.60,78.62,10.00,17.00,0.00,29.71,M,6.21,M,FEW,BKN,M,M,2500.00,25000.00,M,M,M,YBBN 080600Z 01017KT 9999 FEW025 BKN250 26/22 Q1006
YBBN,2016-12-08 07:00,153.1292,-27.3917,77.00,71.60,83.44,10.00,15.00,0.00,29.74,M,6.21,M,NCD,M,M,M,M,M,M,M,//,YBBN 080700Z AUTO 01015KT 9999 // NCD 25/22 Q1007
YBBN,2016-12-08 08:00,153.1292,-27.3917,77.00,71.60,83.44,360.00,7.00,0.00,29.77,M,6.21,M,FEW,BKN,BKN,M,1500.00,3200.00,20500.00,M,M,YBBN 080800Z 36007KT 9999 FEW015 BKN032 BKN205 25/22 Q1008
YBBN,2016-12-08 10:00,153.1292,-27.3917,77.00,73.40,88.67,10.00,7.00,0.00,29.77,M,6.21,M,M,M,M,M,M,M,M,M,M,YBBN 081000Z 01007KT CAVOK 25/23 Q1008
YBBN,2016-12-08 11:00,153.1292,-27.3917,77.00,71.60,83.44,330.00,7.00,0.00,29.77,M,6.21,M,FEW,BKN,M,M,2500.00,12500.00,M,M,VCSH,YBBN 081100Z 33007KT 9999 VCSH FEW025 BKN125 25/22 Q1008
YBBN,2016-12-08 12:00,153.1292,-27.3917,75.20,73.40,94.14,360.00,10.00,0.00,29.77,M,6.21,M,FEW,BKN,BKN,M,2500.00,12000.00,18000.00,M,-SHRA,YBBN 081200Z 36010KT 9999 -SHRA FEW025 BKN120 BKN180 24/23 Q1008
YBBN,2016-12-08 13:00,153.1292,-27.3917,77.00,71.60,83.44,340.00,12.00,0.00,29.80,M,6.21,M,FEW,SCT,BKN,M,2500.00,8000.00,14000.00,M,VCTS,YBBN 081300Z 34012KT 9999 VCTS FEW025CB SCT080 BKN140 25/22 Q1009
YBBN,2016-12-08 13:08,153.1292,-27.3917,75.20,71.60,88.59,330.00,14.00,0.00,29.80,M,3.11,M,SCT,BKN,BKN,M,2500.00,8000.00,14000.00,M,TSRA,YBBN 081308Z 33014KT 5000 TSRA SCT025CB BKN080 BKN140 24/22 Q1009
YBBN,2016-12-08 13:30,153.1292,-27.3917,73.40,71.60,94.10,350.00,16.00,0.00,29.77,M,6.21,M,FEW,SCT,BKN,FEW,1400.00,8000.00,14000.00,2500.00,VCTS,YBBN 081330Z 35016KT 9999 VCTS FEW014 SCT080 BKN140 FEW025CB 23/22 Q1008
YBBN,2016-12-08 14:00,153.1292,-27.3917,73.40,71.60,94.10,290.00,8.00,0.00,29.80,M,6.21,M,FEW,BKN,BKN,M,2500.00,12000.00,18000.00,M,M,YBBN 081400Z 29008KT 260V320 9999 FEW025 BKN120 BKN180 23/22 Q1009
YBBN,2016-12-08 15:00,153.1292,-27.3917,75.20,73.40,94.14,310.00,8.00,0.00,29.80,M,4.97,M,FEW,SCT,BKN,FEW,1400.00,2500.00,4200.00,2500.00,-SHRA VCTS,YBBN 081500Z 31008KT 8000 -SHRA VCTS FEW014 SCT025 BKN042 FEW025CB 24/23 Q1009
YBBN,2016-12-08 17:00,153.1292,-27.3917,75.20,71.60,88.59,340.00,9.00,0.00,29.77,M,6.21,M,M,M,M,M,M,M,M,M,M,YBBN 081700Z 34009KT CAVOK 24/22 Q1008
YBBN,2016-12-08 18:00,153.1292,-27.3917,75.20,71.60,88.59,320.00,8.00,0.00,29.77,M,6.21,M,M,M,M,M,M,M,M,M,M,YBBN 081800Z 32008KT CAVOK 24/22 Q1008
YBBN,2016-12-08 22:00,153.1292,-27.3917,78.80,69.80,73.95,310.00,7.00,0.00,29.80,M,6.21,M,M,M,M,M,M,M,M,M,M,YBBN 082200Z 31007KT CAVOK 26/21 Q1009
YBBN,2016-12-08 23:00,153.1292,-27.3917,78.80,66.20,65.33,250.00,10.00,0.00,29.80,M,6.21,M,FEW,BKN,M,M,2500.00,13000.00,M,M,VCSH,YBBN 082300Z 25010KT 9999 VCSH FEW025 BKN130 26/19 Q1009
