#DEBUG: Format Typ    -> comma
#DEBUG: Time Period   -> 2010-04-03 00:00:00+00:00 2010-04-04 00:00:00+00:00
#DEBUG: Time Zone     -> Etc/UTC
#DEBUG: Data Contact   -> daryl herzmann akrherz@iastate.edu 515-294-5978
#DEBUG: Entries Found -> -1
station,valid,lon,lat,tmpf, dwpf, relh, drct, sknt, p01i, alti, mslp, vsby, gust, skyc1, skyc2, skyc3, skyc4, skyl1, skyl2, skyl3, skyl4, presentwx, metar
YBBN,2010-04-03 00:00,153.1292,-27.3917,77.00,62.60,61.13,150.00,9.00,M,30.06,M,6.21,M,FEW,BKN,M,M,1900.00,2500.00,M,M,M,YBBN 030000Z 15009KT 9999 FEW019 BKN025 25/17 Q1018 NOSIG
YBBN,2010-04-03 00:30,153.1292,-27.3917,77.00,60.80,57.36,150.00,9.00,M,30.06,M,6.21,M,FEW,BKN,M,M,2000.00,2600.00,M,M,M,YBBN 030030Z 15009KT 9999 FEW020 BKN026 25/16 Q1018 NOSIG
YBBN,2010-04-03 01:00,153.1292,-27.3917,78.80,62.60,57.60,140.00,6.00,M,30.03,M,6.21,M,SCT,M,M,M,2800.00,M,M,M,M,YBBN 030100Z 14006KT 9999 SCT028 26/17 Q1017 NOSIG
YBBN,2010-04-03 01:30,153.1292,-27.3917,78.80,62.60,57.60,100.00,11.00,M,30.03,M,6.21,M,SCT,M,M,M,2900.00,M,M,M,M,YBBN 030130Z 10011KT 9999 SCT029 26/17 Q1017 NOSIG
YBBN,2010-04-03 02:00,153.1292,-27.3917,77.00,60.80,57.36,110.00,10.00,M,30.03,M,6.21,M,BKN,SCT,M,M,2900.00,6100.00,M,M,M,YBBN 030200Z 11010KT 9999 BKN029 SCT061 25/16 Q1017 NOSIG
YBBN,2010-04-03 02:30,153.1292,-27.3917,78.80,62.60,57.60,110.00,11.00,M,30.00,M,6.21,M,SCT,M,M,M,3000.00,M,M,M,M,YBBN 030230Z 11011KT 9999 SCT030 26/17 Q1016 NOSIG
YBBN,2010-04-03 03:00,153.1292,-27.3917,78.80,62.60,57.60,110.00,10.00,M,30.00,M,6.21,M,SCT,M,M,M,3000.00,M,M,M,M,YBBN 030300Z 11010KT 9999 SCT030 26/17 Q1016 NOSIG
YBBN,2010-04-03 03:30,153.1292,-27.3917,78.80,62.60,57.60,100.00,11.00,M,29.97,M,6.21,M,SCT,M,M,M,3000.00,M,M,M,M,YBBN 030330Z 10011KT 9999 SCT030 26/17 Q1015 NOSIG
YBBN,2010-04-03 04:00,153.1292,-27.3917,77.00,60.80,57.36,100.00,12.00,M,29.97,M,6.21,M,SCT,M,M,M,2800.00,M,M,M,VCSH,YBBN 030400Z 10012KT 9999 VCSH SCT028 25/16 Q1015 RMK SH TO WEST NOSIG
YBBN,2010-04-03 04:30,153.1292,-27.3917,75.20,62.60,64.91,110.00,9.00,M,29.97,M,6.21,M,SCT,SCT,M,M,2700.00,8900.00,M,M,VCSH,YBBN 030430Z 11009KT 9999 VCSH SCT027 SCT089 24/17 Q1015 RMK SH TO NW NOSIG
YBBN,2010-04-03 05:00,153.1292,-27.3917,77.00,62.60,61.13,120.00,12.00,M,29.97,M,6.21,M,SCT,SCT,M,M,2700.00,8800.00,M,M,VCSH,YBBN 030500Z 12012KT 9999 VCSH SCT027 SCT088 25/17 Q1015 RMK SH TO WEST NOSIG
YBBN,2010-04-03 05:30,153.1292,-27.3917,75.20,62.60,64.91,100.00,11.00,M,29.97,M,6.21,M,SCT,M,M,M,2700.00,M,M,M,VCSH,YBBN 030530Z 10011KT 9999 VCSH SCT027 24/17 Q1015 RMK SH TO NW NOSIG
YBBN,2010-04-03 06:00,153.1292,-27.3917,75.20,62.60,64.91,110.00,9.00,M,29.97,M,6.21,M,FEW,SCT,M,M,2600.00,8900.00,M,M,VCSH,YBBN 030600Z 11009KT 9999 VCSH FEW026 SCT089 24/17 Q1015 RMK SH TO WEST NOSIG
YBBN,2010-04-03 06:30,153.1292,-27.3917,75.20,62.60,64.91,100.00,10.00,M,29.97,M,6.21,M,FEW,SCT,M,M,1800.00,9800.00,M,M,M,YBBN 030630Z 10010KT 9999 FEW018 SCT098 24/17 Q1015 NOSIG
YBBN,2010-04-03 07:00,153.1292,-27.3917,75.20,64.40,69.14,110.00,9.00,M,29.97,M,6.21,M,FEW,M,M,M,1800.00,M,M,M,M,YBBN 030700Z 11009KT 9999 FEW018 24/18 Q1015 NOSIG
YBBN,2010-04-03 07:30,153.1292,-27.3917,73.40,62.60,68.94,120.00,10.00,M,29.97,M,6.21,M,FEW,M,M,M,1700.00,M,M,M,M,YBBN 030730Z 12010KT 9999 FEW017 23/17 Q1015 NOSIG
YBBN,2010-04-03 08:00,153.1292,-27.3917,73.40,64.40,73.44,120.00,10.00,M,29.97,M,6.21,M,FEW,M,M,M,1900.00,M,M,M,M,YBBN 030800Z 12010KT 9999 FEW019 23/18 Q1015 NOSIG
YBBN,2010-04-03 08:30,153.1292,-27.3917,73.40,66.20,78.19,110.00,8.00,M,29.97,M,6.21,M,FEW,M,M,M,2000.00,M,M,M,M,YBBN 030830Z 11008KT 9999 FEW020 23/19 Q1015 NOSIG
YBBN,2010-04-03 09:00,153.1292,-27.3917,73.40,66.20,78.19,110.00,6.00,M,30.00,M,6.21,M,FEW,M,M,M,2200.00,M,M,M,M,YBBN 030900Z 11006KT 9999 FEW022 23/19 Q1016 NOSIG
YBBN,2010-04-03 10:00,153.1292,-27.3917,73.40,60.80,64.69,150.00,6.00,M,30.03,M,6.21,M,FEW,M,M,M,2500.00,M,M,M,M,YBBN 031000Z 15006KT 9999 FEW025 23/16 Q1017 NOSIG
YBBN,2010-04-03 10:30,153.1292,-27.3917,73.40,60.80,64.69,150.00,8.00,M,30.03,M,6.21,M,FEW,M,M,M,3000.00,M,M,M,M,YBBN 031030Z 15008KT 9999 FEW030 23/16 Q1017 NOSIG
YBBN,2010-04-03 11:00,153.1292,-27.3917,73.40,60.80,64.69,140.00,10.00,M,30.03,M,6.21,M,FEW,M,M,M,3000.00,M,M,M,M,YBBN 031100Z 14010KT 9999 FEW030 23/16 Q1017 NOSIG
YBBN,2010-04-03 11:30,153.1292,-27.3917,71.60,60.80,68.75,140.00,8.00,M,30.03,M,6.21,M,FEW,SCT,M,M,3000.00,26000.00,M,M,M,YBBN 031130Z 14008KT 9999 FEW030 SCT260 22/16 Q1017 NOSIG
YBBN,2010-04-03 12:00,153.1292,-27.3917,71.60,60.80,68.75,160.00,7.00,M,30.03,M,6.21,M,FEW,SCT,M,M,3000.00,9000.00,M,M,M,YBBN 031200Z 16007KT 9999 FEW030 SCT090 22/16 Q1017 NOSIG
YBBN,2010-04-03 12:30,153.1292,-27.3917,69.80,60.80,73.09,180.00,7.00,M,30.03,M,6.21,M,FEW,SCT,M,M,3000.00,8400.00,M,M,M,YBBN 031230Z 18007KT 9999 FEW030 SCT084 21/16 Q1017 NOSIG
YBBN,2010-04-03 13:00,153.1292,-27.3917,69.80,60.80,73.09,190.00,7.00,M,30.03,M,6.21,M,FEW,BKN,M,M,3000.00,3000.00,M,M,M,YBBN 031300Z 19007KT 9999 FEW030 BKN030 21/16 Q1017 NOSIG
YBBN,2010-04-03 13:30,153.1292,-27.3917,69.80,60.80,73.09,200.00,7.00,M,30.03,M,6.21,M,FEW,BKN,M,M,3000.00,3000.00,M,M,M,YBBN 031330Z 20007KT 9999 FEW030 BKN030 21/16 Q1017 NOSIG
YBBN,2010-04-03 14:00,153.1292,-27.3917,69.80,60.80,73.09,200.00,6.00,M,30.03,M,6.21,M,FEW,BKN,M,M,3300.00,30000.00,M,M,M,YBBN 031400Z 20006KT 9999 FEW033 BKN300 21/16 Q1017 NOSIG
YBBN,2010-04-03 14:30,153.1292,-27.3917,69.80,60.80,73.09,190.00,5.00,M,30.00,M,6.21,M,FEW,BKN,M,M,3500.00,30000.00,M,M,M,YBBN 031430Z 19005KT 9999 FEW035 BKN300 21/16 Q1016 NOSIG
YBBN,2010-04-03 15:00,153.1292,-27.3917,66.20,60.80,82.74,220.00,6.00,M,30.00,M,6.21,M,FEW,BKN,M,M,3500.00,30000.00,M,M,M,YBBN 031500Z 22006KT 9999 FEW035 BKN300 19/16 Q1016 NOSIG
YBBN,2010-04-03 15:30,153.1292,-27.3917,66.20,60.80,82.74,210.00,6.00,M,30.00,M,6.21,M,M,M,M,M,M,M,M,M,M,YBBN 031530Z 21006KT CAVOK 19/16 Q1016 NOSIG
YBBN,2010-04-03 16:00,153.1292,-27.3917,66.20,60.80,82.74,210.00,7.00,M,30.00,M,6.21,M,M,M,M,M,M,M,M,M,M,YBBN 031600Z 21007KT CAVOK 19/16 Q1016 NOSIG
YBBN,2010-04-03 16:30,153.1292,-27.3917,64.40,60.80,88.09,220.00,8.00,M,30.00,M,6.21,M,M,M,M,M,M,M,M,M,M,YBBN 031630Z 22008KT CAVOK 18/16 Q1016 NOSIG
YBBN,2010-04-03 17:00,153.1292,-27.3917,64.40,60.80,88.09,220.00,7.00,M,30.00,M,6.21,M,M,M,M,M,M,M,M,M,M,YBBN 031700Z 22007KT CAVOK 18/16 Q1016 NOSIG
YBBN,2010-04-03 17:30,153.1292,-27.3917,64.40,60.80,88.09,220.00,7.00,M,30.00,M,6.21,M,M,M,M,M,M,M,M,M,M,YBBN 031730Z 22007KT CAVOK 18/16 Q1016 NOSIG
YBBN,2010-04-03 18:00,153.1292,-27.3917,64.40,60.80,88.09,220.00,7.00,M,30.00,M,6.21,M,M,M,M,M,M,M,M,M,M,YBBN 031800Z 22007KT CAVOK 18/16 Q1016 NOSIG
YBBN,2010-04-03 18:30,153.1292,-27.3917,64.40,60.80,88.09,210.00,7.00,M,30.00,M,6.21,M,M,M,M,M,M,M,M,M,M,YBBN 031830Z 21007KT CAVOK 18/16 Q1016 RMK 5AC092 NOSIG
YBBN,2010-04-03 19:00,153.1292,-27.3917,64.40,60.80,88.09,220.00,6.00,M,30.00,M,6.21,M,M,M,M,M,M,M,M,M,M,YBBN 031900Z 22006KT CAVOK 18/16 Q1016 NOSIG
YBBN,2010-04-03 19:30,153.1292,-27.3917,62.60,60.80,93.83,220.00,7.00,M,30.03,M,6.21,M,FEW,M,M,M,3000.00,M,M,M,M,YBBN 031930Z 22007KT 9999 FEW030 17/16 Q1017 NOSIG
YBBN,2010-04-03 20:00,153.1292,-27.3917,64.40,60.80,88.09,210.00,9.00,M,30.03,M,6.21,M,FEW,M,M,M,3000.00,M,M,M,M,YBBN 032000Z 21009KT 9999 FEW030 18/16 Q1017 NOSIG
YBBN,2010-04-03 20:30,153.1292,-27.3917,64.40,60.80,88.09,220.00,8.00,M,30.03,M,6.21,M,FEW,M,M,M,2200.00,M,M,M,M,YBBN 032030Z 22008KT 9999 FEW022 18/16 Q1017 RMK DISTANT SH TO NE NOSIG
YBBN,2010-04-03 21:00,153.1292,-27.3917,66.20,60.80,82.74,210.00,8.00,M,30.03,M,6.21,M,FEW,SCT,M,M,2200.00,4600.00,M,M,M,YBBN 032100Z 21008KT 9999 FEW022 SCT046 19/16 Q1017 RMK DISTANT SH TO NE NOSIG
YBBN,2010-04-03 21:30,153.1292,-27.3917,69.80,60.80,73.09,210.00,7.00,M,30.06,M,6.21,M,FEW,M,M,M,2500.00,M,M,M,M,YBBN 032130Z 21007KT 9999 FEW025 21/16 Q1018 RMK DISTANT SH TO NE NOSIG
YBBN,2010-04-03 22:00,153.1292,-27.3917,71.60,60.80,68.75,190.00,7.00,M,30.06,M,6.21,M,FEW,M,M,M,2500.00,M,M,M,M,YBBN 032200Z 19007KT 9999 FEW025 22/16 Q1018 RMK DISTANT SH TO NE NOSIG
YBBN,2010-04-03 22:30,153.1292,-27.3917,73.40,62.60,68.94,190.00,8.00,M,30.06,M,6.21,M,FEW,M,M,M,2500.00,M,M,M,M,YBBN 032230Z 19008KT 9999 FEW025 23/17 Q1018 RMK DISTANT SH TO NE NOSIG
YBBN,2010-04-03 23:00,153.1292,-27.3917,75.20,60.80,60.90,180.00,9.00,M,30.06,M,6.21,M,FEW,M,M,M,2100.00,M,M,M,M,YBBN 032300Z 18009KT 9999 FEW021 24/16 Q1018 RMK DISTANT SH TO NE NOSIG
YBBN,2010-04-03 23:30,153.1292,-27.3917,73.40,60.80,64.69,170.00,9.00,M,30.06,M,6.21,M,FEW,SCT,M,M,2200.00,2700.00,M,M,M,YBBN 032330Z 17009KT 9999 FEW022 SCT027 23/16 Q1018 NOSIG
