#DEBUG: Format Typ    -> comma
#DEBUG: Time Period   -> 2016-03-27 00:00:00+00:00 2016-03-28 00:00:00+00:00
#DEBUG: Time Zone     -> Etc/UTC
#DEBUG: Data Contact   -> daryl herzmann akrherz@iastate.edu 515-294-5978
#DEBUG: Entries Found -> -1
station,valid,lon,lat,tmpf, dwpf, relh, drct, sknt, p01i, alti, mslp, vsby, gust, skyc1, skyc2, skyc3, skyc4, skyl1, skyl2, skyl3, skyl4, presentwx, metar
YBBN,2016-03-27 00:00,153.1292,-27.3917,75.20,64.40,69.14,210.00,6.00,0.00,30.03,M,6.21,M,FEW,BKN,M,M,2000.00,11500.00,M,M,M,YBBN 270000Z 21006KT 9999 FEW020 BKN115 24/18 Q1017
YBBN,2016-03-27 03:00,153.1292,-27.3917,77.00,68.00,73.78,120.00,4.00,0.00,30.00,M,6.21,M,SCT,BKN,BKN,M,2300.00,12000.00,14000.00,M,-SHRA,YBBN 270300Z 12004KT 090V160 9999 -SHRA SCT023 BKN120 BKN140 25/20 Q1016
YBBN,2016-03-27 04:00,153.1292,-27.3917,77.00,68.00,73.78,100.00,2.00,0.00,29.97,M,6.21,M,FEW,BKN,BKN,M,2000.00,2200.00,12000.00,M,-SHRA,YBBN 270400Z 10002KT 9999 -SHRA FEW020 BKN022 BKN120 25/20 Q1015
YBBN,2016-03-27 09:00,153.1292,-27.3917,73.40,68.00,83.21,120.00,1.00,0.00,30.03,M,6.21,M,FEW,SCT,OVC,M,1500.00,2000.00,17500.00,M,M,YBBN 270900Z 12001KT 9999 FEW015 SCT020 OVC175 23/20 Q1017
YBBN,2016-03-27 10:00,153.1292,-27.3917,73.40,69.80,88.51,0.00,0.00,0.00,30.03,M,6.21,M,FEW,SCT,BKN,M,1500.00,2000.00,12000.00,M,M,YBBN 271000Z 00000KT 9999 FEW015 SCT020 BKN120 23/21 Q1017
YBBN,2016-03-27 10:30,153.1292,-27.3917,73.40,69.80,88.51,0.00,0.00,0.00,30.06,M,6.21,M,FEW,SCT,BKN,M,1800.00,2200.00,13500.00,M,M,YBBN 271030Z 00000KT 9999 FEW018 SCT022 BKN135 23/21 Q1018
YBBN,2016-03-27 11:00,153.1292,-27.3917,71.60,69.80,94.06,0.00,0.00,0.00,30.03,M,6.21,M,FEW,SCT,OVC,M,1500.00,2000.00,12000.00,M,VCSH,YBBN 271100Z 00000KT 9999 VCSH FEW015 SCT020 OVC120 22/21 Q1017
YBBN,2016-03-27 11:30,153.1292,-27.3917,71.60,69.80,94.06,0.00,0.00,0.00,30.06,M,6.21,M,FEW,SCT,OVC,M,1700.00,2000.00,12000.00,M,-RA,YBBN 271130Z 00000KT 9999 -RA FEW017 SCT020 OVC120 22/21 Q1018 NOSIG
YBBN,2016-03-27 12:00,153.1292,-27.3917,71.60,69.80,94.06,0.00,0.00,0.00,30.03,M,6.21,M,FEW,BKN,BKN,M,1500.00,2000.00,12500.00,M,M,YBBN 271200Z 00000KT 9999 FEW015 BKN020 BKN125 22/21 Q1017 NOSIG
YBBN,2016-03-27 12:30,153.1292,-27.3917,71.60,69.80,94.06,190.00,2.00,0.00,30.03,M,6.21,M,FEW,SCT,M,M,1000.00,2000.00,M,M,M,YBBN 271230Z 19002KT 9999 FEW010 SCT020 22/21 Q1017 NOSIG
YBBN,2016-03-27 13:00,153.1292,-27.3917,71.60,68.00,88.43,0.00,0.00,0.00,30.03,M,6.21,M,FEW,SCT,BKN,M,1500.00,1900.00,2500.00,M,VCSH,YBBN 271300Z 00000KT 9999 VCSH FEW015 SCT019 BKN025 22/20 Q1017
YBBN,2016-03-27 13:30,153.1292,-27.3917,71.60,68.00,88.43,0.00,0.00,0.00,30.03,M,6.21,M,FEW,SCT,BKN,M,1700.00,2000.00,2700.00,M,VCSH,YBBN 271330Z 00000KT 9999 VCSH FEW017 SCT020 BKN027 22/20 Q1017 NOSIG
YBBN,2016-03-27 14:00,153.1292,-27.3917,69.80,68.00,94.01,170.00,3.00,0.00,30.03,M,6.21,M,FEW,SCT,M,M,1700.00,2000.00,M,M,VCSH,YBBN 271400Z 17003KT 9999 VCSH FEW017 SCT020 21/20 Q1017
YBBN,2016-03-27 14:30,153.1292,-27.3917,69.80,68.00,94.01,180.00,4.00,0.00,30.03,M,6.21,M,FEW,M,M,M,1500.00,M,M,M,M,YBBN 271430Z 18004KT 9999 FEW015 21/20 Q1017 NOSIG
YBBN,2016-03-27 15:00,153.1292,-27.3917,68.00,68.00,100.00,220.00,5.00,0.00,30.03,M,6.21,M,FEW,M,M,M,2000.00,M,M,M,M,YBBN 271500Z 22005KT 9999 FEW020 20/20 Q1017
YBBN,2016-03-27 15:30,153.1292,-27.3917,68.00,68.00,100.00,200.00,5.00,0.00,30.03,M,6.21,M,FEW,M,M,M,2000.00,M,M,M,M,YBBN 271530Z 20005KT 9999 FEW020 20/20 Q1017 NOSIG
YBBN,2016-03-27 16:00,153.1292,-27.3917,69.80,68.00,94.01,190.00,5.00,0.00,30.03,M,6.21,M,FEW,M,M,M,2000.00,M,M,M,M,YBBN 271600Z 19005KT 9999 FEW020 21/20 Q1017
YBBN,2016-03-27 16:30,153.1292,-27.3917,68.00,68.00,100.00,190.00,5.00,0.00,30.00,M,6.21,M,FEW,M,M,M,2000.00,M,M,M,M,YBBN 271630Z 19005KT 9999 FEW020 20/20 Q1016 NOSIG
YBBN,2016-03-27 17:00,153.1292,-27.3917,68.00,66.20,93.97,210.00,6.00,0.00,30.03,M,6.21,M,FEW,SCT,M,M,2000.00,12500.00,M,M,M,YBBN 271700Z 21006KT 9999 FEW020 SCT125 20/19 Q1017
YBBN,2016-03-27 17:30,153.1292,-27.3917,68.00,66.20,93.97,220.00,7.00,0.00,30.03,M,6.21,M,FEW,M,M,M,2200.00,M,M,M,M,YBBN 271730Z 22007KT 9999 FEW022 20/19 Q1017 NOSIG
YBBN,2016-03-27 18:00,153.1292,-27.3917,68.00,66.20,93.97,200.00,6.00,0.00,30.03,M,6.21,M,FEW,M,M,M,1500.00,M,M,M,M,YBBN 271800Z 20006KT 9999 FEW015 20/19 Q1017
YBBN,2016-03-27 18:30,153.1292,-27.3917,66.20,66.20,100.00,200.00,6.00,0.00,30.03,M,6.21,M,FEW,M,M,M,1500.00,M,M,M,M,YBBN 271830Z 20006KT 9999 FEW015 19/19 Q1017 NOSIG
YBBN,2016-03-27 19:00,153.1292,-27.3917,66.20,66.20,100.00,210.00,8.00,0.00,30.03,M,6.21,M,FEW,M,M,M,2000.00,M,M,M,M,YBBN 271900Z 21008KT 9999 FEW020 19/19 Q1017
YBBN,2016-03-27 19:30,153.1292,-27.3917,66.20,66.20,100.00,200.00,7.00,0.00,30.03,M,6.21,M,FEW,M,M,M,2000.00,M,M,M,M,YBBN 271930Z 20007KT 9999 FEW020 19/19 Q1017 NOSIG
YBBN,2016-03-27 20:00,153.1292,-27.3917,66.20,64.40,93.92,200.00,6.00,0.00,30.03,M,6.21,M,FEW,M,M,M,2000.00,M,M,M,VCFG,YBBN 272000Z 20006KT 9999 VCFG FEW020 19/18 Q1017
YBBN,2016-03-27 20:30,153.1292,-27.3917,66.20,66.20,100.00,200.00,7.00,0.00,30.06,M,6.21,M,FEW,M,M,M,1400.00,M,M,M,M,YBBN 272030Z 20007KT 9999 FEW014 19/19 Q1018 NOSIG
YBBN,2016-03-27 21:00,153.1292,-27.3917,69.80,66.20,88.34,200.00,6.00,0.00,30.06,M,6.21,M,FEW,M,M,M,1300.00,M,M,M,M,YBBN 272100Z 20006KT 9999 FEW013 21/19 Q1018
YBBN,2016-03-27 21:30,153.1292,-27.3917,71.60,68.00,88.43,210.00,7.00,0.00,30.06,M,6.21,M,FEW,M,M,M,1800.00,M,M,M,M,YBBN 272130Z 21007KT 9999 FEW018 22/20 Q1018 NOSIG
YBBN,2016-03-27 22:00,153.1292,-27.3917,73.40,68.00,83.21,210.00,8.00,0.00,30.09,M,6.21,M,FEW,M,M,M,2300.00,M,M,M,M,YBBN 272200Z 21008KT 9999 FEW023 23/20 Q1019 NOSIG
YBBN,2016-03-27 22:30,153.1292,-27.3917,75.20,68.00,78.34,200.00,7.00,0.00,30.09,M,6.21,M,FEW,M,M,M,2300.00,M,M,M,M,YBBN 272230Z 20007KT 9999 FEW023 24/20 Q1019
YBBN,2016-03-27 23:00,153.1292,-27.3917,77.00,68.00,73.78,200.00,8.00,0.00,30.09,M,6.21,M,FEW,M,M,M,1800.00,M,M,M,M,YBBN 272300Z 20008KT 160V220 9999 FEW018 25/20 Q1019 NOSIG
