#DEBUG: Format Typ    -> comma
#DEBUG: Time Period   -> 2010-02-02 00:00:00+00:00 2010-02-03 00:00:00+00:00
#DEBUG: Time Zone     -> Etc/UTC
#DEBUG: Data Contact   -> daryl herzmann akrherz@iastate.edu 515-294-5978
#DEBUG: Entries Found -> -1
station,valid,lon,lat,tmpf, dwpf, relh, drct, sknt, p01i, alti, mslp, vsby, gust, skyc1, skyc2, skyc3, skyc4, skyl1, skyl2, skyl3, skyl4, presentwx, metar
YBBN,2010-02-02 02:00,153.1292,-27.3917,82.40,64.40,54.55,130.00,11.00,M,29.77,M,6.21,M,FEW,BKN,M,M,3200.00,16000.00,M,M,M,YBBN 020200Z 13011KT 9999 FEW032 BKN160 28/18 Q1008 NOSIG
YBBN,2010-02-02 02:30,153.1292,-27.3917,82.40,64.40,54.55,120.00,13.00,M,29.77,M,6.21,M,FEW,BKN,M,M,3200.00,16000.00,M,M,M,YBBN 020230Z 12013KT 9999 FEW032 BKN160 28/18 Q1008 NOSIG
YBBN,2010-02-02 03:00,153.1292,-27.3917,82.40,64.40,54.55,110.00,13.00,M,29.77,M,6.21,M,FEW,BKN,M,M,3200.00,17000.00,M,M,M,YBBN 020300Z 11013KT 9999 FEW032 BKN170 28/18 Q1008 NOSIG
YBBN,2010-02-02 03:30,153.1292,-27.3917,82.40,64.40,54.55,120.00,13.00,M,29.77,M,6.21,M,FEW,SCT,BKN,M,3200.00,16000.00,25000.00,M,M,YBBN 020330Z 12013KT 9999 FEW032 SCT160 BKN250 28/18 Q1008 NOSIG
YBBN,2010-02-02 04:00,153.1292,-27.3917,80.60,66.20,61.58,120.00,13.00,M,29.77,M,6.21,M,FEW,SCT,BKN,M,3500.00,16000.00,25000.00,M,M,YBBN 020400Z 12013KT 9999 FEW035 SCT160 BKN250 27/19 Q1008 NOSIG
YBBN,2010-02-02 04:30,153.1292,-27.3917,80.60,66.20,61.58,110.00,11.00,M,29.74,M,6.21,M,FEW,SCT,BKN,M,3500.00,16000.00,25000.00,M,M,YBBN 020430Z 11011KT 9999 FEW035 SCT160 BKN250 27/19 Q1007 NOSIG
YBBN,2010-02-02 05:00,153.1292,-27.3917,80.60,64.40,57.84,130.00,11.00,M,29.74,M,6.21,M,FEW,BKN,M,M,3500.00,17000.00,M,M,M,YBBN 020500Z 13011KT 9999 FEW035 BKN170 27/18 Q1007 RMK RASH TO W NOSIG
YBBN,2010-02-02 05:30,153.1292,-27.3917,82.40,64.40,54.55,130.00,13.00,M,29.74,M,6.21,M,FEW,BKN,M,M,3500.00,17500.00,M,M,M,YBBN 020530Z 13013KT 9999 FEW035 BKN175 28/18 Q1007 NOSIG
YBBN,2010-02-02 06:00,153.1292,-27.3917,80.60,64.40,57.84,120.00,11.00,M,29.74,M,6.21,M,SCT,SCT,BKN,M,3500.00,6500.00,17500.00,M,M,YBBN 020600Z 12011KT 9999 SCT035 SCT065 BKN175 27/18 Q1007 NOSIG
YBBN,2010-02-02 06:30,153.1292,-27.3917,80.60,66.20,61.58,110.00,11.00,M,29.74,M,6.21,M,FEW,BKN,M,M,3000.00,17500.00,M,M,M,YBBN 020630Z 11011KT 9999 FEW030 BKN175 27/19 Q1007 NOSIG
YBBN,2010-02-02 07:00,153.1292,-27.3917,80.60,68.00,65.54,110.00,9.00,M,29.74,M,6.21,M,FEW,BKN,M,M,3000.00,17500.00,M,M,M,YBBN 020700Z 11009KT 9999 FEW030 BKN175 27/20 Q1007 NOSIG
YBBN,2010-02-02 07:30,153.1292,-27.3917,75.20,69.80,83.32,110.00,10.00,M,29.74,M,4.97,M,FEW,SCT,BKN,M,1800.00,3000.00,17500.00,M,-SHRA,YBBN 020730Z 11010KT 8000 -SHRA FEW018 SCT030 BKN175 24/21 Q1007 NOSIG
YBBN,2010-02-02 08:00,153.1292,-27.3917,77.00,68.00,73.78,130.00,8.00,M,29.74,M,6.21,M,FEW,BKN,M,M,3500.00,17500.00,M,M,M,YBBN 020800Z 13008KT 9999 FEW035 BKN175 25/20 Q1007 NOSIG
YBBN,2010-02-02 08:30,153.1292,-27.3917,77.00,68.00,73.78,110.00,10.00,M,29.74,M,6.21,M,FEW,BKN,BKN,M,2700.00,3200.00,17000.00,M,VCSH,YBBN 020830Z 11010KT 9999 VCSH FEW027 BKN032 BKN170 25/20 Q1007 NOSIG
YBBN,2010-02-02 20:00,153.1292,-27.3917,71.60,69.80,94.06,210.00,3.00,M,29.77,M,6.21,M,FEW,BKN,M,M,1600.00,18000.00,M,M,M,YBBN 022000Z 21003KT 9999 FEW016 BKN180 22/21 Q1008 NOSIG
YBBN,2010-02-02 20:30,153.1292,-27.3917,73.40,69.80,88.51,160.00,3.00,M,29.77,M,6.21,M,FEW,BKN,M,M,2200.00,18000.00,M,M,M,YBBN 022030Z 16003KT 9999 FEW022 BKN180 23/21 Q1008 NOSIG
YBBN,2010-02-02 21:00,153.1292,-27.3917,77.00,69.80,78.48,100.00,5.00,M,29.77,M,6.21,M,FEW,SCT,M,M,2000.00,4500.00,M,M,M,YBBN 022100Z 10005KT 9999 FEW020 SCT045 25/21 Q1008 NOSIG
YBBN,2010-02-02 21:30,153.1292,-27.3917,78.80,68.00,69.52,100.00,7.00,M,29.80,M,6.21,M,FEW,SCT,M,M,2000.00,18000.00,M,M,M,YBBN 022130Z 10007KT 9999 FEW020 SCT180 26/20 Q1009 NOSIG
YBBN,2010-02-02 22:00,153.1292,-27.3917,80.60,68.00,65.54,80.00,9.00,M,29.80,M,6.21,M,FEW,SCT,M,M,2200.00,4200.00,M,M,M,YBBN 022200Z 08009KT 9999 FEW022 SCT042 27/20 Q1009 NOSIG
YBBN,2010-02-02 22:30,153.1292,-27.3917,80.60,66.20,61.58,90.00,9.00,M,29.80,M,6.21,M,SCT,M,M,M,2500.00,M,M,M,M,YBBN 022230Z 09009KT 9999 SCT025 27/19 Q1009 NOSIG
YBBN,2010-02-02 23:00,153.1292,-27.3917,80.60,66.20,61.58,90.00,9.00,M,29.80,M,6.21,M,SCT,SCT,M,M,2800.00,18000.00,M,M,M,YBBN 022300Z 09009KT 9999 SCT028 SCT180 27/19 Q1009 NOSIG
YBBN,2010-02-02 23:30,153.1292,-27.3917,80.60,66.20,61.58,90.00,11.00,M,29.80,M,6.21,M,SCT,SCT,M,M,3000.00,18000.00,M,M,M,YBBN 022330Z 09011KT 9999 SCT030 SCT180 27/19 Q1009 NOSIG
