#DEBUG: Format Typ    -> comma
#DEBUG: Time Period   -> 2016-09-14 00:00:00+00:00 2016-09-15 00:00:00+00:00
#DEBUG: Time Zone     -> Etc/UTC
#DEBUG: Data Contact   -> daryl herzmann akrherz@iastate.edu 515-294-5978
#DEBUG: Entries Found -> -1
station,valid,lon,lat,tmpf, dwpf, relh, drct, sknt, p01i, alti, mslp, vsby, gust, skyc1, skyc2, skyc3, skyc4, skyl1, skyl2, skyl3, skyl4, presentwx, metar
YBBN,2016-09-14 00:00,153.1292,-27.3917,73.40,64.40,73.44,10.00,12.00,0.00,30.09,M,6.21,M,FEW,M,M,M,2400.00,M,M,M,M,YBBN 140000Z 01012KT 9999 FEW024 23/18 Q1019 NOSIG
YBBN,2016-09-14 00:30,153.1292,-27.3917,75.20,62.60,64.91,10.00,15.00,0.00,30.06,M,6.21,M,FEW,M,M,M,2400.00,M,M,M,M,YBBN 140030Z 01015KT 9999 FEW024 24/17 Q1018 NOSIG
YBBN,2016-09-14 01:00,153.1292,-27.3917,75.20,64.40,69.14,20.00,17.00,0.00,30.06,M,6.21,M,FEW,M,M,M,2400.00,M,M,M,M,YBBN 140100Z 02017KT 9999 FEW024 24/18 Q1018
YBBN,2016-09-14 01:30,153.1292,-27.3917,75.20,64.40,69.14,20.00,16.00,0.00,30.03,M,6.21,M,FEW,M,M,M,2400.00,M,M,M,M,YBBN 140130Z 02016KT 9999 FEW024 24/18 Q1017 NOSIG
YBBN,2016-09-14 02:00,153.1292,-27.3917,77.00,64.40,65.12,20.00,19.00,0.00,30.03,M,6.21,M,FEW,M,M,M,2400.00,M,M,M,M,YBBN 140200Z 02019KT 9999 FEW024 25/18 Q1017
YBBN,2016-09-14 02:30,153.1292,-27.3917,75.20,64.40,69.14,20.00,19.00,0.00,30.03,M,6.21,M,FEW,M,M,M,2400.00,M,M,M,M,YBBN 140230Z 02019KT 9999 FEW024 24/18 Q1017 NOSIG
YBBN,2016-09-14 03:00,153.1292,-27.3917,75.20,64.40,69.14,20.00,19.00,0.00,30.00,M,6.21,M,FEW,M,M,M,2400.00,M,M,M,M,YBBN 140300Z 02019KT 9999 FEW024 24/18 Q1016 NOSIG
YBBN,2016-09-14 03:30,153.1292,-27.3917,75.20,66.20,73.61,20.00,19.00,0.00,30.00,M,6.21,M,FEW,M,M,M,2400.00,M,M,M,M,YBBN 140330Z 02019KT 9999 FEW024 24/19 Q1016 NOSIG
YBBN,2016-09-14 04:00,153.1292,-27.3917,75.20,66.20,73.61,20.00,19.00,0.00,30.00,M,6.21,M,FEW,M,M,M,2400.00,M,M,M,M,YBBN 140400Z 02019KT 9999 FEW024 24/19 Q1016 NOSIG
YBBN,2016-09-14 04:30,153.1292,-27.3917,75.20,66.20,73.61,20.00,19.00,0.00,29.97,M,6.21,M,FEW,M,M,M,2000.00,M,M,M,M,YBBN 140430Z 02019KT 9999 FEW020 24/19 Q1015 NOSIG
YBBN,2016-09-14 05:00,153.1292,-27.3917,71.60,66.20,83.09,20.00,19.00,0.00,29.97,M,6.21,M,FEW,SCT,M,M,2200.00,7000.00,M,M,M,YBBN 140500Z 02019KT 9999 FEW022 SCT070 22/19 Q1015
YBBN,2016-09-14 05:30,153.1292,-27.3917,71.60,66.20,83.09,10.00,19.00,0.00,29.97,M,6.21,M,FEW,SCT,M,M,2200.00,7000.00,M,M,M,YBBN 140530Z 01019KT 9999 FEW022 SCT070 22/19 Q1015
YBBN,2016-09-14 06:00,153.1292,-27.3917,71.60,66.20,83.09,10.00,17.00,0.00,29.97,M,6.21,M,FEW,SCT,M,M,2200.00,8000.00,M,M,M,YBBN 140600Z 01017KT 9999 FEW022 SCT080 22/19 Q1015 NOSIG
YBBN,2016-09-14 06:30,153.1292,-27.3917,71.60,66.20,83.09,10.00,16.00,0.00,29.97,M,6.21,M,FEW,SCT,M,M,2000.00,8000.00,M,M,M,YBBN 140630Z 01016KT 9999 FEW020 SCT080 22/19 Q1015 NOSIG
YBBN,2016-09-14 07:00,153.1292,-27.3917,71.60,66.20,83.09,10.00,17.00,0.00,29.97,M,6.21,M,FEW,SCT,M,M,2000.00,7500.00,M,M,M,YBBN 140700Z 01017KT 9999 FEW020 SCT075 22/19 Q1015
YBBN,2016-09-14 07:30,153.1292,-27.3917,71.60,66.20,83.09,10.00,17.00,0.00,29.97,M,6.21,M,FEW,SCT,M,M,2000.00,7500.00,M,M,M,YBBN 140730Z 01017KT 9999 FEW020 SCT075 22/19 Q1015 NOSIG
YBBN,2016-09-14 08:00,153.1292,-27.3917,69.80,66.20,88.34,10.00,16.00,0.00,30.00,M,6.21,M,FEW,SCT,M,M,2000.00,8200.00,M,M,M,YBBN 140800Z 01016KT 9999 FEW020 SCT082 21/19 Q1016 NOSIG
YBBN,2016-09-14 08:30,153.1292,-27.3917,69.80,66.20,88.34,10.00,15.00,0.00,30.00,M,6.21,M,FEW,M,M,M,2000.00,M,M,M,M,YBBN 140830Z 01015KT 9999 FEW020 21/19 Q1016 NOSIG
YBBN,2016-09-14 09:00,153.1292,-27.3917,69.80,66.20,88.34,10.00,17.00,0.00,30.00,M,6.21,M,FEW,M,M,M,2000.00,M,M,M,M,YBBN 140900Z 01017KT 9999 FEW020 21/19 Q1016 NOSIG
YBBN,2016-09-14 09:30,153.1292,-27.3917,69.80,66.20,88.34,10.00,15.00,0.00,30.00,M,6.21,M,FEW,SCT,M,M,2000.00,25000.00,M,M,M,YBBN 140930Z 01015KT 9999 FEW020 SCT250 21/19 Q1016 NOSIG
YBBN,2016-09-14 10:00,153.1292,-27.3917,69.80,66.20,88.34,10.00,16.00,0.00,30.00,M,6.21,M,FEW,SCT,M,M,2000.00,25000.00,M,M,M,YBBN 141000Z 01016KT 9999 FEW020 SCT250 21/19 Q1016
YBBN,2016-09-14 10:30,153.1292,-27.3917,69.80,66.20,88.34,10.00,16.00,0.00,30.03,M,6.21,M,FEW,M,M,M,2000.00,M,M,M,M,YBBN 141030Z 01016KT 9999 FEW020 21/19 Q1017 NOSIG
YBBN,2016-09-14 11:00,153.1292,-27.3917,69.80,66.20,88.34,10.00,17.00,0.00,30.03,M,6.21,M,FEW,M,M,M,2000.00,M,M,M,M,YBBN 141100Z 01017KT 9999 FEW020 21/19 Q1017
YBBN,2016-09-14 11:17,153.1292,-27.3917,69.80,66.20,88.34,10.00,18.00,0.00,30.03,M,6.21,28.00,FEW,SCT,M,M,2000.00,17000.00,M,M,M,YBBN 141117Z 01018G28KT 9999 FEW020 SCT170 21/19 Q1017
YBBN,2016-09-14 11:30,153.1292,-27.3917,69.80,66.20,88.34,360.00,18.00,0.00,30.03,M,6.21,M,FEW,SCT,M,M,2000.00,17000.00,M,M,M,YBBN 141130Z 36018KT 9999 FEW020 SCT170 21/19 Q1017 NOSIG
YBBN,2016-09-14 12:00,153.1292,-27.3917,69.80,66.20,88.34,360.00,15.00,0.00,30.03,M,6.21,M,FEW,SCT,M,M,2000.00,17500.00,M,M,M,YBBN 141200Z 36015KT 9999 FEW020 SCT175 21/19 Q1017
YBBN,2016-09-14 12:30,153.1292,-27.3917,69.80,66.20,88.34,10.00,16.00,0.00,30.00,M,6.21,M,FEW,SCT,M,M,2000.00,17500.00,M,M,M,YBBN 141230Z 01016KT 9999 FEW020 SCT175 21/19 Q1016 NOSIG
YBBN,2016-09-14 13:00,153.1292,-27.3917,69.80,64.40,82.98,360.00,17.00,0.00,30.00,M,6.21,M,M,M,M,M,M,M,M,M,M,YBBN 141300Z 36017KT CAVOK 21/18 Q1016
YBBN,2016-09-14 13:30,153.1292,-27.3917,69.80,64.40,82.98,360.00,17.00,0.00,30.03,M,6.21,M,M,M,M,M,M,M,M,M,M,YBBN 141330Z 36017KT CAVOK 21/18 Q1017 NOSIG
YBBN,2016-09-14 14:00,153.1292,-27.3917,69.80,62.60,77.90,360.00,15.00,0.00,30.00,M,6.21,M,M,M,M,M,M,M,M,M,M,YBBN 141400Z 36015KT CAVOK 21/17 Q1016
YBBN,2016-09-14 14:30,153.1292,-27.3917,69.80,64.40,82.98,360.00,15.00,0.00,30.00,M,6.21,M,M,M,M,M,M,M,M,M,M,YBBN 141430Z 36015KT CAVOK 21/18 Q1016 NOSIG
YBBN,2016-09-14 15:00,153.1292,-27.3917,69.80,64.40,82.98,360.00,13.00,0.00,30.00,M,6.21,M,FEW,BKN,BKN,M,2000.00,7800.00,19000.00,M,M,YBBN 141500Z 36013KT 9999 FEW020 BKN078 BKN190 21/18 Q1016
YBBN,2016-09-14 16:00,153.1292,-27.3917,68.00,62.60,82.86,360.00,9.00,0.00,30.00,M,6.21,M,M,M,M,M,M,M,M,M,M,YBBN 141600Z 36009KT CAVOK 20/17 Q1016
YBBN,2016-09-14 17:00,153.1292,-27.3917,68.00,64.40,88.26,350.00,8.00,0.00,30.00,M,6.21,M,FEW,OVC,M,M,2000.00,6600.00,M,M,M,YBBN 141700Z 35008KT 9999 FEW020 OVC066 20/18 Q1016
YBBN,2016-09-14 18:00,153.1292,-27.3917,68.00,64.40,88.26,340.00,9.00,0.00,30.00,M,6.21,M,FEW,OVC,M,M,3800.00,6400.00,M,M,M,YBBN 141800Z 34009KT 9999 FEW038 OVC064 20/18 Q1016
YBBN,2016-09-14 19:00,153.1292,-27.3917,66.20,62.60,88.18,310.00,7.00,0.00,30.00,M,6.21,M,SCT,OVC,M,M,3800.00,6600.00,M,M,M,YBBN 141900Z 31007KT 9999 SCT038 OVC066 19/17 Q1016
YBBN,2016-09-14 19:30,153.1292,-27.3917,66.20,62.60,88.18,330.00,6.00,0.00,30.00,M,6.21,M,SCT,OVC,M,M,4100.00,6400.00,M,M,-SHRA,YBBN 141930Z 33006KT 9999 -SHRA SCT041 OVC064 19/17 Q1016
YBBN,2016-09-14 20:00,153.1292,-27.3917,66.20,62.60,88.18,350.00,9.00,0.00,30.00,M,6.21,M,FEW,SCT,BKN,M,1800.00,3900.00,6200.00,M,-SHRA,YBBN 142000Z 35009KT 9999 -SHRA FEW018 SCT039 BKN062 19/17 Q1016
YBBN,2016-09-14 22:00,153.1292,-27.3917,68.00,64.40,88.26,340.00,12.00,0.00,30.03,M,6.21,M,NSC,M,M,M,M,M,M,M,VCSH,YBBN 142200Z 34012KT 9999 VCSH NSC 20/18 Q1017
YBBN,2016-09-14 22:30,153.1292,-27.3917,68.00,62.60,82.86,320.00,10.00,0.00,30.03,M,6.21,M,NSC,M,M,M,M,M,M,M,VCSH,YBBN 142230Z 32010KT 9999 VCSH NSC 20/17 Q1017
YBBN,2016-09-14 23:00,153.1292,-27.3917,69.80,62.60,77.90,310.00,10.00,0.00,30.03,M,6.21,M,FEW,SCT,BKN,M,1800.00,6500.00,7800.00,M,VCSH,YBBN 142300Z 31010KT 9999 VCSH FEW018 SCT065 BKN078 21/17 Q1017
YBBN,2016-09-14 23:30,153.1292,-27.3917,69.80,62.60,77.90,320.00,8.00,0.00,30.03,M,6.21,M,FEW,BKN,M,M,1800.00,7400.00,M,M,M,YBBN 142330Z 32008KT 9999 FEW018 BKN074 21/17 Q1017 NOSIG
