#DEBUG: Format Typ    -> comma
#DEBUG: Time Period   -> 2016-04-20 00:00:00+00:00 2016-04-21 00:00:00+00:00
#DEBUG: Time Zone     -> Etc/UTC
#DEBUG: Data Contact   -> daryl herzmann akrherz@iastate.edu 515-294-5978
#DEBUG: Entries Found -> -1
station,valid,lon,lat,tmpf, dwpf, relh, drct, sknt, p01i, alti, mslp, vsby, gust, skyc1, skyc2, skyc3, skyc4, skyl1, skyl2, skyl3, skyl4, presentwx, metar
YBBN,2016-04-20 00:00,153.1292,-27.3917,77.00,59.00,53.80,190.00,7.00,0.00,30.15,M,6.21,M,FEW,M,M,M,3000.00,M,M,M,M,YBBN 200000Z 19007KT 140V220 9999 FEW030 25/15 Q1021
YBBN,2016-04-20 00:30,153.1292,-27.3917,78.80,59.00,50.69,170.00,6.00,0.00,30.15,M,6.21,M,FEW,M,M,M,3300.00,M,M,M,M,YBBN 200030Z 17006KT 120V220 9999 FEW033 26/15 Q1021
YBBN,2016-04-20 01:00,153.1292,-27.3917,80.60,60.80,50.95,110.00,7.00,0.00,30.15,M,6.21,M,FEW,M,M,M,3700.00,M,M,M,M,YBBN 200100Z 11007KT 090V170 9999 FEW037 27/16 Q1021
YBBN,2016-04-20 01:30,153.1292,-27.3917,78.80,59.00,50.69,100.00,7.00,0.00,30.12,M,6.21,M,SCT,M,M,M,4000.00,M,M,M,M,YBBN 200130Z 10007KT 9999 SCT040 26/15 Q1020 NOSIG
YBBN,2016-04-20 02:00,153.1292,-27.3917,78.80,59.00,50.69,100.00,8.00,0.00,30.12,M,6.21,M,FEW,M,M,M,4200.00,M,M,M,M,YBBN 200200Z 10008KT 9999 FEW042 26/15 Q1020
YBBN,2016-04-20 02:30,153.1292,-27.3917,78.80,60.80,54.05,90.00,8.00,0.00,30.12,M,6.21,M,FEW,M,M,M,4200.00,M,M,M,M,YBBN 200230Z 09008KT 9999 FEW042 26/16 Q1020 NOSIG
YBBN,2016-04-20 03:00,153.1292,-27.3917,78.80,62.60,57.60,110.00,10.00,0.00,30.09,M,6.21,M,FEW,M,M,M,4000.00,M,M,M,M,YBBN 200300Z 11010KT 9999 FEW040 26/17 Q1019 NOSIG
YBBN,2016-04-20 03:30,153.1292,-27.3917,78.80,64.40,61.36,110.00,11.00,0.00,30.09,M,6.21,M,FEW,M,M,M,4000.00,M,M,M,M,YBBN 200330Z 11011KT 9999 FEW040 26/18 Q1019
YBBN,2016-04-20 04:00,153.1292,-27.3917,78.80,62.60,57.60,110.00,11.00,0.00,30.09,M,6.21,M,FEW,M,M,M,4000.00,M,M,M,M,YBBN 200400Z 11011KT 9999 FEW040 26/17 Q1019
YBBN,2016-04-20 04:30,153.1292,-27.3917,78.80,64.40,61.36,110.00,10.00,0.00,30.09,M,6.21,M,FEW,M,M,M,3800.00,M,M,M,M,YBBN 200430Z 11010KT 9999 FEW038 26/18 Q1019 NOSIG
YBBN,2016-04-20 05:00,153.1292,-27.3917,78.80,64.40,61.36,120.00,10.00,0.00,30.09,M,6.21,M,FEW,M,M,M,3500.00,M,M,M,M,YBBN 200500Z 12010KT 9999 FEW035 26/18 Q1019
YBBN,2016-04-20 05:30,153.1292,-27.3917,77.00,64.40,65.12,110.00,10.00,0.00,30.09,M,6.21,M,FEW,M,M,M,3200.00,M,M,M,M,YBBN 200530Z 11010KT 9999 FEW032 25/18 Q1019
YBBN,2016-04-20 06:00,153.1292,-27.3917,75.20,64.40,69.14,120.00,11.00,0.00,30.09,M,6.21,M,FEW,SCT,M,M,3000.00,30000.00,M,M,M,YBBN 200600Z 12011KT 9999 FEW030 SCT300 24/18 Q1019
YBBN,2016-04-20 06:30,153.1292,-27.3917,75.20,66.20,73.61,120.00,9.00,0.00,30.09,M,6.21,M,FEW,SCT,M,M,2400.00,30000.00,M,M,M,YBBN 200630Z 12009KT 9999 FEW024 SCT300 24/19 Q1019
YBBN,2016-04-20 07:00,153.1292,-27.3917,75.20,64.40,69.14,130.00,9.00,0.00,30.09,M,6.21,M,FEW,SCT,M,M,2400.00,30000.00,M,M,M,YBBN 200700Z 13009KT 9999 FEW024 SCT300 24/18 Q1019
YBBN,2016-04-20 07:30,153.1292,-27.3917,75.20,66.20,73.61,120.00,8.00,0.00,30.12,M,6.21,M,FEW,SCT,M,M,2300.00,30000.00,M,M,M,YBBN 200730Z 12008KT 9999 FEW023 SCT300 24/19 Q1020
YBBN,2016-04-20 08:00,153.1292,-27.3917,75.20,64.40,69.14,110.00,9.00,0.00,30.12,M,6.21,M,FEW,SCT,M,M,2300.00,30000.00,M,M,M,YBBN 200800Z 11009KT 9999 FEW023 SCT300 24/18 Q1020 NOSIG
YBBN,2016-04-20 08:30,153.1292,-27.3917,73.40,64.40,73.44,130.00,6.00,0.00,30.15,M,6.21,M,FEW,M,M,M,2300.00,M,M,M,M,YBBN 200830Z 13006KT 9999 FEW023 23/18 Q1021 NOSIG
YBBN,2016-04-20 09:00,153.1292,-27.3917,73.40,64.40,73.44,150.00,6.00,0.00,30.15,M,6.21,M,FEW,M,M,M,2300.00,M,M,M,M,YBBN 200900Z 15006KT 9999 FEW023 23/18 Q1021
YBBN,2016-04-20 09:30,153.1292,-27.3917,71.60,64.40,78.04,160.00,4.00,0.00,30.15,M,6.21,M,FEW,M,M,M,2300.00,M,M,M,M,YBBN 200930Z 16004KT 9999 FEW023 22/18 Q1021 NOSIG
YBBN,2016-04-20 10:00,153.1292,-27.3917,71.60,64.40,78.04,170.00,4.00,0.00,30.15,M,6.21,M,FEW,M,M,M,2200.00,M,M,M,M,YBBN 201000Z 17004KT 9999 FEW022 22/18 Q1021 NOSIG
YBBN,2016-04-20 10:30,153.1292,-27.3917,71.60,64.40,78.04,170.00,4.00,0.00,30.18,M,6.21,M,FEW,M,M,M,2200.00,M,M,M,VCSH,YBBN 201030Z 17004KT 9999 VCSH FEW022 22/18 Q1022 NOSIG
YBBN,2016-04-20 11:00,153.1292,-27.3917,69.80,64.40,82.98,180.00,5.00,0.00,30.18,M,6.21,M,FEW,M,M,M,2200.00,M,M,M,M,YBBN 201100Z 18005KT 9999 FEW022 21/18 Q1022
YBBN,2016-04-20 11:30,153.1292,-27.3917,69.80,64.40,82.98,170.00,4.00,0.00,30.18,M,6.21,M,FEW,M,M,M,2200.00,M,M,M,M,YBBN 201130Z 17004KT 9999 FEW022 21/18 Q1022 NOSIG
YBBN,2016-04-20 12:00,153.1292,-27.3917,69.80,64.40,82.98,160.00,3.00,0.00,30.18,M,6.21,M,FEW,M,M,M,2200.00,M,M,M,M,YBBN 201200Z 16003KT 9999 FEW022 21/18 Q1022
YBBN,2016-04-20 12:30,153.1292,-27.3917,69.80,64.40,82.98,180.00,4.00,0.00,30.18,M,6.21,M,FEW,M,M,M,2200.00,M,M,M,M,YBBN 201230Z 18004KT 9999 FEW022 21/18 Q1022 NOSIG
YBBN,2016-04-20 13:00,153.1292,-27.3917,69.80,64.40,82.98,160.00,4.00,0.00,30.18,M,6.21,M,FEW,SCT,M,M,2200.00,11000.00,M,M,M,YBBN 201300Z 16004KT 9999 FEW022 SCT110 21/18 Q1022 NOSIG
YBBN,2016-04-20 13:30,153.1292,-27.3917,69.80,62.60,77.90,180.00,4.00,0.00,30.15,M,6.21,M,FEW,M,M,M,2200.00,M,M,M,M,YBBN 201330Z 18004KT 9999 FEW022 21/17 Q1021 NOSIG
YBBN,2016-04-20 14:00,153.1292,-27.3917,69.80,62.60,77.90,200.00,5.00,0.00,30.15,M,6.21,M,FEW,M,M,M,2200.00,M,M,M,M,YBBN 201400Z 20005KT 9999 FEW022 21/17 Q1021 NOSIG
YBBN,2016-04-20 14:30,153.1292,-27.3917,68.00,62.60,82.86,190.00,4.00,0.00,30.15,M,6.21,M,FEW,M,M,M,2200.00,M,M,M,M,YBBN 201430Z 19004KT 9999 FEW022 20/17 Q1021 NOSIG
YBBN,2016-04-20 15:00,153.1292,-27.3917,68.00,62.60,82.86,200.00,7.00,0.00,30.15,M,6.21,M,FEW,M,M,M,2200.00,M,M,M,M,YBBN 201500Z 20007KT 9999 FEW022 20/17 Q1021 NOSIG
YBBN,2016-04-20 15:30,153.1292,-27.3917,68.00,62.60,82.86,200.00,6.00,0.00,30.15,M,6.21,M,FEW,M,M,M,2200.00,M,M,M,M,YBBN 201530Z 20006KT 9999 FEW022 20/17 Q1021 NOSIG
YBBN,2016-04-20 16:00,153.1292,-27.3917,68.00,62.60,82.86,200.00,6.00,0.00,30.12,M,6.21,M,FEW,M,M,M,2200.00,M,M,M,M,YBBN 201600Z 20006KT 9999 FEW022 20/17 Q1020
YBBN,2016-04-20 16:30,153.1292,-27.3917,66.20,62.60,88.18,200.00,6.00,0.00,30.12,M,6.21,M,FEW,M,M,M,2200.00,M,M,M,M,YBBN 201630Z 20006KT 9999 FEW022 19/17 Q1020 NOSIG
YBBN,2016-04-20 17:00,153.1292,-27.3917,64.40,62.60,93.88,210.00,7.00,0.00,30.12,M,6.21,M,FEW,M,M,M,2100.00,M,M,M,M,YBBN 201700Z 21007KT 9999 FEW021 18/17 Q1020 NOSIG
YBBN,2016-04-20 17:30,153.1292,-27.3917,66.20,62.60,88.18,200.00,8.00,0.00,30.12,M,6.21,M,FEW,M,M,M,2100.00,M,M,M,M,YBBN 201730Z 20008KT 9999 FEW021 19/17 Q1020 NOSIG
YBBN,2016-04-20 18:00,153.1292,-27.3917,64.40,62.60,93.88,210.00,8.00,0.00,30.12,M,6.21,M,FEW,M,M,M,2200.00,M,M,M,M,YBBN 201800Z 21008KT 9999 FEW022 18/17 Q1020
YBBN,2016-04-20 18:30,153.1292,-27.3917,64.40,62.60,93.88,200.00,7.00,0.00,30.12,M,6.21,M,FEW,M,M,M,2200.00,M,M,M,M,YBBN 201830Z 20007KT 9999 FEW022 18/17 Q1020 NOSIG
YBBN,2016-04-20 19:00,153.1292,-27.3917,66.20,62.60,88.18,200.00,8.00,0.00,30.12,M,6.21,M,FEW,M,M,M,2200.00,M,M,M,M,YBBN 201900Z 20008KT 9999 FEW022 19/17 Q1020
YBBN,2016-04-20 19:30,153.1292,-27.3917,64.40,62.60,93.88,200.00,7.00,0.00,30.12,M,6.21,M,FEW,M,M,M,2200.00,M,M,M,M,YBBN 201930Z 20007KT 9999 FEW022 18/17 Q1020 NOSIG
YBBN,2016-04-20 20:00,153.1292,-27.3917,64.40,60.80,88.09,210.00,8.00,0.00,30.12,M,6.21,M,FEW,M,M,M,2100.00,M,M,M,M,YBBN 202000Z 21008KT 9999 FEW021 18/16 Q1020 NOSIG
YBBN,2016-04-20 20:30,153.1292,-27.3917,64.40,62.60,93.88,200.00,8.00,0.00,30.15,M,6.21,M,FEW,M,M,M,2300.00,M,M,M,M,YBBN 202030Z 20008KT 9999 FEW023 18/17 Q1021 NOSIG
YBBN,2016-04-20 21:00,153.1292,-27.3917,66.20,62.60,88.18,200.00,8.00,0.00,30.15,M,6.21,M,FEW,M,M,M,2300.00,M,M,M,M,YBBN 202100Z 20008KT 9999 FEW023 19/17 Q1021 NOSIG
YBBN,2016-04-20 21:30,153.1292,-27.3917,68.00,62.60,82.86,210.00,8.00,0.00,30.15,M,6.21,M,FEW,M,M,M,2300.00,M,M,M,M,YBBN 202130Z 21008KT 9999 FEW023 20/17 Q1021 NOSIG
YBBN,2016-04-20 22:00,153.1292,-27.3917,71.60,62.60,73.27,210.00,9.00,0.00,30.15,M,6.21,M,FEW,M,M,M,2300.00,M,M,M,M,YBBN 202200Z 21009KT 9999 FEW023 22/17 Q1021
YBBN,2016-04-20 22:30,153.1292,-27.3917,71.60,62.60,73.27,210.00,8.00,0.00,30.18,M,6.21,M,FEW,SCT,M,M,2500.00,8500.00,M,M,M,YBBN 202230Z 21008KT 9999 FEW025 SCT085 22/17 Q1022
