#DEBUG: Format Typ    -> comma
#DEBUG: Time Period   -> 2016-08-22 00:00:00+00:00 2016-08-23 00:00:00+00:00
#DEBUG: Time Zone     -> Etc/UTC
#DEBUG: Data Contact   -> daryl herzmann akrherz@iastate.edu 515-294-5978
#DEBUG: Entries Found -> -1
station,valid,lon,lat,tmpf, dwpf, relh, drct, sknt, p01i, alti, mslp, vsby, gust, skyc1, skyc2, skyc3, skyc4, skyl1, skyl2, skyl3, skyl4, presentwx, metar
YBBN,2016-08-22 01:30,153.1292,-27.3917,71.60,57.20,60.44,30.00,6.00,0.00,30.03,M,6.21,M,SCT,M,M,M,2600.00,M,M,M,M,YBBN 220130Z 03006KT 350V060 9999 SCT026 22/14 Q1017 NOSIG
YBBN,2016-08-22 02:00,153.1292,-27.3917,73.40,57.20,56.88,10.00,8.00,0.00,30.00,M,6.21,M,SCT,M,M,M,3000.00,M,M,M,M,YBBN 220200Z 01008KT 9999 SCT030 23/14 Q1016 NOSIG
YBBN,2016-08-22 02:30,153.1292,-27.3917,71.60,57.20,60.44,20.00,8.00,0.00,30.00,M,6.21,M,SCT,M,M,M,3000.00,M,M,M,M,YBBN 220230Z 02008KT 9999 SCT030 22/14 Q1016 NOSIG
YBBN,2016-08-22 03:00,153.1292,-27.3917,73.40,57.20,56.88,20.00,10.00,0.00,29.97,M,6.21,M,FEW,M,M,M,3000.00,M,M,M,M,YBBN 220300Z 02010KT 9999 FEW030 23/14 Q1015 NOSIG
YBBN,2016-08-22 03:30,153.1292,-27.3917,71.60,57.20,60.44,20.00,11.00,0.00,29.97,M,6.21,M,FEW,M,M,M,3000.00,M,M,M,M,YBBN 220330Z 02011KT 9999 FEW030 22/14 Q1015 NOSIG
YBBN,2016-08-22 04:00,153.1292,-27.3917,71.60,59.00,64.48,20.00,11.00,0.00,29.97,M,6.21,M,FEW,M,M,M,3000.00,M,M,M,M,YBBN 220400Z 02011KT 9999 FEW030 22/15 Q1015 NOSIG
YBBN,2016-08-22 04:30,153.1292,-27.3917,69.80,59.00,68.55,20.00,12.00,0.00,29.94,M,6.21,M,FEW,SCT,M,M,3000.00,4500.00,M,M,M,YBBN 220430Z 02012KT 9999 FEW030 SCT045 21/15 Q1014 NOSIG
YBBN,2016-08-22 05:00,153.1292,-27.3917,71.60,59.00,64.48,30.00,12.00,0.00,29.94,M,6.21,M,FEW,SCT,M,M,3000.00,5800.00,M,M,M,YBBN 220500Z 03012KT 9999 FEW030 SCT058 22/15 Q1014
YBBN,2016-08-22 05:30,153.1292,-27.3917,69.80,60.80,73.09,30.00,13.00,0.00,29.94,M,6.21,M,FEW,M,M,M,3500.00,M,M,M,M,YBBN 220530Z 03013KT 9999 FEW035 21/16 Q1014 NOSIG
YBBN,2016-08-22 06:00,153.1292,-27.3917,69.80,60.80,73.09,20.00,13.00,0.00,29.94,M,6.21,M,FEW,M,M,M,3500.00,M,M,M,M,YBBN 220600Z 02013KT 9999 FEW035 21/16 Q1014 NOSIG
YBBN,2016-08-22 06:30,153.1292,-27.3917,69.80,60.80,73.09,20.00,13.00,0.00,29.94,M,6.21,M,FEW,M,M,M,3500.00,M,M,M,M,YBBN 220630Z 02013KT 9999 FEW035 21/16 Q1014 NOSIG
YBBN,2016-08-22 07:00,153.1292,-27.3917,68.00,60.80,77.75,30.00,12.00,0.00,29.94,M,6.21,M,FEW,M,M,M,4000.00,M,M,M,M,YBBN 220700Z 03012KT 9999 FEW040 20/16 Q1014 NOSIG
YBBN,2016-08-22 07:30,153.1292,-27.3917,66.20,60.80,82.74,30.00,9.00,0.00,29.94,M,6.21,M,FEW,M,M,M,3000.00,M,M,M,M,YBBN 220730Z 03009KT 9999 FEW030 19/16 Q1014 NOSIG
YBBN,2016-08-22 08:00,153.1292,-27.3917,66.20,59.00,77.60,20.00,11.00,0.00,29.94,M,6.21,M,FEW,M,M,M,2000.00,M,M,M,M,YBBN 220800Z 02011KT 9999 FEW020 19/15 Q1014
YBBN,2016-08-22 08:30,153.1292,-27.3917,66.20,60.80,82.74,20.00,11.00,0.00,29.94,M,6.21,M,FEW,M,M,M,2000.00,M,M,M,M,YBBN 220830Z 02011KT 9999 FEW020 19/16 Q1014 NOSIG
YBBN,2016-08-22 09:00,153.1292,-27.3917,66.20,60.80,82.74,10.00,12.00,0.00,29.94,M,6.21,M,NCD,M,M,M,M,M,M,M,//,YBBN 220900Z AUTO 01012KT 9999 // NCD 19/16 Q1014
YBBN,2016-08-22 09:30,153.1292,-27.3917,66.20,60.80,82.74,10.00,11.00,0.00,29.94,M,6.21,M,M,M,M,M,M,M,M,M,M,YBBN 220930Z 01011KT CAVOK 19/16 Q1014 NOSIG
YBBN,2016-08-22 11:00,153.1292,-27.3917,66.20,62.60,88.18,10.00,13.00,0.00,29.97,M,6.21,M,FEW,SCT,M,M,2000.00,24000.00,M,M,M,YBBN 221100Z 01013KT 9999 FEW020 SCT240 19/17 Q1015
YBBN,2016-08-22 12:00,153.1292,-27.3917,66.20,62.60,88.18,10.00,9.00,0.00,29.97,M,6.21,M,FEW,SCT,BKN,M,2500.00,3500.00,24000.00,M,M,YBBN 221200Z 01009KT 9999 FEW025 SCT035 BKN240 19/17 Q1015
YBBN,2016-08-22 12:30,153.1292,-27.3917,64.40,62.60,93.88,10.00,7.00,0.00,29.97,M,6.21,M,FEW,SCT,BKN,M,2000.00,3500.00,24000.00,M,M,YBBN 221230Z 01007KT 9999 FEW020 SCT035 BKN240 18/17 Q1015 NOSIG
YBBN,2016-08-22 13:00,153.1292,-27.3917,64.40,62.60,93.88,350.00,5.00,0.00,29.97,M,6.21,M,SCT,SCT,M,M,2000.00,24000.00,M,M,M,YBBN 221300Z 35005KT 9999 SCT020 SCT240 18/17 Q1015
YBBN,2016-08-22 13:30,153.1292,-27.3917,64.40,60.80,88.09,330.00,3.00,0.00,29.97,M,6.21,M,FEW,SCT,BKN,M,2000.00,12000.00,24000.00,M,M,YBBN 221330Z 33003KT 9999 FEW020 SCT120 BKN240 18/16 Q1015 NOSIG
YBBN,2016-08-22 14:00,153.1292,-27.3917,64.40,60.80,88.09,360.00,9.00,0.00,29.97,M,6.21,M,FEW,SCT,BKN,M,2000.00,12000.00,22000.00,M,M,YBBN 221400Z 36009KT 9999 FEW020 SCT120 BKN220 18/16 Q1015
YBBN,2016-08-22 14:30,153.1292,-27.3917,64.40,60.80,88.09,350.00,10.00,0.00,29.94,M,6.21,M,FEW,BKN,M,M,2000.00,22000.00,M,M,M,YBBN 221430Z 35010KT 9999 FEW020 BKN220 18/16 Q1014 NOSIG
YBBN,2016-08-22 15:00,153.1292,-27.3917,64.40,60.80,88.09,360.00,11.00,0.00,29.94,M,6.21,M,FEW,SCT,BKN,M,2000.00,12000.00,22000.00,M,M,YBBN 221500Z 36011KT 9999 FEW020 SCT120 BKN220 18/16 Q1014
YBBN,2016-08-22 15:30,153.1292,-27.3917,64.40,60.80,88.09,350.00,7.00,0.00,29.94,M,6.21,M,FEW,SCT,BKN,M,2000.00,12000.00,22000.00,M,M,YBBN 221530Z 35007KT 9999 FEW020 SCT120 BKN220 18/16 Q1014 NOSIG
YBBN,2016-08-22 16:00,153.1292,-27.3917,64.40,60.80,88.09,320.00,5.00,0.00,29.94,M,6.21,M,FEW,SCT,BKN,M,2000.00,7000.00,22000.00,M,M,YBBN 221600Z 32005KT 9999 FEW020 SCT070 BKN220 18/16 Q1014
YBBN,2016-08-22 16:30,153.1292,-27.3917,64.40,60.80,88.09,280.00,5.00,0.00,29.94,M,6.21,M,FEW,BKN,M,M,2000.00,12000.00,M,M,M,YBBN 221630Z 28005KT 9999 FEW020 BKN120 18/16 Q1014 NOSIG
YBBN,2016-08-22 17:00,153.1292,-27.3917,64.40,60.80,88.09,260.00,4.00,0.00,29.94,M,6.21,M,FEW,BKN,M,M,4000.00,12000.00,M,M,M,YBBN 221700Z 26004KT 9999 FEW040 BKN120 18/16 Q1014
YBBN,2016-08-22 17:30,153.1292,-27.3917,64.40,59.00,82.62,0.00,0.00,0.00,29.94,M,6.21,M,FEW,BKN,M,M,4000.00,12000.00,M,M,M,YBBN 221730Z 00000KT 9999 FEW040 BKN120 18/15 Q1014 NOSIG
YBBN,2016-08-22 18:00,153.1292,-27.3917,62.60,59.00,88.00,350.00,3.00,0.00,29.94,M,6.21,M,FEW,BKN,M,M,4000.00,10000.00,M,M,M,YBBN 221800Z 35003KT 9999 FEW040 BKN100 17/15 Q1014
YBBN,2016-08-22 18:30,153.1292,-27.3917,62.60,59.00,88.00,320.00,4.00,0.00,29.94,M,6.21,M,FEW,BKN,M,M,4000.00,11000.00,M,M,VCSH,YBBN 221830Z 32004KT 9999 VCSH FEW040 BKN110 17/15 Q1014 NOSIG
YBBN,2016-08-22 19:00,153.1292,-27.3917,62.60,60.80,93.83,0.00,0.00,0.00,29.94,M,6.21,M,FEW,BKN,M,M,4000.00,11000.00,M,M,-RA,YBBN 221900Z 00000KT 9999 -RA FEW040 BKN110 17/16 Q1014
YBBN,2016-08-22 19:30,153.1292,-27.3917,62.60,60.80,93.83,350.00,5.00,0.00,29.94,M,6.21,M,FEW,BKN,M,M,4000.00,11000.00,M,M,-RA,YBBN 221930Z 35005KT 9999 -RA FEW040 BKN110 17/16 Q1014 NOSIG
YBBN,2016-08-22 20:00,153.1292,-27.3917,64.40,60.80,88.09,350.00,5.00,0.00,29.94,M,6.21,M,FEW,BKN,M,M,4000.00,11000.00,M,M,-RA,YBBN 222000Z 35005KT 9999 -RA FEW040 BKN110 18/16 Q1014
YBBN,2016-08-22 20:30,153.1292,-27.3917,62.60,60.80,93.83,340.00,6.00,0.00,29.94,M,6.21,M,FEW,BKN,M,M,1800.00,11000.00,M,M,M,YBBN 222030Z 34006KT 9999 FEW018 BKN110 17/16 Q1014 NOSIG
YBBN,2016-08-22 21:00,153.1292,-27.3917,66.20,62.60,88.18,360.00,5.00,0.00,29.94,M,6.21,M,FEW,SCT,M,M,4400.00,9100.00,M,M,-SHRA,YBBN 222100Z 36005KT 9999 -SHRA FEW044 SCT091 19/17 Q1014 NOSIG
YBBN,2016-08-22 21:30,153.1292,-27.3917,68.00,62.60,82.86,360.00,6.00,0.00,29.94,M,6.21,M,FEW,SCT,M,M,1800.00,15000.00,M,M,M,YBBN 222130Z 36006KT 9999 FEW018 SCT150 20/17 Q1014 NOSIG
YBBN,2016-08-22 22:00,153.1292,-27.3917,68.00,60.80,77.75,10.00,6.00,0.00,29.91,M,6.21,M,M,M,M,M,M,M,M,M,M,YBBN 222200Z 01006KT CAVOK 20/16 Q1013 NOSIG
YBBN,2016-08-22 22:30,153.1292,-27.3917,68.00,62.60,82.86,360.00,7.00,0.00,29.94,M,6.21,M,FEW,M,M,M,2500.00,M,M,M,M,YBBN 222230Z 36007KT 9999 FEW025 20/17 Q1014 NOSIG
YBBN,2016-08-22 23:00,153.1292,-27.3917,71.60,62.60,73.27,320.00,6.00,0.00,29.94,M,6.21,M,FEW,M,M,M,2500.00,M,M,M,M,YBBN 222300Z 32006KT 9999 FEW025 22/17 Q1014
YBBN,2016-08-22 23:30,153.1292,-27.3917,73.40,59.00,60.67,10.00,8.00,0.00,29.94,M,6.21,M,FEW,M,M,M,2500.00,M,M,M,M,YBBN 222330Z 01008KT 9999 FEW025 23/15 Q1014 NOSIG
