#DEBUG: Format Typ    -> comma
#DEBUG: Time Period   -> 2016-11-08 00:00:00+00:00 2016-11-09 00:00:00+00:00
#DEBUG: Time Zone     -> Etc/UTC
#DEBUG: Data Contact   -> daryl herzmann akrherz@iastate.edu 515-294-5978
#DEBUG: Entries Found -> -1
station,valid,lon,lat,tmpf, dwpf, relh, drct, sknt, p01i, alti, mslp, vsby, gust, skyc1, skyc2, skyc3, skyc4, skyl1, skyl2, skyl3, skyl4, presentwx, metar
YBBN,2016-11-08 00:00,153.1292,-27.3917,82.40,69.80,65.74,20.00,16.00,0.00,29.91,M,6.21,M,FEW,BKN,M,M,2500.00,30000.00,M,M,M,YBBN 080000Z 02016KT 9999 FEW025 BKN300 28/21 Q1013 NOSIG
YBBN,2016-11-08 00:30,153.1292,-27.3917,80.60,69.80,69.71,20.00,17.00,0.00,29.91,M,6.21,M,FEW,BKN,M,M,3000.00,30000.00,M,M,M,YBBN 080030Z 02017KT 9999 FEW030 BKN300 27/21 Q1013 NOSIG
YBBN,2016-11-08 01:00,153.1292,-27.3917,82.40,71.60,69.90,30.00,19.00,0.00,29.88,M,6.21,M,FEW,BKN,M,M,3500.00,30000.00,M,M,M,YBBN 080100Z 03019KT 9999 FEW035 BKN300 28/22 Q1012 NOSIG
YBBN,2016-11-08 01:30,153.1292,-27.3917,82.40,71.60,69.90,30.00,19.00,0.00,29.88,M,6.21,M,FEW,BKN,M,M,3200.00,30000.00,M,M,M,YBBN 080130Z 03019KT 9999 FEW032 BKN300 28/22 Q1012 NOSIG
YBBN,2016-11-08 02:00,153.1292,-27.3917,82.40,69.80,65.74,30.00,18.00,0.00,29.85,M,6.21,M,FEW,BKN,M,M,3500.00,30000.00,M,M,M,YBBN 080200Z 03018KT 9999 FEW035 BKN300 28/21 Q1011
YBBN,2016-11-08 02:30,153.1292,-27.3917,82.40,69.80,65.74,20.00,20.00,0.00,29.85,M,6.21,M,FEW,BKN,M,M,3500.00,30000.00,M,M,M,YBBN 080230Z 02020KT 9999 FEW035 BKN300 28/21 Q1011 NOSIG
YBBN,2016-11-08 03:00,153.1292,-27.3917,82.40,69.80,65.74,20.00,19.00,0.00,29.85,M,6.21,M,FEW,BKN,M,M,3000.00,30000.00,M,M,M,YBBN 080300Z 02019KT 9999 FEW030 BKN300 28/21 Q1011
YBBN,2016-11-08 03:30,153.1292,-27.3917,80.60,69.80,69.71,20.00,18.00,0.00,29.83,M,6.21,M,FEW,OVC,M,M,3000.00,26000.00,M,M,M,YBBN 080330Z 02018KT 9999 FEW030 OVC260 27/21 Q1010 NOSIG
YBBN,2016-11-08 04:00,153.1292,-27.3917,82.40,69.80,65.74,20.00,20.00,0.00,29.83,M,6.21,M,FEW,OVC,M,M,3500.00,26000.00,M,M,M,YBBN 080400Z 02020KT 9999 FEW035 OVC260 28/21 Q1010
YBBN,2016-11-08 04:30,153.1292,-27.3917,80.60,68.00,65.54,20.00,21.00,0.00,29.83,M,6.21,M,FEW,OVC,M,M,3500.00,26000.00,M,M,M,YBBN 080430Z 02021KT 9999 FEW035 OVC260 27/20 Q1010 NOSIG
YBBN,2016-11-08 05:00,153.1292,-27.3917,80.60,68.00,65.54,10.00,21.00,0.00,29.80,M,6.21,M,FEW,SCT,OVC,M,3500.00,12000.00,26000.00,M,M,YBBN 080500Z 01021KT 9999 FEW035 SCT120 OVC260 27/20 Q1009 NOSIG
YBBN,2016-11-08 06:00,153.1292,-27.3917,78.80,68.00,69.52,20.00,19.00,0.00,29.80,M,6.21,M,FEW,SCT,BKN,M,3500.00,14000.00,26000.00,M,VCSH,YBBN 080600Z 02019KT 9999 VCSH FEW035 SCT140 BKN260 26/20 Q1009
YBBN,2016-11-08 06:30,153.1292,-27.3917,78.80,68.00,69.52,350.00,11.00,0.00,29.88,M,6.21,M,FEW,SCT,BKN,FEW,3500.00,14500.00,26000.00,4000.00,VCSH,YBBN 080630Z 35011KT 250V360 9999 VCSH FEW035 SCT145 BKN260 FEW040TCU 26/20 Q1012
YBBN,2016-11-08 07:00,153.1292,-27.3917,78.80,68.00,69.52,50.00,9.00,0.00,29.85,M,6.21,M,FEW,SCT,BKN,M,3500.00,14000.00,26000.00,M,VCSH,YBBN 080700Z 05009KT 9999 VCSH FEW035 SCT140 BKN260 26/20 Q1011
YBBN,2016-11-08 07:48,153.1292,-27.3917,78.80,66.20,65.33,20.00,17.00,0.00,29.85,M,6.21,M,FEW,SCT,BKN,FEW,3000.00,15500.00,26000.00,3500.00,VCTS VCSH,YBBN 080748Z 02017KT 9999 VCTS VCSH FEW030 SCT155 BKN260 FEW035CB 26/19 Q1011
YBBN,2016-11-08 08:00,153.1292,-27.3917,77.00,68.00,73.78,20.00,17.00,0.00,29.85,M,6.21,M,FEW,SCT,BKN,FEW,3000.00,15000.00,16000.00,3500.00,VCTS,YBBN 080800Z 02017KT 9999 VCTS FEW030 SCT150 BKN160 FEW035CB 25/20 Q1011
YBBN,2016-11-08 08:30,153.1292,-27.3917,77.00,68.00,73.78,10.00,14.00,0.00,29.88,M,6.21,M,FEW,BKN,FEW,M,3000.00,15000.00,3500.00,M,M,YBBN 080830Z 01014KT 9999 FEW030 BKN150 FEW035CB 25/20 Q1012 NOSIG
YBBN,2016-11-08 09:00,153.1292,-27.3917,75.20,69.80,83.32,20.00,12.00,0.00,29.88,M,5.59,M,FEW,SCT,BKN,FEW,2000.00,7000.00,11000.00,3500.00,-TSRA,YBBN 080900Z 02012KT 9000 -TSRA FEW020 SCT070 BKN110 FEW035CB 24/21 Q1012
YBBN,2016-11-08 09:30,153.1292,-27.3917,75.20,71.60,88.59,10.00,12.00,0.00,29.88,M,6.21,M,FEW,SCT,BKN,M,2000.00,6800.00,12000.00,M,-RA,YBBN 080930Z 01012KT 9999 -RA FEW020 SCT068 BKN120 24/22 Q1012 RETS NOSIG
YBBN,2016-11-08 10:00,153.1292,-27.3917,75.20,69.80,83.32,30.00,17.00,0.00,29.85,M,6.21,M,FEW,BKN,M,M,2000.00,18000.00,M,M,M,YBBN 081000Z 03017KT 9999 FEW020 BKN180 24/21 Q1011 NOSIG
YBBN,2016-11-08 10:30,153.1292,-27.3917,75.20,69.80,83.32,10.00,19.00,0.00,29.88,M,6.21,M,FEW,BKN,M,M,2000.00,15000.00,M,M,M,YBBN 081030Z 01019KT 9999 FEW020 BKN150 24/21 Q1012 NOSIG
YBBN,2016-11-08 11:00,153.1292,-27.3917,75.20,71.60,88.59,360.00,17.00,0.00,29.88,M,6.21,M,FEW,BKN,M,M,2300.00,16000.00,M,M,M,YBBN 081100Z 36017KT 9999 FEW023 BKN160 24/22 Q1012
YBBN,2016-11-08 11:30,153.1292,-27.3917,75.20,71.60,88.59,360.00,16.00,0.00,29.88,M,6.21,M,M,M,M,M,M,M,M,M,M,YBBN 081130Z 36016KT CAVOK 24/22 Q1012 NOSIG
YBBN,2016-11-08 12:00,153.1292,-27.3917,75.20,69.80,83.32,350.00,11.00,0.00,29.88,M,6.21,M,M,M,M,M,M,M,M,M,M,YBBN 081200Z 35011KT CAVOK 24/21 Q1012
YBBN,2016-11-08 12:30,153.1292,-27.3917,75.20,69.80,83.32,350.00,10.00,0.00,29.88,M,6.21,M,M,M,M,M,M,M,M,M,M,YBBN 081230Z 35010KT CAVOK 24/21 Q1012 NOSIG
YBBN,2016-11-08 13:00,153.1292,-27.3917,73.40,66.20,78.19,250.00,9.00,0.00,29.91,M,6.21,M,M,M,M,M,M,M,M,M,M,YBBN 081300Z 25009KT CAVOK 23/19 Q1013
YBBN,2016-11-08 13:30,153.1292,-27.3917,75.20,66.20,73.61,280.00,6.00,0.00,29.88,M,6.21,M,M,M,M,M,M,M,M,M,M,YBBN 081330Z 28006KT CAVOK 24/19 Q1012 NOSIG
YBBN,2016-11-08 14:00,153.1292,-27.3917,73.40,66.20,78.19,350.00,4.00,0.00,29.88,M,6.21,M,M,M,M,M,M,M,M,M,M,YBBN 081400Z 35004KT CAVOK 23/19 Q1012
YBBN,2016-11-08 14:30,153.1292,-27.3917,73.40,66.20,78.19,270.00,3.00,0.00,29.88,M,6.21,M,M,M,M,M,M,M,M,M,M,YBBN 081430Z 27003KT CAVOK 23/19 Q1012 NOSIG
YBBN,2016-11-08 15:00,153.1292,-27.3917,71.60,66.20,83.09,60.00,4.00,0.00,29.85,M,6.21,M,M,M,M,M,M,M,M,M,M,YBBN 081500Z 06004KT CAVOK 22/19 Q1011
YBBN,2016-11-08 15:30,153.1292,-27.3917,69.80,66.20,88.34,20.00,5.00,0.00,29.85,M,6.21,M,M,M,M,M,M,M,M,M,M,YBBN 081530Z 02005KT CAVOK 21/19 Q1011 NOSIG
YBBN,2016-11-08 16:00,153.1292,-27.3917,71.60,68.00,88.43,360.00,9.00,0.00,29.85,M,6.21,M,M,M,M,M,M,M,M,M,M,YBBN 081600Z 36009KT CAVOK 22/20 Q1011
YBBN,2016-11-08 16:30,153.1292,-27.3917,73.40,68.00,83.21,360.00,11.00,0.00,29.85,M,6.21,M,M,M,M,M,M,M,M,M,M,YBBN 081630Z 36011KT CAVOK 23/20 Q1011 NOSIG
YBBN,2016-11-08 17:00,153.1292,-27.3917,73.40,68.00,83.21,360.00,14.00,0.00,29.85,M,6.21,M,M,M,M,M,M,M,M,M,M,YBBN 081700Z 36014KT CAVOK 23/20 Q1011
YBBN,2016-11-08 17:30,153.1292,-27.3917,73.40,69.80,88.51,360.00,15.00,0.00,29.85,M,6.21,M,M,M,M,M,M,M,M,M,M,YBBN 081730Z 36015KT CAVOK 23/21 Q1011 NOSIG
YBBN,2016-11-08 18:00,153.1292,-27.3917,73.40,68.00,83.21,360.00,13.00,0.00,29.85,M,6.21,M,M,M,M,M,M,M,M,M,M,YBBN 081800Z 36013KT CAVOK 23/20 Q1011
YBBN,2016-11-08 18:30,153.1292,-27.3917,73.40,68.00,83.21,360.00,14.00,0.00,29.85,M,6.21,M,M,M,M,M,M,M,M,M,M,YBBN 081830Z 36014KT CAVOK 23/20 Q1011 NOSIG
YBBN,2016-11-08 19:00,153.1292,-27.3917,73.40,68.00,83.21,360.00,18.00,0.00,29.88,M,6.21,M,M,M,M,M,M,M,M,M,M,YBBN 081900Z 36018KT CAVOK 23/20 Q1012
YBBN,2016-11-08 19:30,153.1292,-27.3917,73.40,68.00,83.21,360.00,18.00,0.00,29.88,M,6.21,M,M,M,M,M,M,M,M,M,M,YBBN 081930Z 36018KT CAVOK 23/20 Q1012 NOSIG
YBBN,2016-11-08 20:00,153.1292,-27.3917,75.20,68.00,78.34,360.00,18.00,0.00,29.88,M,6.21,M,M,M,M,M,M,M,M,M,M,YBBN 082000Z 36018KT CAVOK 24/20 Q1012
YBBN,2016-11-08 20:30,153.1292,-27.3917,75.20,68.00,78.34,360.00,16.00,0.00,29.91,M,6.21,M,FEW,BKN,M,M,2500.00,16000.00,M,M,M,YBBN 082030Z 36016KT 9999 FEW025 BKN160 24/20 Q1013 NOSIG
YBBN,2016-11-08 21:00,153.1292,-27.3917,75.20,68.00,78.34,360.00,14.00,0.00,29.91,M,6.21,M,FEW,BKN,M,M,2500.00,15000.00,M,M,M,YBBN 082100Z 36014KT 9999 FEW025 BKN150 24/20 Q1013 NOSIG
YBBN,2016-11-08 21:30,153.1292,-27.3917,75.20,68.00,78.34,320.00,11.00,0.00,29.94,M,6.21,M,FEW,BKN,M,M,1800.00,15000.00,M,M,M,YBBN 082130Z 32011KT 9999 FEW018 BKN150 24/20 Q1014 NOSIG
YBBN,2016-11-08 22:00,153.1292,-27.3917,73.40,69.80,88.51,310.00,8.00,0.00,29.94,M,6.21,M,FEW,BKN,M,M,2000.00,15000.00,M,M,M,YBBN 082200Z 31008KT 9999 FEW020 BKN150 23/21 Q1014
