#DEBUG: Format Typ    -> comma
#DEBUG: Time Period   -> 2016-09-22 00:00:00+00:00 2016-09-23 00:00:00+00:00
#DEBUG: Time Zone     -> Etc/UTC
#DEBUG: Data Contact   -> daryl herzmann akrherz@iastate.edu 515-294-5978
#DEBUG: Entries Found -> -1
station,valid,lon,lat,tmpf, dwpf, relh, drct, sknt, p01i, alti, mslp, vsby, gust, skyc1, skyc2, skyc3, skyc4, skyl1, skyl2, skyl3, skyl4, presentwx, metar
YBBN,2016-09-22 00:00,153.1292,-27.3917,69.80,46.40,43.13,250.00,14.00,0.00,29.88,M,6.21,M,FEW,M,M,M,2500.00,M,M,M,M,YBBN 220000Z 25014KT 9999 FEW025 21/08 Q1012 NOSIG
YBBN,2016-09-22 00:30,153.1292,-27.3917,69.80,46.40,43.13,250.00,15.00,0.00,29.88,M,6.21,M,FEW,M,M,M,3200.00,M,M,M,M,YBBN 220030Z 25015KT 9999 FEW032 21/08 Q1012 NOSIG
YBBN,2016-09-22 01:00,153.1292,-27.3917,69.80,46.40,43.13,270.00,14.00,0.00,29.85,M,6.21,M,FEW,M,M,M,4000.00,M,M,M,M,YBBN 220100Z 27014KT 9999 FEW040 21/08 Q1011
YBBN,2016-09-22 01:01,153.1292,-27.3917,69.80,44.60,40.29,270.00,15.00,0.00,29.85,M,6.21,25.00,FEW,M,M,M,4000.00,M,M,M,M,YBBN 220101Z 27015G25KT 9999 FEW040 21/07 Q1011
YBBN,2016-09-22 01:30,153.1292,-27.3917,71.60,44.60,37.89,240.00,17.00,0.00,29.85,M,6.21,M,FEW,M,M,M,4000.00,M,M,M,M,YBBN 220130Z 24017KT 9999 FEW040 22/07 Q1011 NOSIG
YBBN,2016-09-22 02:00,153.1292,-27.3917,71.60,44.60,37.89,270.00,19.00,0.00,29.83,M,6.21,M,FEW,M,M,M,4000.00,M,M,M,M,YBBN 220200Z 27019KT 9999 FEW040 22/07 Q1010
YBBN,2016-09-22 02:30,153.1292,-27.3917,73.40,42.80,33.29,250.00,20.00,0.00,29.83,M,6.21,M,M,M,M,M,M,M,M,M,M,YBBN 220230Z 25020KT CAVOK 23/06 Q1010 NOSIG
YBBN,2016-09-22 03:00,153.1292,-27.3917,73.40,42.80,33.29,260.00,20.00,0.00,29.80,M,6.21,M,M,M,M,M,M,M,M,M,M,YBBN 220300Z 26020KT CAVOK 23/06 Q1009 NOSIG
YBBN,2016-09-22 03:30,153.1292,-27.3917,73.40,42.80,33.29,260.00,19.00,0.00,29.80,M,6.21,M,M,M,M,M,M,M,M,M,M,YBBN 220330Z 26019KT CAVOK 23/06 Q1009 NOSIG
YBBN,2016-09-22 04:00,153.1292,-27.3917,73.40,44.60,35.66,250.00,18.00,0.00,29.77,M,6.21,M,M,M,M,M,M,M,M,M,M,YBBN 220400Z 25018KT CAVOK 23/07 Q1008 NOSIG
YBBN,2016-09-22 04:30,153.1292,-27.3917,75.20,44.60,33.57,250.00,18.00,0.00,29.77,M,6.21,M,M,M,M,M,M,M,M,M,M,YBBN 220430Z 25018KT CAVOK 24/07 Q1008 NOSIG
YBBN,2016-09-22 04:46,153.1292,-27.3917,75.20,44.60,33.57,250.00,21.00,0.00,29.77,M,6.21,M,SCT,M,M,M,3000.00,M,M,M,M,YBBN 220446Z 25021KT 9999 SCT030 24/07 Q1008
YBBN,2016-09-22 05:00,153.1292,-27.3917,73.40,44.60,35.66,260.00,19.00,0.00,29.77,M,6.21,M,M,M,M,M,M,M,M,M,M,YBBN 220500Z 26019KT CAVOK 23/07 Q1008
YBBN,2016-09-22 05:49,153.1292,-27.3917,73.40,44.60,35.66,260.00,16.00,0.00,29.77,M,6.21,27.00,M,M,M,M,M,M,M,M,M,YBBN 220549Z 26016G27KT CAVOK 23/07 Q1008
YBBN,2016-09-22 07:00,153.1292,-27.3917,71.60,44.60,37.89,250.00,17.00,0.00,29.80,M,6.21,M,M,M,M,M,M,M,M,M,M,YBBN 220700Z 25017KT CAVOK 22/07 Q1009
YBBN,2016-09-22 08:00,153.1292,-27.3917,69.80,42.80,37.61,250.00,14.00,0.00,29.83,M,6.21,M,M,M,M,M,M,M,M,M,M,YBBN 220800Z 25014KT CAVOK 21/06 Q1010
YBBN,2016-09-22 10:00,153.1292,-27.3917,66.20,44.60,45.60,250.00,11.00,0.00,29.88,M,6.21,M,M,M,M,M,M,M,M,M,M,YBBN 221000Z 25011KT CAVOK 19/07 Q1012
YBBN,2016-09-22 11:00,153.1292,-27.3917,64.40,46.40,51.98,260.00,6.00,0.00,29.88,M,6.21,M,M,M,M,M,M,M,M,M,M,YBBN 221100Z 26006KT CAVOK 18/08 Q1012
YBBN,2016-09-22 12:00,153.1292,-27.3917,62.60,46.40,55.37,260.00,8.00,0.00,29.88,M,6.21,M,M,M,M,M,M,M,M,M,M,YBBN 221200Z 26008KT CAVOK 17/08 Q1012
YBBN,2016-09-22 12:30,153.1292,-27.3917,62.60,46.40,55.37,250.00,6.00,0.00,29.88,M,6.21,M,M,M,M,M,M,M,M,M,M,YBBN 221230Z 25006KT CAVOK 17/08 Q1012
YBBN,2016-09-22 14:00,153.1292,-27.3917,57.20,48.20,71.83,300.00,7.00,0.00,29.88,M,6.21,M,M,M,M,M,M,M,M,M,M,YBBN 221400Z 30007KT CAVOK 14/09 Q1012
YBBN,2016-09-22 14:30,153.1292,-27.3917,57.20,48.20,71.83,290.00,6.00,0.00,29.85,M,6.21,M,M,M,M,M,M,M,M,M,M,YBBN 221430Z 29006KT CAVOK 14/09 Q1011 NOSIG
YBBN,2016-09-22 15:00,153.1292,-27.3917,59.00,48.20,67.33,290.00,8.00,0.00,29.85,M,6.21,M,M,M,M,M,M,M,M,M,M,YBBN 221500Z 29008KT CAVOK 15/09 Q1011
YBBN,2016-09-22 15:30,153.1292,-27.3917,57.20,48.20,71.83,310.00,7.00,0.00,29.85,M,6.21,M,M,M,M,M,M,M,M,M,M,YBBN 221530Z 31007KT CAVOK 14/09 Q1011 NOSIG
YBBN,2016-09-22 16:00,153.1292,-27.3917,57.20,48.20,71.83,300.00,6.00,0.00,29.85,M,6.21,M,M,M,M,M,M,M,M,M,M,YBBN 221600Z 30006KT CAVOK 14/09 Q1011 NOSIG
YBBN,2016-09-22 16:30,153.1292,-27.3917,55.40,48.20,76.66,290.00,7.00,0.00,29.85,M,6.21,M,M,M,M,M,M,M,M,M,M,YBBN 221630Z 29007KT CAVOK 13/09 Q1011 NOSIG
YBBN,2016-09-22 17:00,153.1292,-27.3917,55.40,48.20,76.66,330.00,1.00,0.00,29.83,M,6.21,M,M,M,M,M,M,M,M,M,M,YBBN 221700Z 33001KT CAVOK 13/09 Q1010
YBBN,2016-09-22 17:30,153.1292,-27.3917,55.40,48.20,76.66,310.00,6.00,0.00,29.83,M,6.21,M,M,M,M,M,M,M,M,M,M,YBBN 221730Z 31006KT CAVOK 13/09 Q1010 NOSIG
YBBN,2016-09-22 18:00,153.1292,-27.3917,55.40,48.20,76.66,300.00,6.00,0.00,29.83,M,6.21,M,M,M,M,M,M,M,M,M,M,YBBN 221800Z 30006KT CAVOK 13/09 Q1010 NOSIG
YBBN,2016-09-22 18:30,153.1292,-27.3917,55.40,48.20,76.66,290.00,5.00,0.00,29.85,M,6.21,M,M,M,M,M,M,M,M,M,M,YBBN 221830Z 29005KT CAVOK 13/09 Q1011 NOSIG
YBBN,2016-09-22 19:00,153.1292,-27.3917,55.40,48.20,76.66,300.00,6.00,0.00,29.85,M,6.21,M,M,M,M,M,M,M,M,M,M,YBBN 221900Z 30006KT CAVOK 13/09 Q1011 NOSIG
YBBN,2016-09-22 19:30,153.1292,-27.3917,55.40,48.20,76.66,310.00,8.00,0.00,29.85,M,6.21,M,M,M,M,M,M,M,M,M,M,YBBN 221930Z 31008KT CAVOK 13/09 Q1011 NOSIG
YBBN,2016-09-22 20:00,153.1292,-27.3917,55.40,48.20,76.66,300.00,7.00,0.00,29.85,M,6.21,M,FEW,M,M,M,3500.00,M,M,M,M,YBBN 222000Z 30007KT 9999 FEW035 13/09 Q1011
YBBN,2016-09-22 20:30,153.1292,-27.3917,57.20,48.20,71.83,290.00,8.00,0.00,29.85,M,6.21,M,FEW,M,M,M,2000.00,M,M,M,M,YBBN 222030Z 29008KT 9999 FEW020 14/09 Q1011 NOSIG
YBBN,2016-09-22 21:00,153.1292,-27.3917,59.00,48.20,67.33,290.00,10.00,0.00,29.85,M,6.21,M,FEW,M,M,M,2000.00,M,M,M,M,YBBN 222100Z 29010KT 9999 FEW020 15/09 Q1011 NOSIG
YBBN,2016-09-22 21:30,153.1292,-27.3917,60.80,46.40,59.01,280.00,8.00,0.00,29.85,M,6.21,M,FEW,M,M,M,2000.00,M,M,M,M,YBBN 222130Z 28008KT 9999 FEW020 16/08 Q1011
YBBN,2016-09-22 22:00,153.1292,-27.3917,62.60,44.60,51.72,250.00,9.00,0.00,29.85,M,6.21,M,M,M,M,M,M,M,M,M,M,YBBN 222200Z 25009KT CAVOK 17/07 Q1011 NOSIG
YBBN,2016-09-22 22:30,153.1292,-27.3917,66.20,41.00,39.72,240.00,12.00,0.00,29.88,M,6.21,M,M,M,M,M,M,M,M,M,M,YBBN 222230Z 24012KT CAVOK 19/05 Q1012 NOSIG
YBBN,2016-09-22 23:00,153.1292,-27.3917,66.20,41.00,39.72,250.00,15.00,0.00,29.88,M,6.21,M,M,M,M,M,M,M,M,M,M,YBBN 222300Z 25015KT CAVOK 19/05 Q1012
YBBN,2016-09-22 23:30,153.1292,-27.3917,68.00,42.80,40.00,250.00,15.00,0.00,29.85,M,6.21,M,M,M,M,M,M,M,M,M,M,YBBN 222330Z 25015KT CAVOK 20/06 Q1011
