#DEBUG: Format Typ    -> comma
#DEBUG: Time Period   -> 2010-01-24 00:00:00+00:00 2010-01-25 00:00:00+00:00
#DEBUG: Time Zone     -> Etc/UTC
#DEBUG: Data Contact   -> daryl herzmann akrherz@iastate.edu 515-294-5978
#DEBUG: Entries Found -> -1
station,valid,lon,lat,tmpf, dwpf, relh, drct, sknt, p01i, alti, mslp, vsby, gust, skyc1, skyc2, skyc3, skyc4, skyl1, skyl2, skyl3, skyl4, presentwx, metar
YBBN,2010-01-24 00:00,153.1292,-27.3917,82.40,66.20,58.08,360.00,7.00,M,29.94,M,6.21,M,FEW,M,M,M,3000.00,M,M,M,M,YBBN 240000Z 36007KT 9999 FEW030 28/19 Q1014 NOSIG
YBBN,2010-01-24 00:30,153.1292,-27.3917,82.40,66.20,58.08,350.00,7.00,M,29.91,M,6.21,M,FEW,M,M,M,3300.00,M,M,M,M,YBBN 240030Z 35007KT 9999 FEW033 28/19 Q1013 NOSIG
YBBN,2010-01-24 01:00,153.1292,-27.3917,82.40,66.20,58.08,10.00,8.00,M,29.91,M,6.21,M,FEW,M,M,M,3500.00,M,M,M,M,YBBN 240100Z 01008KT 9999 FEW035 28/19 Q1013 NOSIG
YBBN,2010-01-24 01:30,153.1292,-27.3917,82.40,66.20,58.08,30.00,9.00,M,29.91,M,6.21,M,FEW,M,M,M,3500.00,M,M,M,M,YBBN 240130Z 03009KT 9999 FEW035 28/19 Q1013 NOSIG
YBBN,2010-01-24 02:00,153.1292,-27.3917,84.20,64.40,51.47,30.00,9.00,M,29.91,M,6.21,M,FEW,M,M,M,3500.00,M,M,M,M,YBBN 240200Z 03009KT 9999 FEW035 29/18 Q1013 NOSIG
YBBN,2010-01-24 02:30,153.1292,-27.3917,84.20,66.20,54.80,20.00,9.00,M,29.88,M,6.21,M,FEW,M,M,M,3500.00,M,M,M,M,YBBN 240230Z 02009KT 9999 FEW035 29/19 Q1012 NOSIG
YBBN,2010-01-24 03:00,153.1292,-27.3917,84.20,62.60,48.32,20.00,9.00,M,29.88,M,6.21,M,FEW,M,M,M,3500.00,M,M,M,M,YBBN 240300Z 02009KT 9999 FEW035 29/17 Q1012 NOSIG
YBBN,2010-01-24 03:30,153.1292,-27.3917,86.00,64.40,48.58,20.00,9.00,M,29.88,M,6.21,M,FEW,M,M,M,3500.00,M,M,M,M,YBBN 240330Z 02009KT 9999 FEW035 30/18 Q1012 NOSIG
YBBN,2010-01-24 04:00,153.1292,-27.3917,86.00,66.20,51.72,40.00,11.00,M,29.88,M,6.21,M,FEW,M,M,M,3500.00,M,M,M,M,YBBN 240400Z 04011KT 9999 FEW035 30/19 Q1012 NOSIG
YBBN,2010-01-24 04:30,153.1292,-27.3917,86.00,66.20,51.72,50.00,13.00,M,29.88,M,6.21,M,FEW,M,M,M,3500.00,M,M,M,M,YBBN 240430Z 05013KT 9999 FEW035 30/19 Q1012 NOSIG
YBBN,2010-01-24 05:00,153.1292,-27.3917,86.00,68.00,55.04,50.00,12.00,M,29.88,M,6.21,M,FEW,M,M,M,3500.00,M,M,M,M,YBBN 240500Z 05012KT 9999 FEW035 30/20 Q1012 NOSIG
YBBN,2010-01-24 05:30,153.1292,-27.3917,84.20,68.00,58.32,60.00,11.00,M,29.88,M,6.21,M,FEW,M,M,M,3500.00,M,M,M,M,YBBN 240530Z 06011KT 9999 FEW035 29/20 Q1012 NOSIG
YBBN,2010-01-24 06:00,153.1292,-27.3917,84.20,68.00,58.32,50.00,12.00,M,29.88,M,6.21,M,FEW,M,M,M,3300.00,M,M,M,M,YBBN 240600Z 05012KT 9999 FEW033 29/20 Q1012 NOSIG
YBBN,2010-01-24 06:30,153.1292,-27.3917,84.20,68.00,58.32,50.00,13.00,M,29.88,M,6.21,M,FEW,M,M,M,3000.00,M,M,M,M,YBBN 240630Z 05013KT 9999 FEW030 29/20 Q1012 NOSIG
YBBN,2010-01-24 07:00,153.1292,-27.3917,82.40,66.20,58.08,60.00,13.00,M,29.88,M,6.21,M,FEW,M,M,M,3000.00,M,M,M,M,YBBN 240700Z 06013KT 9999 FEW030 28/19 Q1012 NOSIG
YBBN,2010-01-24 07:30,153.1292,-27.3917,82.40,68.00,61.81,50.00,13.00,M,29.88,M,6.21,M,FEW,M,M,M,2800.00,M,M,M,M,YBBN 240730Z 05013KT 9999 FEW028 28/20 Q1012 NOSIG
YBBN,2010-01-24 08:00,153.1292,-27.3917,82.40,68.00,61.81,60.00,10.00,M,29.91,M,6.21,M,FEW,M,M,M,2900.00,M,M,M,M,YBBN 240800Z 06010KT 9999 FEW029 28/20 Q1013 NOSIG
YBBN,2010-01-24 08:30,153.1292,-27.3917,80.60,68.00,65.54,60.00,11.00,M,29.91,M,6.21,M,FEW,M,M,M,2900.00,M,M,M,M,YBBN 240830Z 06011KT 9999 FEW029 27/20 Q1013 NOSIG
YBBN,2010-01-24 09:00,153.1292,-27.3917,80.60,68.00,65.54,60.00,10.00,M,29.91,M,6.21,M,FEW,M,M,M,2900.00,M,M,M,M,YBBN 240900Z 06010KT 9999 FEW029 27/20 Q1013 NOSIG
YBBN,2010-01-24 09:30,153.1292,-27.3917,80.60,68.00,65.54,50.00,10.00,M,29.94,M,6.21,M,FEW,M,M,M,2900.00,M,M,M,M,YBBN 240930Z 05010KT 9999 FEW029 27/20 Q1014 NOSIG
YBBN,2010-01-24 10:00,153.1292,-27.3917,78.80,68.00,69.52,40.00,9.00,M,29.94,M,6.21,M,FEW,M,M,M,3000.00,M,M,M,M,YBBN 241000Z 04009KT 9999 FEW030 26/20 Q1014 NOSIG
YBBN,2010-01-24 10:30,153.1292,-27.3917,78.80,68.00,69.52,30.00,10.00,M,29.94,M,6.21,M,FEW,M,M,M,3000.00,M,M,M,M,YBBN 241030Z 03010KT 9999 FEW030 26/20 Q1014 NOSIG
YBBN,2010-01-24 11:00,153.1292,-27.3917,78.80,69.80,73.95,20.00,10.00,M,29.94,M,6.21,M,SCT,M,M,M,2800.00,M,M,M,M,YBBN 241100Z 02010KT 9999 SCT028 26/21 Q1014 NOSIG
YBBN,2010-01-24 11:30,153.1292,-27.3917,78.80,69.80,73.95,30.00,13.00,M,29.94,M,6.21,M,BKN,M,M,M,2500.00,M,M,M,M,YBBN 241130Z 03013KT 9999 BKN025 26/21 Q1014 NOSIG
YBBN,2010-01-24 12:00,153.1292,-27.3917,78.80,68.00,69.52,30.00,13.00,M,29.94,M,6.21,M,SCT,M,M,M,2500.00,M,M,M,M,YBBN 241200Z 03013KT 9999 SCT025 26/20 Q1014 NOSIG
YBBN,2010-01-24 12:30,153.1292,-27.3917,77.00,68.00,73.78,30.00,11.00,M,29.94,M,6.21,M,FEW,M,M,M,2500.00,M,M,M,M,YBBN 241230Z 03011KT 9999 FEW025 25/20 Q1014 NOSIG
YBBN,2010-01-24 13:00,153.1292,-27.3917,77.00,68.00,73.78,30.00,10.00,M,29.94,M,6.21,M,FEW,M,M,M,2500.00,M,M,M,M,YBBN 241300Z 03010KT 9999 FEW025 25/20 Q1014 NOSIG
YBBN,2010-01-24 13:30,153.1292,-27.3917,77.00,68.00,73.78,10.00,11.00,M,29.94,M,6.21,M,FEW,M,M,M,2500.00,M,M,M,M,YBBN 241330Z 01011KT 9999 FEW025 25/20 Q1014 NOSIG
YBBN,2010-01-24 14:00,153.1292,-27.3917,77.00,68.00,73.78,10.00,9.00,M,29.91,M,6.21,M,SCT,M,M,M,2500.00,M,M,M,M,YBBN 241400Z 01009KT 9999 SCT025 25/20 Q1013 NOSIG
YBBN,2010-01-24 14:30,153.1292,-27.3917,77.00,68.00,73.78,360.00,9.00,M,29.91,M,6.21,M,SCT,M,M,M,2500.00,M,M,M,M,YBBN 241430Z 36009KT 9999 SCT025 25/20 Q1013 NOSIG
YBBN,2010-01-24 15:00,153.1292,-27.3917,75.20,68.00,78.34,290.00,6.00,M,29.91,M,6.21,M,FEW,M,M,M,2500.00,M,M,M,M,YBBN 241500Z 29006KT 9999 FEW025 24/20 Q1013 NOSIG
YBBN,2010-01-24 15:30,153.1292,-27.3917,75.20,68.00,78.34,280.00,5.00,M,29.91,M,6.21,M,FEW,M,M,M,2500.00,M,M,M,M,YBBN 241530Z 28005KT 9999 FEW025 24/20 Q1013 NOSIG
YBBN,2010-01-24 16:00,153.1292,-27.3917,73.40,68.00,83.21,270.00,4.00,M,29.91,M,6.21,M,FEW,M,M,M,2500.00,M,M,M,M,YBBN 241600Z 27004KT 9999 FEW025 23/20 Q1013 NOSIG
YBBN,2010-01-24 16:30,153.1292,-27.3917,71.60,68.00,88.43,0.00,0.00,M,29.88,M,6.21,M,FEW,M,M,M,2500.00,M,M,M,M,YBBN 241630Z 00000KT 9999 FEW025 22/20 Q1012 NOSIG
YBBN,2010-01-24 17:00,153.1292,-27.3917,71.60,68.00,88.43,0.00,0.00,M,29.88,M,6.21,M,FEW,M,M,M,2500.00,M,M,M,M,YBBN 241700Z 00000KT 9999 FEW025 22/20 Q1012 NOSIG
YBBN,2010-01-24 17:30,153.1292,-27.3917,69.80,66.20,88.34,220.00,3.00,M,29.88,M,6.21,M,FEW,M,M,M,2500.00,M,M,M,M,YBBN 241730Z 22003KT 9999 FEW025 21/19 Q1012 NOSIG
YBBN,2010-01-24 18:00,153.1292,-27.3917,69.80,68.00,94.01,220.00,5.00,M,29.91,M,6.21,M,FEW,M,M,M,2200.00,M,M,M,M,YBBN 241800Z 22005KT 9999 FEW022 21/20 Q1013 NOSIG
YBBN,2010-01-24 18:30,153.1292,-27.3917,69.80,68.00,94.01,230.00,4.00,M,29.88,M,6.21,M,FEW,M,M,M,2200.00,M,M,M,M,YBBN 241830Z 23004KT 9999 FEW022 21/20 Q1012 NOSIG
YBBN,2010-01-24 19:00,153.1292,-27.3917,69.80,68.00,94.01,220.00,5.00,M,29.91,M,6.21,M,FEW,M,M,M,2200.00,M,M,M,M,YBBN 241900Z 22005KT 9999 FEW022 21/20 Q1013 NOSIG
YBBN,2010-01-24 19:30,153.1292,-27.3917,69.80,68.00,94.01,210.00,4.00,M,29.91,M,6.21,M,FEW,M,M,M,2200.00,M,M,M,M,YBBN 241930Z 21004KT 9999 FEW022 21/20 Q1013 NOSIG
YBBN,2010-01-24 20:00,153.1292,-27.3917,71.60,69.80,94.06,220.00,4.00,M,29.91,M,6.21,M,FEW,SCT,M,M,2200.00,2500.00,M,M,M,YBBN 242000Z 22004KT 9999 FEW022 SCT025 22/21 Q1013 RMK SMOKE HAZE NOSIG
YBBN,2010-01-24 20:30,153.1292,-27.3917,75.20,69.80,83.32,210.00,4.00,M,29.94,M,6.21,M,FEW,SCT,M,M,2200.00,2500.00,M,M,M,YBBN 242030Z 21004KT 9999 FEW022 SCT025 24/21 Q1014 RMK SMOKE/HAZE NOSIG
YBBN,2010-01-24 21:00,153.1292,-27.3917,78.80,69.80,73.95,230.00,5.00,M,29.94,M,6.21,M,FEW,SCT,M,M,2200.00,2600.00,M,M,M,YBBN 242100Z 23005KT 9999 FEW022 SCT026 26/21 Q1014 RMK SMOKE/HAZE NOSIG
YBBN,2010-01-24 21:30,153.1292,-27.3917,80.60,69.80,69.71,280.00,5.00,M,29.94,M,6.21,M,FEW,SCT,M,M,2200.00,2600.00,M,M,M,YBBN 242130Z 28005KT 9999 FEW022 SCT026 27/21 Q1014 NOSIG
YBBN,2010-01-24 22:00,153.1292,-27.3917,78.80,69.80,73.95,360.00,2.00,M,29.97,M,6.21,M,FEW,SCT,M,M,2000.00,2500.00,M,M,M,YBBN 242200Z 36002KT 9999 FEW020 SCT025 26/21 Q1015 NOSIG
YBBN,2010-01-24 22:30,153.1292,-27.3917,82.40,69.80,65.74,10.00,6.00,M,29.97,M,6.21,M,FEW,BKN,M,M,2000.00,2400.00,M,M,M,YBBN 242230Z 01006KT 9999 FEW020 BKN024 28/21 Q1015 RMK SMOKE TO SOUTH NOSIG
YBBN,2010-01-24 23:00,153.1292,-27.3917,80.60,69.80,69.71,10.00,6.00,M,29.97,M,6.21,M,FEW,BKN,M,M,2000.00,2400.00,M,M,M,YBBN 242300Z 01006KT 9999 FEW020 BKN024 27/21 Q1015 RMK SMOKE TO SOUTH NOSIG
YBBN,2010-01-24 23:30,153.1292,-27.3917,82.40,68.00,61.81,20.00,8.00,M,29.97,M,6.21,M,FEW,SCT,M,M,2100.00,2500.00,M,M,M,YBBN 242330Z 02008KT 9999 FEW021 SCT025 28/20 Q1015 RMK SMOKE TO SOUTH NOSIG
