#DEBUG: Format Typ    -> comma
#DEBUG: Time Period   -> 2016-07-03 00:00:00+00:00 2016-07-04 00:00:00+00:00
#DEBUG: Time Zone     -> Etc/UTC
#DEBUG: Data Contact   -> daryl herzmann akrherz@iastate.edu 515-294-5978
#DEBUG: Entries Found -> -1
station,valid,lon,lat,tmpf, dwpf, relh, drct, sknt, p01i, alti, mslp, vsby, gust, skyc1, skyc2, skyc3, skyc4, skyl1, skyl2, skyl3, skyl4, presentwx, metar
YBBN,2016-07-03 00:00,153.1292,-27.3917,60.80,41.00,48.00,210.00,11.00,0.00,30.33,M,6.21,M,M,M,M,M,M,M,M,M,M,YBBN 030000Z 21011KT CAVOK 16/05 Q1027
YBBN,2016-07-03 00:30,153.1292,-27.3917,62.60,41.00,45.04,200.00,10.00,0.00,30.30,M,6.21,M,M,M,M,M,M,M,M,M,M,YBBN 030030Z 20010KT CAVOK 17/05 Q1026 NOSIG
YBBN,2016-07-03 01:00,153.1292,-27.3917,64.40,41.00,42.28,210.00,9.00,0.00,30.30,M,6.21,M,M,M,M,M,M,M,M,M,M,YBBN 030100Z 21009KT CAVOK 18/05 Q1026 NOSIG
YBBN,2016-07-03 01:30,153.1292,-27.3917,66.20,44.60,45.60,220.00,8.00,0.00,30.27,M,6.21,M,FEW,M,M,M,4500.00,M,M,M,M,YBBN 030130Z 22008KT 9999 FEW045 19/07 Q1025 NOSIG
YBBN,2016-07-03 02:00,153.1292,-27.3917,66.20,42.80,42.57,200.00,5.00,0.00,30.27,M,6.21,M,FEW,M,M,M,4500.00,M,M,M,M,YBBN 030200Z 20005KT 170V230 9999 FEW045 19/06 Q1025
YBBN,2016-07-03 02:30,153.1292,-27.3917,68.00,44.60,42.85,160.00,5.00,0.00,30.24,M,6.21,M,FEW,M,M,M,4500.00,M,M,M,M,YBBN 030230Z 16005KT 110V200 9999 FEW045 20/07 Q1024 NOSIG
YBBN,2016-07-03 03:00,153.1292,-27.3917,68.00,44.60,42.85,110.00,4.00,0.00,30.24,M,6.21,M,FEW,M,M,M,4500.00,M,M,M,M,YBBN 030300Z 11004KT 070V190 9999 FEW045 20/07 Q1024 NOSIG
YBBN,2016-07-03 03:30,153.1292,-27.3917,68.00,44.60,42.85,100.00,4.00,0.00,30.21,M,6.21,M,FEW,M,M,M,4500.00,M,M,M,M,YBBN 030330Z 10004KT 040V160 9999 FEW045 20/07 Q1023 NOSIG
YBBN,2016-07-03 04:00,153.1292,-27.3917,68.00,46.40,45.88,30.00,7.00,0.00,30.21,M,6.21,M,FEW,M,M,M,4500.00,M,M,M,M,YBBN 030400Z 03007KT 9999 FEW045 20/08 Q1023 NOSIG
YBBN,2016-07-03 04:30,153.1292,-27.3917,68.00,46.40,45.88,20.00,7.00,0.00,30.21,M,6.21,M,FEW,M,M,M,4500.00,M,M,M,M,YBBN 030430Z 02007KT 9999 FEW045 20/08 Q1023 NOSIG
YBBN,2016-07-03 05:00,153.1292,-27.3917,68.00,44.60,42.85,30.00,7.00,0.00,30.21,M,6.21,M,FEW,M,M,M,4500.00,M,M,M,M,YBBN 030500Z 03007KT 9999 FEW045 20/07 Q1023
YBBN,2016-07-03 05:30,153.1292,-27.3917,68.00,48.20,49.10,20.00,7.00,0.00,30.21,M,6.21,M,M,M,M,M,M,M,M,M,M,YBBN 030530Z 02007KT CAVOK 20/09 Q1023 NOSIG
YBBN,2016-07-03 06:00,153.1292,-27.3917,66.20,48.20,52.25,20.00,7.00,0.00,30.21,M,6.21,M,M,M,M,M,M,M,M,M,M,YBBN 030600Z 02007KT CAVOK 19/09 Q1023
YBBN,2016-07-03 06:30,153.1292,-27.3917,64.40,50.00,59.50,20.00,6.00,0.00,30.21,M,6.21,M,M,M,M,M,M,M,M,M,M,YBBN 030630Z 02006KT CAVOK 18/10 Q1023 NOSIG
YBBN,2016-07-03 07:00,153.1292,-27.3917,60.80,51.80,72.20,30.00,5.00,0.00,30.21,M,6.21,M,M,M,M,M,M,M,M,M,M,YBBN 030700Z 03005KT CAVOK 16/11 Q1023
YBBN,2016-07-03 07:30,153.1292,-27.3917,59.00,51.80,76.98,50.00,4.00,0.00,30.24,M,6.21,M,M,M,M,M,M,M,M,M,M,YBBN 030730Z 05004KT CAVOK 15/11 Q1024 NOSIG
YBBN,2016-07-03 08:00,153.1292,-27.3917,57.20,51.80,82.12,50.00,4.00,0.00,30.24,M,6.21,M,M,M,M,M,M,M,M,M,M,YBBN 030800Z 05004KT CAVOK 14/11 Q1024
YBBN,2016-07-03 08:30,153.1292,-27.3917,59.00,50.00,72.01,40.00,4.00,0.00,30.24,M,6.21,M,M,M,M,M,M,M,M,M,M,YBBN 030830Z 04004KT CAVOK 15/10 Q1024 NOSIG
YBBN,2016-07-03 09:00,153.1292,-27.3917,57.20,51.80,82.12,50.00,4.00,0.00,30.24,M,6.21,M,M,M,M,M,M,M,M,M,M,YBBN 030900Z 05004KT CAVOK 14/11 Q1024 NOSIG
YBBN,2016-07-03 09:30,153.1292,-27.3917,53.60,50.00,87.56,60.00,4.00,0.00,30.27,M,6.21,M,M,M,M,M,M,M,M,M,M,YBBN 030930Z 06004KT CAVOK 12/10 Q1025 NOSIG
YBBN,2016-07-03 10:00,153.1292,-27.3917,55.40,51.80,87.65,0.00,0.00,0.00,30.27,M,6.21,M,M,M,M,M,M,M,M,M,M,YBBN 031000Z 00000KT CAVOK 13/11 Q1025 NOSIG
YBBN,2016-07-03 10:30,153.1292,-27.3917,55.40,50.00,81.99,0.00,0.00,0.00,30.27,M,6.21,M,M,M,M,M,M,M,M,M,M,YBBN 031030Z 00000KT CAVOK 13/10 Q1025 NOSIG
YBBN,2016-07-03 11:00,153.1292,-27.3917,53.60,50.00,87.56,0.00,0.00,0.00,30.27,M,6.21,M,M,M,M,M,M,M,M,M,M,YBBN 031100Z 00000KT CAVOK 12/10 Q1025
YBBN,2016-07-03 11:30,153.1292,-27.3917,53.60,50.00,87.56,0.00,0.00,0.00,30.27,M,6.21,M,M,M,M,M,M,M,M,M,M,YBBN 031130Z 00000KT CAVOK 12/10 Q1025 NOSIG
YBBN,2016-07-03 12:00,153.1292,-27.3917,53.60,50.00,87.56,270.00,5.00,0.00,30.27,M,6.21,M,M,M,M,M,M,M,M,M,M,YBBN 031200Z 27005KT CAVOK 12/10 Q1025
YBBN,2016-07-03 12:30,153.1292,-27.3917,51.80,50.00,93.55,250.00,5.00,0.00,30.24,M,6.21,M,M,M,M,M,M,M,M,M,M,YBBN 031230Z 25005KT CAVOK 11/10 Q1024 NOSIG
YBBN,2016-07-03 13:00,153.1292,-27.3917,51.80,50.00,93.55,0.00,0.00,0.00,30.24,M,6.21,M,M,M,M,M,M,M,M,M,M,YBBN 031300Z 00000KT CAVOK 11/10 Q1024
YBBN,2016-07-03 13:30,153.1292,-27.3917,50.00,48.20,93.50,210.00,4.00,0.00,30.24,M,6.21,M,M,M,M,M,M,M,M,M,M,YBBN 031330Z 21004KT CAVOK 10/09 Q1024 NOSIG
YBBN,2016-07-03 14:00,153.1292,-27.3917,50.00,48.20,93.50,200.00,5.00,0.00,30.24,M,6.21,M,M,M,M,M,M,M,M,M,M,YBBN 031400Z 20005KT 150V220 CAVOK 10/09 Q1024 NOSIG
YBBN,2016-07-03 14:30,153.1292,-27.3917,50.00,48.20,93.50,210.00,5.00,0.00,30.21,M,6.21,M,M,M,M,M,M,M,M,M,M,YBBN 031430Z 21005KT CAVOK 10/09 Q1023 NOSIG
YBBN,2016-07-03 15:00,153.1292,-27.3917,50.00,48.20,93.50,200.00,6.00,0.00,30.21,M,6.21,M,M,M,M,M,M,M,M,M,M,YBBN 031500Z 20006KT CAVOK 10/09 Q1023 NOSIG
YBBN,2016-07-03 15:30,153.1292,-27.3917,50.00,48.20,93.50,200.00,5.00,0.00,30.21,M,6.21,M,FEW,M,M,M,3500.00,M,M,M,M,YBBN 031530Z 20005KT 9999 FEW035 10/09 Q1023 NOSIG
YBBN,2016-07-03 16:00,153.1292,-27.3917,50.00,48.20,93.50,200.00,7.00,0.00,30.21,M,6.21,M,M,M,M,M,M,M,M,M,M,YBBN 031600Z 20007KT CAVOK 10/09 Q1023 NOSIG
YBBN,2016-07-03 16:30,153.1292,-27.3917,48.20,46.40,93.45,210.00,9.00,0.00,30.21,M,6.21,M,M,M,M,M,M,M,M,M,M,YBBN 031630Z 21009KT CAVOK 09/08 Q1023 NOSIG
YBBN,2016-07-03 17:00,153.1292,-27.3917,50.00,48.20,93.50,210.00,8.00,0.00,30.21,M,6.21,M,M,M,M,M,M,M,M,M,M,YBBN 031700Z 21008KT CAVOK 10/09 Q1023 NOSIG
YBBN,2016-07-03 17:30,153.1292,-27.3917,48.20,46.40,93.45,210.00,7.00,0.00,30.21,M,6.21,M,M,M,M,M,M,M,M,M,M,YBBN 031730Z 21007KT CAVOK 09/08 Q1023 NOSIG
YBBN,2016-07-03 18:00,153.1292,-27.3917,50.00,46.40,87.37,190.00,8.00,0.00,30.21,M,6.21,M,M,M,M,M,M,M,M,M,M,YBBN 031800Z 19008KT CAVOK 10/08 Q1023 NOSIG
YBBN,2016-07-03 18:30,153.1292,-27.3917,50.00,48.20,93.50,180.00,7.00,0.00,30.21,M,6.21,M,M,M,M,M,M,M,M,M,M,YBBN 031830Z 18007KT CAVOK 10/09 Q1023 NOSIG
YBBN,2016-07-03 19:00,153.1292,-27.3917,51.80,48.20,87.47,190.00,7.00,0.00,30.18,M,6.21,M,M,M,M,M,M,M,M,M,M,YBBN 031900Z 19007KT CAVOK 11/09 Q1022 NOSIG
YBBN,2016-07-03 19:30,153.1292,-27.3917,50.00,48.20,93.50,200.00,8.00,0.00,30.21,M,6.21,M,M,M,M,M,M,M,M,M,M,YBBN 031930Z 20008KT CAVOK 10/09 Q1023 NOSIG
YBBN,2016-07-03 20:00,153.1292,-27.3917,48.20,46.40,93.45,210.00,8.00,0.00,30.21,M,6.21,M,FEW,SCT,M,M,3000.00,22000.00,M,M,M,YBBN 032000Z 21008KT 9999 FEW030 SCT220 09/08 Q1023 NOSIG
YBBN,2016-07-03 20:30,153.1292,-27.3917,50.00,46.40,87.37,190.00,7.00,0.00,30.21,M,6.21,M,FEW,SCT,M,M,3000.00,22000.00,M,M,M,YBBN 032030Z 19007KT 9999 FEW030 SCT220 10/08 Q1023 NOSIG
YBBN,2016-07-03 21:00,153.1292,-27.3917,48.20,46.40,93.45,200.00,5.00,0.00,30.21,M,6.21,M,FEW,SCT,M,M,3000.00,22000.00,M,M,M,YBBN 032100Z 20005KT 9999 FEW030 SCT220 09/08 Q1023 NOSIG
YBBN,2016-07-03 21:30,153.1292,-27.3917,50.00,46.40,87.37,200.00,8.00,0.00,30.21,M,6.21,M,FEW,SCT,M,M,3000.00,22000.00,M,M,M,YBBN 032130Z 20008KT 9999 FEW030 SCT220 10/08 Q1023 NOSIG
YBBN,2016-07-03 22:00,153.1292,-27.3917,51.80,46.40,81.74,210.00,7.00,0.00,30.21,M,6.21,M,FEW,SCT,M,M,3000.00,22000.00,M,M,M,YBBN 032200Z 21007KT 9999 FEW030 SCT220 11/08 Q1023 NOSIG
YBBN,2016-07-03 22:30,153.1292,-27.3917,53.60,48.20,81.87,210.00,6.00,0.00,30.21,M,6.21,M,FEW,SCT,M,M,3000.00,22000.00,M,M,M,YBBN 032230Z 21006KT 9999 FEW030 SCT220 12/09 Q1023 NOSIG
YBBN,2016-07-03 23:00,153.1292,-27.3917,55.40,50.00,81.99,210.00,8.00,0.00,30.21,M,6.21,M,M,M,M,M,M,M,M,M,M,YBBN 032300Z 21008KT CAVOK 13/10 Q1023 NOSIG
YBBN,2016-07-03 23:30,153.1292,-27.3917,57.20,50.00,76.82,210.00,9.00,0.00,30.21,M,6.21,M,M,M,M,M,M,M,M,M,M,YBBN 032330Z 21009KT CAVOK 14/10 Q1023 NOSIG
