#DEBUG: Format Typ    -> comma
#DEBUG: Time Period   -> 2010-03-27 00:00:00+00:00 2010-03-28 00:00:00+00:00
#DEBUG: Time Zone     -> Etc/UTC
#DEBUG: Data Contact   -> daryl herzmann akrherz@iastate.edu 515-294-5978
#DEBUG: Entries Found -> -1
station,valid,lon,lat,tmpf, dwpf, relh, drct, sknt, p01i, alti, mslp, vsby, gust, skyc1, skyc2, skyc3, skyc4, skyl1, skyl2, skyl3, skyl4, presentwx, metar
YBBN,2010-03-27 00:00,153.1292,-27.3917,80.60,64.40,57.84,80.00,4.00,M,30.12,M,6.21,M,FEW,M,M,M,2600.00,M,M,M,M,YBBN 270000Z 08004KT 9999 FEW026 27/18 Q1020 NOSIG
YBBN,2010-03-27 00:30,153.1292,-27.3917,80.60,64.40,57.84,170.00,4.00,M,30.12,M,6.21,M,SCT,M,M,M,2600.00,M,M,M,M,YBBN 270030Z 17004KT 9999 SCT026 27/18 Q1020 NOSIG
YBBN,2010-03-27 01:00,153.1292,-27.3917,78.80,64.40,61.36,60.00,7.00,M,30.12,M,6.21,M,SCT,M,M,M,2600.00,M,M,M,M,YBBN 270100Z 06007KT 9999 SCT026 26/18 Q1020 NOSIG
YBBN,2010-03-27 01:30,153.1292,-27.3917,80.60,64.40,57.84,60.00,6.00,M,30.12,M,6.21,M,SCT,M,M,M,2800.00,M,M,M,M,YBBN 270130Z 06006KT 9999 SCT028 27/18 Q1020 NOSIG
YBBN,2010-03-27 02:00,153.1292,-27.3917,80.60,64.40,57.84,50.00,7.00,M,30.09,M,6.21,M,SCT,M,M,M,3000.00,M,M,M,M,YBBN 270200Z 05007KT 9999 SCT030 27/18 Q1019 NOSIG
YBBN,2010-03-27 02:30,153.1292,-27.3917,80.60,64.40,57.84,50.00,7.00,M,30.09,M,6.21,M,SCT,M,M,M,3000.00,M,M,M,M,YBBN 270230Z 05007KT 9999 SCT030 27/18 Q1019 NOSIG
YBBN,2010-03-27 03:00,153.1292,-27.3917,80.60,64.40,57.84,40.00,7.00,M,30.09,M,6.21,M,FEW,M,M,M,3000.00,M,M,M,M,YBBN 270300Z 04007KT 9999 FEW030 27/18 Q1019 NOSIG
YBBN,2010-03-27 03:30,153.1292,-27.3917,82.40,64.40,54.55,40.00,7.00,M,30.06,M,6.21,M,FEW,M,M,M,3000.00,M,M,M,M,YBBN 270330Z 04007KT 9999 FEW030 28/18 Q1018 NOSIG
YBBN,2010-03-27 04:00,153.1292,-27.3917,80.60,66.20,61.58,40.00,8.00,M,30.06,M,6.21,M,FEW,M,M,M,3000.00,M,M,M,M,YBBN 270400Z 04008KT 9999 FEW030 27/19 Q1018 NOSIG
YBBN,2010-03-27 04:30,153.1292,-27.3917,80.60,66.20,61.58,40.00,9.00,M,30.06,M,6.21,M,FEW,M,M,M,3000.00,M,M,M,M,YBBN 270430Z 04009KT 9999 FEW030 27/19 Q1018 NOSIG
YBBN,2010-03-27 05:00,153.1292,-27.3917,80.60,68.00,65.54,50.00,9.00,M,30.06,M,6.21,M,FEW,M,M,M,3000.00,M,M,M,M,YBBN 270500Z 05009KT 9999 FEW030 27/20 Q1018 NOSIG
YBBN,2010-03-27 05:30,153.1292,-27.3917,80.60,66.20,61.58,30.00,8.00,M,30.06,M,6.21,M,FEW,M,M,M,3000.00,M,M,M,M,YBBN 270530Z 03008KT 9999 FEW030 27/19 Q1018 NOSIG
YBBN,2010-03-27 06:00,153.1292,-27.3917,80.60,66.20,61.58,40.00,8.00,M,30.06,M,6.21,M,FEW,M,M,M,3000.00,M,M,M,M,YBBN 270600Z 04008KT 9999 FEW030 27/19 Q1018 NOSIG
YBBN,2010-03-27 06:30,153.1292,-27.3917,78.80,66.20,65.33,50.00,8.00,M,30.06,M,6.21,M,FEW,M,M,M,3000.00,M,M,M,M,YBBN 270630Z 05008KT 9999 FEW030 26/19 Q1018 NOSIG
YBBN,2010-03-27 07:00,153.1292,-27.3917,78.80,66.20,65.33,60.00,8.00,M,30.06,M,6.21,M,FEW,M,M,M,3000.00,M,M,M,M,YBBN 270700Z 06008KT 9999 FEW030 26/19 Q1018 NOSIG
YBBN,2010-03-27 07:30,153.1292,-27.3917,77.00,66.20,69.33,50.00,7.00,M,30.06,M,6.21,M,FEW,M,M,M,2500.00,M,M,M,M,YBBN 270730Z 05007KT 9999 FEW025 25/19 Q1018 NOSIG
YBBN,2010-03-27 08:00,153.1292,-27.3917,75.20,66.20,73.61,50.00,5.00,M,30.06,M,6.21,M,FEW,M,M,M,2500.00,M,M,M,M,YBBN 270800Z 05005KT 9999 FEW025 24/19 Q1018 NOSIG
YBBN,2010-03-27 08:30,153.1292,-27.3917,75.20,66.20,73.61,60.00,5.00,M,30.09,M,6.21,M,FEW,M,M,M,2500.00,M,M,M,M,YBBN 270830Z 06005KT 9999 FEW025 24/19 Q1019 NOSIG
YBBN,2010-03-27 09:00,153.1292,-27.3917,75.20,66.20,73.61,70.00,6.00,M,30.09,M,6.21,M,M,M,M,M,M,M,M,M,M,YBBN 270900Z 07006KT CAVOK 24/19 Q1019 NOSIG
YBBN,2010-03-27 09:30,153.1292,-27.3917,75.20,66.20,73.61,70.00,5.00,M,30.09,M,6.21,M,M,M,M,M,M,M,M,M,M,YBBN 270930Z 07005KT CAVOK 24/19 Q1019 NOSIG
YBBN,2010-03-27 10:00,153.1292,-27.3917,75.20,66.20,73.61,70.00,5.00,M,30.09,M,6.21,M,M,M,M,M,M,M,M,M,M,YBBN 271000Z 07005KT CAVOK 24/19 Q1019 NOSIG
YBBN,2010-03-27 10:30,153.1292,-27.3917,75.20,66.20,73.61,60.00,6.00,M,30.09,M,6.21,M,FEW,M,M,M,2500.00,M,M,M,M,YBBN 271030Z 06006KT 9999 FEW025 24/19 Q1019 NOSIG
YBBN,2010-03-27 11:00,153.1292,-27.3917,75.20,66.20,73.61,60.00,5.00,M,30.09,M,6.21,M,FEW,M,M,M,2000.00,M,M,M,M,YBBN 271100Z 06005KT 9999 FEW020 24/19 Q1019 NOSIG
YBBN,2010-03-27 11:30,153.1292,-27.3917,73.40,66.20,78.19,70.00,5.00,M,30.12,M,6.21,M,FEW,M,M,M,2000.00,M,M,M,M,YBBN 271130Z 07005KT 9999 FEW020 23/19 Q1020 NOSIG
YBBN,2010-03-27 12:00,153.1292,-27.3917,73.40,66.20,78.19,80.00,5.00,M,30.12,M,6.21,M,FEW,M,M,M,2000.00,M,M,M,M,YBBN 271200Z 08005KT 9999 FEW020 23/19 Q1020 NOSIG
YBBN,2010-03-27 12:30,153.1292,-27.3917,73.40,66.20,78.19,80.00,4.00,M,30.09,M,6.21,M,FEW,M,M,M,2000.00,M,M,M,M,YBBN 271230Z 08004KT 9999 FEW020 23/19 Q1019 NOSIG
YBBN,2010-03-27 13:00,153.1292,-27.3917,73.40,66.20,78.19,80.00,5.00,M,30.09,M,6.21,M,FEW,M,M,M,2000.00,M,M,M,M,YBBN 271300Z 08005KT 9999 FEW020 23/19 Q1019 NOSIG
YBBN,2010-03-27 13:30,153.1292,-27.3917,75.20,68.00,78.34,80.00,5.00,M,30.09,M,6.21,M,FEW,M,M,M,2000.00,M,M,M,M,YBBN 271330Z 08005KT 9999 FEW020 24/20 Q1019 NOSIG
YBBN,2010-03-27 14:00,153.1292,-27.3917,73.40,68.00,83.21,80.00,4.00,M,30.09,M,6.21,M,FEW,M,M,M,2000.00,M,M,M,M,YBBN 271400Z 08004KT 9999 FEW020 23/20 Q1019 NOSIG
YBBN,2010-03-27 14:30,153.1292,-27.3917,73.40,68.00,83.21,80.00,4.00,M,30.09,M,6.21,M,FEW,M,M,M,2000.00,M,M,M,M,YBBN 271430Z 08004KT 9999 FEW020 23/20 Q1019 NOSIG
YBBN,2010-03-27 15:00,153.1292,-27.3917,69.80,66.20,88.34,80.00,3.00,M,30.06,M,6.21,M,FEW,M,M,M,2000.00,M,M,M,M,YBBN 271500Z 08003KT 9999 FEW020 21/19 Q1018 NOSIG
YBBN,2010-03-27 15:30,153.1292,-27.3917,69.80,66.20,88.34,220.00,4.00,M,30.06,M,6.21,M,FEW,SCT,M,M,2000.00,4300.00,M,M,M,YBBN 271530Z 22004KT 9999 FEW020 SCT043 21/19 Q1018 NOSIG
YBBN,2010-03-27 16:00,153.1292,-27.3917,69.80,68.00,94.01,220.00,5.00,M,30.06,M,6.21,M,SCT,M,M,M,2000.00,M,M,M,M,YBBN 271600Z 22005KT 9999 SCT020 21/20 Q1018 NOSIG
