#DEBUG: Format Typ    -> comma
#DEBUG: Time Period   -> 2016-07-22 00:00:00+00:00 2016-07-23 00:00:00+00:00
#DEBUG: Time Zone     -> Etc/UTC
#DEBUG: Data Contact   -> daryl herzmann akrherz@iastate.edu 515-294-5978
#DEBUG: Entries Found -> -1
station,valid,lon,lat,tmpf, dwpf, relh, drct, sknt, p01i, alti, mslp, vsby, gust, skyc1, skyc2, skyc3, skyc4, skyl1, skyl2, skyl3, skyl4, presentwx, metar
YBBN,2016-07-22 01:00,153.1292,-27.3917,73.40,64.40,73.44,360.00,6.00,0.00,29.97,M,6.21,M,FEW,M,M,M,2500.00,M,M,M,M,YBBN 220100Z 36006KT 9999 FEW025 23/18 Q1015 NOSIG
YBBN,2016-07-22 01:30,153.1292,-27.3917,73.40,64.40,73.44,20.00,6.00,0.00,29.94,M,6.21,M,FEW,M,M,M,2600.00,M,M,M,M,YBBN 220130Z 02006KT 9999 FEW026 23/18 Q1014 NOSIG
YBBN,2016-07-22 02:00,153.1292,-27.3917,75.20,66.20,73.61,30.00,7.00,0.00,29.91,M,6.21,M,FEW,M,M,M,2600.00,M,M,M,M,YBBN 220200Z 03007KT 9999 FEW026 24/19 Q1013 NOSIG
YBBN,2016-07-22 02:30,153.1292,-27.3917,75.20,64.40,69.14,20.00,8.00,0.00,29.91,M,6.21,M,FEW,M,M,M,2800.00,M,M,M,M,YBBN 220230Z 02008KT 9999 FEW028 24/18 Q1013 NOSIG
YBBN,2016-07-22 03:00,153.1292,-27.3917,75.20,64.40,69.14,40.00,9.00,0.00,29.88,M,6.21,M,FEW,M,M,M,2800.00,M,M,M,M,YBBN 220300Z 04009KT 9999 FEW028 24/18 Q1012 NOSIG
YBBN,2016-07-22 03:30,153.1292,-27.3917,75.20,64.40,69.14,30.00,11.00,0.00,29.85,M,6.21,M,FEW,M,M,M,2800.00,M,M,M,M,YBBN 220330Z 03011KT 9999 FEW028 24/18 Q1011 NOSIG
YBBN,2016-07-22 04:00,153.1292,-27.3917,75.20,64.40,69.14,20.00,10.00,0.00,29.85,M,6.21,M,FEW,M,M,M,3000.00,M,M,M,M,YBBN 220400Z 02010KT 9999 FEW030 24/18 Q1011 NOSIG
YBBN,2016-07-22 04:30,153.1292,-27.3917,75.20,64.40,69.14,30.00,12.00,0.00,29.85,M,6.21,M,FEW,M,M,M,2800.00,M,M,M,M,YBBN 220430Z 03012KT 9999 FEW028 24/18 Q1011 NOSIG
YBBN,2016-07-22 05:00,153.1292,-27.3917,73.40,64.40,73.44,30.00,10.00,0.00,29.85,M,6.21,M,FEW,M,M,M,2500.00,M,M,M,M,YBBN 220500Z 03010KT 9999 FEW025 23/18 Q1011 NOSIG
YBBN,2016-07-22 05:30,153.1292,-27.3917,73.40,64.40,73.44,10.00,13.00,0.00,29.85,M,6.21,M,FEW,M,M,M,2500.00,M,M,M,M,YBBN 220530Z 01013KT 9999 FEW025 23/18 Q1011 NOSIG
YBBN,2016-07-22 06:00,153.1292,-27.3917,69.80,64.40,82.98,10.00,13.00,0.00,29.83,M,6.21,M,FEW,M,M,M,2300.00,M,M,M,M,YBBN 220600Z 01013KT 9999 FEW023 21/18 Q1010 NOSIG
YBBN,2016-07-22 06:30,153.1292,-27.3917,69.80,64.40,82.98,10.00,12.00,0.00,29.83,M,6.21,M,FEW,M,M,M,2300.00,M,M,M,M,YBBN 220630Z 01012KT 9999 FEW023 21/18 Q1010 NOSIG
YBBN,2016-07-22 07:00,153.1292,-27.3917,68.00,66.20,93.97,360.00,10.00,0.00,29.85,M,6.21,M,M,M,M,M,M,M,M,M,M,YBBN 220700Z 36010KT CAVOK 20/19 Q1011 NOSIG
YBBN,2016-07-22 07:30,153.1292,-27.3917,68.00,66.20,93.97,360.00,10.00,0.00,29.85,M,6.21,M,M,M,M,M,M,M,M,M,M,YBBN 220730Z 36010KT CAVOK 20/19 Q1011 NOSIG
YBBN,2016-07-22 08:00,153.1292,-27.3917,68.00,64.40,88.26,360.00,9.00,0.00,29.85,M,6.21,M,M,M,M,M,M,M,M,M,M,YBBN 220800Z 36009KT CAVOK 20/18 Q1011 NOSIG
YBBN,2016-07-22 08:30,153.1292,-27.3917,66.20,64.40,93.92,360.00,9.00,0.00,29.85,M,6.21,M,M,M,M,M,M,M,M,M,M,YBBN 220830Z 36009KT CAVOK 19/18 Q1011 NOSIG
YBBN,2016-07-22 09:00,153.1292,-27.3917,66.20,64.40,93.92,360.00,8.00,0.00,29.85,M,6.21,M,M,M,M,M,M,M,M,M,M,YBBN 220900Z 36008KT CAVOK 19/18 Q1011
YBBN,2016-07-22 09:30,153.1292,-27.3917,68.00,64.40,88.26,360.00,9.00,0.00,29.85,M,6.21,M,M,M,M,M,M,M,M,M,M,YBBN 220930Z 36009KT CAVOK 20/18 Q1011 NOSIG
YBBN,2016-07-22 10:00,153.1292,-27.3917,66.20,64.40,93.92,10.00,8.00,0.00,29.85,M,6.21,M,M,M,M,M,M,M,M,M,M,YBBN 221000Z 01008KT CAVOK 19/18 Q1011
YBBN,2016-07-22 10:30,153.1292,-27.3917,66.20,64.40,93.92,10.00,9.00,0.00,29.85,M,6.21,M,M,M,M,M,M,M,M,M,M,YBBN 221030Z 01009KT CAVOK 19/18 Q1011 NOSIG
YBBN,2016-07-22 11:00,153.1292,-27.3917,66.20,64.40,93.92,10.00,7.00,0.00,29.85,M,6.21,M,M,M,M,M,M,M,M,M,M,YBBN 221100Z 01007KT CAVOK 19/18 Q1011
YBBN,2016-07-22 11:30,153.1292,-27.3917,66.20,64.40,93.92,360.00,6.00,0.00,29.85,M,6.21,M,M,M,M,M,M,M,M,M,M,YBBN 221130Z 36006KT CAVOK 19/18 Q1011 NOSIG
YBBN,2016-07-22 12:00,153.1292,-27.3917,64.40,64.40,100.00,340.00,5.00,0.00,29.85,M,6.21,M,M,M,M,M,M,M,M,M,M,YBBN 221200Z 34005KT CAVOK 18/18 Q1011
YBBN,2016-07-22 12:30,153.1292,-27.3917,66.20,64.40,93.92,350.00,6.00,0.00,29.85,M,6.21,M,M,M,M,M,M,M,M,M,M,YBBN 221230Z 35006KT CAVOK 19/18 Q1011 NOSIG
YBBN,2016-07-22 13:00,153.1292,-27.3917,64.40,64.40,100.00,350.00,6.00,0.00,29.85,M,6.21,M,M,M,M,M,M,M,M,M,M,YBBN 221300Z 35006KT CAVOK 18/18 Q1011
YBBN,2016-07-22 13:30,153.1292,-27.3917,66.20,64.40,93.92,350.00,7.00,0.00,29.83,M,6.21,M,M,M,M,M,M,M,M,M,M,YBBN 221330Z 35007KT CAVOK 19/18 Q1010 NOSIG
YBBN,2016-07-22 14:00,153.1292,-27.3917,66.20,64.40,93.92,350.00,8.00,0.00,29.83,M,6.21,M,M,M,M,M,M,M,M,M,M,YBBN 221400Z 35008KT CAVOK 19/18 Q1010
YBBN,2016-07-22 14:30,153.1292,-27.3917,66.20,64.40,93.92,330.00,7.00,0.00,29.83,M,6.21,M,M,M,M,M,M,M,M,M,M,YBBN 221430Z 33007KT CAVOK 19/18 Q1010 NOSIG
YBBN,2016-07-22 15:00,153.1292,-27.3917,66.20,64.40,93.92,330.00,8.00,0.00,29.83,M,6.21,M,M,M,M,M,M,M,M,M,M,YBBN 221500Z 33008KT CAVOK 19/18 Q1010
YBBN,2016-07-22 15:30,153.1292,-27.3917,64.40,62.60,93.88,350.00,7.00,0.00,29.83,M,6.21,M,M,M,M,M,M,M,M,M,M,YBBN 221530Z 35007KT CAVOK 18/17 Q1010 NOSIG
YBBN,2016-07-22 16:00,153.1292,-27.3917,66.20,64.40,93.92,340.00,13.00,0.00,29.80,M,6.21,M,M,M,M,M,M,M,M,M,M,YBBN 221600Z 34013KT CAVOK 19/18 Q1009
YBBN,2016-07-22 16:30,153.1292,-27.3917,66.20,64.40,93.92,340.00,10.00,0.00,29.80,M,6.21,M,M,M,M,M,M,M,M,M,M,YBBN 221630Z 34010KT CAVOK 19/18 Q1009 RMK FM1900 MOD TURB BLW 5000FT
YBBN,2016-07-22 17:00,153.1292,-27.3917,68.00,62.60,82.86,340.00,12.00,0.00,29.80,M,6.21,M,M,M,M,M,M,M,M,M,M,YBBN 221700Z 34012KT CAVOK 20/17 Q1009 RMK FM1900 MOD TURB BLW 5000FT
YBBN,2016-07-22 17:30,153.1292,-27.3917,68.00,62.60,82.86,340.00,11.00,0.00,29.80,M,6.21,M,M,M,M,M,M,M,M,M,M,YBBN 221730Z 34011KT CAVOK 20/17 Q1009 RMK FM1900 MOD TURB BLW 5000FT
YBBN,2016-07-22 18:00,153.1292,-27.3917,68.00,62.60,82.86,330.00,12.00,0.00,29.80,M,6.21,M,M,M,M,M,M,M,M,M,M,YBBN 221800Z 33012KT CAVOK 20/17 Q1009 RMK FM1900 MOD TURB BLW 5000FT
YBBN,2016-07-22 18:30,153.1292,-27.3917,69.80,62.60,77.90,340.00,14.00,0.00,29.80,M,6.21,M,M,M,M,M,M,M,M,M,M,YBBN 221830Z 34014KT CAVOK 21/17 Q1009 RMK FM1900 MOD TURB BLW 5000FT
YBBN,2016-07-22 19:00,153.1292,-27.3917,69.80,62.60,77.90,350.00,14.00,0.00,29.80,M,6.21,M,M,M,M,M,M,M,M,M,M,YBBN 221900Z 35014KT CAVOK 21/17 Q1009
YBBN,2016-07-22 19:30,153.1292,-27.3917,69.80,62.60,77.90,350.00,15.00,0.00,29.80,M,6.21,M,M,M,M,M,M,M,M,M,M,YBBN 221930Z 35015KT CAVOK 21/17 Q1009 RMK FM1930 MOD TURB BLW 5000FT
YBBN,2016-07-22 20:00,153.1292,-27.3917,69.80,62.60,77.90,350.00,15.00,0.00,29.80,M,6.21,M,M,M,M,M,M,M,M,M,M,YBBN 222000Z 35015KT CAVOK 21/17 Q1009
YBBN,2016-07-22 20:30,153.1292,-27.3917,68.00,62.60,82.86,350.00,13.00,0.00,29.80,M,6.21,M,FEW,M,M,M,4500.00,M,M,M,M,YBBN 222030Z 35013KT 9999 FEW045 20/17 Q1009 RMK FM2030 MOD TURB BLW 5000FT
YBBN,2016-07-22 21:00,153.1292,-27.3917,69.80,62.60,77.90,340.00,12.00,0.00,29.80,M,6.21,M,FEW,M,M,M,4500.00,M,M,M,M,YBBN 222100Z 34012KT 9999 FEW045 21/17 Q1009
YBBN,2016-07-22 23:00,153.1292,-27.3917,75.20,64.40,69.14,350.00,15.00,0.00,29.80,M,6.21,M,FEW,M,M,M,3000.00,M,M,M,M,YBBN 222300Z 35015KT 9999 FEW030 24/18 Q1009
YBBN,2016-07-22 23:30,153.1292,-27.3917,77.00,64.40,65.12,350.00,14.00,0.00,29.80,M,6.21,M,FEW,M,M,M,3000.00,M,M,M,M,YBBN 222330Z 35014KT 9999 FEW030 25/18 Q1009
