#DEBUG: Format Typ    -> comma
#DEBUG: Time Period   -> 2016-12-09 00:00:00+00:00 2016-12-10 00:00:00+00:00
#DEBUG: Time Zone     -> Etc/UTC
#DEBUG: Data Contact   -> daryl herzmann akrherz@iastate.edu 515-294-5978
#DEBUG: Entries Found -> -1
station,valid,lon,lat,tmpf, dwpf, relh, drct, sknt, p01i, alti, mslp, vsby, gust, skyc1, skyc2, skyc3, skyc4, skyl1, skyl2, skyl3, skyl4, presentwx, metar
YBBN,2016-12-09 03:00,153.1292,-27.3917,78.80,68.00,69.52,0.00,0.00,0.00,29.80,M,6.21,M,FEW,BKN,M,M,3000.00,12000.00,M,M,-RA,YBBN 090300Z 00000KT 9999 -RA FEW030 BKN120 26/20 Q1009
YBBN,2016-12-09 04:00,153.1292,-27.3917,78.80,69.80,73.95,270.00,10.00,0.00,29.80,M,6.21,M,FEW,SCT,BKN,M,3000.00,5500.00,14000.00,M,M,YBBN 090400Z 27010KT 9999 FEW030 SCT055 BKN140 26/21 Q1009
YBBN,2016-12-09 04:30,153.1292,-27.3917,78.80,66.20,65.33,270.00,9.00,0.00,29.80,M,6.21,M,FEW,BKN,M,M,3000.00,17000.00,M,M,M,YBBN 090430Z 27009KT 9999 FEW030 BKN170 26/19 Q1009 NOSIG
YBBN,2016-12-09 05:00,153.1292,-27.3917,78.80,68.00,69.52,270.00,11.00,0.00,29.80,M,6.21,M,FEW,BKN,M,M,3000.00,17000.00,M,M,M,YBBN 090500Z 27011KT 9999 FEW030 BKN170 26/20 Q1009
YBBN,2016-12-09 05:30,153.1292,-27.3917,78.80,64.40,61.36,270.00,10.00,0.00,29.80,M,6.21,M,FEW,BKN,M,M,3000.00,17000.00,M,M,M,YBBN 090530Z 27010KT 9999 FEW030 BKN170 26/18 Q1009 NOSIG
YBBN,2016-12-09 06:00,153.1292,-27.3917,78.80,64.40,61.36,280.00,9.00,0.00,29.80,M,6.21,M,FEW,SCT,BKN,M,3000.00,17000.00,25000.00,M,M,YBBN 090600Z 28009KT 9999 FEW030 SCT170 BKN250 26/18 Q1009 NOSIG
YBBN,2016-12-09 06:30,153.1292,-27.3917,82.40,60.80,48.05,270.00,11.00,0.00,29.80,M,6.21,M,FEW,BKN,M,M,3000.00,25000.00,M,M,M,YBBN 090630Z 27011KT 9999 FEW030 BKN250 28/16 Q1009 NOSIG
YBBN,2016-12-09 07:00,153.1292,-27.3917,78.80,60.80,54.05,260.00,8.00,0.00,29.83,M,6.21,M,FEW,SCT,M,M,3000.00,25000.00,M,M,M,YBBN 090700Z 26008KT 9999 FEW030 SCT250 26/16 Q1010 NOSIG
YBBN,2016-12-09 07:30,153.1292,-27.3917,80.60,60.80,50.95,270.00,5.00,0.00,29.83,M,6.21,M,FEW,BKN,M,M,4000.00,25000.00,M,M,M,YBBN 090730Z 27005KT 9999 FEW040 BKN250 27/16 Q1010 NOSIG
YBBN,2016-12-09 08:00,153.1292,-27.3917,80.60,60.80,50.95,310.00,5.00,0.00,29.85,M,6.21,M,FEW,BKN,M,M,4000.00,25000.00,M,M,M,YBBN 090800Z 31005KT 9999 FEW040 BKN250 27/16 Q1011
YBBN,2016-12-09 09:00,153.1292,-27.3917,73.40,64.40,73.44,350.00,5.00,0.00,29.85,M,6.21,M,FEW,SCT,M,M,4000.00,25000.00,M,M,M,YBBN 090900Z 35005KT 9999 FEW040 SCT250 23/18 Q1011
YBBN,2016-12-09 10:00,153.1292,-27.3917,73.40,66.20,78.19,10.00,4.00,0.00,29.88,M,6.21,M,M,M,M,M,M,M,M,M,M,YBBN 091000Z 01004KT CAVOK 23/19 Q1012
YBBN,2016-12-09 11:00,153.1292,-27.3917,75.20,68.00,78.34,340.00,6.00,0.00,29.91,M,6.21,M,FEW,BKN,M,M,1500.00,25000.00,M,M,M,YBBN 091100Z 34006KT 9999 FEW015 BKN250 24/20 Q1013
YBBN,2016-12-09 11:30,153.1292,-27.3917,73.40,66.20,78.19,150.00,7.00,0.00,29.94,M,6.21,M,FEW,BKN,M,M,1500.00,25000.00,M,M,M,YBBN 091130Z 15007KT 9999 FEW015 BKN250 23/19 Q1014 NOSIG
YBBN,2016-12-09 12:00,153.1292,-27.3917,73.40,68.00,83.21,140.00,8.00,0.00,29.94,M,6.21,M,FEW,BKN,M,M,1500.00,25000.00,M,M,M,YBBN 091200Z 14008KT 9999 FEW015 BKN250 23/20 Q1014 NOSIG
YBBN,2016-12-09 12:30,153.1292,-27.3917,73.40,68.00,83.21,140.00,7.00,0.00,29.94,M,6.21,M,FEW,BKN,M,M,1500.00,25000.00,M,M,M,YBBN 091230Z 14007KT 9999 FEW015 BKN250 23/20 Q1014 NOSIG
YBBN,2016-12-09 13:00,153.1292,-27.3917,73.40,69.80,88.51,130.00,9.00,0.00,29.94,M,6.21,M,FEW,BKN,M,M,2000.00,25000.00,M,M,M,YBBN 091300Z 13009KT 9999 FEW020 BKN250 23/21 Q1014
YBBN,2016-12-09 13:30,153.1292,-27.3917,75.20,68.00,78.34,130.00,11.00,0.00,29.97,M,6.21,M,BKN,M,M,M,1700.00,M,M,M,M,YBBN 091330Z 13011KT 9999 BKN017 24/20 Q1015 NOSIG
YBBN,2016-12-09 14:00,153.1292,-27.3917,73.40,68.00,83.21,110.00,9.00,0.00,29.94,M,6.21,M,BKN,M,M,M,1700.00,M,M,M,M,YBBN 091400Z 11009KT 9999 BKN017 23/20 Q1014 NOSIG
YBBN,2016-12-09 14:30,153.1292,-27.3917,73.40,68.00,83.21,120.00,9.00,0.00,29.94,M,6.21,M,SCT,M,M,M,1900.00,M,M,M,M,YBBN 091430Z 12009KT 9999 SCT019 23/20 Q1014 NOSIG
YBBN,2016-12-09 15:00,153.1292,-27.3917,73.40,68.00,83.21,130.00,10.00,0.00,29.94,M,6.21,M,FEW,BKN,M,M,2000.00,25000.00,M,M,M,YBBN 091500Z 13010KT 9999 FEW020 BKN250 23/20 Q1014
YBBN,2016-12-09 15:30,153.1292,-27.3917,73.40,64.40,73.44,130.00,9.00,0.00,29.94,M,6.21,M,FEW,BKN,M,M,2000.00,25000.00,M,M,M,YBBN 091530Z 13009KT 9999 FEW020 BKN250 23/18 Q1014 NOSIG
YBBN,2016-12-09 16:00,153.1292,-27.3917,73.40,60.80,64.69,130.00,9.00,0.00,29.97,M,6.21,M,FEW,BKN,M,M,2000.00,25000.00,M,M,M,YBBN 091600Z 13009KT 9999 FEW020 BKN250 23/16 Q1015 NOSIG
YBBN,2016-12-09 16:30,153.1292,-27.3917,73.40,60.80,64.69,130.00,10.00,0.00,29.97,M,6.21,M,FEW,SCT,BKN,M,1500.00,3500.00,25000.00,M,M,YBBN 091630Z 13010KT 9999 FEW015 SCT035 BKN250 23/16 Q1015 NOSIG
YBBN,2016-12-09 17:00,153.1292,-27.3917,73.40,60.80,64.69,140.00,9.00,0.00,29.97,M,6.21,M,FEW,SCT,BKN,M,1500.00,4000.00,25000.00,M,M,YBBN 091700Z 14009KT 9999 FEW015 SCT040 BKN250 23/16 Q1015
YBBN,2016-12-09 17:30,153.1292,-27.3917,73.40,60.80,64.69,140.00,10.00,0.00,30.00,M,6.21,M,FEW,BKN,M,M,2000.00,4000.00,M,M,M,YBBN 091730Z 14010KT 9999 FEW020 BKN040 23/16 Q1016 NOSIG
YBBN,2016-12-09 18:00,153.1292,-27.3917,73.40,60.80,64.69,140.00,9.00,0.00,30.00,M,6.21,M,FEW,BKN,M,M,1500.00,4000.00,M,M,M,YBBN 091800Z 14009KT 9999 FEW015 BKN040 23/16 Q1016 NOSIG
YBBN,2016-12-09 18:30,153.1292,-27.3917,71.60,60.80,68.75,130.00,9.00,0.00,30.00,M,6.21,M,BKN,M,M,M,4000.00,M,M,M,M,YBBN 091830Z 13009KT 9999 BKN040 22/16 Q1016 NOSIG
YBBN,2016-12-09 19:00,153.1292,-27.3917,71.60,60.80,68.75,130.00,9.00,0.00,30.03,M,6.21,M,BKN,M,M,M,4000.00,M,M,M,M,YBBN 091900Z 13009KT 9999 BKN040 22/16 Q1017 NOSIG
YBBN,2016-12-09 19:30,153.1292,-27.3917,71.60,60.80,68.75,140.00,8.00,0.00,30.03,M,6.21,M,FEW,BKN,M,M,3200.00,7500.00,M,M,M,YBBN 091930Z 14008KT 9999 FEW032 BKN075 22/16 Q1017 NOSIG
YBBN,2016-12-09 20:00,153.1292,-27.3917,71.60,60.80,68.75,150.00,8.00,0.00,30.06,M,6.21,M,FEW,BKN,M,M,3200.00,6000.00,M,M,M,YBBN 092000Z 15008KT 9999 FEW032 BKN060 22/16 Q1018
YBBN,2016-12-09 20:30,153.1292,-27.3917,73.40,60.80,64.69,150.00,9.00,0.00,30.06,M,6.21,M,FEW,BKN,M,M,1200.00,8000.00,M,M,M,YBBN 092030Z 15009KT 9999 FEW012 BKN080 23/16 Q1018 NOSIG
YBBN,2016-12-09 21:00,153.1292,-27.3917,73.40,60.80,64.69,140.00,9.00,0.00,30.09,M,6.21,M,FEW,BKN,M,M,3000.00,8500.00,M,M,M,YBBN 092100Z 14009KT 9999 FEW030 BKN085 23/16 Q1019
YBBN,2016-12-09 21:30,153.1292,-27.3917,75.20,59.00,57.12,130.00,10.00,0.00,30.09,M,6.21,M,FEW,BKN,M,M,3000.00,8500.00,M,M,M,YBBN 092130Z 13010KT 9999 FEW030 BKN085 24/15 Q1019 NOSIG
YBBN,2016-12-09 22:00,153.1292,-27.3917,77.00,60.80,57.36,130.00,11.00,0.00,30.09,M,6.21,M,SCT,SCT,M,M,4000.00,16000.00,M,M,M,YBBN 092200Z 13011KT 9999 SCT040 SCT160 25/16 Q1019
YBBN,2016-12-09 23:30,153.1292,-27.3917,75.20,59.00,57.12,130.00,12.00,0.00,30.12,M,6.21,M,BKN,SCT,M,M,4000.00,6500.00,M,M,M,YBBN 092330Z 13012KT 9999 BKN040 SCT065 24/15 Q1020 NOSIG
