#DEBUG: Format Typ    -> comma
#DEBUG: Time Period   -> 2010-04-22 00:00:00+00:00 2010-04-23 00:00:00+00:00
#DEBUG: Time Zone     -> Etc/UTC
#DEBUG: Data Contact   -> daryl herzmann akrherz@iastate.edu 515-294-5978
#DEBUG: Entries Found -> -1
station,valid,lon,lat,tmpf, dwpf, relh, drct, sknt, p01i, alti, mslp, vsby, gust, skyc1, skyc2, skyc3, skyc4, skyl1, skyl2, skyl3, skyl4, presentwx, metar
YBBN,2010-04-22 06:00,153.1292,-27.3917,75.20,64.40,69.14,120.00,6.00,M,30.09,M,6.21,M,FEW,SCT,M,M,2500.00,26000.00,M,M,M,YBBN 220600Z 12006KT 9999 FEW025 SCT260 24/18 Q1019 NOSIG
YBBN,2010-04-22 06:30,153.1292,-27.3917,75.20,64.40,69.14,140.00,6.00,M,30.12,M,6.21,M,FEW,SCT,M,M,2500.00,26000.00,M,M,M,YBBN 220630Z 14006KT 9999 FEW025 SCT260 24/18 Q1020 NOSIG
YBBN,2010-04-22 07:00,153.1292,-27.3917,75.20,64.40,69.14,140.00,5.00,M,30.12,M,6.21,M,FEW,SCT,M,M,2500.00,26000.00,M,M,M,YBBN 220700Z 14005KT 9999 FEW025 SCT260 24/18 Q1020 NOSIG
YBBN,2010-04-22 07:30,153.1292,-27.3917,73.40,66.20,78.19,130.00,5.00,M,30.12,M,6.21,M,FEW,SCT,M,M,2500.00,26000.00,M,M,M,YBBN 220730Z 13005KT 9999 FEW025 SCT260 23/19 Q1020 NOSIG
YBBN,2010-04-22 08:00,153.1292,-27.3917,73.40,66.20,78.19,120.00,6.00,M,30.12,M,6.21,M,FEW,SCT,M,M,1800.00,8000.00,M,M,M,YBBN 220800Z 12006KT 9999 FEW018 SCT080 23/19 Q1020 NOSIG
YBBN,2010-04-22 08:30,153.1292,-27.3917,73.40,66.20,78.19,130.00,6.00,M,30.12,M,6.21,M,FEW,SCT,BKN,M,1800.00,3500.00,28000.00,M,M,YBBN 220830Z 13006KT 9999 FEW018 SCT035 BKN280 23/19 Q1020 NOSIG
YBBN,2010-04-22 09:00,153.1292,-27.3917,71.60,66.20,83.09,150.00,6.00,M,30.12,M,6.21,M,FEW,SCT,BKN,M,1800.00,3500.00,28000.00,M,M,YBBN 220900Z 15006KT 9999 FEW018 SCT035 BKN280 22/19 Q1020 NOSIG
YBBN,2010-04-22 09:30,153.1292,-27.3917,69.80,66.20,88.34,160.00,4.00,M,30.15,M,6.21,M,FEW,BKN,M,M,2500.00,28000.00,M,M,M,YBBN 220930Z 16004KT 9999 FEW025 BKN280 21/19 Q1021 NOSIG
YBBN,2010-04-22 10:00,153.1292,-27.3917,69.80,64.40,82.98,170.00,5.00,M,30.15,M,6.21,M,FEW,SCT,M,M,2500.00,28000.00,M,M,M,YBBN 221000Z 17005KT 9999 FEW025 SCT280 21/18 Q1021 NOSIG
YBBN,2010-04-22 10:30,153.1292,-27.3917,69.80,64.40,82.98,180.00,6.00,M,30.15,M,6.21,M,FEW,SCT,M,M,2500.00,28000.00,M,M,M,YBBN 221030Z 18006KT 9999 FEW025 SCT280 21/18 Q1021 NOSIG
YBBN,2010-04-22 11:00,153.1292,-27.3917,68.00,64.40,88.26,180.00,6.00,M,30.15,M,6.21,M,FEW,SCT,M,M,2500.00,28000.00,M,M,M,YBBN 221100Z 18006KT 9999 FEW025 SCT280 20/18 Q1021 NOSIG
YBBN,2010-04-22 11:30,153.1292,-27.3917,68.00,64.40,88.26,200.00,3.00,M,30.15,M,6.21,M,FEW,SCT,M,M,2500.00,6200.00,M,M,M,YBBN 221130Z 20003KT 9999 FEW025 SCT062 20/18 Q1021 NOSIG
YBBN,2010-04-22 12:00,153.1292,-27.3917,68.00,64.40,88.26,190.00,5.00,M,30.15,M,6.21,M,FEW,SCT,M,M,2500.00,6200.00,M,M,VCSH,YBBN 221200Z 19005KT 9999 VCSH FEW025 SCT062 20/18 Q1021 NOSIG
YBBN,2010-04-22 12:30,153.1292,-27.3917,69.80,64.40,82.98,170.00,5.00,M,30.15,M,6.21,M,FEW,BKN,M,M,2200.00,5800.00,M,M,M,YBBN 221230Z 17005KT 9999 FEW022 BKN058 21/18 Q1021 NOSIG
YBBN,2010-04-22 13:00,153.1292,-27.3917,69.80,64.40,82.98,170.00,5.00,M,30.18,M,6.21,M,FEW,SCT,M,M,2200.00,5800.00,M,M,M,YBBN 221300Z 17005KT 9999 FEW022 SCT058 21/18 Q1022 NOSIG
YBBN,2010-04-22 13:30,153.1292,-27.3917,68.00,64.40,88.26,170.00,5.00,M,30.15,M,6.21,M,FEW,SCT,M,M,2200.00,5800.00,M,M,M,YBBN 221330Z 17005KT 9999 FEW022 SCT058 20/18 Q1021 NOSIG
YBBN,2010-04-22 14:00,153.1292,-27.3917,68.00,64.40,88.26,180.00,5.00,M,30.15,M,6.21,M,FEW,SCT,M,M,2200.00,32000.00,M,M,M,YBBN 221400Z 18005KT 9999 FEW022 SCT320 20/18 Q1021 NOSIG
YBBN,2010-04-22 14:30,153.1292,-27.3917,68.00,64.40,88.26,170.00,4.00,M,30.15,M,6.21,M,FEW,SCT,M,M,2200.00,32000.00,M,M,M,YBBN 221430Z 17004KT 9999 FEW022 SCT320 20/18 Q1021 NOSIG
YBBN,2010-04-22 15:00,153.1292,-27.3917,68.00,64.40,88.26,170.00,4.00,M,30.15,M,6.21,M,FEW,SCT,M,M,2200.00,32000.00,M,M,M,YBBN 221500Z 17004KT 9999 FEW022 SCT320 20/18 Q1021 NOSIG
YBBN,2010-04-22 15:30,153.1292,-27.3917,68.00,64.40,88.26,170.00,6.00,M,30.12,M,6.21,M,FEW,M,M,M,2800.00,M,M,M,M,YBBN 221530Z 17006KT 9999 FEW028 20/18 Q1020 NOSIG
YBBN,2010-04-22 16:00,153.1292,-27.3917,68.00,64.40,88.26,170.00,5.00,M,30.12,M,6.21,M,FEW,M,M,M,2800.00,M,M,M,M,YBBN 221600Z 17005KT 9999 FEW028 20/18 Q1020 NOSIG
YBBN,2010-04-22 16:30,153.1292,-27.3917,66.20,64.40,93.92,180.00,5.00,M,30.12,M,6.21,M,FEW,M,M,M,2800.00,M,M,M,M,YBBN 221630Z 18005KT 9999 FEW028 19/18 Q1020 NOSIG
YBBN,2010-04-22 17:00,153.1292,-27.3917,66.20,64.40,93.92,210.00,5.00,M,30.12,M,6.21,M,FEW,M,M,M,2800.00,M,M,M,M,YBBN 221700Z 21005KT 9999 FEW028 19/18 Q1020 NOSIG
YBBN,2010-04-22 17:30,153.1292,-27.3917,64.40,62.60,93.88,210.00,5.00,M,30.09,M,6.21,M,FEW,M,M,M,2800.00,M,M,M,M,YBBN 221730Z 21005KT 9999 FEW028 18/17 Q1019 NOSIG
YBBN,2010-04-22 18:00,153.1292,-27.3917,64.40,62.60,93.88,210.00,6.00,M,30.09,M,6.21,M,FEW,M,M,M,2500.00,M,M,M,M,YBBN 221800Z 21006KT 9999 FEW025 18/17 Q1019 NOSIG
YBBN,2010-04-22 18:30,153.1292,-27.3917,62.60,62.60,100.00,220.00,5.00,M,30.09,M,6.21,M,FEW,M,M,M,2500.00,M,M,M,M,YBBN 221830Z 22005KT 9999 FEW025 17/17 Q1019 NOSIG
YBBN,2010-04-22 19:00,153.1292,-27.3917,62.60,60.80,93.83,220.00,6.00,M,30.12,M,6.21,M,FEW,M,M,M,2500.00,M,M,M,M,YBBN 221900Z 22006KT 9999 FEW025 17/16 Q1020 NOSIG
YBBN,2010-04-22 19:30,153.1292,-27.3917,62.60,62.60,100.00,220.00,7.00,M,30.12,M,6.21,M,FEW,M,M,M,2200.00,M,M,M,M,YBBN 221930Z 22007KT 9999 FEW022 17/17 Q1020 NOSIG
YBBN,2010-04-22 20:00,153.1292,-27.3917,62.60,60.80,93.83,210.00,7.00,M,30.12,M,6.21,M,FEW,M,M,M,2200.00,M,M,M,M,YBBN 222000Z 21007KT 9999 FEW022 17/16 Q1020 NOSIG
YBBN,2010-04-22 20:30,153.1292,-27.3917,62.60,62.60,100.00,210.00,7.00,M,30.12,M,6.21,M,FEW,M,M,M,2200.00,M,M,M,M,YBBN 222030Z 21007KT 9999 FEW022 17/17 Q1020 NOSIG
YBBN,2010-04-22 21:00,153.1292,-27.3917,64.40,64.40,100.00,220.00,7.00,M,30.15,M,6.21,M,FEW,M,M,M,2000.00,M,M,M,M,YBBN 222100Z 22007KT 9999 FEW020 18/18 Q1021 NOSIG
YBBN,2010-04-22 21:30,153.1292,-27.3917,68.00,66.20,93.97,220.00,7.00,M,30.15,M,6.21,M,FEW,M,M,M,2000.00,M,M,M,M,YBBN 222130Z 22007KT 9999 FEW020 20/19 Q1021 NOSIG
YBBN,2010-04-22 22:00,153.1292,-27.3917,69.80,66.20,88.34,220.00,8.00,M,30.15,M,6.21,M,FEW,M,M,M,2000.00,M,M,M,M,YBBN 222200Z 22008KT 9999 FEW020 21/19 Q1021 NOSIG
YBBN,2010-04-22 22:30,153.1292,-27.3917,71.60,66.20,83.09,220.00,8.00,M,30.15,M,6.21,M,FEW,M,M,M,2200.00,M,M,M,M,YBBN 222230Z 22008KT 9999 FEW022 22/19 Q1021 NOSIG
YBBN,2010-04-22 23:00,153.1292,-27.3917,73.40,66.20,78.19,200.00,7.00,M,30.15,M,6.21,M,FEW,M,M,M,2200.00,M,M,M,M,YBBN 222300Z 20007KT 9999 FEW022 23/19 Q1021 NOSIG
YBBN,2010-04-22 23:30,153.1292,-27.3917,77.00,66.20,69.33,180.00,5.00,M,30.15,M,6.21,M,FEW,M,M,M,2200.00,M,M,M,M,YBBN 222330Z 18005KT 9999 FEW022 25/19 Q1021 NOSIG
