#DEBUG: Format Typ    -> comma
#DEBUG: Time Period   -> 2016-04-06 00:00:00+00:00 2016-04-07 00:00:00+00:00
#DEBUG: Time Zone     -> Etc/UTC
#DEBUG: Data Contact   -> daryl herzmann akrherz@iastate.edu 515-294-5978
#DEBUG: Entries Found -> -1
station,valid,lon,lat,tmpf, dwpf, relh, drct, sknt, p01i, alti, mslp, vsby, gust, skyc1, skyc2, skyc3, skyc4, skyl1, skyl2, skyl3, skyl4, presentwx, metar
YBBN,2016-04-06 00:00,153.1292,-27.3917,78.80,60.80,54.05,130.00,7.00,0.00,30.12,M,6.21,M,FEW,M,M,M,3000.00,M,M,M,M,YBBN 060000Z 13007KT 9999 FEW030 26/16 Q1020 NOSIG
YBBN,2016-04-06 00:30,153.1292,-27.3917,80.60,62.60,54.30,120.00,7.00,0.00,30.12,M,6.21,M,FEW,M,M,M,3000.00,M,M,M,M,YBBN 060030Z 12007KT 9999 FEW030 27/17 Q1020 NOSIG
YBBN,2016-04-06 01:00,153.1292,-27.3917,80.60,59.00,47.79,120.00,7.00,0.00,30.12,M,6.21,M,FEW,M,M,M,3200.00,M,M,M,M,YBBN 060100Z 12007KT 9999 FEW032 27/15 Q1020 NOSIG
YBBN,2016-04-06 02:30,153.1292,-27.3917,80.60,60.80,50.95,80.00,7.00,0.00,30.06,M,6.21,M,FEW,M,M,M,3800.00,M,M,M,M,YBBN 060230Z 08007KT 9999 FEW038 27/16 Q1018 NOSIG
YBBN,2016-04-06 03:00,153.1292,-27.3917,80.60,62.60,54.30,70.00,7.00,0.00,30.06,M,6.21,M,FEW,M,M,M,4000.00,M,M,M,M,YBBN 060300Z 07007KT 060V120 9999 FEW040 27/17 Q1018 NOSIG
YBBN,2016-04-06 03:30,153.1292,-27.3917,80.60,62.60,54.30,60.00,8.00,0.00,30.06,M,6.21,M,FEW,M,M,M,4000.00,M,M,M,M,YBBN 060330Z 06008KT 9999 FEW040 27/17 Q1018 NOSIG
YBBN,2016-04-06 04:00,153.1292,-27.3917,78.80,64.40,61.36,70.00,7.00,0.00,30.06,M,6.21,M,FEW,M,M,M,4000.00,M,M,M,M,YBBN 060400Z 07007KT 040V100 9999 FEW040 26/18 Q1018 NOSIG
YBBN,2016-04-06 04:30,153.1292,-27.3917,80.60,64.40,57.84,60.00,9.00,0.00,30.03,M,6.21,M,FEW,M,M,M,4000.00,M,M,M,M,YBBN 060430Z 06009KT 9999 FEW040 27/18 Q1017 NOSIG
YBBN,2016-04-06 05:00,153.1292,-27.3917,80.60,62.60,54.30,50.00,10.00,0.00,30.03,M,6.21,M,FEW,M,M,M,4000.00,M,M,M,M,YBBN 060500Z 05010KT 9999 FEW040 27/17 Q1017 NOSIG
YBBN,2016-04-06 05:30,153.1292,-27.3917,80.60,62.60,54.30,50.00,9.00,0.00,30.03,M,6.21,M,FEW,M,M,M,3800.00,M,M,M,M,YBBN 060530Z 05009KT 9999 FEW038 27/17 Q1017 NOSIG
YBBN,2016-04-06 06:00,153.1292,-27.3917,78.80,62.60,57.60,70.00,8.00,0.00,30.03,M,6.21,M,FEW,M,M,M,3800.00,M,M,M,M,YBBN 060600Z 07008KT 9999 FEW038 26/17 Q1017 NOSIG
YBBN,2016-04-06 06:30,153.1292,-27.3917,78.80,62.60,57.60,60.00,8.00,0.00,30.06,M,6.21,M,FEW,M,M,M,3500.00,M,M,M,M,YBBN 060630Z 06008KT 9999 FEW035 26/17 Q1018 NOSIG
YBBN,2016-04-06 07:00,153.1292,-27.3917,77.00,64.40,65.12,60.00,7.00,0.00,30.06,M,6.21,M,FEW,M,M,M,3000.00,M,M,M,M,YBBN 060700Z 06007KT 9999 FEW030 25/18 Q1018
YBBN,2016-04-06 07:30,153.1292,-27.3917,77.00,64.40,65.12,70.00,5.00,0.00,30.06,M,6.21,M,FEW,M,M,M,2000.00,M,M,M,M,YBBN 060730Z 07005KT 9999 FEW020 25/18 Q1018 NOSIG
YBBN,2016-04-06 08:00,153.1292,-27.3917,75.20,64.40,69.14,50.00,5.00,0.00,30.06,M,6.21,M,FEW,M,M,M,2000.00,M,M,M,M,YBBN 060800Z 05005KT 9999 FEW020 24/18 Q1018 NOSIG
YBBN,2016-04-06 08:30,153.1292,-27.3917,75.20,64.40,69.14,60.00,5.00,0.00,30.09,M,6.21,M,FEW,M,M,M,2000.00,M,M,M,M,YBBN 060830Z 06005KT 9999 FEW020 24/18 Q1019 NOSIG
YBBN,2016-04-06 09:00,153.1292,-27.3917,73.40,66.20,78.19,50.00,4.00,0.00,30.09,M,6.21,M,FEW,M,M,M,2000.00,M,M,M,M,YBBN 060900Z 05004KT 9999 FEW020 23/19 Q1019 NOSIG
YBBN,2016-04-06 09:30,153.1292,-27.3917,73.40,64.40,73.44,50.00,5.00,0.00,30.09,M,6.21,M,FEW,M,M,M,2000.00,M,M,M,M,YBBN 060930Z 05005KT 9999 FEW020 23/18 Q1019 NOSIG
YBBN,2016-04-06 10:00,153.1292,-27.3917,75.20,64.40,69.14,50.00,5.00,0.00,30.09,M,6.21,M,FEW,M,M,M,2000.00,M,M,M,M,YBBN 061000Z 05005KT 9999 FEW020 24/18 Q1019
YBBN,2016-04-06 10:30,153.1292,-27.3917,71.60,64.40,78.04,40.00,5.00,0.00,30.12,M,6.21,M,FEW,M,M,M,2000.00,M,M,M,M,YBBN 061030Z 04005KT 9999 FEW020 22/18 Q1020 NOSIG
YBBN,2016-04-06 11:00,153.1292,-27.3917,71.60,64.40,78.04,30.00,3.00,0.00,30.12,M,6.21,M,FEW,M,M,M,2700.00,M,M,M,M,YBBN 061100Z 03003KT 9999 FEW027 22/18 Q1020 NOSIG
YBBN,2016-04-06 11:30,153.1292,-27.3917,71.60,64.40,78.04,30.00,4.00,0.00,30.12,M,6.21,M,FEW,M,M,M,2700.00,M,M,M,M,YBBN 061130Z 03004KT 9999 FEW027 22/18 Q1020 NOSIG
YBBN,2016-04-06 12:00,153.1292,-27.3917,69.80,64.40,82.98,40.00,5.00,0.00,30.12,M,6.21,M,FEW,M,M,M,2700.00,M,M,M,M,YBBN 061200Z 04005KT 9999 FEW027 21/18 Q1020 NOSIG
YBBN,2016-04-06 12:30,153.1292,-27.3917,71.60,64.40,78.04,20.00,5.00,0.00,30.12,M,6.21,M,FEW,M,M,M,2700.00,M,M,M,M,YBBN 061230Z 02005KT 9999 FEW027 22/18 Q1020 NOSIG
YBBN,2016-04-06 13:00,153.1292,-27.3917,69.80,64.40,82.98,20.00,4.00,0.00,30.12,M,6.21,M,FEW,M,M,M,2700.00,M,M,M,M,YBBN 061300Z 02004KT 9999 FEW027 21/18 Q1020 NOSIG
YBBN,2016-04-06 13:30,153.1292,-27.3917,69.80,66.20,88.34,290.00,3.00,0.00,30.12,M,6.21,M,FEW,M,M,M,2700.00,M,M,M,M,YBBN 061330Z 29003KT 9999 FEW027 21/19 Q1020 NOSIG
YBBN,2016-04-06 14:00,153.1292,-27.3917,69.80,64.40,82.98,300.00,1.00,0.00,30.12,M,6.21,M,FEW,M,M,M,2700.00,M,M,M,M,YBBN 061400Z 30001KT 9999 FEW027 21/18 Q1020 NOSIG
YBBN,2016-04-06 14:30,153.1292,-27.3917,68.00,64.40,88.26,260.00,2.00,0.00,30.12,M,6.21,M,FEW,M,M,M,2700.00,M,M,M,M,YBBN 061430Z 26002KT 9999 FEW027 20/18 Q1020 NOSIG
YBBN,2016-04-06 15:00,153.1292,-27.3917,68.00,64.40,88.26,0.00,0.00,0.00,30.09,M,6.21,M,FEW,M,M,M,2700.00,M,M,M,MIFG,YBBN 061500Z 00000KT 9999 MIFG FEW027 20/18 Q1019
YBBN,2016-04-06 15:30,153.1292,-27.3917,68.00,64.40,88.26,240.00,4.00,0.00,30.09,M,6.21,M,M,M,M,M,M,M,M,M,M,YBBN 061530Z 24004KT CAVOK 20/18 Q1019 NOSIG
YBBN,2016-04-06 16:00,153.1292,-27.3917,66.20,62.60,88.18,210.00,5.00,0.00,30.09,M,6.21,M,M,M,M,M,M,M,M,M,M,YBBN 061600Z 21005KT CAVOK 19/17 Q1019
YBBN,2016-04-06 16:30,153.1292,-27.3917,66.20,64.40,93.92,220.00,5.00,0.00,30.06,M,6.21,M,M,M,M,M,M,M,M,M,M,YBBN 061630Z 22005KT CAVOK 19/18 Q1018 NOSIG
YBBN,2016-04-06 17:00,153.1292,-27.3917,66.20,64.40,93.92,250.00,4.00,0.00,30.06,M,6.21,M,M,M,M,M,M,M,M,M,M,YBBN 061700Z 25004KT 220V340 CAVOK 19/18 Q1018 NOSIG
YBBN,2016-04-06 17:30,153.1292,-27.3917,66.20,62.60,88.18,210.00,5.00,0.00,30.06,M,6.21,M,M,M,M,M,M,M,M,M,M,YBBN 061730Z 21005KT CAVOK 19/17 Q1018 NOSIG
YBBN,2016-04-06 18:00,153.1292,-27.3917,66.20,64.40,93.92,200.00,7.00,0.00,30.06,M,6.21,M,M,M,M,M,M,M,M,M,M,YBBN 061800Z 20007KT CAVOK 19/18 Q1018 NOSIG
YBBN,2016-04-06 18:30,153.1292,-27.3917,64.40,62.60,93.88,200.00,4.00,0.00,30.06,M,6.21,M,M,M,M,M,M,M,M,M,M,YBBN 061830Z 20004KT CAVOK 18/17 Q1018 NOSIG
YBBN,2016-04-06 19:00,153.1292,-27.3917,64.40,62.60,93.88,200.00,5.00,0.00,30.06,M,6.21,M,M,M,M,M,M,M,M,M,M,YBBN 061900Z 20005KT CAVOK 18/17 Q1018 NOSIG
YBBN,2016-04-06 19:30,153.1292,-27.3917,64.40,62.60,93.88,200.00,7.00,0.00,30.06,M,6.21,M,M,M,M,M,M,M,M,M,M,YBBN 061930Z 20007KT CAVOK 18/17 Q1018 NOSIG
YBBN,2016-04-06 20:00,153.1292,-27.3917,66.20,62.60,88.18,200.00,7.00,0.00,30.09,M,6.21,M,FEW,M,M,M,2800.00,M,M,M,M,YBBN 062000Z 20007KT 9999 FEW028 19/17 Q1019 NOSIG
YBBN,2016-04-06 20:30,153.1292,-27.3917,66.20,62.60,88.18,200.00,7.00,0.00,30.09,M,6.21,M,FEW,M,M,M,2000.00,M,M,M,M,YBBN 062030Z 20007KT 9999 FEW020 19/17 Q1019 NOSIG
YBBN,2016-04-06 21:00,153.1292,-27.3917,68.00,64.40,88.26,200.00,7.00,0.00,30.09,M,6.21,M,FEW,M,M,M,2000.00,M,M,M,M,YBBN 062100Z 20007KT 9999 FEW020 20/18 Q1019 NOSIG
YBBN,2016-04-06 23:00,153.1292,-27.3917,77.00,64.40,65.12,260.00,5.00,0.00,30.12,M,6.21,M,FEW,M,M,M,2500.00,M,M,M,M,YBBN 062300Z 26005KT 210V290 9999 FEW025 25/18 Q1020
