#DEBUG: Format Typ    -> comma
#DEBUG: Time Period   -> 2016-01-01 00:00:00+00:00 2016-01-02 00:00:00+00:00
#DEBUG: Time Zone     -> Etc/UTC
#DEBUG: Data Contact   -> daryl herzmann akrherz@iastate.edu 515-294-5978
#DEBUG: Entries Found -> -1
station,valid,lon,lat,tmpf, dwpf, relh, drct, sknt, p01i, alti, mslp, vsby, gust, skyc1, skyc2, skyc3, skyc4, skyl1, skyl2, skyl3, skyl4, presentwx, metar
YBBN,2016-01-01 00:00,153.1292,-27.3917,77.00,55.40,47.25,130.00,9.00,0.00,29.91,M,6.21,M,FEW,BKN,M,M,4800.00,5300.00,M,M,M,YBBN 010000Z 13009KT 9999 FEW048 BKN053 25/13 Q1013 NOSIG
YBBN,2016-01-01 00:30,153.1292,-27.3917,78.80,55.40,44.52,140.00,8.00,0.00,29.91,M,6.21,M,FEW,BKN,M,M,4700.00,5600.00,M,M,M,YBBN 010030Z 14008KT 110V170 9999 FEW047 BKN056 26/13 Q1013 NOSIG
YBBN,2016-01-01 01:00,153.1292,-27.3917,80.60,53.60,39.30,100.00,10.00,0.00,29.88,M,6.21,M,M,M,M,M,M,M,M,M,M,YBBN 010100Z 10010KT CAVOK 27/12 Q1012 NOSIG
YBBN,2016-01-01 01:30,153.1292,-27.3917,78.80,57.20,47.52,110.00,9.00,0.00,29.88,M,6.21,M,M,M,M,M,M,M,M,M,M,YBBN 010130Z 11009KT CAVOK 26/14 Q1012 NOSIG
YBBN,2016-01-01 02:00,153.1292,-27.3917,80.60,59.00,47.79,110.00,10.00,0.00,29.85,M,6.21,M,M,M,M,M,M,M,M,M,M,YBBN 010200Z 11010KT CAVOK 27/15 Q1011 NOSIG
YBBN,2016-01-01 02:30,153.1292,-27.3917,78.80,60.80,54.05,110.00,10.00,0.00,29.85,M,6.21,M,FEW,BKN,M,M,4900.00,5500.00,M,M,M,YBBN 010230Z 11010KT 9999 FEW049 BKN055 26/16 Q1011 NOSIG
YBBN,2016-01-01 03:00,153.1292,-27.3917,78.80,60.80,54.05,120.00,10.00,0.00,29.85,M,6.21,M,FEW,BKN,M,M,4800.00,5500.00,M,M,M,YBBN 010300Z 12010KT 9999 FEW048 BKN055 26/16 Q1011 NOSIG
YBBN,2016-01-01 03:30,153.1292,-27.3917,80.60,62.60,54.30,110.00,13.00,0.00,29.85,M,6.21,M,FEW,SCT,M,M,4500.00,6000.00,M,M,M,YBBN 010330Z 11013KT 9999 FEW045 SCT060 27/17 Q1011 NOSIG
YBBN,2016-01-01 04:00,153.1292,-27.3917,80.60,60.80,50.95,110.00,13.00,0.00,29.83,M,6.21,M,FEW,M,M,M,4500.00,M,M,M,M,YBBN 010400Z 11013KT 9999 FEW045 27/16 Q1010
YBBN,2016-01-01 04:30,153.1292,-27.3917,78.80,60.80,54.05,110.00,13.00,0.00,29.83,M,6.21,M,FEW,M,M,M,4500.00,M,M,M,M,YBBN 010430Z 11013KT 9999 FEW045 26/16 Q1010 NOSIG
YBBN,2016-01-01 05:00,153.1292,-27.3917,78.80,59.00,50.69,120.00,14.00,0.00,29.83,M,6.21,M,FEW,M,M,M,4200.00,M,M,M,M,YBBN 010500Z 12014KT 9999 FEW042 26/15 Q1010 NOSIG
YBBN,2016-01-01 05:30,153.1292,-27.3917,78.80,60.80,54.05,110.00,13.00,0.00,29.83,M,6.21,M,FEW,M,M,M,4000.00,M,M,M,M,YBBN 010530Z 11013KT 9999 FEW040 26/16 Q1010 NOSIG
YBBN,2016-01-01 06:00,153.1292,-27.3917,78.80,59.00,50.69,110.00,12.00,0.00,29.83,M,6.21,M,FEW,M,M,M,4000.00,M,M,M,M,YBBN 010600Z 11012KT 9999 FEW040 26/15 Q1010 NOSIG
YBBN,2016-01-01 06:30,153.1292,-27.3917,78.80,59.00,50.69,110.00,14.00,0.00,29.83,M,6.21,M,FEW,M,M,M,4000.00,M,M,M,M,YBBN 010630Z 11014KT 9999 FEW040 26/15 Q1010 NOSIG
YBBN,2016-01-01 07:00,153.1292,-27.3917,77.00,59.00,53.80,110.00,11.00,0.00,29.83,M,6.21,M,FEW,M,M,M,4000.00,M,M,M,M,YBBN 010700Z 11011KT 9999 FEW040 25/15 Q1010
YBBN,2016-01-01 07:30,153.1292,-27.3917,77.00,59.00,53.80,110.00,10.00,0.00,29.83,M,6.21,M,M,M,M,M,M,M,M,M,M,YBBN 010730Z 11010KT CAVOK 25/15 Q1010 NOSIG
YBBN,2016-01-01 08:00,153.1292,-27.3917,75.20,59.00,57.12,120.00,10.00,0.00,29.83,M,6.21,M,M,M,M,M,M,M,M,M,M,YBBN 010800Z 12010KT CAVOK 24/15 Q1010 NOSIG
YBBN,2016-01-01 08:30,153.1292,-27.3917,75.20,59.00,57.12,110.00,9.00,0.00,29.85,M,6.21,M,M,M,M,M,M,M,M,M,M,YBBN 010830Z 11009KT CAVOK 24/15 Q1011 NOSIG
YBBN,2016-01-01 09:00,153.1292,-27.3917,73.40,59.00,60.67,120.00,9.00,0.00,29.85,M,6.21,M,M,M,M,M,M,M,M,M,M,YBBN 010900Z 12009KT CAVOK 23/15 Q1011 NOSIG
YBBN,2016-01-01 09:30,153.1292,-27.3917,73.40,57.20,56.88,130.00,9.00,0.00,29.85,M,6.21,M,M,M,M,M,M,M,M,M,M,YBBN 010930Z 13009KT CAVOK 23/14 Q1011 NOSIG
YBBN,2016-01-01 10:00,153.1292,-27.3917,73.40,59.00,60.67,120.00,7.00,0.00,29.85,M,6.21,M,M,M,M,M,M,M,M,M,M,YBBN 011000Z 12007KT CAVOK 23/15 Q1011 NOSIG
YBBN,2016-01-01 10:30,153.1292,-27.3917,73.40,59.00,60.67,120.00,8.00,0.00,29.88,M,6.21,M,M,M,M,M,M,M,M,M,M,YBBN 011030Z 12008KT CAVOK 23/15 Q1012
YBBN,2016-01-01 11:00,153.1292,-27.3917,73.40,59.00,60.67,130.00,8.00,0.00,29.88,M,6.21,M,M,M,M,M,M,M,M,M,M,YBBN 011100Z 13008KT CAVOK 23/15 Q1012 NOSIG
YBBN,2016-01-01 11:30,153.1292,-27.3917,73.40,59.00,60.67,140.00,7.00,0.00,29.88,M,6.21,M,M,M,M,M,M,M,M,M,M,YBBN 011130Z 14007KT CAVOK 23/15 Q1012 NOSIG
YBBN,2016-01-01 12:00,153.1292,-27.3917,71.60,59.00,64.48,150.00,6.00,0.00,29.88,M,6.21,M,M,M,M,M,M,M,M,M,M,YBBN 011200Z 15006KT CAVOK 22/15 Q1012 NOSIG
YBBN,2016-01-01 12:30,153.1292,-27.3917,69.80,59.00,68.55,170.00,7.00,0.00,29.88,M,6.21,M,M,M,M,M,M,M,M,M,M,YBBN 011230Z 17007KT 140V200 CAVOK 21/15 Q1012 NOSIG
YBBN,2016-01-01 13:00,153.1292,-27.3917,69.80,59.00,68.55,170.00,4.00,0.00,29.88,M,6.21,M,M,M,M,M,M,M,M,M,M,YBBN 011300Z 17004KT CAVOK 21/15 Q1012 NOSIG
YBBN,2016-01-01 13:30,153.1292,-27.3917,68.00,57.20,68.35,200.00,6.00,0.00,29.88,M,6.21,M,M,M,M,M,M,M,M,M,M,YBBN 011330Z 20006KT CAVOK 20/14 Q1012 NOSIG
YBBN,2016-01-01 14:00,153.1292,-27.3917,68.00,57.20,68.35,200.00,5.00,0.00,29.85,M,6.21,M,M,M,M,M,M,M,M,M,M,YBBN 011400Z 20005KT CAVOK 20/14 Q1011 NOSIG
YBBN,2016-01-01 14:30,153.1292,-27.3917,66.20,57.20,72.74,200.00,5.00,0.00,29.85,M,6.21,M,M,M,M,M,M,M,M,M,M,YBBN 011430Z 20005KT CAVOK 19/14 Q1011 NOSIG
YBBN,2016-01-01 15:00,153.1292,-27.3917,66.20,57.20,72.74,190.00,6.00,0.00,29.85,M,6.21,M,M,M,M,M,M,M,M,M,M,YBBN 011500Z 19006KT CAVOK 19/14 Q1011
YBBN,2016-01-01 15:30,153.1292,-27.3917,66.20,57.20,72.74,200.00,6.00,0.00,29.85,M,6.21,M,M,M,M,M,M,M,M,M,M,YBBN 011530Z 20006KT CAVOK 19/14 Q1011 NOSIG
YBBN,2016-01-01 16:00,153.1292,-27.3917,64.40,57.20,77.45,210.00,6.00,0.00,29.83,M,6.21,M,M,M,M,M,M,M,M,M,M,YBBN 011600Z 21006KT CAVOK 18/14 Q1010
YBBN,2016-01-01 16:30,153.1292,-27.3917,66.20,57.20,72.74,200.00,6.00,0.00,29.83,M,6.21,M,M,M,M,M,M,M,M,M,M,YBBN 011630Z 20006KT CAVOK 19/14 Q1010 NOSIG
YBBN,2016-01-01 17:00,153.1292,-27.3917,64.40,57.20,77.45,200.00,7.00,0.00,29.83,M,6.21,M,M,M,M,M,M,M,M,M,M,YBBN 011700Z 20007KT CAVOK 18/14 Q1010 NOSIG
YBBN,2016-01-01 17:30,153.1292,-27.3917,66.20,57.20,72.74,210.00,7.00,0.00,29.83,M,6.21,M,M,M,M,M,M,M,M,M,M,YBBN 011730Z 21007KT CAVOK 19/14 Q1010 NOSIG
YBBN,2016-01-01 18:00,153.1292,-27.3917,62.60,57.20,82.50,210.00,7.00,0.00,29.83,M,6.21,M,M,M,M,M,M,M,M,M,M,YBBN 011800Z 21007KT CAVOK 17/14 Q1010 NOSIG
YBBN,2016-01-01 18:30,153.1292,-27.3917,62.60,57.20,82.50,200.00,6.00,0.00,29.85,M,6.21,M,M,M,M,M,M,M,M,M,M,YBBN 011830Z 20006KT CAVOK 17/14 Q1011 NOSIG
YBBN,2016-01-01 19:00,153.1292,-27.3917,64.40,57.20,77.45,210.00,6.00,0.00,29.85,M,6.21,M,M,M,M,M,M,M,M,M,M,YBBN 011900Z 21006KT CAVOK 18/14 Q1011
YBBN,2016-01-01 19:30,153.1292,-27.3917,66.20,57.20,72.74,200.00,6.00,0.00,29.85,M,6.21,M,M,M,M,M,M,M,M,M,M,YBBN 011930Z 20006KT CAVOK 19/14 Q1011 NOSIG
YBBN,2016-01-01 20:00,153.1292,-27.3917,68.00,59.00,72.92,200.00,6.00,0.00,29.85,M,6.21,M,M,M,M,M,M,M,M,M,M,YBBN 012000Z 20006KT CAVOK 20/15 Q1011
YBBN,2016-01-01 20:30,153.1292,-27.3917,69.80,57.20,64.26,200.00,7.00,0.00,29.85,M,6.21,M,FEW,M,M,M,4000.00,M,M,M,M,YBBN 012030Z 20007KT 9999 FEW040 21/14 Q1011 NOSIG
YBBN,2016-01-01 21:00,153.1292,-27.3917,71.60,57.20,60.44,200.00,7.00,0.00,29.85,M,6.21,M,M,M,M,M,M,M,M,M,M,YBBN 012100Z 20007KT CAVOK 22/14 Q1011 NOSIG
YBBN,2016-01-01 21:30,153.1292,-27.3917,73.40,57.20,56.88,200.00,7.00,0.00,29.85,M,6.21,M,FEW,M,M,M,3500.00,M,M,M,M,YBBN 012130Z 20007KT 9999 FEW035 23/14 Q1011 NOSIG
YBBN,2016-01-01 22:00,153.1292,-27.3917,75.20,57.20,53.55,210.00,6.00,0.00,29.85,M,6.21,M,FEW,M,M,M,4000.00,M,M,M,M,YBBN 012200Z 21006KT 9999 FEW040 24/14 Q1011 NOSIG
YBBN,2016-01-01 22:30,153.1292,-27.3917,75.20,57.20,53.55,150.00,4.00,0.00,29.85,M,6.21,M,FEW,M,M,M,4000.00,M,M,M,M,YBBN 012230Z 15004KT 9999 FEW040 24/14 Q1011 NOSIG
YBBN,2016-01-01 23:00,153.1292,-27.3917,78.80,59.00,50.69,60.00,5.00,0.00,29.85,M,6.21,M,FEW,M,M,M,4500.00,M,M,M,M,YBBN 012300Z 06005KT 300V110 9999 FEW045 26/15 Q1011 NOSIG
YBBN,2016-01-01 23:30,153.1292,-27.3917,77.00,57.20,50.43,100.00,6.00,0.00,29.85,M,6.21,M,FEW,M,M,M,4500.00,M,M,M,M,YBBN 012330Z 10006KT 070V150 9999 FEW045 25/14 Q1011 NOSIG
