#DEBUG: Format Typ    -> comma
#DEBUG: Time Period   -> 2016-02-03 00:00:00+00:00 2016-02-04 00:00:00+00:00
#DEBUG: Time Zone     -> Etc/UTC
#DEBUG: Data Contact   -> daryl herzmann akrherz@iastate.edu 515-294-5978
#DEBUG: Entries Found -> -1
station,valid,lon,lat,tmpf, dwpf, relh, drct, sknt, p01i, alti, mslp, vsby, gust, skyc1, skyc2, skyc3, skyc4, skyl1, skyl2, skyl3, skyl4, presentwx, metar
YBBN,2016-02-03 00:00,153.1292,-27.3917,86.00,68.00,55.04,20.00,6.00,0.00,29.65,M,6.21,M,FEW,BKN,M,M,2800.00,3800.00,M,M,M,YBBN 030000Z 02006KT 330V080 9999 FEW028 BKN038 30/20 Q1004
YBBN,2016-02-03 01:00,153.1292,-27.3917,87.80,69.80,55.29,40.00,7.00,0.00,29.62,M,6.21,M,FEW,BKN,M,M,3200.00,4000.00,M,M,M,YBBN 030100Z 04007KT 9999 FEW032 BKN040 31/21 Q1003 NOSIG
YBBN,2016-02-03 01:30,153.1292,-27.3917,86.00,73.40,66.15,40.00,8.00,0.00,29.62,M,6.21,M,FEW,BKN,M,M,3200.00,4200.00,M,M,M,YBBN 030130Z 04008KT 9999 FEW032 BKN042 30/23 Q1003 NOSIG
YBBN,2016-02-03 02:00,153.1292,-27.3917,84.20,73.40,70.08,30.00,10.00,0.00,29.62,M,6.21,M,FEW,BKN,M,M,3200.00,4400.00,M,M,-SHRA,YBBN 030200Z 03010KT 9999 -SHRA FEW032 BKN044 29/23 Q1003
YBBN,2016-02-03 02:30,153.1292,-27.3917,84.20,71.60,65.95,20.00,10.00,0.00,29.59,M,6.21,M,FEW,BKN,M,M,3300.00,4500.00,M,M,M,YBBN 030230Z 02010KT 9999 FEW033 BKN045 29/22 Q1002 NOSIG
YBBN,2016-02-03 03:00,153.1292,-27.3917,87.80,71.60,58.78,40.00,9.00,0.00,29.59,M,6.21,M,FEW,M,M,M,3500.00,M,M,M,M,YBBN 030300Z 04009KT 9999 FEW035 31/22 Q1002 NOSIG
YBBN,2016-02-03 03:30,153.1292,-27.3917,87.80,71.60,58.78,60.00,9.00,0.00,29.56,M,6.21,M,FEW,M,M,M,3700.00,M,M,M,M,YBBN 030330Z 06009KT 9999 FEW037 31/22 Q1001 NOSIG
YBBN,2016-02-03 04:00,153.1292,-27.3917,87.80,71.60,58.78,70.00,10.00,0.00,29.56,M,6.21,M,FEW,M,M,M,3500.00,M,M,M,VCSH,YBBN 030400Z 07010KT 9999 VCSH FEW035 31/22 Q1001 NOSIG
YBBN,2016-02-03 04:30,153.1292,-27.3917,87.80,73.40,62.47,60.00,11.00,0.00,29.56,M,6.21,M,FEW,M,M,M,3500.00,M,M,M,-SHRA,YBBN 030430Z 06011KT 9999 -SHRA FEW035 31/23 Q1001
YBBN,2016-02-03 05:00,153.1292,-27.3917,86.00,71.60,62.25,60.00,11.00,0.00,29.56,M,6.21,M,SCT,SCT,M,M,3000.00,5200.00,M,M,VCSH,YBBN 030500Z 06011KT 9999 VCSH SCT030 SCT052 30/22 Q1001
YBBN,2016-02-03 06:00,153.1292,-27.3917,80.60,73.40,78.76,50.00,9.00,0.00,29.56,M,6.21,M,SCT,SCT,M,M,2300.00,6000.00,M,M,-SHRA,YBBN 030600Z 05009KT 9999 -SHRA SCT023 SCT060 27/23 Q1001 NOSIG
YBBN,2016-02-03 06:30,153.1292,-27.3917,82.40,77.00,83.77,360.00,16.00,0.00,29.56,M,6.21,M,FEW,SCT,BKN,M,2200.00,6300.00,24000.00,M,VCSH,YBBN 030630Z 36016KT 9999 VCSH FEW022 SCT063 BKN240 28/25 Q1001
YBBN,2016-02-03 07:00,153.1292,-27.3917,80.60,75.20,83.66,360.00,15.00,0.00,29.56,M,6.21,M,FEW,BKN,M,M,2200.00,24000.00,M,M,M,YBBN 030700Z 36015KT 9999 FEW022 BKN240 27/24 Q1001
YBBN,2016-02-03 09:00,153.1292,-27.3917,78.80,75.20,88.75,10.00,9.00,0.00,29.59,M,6.21,M,FEW,BKN,BKN,SCT,1200.00,12000.00,17000.00,3000.00,TS,YBBN 030900Z 01009KT 9999 TS FEW012 BKN120 BKN170 SCT030CB 26/24 Q1002
YBBN,2016-02-03 09:18,153.1292,-27.3917,78.80,75.20,88.75,10.00,7.00,0.00,29.62,M,3.11,M,FEW,SCT,BKN,M,900.00,3200.00,8500.00,M,-TSRA,YBBN 030918Z 01007KT 5000 -TSRA FEW009 SCT032CB BKN085 26/24 Q1003
YBBN,2016-02-03 09:23,153.1292,-27.3917,78.80,77.00,94.23,20.00,6.00,0.00,29.62,M,1.86,M,BKN,BKN,M,M,3400.00,11000.00,M,M,TSRA,YBBN 030923Z 02006KT 3000 TSRA BKN034CB BKN110 26/25 Q1003
YBBN,2016-02-03 09:30,153.1292,-27.3917,78.80,77.00,94.23,10.00,3.00,0.00,29.65,M,0.93,M,FEW,BKN,BKN,M,1400.00,3200.00,11000.00,M,+TSRA,YBBN 030930Z 01003KT 1500 +TSRA FEW014 BKN032CB BKN110 26/25 Q1004
YBBN,2016-02-03 09:38,153.1292,-27.3917,77.00,75.20,94.19,300.00,1.00,0.00,29.62,M,2.49,M,SCT,BKN,M,M,1000.00,3200.00,M,M,TSRA,YBBN 030938Z 30001KT 4000 1500N TSRA SCT010 BKN032CB 25/24 Q1003 RETS
YBBN,2016-02-03 09:48,153.1292,-27.3917,77.00,77.00,100.00,350.00,11.00,0.00,29.62,M,4.97,M,SCT,BKN,M,M,600.00,2800.00,M,M,-TSRA,YBBN 030948Z 35011KT 8000 3000N -TSRA SCT006 BKN028CB 25/25 Q1003 RETS
YBBN,2016-02-03 10:00,153.1292,-27.3917,77.00,75.20,94.19,10.00,11.00,0.00,29.62,M,6.21,M,FEW,SCT,BKN,M,900.00,3500.00,11000.00,M,VCTS,YBBN 031000Z 01011KT 9999 VCTS FEW009 SCT035CB BKN110 25/24 Q1003 RETS
YBBN,2016-02-03 10:30,153.1292,-27.3917,77.00,77.00,100.00,10.00,7.00,0.00,29.62,M,6.21,M,FEW,SCT,BKN,M,1000.00,11000.00,17000.00,M,M,YBBN 031030Z 01007KT 9999 FEW010 SCT110 BKN170 25/25 Q1003 NOSIG
YBBN,2016-02-03 11:00,153.1292,-27.3917,77.00,77.00,100.00,10.00,7.00,0.00,29.65,M,6.21,M,SCT,BKN,M,M,1000.00,17000.00,M,M,M,YBBN 031100Z 01007KT 9999 SCT010 BKN170 25/25 Q1004 NOSIG
YBBN,2016-02-03 12:00,153.1292,-27.3917,77.00,75.20,94.19,360.00,7.00,0.00,29.62,M,6.21,M,FEW,SCT,BKN,M,1000.00,7000.00,13000.00,M,M,YBBN 031200Z 36007KT 9999 FEW010 SCT070 BKN130 25/24 Q1003
YBBN,2016-02-03 13:00,153.1292,-27.3917,78.80,75.20,88.75,40.00,5.00,0.00,29.62,M,6.21,M,FEW,BKN,M,M,1000.00,4500.00,M,M,M,YBBN 031300Z 04005KT 9999 FEW010 BKN045 26/24 Q1003
YBBN,2016-02-03 14:00,153.1292,-27.3917,78.80,75.20,88.75,0.00,0.00,0.00,29.62,M,6.21,M,FEW,BKN,M,M,1200.00,5000.00,M,M,M,YBBN 031400Z 00000KT 9999 FEW012 BKN050 26/24 Q1003
YBBN,2016-02-03 15:00,153.1292,-27.3917,78.80,77.00,94.23,0.00,0.00,0.00,29.59,M,6.21,M,M,M,M,M,M,M,M,M,M,YBBN 031500Z 00000KT CAVOK 26/25 Q1002
YBBN,2016-02-03 16:00,153.1292,-27.3917,78.80,77.00,94.23,0.00,0.00,0.00,29.59,M,6.21,M,SCT,BKN,M,M,1400.00,3000.00,M,M,M,YBBN 031600Z 00000KT 9999 SCT014 BKN030 26/25 Q1002
YBBN,2016-02-03 17:00,153.1292,-27.3917,77.00,75.20,94.19,140.00,4.00,0.00,29.56,M,6.21,M,BKN,M,M,M,1500.00,M,M,M,M,YBBN 031700Z 14004KT 9999 BKN015 25/24 Q1001
YBBN,2016-02-03 18:00,153.1292,-27.3917,77.00,73.40,88.67,160.00,4.00,0.00,29.59,M,6.21,M,BKN,M,M,M,1700.00,M,M,M,M,YBBN 031800Z 16004KT 9999 BKN017 25/23 Q1002
YBBN,2016-02-03 19:00,153.1292,-27.3917,77.00,75.20,94.19,190.00,4.00,0.00,29.62,M,6.21,M,BKN,M,M,M,1700.00,M,M,M,M,YBBN 031900Z 19004KT 9999 BKN017 25/24 Q1003
YBBN,2016-02-03 21:00,153.1292,-27.3917,77.00,73.40,88.67,170.00,5.00,0.00,29.65,M,6.21,M,FEW,OVC,M,M,1000.00,1700.00,M,M,M,YBBN 032100Z 17005KT 9999 FEW010 OVC017 25/23 Q1004
YBBN,2016-02-03 22:00,153.1292,-27.3917,78.80,73.40,83.55,140.00,7.00,0.00,29.65,M,6.21,M,FEW,OVC,M,M,1000.00,1900.00,M,M,M,YBBN 032200Z 14007KT 9999 FEW010 OVC019 26/23 Q1004
YBBN,2016-02-03 23:00,153.1292,-27.3917,80.60,75.20,83.66,140.00,6.00,0.00,29.68,M,6.21,M,SCT,BKN,BKN,M,1400.00,2500.00,3000.00,M,-DZ,YBBN 032300Z 14006KT 9999 -DZ SCT014 BKN025 BKN030 27/24 Q1005
