#DEBUG: Format Typ    -> comma
#DEBUG: Time Period   -> 2010-02-26 00:00:00+00:00 2010-02-27 00:00:00+00:00
#DEBUG: Time Zone     -> Etc/UTC
#DEBUG: Data Contact   -> daryl herzmann akrherz@iastate.edu 515-294-5978
#DEBUG: Entries Found -> -1
station,valid,lon,lat,tmpf, dwpf, relh, drct, sknt, p01i, alti, mslp, vsby, gust, skyc1, skyc2, skyc3, skyc4, skyl1, skyl2, skyl3, skyl4, presentwx, metar
YBBN,2010-02-26 23:00,153.1292,-27.3917,77.00,69.80,78.48,200.00,8.00,M,30.06,M,6.21,M,FEW,SCT,BKN,M,1200.00,4200.00,6200.00,M,M,YBBN 262300Z 20008KT 9999 FEW012 SCT042 BKN062 25/21 Q1018 RMK TCU TOP TO NE INTER 2300/0200 3000 SHRA BKN012
YBBN,2010-02-26 23:30,153.1292,-27.3917,78.80,69.80,73.95,200.00,9.00,M,30.06,M,6.21,M,FEW,SCT,BKN,M,2400.00,4500.00,7500.00,M,M,YBBN 262330Z 20009KT 9999 FEW024 SCT045 BKN075 26/21 Q1018 RMK DIST SH INTER 2330/0230 3000 SHRA BKN012
