#DEBUG: Format Typ    -> comma
#DEBUG: Time Period   -> 2016-12-10 00:00:00+00:00 2016-12-11 00:00:00+00:00
#DEBUG: Time Zone     -> Etc/UTC
#DEBUG: Data Contact   -> daryl herzmann akrherz@iastate.edu 515-294-5978
#DEBUG: Entries Found -> -1
station,valid,lon,lat,tmpf, dwpf, relh, drct, sknt, p01i, alti, mslp, vsby, gust, skyc1, skyc2, skyc3, skyc4, skyl1, skyl2, skyl3, skyl4, presentwx, metar
YBBN,2016-12-10 00:00,153.1292,-27.3917,77.00,59.00,53.80,130.00,12.00,0.00,30.12,M,6.21,M,SCT,SCT,M,M,4000.00,30000.00,M,M,M,YBBN 100000Z 13012KT 9999 SCT040 SCT300 25/15 Q1020
YBBN,2016-12-10 00:30,153.1292,-27.3917,77.00,60.80,57.36,120.00,13.00,0.00,30.12,M,6.21,M,SCT,SCT,M,M,4000.00,30000.00,M,M,M,YBBN 100030Z 12013KT 9999 SCT040 SCT300 25/16 Q1020 NOSIG
YBBN,2016-12-10 01:00,153.1292,-27.3917,77.00,60.80,57.36,110.00,13.00,0.00,30.12,M,6.21,M,SCT,SCT,M,M,4000.00,7500.00,M,M,M,YBBN 100100Z 11013KT 9999 SCT040 SCT075 25/16 Q1020
YBBN,2016-12-10 01:30,153.1292,-27.3917,78.80,60.80,54.05,120.00,12.00,0.00,30.12,M,6.21,M,SCT,SCT,M,M,4200.00,7500.00,M,M,M,YBBN 100130Z 12012KT 9999 SCT042 SCT075 26/16 Q1020 NOSIG
YBBN,2016-12-10 02:00,153.1292,-27.3917,77.00,60.80,57.36,120.00,11.00,0.00,30.12,M,6.21,M,SCT,BKN,M,M,4200.00,7500.00,M,M,M,YBBN 100200Z 12011KT 9999 SCT042 BKN075 25/16 Q1020 NOSIG
YBBN,2016-12-10 02:30,153.1292,-27.3917,77.00,60.80,57.36,110.00,11.00,0.00,30.12,M,6.21,M,SCT,BKN,M,M,4000.00,7000.00,M,M,M,YBBN 100230Z 11011KT 9999 SCT040 BKN070 25/16 Q1020 NOSIG
YBBN,2016-12-10 03:00,153.1292,-27.3917,77.00,60.80,57.36,110.00,11.00,0.00,30.12,M,6.21,M,SCT,BKN,M,M,4000.00,7000.00,M,M,M,YBBN 100300Z 11011KT 9999 SCT040 BKN070 25/16 Q1020 NOSIG
YBBN,2016-12-10 03:30,153.1292,-27.3917,77.00,60.80,57.36,110.00,10.00,0.00,30.12,M,6.21,M,SCT,BKN,M,M,4000.00,7000.00,M,M,M,YBBN 100330Z 11010KT 9999 SCT040 BKN070 25/16 Q1020 NOSIG
YBBN,2016-12-10 04:00,153.1292,-27.3917,77.00,60.80,57.36,90.00,12.00,0.00,30.09,M,6.21,M,SCT,SCT,BKN,M,4000.00,7000.00,30000.00,M,M,YBBN 100400Z 09012KT 9999 SCT040 SCT070 BKN300 25/16 Q1019
YBBN,2016-12-10 04:30,153.1292,-27.3917,77.00,62.60,61.13,100.00,11.00,0.00,30.09,M,6.21,M,SCT,SCT,BKN,M,3500.00,6000.00,30000.00,M,M,YBBN 100430Z 10011KT 9999 SCT035 SCT060 BKN300 25/17 Q1019 NOSIG
YBBN,2016-12-10 05:00,153.1292,-27.3917,75.20,59.00,57.12,100.00,10.00,0.00,30.09,M,6.21,M,SCT,SCT,BKN,M,3500.00,6000.00,30000.00,M,M,YBBN 100500Z 10010KT 9999 SCT035 SCT060 BKN300 24/15 Q1019 NOSIG
YBBN,2016-12-10 05:30,153.1292,-27.3917,75.20,62.60,64.91,90.00,11.00,0.00,30.09,M,6.21,M,SCT,BKN,M,M,3300.00,6000.00,M,M,M,YBBN 100530Z 09011KT 9999 SCT033 BKN060 24/17 Q1019 NOSIG
YBBN,2016-12-10 06:00,153.1292,-27.3917,75.20,60.80,60.90,90.00,9.00,0.00,30.09,M,6.21,19.00,SCT,BKN,M,M,3300.00,5500.00,M,M,M,YBBN 100600Z 09009G19KT 9999 SCT033 BKN055 24/16 Q1019
YBBN,2016-12-10 06:30,153.1292,-27.3917,75.20,60.80,60.90,90.00,10.00,0.00,30.09,M,6.21,M,SCT,SCT,BKN,M,3300.00,5500.00,28000.00,M,M,YBBN 100630Z 09010KT 9999 SCT033 SCT055 BKN280 24/16 Q1019 NOSIG
YBBN,2016-12-10 07:00,153.1292,-27.3917,75.20,60.80,60.90,90.00,11.00,0.00,30.09,M,6.21,M,SCT,BKN,M,M,3500.00,28000.00,M,M,M,YBBN 100700Z 09011KT 9999 SCT035 BKN280 24/16 Q1019 NOSIG
YBBN,2016-12-10 07:30,153.1292,-27.3917,73.40,60.80,64.69,110.00,11.00,0.00,30.09,M,6.21,M,SCT,SCT,BKN,M,3500.00,4600.00,28000.00,M,M,YBBN 100730Z 11011KT 9999 SCT035 SCT046 BKN280 23/16 Q1019 NOSIG
YBBN,2016-12-10 08:00,153.1292,-27.3917,73.40,60.80,64.69,100.00,10.00,0.00,30.12,M,6.21,M,SCT,SCT,BKN,M,3500.00,6000.00,28000.00,M,M,YBBN 100800Z 10010KT 9999 SCT035 SCT060 BKN280 23/16 Q1020 NOSIG
YBBN,2016-12-10 08:30,153.1292,-27.3917,73.40,60.80,64.69,100.00,9.00,0.00,30.12,M,6.21,M,SCT,SCT,M,M,3400.00,6000.00,M,M,M,YBBN 100830Z 10009KT 9999 SCT034 SCT060 23/16 Q1020 NOSIG
YBBN,2016-12-10 09:00,153.1292,-27.3917,73.40,60.80,64.69,100.00,10.00,0.00,30.12,M,6.21,M,SCT,SCT,M,M,3200.00,5000.00,M,M,M,YBBN 100900Z 10010KT 9999 SCT032 SCT050 23/16 Q1020
YBBN,2016-12-10 09:30,153.1292,-27.3917,73.40,60.80,64.69,90.00,9.00,0.00,30.12,M,6.21,M,SCT,BKN,M,M,3200.00,6500.00,M,M,M,YBBN 100930Z 09009KT 9999 SCT032 BKN065 23/16 Q1020 NOSIG
YBBN,2016-12-10 10:00,153.1292,-27.3917,73.40,59.00,60.67,90.00,9.00,0.00,30.15,M,6.21,M,SCT,BKN,M,M,3200.00,7000.00,M,M,M,YBBN 101000Z 09009KT 9999 SCT032 BKN070 23/15 Q1021
YBBN,2016-12-10 10:30,153.1292,-27.3917,73.40,60.80,64.69,90.00,9.00,0.00,30.15,M,6.21,M,SCT,BKN,M,M,3200.00,7000.00,M,M,M,YBBN 101030Z 09009KT 9999 SCT032 BKN070 23/16 Q1021 NOSIG
YBBN,2016-12-10 11:00,153.1292,-27.3917,73.40,60.80,64.69,90.00,10.00,0.00,30.15,M,6.21,M,SCT,BKN,M,M,3200.00,7000.00,M,M,M,YBBN 101100Z 09010KT 9999 SCT032 BKN070 23/16 Q1021 NOSIG
YBBN,2016-12-10 11:30,153.1292,-27.3917,73.40,60.80,64.69,90.00,8.00,0.00,30.15,M,6.21,M,SCT,BKN,M,M,3200.00,6500.00,M,M,M,YBBN 101130Z 09008KT 9999 SCT032 BKN065 23/16 Q1021 NOSIG
YBBN,2016-12-10 12:00,153.1292,-27.3917,73.40,60.80,64.69,90.00,8.00,0.00,30.15,M,6.21,M,FEW,BKN,M,M,3000.00,6500.00,M,M,M,YBBN 101200Z 09008KT 9999 FEW030 BKN065 23/16 Q1021
YBBN,2016-12-10 12:30,153.1292,-27.3917,71.60,60.80,68.75,90.00,9.00,0.00,30.15,M,6.21,M,FEW,SCT,M,M,3200.00,6500.00,M,M,M,YBBN 101230Z 09009KT 9999 FEW032 SCT065 22/16 Q1021 NOSIG
YBBN,2016-12-10 13:00,153.1292,-27.3917,71.60,60.80,68.75,90.00,8.00,0.00,30.15,M,6.21,M,SCT,SCT,M,M,3000.00,6500.00,M,M,M,YBBN 101300Z 09008KT 9999 SCT030 SCT065 22/16 Q1021
YBBN,2016-12-10 13:30,153.1292,-27.3917,71.60,60.80,68.75,90.00,8.00,0.00,30.15,M,6.21,M,FEW,SCT,M,M,2800.00,6500.00,M,M,M,YBBN 101330Z 09008KT 9999 FEW028 SCT065 22/16 Q1021 NOSIG
YBBN,2016-12-10 14:00,153.1292,-27.3917,71.60,60.80,68.75,90.00,7.00,0.00,30.15,M,6.21,M,FEW,BKN,M,M,2800.00,30000.00,M,M,M,YBBN 101400Z 09007KT 9999 FEW028 BKN300 22/16 Q1021 NOSIG
YBBN,2016-12-10 14:30,153.1292,-27.3917,71.60,59.00,64.48,100.00,7.00,0.00,30.12,M,6.21,M,FEW,BKN,M,M,2800.00,30000.00,M,M,M,YBBN 101430Z 10007KT 9999 FEW028 BKN300 22/15 Q1020 NOSIG
YBBN,2016-12-10 15:00,153.1292,-27.3917,71.60,60.80,68.75,90.00,6.00,0.00,30.12,M,6.21,M,FEW,BKN,M,M,2500.00,30000.00,M,M,M,YBBN 101500Z 09006KT 9999 FEW025 BKN300 22/16 Q1020 NOSIG
YBBN,2016-12-10 15:30,153.1292,-27.3917,71.60,60.80,68.75,90.00,7.00,0.00,30.12,M,6.21,M,FEW,M,M,M,2500.00,M,M,M,M,YBBN 101530Z 09007KT 9999 FEW025 22/16 Q1020 NOSIG
YBBN,2016-12-10 16:00,153.1292,-27.3917,71.60,60.80,68.75,100.00,6.00,0.00,30.12,M,6.21,M,FEW,M,M,M,2500.00,M,M,M,M,YBBN 101600Z 10006KT 9999 FEW025 22/16 Q1020 NOSIG
YBBN,2016-12-10 16:30,153.1292,-27.3917,71.60,60.80,68.75,100.00,6.00,0.00,30.09,M,6.21,M,FEW,M,M,M,2500.00,M,M,M,M,YBBN 101630Z 10006KT 9999 FEW025 22/16 Q1019 NOSIG
YBBN,2016-12-10 17:00,153.1292,-27.3917,71.60,59.00,64.48,100.00,7.00,0.00,30.09,M,6.21,M,FEW,M,M,M,4000.00,M,M,M,M,YBBN 101700Z 10007KT 9999 FEW040 22/15 Q1019 NOSIG
YBBN,2016-12-10 17:30,153.1292,-27.3917,71.60,59.00,64.48,110.00,6.00,0.00,30.09,M,6.21,M,FEW,M,M,M,4000.00,M,M,M,M,YBBN 101730Z 11006KT 9999 FEW040 22/15 Q1019 NOSIG
YBBN,2016-12-10 18:00,153.1292,-27.3917,71.60,59.00,64.48,100.00,5.00,0.00,30.09,M,6.21,M,FEW,SCT,M,M,3000.00,30000.00,M,M,M,YBBN 101800Z 10005KT 9999 FEW030 SCT300 22/15 Q1019
YBBN,2016-12-10 18:30,153.1292,-27.3917,68.00,60.80,77.75,100.00,5.00,0.00,30.12,M,6.21,M,FEW,SCT,M,M,2500.00,30000.00,M,M,M,YBBN 101830Z 10005KT 9999 FEW025 SCT300 20/16 Q1020 NOSIG
YBBN,2016-12-10 19:00,153.1292,-27.3917,68.00,60.80,77.75,120.00,5.00,0.00,30.12,M,6.21,M,FEW,SCT,M,M,2500.00,30000.00,M,M,M,YBBN 101900Z 12005KT 9999 FEW025 SCT300 20/16 Q1020 NOSIG
YBBN,2016-12-10 19:30,153.1292,-27.3917,68.00,60.80,77.75,210.00,4.00,0.00,30.12,M,6.21,M,FEW,BKN,M,M,2500.00,30000.00,M,M,M,YBBN 101930Z 21004KT 9999 FEW025 BKN300 20/16 Q1020 NOSIG
YBBN,2016-12-10 20:00,153.1292,-27.3917,69.80,60.80,73.09,180.00,6.00,0.00,30.12,M,6.21,M,SCT,BKN,M,M,2500.00,30000.00,M,M,M,YBBN 102000Z 18006KT 9999 SCT025 BKN300 21/16 Q1020 NOSIG
YBBN,2016-12-10 21:00,153.1292,-27.3917,71.60,60.80,68.75,150.00,5.00,0.00,30.15,M,6.21,M,FEW,BKN,M,M,2000.00,30000.00,M,M,M,YBBN 102100Z 15005KT 9999 FEW020 BKN300 22/16 Q1021 NOSIG
YBBN,2016-12-10 21:30,153.1292,-27.3917,73.40,59.00,60.67,130.00,5.00,0.00,30.15,M,6.21,M,FEW,BKN,M,M,2500.00,27000.00,M,M,M,YBBN 102130Z 13005KT 090V170 9999 FEW025 BKN270 23/15 Q1021 NOSIG
YBBN,2016-12-10 22:00,153.1292,-27.3917,73.40,59.00,60.67,140.00,7.00,0.00,30.15,M,6.21,M,SCT,BKN,M,M,2500.00,27000.00,M,M,M,YBBN 102200Z 14007KT 9999 SCT025 BKN270 23/15 Q1021
YBBN,2016-12-10 22:30,153.1292,-27.3917,75.20,59.00,57.12,120.00,7.00,0.00,30.18,M,6.21,M,SCT,BKN,M,M,2800.00,27000.00,M,M,M,YBBN 102230Z 12007KT 9999 SCT028 BKN270 24/15 Q1022 NOSIG
YBBN,2016-12-10 23:00,153.1292,-27.3917,75.20,55.40,50.17,120.00,8.00,0.00,30.18,M,6.21,M,SCT,BKN,M,M,3000.00,27000.00,M,M,M,YBBN 102300Z 12008KT 090V160 9999 SCT030 BKN270 24/13 Q1022
YBBN,2016-12-10 23:30,153.1292,-27.3917,77.00,59.00,53.80,110.00,7.00,0.00,30.18,M,6.21,M,SCT,BKN,M,M,3500.00,27000.00,M,M,M,YBBN 102330Z 11007KT 9999 SCT035 BKN270 25/15 Q1022 NOSIG
