#DEBUG: Format Typ    -> comma
#DEBUG: Time Period   -> 2016-12-25 00:00:00+00:00 2016-12-26 00:00:00+00:00
#DEBUG: Time Zone     -> Etc/UTC
#DEBUG: Data Contact   -> daryl herzmann akrherz@iastate.edu 515-294-5978
#DEBUG: Entries Found -> -1
station,valid,lon,lat,tmpf, dwpf, relh, drct, sknt, p01i, alti, mslp, vsby, gust, skyc1, skyc2, skyc3, skyc4, skyl1, skyl2, skyl3, skyl4, presentwx, metar
YBBN,2016-12-25 00:00,153.1292,-27.3917,69.80,68.00,94.01,160.00,5.00,0.00,30.03,M,1.24,M,FEW,BKN,M,M,400.00,1200.00,M,M,+RA,YBBN 250000Z 16005KT 2000 +RA FEW004 BKN012 21/20 Q1017
YBBN,2016-12-25 00:22,153.1292,-27.3917,69.80,68.00,94.01,150.00,5.00,0.00,30.03,M,4.35,M,SCT,BKN,M,M,400.00,1100.00,M,M,-RA,YBBN 250022Z 15005KT 7000 -RA SCT004 BKN011 21/20 Q1017
YBBN,2016-12-25 00:30,153.1292,-27.3917,69.80,68.00,94.01,150.00,5.00,0.00,30.03,M,5.59,M,SCT,BKN,M,M,400.00,1000.00,M,M,-RA,YBBN 250030Z 15005KT 9000 -RA SCT004 BKN010 21/20 Q1017
YBBN,2016-12-25 00:54,153.1292,-27.3917,71.60,69.80,94.06,110.00,6.00,0.00,30.03,M,4.97,M,FEW,SCT,BKN,M,400.00,1200.00,3000.00,M,RA,YBBN 250054Z 11006KT 8000 RA FEW004 SCT012 BKN030 22/21 Q1017
YBBN,2016-12-25 01:00,153.1292,-27.3917,71.60,69.80,94.06,110.00,6.00,0.00,30.03,M,4.97,M,FEW,SCT,BKN,M,400.00,1200.00,3000.00,M,RA,YBBN 250100Z 11006KT 8000 RA FEW004 SCT012 BKN030 22/21 Q1017
YBBN,2016-12-25 01:27,153.1292,-27.3917,71.60,69.80,94.06,120.00,5.00,0.00,30.00,M,4.97,M,FEW,SCT,BKN,FEW,800.00,1200.00,3000.00,2200.00,-TSRA,YBBN 250127Z 12005KT 090V150 8000 -TSRA FEW008 SCT012 BKN030 FEW022CB 22/21 Q1016
YBBN,2016-12-25 01:30,153.1292,-27.3917,71.60,69.80,94.06,120.00,5.00,0.00,30.00,M,4.97,M,FEW,SCT,BKN,FEW,800.00,1200.00,3000.00,2200.00,-TSRA,YBBN 250130Z 12005KT 8000 -TSRA FEW008 SCT012 BKN030 FEW022CB 22/21 Q1016
YBBN,2016-12-25 01:43,153.1292,-27.3917,71.60,69.80,94.06,100.00,4.00,0.00,30.00,M,5.59,M,FEW,BKN,FEW,M,800.00,3200.00,2200.00,M,-RA,YBBN 250143Z 10004KT 060V140 9000 -RA FEW008 BKN032 FEW022CB 22/21 Q1016
YBBN,2016-12-25 02:00,153.1292,-27.3917,71.60,69.80,94.06,80.00,6.00,0.00,30.00,M,5.59,M,FEW,SCT,BKN,M,600.00,1600.00,3000.00,M,-RA,YBBN 250200Z 08006KT 9000 -RA FEW006 SCT016 BKN030 22/21 Q1016
YBBN,2016-12-25 03:00,153.1292,-27.3917,75.20,66.20,73.61,50.00,12.00,0.00,30.00,M,6.21,M,FEW,BKN,M,M,1200.00,3800.00,M,M,VCSH,YBBN 250300Z 05012KT 9999 VCSH FEW012 BKN038 24/19 Q1016
YBBN,2016-12-25 03:30,153.1292,-27.3917,77.00,64.40,65.12,60.00,11.00,0.00,29.97,M,6.21,M,FEW,BKN,M,M,1200.00,3200.00,M,M,M,YBBN 250330Z 06011KT 9999 FEW012 BKN032 25/18 Q1015
YBBN,2016-12-25 04:00,153.1292,-27.3917,77.00,64.40,65.12,50.00,12.00,0.00,29.97,M,6.21,M,FEW,BKN,M,M,1400.00,3800.00,M,M,M,YBBN 250400Z 05012KT 9999 FEW014 BKN038 25/18 Q1015
YBBN,2016-12-25 04:30,153.1292,-27.3917,77.00,64.40,65.12,60.00,11.00,0.00,29.97,M,6.21,M,FEW,SCT,BKN,M,1800.00,2200.00,5000.00,M,M,YBBN 250430Z 06011KT 9999 FEW018 SCT022 BKN050 25/18 Q1015 NOSIG
YBBN,2016-12-25 05:00,153.1292,-27.3917,77.00,64.40,65.12,60.00,12.00,0.00,29.97,M,6.21,M,FEW,BKN,BKN,M,1800.00,5000.00,6500.00,M,M,YBBN 250500Z 06012KT 9999 FEW018 BKN050 BKN065 25/18 Q1015
YBBN,2016-12-25 05:30,153.1292,-27.3917,77.00,64.40,65.12,50.00,10.00,0.00,29.97,M,6.21,M,FEW,SCT,BKN,M,1800.00,2200.00,6500.00,M,M,YBBN 250530Z 05010KT 9999 FEW018 SCT022 BKN065 25/18 Q1015 NOSIG
YBBN,2016-12-25 06:00,153.1292,-27.3917,77.00,62.60,61.13,50.00,10.00,0.00,29.97,M,6.21,M,FEW,SCT,BKN,M,1800.00,4600.00,6400.00,M,M,YBBN 250600Z 05010KT 9999 FEW018 SCT046 BKN064 25/17 Q1015
YBBN,2016-12-25 06:30,153.1292,-27.3917,77.00,62.60,61.13,70.00,10.00,0.00,29.97,M,6.21,M,FEW,SCT,BKN,M,1900.00,4600.00,6400.00,M,M,YBBN 250630Z 07010KT 9999 FEW019 SCT046 BKN064 25/17 Q1015 NOSIG
YBBN,2016-12-25 07:00,153.1292,-27.3917,77.00,62.60,61.13,60.00,10.00,0.00,29.97,M,6.21,M,FEW,SCT,BKN,M,2200.00,4600.00,6000.00,M,M,YBBN 250700Z 06010KT 9999 FEW022 SCT046 BKN060 25/17 Q1015 NOSIG
YBBN,2016-12-25 08:00,153.1292,-27.3917,75.20,62.60,64.91,60.00,9.00,0.00,29.97,M,6.21,M,FEW,SCT,BKN,M,1800.00,6000.00,25000.00,M,M,YBBN 250800Z 06009KT 9999 FEW018 SCT060 BKN250 24/17 Q1015
YBBN,2016-12-25 09:00,153.1292,-27.3917,75.20,62.60,64.91,60.00,8.00,0.00,30.00,M,6.21,M,SCT,BKN,M,M,3000.00,25000.00,M,M,M,YBBN 250900Z 06008KT 9999 SCT030 BKN250 24/17 Q1016 NOSIG
YBBN,2016-12-25 09:30,153.1292,-27.3917,75.20,62.60,64.91,60.00,9.00,0.00,30.00,M,6.21,M,SCT,M,M,M,3000.00,M,M,M,M,YBBN 250930Z 06009KT 9999 SCT030 24/17 Q1016 NOSIG
YBBN,2016-12-25 10:00,153.1292,-27.3917,75.20,62.60,64.91,60.00,7.00,0.00,30.00,M,6.21,M,SCT,M,M,M,3200.00,M,M,M,M,YBBN 251000Z 06007KT 9999 SCT032 24/17 Q1016
YBBN,2016-12-25 10:30,153.1292,-27.3917,75.20,62.60,64.91,70.00,6.00,0.00,30.00,M,6.21,M,SCT,M,M,M,3300.00,M,M,M,M,YBBN 251030Z 07006KT 9999 SCT033 24/17 Q1016 NOSIG
YBBN,2016-12-25 11:00,153.1292,-27.3917,75.20,64.40,69.14,70.00,7.00,0.00,30.03,M,6.21,M,SCT,M,M,M,3200.00,M,M,M,M,YBBN 251100Z 07007KT 9999 SCT032 24/18 Q1017
YBBN,2016-12-25 11:30,153.1292,-27.3917,75.20,64.40,69.14,70.00,5.00,0.00,30.03,M,6.21,M,SCT,M,M,M,3400.00,M,M,M,M,YBBN 251130Z 07005KT 9999 SCT034 24/18 Q1017 NOSIG
YBBN,2016-12-25 12:00,153.1292,-27.3917,75.20,64.40,69.14,70.00,6.00,0.00,30.03,M,6.21,M,FEW,SCT,M,M,2800.00,3500.00,M,M,M,YBBN 251200Z 07006KT 9999 FEW028 SCT035 24/18 Q1017
YBBN,2016-12-25 12:30,153.1292,-27.3917,75.20,64.40,69.14,60.00,7.00,0.00,30.03,M,6.21,M,SCT,M,M,M,3000.00,M,M,M,M,YBBN 251230Z 06007KT 9999 SCT030 24/18 Q1017 NOSIG
YBBN,2016-12-25 13:00,153.1292,-27.3917,75.20,64.40,69.14,70.00,7.00,0.00,30.00,M,6.21,M,FEW,M,M,M,3000.00,M,M,M,M,YBBN 251300Z 07007KT 9999 FEW030 24/18 Q1016
YBBN,2016-12-25 13:30,153.1292,-27.3917,75.20,62.60,64.91,60.00,7.00,0.00,30.00,M,6.21,M,FEW,M,M,M,2800.00,M,M,M,M,YBBN 251330Z 06007KT 9999 FEW028 24/17 Q1016 NOSIG
YBBN,2016-12-25 14:00,153.1292,-27.3917,73.40,64.40,73.44,70.00,6.00,0.00,30.00,M,6.21,M,FEW,M,M,M,2800.00,M,M,M,M,YBBN 251400Z 07006KT 9999 FEW028 23/18 Q1016
YBBN,2016-12-25 14:30,153.1292,-27.3917,73.40,62.60,68.94,70.00,5.00,0.00,30.00,M,6.21,M,FEW,M,M,M,2800.00,M,M,M,M,YBBN 251430Z 07005KT 9999 FEW028 23/17 Q1016 NOSIG
YBBN,2016-12-25 15:00,153.1292,-27.3917,73.40,64.40,73.44,80.00,5.00,0.00,29.97,M,6.21,M,FEW,M,M,M,3000.00,M,M,M,M,YBBN 251500Z 08005KT 9999 FEW030 23/18 Q1015
YBBN,2016-12-25 15:30,153.1292,-27.3917,71.60,64.40,78.04,110.00,4.00,0.00,29.97,M,6.21,M,M,M,M,M,M,M,M,M,M,YBBN 251530Z 11004KT CAVOK 22/18 Q1015 NOSIG
YBBN,2016-12-25 16:00,153.1292,-27.3917,71.60,64.40,78.04,120.00,4.00,0.00,29.97,M,6.21,M,FEW,M,M,M,2500.00,M,M,M,M,YBBN 251600Z 12004KT 9999 FEW025 22/18 Q1015
YBBN,2016-12-25 16:30,153.1292,-27.3917,69.80,64.40,82.98,120.00,4.00,0.00,29.97,M,6.21,M,FEW,M,M,M,2500.00,M,M,M,M,YBBN 251630Z 12004KT 9999 FEW025 21/18 Q1015 NOSIG
YBBN,2016-12-25 17:00,153.1292,-27.3917,69.80,64.40,82.98,180.00,4.00,0.00,29.94,M,6.21,M,FEW,M,M,M,2500.00,M,M,M,M,YBBN 251700Z 18004KT 9999 FEW025 21/18 Q1014
YBBN,2016-12-25 17:30,153.1292,-27.3917,68.00,64.40,88.26,190.00,4.00,0.00,29.94,M,6.21,M,FEW,M,M,M,2500.00,M,M,M,M,YBBN 251730Z 19004KT 9999 FEW025 20/18 Q1014 NOSIG
YBBN,2016-12-25 18:00,153.1292,-27.3917,68.00,64.40,88.26,190.00,3.00,0.00,29.97,M,6.21,M,FEW,M,M,M,2500.00,M,M,M,M,YBBN 251800Z 19003KT 9999 FEW025 20/18 Q1015 NOSIG
YBBN,2016-12-25 18:30,153.1292,-27.3917,68.00,64.40,88.26,200.00,4.00,0.00,29.97,M,6.21,M,FEW,M,M,M,2500.00,M,M,M,M,YBBN 251830Z 20004KT 9999 FEW025 20/18 Q1015 NOSIG
YBBN,2016-12-25 19:00,153.1292,-27.3917,68.00,64.40,88.26,190.00,5.00,0.00,29.97,M,6.21,M,FEW,M,M,M,1800.00,M,M,M,M,YBBN 251900Z 19005KT 9999 FEW018 20/18 Q1015
YBBN,2016-12-25 19:30,153.1292,-27.3917,69.80,64.40,82.98,180.00,5.00,0.00,29.97,M,6.21,M,FEW,M,M,M,2000.00,M,M,M,VCSH,YBBN 251930Z 18005KT 9999 VCSH FEW020 21/18 Q1015 NOSIG
YBBN,2016-12-25 20:00,153.1292,-27.3917,69.80,66.20,88.34,190.00,1.00,0.00,29.97,M,6.21,M,FEW,M,M,M,2000.00,M,M,M,M,YBBN 252000Z 19001KT 9999 FEW020 21/19 Q1015
YBBN,2016-12-25 20:30,153.1292,-27.3917,73.40,66.20,78.19,110.00,4.00,0.00,29.97,M,6.21,M,SCT,M,M,M,2000.00,M,M,M,M,YBBN 252030Z 11004KT 080V170 9999 SCT020 23/19 Q1015 NOSIG
YBBN,2016-12-25 21:00,153.1292,-27.3917,77.00,64.40,65.12,70.00,9.00,0.00,30.00,M,6.21,M,SCT,M,M,M,2200.00,M,M,M,M,YBBN 252100Z 07009KT 9999 SCT022 25/18 Q1016
YBBN,2016-12-25 21:30,153.1292,-27.3917,77.00,64.40,65.12,50.00,9.00,0.00,30.00,M,6.21,M,SCT,M,M,M,2600.00,M,M,M,M,YBBN 252130Z 05009KT 9999 SCT026TCU 25/18 Q1016 NOSIG
YBBN,2016-12-25 22:00,153.1292,-27.3917,78.80,64.40,61.36,60.00,11.00,0.00,30.00,M,6.21,M,FEW,M,M,M,2600.00,M,M,M,M,YBBN 252200Z 06011KT 9999 FEW026 26/18 Q1016
YBBN,2016-12-25 22:30,153.1292,-27.3917,78.80,64.40,61.36,70.00,10.00,0.00,30.00,M,6.21,M,SCT,M,M,M,2800.00,M,M,M,M,YBBN 252230Z 07010KT 9999 SCT028 26/18 Q1016 NOSIG
YBBN,2016-12-25 23:00,153.1292,-27.3917,80.60,66.20,61.58,100.00,8.00,0.00,30.00,M,6.21,M,SCT,M,M,M,2800.00,M,M,M,M,YBBN 252300Z 10008KT 9999 SCT028TCU 27/19 Q1016
YBBN,2016-12-25 23:30,153.1292,-27.3917,78.80,64.40,61.36,60.00,10.00,0.00,30.00,M,6.21,M,SCT,M,M,M,2800.00,M,M,M,M,YBBN 252330Z 06010KT 9999 SCT028TCU 26/18 Q1016 NOSIG
