#DEBUG: Format Typ    -> comma
#DEBUG: Time Period   -> 2010-04-27 00:00:00+00:00 2010-04-28 00:00:00+00:00
#DEBUG: Time Zone     -> Etc/UTC
#DEBUG: Data Contact   -> daryl herzmann akrherz@iastate.edu 515-294-5978
#DEBUG: Entries Found -> -1
station,valid,lon,lat,tmpf, dwpf, relh, drct, sknt, p01i, alti, mslp, vsby, gust, skyc1, skyc2, skyc3, skyc4, skyl1, skyl2, skyl3, skyl4, presentwx, metar
YBBN,2010-04-27 00:00,153.1292,-27.3917,71.60,55.40,56.63,190.00,8.00,M,30.18,M,6.21,M,FEW,SCT,M,M,4000.00,25000.00,M,M,M,YBBN 270000Z 19008KT 9999 FEW040 SCT250 22/13 Q1022 NOSIG
YBBN,2010-04-27 00:30,153.1292,-27.3917,73.40,57.20,56.88,160.00,6.00,M,30.18,M,6.21,M,FEW,SCT,BKN,M,4000.00,6500.00,25000.00,M,M,YBBN 270030Z 16006KT 9999 FEW040 SCT065 BKN250 23/14 Q1022 NOSIG
YBBN,2010-04-27 01:00,153.1292,-27.3917,73.40,59.00,60.67,140.00,7.00,M,30.15,M,6.21,M,FEW,SCT,BKN,M,4000.00,6500.00,25000.00,M,M,YBBN 270100Z 14007KT 9999 FEW040 SCT065 BKN250 23/15 Q1021 NOSIG
YBBN,2010-04-27 01:30,153.1292,-27.3917,73.40,59.00,60.67,170.00,5.00,M,30.15,M,6.21,M,FEW,SCT,BKN,M,4000.00,6500.00,25000.00,M,M,YBBN 270130Z 17005KT 9999 FEW040 SCT065 BKN250 23/15 Q1021 NOSIG
YBBN,2010-04-27 02:00,153.1292,-27.3917,73.40,57.20,56.88,130.00,6.00,M,30.12,M,6.21,M,FEW,SCT,BKN,M,4000.00,6500.00,25000.00,M,M,YBBN 270200Z 13006KT 9999 FEW040 SCT065 BKN250 23/14 Q1020 NOSIG
YBBN,2010-04-27 02:30,153.1292,-27.3917,73.40,59.00,60.67,130.00,6.00,M,30.12,M,6.21,M,FEW,BKN,M,M,4000.00,25000.00,M,M,M,YBBN 270230Z 13006KT 9999 FEW040 BKN250 23/15 Q1020 NOSIG
YBBN,2010-04-27 03:00,153.1292,-27.3917,75.20,60.80,60.90,110.00,5.00,M,30.12,M,6.21,M,FEW,BKN,M,M,4000.00,25000.00,M,M,M,YBBN 270300Z 11005KT 9999 FEW040 BKN250 24/16 Q1020 NOSIG
YBBN,2010-04-27 03:30,153.1292,-27.3917,75.20,59.00,57.12,130.00,6.00,M,30.09,M,6.21,M,FEW,BKN,M,M,4000.00,25000.00,M,M,M,YBBN 270330Z 13006KT 9999 FEW040 BKN250 24/15 Q1019 NOSIG
YBBN,2010-04-27 04:00,153.1292,-27.3917,75.20,60.80,60.90,110.00,5.00,M,30.09,M,6.21,M,FEW,BKN,M,M,4000.00,25000.00,M,M,M,YBBN 270400Z 11005KT 9999 FEW040 BKN250 24/16 Q1019 NOSIG
YBBN,2010-04-27 04:30,153.1292,-27.3917,75.20,59.00,57.12,80.00,6.00,M,30.09,M,6.21,M,FEW,BKN,M,M,4000.00,25000.00,M,M,M,YBBN 270430Z 08006KT 9999 FEW040 BKN250 24/15 Q1019 NOSIG
YBBN,2010-04-27 05:00,153.1292,-27.3917,73.40,59.00,60.67,100.00,4.00,M,30.09,M,6.21,M,FEW,BKN,M,M,4000.00,25000.00,M,M,M,YBBN 270500Z 10004KT 9999 FEW040 BKN250 23/15 Q1019 NOSIG
YBBN,2010-04-27 05:30,153.1292,-27.3917,73.40,60.80,64.69,90.00,6.00,M,30.09,M,6.21,M,FEW,BKN,M,M,4000.00,25000.00,M,M,M,YBBN 270530Z 09006KT 9999 FEW040 BKN250 23/16 Q1019 NOSIG
YBBN,2010-04-27 06:00,153.1292,-27.3917,73.40,60.80,64.69,100.00,5.00,M,30.09,M,6.21,M,FEW,BKN,M,M,4000.00,25000.00,M,M,M,YBBN 270600Z 10005KT 9999 FEW040 BKN250 23/16 Q1019 NOSIG
YBBN,2010-04-27 06:30,153.1292,-27.3917,71.60,60.80,68.75,100.00,5.00,M,30.09,M,6.21,M,FEW,BKN,M,M,4000.00,25000.00,M,M,M,YBBN 270630Z 10005KT 9999 FEW040 BKN250 22/16 Q1019 NOSIG
YBBN,2010-04-27 07:00,153.1292,-27.3917,71.60,62.60,73.27,90.00,4.00,M,30.09,M,6.21,M,FEW,BKN,M,M,4000.00,25000.00,M,M,M,YBBN 270700Z 09004KT 9999 FEW040 BKN250 22/17 Q1019 NOSIG
YBBN,2010-04-27 07:30,153.1292,-27.3917,69.80,62.60,77.90,100.00,3.00,M,30.09,M,6.21,M,FEW,BKN,M,M,4000.00,25000.00,M,M,M,YBBN 270730Z 10003KT 9999 FEW040 BKN250 21/17 Q1019 NOSIG
YBBN,2010-04-27 08:00,153.1292,-27.3917,69.80,59.00,68.55,70.00,2.00,M,30.12,M,6.21,M,FEW,BKN,M,M,4000.00,25000.00,M,M,M,YBBN 270800Z 07002KT 9999 FEW040 BKN250 21/15 Q1020 NOSIG
YBBN,2010-04-27 08:30,153.1292,-27.3917,68.00,60.80,77.75,70.00,1.00,M,30.12,M,6.21,M,FEW,BKN,M,M,4000.00,25000.00,M,M,M,YBBN 270830Z 07001KT 9999 FEW040 BKN250 20/16 Q1020 NOSIG
YBBN,2010-04-27 09:00,153.1292,-27.3917,68.00,60.80,77.75,0.00,0.00,M,30.12,M,6.21,M,FEW,BKN,M,M,3500.00,25000.00,M,M,M,YBBN 270900Z 00000KT 9999 FEW035 BKN250 20/16 Q1020 NOSIG
YBBN,2010-04-27 09:30,153.1292,-27.3917,68.00,60.80,77.75,0.00,0.00,M,30.12,M,6.21,M,FEW,BKN,M,M,3500.00,25000.00,M,M,M,YBBN 270930Z 00000KT 9999 FEW035 BKN250 20/16 Q1020 NOSIG
YBBN,2010-04-27 10:00,153.1292,-27.3917,66.20,60.80,82.74,0.00,0.00,M,30.15,M,6.21,M,FEW,BKN,M,M,3500.00,24000.00,M,M,M,YBBN 271000Z 00000KT 9999 FEW035 BKN240 19/16 Q1021 NOSIG
YBBN,2010-04-27 10:30,153.1292,-27.3917,68.00,60.80,77.75,70.00,4.00,M,30.15,M,6.21,M,FEW,BKN,M,M,3000.00,24000.00,M,M,M,YBBN 271030Z 07004KT 9999 FEW030 BKN240 20/16 Q1021 NOSIG
YBBN,2010-04-27 11:00,153.1292,-27.3917,68.00,60.80,77.75,40.00,6.00,M,30.15,M,6.21,M,FEW,BKN,M,M,3000.00,24000.00,M,M,M,YBBN 271100Z 04006KT 9999 FEW030 BKN240 20/16 Q1021 NOSIG
YBBN,2010-04-27 11:30,153.1292,-27.3917,69.80,60.80,73.09,50.00,7.00,M,30.12,M,6.21,M,FEW,BKN,M,M,3000.00,24000.00,M,M,M,YBBN 271130Z 05007KT 9999 FEW030 BKN240 21/16 Q1020 NOSIG
YBBN,2010-04-27 12:00,153.1292,-27.3917,68.00,60.80,77.75,50.00,6.00,M,30.12,M,6.21,M,M,M,M,M,M,M,M,M,M,YBBN 271200Z 05006KT CAVOK 20/16 Q1020 NOSIG
YBBN,2010-04-27 13:00,153.1292,-27.3917,68.00,60.80,77.75,40.00,5.00,M,30.12,M,6.21,M,FEW,BKN,M,M,3000.00,25000.00,M,M,M,YBBN 271300Z 04005KT 9999 FEW030 BKN250 20/16 Q1020 NOSIG
YBBN,2010-04-27 13:30,153.1292,-27.3917,64.40,60.80,88.09,40.00,7.00,M,30.12,M,6.21,M,FEW,BKN,M,M,3000.00,25000.00,M,M,M,YBBN 271330Z 04007KT 9999 FEW030 BKN250 18/16 Q1020 NOSIG
YBBN,2010-04-27 14:00,153.1292,-27.3917,64.40,60.80,88.09,350.00,4.00,M,30.12,M,6.21,M,FEW,BKN,BKN,M,2500.00,3800.00,27000.00,M,M,YBBN 271400Z 35004KT 9999 FEW025 BKN038 BKN270 18/16 Q1020 NOSIG
YBBN,2010-04-27 14:30,153.1292,-27.3917,64.40,62.60,93.88,230.00,3.00,M,30.12,M,6.21,M,SCT,SCT,M,M,3800.00,26000.00,M,M,M,YBBN 271430Z 23003KT 9999 SCT038 SCT260 18/17 Q1020 NOSIG
YBBN,2010-04-27 15:00,153.1292,-27.3917,64.40,60.80,88.09,230.00,4.00,M,30.12,M,6.21,M,FEW,SCT,M,M,4000.00,25000.00,M,M,M,YBBN 271500Z 23004KT 9999 FEW040 SCT250 18/16 Q1020 NOSIG
YBBN,2010-04-27 15:30,153.1292,-27.3917,64.40,60.80,88.09,200.00,3.00,M,30.12,M,6.21,M,FEW,SCT,M,M,2900.00,25000.00,M,M,M,YBBN 271530Z 20003KT 9999 FEW029 SCT250 18/16 Q1020 NOSIG
YBBN,2010-04-27 16:00,153.1292,-27.3917,62.60,60.80,93.83,220.00,2.00,M,30.09,M,6.21,M,FEW,BKN,M,M,3000.00,26000.00,M,M,M,YBBN 271600Z 22002KT 9999 FEW030 BKN260 17/16 Q1019 NOSIG
YBBN,2010-04-27 16:30,153.1292,-27.3917,62.60,60.80,93.83,220.00,5.00,M,30.09,M,6.21,M,FEW,BKN,M,M,3000.00,26000.00,M,M,M,YBBN 271630Z 22005KT 9999 FEW030 BKN260 17/16 Q1019 NOSIG
YBBN,2010-04-27 17:00,153.1292,-27.3917,62.60,60.80,93.83,220.00,6.00,M,30.09,M,6.21,M,FEW,BKN,M,M,3000.00,26000.00,M,M,M,YBBN 271700Z 22006KT 9999 FEW030 BKN260 17/16 Q1019 NOSIG
YBBN,2010-04-27 17:30,153.1292,-27.3917,62.60,60.80,93.83,210.00,7.00,M,30.09,M,6.21,M,FEW,BKN,M,M,3000.00,23000.00,M,M,M,YBBN 271730Z 21007KT 9999 FEW030 BKN230 17/16 Q1019 NOSIG
YBBN,2010-04-27 18:00,153.1292,-27.3917,62.60,60.80,93.83,220.00,6.00,M,30.09,M,6.21,M,FEW,BKN,M,M,3000.00,23000.00,M,M,M,YBBN 271800Z 22006KT 9999 FEW030 BKN230 17/16 Q1019 NOSIG
YBBN,2010-04-27 18:30,153.1292,-27.3917,62.60,60.80,93.83,220.00,8.00,M,30.09,M,6.21,M,FEW,BKN,M,M,3000.00,23000.00,M,M,M,YBBN 271830Z 22008KT 9999 FEW030 BKN230 17/16 Q1019 NOSIG
YBBN,2010-04-27 19:00,153.1292,-27.3917,62.60,60.80,93.83,210.00,7.00,M,30.09,M,6.21,M,FEW,BKN,M,M,3000.00,23000.00,M,M,M,YBBN 271900Z 21007KT 9999 FEW030 BKN230 17/16 Q1019 NOSIG
YBBN,2010-04-27 19:30,153.1292,-27.3917,62.60,60.80,93.83,210.00,6.00,M,30.12,M,6.21,M,FEW,BKN,M,M,3000.00,26000.00,M,M,M,YBBN 271930Z 21006KT 9999 FEW030 BKN260 17/16 Q1020 NOSIG
YBBN,2010-04-27 20:00,153.1292,-27.3917,60.80,59.00,93.79,220.00,7.00,M,30.12,M,6.21,M,FEW,SCT,M,M,3000.00,27000.00,M,M,M,YBBN 272000Z 22007KT 9999 FEW030 SCT270 16/15 Q1020 NOSIG
YBBN,2010-04-27 20:30,153.1292,-27.3917,60.80,59.00,93.79,220.00,7.00,M,30.12,M,6.21,M,FEW,SCT,M,M,3000.00,24000.00,M,M,M,YBBN 272030Z 22007KT 9999 FEW030 SCT240 16/15 Q1020 NOSIG
YBBN,2010-04-27 21:00,153.1292,-27.3917,62.60,60.80,93.83,240.00,6.00,M,30.15,M,6.21,M,FEW,BKN,M,M,3000.00,23000.00,M,M,M,YBBN 272100Z 24006KT 9999 FEW030 BKN230 17/16 Q1021 NOSIG
YBBN,2010-04-27 21:30,153.1292,-27.3917,64.40,62.60,93.88,230.00,6.00,M,30.15,M,6.21,M,FEW,SCT,M,M,3000.00,23000.00,M,M,M,YBBN 272130Z 23006KT 9999 FEW030 SCT230 18/17 Q1021 RMK HZ NOSIG
YBBN,2010-04-27 22:00,153.1292,-27.3917,68.00,62.60,82.86,220.00,5.00,M,30.15,M,6.21,M,FEW,SCT,M,M,3000.00,19000.00,M,M,M,YBBN 272200Z 22005KT 9999 FEW030 SCT190 20/17 Q1021 RMK HZ NOSIG
YBBN,2010-04-27 22:30,153.1292,-27.3917,71.60,62.60,73.27,220.00,8.00,M,30.18,M,6.21,M,FEW,BKN,M,M,3000.00,17000.00,M,M,M,YBBN 272230Z 22008KT 9999 FEW030 BKN170 22/17 Q1022 RMK HZ NOSIG
YBBN,2010-04-27 23:00,153.1292,-27.3917,73.40,62.60,68.94,210.00,6.00,M,30.18,M,6.21,M,FEW,SCT,M,M,3000.00,22000.00,M,M,M,YBBN 272300Z 21006KT 9999 FEW030 SCT220 23/17 Q1022 NOSIG
YBBN,2010-04-27 23:30,153.1292,-27.3917,75.20,62.60,64.91,220.00,4.00,M,30.18,M,6.21,M,FEW,SCT,M,M,3000.00,15000.00,M,M,M,YBBN 272330Z 22004KT 9999 FEW030 SCT150 24/17 Q1022 NOSIG
