#DEBUG: Format Typ    -> comma
#DEBUG: Time Period   -> 2016-12-18 00:00:00+00:00 2016-12-19 00:00:00+00:00
#DEBUG: Time Zone     -> Etc/UTC
#DEBUG: Data Contact   -> daryl herzmann akrherz@iastate.edu 515-294-5978
#DEBUG: Entries Found -> -1
station,valid,lon,lat,tmpf, dwpf, relh, drct, sknt, p01i, alti, mslp, vsby, gust, skyc1, skyc2, skyc3, skyc4, skyl1, skyl2, skyl3, skyl4, presentwx, metar
YBBN,2016-12-18 00:00,153.1292,-27.3917,82.40,69.80,65.74,30.00,9.00,0.00,29.91,M,6.21,M,FEW,SCT,BKN,M,3000.00,7000.00,11000.00,M,VCSH,YBBN 180000Z 03009KT 9999 VCSH FEW030 SCT070 BKN110 28/21 Q1013
YBBN,2016-12-18 00:30,153.1292,-27.3917,82.40,69.80,65.74,50.00,8.00,0.00,29.88,M,6.21,M,FEW,SCT,M,M,3200.00,11000.00,M,M,M,YBBN 180030Z 05008KT 9999 FEW032 SCT110 28/21 Q1012
YBBN,2016-12-18 01:00,153.1292,-27.3917,82.40,69.80,65.74,30.00,10.00,0.00,29.88,M,6.21,M,FEW,SCT,M,M,3200.00,9500.00,M,M,M,YBBN 180100Z 03010KT 9999 FEW032 SCT095 28/21 Q1012
YBBN,2016-12-18 02:00,153.1292,-27.3917,84.20,69.80,62.03,70.00,11.00,0.00,29.88,M,6.21,M,FEW,SCT,FEW,M,3200.00,21000.00,3400.00,M,M,YBBN 180200Z 07011KT 9999 FEW032 SCT210 FEW034TCU 29/21 Q1012
YBBN,2016-12-18 03:00,153.1292,-27.3917,78.80,68.00,69.52,90.00,9.00,0.00,29.88,M,6.21,22.00,FEW,SCT,BKN,FEW,1500.00,2200.00,13000.00,2500.00,VCSH,YBBN 180300Z 09009G22KT 040V110 9999 VCSH FEW015 SCT022 BKN130 FEW025TCU 26/20 Q1012
YBBN,2016-12-18 03:18,153.1292,-27.3917,80.60,68.00,65.54,120.00,15.00,0.00,29.88,M,6.21,25.00,FEW,SCT,M,M,2800.00,7000.00,M,M,M,YBBN 180318Z 12015G25KT 9999 FEW028 SCT070 27/20 Q1012
YBBN,2016-12-18 03:36,153.1292,-27.3917,80.60,68.00,65.54,120.00,16.00,0.00,29.88,M,6.21,26.00,FEW,SCT,M,M,2500.00,22000.00,M,M,M,YBBN 180336Z 12016G26KT 9999 FEW025 SCT220 27/20 Q1012
YBBN,2016-12-18 04:00,153.1292,-27.3917,78.80,68.00,69.52,120.00,17.00,0.00,29.88,M,6.21,27.00,FEW,M,M,M,2500.00,M,M,M,M,YBBN 180400Z 12017G27KT 9999 FEW025TCU 26/20 Q1012
YBBN,2016-12-18 04:08,153.1292,-27.3917,78.80,66.20,65.33,120.00,17.00,0.00,29.88,M,6.21,27.00,FEW,M,M,M,2500.00,M,M,M,M,YBBN 180408Z 12017G27KT 9999 FEW025TCU 26/19 Q1012 WS RWY19
YBBN,2016-12-18 04:23,153.1292,-27.3917,80.60,66.20,61.58,130.00,18.00,0.00,29.88,M,6.21,28.00,FEW,FEW,M,M,1500.00,2500.00,M,M,M,YBBN 180423Z 13018G28KT 9999 FEW015 FEW025CB 27/19 Q1012 WS RWY19
YBBN,2016-12-18 04:40,153.1292,-27.3917,80.60,66.20,61.58,130.00,18.00,0.00,29.88,M,6.21,28.00,FEW,SCT,FEW,M,1500.00,10000.00,2500.00,M,M,YBBN 180440Z 13018G28KT 9999 FEW015 SCT100 FEW025CB 27/19 Q1012
YBBN,2016-12-18 05:00,153.1292,-27.3917,77.00,62.60,61.13,120.00,18.00,0.00,29.88,M,6.21,28.00,FEW,BKN,FEW,M,1500.00,13000.00,2500.00,M,VCTS,YBBN 180500Z 12018G28KT 9999 VCTS FEW015 BKN130 FEW025CB 25/17 Q1012
YBBN,2016-12-18 05:08,153.1292,-27.3917,77.00,62.60,61.13,130.00,17.00,0.00,29.88,M,4.97,28.00,FEW,SCT,BKN,M,1000.00,2000.00,13000.00,M,TSRA,YBBN 180508Z 13017G28KT 8000 TSRA FEW010 SCT020CB BKN130 25/17 Q1012
YBBN,2016-12-18 05:15,153.1292,-27.3917,75.20,64.40,69.14,140.00,16.00,0.00,29.91,M,2.49,27.00,FEW,SCT,BKN,M,1000.00,2200.00,12000.00,M,TSRA,YBBN 180515Z 14016G27KT 4000 TSRA FEW010 SCT022CB BKN120 24/18 Q1013 RETS
YBBN,2016-12-18 05:30,153.1292,-27.3917,71.60,68.00,88.43,190.00,11.00,0.00,29.91,M,2.49,M,FEW,SCT,BKN,M,1000.00,2200.00,4000.00,M,TSRA,YBBN 180530Z 19011KT 4000 TSRA FEW010 SCT022CB BKN040 22/20 Q1013 RETS
YBBN,2016-12-18 05:40,153.1292,-27.3917,71.60,68.00,88.43,110.00,11.00,0.00,29.88,M,3.73,M,FEW,SCT,BKN,M,1000.00,2200.00,6000.00,M,SHRA,YBBN 180540Z 11011KT 6000 SHRA FEW010 SCT022CB BKN060 22/20 Q1012 RETS
YBBN,2016-12-18 05:49,153.1292,-27.3917,71.60,66.20,83.09,120.00,14.00,0.00,29.88,M,5.59,M,FEW,SCT,BKN,FEW,1000.00,2000.00,6000.00,2000.00,-SHRA,YBBN 180549Z 12014KT 9000 -SHRA FEW010 SCT020 BKN060 FEW020CB 22/19 Q1012 RESHRA
YBBN,2016-12-18 05:55,153.1292,-27.3917,73.40,64.40,73.44,130.00,15.00,0.00,29.88,M,5.59,25.00,FEW,SCT,BKN,M,1000.00,2200.00,11000.00,M,-SHRA,YBBN 180555Z 13015G25KT 9000 -SHRA FEW010 SCT022 BKN110 23/18 Q1012 RESHRA
YBBN,2016-12-18 06:00,153.1292,-27.3917,73.40,66.20,78.19,130.00,15.00,0.00,29.88,M,5.59,25.00,FEW,SCT,BKN,M,1000.00,2200.00,11000.00,M,VCSH,YBBN 180600Z 13015G25KT 9000 VCSH FEW010 SCT022 BKN110 23/19 Q1012
YBBN,2016-12-18 06:22,153.1292,-27.3917,75.20,62.60,64.91,140.00,15.00,0.00,29.88,M,6.21,28.00,FEW,SCT,BKN,M,1000.00,2000.00,12000.00,M,VCSH,YBBN 180622Z 14015G28KT 9999 VCSH FEW010 SCT020TCU BKN120 24/17 Q1012
YBBN,2016-12-18 06:30,153.1292,-27.3917,75.20,62.60,64.91,140.00,16.00,0.00,29.91,M,6.21,27.00,FEW,BKN,FEW,M,1000.00,12000.00,2200.00,M,VCSH,YBBN 180630Z 14016G27KT 9999 VCSH FEW010 BKN120 FEW022TCU 24/17 Q1013
YBBN,2016-12-18 07:00,153.1292,-27.3917,75.20,62.60,64.91,140.00,13.00,0.00,29.91,M,6.21,M,FEW,SCT,M,M,2500.00,12000.00,M,M,VCSH,YBBN 180700Z 14013KT 9999 VCSH FEW025 SCT120 24/17 Q1013
YBBN,2016-12-18 07:33,153.1292,-27.3917,75.20,60.80,60.90,140.00,15.00,0.00,29.94,M,6.21,33.00,FEW,SCT,BKN,M,1500.00,4400.00,14000.00,M,VCSH,YBBN 180733Z 14015G33KT 9999 VCSH FEW015 SCT044 BKN140 24/16 Q1014
YBBN,2016-12-18 08:00,153.1292,-27.3917,75.20,60.80,60.90,150.00,12.00,0.00,29.94,M,6.21,23.00,FEW,BKN,M,M,1500.00,5000.00,M,M,VCSH,YBBN 180800Z 15012G23KT 9999 VCSH FEW015 BKN050 24/16 Q1014
YBBN,2016-12-18 08:46,153.1292,-27.3917,75.20,62.60,64.91,140.00,15.00,0.00,29.97,M,6.21,25.00,FEW,BKN,M,M,1800.00,5000.00,M,M,M,YBBN 180846Z 14015G25KT 9999 FEW018 BKN050 24/17 Q1015
YBBN,2016-12-18 09:00,153.1292,-27.3917,75.20,60.80,60.90,150.00,14.00,0.00,29.97,M,6.21,27.00,FEW,BKN,M,M,1800.00,5000.00,M,M,M,YBBN 180900Z 15014G27KT 9999 FEW018 BKN050 24/16 Q1015
YBBN,2016-12-18 09:30,153.1292,-27.3917,75.20,62.60,64.91,150.00,13.00,0.00,29.97,M,6.21,24.00,FEW,BKN,M,M,1800.00,5000.00,M,M,M,YBBN 180930Z 15013G24KT 9999 FEW018 BKN050 24/17 Q1015
YBBN,2016-12-18 10:00,153.1292,-27.3917,75.20,60.80,60.90,150.00,13.00,0.00,30.00,M,6.21,23.00,FEW,BKN,M,M,1800.00,5400.00,M,M,M,YBBN 181000Z 15013G23KT 9999 FEW018 BKN054 24/16 Q1016
YBBN,2016-12-18 11:00,153.1292,-27.3917,73.40,62.60,68.94,160.00,11.00,0.00,30.00,M,6.21,M,M,M,M,M,M,M,M,M,M,YBBN 181100Z 16011KT CAVOK 23/17 Q1016
YBBN,2016-12-18 12:00,153.1292,-27.3917,73.40,60.80,64.69,160.00,9.00,0.00,30.00,M,6.21,M,M,M,M,M,M,M,M,M,M,YBBN 181200Z 16009KT CAVOK 23/16 Q1016
YBBN,2016-12-18 13:00,153.1292,-27.3917,73.40,60.80,64.69,160.00,11.00,0.00,30.00,M,6.21,M,BKN,BKN,M,M,4200.00,6500.00,M,M,M,YBBN 181300Z 16011KT 9999 BKN042 BKN065 23/16 Q1016
YBBN,2016-12-18 14:00,153.1292,-27.3917,73.40,60.80,64.69,170.00,9.00,0.00,29.97,M,6.21,M,BKN,BKN,M,M,3800.00,8000.00,M,M,M,YBBN 181400Z 17009KT 9999 BKN038 BKN080 23/16 Q1015
YBBN,2016-12-18 15:00,153.1292,-27.3917,71.60,60.80,68.75,160.00,11.00,0.00,29.97,M,6.21,M,M,M,M,M,M,M,M,M,M,YBBN 181500Z 16011KT CAVOK 22/16 Q1015
YBBN,2016-12-18 16:00,153.1292,-27.3917,71.60,57.20,60.44,160.00,9.00,0.00,29.97,M,6.21,M,BKN,M,M,M,4000.00,M,M,M,M,YBBN 181600Z 16009KT 9999 BKN040 22/14 Q1015
YBBN,2016-12-18 17:00,153.1292,-27.3917,71.60,59.00,64.48,170.00,9.00,0.00,29.97,M,6.21,M,FEW,BKN,M,M,3000.00,3300.00,M,M,M,YBBN 181700Z 17009KT 9999 FEW030 BKN033 22/15 Q1015
YBBN,2016-12-18 18:00,153.1292,-27.3917,71.60,62.60,73.27,150.00,11.00,0.00,30.00,M,6.21,22.00,SCT,BKN,M,M,2200.00,3300.00,M,M,M,YBBN 181800Z 15011G22KT 9999 SCT022 BKN033 22/17 Q1016
YBBN,2016-12-18 19:00,153.1292,-27.3917,71.60,62.60,73.27,150.00,11.00,0.00,30.00,M,6.21,M,SCT,OVC,M,M,2300.00,3000.00,M,M,M,YBBN 181900Z 15011KT 9999 SCT023 OVC030 22/17 Q1016
YBBN,2016-12-18 20:00,153.1292,-27.3917,71.60,62.60,73.27,150.00,7.00,0.00,30.03,M,6.21,M,FEW,SCT,BKN,M,1500.00,2400.00,3500.00,M,M,YBBN 182000Z 15007KT 9999 FEW015 SCT024 BKN035 22/17 Q1017
YBBN,2016-12-18 21:00,153.1292,-27.3917,73.40,60.80,64.69,150.00,10.00,0.00,30.03,M,6.21,M,FEW,SCT,BKN,M,1500.00,2800.00,3700.00,M,M,YBBN 182100Z 15010KT 9999 FEW015 SCT028 BKN037 23/16 Q1017
YBBN,2016-12-18 22:00,153.1292,-27.3917,73.40,60.80,64.69,150.00,12.00,0.00,30.03,M,6.21,M,FEW,BKN,M,M,3600.00,4000.00,M,M,M,YBBN 182200Z 15012KT 9999 FEW036 BKN040 23/16 Q1017
YBBN,2016-12-18 23:00,153.1292,-27.3917,75.20,60.80,60.90,140.00,11.00,0.00,30.03,M,6.21,M,SCT,BKN,M,M,3500.00,4000.00,M,M,M,YBBN 182300Z 14011KT 9999 SCT035 BKN040 24/16 Q1017
YBBN,2016-12-18 23:30,153.1292,-27.3917,75.20,60.80,60.90,130.00,13.00,0.00,30.03,M,6.21,M,SCT,BKN,M,M,3500.00,4000.00,M,M,M,YBBN 182330Z 13013KT 9999 SCT035 BKN040 24/16 Q1017 NOSIG
