#DEBUG: Format Typ    -> comma
#DEBUG: Time Period   -> 2010-04-28 00:00:00+00:00 2010-04-29 00:00:00+00:00
#DEBUG: Time Zone     -> Etc/UTC
#DEBUG: Data Contact   -> daryl herzmann akrherz@iastate.edu 515-294-5978
#DEBUG: Entries Found -> -1
station,valid,lon,lat,tmpf, dwpf, relh, drct, sknt, p01i, alti, mslp, vsby, gust, skyc1, skyc2, skyc3, skyc4, skyl1, skyl2, skyl3, skyl4, presentwx, metar
YBBN,2010-04-28 00:00,153.1292,-27.3917,75.20,60.80,60.90,270.00,5.00,M,30.18,M,6.21,M,FEW,BKN,M,M,3000.00,10000.00,M,M,M,YBBN 280000Z 27005KT 9999 FEW030 BKN100 24/16 Q1022 NOSIG
YBBN,2010-04-28 00:30,153.1292,-27.3917,75.20,60.80,60.90,300.00,2.00,M,30.15,M,6.21,M,FEW,SCT,BKN,M,3000.00,11000.00,20000.00,M,M,YBBN 280030Z 30002KT 9999 FEW030 SCT110 BKN200 24/16 Q1021 RMK HZ NOSIG
YBBN,2010-04-28 01:00,153.1292,-27.3917,77.00,60.80,57.36,40.00,3.00,M,30.15,M,6.21,M,FEW,SCT,BKN,M,3000.00,11000.00,20000.00,M,M,YBBN 280100Z 04003KT 9999 FEW030 SCT110 BKN200 25/16 Q1021 NOSIG
YBBN,2010-04-28 01:30,153.1292,-27.3917,78.80,60.80,54.05,360.00,4.00,M,30.12,M,6.21,M,FEW,SCT,M,M,3000.00,11000.00,M,M,M,YBBN 280130Z 36004KT 9999 FEW030 SCT110 26/16 Q1020 NOSIG
YBBN,2010-04-28 02:00,153.1292,-27.3917,77.00,60.80,57.36,10.00,5.00,M,30.12,M,6.21,M,FEW,M,M,M,3000.00,M,M,M,M,YBBN 280200Z 01005KT 9999 FEW030 25/16 Q1020 NOSIG
YBBN,2010-04-28 02:30,153.1292,-27.3917,78.80,62.60,57.60,50.00,7.00,M,30.09,M,6.21,M,FEW,M,M,M,3000.00,M,M,M,M,YBBN 280230Z 05007KT 9999 FEW030 26/17 Q1019 NOSIG
YBBN,2010-04-28 03:00,153.1292,-27.3917,78.80,59.00,50.69,50.00,7.00,M,30.09,M,6.21,M,FEW,M,M,M,3000.00,M,M,M,M,YBBN 280300Z 05007KT 9999 FEW030 26/15 Q1019 NOSIG
YBBN,2010-04-28 03:30,153.1292,-27.3917,78.80,60.80,54.05,40.00,9.00,M,30.09,M,6.21,M,FEW,M,M,M,3000.00,M,M,M,M,YBBN 280330Z 04009KT 9999 FEW030 26/16 Q1019 NOSIG
YBBN,2010-04-28 04:00,153.1292,-27.3917,77.00,60.80,57.36,50.00,9.00,M,30.09,M,6.21,M,FEW,M,M,M,3000.00,M,M,M,M,YBBN 280400Z 05009KT 9999 FEW030 25/16 Q1019 NOSIG
YBBN,2010-04-28 04:30,153.1292,-27.3917,77.00,62.60,61.13,60.00,8.00,M,30.06,M,6.21,M,FEW,M,M,M,3500.00,M,M,M,M,YBBN 280430Z 06008KT 9999 FEW035 25/17 Q1018 NOSIG
YBBN,2010-04-28 05:00,153.1292,-27.3917,77.00,62.60,61.13,50.00,10.00,M,30.06,M,6.21,M,FEW,M,M,M,3500.00,M,M,M,M,YBBN 280500Z 05010KT 9999 FEW035 25/17 Q1018 NOSIG
YBBN,2010-04-28 05:30,153.1292,-27.3917,77.00,62.60,61.13,60.00,9.00,M,30.06,M,6.21,M,FEW,M,M,M,3500.00,M,M,M,M,YBBN 280530Z 06009KT 9999 FEW035 25/17 Q1018 NOSIG
YBBN,2010-04-28 06:00,153.1292,-27.3917,77.00,64.40,65.12,60.00,8.00,M,30.09,M,6.21,M,FEW,M,M,M,3000.00,M,M,M,M,YBBN 280600Z 06008KT 9999 FEW030 25/18 Q1019 NOSIG
YBBN,2010-04-28 06:30,153.1292,-27.3917,75.20,64.40,69.14,50.00,8.00,M,30.09,M,6.21,M,FEW,M,M,M,3000.00,M,M,M,M,YBBN 280630Z 05008KT 9999 FEW030 24/18 Q1019 NOSIG
YBBN,2010-04-28 07:00,153.1292,-27.3917,73.40,64.40,73.44,50.00,7.00,M,30.09,M,6.21,M,FEW,M,M,M,3000.00,M,M,M,M,YBBN 280700Z 05007KT 9999 FEW030 23/18 Q1019 RMK HZ NOSIG
YBBN,2010-04-28 07:30,153.1292,-27.3917,71.60,66.20,83.09,10.00,6.00,M,30.09,M,6.21,M,FEW,M,M,M,2500.00,M,M,M,M,YBBN 280730Z 01006KT 9999 FEW025 22/19 Q1019 NOSIG
YBBN,2010-04-28 08:00,153.1292,-27.3917,69.80,66.20,88.34,360.00,6.00,M,30.12,M,6.21,M,M,M,M,M,M,M,M,M,M,YBBN 280800Z 36006KT CAVOK 21/19 Q1020 NOSIG
YBBN,2010-04-28 08:30,153.1292,-27.3917,69.80,64.40,82.98,360.00,7.00,M,30.12,M,6.21,M,M,M,M,M,M,M,M,M,M,YBBN 280830Z 36007KT CAVOK 21/18 Q1020 NOSIG
YBBN,2010-04-28 09:00,153.1292,-27.3917,71.60,66.20,83.09,10.00,7.00,M,30.12,M,6.21,M,FEW,SCT,M,M,2800.00,20000.00,M,M,M,YBBN 280900Z 01007KT 9999 FEW028 SCT200 22/19 Q1020 NOSIG
YBBN,2010-04-28 09:30,153.1292,-27.3917,69.80,66.20,88.34,10.00,7.00,M,30.12,M,6.21,M,M,M,M,M,M,M,M,M,M,YBBN 280930Z 01007KT CAVOK 21/19 Q1020 NOSIG
YBBN,2010-04-28 10:00,153.1292,-27.3917,69.80,66.20,88.34,360.00,7.00,M,30.12,M,6.21,M,M,M,M,M,M,M,M,M,M,YBBN 281000Z 36007KT CAVOK 21/19 Q1020 NOSIG
YBBN,2010-04-28 10:30,153.1292,-27.3917,69.80,66.20,88.34,360.00,5.00,M,30.15,M,6.21,M,M,M,M,M,M,M,M,M,M,YBBN 281030Z 36005KT CAVOK 21/19 Q1021 NOSIG
YBBN,2010-04-28 11:00,153.1292,-27.3917,68.00,64.40,88.26,310.00,5.00,M,30.15,M,6.21,M,M,M,M,M,M,M,M,M,M,YBBN 281100Z 31005KT CAVOK 20/18 Q1021 NOSIG
YBBN,2010-04-28 11:30,153.1292,-27.3917,68.00,64.40,88.26,300.00,5.00,M,30.15,M,6.21,M,M,M,M,M,M,M,M,M,M,YBBN 281130Z 30005KT CAVOK 20/18 Q1021 NOSIG
YBBN,2010-04-28 12:00,153.1292,-27.3917,68.00,64.40,88.26,330.00,4.00,M,30.15,M,6.21,M,M,M,M,M,M,M,M,M,M,YBBN 281200Z 33004KT CAVOK 20/18 Q1021 NOSIG
YBBN,2010-04-28 13:00,153.1292,-27.3917,68.00,64.40,88.26,0.00,0.00,M,30.15,M,6.21,M,M,M,M,M,M,M,M,M,M,YBBN 281300Z 00000KT CAVOK 20/18 Q1021 NOSIG
YBBN,2010-04-28 13:30,153.1292,-27.3917,66.20,64.40,93.92,0.00,0.00,M,30.15,M,6.21,M,FEW,SCT,M,M,4600.00,30000.00,M,M,M,YBBN 281330Z 00000KT 9999 FEW046 SCT300 19/18 Q1021 NOSIG
YBBN,2010-04-28 14:00,153.1292,-27.3917,66.20,64.40,93.92,290.00,3.00,M,30.15,M,6.21,M,FEW,SCT,M,M,4600.00,30000.00,M,M,M,YBBN 281400Z 29003KT 9999 FEW046 SCT300 19/18 Q1021 NOSIG
YBBN,2010-04-28 14:30,153.1292,-27.3917,66.20,64.40,93.92,0.00,0.00,M,30.12,M,6.21,M,FEW,SCT,M,M,4500.00,30000.00,M,M,M,YBBN 281430Z 00000KT 9999 FEW045 SCT300 19/18 Q1020 NOSIG
YBBN,2010-04-28 15:00,153.1292,-27.3917,66.20,64.40,93.92,0.00,0.00,M,30.12,M,6.21,M,M,M,M,M,M,M,M,M,M,YBBN 281500Z 00000KT CAVOK 19/18 Q1020 NOSIG
YBBN,2010-04-28 15:30,153.1292,-27.3917,66.20,64.40,93.92,0.00,0.00,M,30.12,M,6.21,M,M,M,M,M,M,M,M,M,M,YBBN 281530Z 00000KT CAVOK 19/18 Q1020 NOSIG
YBBN,2010-04-28 16:00,153.1292,-27.3917,66.20,62.60,88.18,0.00,0.00,M,30.12,M,6.21,M,M,M,M,M,M,M,M,M,M,YBBN 281600Z 00000KT CAVOK 19/17 Q1020 NOSIG
YBBN,2010-04-28 16:30,153.1292,-27.3917,64.40,62.60,93.88,230.00,5.00,M,30.12,M,6.21,M,M,M,M,M,M,M,M,M,M,YBBN 281630Z 23005KT CAVOK 18/17 Q1020 NOSIG
YBBN,2010-04-28 17:00,153.1292,-27.3917,64.40,62.60,93.88,230.00,1.00,M,30.09,M,6.21,M,M,M,M,M,M,M,M,M,M,YBBN 281700Z 23001KT CAVOK 18/17 Q1019 NOSIG
YBBN,2010-04-28 17:30,153.1292,-27.3917,64.40,62.60,93.88,240.00,3.00,M,30.09,M,6.21,M,M,M,M,M,M,M,M,M,M,YBBN 281730Z 24003KT CAVOK 18/17 Q1019 NOSIG
YBBN,2010-04-28 18:00,153.1292,-27.3917,64.40,62.60,93.88,240.00,1.00,M,30.09,M,6.21,M,M,M,M,M,M,M,M,M,M,YBBN 281800Z 24001KT CAVOK 18/17 Q1019 NOSIG
YBBN,2010-04-28 18:30,153.1292,-27.3917,62.60,62.60,100.00,240.00,1.00,M,30.12,M,6.21,M,M,M,M,M,M,M,M,M,M,YBBN 281830Z 24001KT CAVOK 17/17 Q1020 NOSIG
YBBN,2010-04-28 19:00,153.1292,-27.3917,62.60,62.60,100.00,280.00,6.00,M,30.12,M,6.21,M,M,M,M,M,M,M,M,M,M,YBBN 281900Z 28006KT CAVOK 17/17 Q1020 NOSIG
YBBN,2010-04-28 20:30,153.1292,-27.3917,62.60,62.60,100.00,220.00,6.00,M,30.12,M,6.21,M,M,M,M,M,M,M,M,M,M,YBBN 282030Z 22006KT CAVOK 17/17 Q1020 RMK PATCHES OF SHALLOW FOG MOSTLY TLY CLEARED NOSIG
YBBN,2010-04-28 21:00,153.1292,-27.3917,64.40,62.60,93.88,210.00,6.00,M,30.12,M,6.21,M,M,M,M,M,M,M,M,M,M,YBBN 282100Z 21006KT CAVOK 18/17 Q1020 NOSIG
YBBN,2010-04-28 21:30,153.1292,-27.3917,66.20,64.40,93.92,210.00,5.00,M,30.15,M,6.21,M,M,M,M,M,M,M,M,M,M,YBBN 282130Z 21005KT CAVOK 19/18 Q1021 NOSIG
YBBN,2010-04-28 22:00,153.1292,-27.3917,68.00,66.20,93.97,210.00,7.00,M,30.15,M,6.21,M,M,M,M,M,M,M,M,M,M,YBBN 282200Z 21007KT CAVOK 20/19 Q1021 NOSIG
YBBN,2010-04-28 22:30,153.1292,-27.3917,71.60,66.20,83.09,210.00,6.00,M,30.15,M,6.21,M,FEW,M,M,M,4500.00,M,M,M,M,YBBN 282230Z 21006KT 9999 FEW045 22/19 Q1021 NOSIG
YBBN,2010-04-28 23:00,153.1292,-27.3917,73.40,64.40,73.44,220.00,5.00,M,30.15,M,6.21,M,FEW,M,M,M,4500.00,M,M,M,M,YBBN 282300Z 22005KT 9999 FEW045 23/18 Q1021 NOSIG
YBBN,2010-04-28 23:30,153.1292,-27.3917,75.20,64.40,69.14,270.00,4.00,M,30.15,M,6.21,M,FEW,M,M,M,3000.00,M,M,M,M,YBBN 282330Z 27004KT 9999 FEW030 24/18 Q1021 NOSIG
