#DEBUG: Format Typ    -> comma
#DEBUG: Time Period   -> 2016-09-28 00:00:00+00:00 2016-09-29 00:00:00+00:00
#DEBUG: Time Zone     -> Etc/UTC
#DEBUG: Data Contact   -> daryl herzmann akrherz@iastate.edu 515-294-5978
#DEBUG: Entries Found -> -1
station,valid,lon,lat,tmpf, dwpf, relh, drct, sknt, p01i, alti, mslp, vsby, gust, skyc1, skyc2, skyc3, skyc4, skyl1, skyl2, skyl3, skyl4, presentwx, metar
YBBN,2016-09-28 00:00,153.1292,-27.3917,75.20,41.00,29.23,220.00,6.00,0.00,29.91,M,6.21,M,M,M,M,M,M,M,M,M,M,YBBN 280000Z 22006KT 190V250 CAVOK 24/05 Q1013
YBBN,2016-09-28 00:30,153.1292,-27.3917,77.00,42.80,29.51,190.00,7.00,0.00,29.91,M,6.21,M,M,M,M,M,M,M,M,M,M,YBBN 280030Z 19007KT 150V220 CAVOK 25/06 Q1013 NOSIG
YBBN,2016-09-28 01:00,153.1292,-27.3917,75.20,44.60,33.57,30.00,11.00,0.00,29.91,M,6.21,M,M,M,M,M,M,M,M,M,M,YBBN 280100Z 03011KT 020V190 CAVOK 24/07 Q1013 NOSIG
YBBN,2016-09-28 01:30,153.1292,-27.3917,75.20,48.20,38.46,70.00,9.00,0.00,29.91,M,6.21,M,M,M,M,M,M,M,M,M,// //////,YBBN 280130Z 07009KT //// // ////// 24/09 Q1013 NOSIG RMK RF00.0/000.0 CLD:CLR BLW 125 VIS:9999 WX1:NOSIG RE1:NOSIG NOSIG
YBBN,2016-09-28 02:00,153.1292,-27.3917,77.00,48.20,36.22,60.00,12.00,0.00,29.88,M,6.21,M,FEW,M,M,M,4500.00,M,M,M,M,YBBN 280200Z 06012KT 9999 FEW045 25/09 Q1012
YBBN,2016-09-28 02:30,153.1292,-27.3917,75.20,46.40,35.94,60.00,12.00,0.00,29.88,M,6.21,M,FEW,M,M,M,4000.00,M,M,M,M,YBBN 280230Z 06012KT 9999 FEW040 24/08 Q1012 NOSIG
YBBN,2016-09-28 03:00,153.1292,-27.3917,75.20,48.20,38.46,60.00,13.00,0.00,29.85,M,6.21,M,FEW,M,M,M,4000.00,M,M,M,M,YBBN 280300Z 06013KT 9999 FEW040 24/09 Q1011 NOSIG
YBBN,2016-09-28 03:30,153.1292,-27.3917,75.20,50.00,41.14,60.00,13.00,0.00,29.85,M,6.21,M,FEW,M,M,M,4000.00,M,M,M,M,YBBN 280330Z 06013KT 9999 FEW040 24/10 Q1011 NOSIG
YBBN,2016-09-28 04:00,153.1292,-27.3917,75.20,51.80,43.97,70.00,13.00,0.00,29.85,M,6.21,M,FEW,M,M,M,4000.00,M,M,M,M,YBBN 280400Z 07013KT 9999 FEW040 24/11 Q1011
YBBN,2016-09-28 04:30,153.1292,-27.3917,75.20,46.40,35.94,70.00,13.00,0.00,29.83,M,6.21,M,M,M,M,M,M,M,M,M,M,YBBN 280430Z 07013KT CAVOK 24/08 Q1010 NOSIG
YBBN,2016-09-28 05:00,153.1292,-27.3917,73.40,50.00,43.69,60.00,14.00,0.00,29.83,M,6.21,M,M,M,M,M,M,M,M,M,M,YBBN 280500Z 06014KT CAVOK 23/10 Q1010 NOSIG
YBBN,2016-09-28 05:30,153.1292,-27.3917,73.40,57.20,56.88,70.00,12.00,0.00,29.83,M,6.21,M,M,M,M,M,M,M,M,M,M,YBBN 280530Z 07012KT CAVOK 23/14 Q1010 NOSIG
YBBN,2016-09-28 06:00,153.1292,-27.3917,71.60,59.00,64.48,50.00,11.00,0.00,29.83,M,6.21,M,M,M,M,M,M,M,M,M,M,YBBN 280600Z 05011KT CAVOK 22/15 Q1010 NOSIG
YBBN,2016-09-28 06:30,153.1292,-27.3917,71.60,59.00,64.48,50.00,13.00,0.00,29.85,M,6.21,M,M,M,M,M,M,M,M,M,M,YBBN 280630Z 05013KT CAVOK 22/15 Q1011 NOSIG
YBBN,2016-09-28 07:00,153.1292,-27.3917,69.80,59.00,68.55,60.00,11.00,0.00,29.85,M,6.21,M,M,M,M,M,M,M,M,M,M,YBBN 280700Z 06011KT CAVOK 21/15 Q1011
YBBN,2016-09-28 07:30,153.1292,-27.3917,69.80,59.00,68.55,60.00,9.00,0.00,29.85,M,6.21,M,FEW,BKN,M,M,3000.00,30000.00,M,M,M,YBBN 280730Z 06009KT 9999 FEW030 BKN300 21/15 Q1011 NOSIG
YBBN,2016-09-28 08:00,153.1292,-27.3917,69.80,59.00,68.55,60.00,8.00,0.00,29.88,M,6.21,M,FEW,SCT,M,M,3000.00,28000.00,M,M,M,YBBN 280800Z 06008KT 9999 FEW030 SCT280 21/15 Q1012 NOSIG
YBBN,2016-09-28 08:30,153.1292,-27.3917,69.80,59.00,68.55,40.00,9.00,0.00,29.88,M,6.21,M,FEW,SCT,M,M,2500.00,28000.00,M,M,M,YBBN 280830Z 04009KT 9999 FEW025 SCT280 21/15 Q1012 NOSIG
YBBN,2016-09-28 09:00,153.1292,-27.3917,68.00,60.80,77.75,40.00,10.00,0.00,29.88,M,6.21,M,FEW,SCT,M,M,2500.00,28000.00,M,M,M,YBBN 280900Z 04010KT 9999 FEW025 SCT280 20/16 Q1012 NOSIG
YBBN,2016-09-28 09:30,153.1292,-27.3917,68.00,59.00,72.92,50.00,9.00,0.00,29.88,M,6.21,M,FEW,SCT,M,M,2500.00,28000.00,M,M,M,YBBN 280930Z 05009KT 9999 FEW025 SCT280 20/15 Q1012 NOSIG
YBBN,2016-09-28 10:00,153.1292,-27.3917,68.00,59.00,72.92,40.00,8.00,0.00,29.88,M,6.21,M,FEW,SCT,M,M,2500.00,26000.00,M,M,M,YBBN 281000Z 04008KT 9999 FEW025 SCT260 20/15 Q1012 NOSIG
YBBN,2016-09-28 10:30,153.1292,-27.3917,68.00,60.80,77.75,40.00,10.00,0.00,29.88,M,6.21,M,FEW,SCT,M,M,2400.00,3000.00,M,M,M,YBBN 281030Z 04010KT 9999 FEW024 SCT030 20/16 Q1012 NOSIG
YBBN,2016-09-28 11:00,153.1292,-27.3917,68.00,60.80,77.75,40.00,10.00,0.00,29.88,M,6.21,M,FEW,M,M,M,2400.00,M,M,M,M,YBBN 281100Z 04010KT 9999 FEW024 20/16 Q1012 NOSIG
YBBN,2016-09-28 11:30,153.1292,-27.3917,68.00,60.80,77.75,30.00,10.00,0.00,29.88,M,6.21,M,FEW,M,M,M,3000.00,M,M,M,M,YBBN 281130Z 03010KT 9999 FEW030 20/16 Q1012 NOSIG
YBBN,2016-09-28 12:00,153.1292,-27.3917,68.00,60.80,77.75,40.00,9.00,0.00,29.88,M,6.21,M,FEW,M,M,M,3000.00,M,M,M,M,YBBN 281200Z 04009KT 9999 FEW030 20/16 Q1012 NOSIG
YBBN,2016-09-28 12:30,153.1292,-27.3917,68.00,60.80,77.75,50.00,8.00,0.00,29.88,M,6.21,M,SCT,M,M,M,3600.00,M,M,M,M,YBBN 281230Z 05008KT 9999 SCT036 20/16 Q1012 NOSIG
YBBN,2016-09-28 13:00,153.1292,-27.3917,68.00,60.80,77.75,60.00,6.00,0.00,29.88,M,6.21,M,FEW,BKN,M,M,2300.00,3600.00,M,M,M,YBBN 281300Z 06006KT 9999 FEW023 BKN036 20/16 Q1012
YBBN,2016-09-28 13:30,153.1292,-27.3917,68.00,60.80,77.75,40.00,7.00,0.00,29.88,M,6.21,M,FEW,SCT,M,M,2200.00,3600.00,M,M,M,YBBN 281330Z 04007KT 9999 FEW022 SCT036 20/16 Q1012 NOSIG
YBBN,2016-09-28 14:00,153.1292,-27.3917,68.00,62.60,82.86,40.00,7.00,0.00,29.88,M,6.21,M,FEW,M,M,M,1800.00,M,M,M,M,YBBN 281400Z 04007KT 9999 FEW018 20/17 Q1012
YBBN,2016-09-28 14:30,153.1292,-27.3917,66.20,62.60,88.18,50.00,7.00,0.00,29.85,M,6.21,M,FEW,M,M,M,1800.00,M,M,M,M,YBBN 281430Z 05007KT 9999 FEW018 19/17 Q1011 NOSIG
YBBN,2016-09-28 15:00,153.1292,-27.3917,66.20,62.60,88.18,40.00,7.00,0.00,29.85,M,6.21,M,FEW,M,M,M,1800.00,M,M,M,M,YBBN 281500Z 04007KT 9999 FEW018 19/17 Q1011 NOSIG
YBBN,2016-09-28 15:30,153.1292,-27.3917,66.20,62.60,88.18,20.00,6.00,0.00,29.83,M,6.21,M,M,M,M,M,M,M,M,M,M,YBBN 281530Z 02006KT CAVOK 19/17 Q1010 NOSIG
YBBN,2016-09-28 16:00,153.1292,-27.3917,64.40,60.80,88.09,300.00,5.00,0.00,29.83,M,6.21,M,M,M,M,M,M,M,M,M,M,YBBN 281600Z 30005KT CAVOK 18/16 Q1010 NOSIG
YBBN,2016-09-28 16:30,153.1292,-27.3917,62.60,60.80,93.83,330.00,4.00,0.00,29.80,M,6.21,M,M,M,M,M,M,M,M,M,M,YBBN 281630Z 33004KT CAVOK 17/16 Q1009 NOSIG
YBBN,2016-09-28 17:00,153.1292,-27.3917,64.40,59.00,82.62,350.00,5.00,0.00,29.80,M,6.21,M,M,M,M,M,M,M,M,M,M,YBBN 281700Z 35005KT CAVOK 18/15 Q1009 NOSIG
YBBN,2016-09-28 17:30,153.1292,-27.3917,62.60,59.00,88.00,360.00,7.00,0.00,29.80,M,6.21,M,M,M,M,M,M,M,M,M,M,YBBN 281730Z 36007KT CAVOK 17/15 Q1009 NOSIG
YBBN,2016-09-28 18:00,153.1292,-27.3917,62.60,59.00,88.00,360.00,9.00,0.00,29.80,M,6.21,M,M,M,M,M,M,M,M,M,M,YBBN 281800Z 36009KT CAVOK 17/15 Q1009
YBBN,2016-09-28 18:30,153.1292,-27.3917,62.60,59.00,88.00,10.00,10.00,0.00,29.80,M,6.21,M,M,M,M,M,M,M,M,M,M,YBBN 281830Z 01010KT CAVOK 17/15 Q1009 NOSIG
YBBN,2016-09-28 19:00,153.1292,-27.3917,64.40,59.00,82.62,360.00,9.00,0.00,29.80,M,6.21,M,M,M,M,M,M,M,M,M,M,YBBN 281900Z 36009KT CAVOK 18/15 Q1009
YBBN,2016-09-28 19:30,153.1292,-27.3917,64.40,57.20,77.45,10.00,9.00,0.00,29.80,M,6.21,M,M,M,M,M,M,M,M,M,M,YBBN 281930Z 01009KT CAVOK 18/14 Q1009 NOSIG
YBBN,2016-09-28 20:00,153.1292,-27.3917,66.20,55.40,68.15,360.00,10.00,0.00,29.80,M,6.21,M,M,M,M,M,M,M,M,M,M,YBBN 282000Z 36010KT CAVOK 19/13 Q1009
YBBN,2016-09-28 20:30,153.1292,-27.3917,68.00,55.40,64.04,360.00,9.00,0.00,29.80,M,6.21,M,M,M,M,M,M,M,M,M,M,YBBN 282030Z 36009KT CAVOK 20/13 Q1009 NOSIG
YBBN,2016-09-28 21:00,153.1292,-27.3917,68.00,55.40,64.04,360.00,10.00,0.00,29.80,M,6.21,M,M,M,M,M,M,M,M,M,M,YBBN 282100Z 36010KT CAVOK 20/13 Q1009 NOSIG
