#DEBUG: Format Typ    -> comma
#DEBUG: Time Period   -> 2010-02-10 00:00:00+00:00 2010-02-11 00:00:00+00:00
#DEBUG: Time Zone     -> Etc/UTC
#DEBUG: Data Contact   -> daryl herzmann akrherz@iastate.edu 515-294-5978
#DEBUG: Entries Found -> -1
station,valid,lon,lat,tmpf, dwpf, relh, drct, sknt, p01i, alti, mslp, vsby, gust, skyc1, skyc2, skyc3, skyc4, skyl1, skyl2, skyl3, skyl4, presentwx, metar
YBBN,2010-02-10 00:00,153.1292,-27.3917,78.80,68.00,69.52,150.00,8.00,M,30.06,M,6.21,M,SCT,SCT,M,M,2700.00,8000.00,M,M,M,YBBN 100000Z 15008KT 9999 SCT027 SCT080 26/20 Q1018 NOSIG
YBBN,2010-02-10 00:30,153.1292,-27.3917,80.60,68.00,65.54,120.00,10.00,M,30.06,M,6.21,M,BKN,M,M,M,3200.00,M,M,M,M,YBBN 100030Z 12010KT 9999 BKN032 27/20 Q1018 NOSIG
YBBN,2010-02-10 01:00,153.1292,-27.3917,82.40,69.80,65.74,130.00,10.00,M,30.06,M,6.21,M,BKN,M,M,M,3800.00,M,M,M,VCSH,YBBN 100100Z 13010KT 9999 8000S VCSH BKN038 28/21 Q1018 NOSIG
YBBN,2010-02-10 01:30,153.1292,-27.3917,82.40,68.00,61.81,130.00,10.00,M,30.06,M,6.21,M,SCT,M,M,M,3800.00,M,M,M,M,YBBN 100130Z 13010KT 9999 SCT038 28/20 Q1018 RMK DIST RASH NOSIG
YBBN,2010-02-10 02:00,153.1292,-27.3917,82.40,69.80,65.74,130.00,11.00,M,30.03,M,6.21,M,SCT,M,M,M,3800.00,M,M,M,M,YBBN 100200Z 13011KT 9999 SCT038 28/21 Q1017 NOSIG
YBBN,2010-02-10 03:00,153.1292,-27.3917,82.40,68.00,61.81,130.00,12.00,M,30.03,M,6.21,M,FEW,M,M,M,3800.00,M,M,M,M,YBBN 100300Z 13012KT 9999 FEW038 28/20 Q1017 RMK DIST RASH W NOSIG
YBBN,2010-02-10 03:30,153.1292,-27.3917,82.40,69.80,65.74,130.00,11.00,M,30.03,M,6.21,M,FEW,M,M,M,4000.00,M,M,M,M,YBBN 100330Z 13011KT 9999 FEW040 28/21 Q1017 NOSIG
YBBN,2010-02-10 04:00,153.1292,-27.3917,82.40,68.00,61.81,110.00,11.00,M,30.03,M,6.21,M,FEW,M,M,M,4000.00,M,M,M,M,YBBN 100400Z 11011KT 9999 FEW040 28/20 Q1017 NOSIG
YBBN,2010-02-10 04:30,153.1292,-27.3917,82.40,66.20,58.08,130.00,12.00,M,30.00,M,6.21,M,FEW,M,M,M,4000.00,M,M,M,M,YBBN 100430Z 13012KT 9999 FEW040 28/19 Q1016 NOSIG
YBBN,2010-02-10 05:00,153.1292,-27.3917,82.40,68.00,61.81,120.00,11.00,M,30.00,M,6.21,M,SCT,M,M,M,4000.00,M,M,M,M,YBBN 100500Z 12011KT 9999 SCT040 28/20 Q1016 NOSIG
YBBN,2010-02-10 05:30,153.1292,-27.3917,82.40,68.00,61.81,130.00,13.00,M,30.00,M,6.21,M,FEW,M,M,M,4000.00,M,M,M,M,YBBN 100530Z 13013KT 9999 FEW040 28/20 Q1016 NOSIG
YBBN,2010-02-10 06:00,153.1292,-27.3917,82.40,68.00,61.81,120.00,14.00,M,30.00,M,6.21,M,FEW,SCT,M,M,4000.00,8000.00,M,M,M,YBBN 100600Z 12014KT 9999 FEW040 SCT080 28/20 Q1016 NOSIG
YBBN,2010-02-10 06:30,153.1292,-27.3917,80.60,66.20,61.58,130.00,12.00,M,30.00,M,6.21,M,FEW,BKN,M,M,3800.00,8000.00,M,M,M,YBBN 100630Z 13012KT 9999 FEW038 BKN080 27/19 Q1016 NOSIG
YBBN,2010-02-10 07:00,153.1292,-27.3917,80.60,68.00,65.54,130.00,11.00,M,30.00,M,6.21,M,FEW,BKN,M,M,3500.00,8000.00,M,M,M,YBBN 100700Z 13011KT 9999 FEW035 BKN080 27/20 Q1016 NOSIG
YBBN,2010-02-10 07:30,153.1292,-27.3917,78.80,66.20,65.33,130.00,10.00,M,30.00,M,6.21,M,FEW,BKN,M,M,2900.00,8000.00,M,M,M,YBBN 100730Z 13010KT 9999 FEW029 BKN080 26/19 Q1016 NOSIG
YBBN,2010-02-10 08:00,153.1292,-27.3917,75.20,69.80,83.32,150.00,9.00,M,30.00,M,6.21,M,SCT,BKN,M,M,3000.00,7500.00,M,M,-SHRA,YBBN 100800Z 15009KT 9999 -SHRA SCT030 BKN075 24/21 Q1016 NOSIG
YBBN,2010-02-10 08:30,153.1292,-27.3917,77.00,68.00,73.78,130.00,7.00,M,30.03,M,6.21,M,FEW,SCT,M,M,3000.00,8100.00,M,M,M,YBBN 100830Z 13007KT 9999 FEW030 SCT081 25/20 Q1017 NOSIG
YBBN,2010-02-10 09:00,153.1292,-27.3917,77.00,68.00,73.78,140.00,7.00,M,30.03,M,6.21,M,FEW,BKN,M,M,3000.00,7900.00,M,M,M,YBBN 100900Z 14007KT 9999 FEW030 BKN079 25/20 Q1017 NOSIG
YBBN,2010-02-10 09:30,153.1292,-27.3917,77.00,69.80,78.48,110.00,7.00,M,30.03,M,6.21,M,FEW,SCT,BKN,M,2400.00,3900.00,7400.00,M,M,YBBN 100930Z 11007KT 9999 FEW024 SCT039 BKN074 25/21 Q1017 NOSIG
YBBN,2010-02-10 10:00,153.1292,-27.3917,77.00,68.00,73.78,120.00,7.00,M,30.03,M,6.21,M,FEW,SCT,M,M,2400.00,8200.00,M,M,M,YBBN 101000Z 12007KT 9999 FEW024 SCT082 25/20 Q1017 NOSIG
YBBN,2010-02-10 10:30,153.1292,-27.3917,77.00,68.00,73.78,120.00,7.00,M,30.03,M,6.21,M,SCT,SCT,M,M,2500.00,8200.00,M,M,M,YBBN 101030Z 12007KT 9999 SCT025 SCT082 25/20 Q1017 NOSIG
YBBN,2010-02-10 11:00,153.1292,-27.3917,77.00,68.00,73.78,120.00,7.00,M,30.06,M,6.21,M,SCT,M,M,M,2700.00,M,M,M,M,YBBN 101100Z 12007KT 9999 SCT027 25/20 Q1018 NOSIG
YBBN,2010-02-10 11:30,153.1292,-27.3917,77.00,68.00,73.78,120.00,6.00,M,30.06,M,6.21,M,FEW,M,M,M,2700.00,M,M,M,M,YBBN 101130Z 12006KT 9999 FEW027 25/20 Q1018 NOSIG
YBBN,2010-02-10 12:00,153.1292,-27.3917,77.00,68.00,73.78,120.00,6.00,M,30.06,M,6.21,M,FEW,BKN,M,M,2700.00,8500.00,M,M,M,YBBN 101200Z 12006KT 9999 FEW027 BKN085 25/20 Q1018 NOSIG
YBBN,2010-02-10 12:30,153.1292,-27.3917,77.00,68.00,73.78,110.00,6.00,M,30.06,M,6.21,M,SCT,SCT,M,M,2700.00,8200.00,M,M,M,YBBN 101230Z 11006KT 9999 SCT027 SCT082 25/20 Q1018 NOSIG
YBBN,2010-02-10 13:00,153.1292,-27.3917,77.00,68.00,73.78,120.00,5.00,M,30.06,M,6.21,M,FEW,M,M,M,2700.00,M,M,M,M,YBBN 101300Z 12005KT 9999 FEW027 25/20 Q1018 NOSIG
YBBN,2010-02-10 13:30,153.1292,-27.3917,77.00,68.00,73.78,120.00,6.00,M,30.06,M,6.21,M,FEW,M,M,M,2700.00,M,M,M,M,YBBN 101330Z 12006KT 9999 FEW027 25/20 Q1018 NOSIG
YBBN,2010-02-10 14:00,153.1292,-27.3917,73.40,68.00,83.21,150.00,5.00,M,30.06,M,6.21,M,FEW,M,M,M,2500.00,M,M,M,M,YBBN 101400Z 15005KT 9999 FEW025 23/20 Q1018 NOSIG
YBBN,2010-02-10 14:30,153.1292,-27.3917,73.40,68.00,83.21,190.00,1.00,M,30.03,M,6.21,M,FEW,M,M,M,2500.00,M,M,M,M,YBBN 101430Z 19001KT 9999 FEW025 23/20 Q1017 NOSIG
YBBN,2010-02-10 15:00,153.1292,-27.3917,73.40,68.00,83.21,210.00,4.00,M,30.03,M,6.21,M,SCT,M,M,M,2400.00,M,M,M,M,YBBN 101500Z 21004KT 9999 SCT024 23/20 Q1017 NOSIG
YBBN,2010-02-10 15:30,153.1292,-27.3917,73.40,68.00,83.21,210.00,6.00,M,30.03,M,6.21,M,FEW,M,M,M,2400.00,M,M,M,M,YBBN 101530Z 21006KT 9999 FEW024 23/20 Q1017 NOSIG
YBBN,2010-02-10 16:00,153.1292,-27.3917,71.60,68.00,88.43,200.00,6.00,M,30.00,M,6.21,M,FEW,M,M,M,2400.00,M,M,M,M,YBBN 101600Z 20006KT 9999 FEW024 22/20 Q1016 NOSIG
YBBN,2010-02-10 16:30,153.1292,-27.3917,71.60,68.00,88.43,210.00,4.00,M,30.00,M,6.21,M,FEW,M,M,M,2400.00,M,M,M,M,YBBN 101630Z 21004KT 9999 FEW024 22/20 Q1016 NOSIG
YBBN,2010-02-10 17:00,153.1292,-27.3917,71.60,68.00,88.43,210.00,5.00,M,30.00,M,6.21,M,FEW,M,M,M,2400.00,M,M,M,M,YBBN 101700Z 21005KT 9999 FEW024 22/20 Q1016 NOSIG
YBBN,2010-02-10 17:30,153.1292,-27.3917,71.60,68.00,88.43,200.00,5.00,M,30.00,M,6.21,M,FEW,M,M,M,2400.00,M,M,M,M,YBBN 101730Z 20005KT 9999 FEW024 22/20 Q1016 NOSIG
YBBN,2010-02-10 18:00,153.1292,-27.3917,69.80,68.00,94.01,210.00,5.00,M,30.00,M,6.21,M,FEW,M,M,M,2400.00,M,M,M,M,YBBN 101800Z 21005KT 9999 FEW024 21/20 Q1016 NOSIG
YBBN,2010-02-10 18:30,153.1292,-27.3917,69.80,68.00,94.01,220.00,6.00,M,30.00,M,6.21,M,SCT,M,M,M,3000.00,M,M,M,M,YBBN 101830Z 22006KT 9999 SCT030 21/20 Q1016 NOSIG
YBBN,2010-02-10 19:00,153.1292,-27.3917,69.80,68.00,94.01,210.00,7.00,M,30.00,M,6.21,M,FEW,M,M,M,2800.00,M,M,M,M,YBBN 101900Z 21007KT 9999 FEW028 21/20 Q1016 NOSIG
YBBN,2010-02-10 19:30,153.1292,-27.3917,69.80,68.00,94.01,220.00,7.00,M,30.03,M,6.21,M,SCT,M,M,M,2800.00,M,M,M,M,YBBN 101930Z 22007KT 9999 SCT028 21/20 Q1017 NOSIG
YBBN,2010-02-10 20:00,153.1292,-27.3917,69.80,68.00,94.01,210.00,7.00,M,30.03,M,6.21,M,FEW,M,M,M,2800.00,M,M,M,M,YBBN 102000Z 21007KT 9999 FEW028 21/20 Q1017 NOSIG
YBBN,2010-02-10 20:30,153.1292,-27.3917,71.60,69.80,94.06,210.00,6.00,M,30.03,M,6.21,M,SCT,M,M,M,2800.00,M,M,M,M,YBBN 102030Z 21006KT 9999 SCT028 22/21 Q1017 NOSIG
YBBN,2010-02-10 21:00,153.1292,-27.3917,75.20,69.80,83.32,210.00,6.00,M,30.03,M,6.21,M,FEW,M,M,M,3000.00,M,M,M,M,YBBN 102100Z 21006KT 9999 FEW030 24/21 Q1017 NOSIG
YBBN,2010-02-10 21:30,153.1292,-27.3917,77.00,68.00,73.78,200.00,6.00,M,30.03,M,6.21,M,FEW,M,M,M,2600.00,M,M,M,M,YBBN 102130Z 20006KT 9999 FEW026 25/20 Q1017 NOSIG
YBBN,2010-02-10 22:00,153.1292,-27.3917,78.80,68.00,69.52,170.00,5.00,M,30.06,M,6.21,M,FEW,M,M,M,2600.00,M,M,M,M,YBBN 102200Z 17005KT 9999 FEW026 26/20 Q1018 NOSIG
YBBN,2010-02-10 22:30,153.1292,-27.3917,80.60,68.00,65.54,150.00,7.00,M,30.06,M,6.21,M,SCT,M,M,M,2500.00,M,M,M,M,YBBN 102230Z 15007KT 9999 SCT025 27/20 Q1018 NOSIG
YBBN,2010-02-10 23:00,153.1292,-27.3917,80.60,68.00,65.54,130.00,6.00,M,30.06,M,6.21,M,SCT,M,M,M,2500.00,M,M,M,M,YBBN 102300Z 13006KT 9999 SCT025 27/20 Q1018 NOSIG
YBBN,2010-02-10 23:30,153.1292,-27.3917,80.60,68.00,65.54,120.00,7.00,M,30.03,M,6.21,M,SCT,M,M,M,2500.00,M,M,M,M,YBBN 102330Z 12007KT 9999 SCT025 27/20 Q1017 NOSIG
