#DEBUG: Format Typ    -> comma
#DEBUG: Time Period   -> 2016-03-20 00:00:00+00:00 2016-03-21 00:00:00+00:00
#DEBUG: Time Zone     -> Etc/UTC
#DEBUG: Data Contact   -> daryl herzmann akrherz@iastate.edu 515-294-5978
#DEBUG: Entries Found -> -1
station,valid,lon,lat,tmpf, dwpf, relh, drct, sknt, p01i, alti, mslp, vsby, gust, skyc1, skyc2, skyc3, skyc4, skyl1, skyl2, skyl3, skyl4, presentwx, metar
YBBN,2016-03-20 00:00,153.1292,-27.3917,80.60,66.20,61.58,150.00,10.00,0.00,29.88,M,6.21,M,FEW,BKN,M,M,3100.00,7300.00,M,M,M,YBBN 200000Z 15010KT 9999 FEW031 BKN073 27/19 Q1012 NOSIG
YBBN,2016-03-20 00:30,153.1292,-27.3917,80.60,64.40,57.84,130.00,8.00,0.00,29.88,M,6.21,M,FEW,BKN,M,M,3000.00,4700.00,M,M,M,YBBN 200030Z 13008KT 9999 FEW030 BKN047 27/18 Q1012 NOSIG
YBBN,2016-03-20 01:00,153.1292,-27.3917,80.60,66.20,61.58,120.00,10.00,0.00,29.85,M,6.21,M,FEW,BKN,M,M,3500.00,4500.00,M,M,M,YBBN 200100Z 12010KT 9999 FEW035 BKN045 27/19 Q1011 NOSIG
YBBN,2016-03-20 01:30,153.1292,-27.3917,80.60,66.20,61.58,120.00,8.00,0.00,29.85,M,6.21,M,SCT,BKN,M,M,3500.00,5700.00,M,M,M,YBBN 200130Z 12008KT 9999 SCT035 BKN057 27/19 Q1011 NOSIG
YBBN,2016-03-20 02:00,153.1292,-27.3917,80.60,66.20,61.58,110.00,10.00,0.00,29.85,M,6.21,M,BKN,M,M,M,4000.00,M,M,M,M,YBBN 200200Z 11010KT 9999 BKN040 27/19 Q1011 NOSIG
YBBN,2016-03-20 02:30,153.1292,-27.3917,80.60,69.80,69.71,110.00,9.00,0.00,29.85,M,6.21,M,BKN,M,M,M,4500.00,M,M,M,M,YBBN 200230Z 11009KT 9999 BKN045 27/21 Q1011 NOSIG
YBBN,2016-03-20 03:00,153.1292,-27.3917,82.40,68.00,61.81,110.00,10.00,0.00,29.83,M,6.21,M,FEW,BKN,M,M,3500.00,6500.00,M,M,M,YBBN 200300Z 11010KT 9999 FEW035 BKN065 28/20 Q1010 NOSIG
YBBN,2016-03-20 03:30,153.1292,-27.3917,80.60,68.00,65.54,110.00,8.00,0.00,29.83,M,6.21,M,SCT,BKN,M,M,3200.00,5000.00,M,M,M,YBBN 200330Z 11008KT 9999 SCT032 BKN050 27/20 Q1010 NOSIG
YBBN,2016-03-20 04:00,153.1292,-27.3917,82.40,69.80,65.74,110.00,12.00,0.00,29.83,M,6.21,M,FEW,BKN,M,M,3200.00,4600.00,M,M,M,YBBN 200400Z 11012KT 9999 FEW032 BKN046 28/21 Q1010
YBBN,2016-03-20 04:30,153.1292,-27.3917,80.60,68.00,65.54,110.00,11.00,0.00,29.80,M,6.21,M,SCT,M,M,M,3400.00,M,M,M,M,YBBN 200430Z 11011KT 9999 SCT034 27/20 Q1009 NOSIG
YBBN,2016-03-20 05:00,153.1292,-27.3917,82.40,68.00,61.81,110.00,11.00,0.00,29.80,M,6.21,M,SCT,M,M,M,3400.00,M,M,M,M,YBBN 200500Z 11011KT 9999 SCT034 28/20 Q1009
YBBN,2016-03-20 05:30,153.1292,-27.3917,80.60,68.00,65.54,120.00,11.00,0.00,29.80,M,6.21,22.00,SCT,M,M,M,3500.00,M,M,M,M,YBBN 200530Z 12011G22KT 9999 SCT035 27/20 Q1009
YBBN,2016-03-20 06:00,153.1292,-27.3917,80.60,66.20,61.58,120.00,12.00,0.00,29.80,M,6.21,22.00,SCT,M,M,M,4000.00,M,M,M,M,YBBN 200600Z 12012G22KT 9999 SCT040 27/19 Q1009
YBBN,2016-03-20 06:30,153.1292,-27.3917,78.80,66.20,65.33,120.00,12.00,0.00,29.80,M,6.21,M,FEW,M,M,M,4000.00,M,M,M,M,YBBN 200630Z 12012KT 9999 FEW040 26/19 Q1009 NOSIG
YBBN,2016-03-20 08:30,153.1292,-27.3917,77.00,68.00,73.78,140.00,9.00,0.00,29.83,M,6.21,M,SCT,SCT,M,M,2100.00,19000.00,M,M,M,YBBN 200830Z 14009KT 9999 SCT021 SCT190 25/20 Q1010
YBBN,2016-03-20 10:00,153.1292,-27.3917,75.20,68.00,78.34,150.00,7.00,0.00,29.85,M,6.21,17.00,FEW,SCT,M,M,2100.00,6200.00,M,M,M,YBBN 201000Z 15007G17KT 9999 FEW021 SCT062 24/20 Q1011 NOSIG
YBBN,2016-03-20 11:00,153.1292,-27.3917,75.20,68.00,78.34,170.00,6.00,0.00,29.88,M,6.21,M,FEW,SCT,M,M,2300.00,6000.00,M,M,M,YBBN 201100Z 17006KT 9999 FEW023 SCT060 24/20 Q1012
YBBN,2016-03-20 11:30,153.1292,-27.3917,73.40,68.00,83.21,160.00,6.00,0.00,29.88,M,6.21,M,FEW,SCT,M,M,2500.00,19000.00,M,M,M,YBBN 201130Z 16006KT 9999 FEW025 SCT190 23/20 Q1012 NOSIG
YBBN,2016-03-20 12:00,153.1292,-27.3917,73.40,68.00,83.21,180.00,6.00,0.00,29.88,M,6.21,M,FEW,SCT,M,M,2500.00,18600.00,M,M,M,YBBN 201200Z 18006KT 9999 FEW025 SCT186 23/20 Q1012
YBBN,2016-03-20 12:30,153.1292,-27.3917,73.40,68.00,83.21,180.00,7.00,0.00,29.88,M,6.21,M,FEW,SCT,M,M,2500.00,19000.00,M,M,M,YBBN 201230Z 18007KT 9999 FEW025 SCT190 23/20 Q1012 NOSIG
YBBN,2016-03-20 13:00,153.1292,-27.3917,73.40,68.00,83.21,180.00,7.00,0.00,29.88,M,6.21,M,FEW,SCT,M,M,2500.00,19000.00,M,M,M,YBBN 201300Z 18007KT 9999 FEW025 SCT190 23/20 Q1012
YBBN,2016-03-20 13:30,153.1292,-27.3917,73.40,66.20,78.19,200.00,7.00,0.00,29.85,M,6.21,M,FEW,SCT,M,M,2500.00,19000.00,M,M,M,YBBN 201330Z 20007KT 9999 FEW025 SCT190 23/19 Q1011 NOSIG
YBBN,2016-03-20 14:00,153.1292,-27.3917,71.60,66.20,83.09,190.00,7.00,0.00,29.85,M,6.21,M,FEW,SCT,M,M,2800.00,19000.00,M,M,M,YBBN 201400Z 19007KT 9999 FEW028 SCT190 22/19 Q1011
YBBN,2016-03-20 14:30,153.1292,-27.3917,71.60,66.20,83.09,190.00,6.00,0.00,29.85,M,6.21,M,M,M,M,M,M,M,M,M,M,YBBN 201430Z 19006KT CAVOK 22/19 Q1011 NOSIG
YBBN,2016-03-20 15:00,153.1292,-27.3917,71.60,66.20,83.09,190.00,6.00,0.00,29.85,M,6.21,M,FEW,M,M,M,2500.00,M,M,M,M,YBBN 201500Z 19006KT 9999 FEW025 22/19 Q1011
YBBN,2016-03-20 15:30,153.1292,-27.3917,71.60,66.20,83.09,180.00,6.00,0.00,29.83,M,6.21,M,FEW,M,M,M,2500.00,M,M,M,M,YBBN 201530Z 18006KT 9999 FEW025 22/19 Q1010 NOSIG
YBBN,2016-03-20 16:00,153.1292,-27.3917,71.60,66.20,83.09,190.00,6.00,0.00,29.83,M,6.21,M,FEW,M,M,M,2500.00,M,M,M,M,YBBN 201600Z 19006KT 9999 FEW025 22/19 Q1010
YBBN,2016-03-20 16:30,153.1292,-27.3917,71.60,66.20,83.09,180.00,5.00,0.00,29.83,M,6.21,M,M,M,M,M,M,M,M,M,M,YBBN 201630Z 18005KT CAVOK 22/19 Q1010 NOSIG
YBBN,2016-03-20 17:00,153.1292,-27.3917,71.60,66.20,83.09,190.00,6.00,0.00,29.80,M,6.21,M,M,M,M,M,M,M,M,M,M,YBBN 201700Z 19006KT CAVOK 22/19 Q1009
YBBN,2016-03-20 17:30,153.1292,-27.3917,71.60,64.40,78.04,190.00,5.00,0.00,29.83,M,6.21,M,FEW,M,M,M,2800.00,M,M,M,M,YBBN 201730Z 19005KT 9999 FEW028 22/18 Q1010 NOSIG
YBBN,2016-03-20 18:00,153.1292,-27.3917,69.80,64.40,82.98,210.00,6.00,0.00,29.83,M,6.21,M,FEW,M,M,M,2300.00,M,M,M,M,YBBN 201800Z 21006KT 9999 FEW023 21/18 Q1010 NOSIG
YBBN,2016-03-20 18:30,153.1292,-27.3917,69.80,64.40,82.98,200.00,7.00,0.00,29.83,M,6.21,M,FEW,M,M,M,2800.00,M,M,M,M,YBBN 201830Z 20007KT 9999 FEW028 21/18 Q1010 NOSIG
YBBN,2016-03-20 19:00,153.1292,-27.3917,68.00,64.40,88.26,210.00,8.00,0.00,29.83,M,6.21,M,FEW,M,M,M,2800.00,M,M,M,M,YBBN 201900Z 21008KT 9999 FEW028 20/18 Q1010 NOSIG
YBBN,2016-03-20 19:30,153.1292,-27.3917,68.00,64.40,88.26,200.00,7.00,0.00,29.83,M,6.21,M,FEW,M,M,M,2000.00,M,M,M,VCSH,YBBN 201930Z 20007KT 9999 VCSH FEW020 20/18 Q1010 NOSIG
YBBN,2016-03-20 20:00,153.1292,-27.3917,68.00,64.40,88.26,200.00,9.00,0.00,29.85,M,6.21,M,FEW,SCT,M,M,2000.00,16000.00,M,M,VCSH,YBBN 202000Z 20009KT 9999 VCSH FEW020 SCT160 20/18 Q1011
YBBN,2016-03-20 21:00,153.1292,-27.3917,71.60,64.40,78.04,200.00,6.00,0.00,29.85,M,6.21,M,FEW,SCT,BKN,M,2000.00,3800.00,6200.00,M,VCSH,YBBN 202100Z 20006KT 9999 VCSH FEW020 SCT038 BKN062 22/18 Q1011
YBBN,2016-03-20 21:30,153.1292,-27.3917,71.60,64.40,78.04,180.00,6.00,0.00,29.88,M,6.21,M,FEW,SCT,M,M,2000.00,5200.00,M,M,M,YBBN 202130Z 18006KT 9999 FEW020 SCT052 22/18 Q1012 NOSIG
YBBN,2016-03-20 22:00,153.1292,-27.3917,75.20,64.40,69.14,200.00,7.00,0.00,29.88,M,6.21,M,FEW,SCT,M,M,2300.00,5900.00,M,M,M,YBBN 202200Z 20007KT 9999 FEW023 SCT059 24/18 Q1012 NOSIG
YBBN,2016-03-20 22:30,153.1292,-27.3917,77.00,64.40,65.12,180.00,9.00,0.00,29.88,M,6.21,M,FEW,M,M,M,2500.00,M,M,M,M,YBBN 202230Z 18009KT 9999 FEW025 25/18 Q1012 NOSIG
YBBN,2016-03-20 23:00,153.1292,-27.3917,78.80,66.20,65.33,160.00,7.00,0.00,29.88,M,6.21,M,FEW,M,M,M,2500.00,M,M,M,M,YBBN 202300Z 16007KT 9999 FEW025 26/19 Q1012 NOSIG
YBBN,2016-03-20 23:30,153.1292,-27.3917,80.60,66.20,61.58,140.00,9.00,0.00,29.88,M,6.21,M,SCT,M,M,M,2500.00,M,M,M,M,YBBN 202330Z 14009KT 110V170 9999 SCT025 27/19 Q1012 NOSIG
