#DEBUG: Format Typ    -> comma
#DEBUG: Time Period   -> 2015-12-11 00:00:00+00:00 2015-12-12 00:00:00+00:00
#DEBUG: Time Zone     -> Etc/UTC
#DEBUG: Data Contact   -> daryl herzmann akrherz@iastate.edu 515-294-5978
#DEBUG: Entries Found -> -1
station,valid,lon,lat,tmpf, dwpf, relh, drct, sknt, p01i, alti, mslp, vsby, gust, skyc1, skyc2, skyc3, skyc4, skyl1, skyl2, skyl3, skyl4, presentwx, metar
YBBN,2015-12-11 00:00,153.1292,-27.3917,84.20,69.80,62.03,10.00,12.00,0.00,29.85,M,6.21,M,FEW,M,M,M,3200.00,M,M,M,M,YBBN 110000Z 01012KT 9999 FEW032 29/21 Q1011 NOSIG
YBBN,2015-12-11 00:30,153.1292,-27.3917,84.20,69.80,62.03,30.00,15.00,0.00,29.85,M,6.21,M,FEW,M,M,M,3200.00,M,M,M,M,YBBN 110030Z 03015KT 9999 FEW032 29/21 Q1011 NOSIG
YBBN,2015-12-11 01:00,153.1292,-27.3917,84.20,69.80,62.03,30.00,16.00,0.00,29.83,M,6.21,M,FEW,M,M,M,3200.00,M,M,M,M,YBBN 110100Z 03016KT 9999 FEW032 29/21 Q1010 NOSIG
YBBN,2015-12-11 01:30,153.1292,-27.3917,84.20,69.80,62.03,30.00,16.00,0.00,29.83,M,6.21,M,FEW,M,M,M,3200.00,M,M,M,M,YBBN 110130Z 03016KT 9999 FEW032 29/21 Q1010 NOSIG
YBBN,2015-12-11 02:00,153.1292,-27.3917,82.40,69.80,65.74,30.00,17.00,0.00,29.80,M,6.21,M,FEW,M,M,M,3000.00,M,M,M,M,YBBN 110200Z 03017KT 9999 FEW030 28/21 Q1009
YBBN,2015-12-11 02:30,153.1292,-27.3917,82.40,71.60,69.90,20.00,17.00,0.00,29.80,M,6.21,M,FEW,M,M,M,3000.00,M,M,M,M,YBBN 110230Z 02017KT 9999 FEW030 28/22 Q1009 NOSIG
YBBN,2015-12-11 03:00,153.1292,-27.3917,82.40,71.60,69.90,20.00,17.00,0.00,29.77,M,6.21,M,FEW,M,M,M,3000.00,M,M,M,M,YBBN 110300Z 02017KT 9999 FEW030 28/22 Q1008 NOSIG
YBBN,2015-12-11 03:30,153.1292,-27.3917,84.20,71.60,65.95,20.00,18.00,0.00,29.77,M,6.21,M,FEW,M,M,M,3000.00,M,M,M,M,YBBN 110330Z 02018KT 9999 FEW030 29/22 Q1008 NOSIG
YBBN,2015-12-11 04:00,153.1292,-27.3917,84.20,73.40,70.08,20.00,18.00,0.00,29.74,M,6.21,M,FEW,M,M,M,2800.00,M,M,M,M,YBBN 110400Z 02018KT 9999 FEW028TCU 29/23 Q1007 NOSIG
YBBN,2015-12-11 04:30,153.1292,-27.3917,80.60,71.60,74.11,10.00,18.00,0.00,29.74,M,6.21,M,FEW,SCT,M,M,2500.00,30000.00,M,M,M,YBBN 110430Z 01018KT 9999 FEW025TCU SCT300 27/22 Q1007 NOSIG
YBBN,2015-12-11 05:00,153.1292,-27.3917,80.60,73.40,78.76,10.00,18.00,0.00,29.74,M,6.21,M,FEW,BKN,M,M,2400.00,28000.00,M,M,M,YBBN 110500Z 01018KT 9999 FEW024TCU BKN280 27/23 Q1007 NOSIG
YBBN,2015-12-11 05:30,153.1292,-27.3917,82.40,71.60,69.90,10.00,18.00,0.00,29.71,M,6.21,M,FEW,BKN,M,M,2400.00,27000.00,M,M,M,YBBN 110530Z 01018KT 9999 FEW024TCU BKN270 28/22 Q1006 NOSIG
YBBN,2015-12-11 06:00,153.1292,-27.3917,80.60,71.60,74.11,10.00,18.00,0.00,29.68,M,6.21,M,FEW,BKN,M,M,2400.00,27000.00,M,M,M,YBBN 110600Z 01018KT 9999 FEW024TCU BKN270 27/22 Q1005 NOSIG
YBBN,2015-12-11 06:30,153.1292,-27.3917,80.60,71.60,74.11,360.00,18.00,0.00,29.71,M,6.21,M,FEW,SCT,BKN,M,2400.00,17000.00,26000.00,M,M,YBBN 110630Z 36018KT 9999 FEW024TCU SCT170 BKN260 27/22 Q1006 NOSIG
YBBN,2015-12-11 07:00,153.1292,-27.3917,80.60,71.60,74.11,360.00,16.00,0.00,29.68,M,6.21,M,FEW,SCT,BKN,M,2400.00,17000.00,26000.00,M,M,YBBN 110700Z 36016KT 9999 FEW024TCU SCT170 BKN260 27/22 Q1005 NOSIG
YBBN,2015-12-11 07:30,153.1292,-27.3917,80.60,71.60,74.11,360.00,18.00,0.00,29.71,M,6.21,M,FEW,SCT,BKN,M,2400.00,10000.00,25000.00,M,M,YBBN 110730Z 36018KT 9999 FEW024TCU SCT100 BKN250 27/22 Q1006 NOSIG
YBBN,2015-12-11 08:00,153.1292,-27.3917,80.60,71.60,74.11,360.00,17.00,0.00,29.71,M,6.21,M,FEW,SCT,BKN,M,2300.00,10000.00,21000.00,M,M,YBBN 110800Z 36017KT 9999 FEW023TCU SCT100 BKN210 27/22 Q1006
YBBN,2015-12-11 08:30,153.1292,-27.3917,78.80,71.60,78.62,360.00,16.00,0.00,29.71,M,6.21,M,FEW,SCT,BKN,FEW,2300.00,10500.00,24000.00,2400.00,VCSH,YBBN 110830Z 36016KT 9999 VCSH FEW023TCU SCT105 BKN240 FEW024CB 26/22 Q1006 NOSIG
YBBN,2015-12-11 09:00,153.1292,-27.3917,80.60,71.60,74.11,350.00,15.00,0.00,29.74,M,6.21,M,FEW,SCT,BKN,M,2700.00,10500.00,22000.00,M,-SHRA,YBBN 110900Z 35015KT 9999 -SHRA FEW027CB SCT105 BKN220 27/22 Q1007 NOSIG
YBBN,2015-12-11 09:30,153.1292,-27.3917,80.60,71.60,74.11,360.00,12.00,0.00,29.71,M,6.21,M,FEW,SCT,BKN,M,3800.00,11000.00,22000.00,M,VCSH,YBBN 110930Z 36012KT 9999 VCSH FEW038 SCT110 BKN220 27/22 Q1006 NOSIG
YBBN,2015-12-11 10:00,153.1292,-27.3917,80.60,71.60,74.11,360.00,13.00,0.00,29.71,M,6.21,M,FEW,SCT,BKN,M,3800.00,11000.00,22000.00,M,VCSH,YBBN 111000Z 36013KT 9999 VCSH FEW038 SCT110 BKN220 27/22 Q1006
YBBN,2015-12-11 11:26,153.1292,-27.3917,78.80,68.00,69.52,80.00,1.00,0.00,29.80,M,6.21,M,FEW,SCT,BKN,M,4000.00,16000.00,20000.00,M,M,YBBN 111126Z 08001KT 9999 FEW040 SCT160 BKN200 26/20 Q1009
YBBN,2015-12-11 11:30,153.1292,-27.3917,78.80,69.80,73.95,170.00,3.00,0.00,29.80,M,6.21,M,FEW,SCT,BKN,M,4000.00,16000.00,20000.00,M,M,YBBN 111130Z 17003KT 9999 FEW040 SCT160 BKN200 26/21 Q1009
YBBN,2015-12-11 12:00,153.1292,-27.3917,78.80,71.60,78.62,130.00,5.00,0.00,29.80,M,6.21,M,FEW,SCT,BKN,M,2700.00,16000.00,18500.00,M,-SHRA,YBBN 111200Z 13005KT 9999 -SHRA FEW027 SCT160 BKN185 26/22 Q1009 NOSIG
YBBN,2015-12-11 12:30,153.1292,-27.3917,78.80,71.60,78.62,130.00,7.00,0.00,29.77,M,6.21,M,FEW,SCT,BKN,M,2700.00,12500.00,18000.00,M,VCSH,YBBN 111230Z 13007KT 9999 VCSH FEW027 SCT125 BKN180 26/22 Q1008 NOSIG
YBBN,2015-12-11 13:00,153.1292,-27.3917,78.80,73.40,83.55,110.00,7.00,0.00,29.77,M,6.21,M,FEW,SCT,BKN,M,2700.00,12000.00,16500.00,M,VCSH,YBBN 111300Z 11007KT 9999 VCSH FEW027 SCT120 BKN165 26/23 Q1008 NOSIG
YBBN,2015-12-11 13:30,153.1292,-27.3917,78.80,71.60,78.62,100.00,7.00,0.00,29.77,M,6.21,M,FEW,SCT,BKN,M,2500.00,12000.00,16000.00,M,VCSH,YBBN 111330Z 10007KT 9999 VCSH FEW025 SCT120 BKN160 26/22 Q1008 NOSIG
YBBN,2015-12-11 14:00,153.1292,-27.3917,77.00,68.00,73.78,90.00,7.00,0.00,29.77,M,6.21,M,FEW,SCT,BKN,M,2500.00,5800.00,14000.00,M,-SHRA,YBBN 111400Z 09007KT 9999 -SHRA FEW025 SCT058 BKN140 25/20 Q1008 NOSIG
YBBN,2015-12-11 14:30,153.1292,-27.3917,77.00,69.80,78.48,70.00,5.00,0.00,29.80,M,6.21,M,FEW,SCT,BKN,FEW,2500.00,5800.00,10500.00,2600.00,-SHRA,YBBN 111430Z 07005KT 9999 -SHRA FEW025 SCT058 BKN105 FEW026TCU 25/21 Q1009 NOSIG
YBBN,2015-12-11 14:50,153.1292,-27.3917,75.20,68.00,78.34,240.00,16.00,0.00,29.83,M,6.21,M,FEW,SCT,BKN,M,1800.00,2500.00,10500.00,M,-SHRA,YBBN 111450Z 24016KT 240V030 9999 -SHRA FEW018 SCT025 BKN105 24/20 Q1010
YBBN,2015-12-11 15:00,153.1292,-27.3917,75.20,69.80,83.32,240.00,10.00,0.00,29.80,M,6.21,M,FEW,SCT,BKN,M,1700.00,3800.00,13000.00,M,-SHRA,YBBN 111500Z 24010KT 9999 -SHRA FEW017 SCT038 BKN130 24/21 Q1009 NOSIG
YBBN,2015-12-11 15:30,153.1292,-27.3917,77.00,68.00,73.78,100.00,1.00,0.00,29.77,M,6.21,M,FEW,SCT,BKN,M,2500.00,14000.00,22000.00,M,VCSH,YBBN 111530Z 10001KT 9999 VCSH FEW025 SCT140 BKN220 25/20 Q1008 NOSIG
YBBN,2015-12-11 16:00,153.1292,-27.3917,77.00,68.00,73.78,90.00,4.00,0.00,29.77,M,6.21,M,FEW,SCT,BKN,M,3700.00,10500.00,13000.00,M,VCSH,YBBN 111600Z 09004KT 9999 VCSH FEW037 SCT105 BKN130 25/20 Q1008
YBBN,2015-12-11 19:00,153.1292,-27.3917,73.40,66.20,78.19,190.00,4.00,0.00,29.77,M,6.21,M,FEW,SCT,BKN,M,2700.00,13000.00,25000.00,M,M,YBBN 111900Z 19004KT 9999 FEW027 SCT130 BKN250 23/19 Q1008 NOSIG
YBBN,2015-12-11 19:30,153.1292,-27.3917,73.40,66.20,78.19,170.00,3.00,0.00,29.80,M,6.21,M,FEW,SCT,BKN,M,2700.00,10500.00,16000.00,M,M,YBBN 111930Z 17003KT 9999 FEW027 SCT105 BKN160 23/19 Q1009 NOSIG
YBBN,2015-12-11 20:00,153.1292,-27.3917,73.40,66.20,78.19,0.00,0.00,0.00,29.83,M,6.21,M,FEW,SCT,BKN,M,2200.00,6300.00,11000.00,M,-RA,YBBN 112000Z 00000KT 9999 -RA FEW022 SCT063 BKN110 23/19 Q1010 NOSIG
YBBN,2015-12-11 20:30,153.1292,-27.3917,73.40,66.20,78.19,270.00,5.00,0.00,29.85,M,6.21,M,NSC,M,M,M,M,M,M,M,-RA,YBBN 112030Z 27005KT 9999 -RA NSC 23/19 Q1011 NOSIG
YBBN,2015-12-11 21:00,153.1292,-27.3917,71.60,68.00,88.43,210.00,6.00,0.00,29.85,M,6.21,M,NSC,M,M,M,M,M,M,M,-RA,YBBN 112100Z 21006KT 9999 -RA NSC 22/20 Q1011 NOSIG
YBBN,2015-12-11 22:00,153.1292,-27.3917,73.40,68.00,83.21,240.00,8.00,0.00,29.85,M,6.21,M,FEW,BKN,OVC,M,2000.00,10000.00,13000.00,M,-RA,YBBN 112200Z 24008KT 9999 -RA FEW020 BKN100 OVC130 23/20 Q1011
YBBN,2015-12-11 23:00,153.1292,-27.3917,71.60,66.20,83.09,220.00,11.00,0.00,29.91,M,5.59,M,NSC,M,M,M,M,M,M,M,-RA,YBBN 112300Z 22011KT 9000 -RA NSC 22/19 Q1013
