#DEBUG: Format Typ    -> comma
#DEBUG: Time Period   -> 2012-09-21 00:00:00+00:00 2012-09-22 00:00:00+00:00
#DEBUG: Time Zone     -> Etc/UTC
#DEBUG: Data Contact   -> daryl herzmann akrherz@iastate.edu 515-294-5978
#DEBUG: Entries Found -> -1
station,valid,lon,lat,tmpf, dwpf, relh, drct, sknt, p01i, alti, mslp, vsby, gust, skyc1, skyc2, skyc3, skyc4, skyl1, skyl2, skyl3, skyl4, presentwx, metar
YBBN,2012-09-21 00:00,153.1292,-27.3917,69.80,62.60,77.90,10.00,2.00,0.00,30.06,M,6.21,M,FEW,BKN,M,M,900.00,16000.00,M,M,M,YBBN 210000Z 01002KT 9999 FEW009 BKN160 21/17 Q1018 RMK FU/HZ
YBBN,2012-09-21 00:30,153.1292,-27.3917,73.40,59.00,60.67,10.00,6.00,0.00,30.03,M,6.21,M,FEW,SCT,M,M,900.00,18000.00,M,M,M,YBBN 210030Z 01006KT 9999 FEW009 SCT180 23/15 Q1017 RMK FU/HZ
YBBN,2012-09-21 01:00,153.1292,-27.3917,73.40,60.80,64.69,50.00,4.00,0.00,30.03,M,6.21,M,FEW,SCT,M,M,2000.00,18000.00,M,M,M,YBBN 210100Z 05004KT 9999 FEW020 SCT180 23/16 Q1017 NOSIG
YBBN,2012-09-21 01:30,153.1292,-27.3917,73.40,60.80,64.69,40.00,7.00,0.00,30.00,M,6.21,M,FEW,SCT,M,M,2500.00,16000.00,M,M,M,YBBN 210130Z 04007KT 9999 FEW025 SCT160 23/16 Q1016 RMK FU/HZ
YBBN,2012-09-21 02:00,153.1292,-27.3917,73.40,60.80,64.69,30.00,9.00,0.00,30.00,M,6.21,M,M,M,M,M,M,M,M,M,M,YBBN 210200Z 03009KT CAVOK 23/16 Q1016 NOSIG
YBBN,2012-09-21 02:30,153.1292,-27.3917,73.40,60.80,64.69,30.00,10.00,0.00,29.97,M,6.21,M,M,M,M,M,M,M,M,M,M,YBBN 210230Z 03010KT CAVOK 23/16 Q1015 RMK FU 6AC140
YBBN,2012-09-21 03:00,153.1292,-27.3917,71.60,60.80,68.75,40.00,10.00,0.00,29.97,M,6.21,M,M,M,M,M,M,M,M,M,M,YBBN 210300Z 04010KT CAVOK 22/16 Q1015 RMK 7AC120
YBBN,2012-09-21 03:30,153.1292,-27.3917,73.40,60.80,64.69,30.00,11.00,0.00,29.94,M,6.21,M,BKN,BKN,M,M,11000.00,25000.00,M,M,-SHRA,YBBN 210330Z 03011KT 9999 -SHRA BKN110 BKN250 23/16 Q1014
YBBN,2012-09-21 04:00,153.1292,-27.3917,71.60,64.40,78.04,30.00,13.00,0.00,29.94,M,6.21,M,M,M,M,M,M,M,M,M,M,YBBN 210400Z 03013KT CAVOK 22/18 Q1014 RMK 5AC110 5AC180
YBBN,2012-09-21 04:30,153.1292,-27.3917,69.80,64.40,82.98,360.00,8.00,0.00,29.94,M,6.21,M,M,M,M,M,M,M,M,M,M,YBBN 210430Z 36008KT CAVOK 21/18 Q1014 RMK DIST SHWRS TO W 7AC110
YBBN,2012-09-21 05:00,153.1292,-27.3917,69.80,66.20,88.34,360.00,9.00,0.00,29.94,M,6.21,M,M,M,M,M,M,M,M,M,M,YBBN 210500Z 36009KT CAVOK 21/19 Q1014 INTER 0500/0800 VRB25G40KT 3000 TSRA SCT015 BKN060CB
YBBN,2012-09-21 05:30,153.1292,-27.3917,69.80,66.20,88.34,360.00,12.00,0.00,29.94,M,6.21,M,FEW,SCT,BKN,M,4000.00,5300.00,10000.00,M,-SHRA,YBBN 210530Z 36012KT 9999 -SHRA FEW040 SCT053 BKN100 21/19 Q1014
YBBN,2012-09-21 06:00,153.1292,-27.3917,71.60,68.00,88.43,330.00,13.00,0.00,29.94,M,6.21,M,FEW,BKN,M,M,400.00,11000.00,M,M,-SHRA,YBBN 210600Z 33013KT 9999 -SHRA FEW004 BKN110 22/20 Q1014 NOSIG
YBBN,2012-09-21 06:30,153.1292,-27.3917,69.80,62.60,77.90,290.00,8.00,0.00,29.94,M,6.21,M,FEW,BKN,M,M,7600.00,16000.00,M,M,-SHRA,YBBN 210630Z 29008KT 9999 -SHRA FEW076 BKN160 21/17 Q1014
YBBN,2012-09-21 07:00,153.1292,-27.3917,69.80,60.80,73.09,310.00,7.00,0.00,29.94,M,6.21,M,FEW,BKN,BKN,M,4400.00,8300.00,11000.00,M,-SHRA,YBBN 210700Z 31007KT 9999 -SHRA FEW044 BKN083 BKN110 21/16 Q1014 NOSIG
YBBN,2012-09-21 07:30,153.1292,-27.3917,68.00,62.60,82.86,350.00,7.00,0.00,29.91,M,6.21,M,FEW,BKN,M,M,4200.00,16000.00,M,M,M,YBBN 210730Z 35007KT 9999 FEW042 BKN160 20/17 Q1013
YBBN,2012-09-21 08:00,153.1292,-27.3917,68.00,62.60,82.86,350.00,14.00,0.00,29.91,M,6.21,M,M,M,M,M,M,M,M,M,M,YBBN 210800Z 35014KT CAVOK 20/17 Q1013
YBBN,2012-09-21 08:30,153.1292,-27.3917,69.80,60.80,73.09,330.00,13.00,0.00,29.91,M,6.21,M,FEW,SCT,BKN,M,2000.00,15500.00,23000.00,M,M,YBBN 210830Z 33013KT 9999 FEW020 SCT155 BKN230 21/16 Q1013
YBBN,2012-09-21 09:00,153.1292,-27.3917,68.00,60.80,77.75,340.00,13.00,0.00,29.94,M,6.21,M,FEW,SCT,M,M,2200.00,23000.00,M,M,M,YBBN 210900Z 34013KT 9999 FEW022 SCT230 20/16 Q1014
YBBN,2012-09-21 09:30,153.1292,-27.3917,69.80,60.80,73.09,340.00,15.00,0.00,29.94,M,6.21,M,FEW,SCT,M,M,2200.00,23000.00,M,M,M,YBBN 210930Z 34015KT 9999 FEW022 SCT230 21/16 Q1014
YBBN,2012-09-21 10:00,153.1292,-27.3917,68.00,60.80,77.75,340.00,14.00,0.00,29.94,M,6.21,M,FEW,SCT,M,M,2500.00,25000.00,M,M,M,YBBN 211000Z 34014KT 9999 FEW025 SCT250 20/16 Q1014
YBBN,2012-09-21 10:30,153.1292,-27.3917,68.00,60.80,77.75,340.00,10.00,0.00,29.94,M,6.21,M,FEW,M,M,M,2500.00,M,M,M,M,YBBN 211030Z 34010KT 9999 FEW025 20/16 Q1014
YBBN,2012-09-21 11:00,153.1292,-27.3917,68.00,60.80,77.75,340.00,8.00,0.00,29.94,M,6.21,M,FEW,M,M,M,2500.00,M,M,M,M,YBBN 211100Z 34008KT 9999 FEW025 20/16 Q1014
YBBN,2012-09-21 11:30,153.1292,-27.3917,64.40,60.80,88.09,220.00,7.00,0.00,29.94,M,6.21,M,M,M,M,M,M,M,M,M,M,YBBN 211130Z 22007KT CAVOK 18/16 Q1014
YBBN,2012-09-21 12:00,153.1292,-27.3917,64.40,60.80,88.09,250.00,5.00,0.00,29.94,M,6.21,M,FEW,SCT,M,M,4800.00,12000.00,M,M,M,YBBN 211200Z 25005KT 9999 FEW048 SCT120 18/16 Q1014
YBBN,2012-09-21 12:30,153.1292,-27.3917,62.60,59.00,88.00,320.00,5.00,0.00,29.94,M,6.21,M,FEW,SCT,M,M,1800.00,12000.00,M,M,M,YBBN 211230Z 32005KT 9999 FEW018 SCT120 17/15 Q1014
YBBN,2012-09-21 13:00,153.1292,-27.3917,62.60,59.00,88.00,330.00,3.00,0.00,29.94,M,6.21,M,FEW,M,M,M,1800.00,M,M,M,M,YBBN 211300Z 33003KT 9999 FEW018 17/15 Q1014 NOSIG
YBBN,2012-09-21 13:30,153.1292,-27.3917,62.60,59.00,88.00,250.00,3.00,0.00,29.94,M,6.21,M,M,M,M,M,M,M,M,M,M,YBBN 211330Z 25003KT CAVOK 17/15 Q1014 RMK FU
YBBN,2012-09-21 13:50,153.1292,-27.3917,60.80,59.00,93.79,0.00,0.00,0.00,29.94,M,6.21,M,CLR,M,M,M,M,M,M,M,MIFG,YBBN 211350Z 00000KT 9999 MIFG SKC 16/15 Q1014
YBBN,2012-09-21 14:00,153.1292,-27.3917,60.80,60.80,100.00,0.00,0.00,0.00,29.94,M,6.21,M,CLR,M,M,M,M,M,M,M,BCFG MIFG,YBBN 211400Z 00000KT 9999 BCFG MIFG SKC 16/16 Q1014 RMK WET BULB DEPRESSION 0.3DEG FM1430 30004KT 9999 FEW014
YBBN,2012-09-21 14:11,153.1292,-27.3917,60.80,59.00,93.79,280.00,2.00,0.00,29.94,M,6.21,M,CLR,M,M,M,M,M,M,M,MIFG,YBBN 211411Z 28002KT 9999 MIFG SKC 16/15 Q1014
YBBN,2012-09-21 14:30,153.1292,-27.3917,60.80,59.00,93.79,0.00,0.00,0.00,29.94,M,6.21,M,CLR,M,M,M,M,M,M,M,MIFG,YBBN 211430Z 00000KT 9999 MIFG SKC 16/15 Q1014
YBBN,2012-09-21 15:00,153.1292,-27.3917,59.00,59.00,100.00,0.00,0.00,0.00,29.94,M,6.21,M,FEW,M,M,M,4800.00,M,M,M,MIFG,YBBN 211500Z 00000KT 9999 MIFG FEW048 15/15 Q1014
YBBN,2012-09-21 15:30,153.1292,-27.3917,60.80,57.20,87.92,310.00,3.00,0.00,29.91,M,6.21,M,M,M,M,M,M,M,M,M,M,YBBN 211530Z 31003KT CAVOK 16/14 Q1013
YBBN,2012-09-21 16:00,153.1292,-27.3917,60.80,59.00,93.79,280.00,4.00,0.00,29.91,M,6.21,M,M,M,M,M,M,M,M,M,M,YBBN 211600Z 28004KT CAVOK 16/15 Q1013
YBBN,2012-09-21 16:23,153.1292,-27.3917,59.00,57.20,93.74,0.00,0.00,0.00,29.91,M,6.21,M,CLR,M,M,M,M,M,M,M,MIFG,YBBN 211623Z 00000KT 9999 MIFG SKC 15/14 Q1013
YBBN,2012-09-21 16:30,153.1292,-27.3917,60.80,57.20,87.92,0.00,0.00,0.00,29.91,M,6.21,M,CLR,M,M,M,M,M,M,M,MIFG,YBBN 211630Z 00000KT 9999 MIFG SKC 16/14 Q1013
YBBN,2012-09-21 17:00,153.1292,-27.3917,59.00,57.20,93.74,230.00,1.00,0.00,29.91,M,6.21,M,CLR,M,M,M,M,M,M,M,MIFG,YBBN 211700Z 23001KT 9999 MIFG SKC 15/14 Q1013
YBBN,2012-09-21 17:30,153.1292,-27.3917,60.80,59.00,93.79,170.00,5.00,0.00,29.91,M,6.21,M,CLR,M,M,M,M,M,M,M,MIFG,YBBN 211730Z 17005KT 9999 MIFG SKC 16/15 Q1013 RMK FU/WET BULB DEPRESSION 1.0DEG
YBBN,2012-09-21 17:43,153.1292,-27.3917,60.80,59.00,93.79,180.00,4.00,0.00,29.88,M,6.21,M,M,M,M,M,M,M,M,M,M,YBBN 211743Z 18004KT CAVOK 16/15 Q1012 RMK FU
YBBN,2012-09-21 18:00,153.1292,-27.3917,60.80,59.00,93.79,170.00,3.00,0.00,29.88,M,6.21,M,M,M,M,M,M,M,M,M,M,YBBN 211800Z 17003KT CAVOK 16/15 Q1012 RMK FU
YBBN,2012-09-21 18:13,153.1292,-27.3917,60.80,57.20,87.92,170.00,3.00,0.00,29.88,M,6.21,M,CLR,M,M,M,M,M,M,M,MIFG,YBBN 211813Z 17003KT 9999 MIFG SKC 16/14 Q1012
YBBN,2012-09-21 18:30,153.1292,-27.3917,59.00,57.20,93.74,170.00,3.00,0.00,29.91,M,6.21,M,CLR,M,M,M,M,M,M,M,MIFG,YBBN 211830Z 17003KT 9999 MIFG SKC 15/14 Q1013
YBBN,2012-09-21 19:00,153.1292,-27.3917,57.20,55.40,93.69,300.00,5.00,0.00,29.91,M,6.21,M,FEW,M,M,M,4500.00,M,M,M,MIFG,YBBN 211900Z 30005KT 9999 MIFG FEW045 14/13 Q1013
YBBN,2012-09-21 19:30,153.1292,-27.3917,57.20,55.40,93.69,0.00,0.00,0.00,29.91,M,5.59,M,FEW,M,M,M,4500.00,M,M,M,BCFG MIFG,YBBN 211930Z 00000KT 9000 BCFG MIFG FEW045 14/13 Q1013
YBBN,2012-09-21 19:44,153.1292,-27.3917,57.20,55.40,93.69,0.00,0.00,0.00,29.91,M,5.59,M,FEW,M,M,M,10000.00,M,M,M,BCFG MIFG,YBBN 211944Z 00000KT 9000 4000NE BCFG MIFG FEW100 14/13 Q1013 RMK MIST/WET BULB DEPRESSION 0.4DEG
YBBN,2012-09-21 20:00,153.1292,-27.3917,57.20,55.40,93.69,250.00,2.00,0.00,29.91,M,6.21,M,FEW,M,M,M,12000.00,M,M,M,MIFG,YBBN 212000Z 25002KT 9999 MIFG FEW120 14/13 Q1013
YBBN,2012-09-21 20:30,153.1292,-27.3917,60.80,59.00,93.79,100.00,3.00,0.00,29.94,M,6.21,M,FEW,M,M,M,3000.00,M,M,M,M,YBBN 212030Z 10003KT 9999 FEW030 16/15 Q1014
YBBN,2012-09-21 21:00,153.1292,-27.3917,64.40,59.00,82.62,200.00,3.00,0.00,29.94,M,6.21,M,FEW,M,M,M,4500.00,M,M,M,M,YBBN 212100Z 20003KT 9999 FEW045 18/15 Q1014 NOSIG
YBBN,2012-09-21 21:30,153.1292,-27.3917,66.20,59.00,77.60,190.00,5.00,0.00,29.94,M,6.21,M,M,M,M,M,M,M,M,M,M,YBBN 212130Z 19005KT CAVOK 19/15 Q1014
YBBN,2012-09-21 22:00,153.1292,-27.3917,69.80,59.00,68.55,200.00,1.00,0.00,29.94,M,6.21,M,M,M,M,M,M,M,M,M,M,YBBN 212200Z 20001KT CAVOK 21/15 Q1014 NOSIG
YBBN,2012-09-21 22:30,153.1292,-27.3917,71.60,60.80,68.75,40.00,5.00,0.00,29.97,M,6.21,M,M,M,M,M,M,M,M,M,M,YBBN 212230Z 04005KT CAVOK 22/16 Q1015
YBBN,2012-09-21 23:00,153.1292,-27.3917,73.40,60.80,64.69,30.00,6.00,0.00,29.97,M,6.21,M,M,M,M,M,M,M,M,M,M,YBBN 212300Z 03006KT CAVOK 23/16 Q1015 NOSIG
YBBN,2012-09-21 23:30,153.1292,-27.3917,75.20,62.60,64.91,10.00,6.00,0.00,29.94,M,6.21,M,M,M,M,M,M,M,M,M,M,YBBN 212330Z 01006KT CAVOK 24/17 Q1014
