#DEBUG: Format Typ    -> comma
#DEBUG: Time Period   -> 2010-07-30 00:00:00+00:00 2010-07-31 00:00:00+00:00
#DEBUG: Time Zone     -> Etc/UTC
#DEBUG: Data Contact   -> daryl herzmann akrherz@iastate.edu 515-294-5978
#DEBUG: Entries Found -> -1
station,valid,lon,lat,tmpf, dwpf, relh, drct, sknt, p01i, alti, mslp, vsby, gust, skyc1, skyc2, skyc3, skyc4, skyl1, skyl2, skyl3, skyl4, presentwx, metar
YBBN,2010-07-30 01:00,153.1292,-27.3917,69.80,64.40,82.98,40.00,7.00,M,30.09,M,6.21,M,FEW,BKN,M,M,1400.00,30000.00,M,M,M,YBBN 300100Z 04007KT 9999 FEW014 BKN300 21/18 Q1019 RMK FU FM0100 02010KT 9999 SCT020
YBBN,2010-07-30 01:30,153.1292,-27.3917,71.60,64.40,78.04,10.00,7.00,M,30.09,M,6.21,M,FEW,BKN,M,M,1500.00,30000.00,M,M,M,YBBN 300130Z 01007KT 9999 FEW015 BKN300 22/18 Q1019 RMK FU NOSIG
YBBN,2010-07-30 02:00,153.1292,-27.3917,71.60,62.60,73.27,20.00,7.00,M,30.09,M,6.21,M,FEW,BKN,M,M,1800.00,30000.00,M,M,M,YBBN 300200Z 02007KT 9999 FEW018 BKN300 22/17 Q1019 RMK FU NOSIG
YBBN,2010-07-30 02:30,153.1292,-27.3917,73.40,64.40,73.44,30.00,7.00,M,30.09,M,6.21,M,FEW,BKN,M,M,2200.00,30000.00,M,M,M,YBBN 300230Z 03007KT 9999 FEW022 BKN300 23/18 Q1019 RMK FU NOSIG
YBBN,2010-07-30 03:00,153.1292,-27.3917,73.40,64.40,73.44,40.00,7.00,M,30.06,M,6.21,M,FEW,SCT,M,M,2500.00,30000.00,M,M,M,YBBN 300300Z 04007KT 9999 FEW025 SCT300 23/18 Q1018 NOSIG
YBBN,2010-07-30 03:30,153.1292,-27.3917,75.20,62.60,64.91,30.00,8.00,M,30.06,M,6.21,M,FEW,M,M,M,2800.00,M,M,M,M,YBBN 300330Z 03008KT 9999 FEW028 24/17 Q1018 NOSIG
YBBN,2010-07-30 04:00,153.1292,-27.3917,73.40,64.40,73.44,30.00,10.00,M,30.06,M,6.21,M,FEW,M,M,M,3000.00,M,M,M,M,YBBN 300400Z 03010KT 9999 FEW030 23/18 Q1018 NOSIG
YBBN,2010-07-30 04:30,153.1292,-27.3917,71.60,64.40,78.04,20.00,11.00,M,30.06,M,6.21,M,FEW,M,M,M,3000.00,M,M,M,M,YBBN 300430Z 02011KT 9999 FEW030 22/18 Q1018 NOSIG
YBBN,2010-07-30 05:00,153.1292,-27.3917,73.40,64.40,73.44,30.00,11.00,M,30.03,M,6.21,M,FEW,M,M,M,3000.00,M,M,M,M,YBBN 300500Z 03011KT 9999 FEW030 23/18 Q1017 NOSIG
YBBN,2010-07-30 05:30,153.1292,-27.3917,71.60,64.40,78.04,20.00,13.00,M,30.03,M,6.21,M,FEW,M,M,M,3000.00,M,M,M,M,YBBN 300530Z 02013KT 9999 FEW030 22/18 Q1017 NOSIG
YBBN,2010-07-30 06:00,153.1292,-27.3917,69.80,64.40,82.98,20.00,11.00,M,30.03,M,6.21,M,FEW,M,M,M,3000.00,M,M,M,M,YBBN 300600Z 02011KT 9999 FEW030 21/18 Q1017 NOSIG
YBBN,2010-07-30 06:30,153.1292,-27.3917,68.00,64.40,88.26,20.00,10.00,M,30.06,M,6.21,M,FEW,M,M,M,2800.00,M,M,M,M,YBBN 300630Z 02010KT 9999 FEW028 20/18 Q1018 NOSIG
YBBN,2010-07-30 07:00,153.1292,-27.3917,68.00,64.40,88.26,10.00,9.00,M,30.06,M,6.21,M,FEW,M,M,M,2500.00,M,M,M,M,YBBN 300700Z 01009KT 9999 FEW025 20/18 Q1018 NOSIG
YBBN,2010-07-30 07:30,153.1292,-27.3917,66.20,64.40,93.92,360.00,6.00,M,30.06,M,6.21,M,FEW,M,M,M,2500.00,M,M,M,M,YBBN 300730Z 36006KT 9999 FEW025 19/18 Q1018 NOSIG
YBBN,2010-07-30 08:00,153.1292,-27.3917,66.20,64.40,93.92,10.00,5.00,M,30.06,M,6.21,M,FEW,M,M,M,2500.00,M,M,M,M,YBBN 300800Z 01005KT 9999 FEW025 19/18 Q1018 NOSIG
YBBN,2010-07-30 08:30,153.1292,-27.3917,66.20,64.40,93.92,20.00,7.00,M,30.06,M,6.21,M,FEW,M,M,M,2500.00,M,M,M,M,YBBN 300830Z 02007KT 9999 FEW025 19/18 Q1018 NOSIG
YBBN,2010-07-30 09:00,153.1292,-27.3917,66.20,64.40,93.92,10.00,8.00,M,30.06,M,6.21,M,FEW,M,M,M,2000.00,M,M,M,M,YBBN 300900Z 01008KT 9999 FEW020 19/18 Q1018 NOSIG
YBBN,2010-07-30 09:30,153.1292,-27.3917,66.20,64.40,93.92,30.00,8.00,M,30.06,M,6.21,M,FEW,M,M,M,1000.00,M,M,M,M,YBBN 300930Z 03008KT 9999 FEW010 19/18 Q1018 RMK SMOKE NOSIG
YBBN,2010-07-30 10:00,153.1292,-27.3917,68.00,66.20,93.97,30.00,8.00,M,30.06,M,5.59,M,FEW,SCT,BKN,M,300.00,700.00,900.00,M,M,YBBN 301000Z 03008KT 9000 FEW003 SCT007 BKN009 20/19 Q1018 RMK MIST FM1100 01007KT 9999 FEW008 SCT020
YBBN,2010-07-30 10:26,153.1292,-27.3917,68.00,66.20,93.97,40.00,7.00,M,30.06,M,5.59,M,FEW,M,M,M,300.00,M,M,M,M,YBBN 301026Z 04007KT 9000 FEW003 20/19 Q1018 RMK MIST NOSIG
YBBN,2010-07-30 10:30,153.1292,-27.3917,68.00,66.20,93.97,30.00,6.00,M,30.06,M,5.59,M,FEW,M,M,M,300.00,M,M,M,M,YBBN 301030Z 03006KT 9000 FEW003 20/19 Q1018 RMK MIST NOSIG
YBBN,2010-07-30 11:00,153.1292,-27.3917,66.20,66.20,100.00,10.00,7.00,M,30.09,M,5.59,M,FEW,M,M,M,500.00,M,M,M,M,YBBN 301100Z 01007KT 9000 FEW005 19/19 Q1019 RMK MIST NOSIG
YBBN,2010-07-30 11:30,153.1292,-27.3917,66.20,66.20,100.00,10.00,8.00,M,30.09,M,5.59,M,FEW,SCT,M,M,500.00,6200.00,M,M,M,YBBN 301130Z 01008KT 9000 FEW005 SCT062 19/19 Q1019 RMK MIST NOSIG
YBBN,2010-07-30 12:00,153.1292,-27.3917,66.20,66.20,100.00,10.00,8.00,M,30.09,M,5.59,M,FEW,SCT,M,M,500.00,20000.00,M,M,M,YBBN 301200Z 01008KT 9000 FEW005 SCT200 19/19 Q1019 RMK MIST NOSIG
YBBN,2010-07-30 12:30,153.1292,-27.3917,66.20,64.40,93.92,10.00,9.00,M,30.09,M,6.21,M,FEW,SCT,M,M,500.00,20000.00,M,M,M,YBBN 301230Z 01009KT 9999 FEW005 SCT200 19/18 Q1019 RMK MIST NOSIG
YBBN,2010-07-30 13:00,153.1292,-27.3917,66.20,64.40,93.92,10.00,10.00,M,30.06,M,6.21,M,FEW,SCT,M,M,1000.00,20000.00,M,M,M,YBBN 301300Z 01010KT 9999 FEW010 SCT200 19/18 Q1018 RMK SMOKE NOSIG
YBBN,2010-07-30 13:30,153.1292,-27.3917,66.20,64.40,93.92,20.00,11.00,M,30.06,M,6.21,M,FEW,M,M,M,1000.00,M,M,M,M,YBBN 301330Z 02011KT 9999 FEW010 19/18 Q1018 NOSIG
YBBN,2010-07-30 14:00,153.1292,-27.3917,66.20,64.40,93.92,20.00,9.00,M,30.06,M,6.21,M,FEW,SCT,M,M,1200.00,20000.00,M,M,M,YBBN 301400Z 02009KT 9999 FEW012 SCT200 19/18 Q1018 NOSIG
YBBN,2010-07-30 14:30,153.1292,-27.3917,66.20,64.40,93.92,10.00,9.00,M,30.06,M,6.21,M,FEW,M,M,M,1800.00,M,M,M,M,YBBN 301430Z 01009KT 9999 FEW018 19/18 Q1018 NOSIG
YBBN,2010-07-30 15:00,153.1292,-27.3917,66.20,62.60,88.18,20.00,12.00,M,30.03,M,6.21,M,FEW,M,M,M,1800.00,M,M,M,M,YBBN 301500Z 02012KT 9999 FEW018 19/17 Q1017 NOSIG
YBBN,2010-07-30 15:30,153.1292,-27.3917,64.40,62.60,93.88,10.00,11.00,M,30.06,M,6.21,M,FEW,M,M,M,2000.00,M,M,M,M,YBBN 301530Z 01011KT 9999 FEW020 18/17 Q1018 NOSIG
YBBN,2010-07-30 16:00,153.1292,-27.3917,64.40,62.60,93.88,360.00,7.00,M,30.06,M,6.21,M,FEW,M,M,M,2000.00,M,M,M,M,YBBN 301600Z 36007KT 9999 FEW020 18/17 Q1018 NOSIG
YBBN,2010-07-30 16:30,153.1292,-27.3917,64.40,62.60,93.88,10.00,7.00,M,30.03,M,6.21,M,FEW,SCT,M,M,2000.00,20000.00,M,M,M,YBBN 301630Z 01007KT 9999 FEW020 SCT200 18/17 Q1017 NOSIG
YBBN,2010-07-30 17:00,153.1292,-27.3917,64.40,62.60,93.88,30.00,11.00,M,30.03,M,6.21,M,FEW,SCT,M,M,2000.00,19000.00,M,M,M,YBBN 301700Z 03011KT 9999 FEW020 SCT190 18/17 Q1017 NOSIG
YBBN,2010-07-30 17:30,153.1292,-27.3917,64.40,62.60,93.88,20.00,11.00,M,30.03,M,6.21,M,FEW,SCT,M,M,900.00,19000.00,M,M,M,YBBN 301730Z 02011KT 9999 FEW009 SCT190 18/17 Q1017 NOSIG
YBBN,2010-07-30 18:00,153.1292,-27.3917,66.20,62.60,88.18,20.00,12.00,M,30.03,M,6.21,M,FEW,M,M,M,800.00,M,M,M,M,YBBN 301800Z 02012KT 9999 FEW008 19/17 Q1017 NOSIG
