#DEBUG: Format Typ    -> comma
#DEBUG: Time Period   -> 2010-02-16 00:00:00+00:00 2010-02-17 00:00:00+00:00
#DEBUG: Time Zone     -> Etc/UTC
#DEBUG: Data Contact   -> daryl herzmann akrherz@iastate.edu 515-294-5978
#DEBUG: Entries Found -> -1
station,valid,lon,lat,tmpf, dwpf, relh, drct, sknt, p01i, alti, mslp, vsby, gust, skyc1, skyc2, skyc3, skyc4, skyl1, skyl2, skyl3, skyl4, presentwx, metar
YBBN,2010-02-16 03:30,153.1292,-27.3917,78.80,77.00,94.23,10.00,8.00,M,29.80,M,3.73,M,FEW,SCT,BKN,FEW,800.00,4500.00,7000.00,2000.00,-SHRA,YBBN 160330Z 01008KT 6000 -SHRA FEW008 SCT045 BKN070 FEW020CB 26/25 Q1009 RMK THUNDER HRD FM0330 02015KT 9999 -SHRA FEW015 SCT020 BKN060 TEMPO 0330/0630 2000 TSRA BKN010 SCT025CB
YBBN,2010-02-16 21:00,153.1292,-27.3917,71.60,69.80,94.06,210.00,4.00,M,29.88,M,6.21,M,FEW,OVC,M,M,800.00,2100.00,M,M,M,YBBN 162100Z 21004KT 9999 FEW008 OVC021 22/21 Q1012 RMK DISTANT SH TO WEST INTER 2100/2400 3000 SHRA BKN010
YBBN,2010-02-16 21:30,153.1292,-27.3917,71.60,69.80,94.06,230.00,4.00,M,29.91,M,4.97,M,FEW,OVC,M,M,1000.00,2000.00,M,M,-SHRA,YBBN 162130Z 23004KT 8000 -SHRA FEW010 OVC020 22/21 Q1013 RMK SH TO WEST INTER 2130/0030 3000 SHRA BKN010
