#DEBUG: Format Typ    -> comma
#DEBUG: Time Period   -> 2014-12-02 00:00:00+00:00 2014-12-03 00:00:00+00:00
#DEBUG: Time Zone     -> Etc/UTC
#DEBUG: Data Contact   -> daryl herzmann akrherz@iastate.edu 515-294-5978
#DEBUG: Entries Found -> -1
station,valid,lon,lat,tmpf, dwpf, relh, drct, sknt, p01i, alti, mslp, vsby, gust, skyc1, skyc2, skyc3, skyc4, skyl1, skyl2, skyl3, skyl4, presentwx, metar
YBBN,2014-12-02 00:00,153.1292,-27.3917,78.80,64.40,61.36,20.00,11.00,0.00,30.00,M,6.21,M,SCT,SCT,M,M,2800.00,14000.00,M,M,M,YBBN 020000Z 02011KT 9999 SCT028 SCT140 26/18 Q1016 NOSIG
YBBN,2014-12-02 00:30,153.1292,-27.3917,80.60,64.40,57.84,350.00,10.00,0.00,30.00,M,6.21,M,FEW,SCT,M,M,3000.00,14000.00,M,M,M,YBBN 020030Z 35010KT 9999 FEW030 SCT140 27/18 Q1016
YBBN,2014-12-02 01:00,153.1292,-27.3917,80.60,62.60,54.30,10.00,9.00,0.00,30.00,M,6.21,M,FEW,SCT,M,M,3000.00,14000.00,M,M,M,YBBN 020100Z 01009KT 9999 FEW030 SCT140 27/17 Q1016 NOSIG
YBBN,2014-12-02 01:30,153.1292,-27.3917,78.80,62.60,57.60,10.00,11.00,0.00,30.00,M,6.21,M,FEW,SCT,M,M,3000.00,10000.00,M,M,M,YBBN 020130Z 01011KT 9999 FEW030 SCT100 26/17 Q1016
YBBN,2014-12-02 02:00,153.1292,-27.3917,80.60,62.60,54.30,30.00,10.00,0.00,29.97,M,6.21,M,FEW,BKN,M,M,3500.00,10000.00,M,M,M,YBBN 020200Z 03010KT 9999 FEW035 BKN100 27/17 Q1015 NOSIG
YBBN,2014-12-02 02:30,153.1292,-27.3917,80.60,60.80,50.95,20.00,12.00,0.00,29.97,M,6.21,M,FEW,SCT,M,M,3500.00,10000.00,M,M,M,YBBN 020230Z 02012KT 9999 FEW035 SCT100 27/16 Q1015
YBBN,2014-12-02 03:00,153.1292,-27.3917,80.60,62.60,54.30,30.00,13.00,0.00,29.97,M,6.21,M,FEW,SCT,M,M,3500.00,10000.00,M,M,M,YBBN 020300Z 03013KT 9999 FEW035 SCT100 27/17 Q1015 NOSIG
YBBN,2014-12-02 03:30,153.1292,-27.3917,80.60,62.60,54.30,40.00,13.00,0.00,29.97,M,6.21,M,FEW,SCT,M,M,3500.00,10000.00,M,M,M,YBBN 020330Z 04013KT 9999 FEW035 SCT100 27/17 Q1015
YBBN,2014-12-02 04:00,153.1292,-27.3917,78.80,62.60,57.60,30.00,12.00,0.00,29.94,M,6.21,M,FEW,SCT,M,M,3800.00,10000.00,M,M,M,YBBN 020400Z 03012KT 9999 FEW038 SCT100 26/17 Q1014 NOSIG
YBBN,2014-12-02 04:30,153.1292,-27.3917,78.80,62.60,57.60,20.00,12.00,0.00,29.94,M,6.21,M,FEW,SCT,M,M,3800.00,12000.00,M,M,M,YBBN 020430Z 02012KT 9999 FEW038 SCT120 26/17 Q1014
YBBN,2014-12-02 05:00,153.1292,-27.3917,78.80,62.60,57.60,20.00,13.00,0.00,29.94,M,6.21,M,FEW,SCT,M,M,4000.00,12000.00,M,M,M,YBBN 020500Z 02013KT 9999 FEW040 SCT120 26/17 Q1014 NOSIG
YBBN,2014-12-02 05:30,153.1292,-27.3917,77.00,62.60,61.13,30.00,11.00,0.00,29.94,M,6.21,M,FEW,SCT,BKN,M,4000.00,12000.00,14000.00,M,M,YBBN 020530Z 03011KT 9999 FEW040 SCT120 BKN140 25/17 Q1014
YBBN,2014-12-02 06:00,153.1292,-27.3917,77.00,62.60,61.13,20.00,9.00,0.00,29.94,M,6.21,M,FEW,BKN,M,M,3200.00,14000.00,M,M,M,YBBN 020600Z 02009KT 9999 FEW032 BKN140 25/17 Q1014 NOSIG
YBBN,2014-12-02 06:30,153.1292,-27.3917,78.80,60.80,54.05,50.00,10.00,0.00,29.94,M,6.21,M,FEW,SCT,M,M,3200.00,15000.00,M,M,M,YBBN 020630Z 05010KT 9999 FEW032 SCT150 26/16 Q1014
YBBN,2014-12-02 07:00,153.1292,-27.3917,77.00,60.80,57.36,50.00,11.00,0.00,29.94,M,6.21,M,FEW,SCT,M,M,3000.00,15000.00,M,M,M,YBBN 020700Z 05011KT 9999 FEW030 SCT150 25/16 Q1014 NOSIG
YBBN,2014-12-02 07:30,153.1292,-27.3917,77.00,59.00,53.80,50.00,9.00,0.00,29.97,M,6.21,M,FEW,SCT,M,M,3000.00,26000.00,M,M,M,YBBN 020730Z 05009KT 9999 FEW030 SCT260 25/15 Q1015
YBBN,2014-12-02 08:00,153.1292,-27.3917,75.20,60.80,60.90,50.00,10.00,0.00,29.97,M,6.21,M,FEW,SCT,M,M,3000.00,14000.00,M,M,M,YBBN 020800Z 05010KT 9999 FEW030 SCT140 24/16 Q1015 NOSIG
YBBN,2014-12-02 08:30,153.1292,-27.3917,75.20,60.80,60.90,40.00,9.00,0.00,29.97,M,6.21,M,M,M,M,M,M,M,M,M,M,YBBN 020830Z 04009KT CAVOK 24/16 Q1015 RMK 5AC150
YBBN,2014-12-02 09:00,153.1292,-27.3917,75.20,60.80,60.90,30.00,10.00,0.00,30.00,M,6.21,M,M,M,M,M,M,M,M,M,M,YBBN 020900Z 03010KT CAVOK 24/16 Q1016
YBBN,2014-12-02 09:30,153.1292,-27.3917,75.20,60.80,60.90,40.00,9.00,0.00,30.00,M,6.21,M,FEW,M,M,M,3000.00,M,M,M,M,YBBN 020930Z 04009KT 9999 FEW030 24/16 Q1016
YBBN,2014-12-02 10:00,153.1292,-27.3917,73.40,62.60,68.94,30.00,9.00,0.00,30.00,M,6.21,M,FEW,M,M,M,3000.00,M,M,M,M,YBBN 021000Z 03009KT 9999 FEW030 23/17 Q1016
YBBN,2014-12-02 10:30,153.1292,-27.3917,73.40,62.60,68.94,30.00,9.00,0.00,30.00,M,6.21,M,FEW,M,M,M,3000.00,M,M,M,M,YBBN 021030Z 03009KT 9999 FEW030 23/17 Q1016
YBBN,2014-12-02 11:00,153.1292,-27.3917,73.40,60.80,64.69,30.00,9.00,0.00,30.03,M,6.21,M,FEW,M,M,M,3000.00,M,M,M,M,YBBN 021100Z 03009KT 9999 FEW030 23/16 Q1017
YBBN,2014-12-02 11:30,153.1292,-27.3917,73.40,60.80,64.69,30.00,8.00,0.00,30.03,M,6.21,M,FEW,M,M,M,3000.00,M,M,M,M,YBBN 021130Z 03008KT 9999 FEW030 23/16 Q1017
YBBN,2014-12-02 12:00,153.1292,-27.3917,71.60,62.60,73.27,20.00,8.00,0.00,30.03,M,6.21,M,FEW,M,M,M,3000.00,M,M,M,M,YBBN 021200Z 02008KT 9999 FEW030 22/17 Q1017 NOSIG
YBBN,2014-12-02 12:30,153.1292,-27.3917,73.40,60.80,64.69,30.00,8.00,0.00,30.03,M,6.21,M,FEW,SCT,M,M,3000.00,30000.00,M,M,M,YBBN 021230Z 03008KT 9999 FEW030 SCT300 23/16 Q1017
YBBN,2014-12-02 13:00,153.1292,-27.3917,71.60,62.60,73.27,30.00,7.00,0.00,30.03,M,6.21,M,FEW,M,M,M,3000.00,M,M,M,M,YBBN 021300Z 03007KT 9999 FEW030 22/17 Q1017
YBBN,2014-12-02 13:30,153.1292,-27.3917,71.60,62.60,73.27,30.00,7.00,0.00,30.00,M,6.21,M,FEW,M,M,M,3000.00,M,M,M,M,YBBN 021330Z 03007KT 9999 FEW030 22/17 Q1016
YBBN,2014-12-02 14:00,153.1292,-27.3917,69.80,62.60,77.90,30.00,6.00,0.00,30.00,M,6.21,M,FEW,M,M,M,3000.00,M,M,M,M,YBBN 021400Z 03006KT 9999 FEW030 21/17 Q1016 NOSIG
YBBN,2014-12-02 14:30,153.1292,-27.3917,69.80,62.60,77.90,30.00,6.00,0.00,29.97,M,6.21,M,FEW,M,M,M,3000.00,M,M,M,M,YBBN 021430Z 03006KT 9999 FEW030 21/17 Q1015
YBBN,2014-12-02 15:00,153.1292,-27.3917,71.60,64.40,78.04,30.00,5.00,0.00,29.97,M,6.21,M,SCT,M,M,M,2700.00,M,M,M,M,YBBN 021500Z 03005KT 9999 SCT027 22/18 Q1015
YBBN,2014-12-02 15:30,153.1292,-27.3917,71.60,64.40,78.04,40.00,6.00,0.00,29.97,M,6.21,M,SCT,M,M,M,2500.00,M,M,M,M,YBBN 021530Z 04006KT 9999 SCT025 22/18 Q1015
YBBN,2014-12-02 16:00,153.1292,-27.3917,71.60,64.40,78.04,30.00,6.00,0.00,29.97,M,6.21,M,FEW,M,M,M,2500.00,M,M,M,M,YBBN 021600Z 03006KT 9999 FEW025 22/18 Q1015 NOSIG
YBBN,2014-12-02 16:30,153.1292,-27.3917,71.60,64.40,78.04,40.00,5.00,0.00,29.97,M,6.21,M,FEW,M,M,M,2500.00,M,M,M,M,YBBN 021630Z 04005KT 9999 FEW025 22/18 Q1015
YBBN,2014-12-02 17:00,153.1292,-27.3917,69.80,64.40,82.98,30.00,2.00,0.00,29.97,M,6.21,M,BKN,M,M,M,2500.00,M,M,M,M,YBBN 021700Z 03002KT 9999 BKN025 21/18 Q1015 NOSIG
YBBN,2014-12-02 17:30,153.1292,-27.3917,69.80,62.60,77.90,230.00,5.00,0.00,30.00,M,6.21,M,BKN,M,M,M,2400.00,M,M,M,M,YBBN 021730Z 23005KT 9999 BKN024 21/17 Q1016
YBBN,2014-12-02 18:00,153.1292,-27.3917,69.80,62.60,77.90,220.00,4.00,0.00,30.00,M,6.21,M,FEW,M,M,M,2400.00,M,M,M,M,YBBN 021800Z 22004KT 9999 FEW024 21/17 Q1016 NOSIG
YBBN,2014-12-02 18:30,153.1292,-27.3917,68.00,62.60,82.86,210.00,4.00,0.00,30.00,M,6.21,M,FEW,M,M,M,2400.00,M,M,M,M,YBBN 021830Z 21004KT 9999 FEW024 20/17 Q1016
YBBN,2014-12-02 19:00,153.1292,-27.3917,68.00,62.60,82.86,200.00,5.00,0.00,30.03,M,6.21,M,FEW,M,M,M,2400.00,M,M,M,M,YBBN 021900Z 20005KT 9999 FEW024 20/17 Q1017 FM1930 VRB07KT 9999 -SHRA SCT025 BKN035
YBBN,2014-12-02 19:30,153.1292,-27.3917,69.80,64.40,82.98,210.00,5.00,0.00,30.03,M,6.21,M,FEW,SCT,M,M,2400.00,3500.00,M,M,M,YBBN 021930Z 21005KT 9999 FEW024 SCT035 21/18 Q1017
YBBN,2014-12-02 20:00,153.1292,-27.3917,71.60,64.40,78.04,210.00,5.00,0.00,30.03,M,6.21,M,SCT,M,M,M,2400.00,M,M,M,M,YBBN 022000Z 21005KT 9999 SCT024 22/18 Q1017 NOSIG
YBBN,2014-12-02 20:30,153.1292,-27.3917,73.40,64.40,73.44,200.00,5.00,0.00,30.03,M,6.21,M,FEW,M,M,M,2400.00,M,M,M,M,YBBN 022030Z 20005KT 9999 FEW024 23/18 Q1017
YBBN,2014-12-02 21:00,153.1292,-27.3917,75.20,64.40,69.14,230.00,5.00,0.00,30.06,M,6.21,M,SCT,M,M,M,2500.00,M,M,M,M,YBBN 022100Z 23005KT 9999 SCT025 24/18 Q1018 FM2300 02008KT 9999 SCT025
YBBN,2014-12-02 21:30,153.1292,-27.3917,78.80,66.20,65.33,350.00,4.00,0.00,30.06,M,6.21,M,SCT,M,M,M,2500.00,M,M,M,M,YBBN 022130Z 35004KT 9999 SCT025 26/19 Q1018
YBBN,2014-12-02 22:00,153.1292,-27.3917,78.80,66.20,65.33,360.00,7.00,0.00,30.03,M,6.21,M,SCT,M,M,M,2800.00,M,M,M,M,YBBN 022200Z 36007KT 9999 SCT028 26/19 Q1017
YBBN,2014-12-02 22:30,153.1292,-27.3917,78.80,66.20,65.33,20.00,7.00,0.00,30.03,M,6.21,M,SCT,M,M,M,2800.00,M,M,M,M,YBBN 022230Z 02007KT 9999 SCT028 26/19 Q1017
YBBN,2014-12-02 23:00,153.1292,-27.3917,78.80,66.20,65.33,30.00,6.00,0.00,30.03,M,6.21,M,SCT,M,M,M,2600.00,M,M,M,M,YBBN 022300Z 03006KT 9999 SCT026 26/19 Q1017
YBBN,2014-12-02 23:30,153.1292,-27.3917,80.60,66.20,61.58,20.00,7.00,0.00,30.03,M,6.21,M,SCT,M,M,M,2800.00,M,M,M,M,YBBN 022330Z 02007KT 9999 SCT028 27/19 Q1017
