#DEBUG: Format Typ    -> comma
#DEBUG: Time Period   -> 2011-03-11 00:00:00+00:00 2011-03-12 00:00:00+00:00
#DEBUG: Time Zone     -> Etc/UTC
#DEBUG: Data Contact   -> daryl herzmann akrherz@iastate.edu 515-294-5978
#DEBUG: Entries Found -> -1
station,valid,lon,lat,tmpf, dwpf, relh, drct, sknt, p01i, alti, mslp, vsby, gust, skyc1, skyc2, skyc3, skyc4, skyl1, skyl2, skyl3, skyl4, presentwx, metar
YBBN,2011-03-11 00:00,153.1292,-27.3917,80.60,64.40,57.84,80.00,8.00,M,30.00,M,6.21,M,SCT,M,M,M,2700.00,M,M,M,-SHRA VCSH,YBBN 110000Z 08008KT 9999 -SHRA VCSH SCT027 27/18 Q1016 RMK SH EAST NOSIG
YBBN,2011-03-11 00:30,153.1292,-27.3917,78.80,66.20,65.33,40.00,8.00,M,30.00,M,6.21,M,FEW,BKN,M,M,2300.00,2800.00,M,M,M,YBBN 110030Z 04008KT 9999 FEW023 BKN028 26/19 Q1016 RMK DIST SH SE NOSIG
YBBN,2011-03-11 01:00,153.1292,-27.3917,80.60,66.20,61.58,60.00,7.00,M,30.00,M,6.21,M,SCT,SCT,M,M,2800.00,32000.00,M,M,M,YBBN 110100Z 06007KT 9999 SCT028 SCT320 27/19 Q1016 RMK DIST SH SE NOSIG
YBBN,2011-03-11 01:30,153.1292,-27.3917,80.60,66.20,61.58,60.00,8.00,M,30.00,M,6.21,M,SCT,SCT,M,M,2800.00,32000.00,M,M,M,YBBN 110130Z 06008KT 9999 SCT028 SCT320 27/19 Q1016 NOSIG
YBBN,2011-03-11 02:00,153.1292,-27.3917,82.40,64.40,54.55,80.00,7.00,M,30.00,M,6.21,M,SCT,SCT,M,M,2800.00,32000.00,M,M,M,YBBN 110200Z 08007KT 9999 SCT028 SCT320 28/18 Q1016 RMK DIST SH S NOSIG
YBBN,2011-03-11 02:30,153.1292,-27.3917,80.60,64.40,57.84,70.00,8.00,M,30.00,M,6.21,M,SCT,SCT,M,M,2800.00,32000.00,M,M,M,YBBN 110230Z 07008KT 9999 SCT028 SCT320 27/18 Q1016 RMK DIST SH SE NOSIG
YBBN,2011-03-11 03:00,153.1292,-27.3917,82.40,64.40,54.55,50.00,9.00,M,30.00,M,6.21,M,SCT,SCT,BKN,M,2900.00,18000.00,32000.00,M,M,YBBN 110300Z 05009KT 9999 SCT029 SCT180 BKN320 28/18 Q1016 RMK DIST SH S/SE NOSIG
YBBN,2011-03-11 03:30,153.1292,-27.3917,80.60,66.20,61.58,80.00,9.00,M,29.97,M,6.21,M,SCT,BKN,M,M,2900.00,32000.00,M,M,M,YBBN 110330Z 08009KT 9999 SCT029 BKN320 27/19 Q1015 RMK DIST SH N/S NOSIG
YBBN,2011-03-11 04:00,153.1292,-27.3917,82.40,68.00,61.81,80.00,9.00,M,29.97,M,6.21,M,FEW,BKN,M,M,2700.00,32000.00,M,M,M,YBBN 110400Z 08009KT 9999 FEW027 BKN320 28/20 Q1015 RMK DIST SH NW/SE NOSIG
YBBN,2011-03-11 04:30,153.1292,-27.3917,80.60,68.00,65.54,60.00,11.00,M,29.97,M,6.21,M,FEW,BKN,M,M,2700.00,32000.00,M,M,M,YBBN 110430Z 06011KT 9999 FEW027 BKN320 27/20 Q1015 RMK HZ/DIST SH N/S NOSIG
YBBN,2011-03-11 05:00,153.1292,-27.3917,78.80,66.20,65.33,70.00,10.00,M,29.97,M,6.21,M,FEW,BKN,M,M,2300.00,32000.00,M,M,M,YBBN 110500Z 07010KT 9999 FEW023 BKN320 26/19 Q1015 RMK HZ/DIST SH NE/SW NOSIG
YBBN,2011-03-11 05:30,153.1292,-27.3917,78.80,66.20,65.33,80.00,9.00,M,29.97,M,6.21,M,FEW,BKN,M,M,2300.00,32000.00,M,M,M,YBBN 110530Z 08009KT 9999 FEW023 BKN320 26/19 Q1015 RMK HZ/DIST SH SW NOSIG
YBBN,2011-03-11 06:00,153.1292,-27.3917,78.80,64.40,61.36,80.00,8.00,M,29.97,M,6.21,M,FEW,SCT,BKN,M,2300.00,18000.00,30000.00,M,M,YBBN 110600Z 08008KT 9999 FEW023 SCT180 BKN300 26/18 Q1015 RMK HZ/DIST SH SW NOSIG
YBBN,2011-03-11 06:30,153.1292,-27.3917,78.80,66.20,65.33,70.00,10.00,M,29.97,M,6.21,M,FEW,BKN,M,M,2200.00,30000.00,M,M,M,YBBN 110630Z 07010KT 9999 FEW022 BKN300 26/19 Q1015 RMK HZ NOSIG
YBBN,2011-03-11 07:00,153.1292,-27.3917,78.80,66.20,65.33,80.00,9.00,M,29.97,M,6.21,M,FEW,SCT,BKN,M,2200.00,18000.00,30000.00,M,M,YBBN 110700Z 08009KT 9999 FEW022 SCT180 BKN300 26/19 Q1015 RMK HZ NOSIG
YBBN,2011-03-11 07:30,153.1292,-27.3917,77.00,66.20,69.33,80.00,9.00,M,29.97,M,6.21,M,FEW,SCT,BKN,M,2200.00,23000.00,30000.00,M,M,YBBN 110730Z 08009KT 9999 FEW022 SCT230 BKN300 25/19 Q1015 RMK HZ NOSIG
YBBN,2011-03-11 08:00,153.1292,-27.3917,77.00,66.20,69.33,80.00,8.00,M,29.97,M,6.21,M,FEW,SCT,BKN,M,2200.00,17500.00,30000.00,M,M,YBBN 110800Z 08008KT 9999 FEW022 SCT175 BKN300 25/19 Q1015 RMK HZ/VIRGA NOSIG
YBBN,2011-03-11 08:30,153.1292,-27.3917,77.00,66.20,69.33,70.00,9.00,M,30.00,M,6.21,M,FEW,BKN,M,M,2500.00,24000.00,M,M,M,YBBN 110830Z 07009KT 9999 FEW025 BKN240 25/19 Q1016 NOSIG
YBBN,2011-03-11 09:00,153.1292,-27.3917,77.00,66.20,69.33,80.00,8.00,M,30.00,M,6.21,M,FEW,BKN,M,M,2500.00,24000.00,M,M,M,YBBN 110900Z 08008KT 9999 FEW025 BKN240 25/19 Q1016 NOSIG
YBBN,2011-03-11 09:30,153.1292,-27.3917,77.00,66.20,69.33,70.00,8.00,M,30.03,M,6.21,M,SCT,BKN,M,M,2800.00,24000.00,M,M,M,YBBN 110930Z 07008KT 9999 SCT028 BKN240 25/19 Q1017 NOSIG
YBBN,2011-03-11 10:00,153.1292,-27.3917,77.00,66.20,69.33,60.00,8.00,M,30.03,M,6.21,M,FEW,BKN,M,M,2800.00,24000.00,M,M,M,YBBN 111000Z 06008KT 9999 FEW028 BKN240 25/19 Q1017 NOSIG
YBBN,2011-03-11 10:30,153.1292,-27.3917,77.00,66.20,69.33,60.00,8.00,M,30.03,M,6.21,M,SCT,SCT,BKN,M,2800.00,6500.00,24000.00,M,VCSH,YBBN 111030Z 06008KT 9999 VCSH SCT028 SCT065 BKN240 25/19 Q1017 NOSIG
YBBN,2011-03-11 11:00,153.1292,-27.3917,77.00,68.00,73.78,70.00,7.00,M,30.06,M,5.59,M,FEW,SCT,BKN,M,2000.00,2800.00,6900.00,M,-SHRA VCSH,YBBN 111100Z 07007KT 9000 -SHRA VCSH FEW020 SCT028 BKN069 25/20 Q1018 NOSIG
YBBN,2011-03-11 11:30,153.1292,-27.3917,73.40,68.00,83.21,50.00,8.00,M,30.06,M,6.21,M,SCT,SCT,M,M,2500.00,3900.00,M,M,VCSH,YBBN 111130Z 05008KT 9999 VCSH SCT025 SCT039 23/20 Q1018 NOSIG
YBBN,2011-03-11 12:00,153.1292,-27.3917,77.00,68.00,73.78,70.00,9.00,M,30.06,M,6.21,M,SCT,BKN,M,M,2600.00,10000.00,M,M,VCSH,YBBN 111200Z 07009KT 9999 VCSH SCT026 BKN100 25/20 Q1018 NOSIG
YBBN,2011-03-11 12:30,153.1292,-27.3917,77.00,68.00,73.78,70.00,8.00,M,30.06,M,6.21,M,FEW,BKN,M,M,2800.00,25000.00,M,M,M,YBBN 111230Z 07008KT 9999 FEW028 BKN250 25/20 Q1018 NOSIG
YBBN,2011-03-11 13:00,153.1292,-27.3917,77.00,68.00,73.78,80.00,7.00,M,30.03,M,6.21,M,FEW,SCT,M,M,3000.00,27000.00,M,M,M,YBBN 111300Z 08007KT 9999 FEW030 SCT270 25/20 Q1017 NOSIG
YBBN,2011-03-11 13:30,153.1292,-27.3917,75.20,68.00,78.34,80.00,7.00,M,30.03,M,6.21,M,FEW,BKN,M,M,3000.00,27000.00,M,M,M,YBBN 111330Z 08007KT 9999 FEW030 BKN270 24/20 Q1017 NOSIG
YBBN,2011-03-11 14:00,153.1292,-27.3917,75.20,66.20,73.61,90.00,7.00,M,30.03,M,6.21,M,FEW,BKN,M,M,3000.00,30000.00,M,M,M,YBBN 111400Z 09007KT 9999 FEW030 BKN300 24/19 Q1017 NOSIG
YBBN,2011-03-11 14:30,153.1292,-27.3917,75.20,66.20,73.61,90.00,7.00,M,30.03,M,6.21,M,SCT,BKN,M,M,2600.00,30000.00,M,M,M,YBBN 111430Z 09007KT 9999 SCT026 BKN300 24/19 Q1017 NOSIG
YBBN,2011-03-11 15:00,153.1292,-27.3917,75.20,68.00,78.34,100.00,6.00,M,30.03,M,6.21,M,SCT,SCT,M,M,2600.00,30000.00,M,M,VCSH,YBBN 111500Z 10006KT 9999 9000E VCSH SCT026 SCT300 24/20 Q1017 NOSIG
YBBN,2011-03-11 15:30,153.1292,-27.3917,73.40,68.00,83.21,100.00,6.00,M,30.03,M,5.59,M,FEW,BKN,M,M,1800.00,2200.00,M,M,-SHRA VCSH,YBBN 111530Z 10006KT 9000 -SHRA VCSH FEW018 BKN022 23/20 Q1017 NOSIG
YBBN,2011-03-11 21:30,153.1292,-27.3917,75.20,71.60,88.59,160.00,3.00,M,30.09,M,5.59,M,FEW,SCT,BKN,M,1600.00,6000.00,30000.00,M,-SHRA VCSH,YBBN 112130Z 16003KT 9000 -SHRA VCSH FEW016 SCT060 BKN300 24/22 Q1019 RMK SH SW INTER 2130/2400 3000 SHRA BKN015
YBBN,2011-03-11 22:00,153.1292,-27.3917,77.00,69.80,78.48,70.00,6.00,M,30.09,M,6.21,M,FEW,SCT,M,M,1800.00,15800.00,M,M,M,YBBN 112200Z 07006KT 9999 FEW018 SCT158 25/21 Q1019 RMK VIRGA INTER 2200/2400 3000 SHRA BKN015
YBBN,2011-03-11 22:30,153.1292,-27.3917,77.00,68.00,73.78,80.00,7.00,M,30.09,M,6.21,M,FEW,SCT,M,M,1800.00,15500.00,M,M,M,YBBN 112230Z 08007KT 9999 FEW018 SCT155 25/20 Q1019 RMK HZ/VIRGA/DIST SH SE INTER 2230/2400 3000 SHRA BKN015
YBBN,2011-03-11 23:00,153.1292,-27.3917,78.80,68.00,69.52,70.00,10.00,M,30.12,M,6.21,M,SCT,SCT,M,M,2500.00,15500.00,M,M,M,YBBN 112300Z 07010KT 9999 SCT025 SCT155 26/20 Q1020 RMK HZ/DIST SH S NOSIG
YBBN,2011-03-11 23:30,153.1292,-27.3917,78.80,68.00,69.52,70.00,11.00,M,30.12,M,6.21,M,SCT,SCT,BKN,M,2500.00,6000.00,15500.00,M,M,YBBN 112330Z 07011KT 9999 SCT025 SCT060 BKN155 26/20 Q1020 RMK HZ/DIST SH S NOSIG
