#DEBUG: Format Typ    -> comma
#DEBUG: Time Period   -> 2014-11-24 00:00:00+00:00 2014-11-25 00:00:00+00:00
#DEBUG: Time Zone     -> Etc/UTC
#DEBUG: Data Contact   -> daryl herzmann akrherz@iastate.edu 515-294-5978
#DEBUG: Entries Found -> -1
station,valid,lon,lat,tmpf, dwpf, relh, drct, sknt, p01i, alti, mslp, vsby, gust, skyc1, skyc2, skyc3, skyc4, skyl1, skyl2, skyl3, skyl4, presentwx, metar
YBBN,2014-11-24 00:00,153.1292,-27.3917,80.60,68.00,65.54,20.00,16.00,0.00,30.03,M,6.21,M,FEW,M,M,M,2600.00,M,M,M,M,YBBN 240000Z 02016KT 9999 FEW026 27/20 Q1017
YBBN,2014-11-24 00:30,153.1292,-27.3917,80.60,68.00,65.54,30.00,16.00,0.00,30.03,M,6.21,M,FEW,M,M,M,2700.00,M,M,M,M,YBBN 240030Z 03016KT 9999 FEW027 27/20 Q1017
YBBN,2014-11-24 01:00,153.1292,-27.3917,82.40,68.00,61.81,20.00,17.00,0.00,30.00,M,6.21,M,FEW,M,M,M,2800.00,M,M,M,M,YBBN 240100Z 02017KT 9999 FEW028 28/20 Q1016
YBBN,2014-11-24 01:30,153.1292,-27.3917,82.40,66.20,58.08,30.00,18.00,0.00,30.00,M,6.21,M,FEW,M,M,M,2800.00,M,M,M,M,YBBN 240130Z 03018KT 9999 FEW028 28/19 Q1016
YBBN,2014-11-24 02:00,153.1292,-27.3917,82.40,68.00,61.81,20.00,18.00,0.00,29.97,M,6.21,M,FEW,M,M,M,2500.00,M,M,M,M,YBBN 240200Z 02018KT 9999 FEW025 28/20 Q1015
YBBN,2014-11-24 02:30,153.1292,-27.3917,82.40,68.00,61.81,20.00,19.00,0.00,29.97,M,6.21,M,FEW,SCT,M,M,2800.00,25000.00,M,M,M,YBBN 240230Z 02019KT 9999 FEW028 SCT250 28/20 Q1015
YBBN,2014-11-24 03:00,153.1292,-27.3917,82.40,68.00,61.81,20.00,19.00,0.00,29.94,M,6.21,M,FEW,SCT,M,M,2900.00,25000.00,M,M,M,YBBN 240300Z 02019KT 9999 FEW029 SCT250 28/20 Q1014
YBBN,2014-11-24 03:30,153.1292,-27.3917,82.40,68.00,61.81,10.00,19.00,0.00,29.94,M,6.21,M,FEW,SCT,M,M,2900.00,25000.00,M,M,M,YBBN 240330Z 01019KT 9999 FEW029 SCT250 28/20 Q1014 RMK HZ
YBBN,2014-11-24 04:00,153.1292,-27.3917,82.40,69.80,65.74,10.00,20.00,0.00,29.91,M,6.21,M,FEW,SCT,M,M,2900.00,25000.00,M,M,M,YBBN 240400Z 01020KT 9999 FEW029 SCT250 28/21 Q1013 RMK HZ
YBBN,2014-11-24 04:30,153.1292,-27.3917,82.40,69.80,65.74,10.00,19.00,0.00,29.91,M,6.21,M,FEW,BKN,M,M,2800.00,26000.00,M,M,M,YBBN 240430Z 01019KT 9999 FEW028 BKN260 28/21 Q1013 RMK HZ
YBBN,2014-11-24 05:00,153.1292,-27.3917,80.60,69.80,69.71,10.00,19.00,0.00,29.91,M,6.21,M,FEW,BKN,M,M,2700.00,26000.00,M,M,M,YBBN 240500Z 01019KT 9999 FEW027 BKN260 27/21 Q1013 RMK HZ
YBBN,2014-11-24 05:30,153.1292,-27.3917,80.60,68.00,65.54,10.00,19.00,0.00,29.88,M,6.21,M,FEW,BKN,M,M,2500.00,26000.00,M,M,M,YBBN 240530Z 01019KT 9999 FEW025 BKN260 27/20 Q1012 RMK HZ
YBBN,2014-11-24 06:00,153.1292,-27.3917,80.60,69.80,69.71,10.00,18.00,0.00,29.88,M,6.21,M,FEW,BKN,M,M,2200.00,26000.00,M,M,M,YBBN 240600Z 01018KT 9999 FEW022 BKN260 27/21 Q1012 RMK HZ
YBBN,2014-11-24 06:30,153.1292,-27.3917,78.80,68.00,69.52,10.00,19.00,0.00,29.88,M,6.21,M,FEW,BKN,M,M,1600.00,26000.00,M,M,M,YBBN 240630Z 01019KT 9999 FEW016 BKN260 26/20 Q1012 RMK HZ
YBBN,2014-11-24 07:00,153.1292,-27.3917,78.80,69.80,73.95,10.00,19.00,0.00,29.88,M,6.21,M,FEW,SCT,M,M,1600.00,26000.00,M,M,M,YBBN 240700Z 01019KT 9999 FEW016 SCT260 26/21 Q1012 NOSIG
YBBN,2014-11-24 07:30,153.1292,-27.3917,77.00,68.00,73.78,10.00,19.00,0.00,29.88,M,6.21,M,FEW,SCT,M,M,1600.00,1700.00,M,M,M,YBBN 240730Z 01019KT 9999 FEW016 SCT017 25/20 Q1012 RMK HZ
YBBN,2014-11-24 08:00,153.1292,-27.3917,77.00,68.00,73.78,10.00,19.00,0.00,29.91,M,6.21,M,FEW,SCT,M,M,1600.00,1800.00,M,M,M,YBBN 240800Z 01019KT 9999 FEW016 SCT018 25/20 Q1013 NOSIG
YBBN,2014-11-24 08:30,153.1292,-27.3917,75.20,68.00,78.34,10.00,18.00,0.00,29.91,M,6.21,M,FEW,SCT,M,M,1600.00,1800.00,M,M,M,YBBN 240830Z 01018KT 9999 FEW016 SCT018 24/20 Q1013
YBBN,2014-11-24 09:00,153.1292,-27.3917,75.20,68.00,78.34,10.00,19.00,0.00,29.91,M,6.21,M,FEW,SCT,M,M,1600.00,1800.00,M,M,M,YBBN 240900Z 01019KT 9999 FEW016 SCT018 24/20 Q1013 NOSIG
YBBN,2014-11-24 09:30,153.1292,-27.3917,75.20,68.00,78.34,10.00,19.00,0.00,29.91,M,6.21,M,FEW,SCT,M,M,1600.00,1800.00,M,M,M,YBBN 240930Z 01019KT 9999 FEW016 SCT018 24/20 Q1013
YBBN,2014-11-24 10:00,153.1292,-27.3917,75.20,68.00,78.34,10.00,19.00,0.00,29.94,M,6.21,M,FEW,BKN,M,M,1700.00,2000.00,M,M,M,YBBN 241000Z 01019KT 9999 FEW017 BKN020 24/20 Q1014
YBBN,2014-11-24 10:30,153.1292,-27.3917,75.20,68.00,78.34,10.00,19.00,0.00,29.94,M,6.21,M,FEW,BKN,M,M,1700.00,2100.00,M,M,M,YBBN 241030Z 01019KT 9999 FEW017 BKN021 24/20 Q1014
YBBN,2014-11-24 11:03,153.1292,-27.3917,77.00,68.00,73.78,360.00,18.00,0.00,29.97,M,6.21,28.00,FEW,BKN,M,M,1700.00,2200.00,M,M,M,YBBN 241103Z 36018G28KT 9999 FEW017 BKN022 25/20 Q1015
YBBN,2014-11-24 11:30,153.1292,-27.3917,77.00,68.00,73.78,10.00,20.00,0.00,29.97,M,6.21,M,FEW,BKN,M,M,1700.00,2000.00,M,M,M,YBBN 241130Z 01020KT 9999 FEW017 BKN020 25/20 Q1015
YBBN,2014-11-24 12:00,153.1292,-27.3917,75.20,68.00,78.34,360.00,20.00,0.00,29.97,M,6.21,M,FEW,BKN,M,M,1700.00,2000.00,M,M,M,YBBN 241200Z 36020KT 9999 FEW017 BKN020 24/20 Q1015 NOSIG
YBBN,2014-11-24 12:30,153.1292,-27.3917,75.20,68.00,78.34,360.00,18.00,0.00,29.97,M,6.21,M,FEW,BKN,M,M,1700.00,2000.00,M,M,M,YBBN 241230Z 36018KT 9999 FEW017 BKN020 24/20 Q1015
YBBN,2014-11-24 13:00,153.1292,-27.3917,75.20,68.00,78.34,360.00,18.00,0.00,29.97,M,6.21,M,FEW,BKN,M,M,1700.00,2000.00,M,M,M,YBBN 241300Z 36018KT 9999 FEW017 BKN020 24/20 Q1015 NOSIG
YBBN,2014-11-24 13:30,153.1292,-27.3917,75.20,68.00,78.34,350.00,18.00,0.00,29.94,M,6.21,M,FEW,SCT,M,M,1700.00,1900.00,M,M,M,YBBN 241330Z 35018KT 9999 FEW017 SCT019 24/20 Q1014
YBBN,2014-11-24 14:00,153.1292,-27.3917,75.20,68.00,78.34,360.00,17.00,0.00,29.94,M,6.21,M,FEW,SCT,M,M,1700.00,2200.00,M,M,M,YBBN 241400Z 36017KT 9999 FEW017 SCT022 24/20 Q1014 NOSIG
YBBN,2014-11-24 14:30,153.1292,-27.3917,75.20,68.00,78.34,360.00,17.00,0.00,29.94,M,6.21,M,FEW,SCT,M,M,1700.00,1900.00,M,M,M,YBBN 241430Z 36017KT 9999 FEW017 SCT019 24/20 Q1014
YBBN,2014-11-24 15:00,153.1292,-27.3917,73.40,66.20,78.19,360.00,17.00,0.00,29.94,M,6.21,M,FEW,M,M,M,1600.00,M,M,M,M,YBBN 241500Z 36017KT 9999 FEW016 23/19 Q1014 NOSIG
YBBN,2014-11-24 15:30,153.1292,-27.3917,73.40,66.20,78.19,350.00,17.00,0.00,29.94,M,6.21,M,FEW,M,M,M,1600.00,M,M,M,M,YBBN 241530Z 35017KT 9999 FEW016 23/19 Q1014
YBBN,2014-11-24 16:00,153.1292,-27.3917,73.40,66.20,78.19,350.00,15.00,0.00,29.94,M,6.21,M,FEW,M,M,M,2000.00,M,M,M,M,YBBN 241600Z 35015KT 9999 FEW020 23/19 Q1014
YBBN,2014-11-24 16:30,153.1292,-27.3917,73.40,66.20,78.19,360.00,15.00,0.00,29.94,M,6.21,M,FEW,M,M,M,2200.00,M,M,M,M,YBBN 241630Z 36015KT 9999 FEW022 23/19 Q1014
YBBN,2014-11-24 17:00,153.1292,-27.3917,71.60,66.20,83.09,350.00,14.00,0.00,29.94,M,6.21,M,FEW,M,M,M,2200.00,M,M,M,M,YBBN 241700Z 35014KT 9999 FEW022 22/19 Q1014 NOSIG
YBBN,2014-11-24 17:30,153.1292,-27.3917,71.60,66.20,83.09,350.00,11.00,0.00,29.94,M,6.21,M,M,M,M,M,M,M,M,M,M,YBBN 241730Z 35011KT CAVOK 22/19 Q1014
YBBN,2014-11-24 18:00,153.1292,-27.3917,71.60,66.20,83.09,350.00,9.00,0.00,29.94,M,6.21,M,FEW,SCT,M,M,2200.00,26000.00,M,M,M,YBBN 241800Z 35009KT 9999 FEW022 SCT260 22/19 Q1014
YBBN,2014-11-24 18:30,153.1292,-27.3917,69.80,66.20,88.34,340.00,10.00,0.00,29.94,M,6.21,M,FEW,SCT,M,M,2200.00,34000.00,M,M,M,YBBN 241830Z 34010KT 9999 FEW022 SCT340 21/19 Q1014
YBBN,2014-11-24 19:00,153.1292,-27.3917,71.60,66.20,83.09,340.00,11.00,0.00,29.94,M,6.21,M,FEW,BKN,M,M,1800.00,34000.00,M,M,M,YBBN 241900Z 34011KT 9999 FEW018 BKN340 22/19 Q1014
YBBN,2014-11-24 19:30,153.1292,-27.3917,71.60,66.20,83.09,310.00,7.00,0.00,29.97,M,6.21,M,FEW,BKN,M,M,1800.00,34000.00,M,M,M,YBBN 241930Z 31007KT 9999 FEW018 BKN340 22/19 Q1015
YBBN,2014-11-24 20:00,153.1292,-27.3917,71.60,66.20,83.09,320.00,7.00,0.00,29.97,M,6.21,M,FEW,BKN,M,M,2000.00,34000.00,M,M,M,YBBN 242000Z 32007KT 9999 FEW020 BKN340 22/19 Q1015 NOSIG
YBBN,2014-11-24 20:30,153.1292,-27.3917,75.20,66.20,73.61,330.00,6.00,0.00,30.00,M,6.21,M,FEW,SCT,M,M,1800.00,26000.00,M,M,M,YBBN 242030Z 33006KT 9999 FEW018 SCT260 24/19 Q1016
YBBN,2014-11-24 21:00,153.1292,-27.3917,75.20,64.40,69.14,340.00,7.00,0.00,30.00,M,6.21,M,FEW,BKN,M,M,2300.00,26000.00,M,M,M,YBBN 242100Z 34007KT 9999 FEW023 BKN260 24/18 Q1016 NOSIG
YBBN,2014-11-24 21:30,153.1292,-27.3917,75.20,64.40,69.14,350.00,7.00,0.00,30.00,M,6.21,M,FEW,SCT,M,M,2200.00,26000.00,M,M,M,YBBN 242130Z 35007KT 9999 FEW022 SCT260 24/18 Q1016
YBBN,2014-11-24 22:00,153.1292,-27.3917,77.00,66.20,69.33,350.00,7.00,0.00,29.97,M,6.21,M,FEW,SCT,M,M,2500.00,26000.00,M,M,M,YBBN 242200Z 35007KT 9999 FEW025 SCT260 25/19 Q1015
YBBN,2014-11-24 22:30,153.1292,-27.3917,78.80,64.40,61.36,360.00,9.00,0.00,29.97,M,6.21,M,FEW,SCT,M,M,2600.00,26000.00,M,M,M,YBBN 242230Z 36009KT 9999 FEW026 SCT260 26/18 Q1015
YBBN,2014-11-24 23:00,153.1292,-27.3917,78.80,64.40,61.36,20.00,10.00,0.00,29.97,M,6.21,M,FEW,M,M,M,2600.00,M,M,M,M,YBBN 242300Z 02010KT 9999 FEW026 26/18 Q1015 FM0000 35018KT 9999 FEW030
YBBN,2014-11-24 23:30,153.1292,-27.3917,80.60,62.60,54.30,20.00,11.00,0.00,29.97,M,6.21,M,M,M,M,M,M,M,M,M,M,YBBN 242330Z 02011KT CAVOK 27/17 Q1015
