#DEBUG: Format Typ    -> comma
#DEBUG: Time Period   -> 2010-11-20 00:00:00+00:00 2010-11-21 00:00:00+00:00
#DEBUG: Time Zone     -> Etc/UTC
#DEBUG: Data Contact   -> daryl herzmann akrherz@iastate.edu 515-294-5978
#DEBUG: Entries Found -> -1
station,valid,lon,lat,tmpf, dwpf, relh, drct, sknt, p01i, alti, mslp, vsby, gust, skyc1, skyc2, skyc3, skyc4, skyl1, skyl2, skyl3, skyl4, presentwx, metar
YBBN,2010-11-20 00:00,153.1292,-27.3917,77.00,57.20,50.43,140.00,14.00,M,30.15,M,6.21,27.00,FEW,BKN,M,M,3500.00,6500.00,M,M,M,YBBN 200000Z 14014G27KT 9999 FEW035 BKN065 25/14 Q1021 NOSIG
YBBN,2010-11-20 00:30,153.1292,-27.3917,75.20,57.20,53.55,150.00,14.00,M,30.15,M,6.21,M,SCT,BKN,M,M,3500.00,6000.00,M,M,M,YBBN 200030Z 15014KT 9999 SCT035 BKN060 24/14 Q1021 NOSIG
YBBN,2010-11-20 01:00,153.1292,-27.3917,77.00,57.20,50.43,130.00,15.00,M,30.15,M,6.21,M,SCT,BKN,M,M,3700.00,6500.00,M,M,M,YBBN 200100Z 13015KT 9999 SCT037 BKN065 25/14 Q1021 NOSIG
YBBN,2010-11-20 01:29,153.1292,-27.3917,75.20,59.00,57.12,130.00,15.00,M,30.15,M,6.21,25.00,SCT,BKN,M,M,4000.00,6500.00,M,M,M,YBBN 200129Z 13015G25KT 9999 SCT040 BKN065 24/15 Q1021 NOSIG
YBBN,2010-11-20 02:00,153.1292,-27.3917,75.20,59.00,57.12,130.00,13.00,M,30.15,M,6.21,M,SCT,BKN,M,M,4000.00,6500.00,M,M,M,YBBN 200200Z 13013KT 9999 SCT040 BKN065 24/15 Q1021 NOSIG
YBBN,2010-11-20 02:30,153.1292,-27.3917,75.20,59.00,57.12,130.00,15.00,M,30.15,M,6.21,M,SCT,BKN,M,M,4000.00,7000.00,M,M,M,YBBN 200230Z 13015KT 9999 SCT040 BKN070 24/15 Q1021 NOSIG
YBBN,2010-11-20 02:52,153.1292,-27.3917,75.20,57.20,53.55,130.00,15.00,M,30.15,M,6.21,25.00,SCT,BKN,M,M,4000.00,7000.00,M,M,M,YBBN 200252Z 13015G25KT 9999 SCT040 BKN070 24/14 Q1021 NOSIG
YBBN,2010-11-20 03:00,153.1292,-27.3917,75.20,57.20,53.55,130.00,14.00,M,30.15,M,6.21,25.00,SCT,BKN,M,M,4000.00,7500.00,M,M,M,YBBN 200300Z 13014G25KT 9999 SCT040 BKN075 24/14 Q1021 NOSIG
YBBN,2010-11-20 03:30,153.1292,-27.3917,75.20,57.20,53.55,130.00,14.00,M,30.15,M,6.21,M,SCT,BKN,M,M,3700.00,7500.00,M,M,M,YBBN 200330Z 13014KT 9999 SCT037 BKN075 24/14 Q1021 NOSIG
YBBN,2010-11-20 04:00,153.1292,-27.3917,75.20,57.20,53.55,130.00,12.00,M,30.12,M,6.21,M,SCT,BKN,M,M,3700.00,7500.00,M,M,M,YBBN 200400Z 13012KT 9999 SCT037 BKN075 24/14 Q1020 NOSIG
YBBN,2010-11-20 05:30,153.1292,-27.3917,73.40,60.80,64.69,140.00,12.00,M,30.12,M,6.21,M,SCT,SCT,BKN,M,3000.00,5300.00,8000.00,M,M,YBBN 200530Z 14012KT 9999 SCT030 SCT053 BKN080 23/16 Q1020 RMK DIST RASH INTER 0530/0800 4000 SHRA BKN015
YBBN,2010-11-20 08:00,153.1292,-27.3917,73.40,60.80,64.69,150.00,11.00,M,30.15,M,6.21,M,FEW,SCT,BKN,M,1800.00,2800.00,5000.00,M,VCSH,YBBN 200800Z 15011KT 9999 VCSH FEW018 SCT028 BKN050 23/16 Q1021 NOSIG
YBBN,2010-11-20 08:30,153.1292,-27.3917,73.40,59.00,60.67,140.00,10.00,M,30.15,M,6.21,M,FEW,SCT,BKN,M,1800.00,2800.00,5400.00,M,VCSH,YBBN 200830Z 14010KT 9999 VCSH FEW018 SCT028 BKN054 23/15 Q1021 NOSIG
YBBN,2010-11-20 09:00,153.1292,-27.3917,71.60,60.80,68.75,150.00,12.00,M,30.18,M,6.21,M,FEW,SCT,BKN,M,1800.00,2800.00,6000.00,M,VCSH,YBBN 200900Z 15012KT 9999 VCSH FEW018 SCT028 BKN060 22/16 Q1022 NOSIG
YBBN,2010-11-20 09:30,153.1292,-27.3917,71.60,60.80,68.75,150.00,10.00,M,30.18,M,6.21,M,FEW,SCT,BKN,M,1800.00,3000.00,6200.00,M,VCSH,YBBN 200930Z 15010KT 9999 VCSH FEW018 SCT030 BKN062 22/16 Q1022 NOSIG
YBBN,2010-11-20 10:00,153.1292,-27.3917,69.80,59.00,68.55,170.00,8.00,M,30.18,M,6.21,M,FEW,BKN,BKN,M,1800.00,3000.00,6200.00,M,M,YBBN 201000Z 17008KT 9999 FEW018 BKN030 BKN062 21/15 Q1022 NOSIG
YBBN,2010-11-20 10:30,153.1292,-27.3917,69.80,57.20,64.26,180.00,11.00,M,30.18,M,6.21,M,FEW,SCT,BKN,M,1800.00,3400.00,24000.00,M,M,YBBN 201030Z 18011KT 9999 FEW018 SCT034 BKN240 21/14 Q1022 NOSIG
YBBN,2010-11-20 11:00,153.1292,-27.3917,69.80,57.20,64.26,180.00,11.00,M,30.18,M,6.21,M,FEW,SCT,BKN,M,1800.00,3400.00,24000.00,M,M,YBBN 201100Z 18011KT 9999 FEW018 SCT034 BKN240 21/14 Q1022 NOSIG
YBBN,2010-11-20 11:30,153.1292,-27.3917,68.00,57.20,68.35,170.00,9.00,M,30.18,M,6.21,M,FEW,BKN,M,M,1800.00,24000.00,M,M,M,YBBN 201130Z 17009KT 9999 FEW018 BKN240 20/14 Q1022 NOSIG
YBBN,2010-11-20 12:00,153.1292,-27.3917,68.00,57.20,68.35,180.00,9.00,M,30.18,M,6.21,M,FEW,BKN,M,M,1800.00,24000.00,M,M,M,YBBN 201200Z 18009KT 9999 FEW018 BKN240 20/14 Q1022 NOSIG
YBBN,2010-11-20 12:30,153.1292,-27.3917,68.00,57.20,68.35,170.00,8.00,M,30.18,M,6.21,M,FEW,BKN,M,M,1800.00,24000.00,M,M,M,YBBN 201230Z 17008KT 9999 FEW018 BKN240 20/14 Q1022 NOSIG
YBBN,2010-11-20 13:00,153.1292,-27.3917,68.00,57.20,68.35,170.00,8.00,M,30.15,M,6.21,M,FEW,BKN,M,M,1800.00,24000.00,M,M,M,YBBN 201300Z 17008KT 9999 FEW018 BKN240 20/14 Q1021 NOSIG
YBBN,2010-11-20 13:30,153.1292,-27.3917,68.00,57.20,68.35,170.00,8.00,M,30.15,M,6.21,M,FEW,BKN,M,M,1800.00,24000.00,M,M,M,YBBN 201330Z 17008KT 9999 FEW018 BKN240 20/14 Q1021 NOSIG
YBBN,2010-11-20 14:00,153.1292,-27.3917,68.00,57.20,68.35,180.00,11.00,M,30.15,M,6.21,M,FEW,BKN,M,M,1800.00,24000.00,M,M,M,YBBN 201400Z 18011KT 9999 FEW018 BKN240 20/14 Q1021 NOSIG
YBBN,2010-11-20 14:30,153.1292,-27.3917,68.00,57.20,68.35,180.00,9.00,M,30.12,M,6.21,M,FEW,BKN,M,M,1800.00,24000.00,M,M,M,YBBN 201430Z 18009KT 9999 FEW018 BKN240 20/14 Q1020 NOSIG
YBBN,2010-11-20 15:00,153.1292,-27.3917,66.20,57.20,72.74,170.00,8.00,M,30.12,M,6.21,M,FEW,BKN,M,M,1500.00,24000.00,M,M,M,YBBN 201500Z 17008KT 9999 FEW015 BKN240 19/14 Q1020 NOSIG
YBBN,2010-11-20 15:30,153.1292,-27.3917,68.00,57.20,68.35,170.00,9.00,M,30.09,M,6.21,M,FEW,BKN,M,M,1500.00,24000.00,M,M,M,YBBN 201530Z 17009KT 9999 FEW015 BKN240 20/14 Q1019 NOSIG
YBBN,2010-11-20 16:00,153.1292,-27.3917,68.00,59.00,72.92,170.00,8.00,M,30.09,M,6.21,M,FEW,BKN,M,M,1800.00,24000.00,M,M,M,YBBN 201600Z 17008KT 9999 FEW018 BKN240 20/15 Q1019 NOSIG
YBBN,2010-11-20 16:30,153.1292,-27.3917,68.00,59.00,72.92,180.00,11.00,M,30.09,M,6.21,M,FEW,SCT,BKN,M,1800.00,6500.00,24000.00,M,M,YBBN 201630Z 18011KT 9999 FEW018 SCT065 BKN240 20/15 Q1019 NOSIG
YBBN,2010-11-20 17:00,153.1292,-27.3917,66.20,60.80,82.74,180.00,11.00,M,30.09,M,4.97,M,FEW,BKN,BKN,M,1800.00,6000.00,24000.00,M,-SHRA,YBBN 201700Z 18011KT 8000 -SHRA FEW018 BKN060 BKN240 19/16 Q1019 NOSIG
YBBN,2010-11-20 17:30,153.1292,-27.3917,66.20,59.00,77.60,180.00,11.00,M,30.09,M,6.21,M,FEW,BKN,BKN,M,1800.00,4200.00,6000.00,M,-SHRA VCSH,YBBN 201730Z 18011KT 9999 -SHRA VCSH FEW018 BKN042 BKN060 19/15 Q1019 NOSIG
YBBN,2010-11-20 18:00,153.1292,-27.3917,66.20,59.00,77.60,190.00,9.00,M,30.09,M,6.21,M,FEW,BKN,BKN,M,1800.00,5000.00,6200.00,M,-SHRA VCSH,YBBN 201800Z 19009KT 9999 -SHRA VCSH FEW018 BKN050 BKN062 19/15 Q1019 NOSIG
YBBN,2010-11-20 18:30,153.1292,-27.3917,66.20,59.00,77.60,200.00,7.00,M,30.12,M,6.21,M,FEW,SCT,BKN,M,1800.00,4200.00,6000.00,M,VCSH,YBBN 201830Z 20007KT 9999 VCSH FEW018 SCT042 BKN060 19/15 Q1020 NOSIG
YBBN,2010-11-20 19:00,153.1292,-27.3917,64.40,59.00,82.62,210.00,7.00,M,30.12,M,6.21,M,FEW,SCT,BKN,M,1500.00,3200.00,6000.00,M,VCSH,YBBN 201900Z 21007KT 9999 VCSH FEW015 SCT032 BKN060 18/15 Q1020 NOSIG
YBBN,2010-11-20 19:30,153.1292,-27.3917,64.40,60.80,88.09,210.00,7.00,M,30.12,M,6.21,M,FEW,SCT,BKN,M,1500.00,3000.00,6000.00,M,-SHRA VCSH,YBBN 201930Z 21007KT 9999 -SHRA VCSH FEW015 SCT030 BKN060 18/16 Q1020 NOSIG
YBBN,2010-11-20 20:00,153.1292,-27.3917,66.20,59.00,77.60,200.00,7.00,M,30.15,M,6.21,M,FEW,SCT,BKN,M,1500.00,3000.00,22000.00,M,-SHRA VCSH,YBBN 202000Z 20007KT 9999 -SHRA VCSH FEW015 SCT030 BKN220 19/15 Q1021 NOSIG
YBBN,2010-11-20 20:30,153.1292,-27.3917,66.20,60.80,82.74,180.00,9.00,M,30.15,M,6.21,M,FEW,SCT,BKN,M,2500.00,4000.00,6000.00,M,M,YBBN 202030Z 18009KT 9999 FEW025 SCT040 BKN060 19/16 Q1021 NOSIG
YBBN,2010-11-20 21:00,153.1292,-27.3917,66.20,60.80,82.74,170.00,9.00,M,30.15,M,6.21,M,FEW,SCT,BKN,M,1500.00,2500.00,5700.00,M,VCSH,YBBN 202100Z 17009KT 9999 VCSH FEW015 SCT025 BKN057 19/16 Q1021 NOSIG
YBBN,2010-11-20 21:30,153.1292,-27.3917,66.20,62.60,88.18,180.00,9.00,M,30.15,M,5.59,M,FEW,SCT,BKN,M,1800.00,2800.00,5500.00,M,-SHRA,YBBN 202130Z 18009KT 9000 -SHRA FEW018 SCT028 BKN055 19/17 Q1021 NOSIG
YBBN,2010-11-20 22:00,153.1292,-27.3917,68.00,60.80,77.75,180.00,9.00,M,30.15,M,5.59,M,FEW,SCT,OVC,M,1800.00,2800.00,6000.00,M,VCSH,YBBN 202200Z 18009KT 9000 VCSH FEW018 SCT028 OVC060 20/16 Q1021 NOSIG
YBBN,2010-11-20 22:30,153.1292,-27.3917,69.80,62.60,77.90,180.00,8.00,M,30.15,M,6.21,M,SCT,OVC,M,M,3000.00,6000.00,M,M,M,YBBN 202230Z 18008KT 9999 SCT030 OVC060 21/17 Q1021 NOSIG
YBBN,2010-11-20 23:00,153.1292,-27.3917,73.40,60.80,64.69,170.00,8.00,M,30.15,M,6.21,M,SCT,OVC,M,M,3500.00,25000.00,M,M,M,YBBN 202300Z 17008KT 9999 SCT035 OVC250 23/16 Q1021 NOSIG
YBBN,2010-11-20 23:30,153.1292,-27.3917,75.20,59.00,57.12,160.00,9.00,M,30.15,M,6.21,M,SCT,OVC,M,M,4000.00,25000.00,M,M,M,YBBN 202330Z 16009KT 9999 SCT040 OVC250 24/15 Q1021 NOSIG
