#DEBUG: Format Typ    -> comma
#DEBUG: Time Period   -> 2014-11-23 00:00:00+00:00 2014-11-24 00:00:00+00:00
#DEBUG: Time Zone     -> Etc/UTC
#DEBUG: Data Contact   -> daryl herzmann akrherz@iastate.edu 515-294-5978
#DEBUG: Entries Found -> -1
station,valid,lon,lat,tmpf, dwpf, relh, drct, sknt, p01i, alti, mslp, vsby, gust, skyc1, skyc2, skyc3, skyc4, skyl1, skyl2, skyl3, skyl4, presentwx, metar
YBBN,2014-11-23 00:00,153.1292,-27.3917,82.40,71.60,69.90,20.00,17.00,0.00,30.03,M,6.21,M,FEW,M,M,M,2000.00,M,M,M,M,YBBN 230000Z 02017KT 9999 FEW020 28/22 Q1017 NOSIG
YBBN,2014-11-23 00:30,153.1292,-27.3917,82.40,69.80,65.74,20.00,19.00,0.00,30.03,M,6.21,M,FEW,M,M,M,2000.00,M,M,M,M,YBBN 230030Z 02019KT 9999 FEW020 28/21 Q1017
YBBN,2014-11-23 01:00,153.1292,-27.3917,82.40,69.80,65.74,10.00,18.00,0.00,30.03,M,6.21,M,FEW,M,M,M,2000.00,M,M,M,M,YBBN 230100Z 01018KT 9999 FEW020 28/21 Q1017 NOSIG
YBBN,2014-11-23 01:30,153.1292,-27.3917,82.40,68.00,61.81,10.00,18.00,0.00,30.00,M,6.21,M,FEW,M,M,M,2000.00,M,M,M,M,YBBN 230130Z 01018KT 9999 FEW020 28/20 Q1016 RMK HAZE
YBBN,2014-11-23 02:00,153.1292,-27.3917,82.40,69.80,65.74,20.00,19.00,0.00,30.00,M,6.21,M,FEW,M,M,M,2000.00,M,M,M,M,YBBN 230200Z 02019KT 9999 FEW020 28/21 Q1016 NOSIG
YBBN,2014-11-23 02:30,153.1292,-27.3917,82.40,68.00,61.81,10.00,19.00,0.00,29.97,M,6.21,M,FEW,M,M,M,2000.00,M,M,M,M,YBBN 230230Z 01019KT 9999 FEW020 28/20 Q1015 RMK HAZE
YBBN,2014-11-23 03:00,153.1292,-27.3917,82.40,68.00,61.81,10.00,18.00,0.00,29.97,M,6.21,M,FEW,M,M,M,2000.00,M,M,M,M,YBBN 230300Z 01018KT 9999 FEW020 28/20 Q1015 NOSIG
YBBN,2014-11-23 03:30,153.1292,-27.3917,82.40,68.00,61.81,10.00,19.00,0.00,29.97,M,6.21,M,FEW,M,M,M,2000.00,M,M,M,M,YBBN 230330Z 01019KT 9999 FEW020 28/20 Q1015 RMK HAZE
YBBN,2014-11-23 04:00,153.1292,-27.3917,82.40,68.00,61.81,10.00,20.00,0.00,29.94,M,6.21,M,FEW,M,M,M,2000.00,M,M,M,M,YBBN 230400Z 01020KT 9999 FEW020 28/20 Q1014 NOSIG
YBBN,2014-11-23 04:30,153.1292,-27.3917,82.40,66.20,58.08,10.00,18.00,0.00,29.94,M,6.21,M,FEW,M,M,M,3500.00,M,M,M,M,YBBN 230430Z 01018KT 9999 FEW035 28/19 Q1014
YBBN,2014-11-23 05:00,153.1292,-27.3917,82.40,64.40,54.55,10.00,18.00,0.00,29.94,M,6.21,M,FEW,M,M,M,3500.00,M,M,M,M,YBBN 230500Z 01018KT 9999 FEW035 28/18 Q1014
YBBN,2014-11-23 05:30,153.1292,-27.3917,82.40,66.20,58.08,10.00,18.00,0.00,29.94,M,6.21,M,FEW,SCT,M,M,3500.00,30000.00,M,M,M,YBBN 230530Z 01018KT 9999 FEW035 SCT300 28/19 Q1014
YBBN,2014-11-23 06:00,153.1292,-27.3917,80.60,66.20,61.58,10.00,19.00,0.00,29.91,M,6.21,M,FEW,SCT,M,M,3500.00,30000.00,M,M,M,YBBN 230600Z 01019KT 9999 FEW035 SCT300 27/19 Q1013 NOSIG
YBBN,2014-11-23 06:30,153.1292,-27.3917,80.60,66.20,61.58,10.00,16.00,0.00,29.91,M,6.21,M,FEW,BKN,M,M,3500.00,30000.00,M,M,M,YBBN 230630Z 01016KT 9999 FEW035 BKN300 27/19 Q1013
YBBN,2014-11-23 07:00,153.1292,-27.3917,78.80,66.20,65.33,10.00,17.00,0.00,29.91,M,6.21,M,FEW,BKN,M,M,3500.00,30000.00,M,M,M,YBBN 230700Z 01017KT 9999 FEW035 BKN300 26/19 Q1013 NOSIG
YBBN,2014-11-23 07:30,153.1292,-27.3917,78.80,68.00,69.52,10.00,17.00,0.00,29.91,M,6.21,M,M,M,M,M,M,M,M,M,M,YBBN 230730Z 01017KT CAVOK 26/20 Q1013
YBBN,2014-11-23 08:00,153.1292,-27.3917,77.00,68.00,73.78,10.00,16.00,0.00,29.94,M,6.21,M,M,M,M,M,M,M,M,M,M,YBBN 230800Z 01016KT CAVOK 25/20 Q1014 NOSIG
YBBN,2014-11-23 08:30,153.1292,-27.3917,77.00,68.00,73.78,10.00,15.00,0.00,29.94,M,6.21,M,M,M,M,M,M,M,M,M,M,YBBN 230830Z 01015KT CAVOK 25/20 Q1014
YBBN,2014-11-23 09:00,153.1292,-27.3917,77.00,68.00,73.78,10.00,15.00,0.00,29.97,M,6.21,M,M,M,M,M,M,M,M,M,M,YBBN 230900Z 01015KT CAVOK 25/20 Q1015
YBBN,2014-11-23 09:30,153.1292,-27.3917,77.00,68.00,73.78,10.00,16.00,0.00,29.97,M,6.21,M,M,M,M,M,M,M,M,M,M,YBBN 230930Z 01016KT CAVOK 25/20 Q1015
YBBN,2014-11-23 10:00,153.1292,-27.3917,77.00,69.80,78.48,10.00,15.00,0.00,30.00,M,6.21,M,FEW,BKN,M,M,3500.00,30000.00,M,M,M,YBBN 231000Z 01015KT 9999 FEW035 BKN300 25/21 Q1016 NOSIG
YBBN,2014-11-23 10:30,153.1292,-27.3917,77.00,69.80,78.48,10.00,15.00,0.00,30.00,M,6.21,M,FEW,BKN,M,M,3000.00,30000.00,M,M,M,YBBN 231030Z 01015KT 9999 FEW030 BKN300 25/21 Q1016
YBBN,2014-11-23 11:00,153.1292,-27.3917,77.00,69.80,78.48,10.00,16.00,0.00,30.00,M,6.21,M,FEW,BKN,M,M,1700.00,30000.00,M,M,M,YBBN 231100Z 01016KT 9999 FEW017 BKN300 25/21 Q1016 NOSIG
YBBN,2014-11-23 11:30,153.1292,-27.3917,77.00,69.80,78.48,360.00,16.00,0.00,30.00,M,6.21,M,FEW,SCT,BKN,M,1700.00,1800.00,30000.00,M,M,YBBN 231130Z 36016KT 9999 FEW017 SCT018 BKN300 25/21 Q1016
YBBN,2014-11-23 12:00,153.1292,-27.3917,77.00,69.80,78.48,360.00,15.00,0.00,30.00,M,6.21,M,FEW,SCT,BKN,M,1600.00,1800.00,30000.00,M,M,YBBN 231200Z 36015KT 9999 FEW016 SCT018 BKN300 25/21 Q1016
YBBN,2014-11-23 12:30,153.1292,-27.3917,77.00,69.80,78.48,360.00,13.00,0.00,30.00,M,6.21,M,FEW,SCT,BKN,M,1400.00,1800.00,30000.00,M,M,YBBN 231230Z 36013KT 9999 FEW014 SCT018 BKN300 25/21 Q1016
YBBN,2014-11-23 13:00,153.1292,-27.3917,77.00,69.80,78.48,360.00,17.00,0.00,30.00,M,6.21,M,FEW,SCT,BKN,M,1400.00,1800.00,30000.00,M,M,YBBN 231300Z 36017KT 9999 FEW014 SCT018 BKN300 25/21 Q1016
YBBN,2014-11-23 13:30,153.1292,-27.3917,77.00,69.80,78.48,360.00,17.00,0.00,30.00,M,6.21,M,FEW,SCT,BKN,M,1500.00,1800.00,30000.00,M,M,YBBN 231330Z 36017KT 9999 FEW015 SCT018 BKN300 25/21 Q1016
YBBN,2014-11-23 14:00,153.1292,-27.3917,75.20,69.80,83.32,360.00,18.00,0.00,30.00,M,6.21,M,FEW,SCT,BKN,M,1500.00,1800.00,30000.00,M,M,YBBN 231400Z 36018KT 9999 FEW015 SCT018 BKN300 24/21 Q1016
YBBN,2014-11-23 14:30,153.1292,-27.3917,75.20,69.80,83.32,360.00,15.00,0.00,30.00,M,6.21,M,FEW,SCT,BKN,M,1500.00,1800.00,30000.00,M,M,YBBN 231430Z 36015KT 9999 FEW015 SCT018 BKN300 24/21 Q1016
YBBN,2014-11-23 15:00,153.1292,-27.3917,75.20,69.80,83.32,360.00,15.00,0.00,30.00,M,6.21,M,FEW,SCT,BKN,M,1400.00,1800.00,3000.00,M,M,YBBN 231500Z 36015KT 9999 FEW014 SCT018 BKN030 24/21 Q1016
YBBN,2014-11-23 15:30,153.1292,-27.3917,75.20,69.80,83.32,360.00,14.00,0.00,30.00,M,6.21,M,FEW,SCT,BKN,M,1400.00,1800.00,30000.00,M,M,YBBN 231530Z 36014KT 9999 FEW014 SCT018 BKN300 24/21 Q1016
YBBN,2014-11-23 16:00,153.1292,-27.3917,75.20,69.80,83.32,360.00,13.00,0.00,30.00,M,6.21,M,FEW,SCT,BKN,M,1400.00,1800.00,30000.00,M,M,YBBN 231600Z 36013KT 9999 FEW014 SCT018 BKN300 24/21 Q1016 NOSIG
YBBN,2014-11-23 16:30,153.1292,-27.3917,75.20,69.80,83.32,350.00,14.00,0.00,30.00,M,6.21,M,FEW,BKN,M,M,1400.00,30000.00,M,M,M,YBBN 231630Z 35014KT 9999 FEW014 BKN300 24/21 Q1016
YBBN,2014-11-23 17:00,153.1292,-27.3917,73.40,69.80,88.51,350.00,13.00,0.00,30.00,M,6.21,M,FEW,SCT,BKN,M,1500.00,1800.00,30000.00,M,M,YBBN 231700Z 35013KT 9999 FEW015 SCT018 BKN300 23/21 Q1016 NOSIG
YBBN,2014-11-23 17:30,153.1292,-27.3917,73.40,69.80,88.51,350.00,13.00,0.00,30.00,M,6.21,M,FEW,SCT,M,M,1400.00,30000.00,M,M,M,YBBN 231730Z 35013KT 9999 FEW014 SCT300 23/21 Q1016
YBBN,2014-11-23 18:00,153.1292,-27.3917,73.40,68.00,83.21,350.00,13.00,0.00,30.00,M,6.21,M,FEW,SCT,M,M,1400.00,28000.00,M,M,M,YBBN 231800Z 35013KT 9999 FEW014 SCT280 23/20 Q1016
YBBN,2014-11-23 18:30,153.1292,-27.3917,73.40,68.00,83.21,340.00,14.00,0.00,30.00,M,6.21,M,FEW,SCT,M,M,1400.00,28000.00,M,M,M,YBBN 231830Z 34014KT 9999 FEW014 SCT280 23/20 Q1016
YBBN,2014-11-23 19:00,153.1292,-27.3917,73.40,68.00,83.21,350.00,13.00,0.00,30.03,M,6.21,M,FEW,SCT,M,M,1400.00,28000.00,M,M,M,YBBN 231900Z 35013KT 9999 FEW014 SCT280 23/20 Q1017
YBBN,2014-11-23 19:30,153.1292,-27.3917,73.40,68.00,83.21,340.00,13.00,0.00,30.03,M,6.21,M,FEW,SCT,M,M,1400.00,30000.00,M,M,M,YBBN 231930Z 34013KT 9999 FEW014 SCT300 23/20 Q1017
YBBN,2014-11-23 20:00,153.1292,-27.3917,75.20,68.00,78.34,350.00,13.00,0.00,30.03,M,6.21,M,FEW,M,M,M,1400.00,M,M,M,M,YBBN 232000Z 35013KT 9999 FEW014 24/20 Q1017
YBBN,2014-11-23 20:30,153.1292,-27.3917,77.00,68.00,73.78,350.00,12.00,0.00,30.03,M,6.21,M,FEW,SCT,M,M,1400.00,28000.00,M,M,M,YBBN 232030Z 35012KT 9999 FEW014 SCT280 25/20 Q1017
YBBN,2014-11-23 21:00,153.1292,-27.3917,77.00,68.00,73.78,350.00,14.00,0.00,30.03,M,6.21,M,FEW,SCT,M,M,1500.00,1700.00,M,M,M,YBBN 232100Z 35014KT 9999 FEW015 SCT017 25/20 Q1017
YBBN,2014-11-23 21:30,153.1292,-27.3917,78.80,66.20,65.33,350.00,13.00,0.00,30.03,M,6.21,M,FEW,SCT,M,M,1600.00,2000.00,M,M,M,YBBN 232130Z 35013KT 9999 FEW016 SCT020 26/19 Q1017
YBBN,2014-11-23 22:00,153.1292,-27.3917,78.80,66.20,65.33,350.00,11.00,0.00,30.06,M,6.21,M,FEW,SCT,M,M,1700.00,2300.00,M,M,M,YBBN 232200Z 35011KT 9999 FEW017 SCT023 26/19 Q1018
YBBN,2014-11-23 22:30,153.1292,-27.3917,80.60,64.40,57.84,360.00,12.00,0.00,30.03,M,6.21,M,FEW,SCT,M,M,1900.00,3200.00,M,M,M,YBBN 232230Z 36012KT 9999 FEW019 SCT032 27/18 Q1017
YBBN,2014-11-23 23:00,153.1292,-27.3917,80.60,62.60,54.30,360.00,12.00,0.00,30.03,M,6.21,M,FEW,M,M,M,2000.00,M,M,M,M,YBBN 232300Z 36012KT 9999 FEW020 27/17 Q1017 RMK SMOKE NORTH
YBBN,2014-11-23 23:30,153.1292,-27.3917,80.60,66.20,61.58,20.00,13.00,0.00,30.03,M,6.21,M,FEW,M,M,M,2500.00,M,M,M,M,YBBN 232330Z 02013KT 9999 FEW025 27/19 Q1017
