#DEBUG: Format Typ    -> comma
#DEBUG: Time Period   -> 2015-01-27 00:00:00+00:00 2015-01-28 00:00:00+00:00
#DEBUG: Time Zone     -> Etc/UTC
#DEBUG: Data Contact   -> daryl herzmann akrherz@iastate.edu 515-294-5978
#DEBUG: Entries Found -> -1
station,valid,lon,lat,tmpf, dwpf, relh, drct, sknt, p01i, alti, mslp, vsby, gust, skyc1, skyc2, skyc3, skyc4, skyl1, skyl2, skyl3, skyl4, presentwx, metar
YBBN,2015-01-27 00:00,153.1292,-27.3917,82.40,71.60,69.90,110.00,10.00,0.00,29.77,M,6.21,M,FEW,SCT,BKN,M,2000.00,2500.00,25000.00,M,VCSH,YBBN 270000Z 11010KT 9999 VCSH FEW020 SCT025 BKN250 28/22 Q1008
YBBN,2015-01-27 00:30,153.1292,-27.3917,82.40,68.00,61.81,110.00,11.00,0.00,29.77,M,6.21,M,FEW,SCT,BKN,M,2000.00,2500.00,13000.00,M,VCSH,YBBN 270030Z 11011KT 9999 VCSH FEW020 SCT025 BKN130 28/20 Q1008
YBBN,2015-01-27 01:00,153.1292,-27.3917,84.20,71.60,65.95,110.00,11.00,0.00,29.74,M,6.21,M,FEW,SCT,BKN,FEW,2000.00,2600.00,13000.00,2400.00,SHRA,YBBN 270100Z 11011KT 9999 SHRA FEW020 SCT026 BKN130 FEW024TCU 29/22 Q1007
YBBN,2015-01-27 01:30,153.1292,-27.3917,82.40,69.80,65.74,110.00,12.00,0.00,29.74,M,6.21,M,FEW,SCT,BKN,FEW,1800.00,2600.00,6000.00,2400.00,SHRA,YBBN 270130Z 11012KT 9999 SHRA FEW018 SCT026 BKN060 FEW024TCU 28/21 Q1007
YBBN,2015-01-27 02:00,153.1292,-27.3917,82.40,69.80,65.74,120.00,9.00,0.00,29.74,M,6.21,M,FEW,SCT,BKN,M,1800.00,2600.00,6500.00,M,VCSH,YBBN 270200Z 12009KT 9999 VCSH FEW018 SCT026 BKN065 28/21 Q1007 NOSIG
YBBN,2015-01-27 02:30,153.1292,-27.3917,82.40,69.80,65.74,100.00,11.00,0.00,29.71,M,6.21,M,SCT,BKN,M,M,2600.00,6800.00,M,M,M,YBBN 270230Z 10011KT 9999 SCT026 BKN068 28/21 Q1006
YBBN,2015-01-27 03:00,153.1292,-27.3917,84.20,69.80,62.03,90.00,10.00,0.00,29.71,M,6.21,M,FEW,BKN,M,M,3000.00,7000.00,M,M,M,YBBN 270300Z 09010KT 9999 FEW030 BKN070 29/21 Q1006
YBBN,2015-01-27 03:30,153.1292,-27.3917,82.40,69.80,65.74,100.00,10.00,0.00,29.71,M,6.21,M,SCT,SCT,M,M,2800.00,7000.00,M,M,VCSH,YBBN 270330Z 10010KT 9999 VCSH SCT028 SCT070 28/21 Q1006
YBBN,2015-01-27 04:00,153.1292,-27.3917,82.40,71.60,69.90,120.00,11.00,0.00,29.68,M,6.21,M,SCT,BKN,M,M,2800.00,13000.00,M,M,M,YBBN 270400Z 12011KT 9999 SCT028 BKN130 28/22 Q1005 NOSIG
YBBN,2015-01-27 04:30,153.1292,-27.3917,82.40,69.80,65.74,100.00,11.00,0.00,29.68,M,6.21,M,SCT,BKN,M,M,2800.00,13000.00,M,M,M,YBBN 270430Z 10011KT 9999 SCT028 BKN130 28/21 Q1005
YBBN,2015-01-27 05:00,153.1292,-27.3917,80.60,69.80,69.71,100.00,11.00,0.00,29.68,M,6.21,M,FEW,SCT,M,M,2200.00,2400.00,M,M,M,YBBN 270500Z 10011KT 9999 FEW022 SCT024 27/21 Q1005
YBBN,2015-01-27 05:30,153.1292,-27.3917,82.40,69.80,65.74,100.00,12.00,0.00,29.68,M,6.21,M,FEW,SCT,M,M,2200.00,2400.00,M,M,M,YBBN 270530Z 10012KT 9999 FEW022 SCT024 28/21 Q1005
YBBN,2015-01-27 06:00,153.1292,-27.3917,80.60,68.00,65.54,100.00,11.00,0.00,29.65,M,6.21,M,FEW,SCT,M,M,2200.00,2400.00,M,M,M,YBBN 270600Z 10011KT 9999 FEW022 SCT024 27/20 Q1004
YBBN,2015-01-27 06:30,153.1292,-27.3917,80.60,68.00,65.54,110.00,11.00,0.00,29.65,M,6.21,M,FEW,SCT,M,M,2200.00,2400.00,M,M,M,YBBN 270630Z 11011KT 9999 FEW022 SCT024 27/20 Q1004
YBBN,2015-01-27 07:00,153.1292,-27.3917,80.60,66.20,61.58,110.00,10.00,0.00,29.65,M,6.21,M,FEW,BKN,M,M,2200.00,13000.00,M,M,M,YBBN 270700Z 11010KT 9999 FEW022 BKN130 27/19 Q1004 NOSIG
YBBN,2015-01-27 07:30,153.1292,-27.3917,78.80,66.20,65.33,100.00,10.00,0.00,29.68,M,6.21,M,FEW,SCT,BKN,M,2200.00,7000.00,13000.00,M,M,YBBN 270730Z 10010KT 9999 FEW022 SCT070 BKN130 26/19 Q1005
YBBN,2015-01-27 08:00,153.1292,-27.3917,78.80,66.20,65.33,110.00,9.00,0.00,29.68,M,6.21,M,FEW,SCT,BKN,M,2300.00,2500.00,25000.00,M,M,YBBN 270800Z 11009KT 9999 FEW023 SCT025 BKN250 26/19 Q1005
YBBN,2015-01-27 08:30,153.1292,-27.3917,78.80,68.00,69.52,110.00,9.00,0.00,29.68,M,6.21,M,FEW,SCT,BKN,M,2300.00,4200.00,25000.00,M,M,YBBN 270830Z 11009KT 9999 FEW023 SCT042 BKN250 26/20 Q1005
YBBN,2015-01-27 09:00,153.1292,-27.3917,78.80,66.20,65.33,100.00,9.00,0.00,29.71,M,6.21,M,FEW,SCT,BKN,M,2300.00,3200.00,17000.00,M,M,YBBN 270900Z 10009KT 9999 FEW023 SCT032 BKN170 26/19 Q1006 NOSIG
YBBN,2015-01-27 09:30,153.1292,-27.3917,77.00,68.00,73.78,100.00,9.00,0.00,29.71,M,6.21,M,SCT,BKN,BKN,M,2700.00,16000.00,22000.00,M,M,YBBN 270930Z 10009KT 9999 SCT027 BKN160 BKN220 25/20 Q1006
YBBN,2015-01-27 10:00,153.1292,-27.3917,78.80,68.00,69.52,100.00,9.00,0.00,29.71,M,6.21,M,SCT,BKN,M,M,2700.00,16000.00,M,M,M,YBBN 271000Z 10009KT 9999 SCT027 BKN160 26/20 Q1006
YBBN,2015-01-27 10:30,153.1292,-27.3917,77.00,68.00,73.78,100.00,9.00,0.00,29.71,M,6.21,M,SCT,SCT,BKN,M,2700.00,11500.00,14000.00,M,-SHRA,YBBN 271030Z 10009KT 9999 -SHRA SCT027 SCT115 BKN140 25/20 Q1006
YBBN,2015-01-27 11:00,153.1292,-27.3917,77.00,68.00,73.78,110.00,9.00,0.00,29.74,M,6.21,M,SCT,BKN,M,M,2600.00,3800.00,M,M,-SHRA,YBBN 271100Z 11009KT 9999 -SHRA SCT026 BKN038 25/20 Q1007
YBBN,2015-01-27 11:30,153.1292,-27.3917,77.00,68.00,73.78,110.00,7.00,0.00,29.74,M,6.21,M,SCT,SCT,BKN,M,2600.00,3800.00,9100.00,M,-SHRA,YBBN 271130Z 11007KT 9999 -SHRA SCT026 SCT038 BKN091 25/20 Q1007
YBBN,2015-01-27 12:00,153.1292,-27.3917,75.20,68.00,78.34,110.00,6.00,0.00,29.74,M,6.21,M,FEW,SCT,BKN,M,2600.00,7900.00,9400.00,M,-RA,YBBN 271200Z 11006KT 9999 -RA FEW026 SCT079 BKN094 24/20 Q1007
YBBN,2015-01-27 12:30,153.1292,-27.3917,75.20,66.20,73.61,130.00,6.00,0.00,29.74,M,6.21,M,FEW,SCT,BKN,M,2600.00,5100.00,10000.00,M,-RA,YBBN 271230Z 13006KT 9999 -RA FEW026 SCT051 BKN100 24/19 Q1007
YBBN,2015-01-27 13:00,153.1292,-27.3917,75.20,68.00,78.34,120.00,6.00,0.00,29.74,M,6.21,M,FEW,BKN,BKN,M,3200.00,10000.00,14000.00,M,-RA,YBBN 271300Z 12006KT 9999 -RA FEW032 BKN100 BKN140 24/20 Q1007
YBBN,2015-01-27 13:30,153.1292,-27.3917,75.20,68.00,78.34,150.00,6.00,0.00,29.74,M,6.21,M,FEW,BKN,BKN,M,2000.00,9800.00,12000.00,M,-RA,YBBN 271330Z 15006KT 9999 -RA FEW020 BKN098 BKN120 24/20 Q1007
YBBN,2015-01-27 14:00,153.1292,-27.3917,71.60,69.80,94.06,170.00,7.00,0.00,29.74,M,6.21,M,FEW,SCT,OVC,M,1500.00,12000.00,14000.00,M,-RA,YBBN 271400Z 17007KT 9999 -RA FEW015 SCT120 OVC140 22/21 Q1007
YBBN,2015-01-27 14:30,153.1292,-27.3917,71.60,68.00,88.43,190.00,6.00,0.00,29.74,M,6.21,M,FEW,BKN,M,M,1500.00,10500.00,M,M,-RA,YBBN 271430Z 19006KT 9999 -RA FEW015 BKN105 22/20 Q1007
YBBN,2015-01-27 15:00,153.1292,-27.3917,71.60,68.00,88.43,170.00,10.00,0.00,29.71,M,6.21,M,FEW,BKN,BKN,M,1500.00,9000.00,10500.00,M,-RA,YBBN 271500Z 17010KT 9999 -RA FEW015 BKN090 BKN105 22/20 Q1006
YBBN,2015-01-27 15:30,153.1292,-27.3917,69.80,68.00,94.01,170.00,9.00,0.00,29.71,M,6.21,M,FEW,BKN,OVC,M,1500.00,10500.00,13000.00,M,-RA,YBBN 271530Z 17009KT 9999 -RA FEW015 BKN105 OVC130 21/20 Q1006
YBBN,2015-01-27 16:00,153.1292,-27.3917,69.80,66.20,88.34,170.00,7.00,0.00,29.68,M,6.21,M,FEW,BKN,OVC,M,1500.00,11500.00,13000.00,M,-RA,YBBN 271600Z 17007KT 9999 -RA FEW015 BKN115 OVC130 21/19 Q1005
YBBN,2015-01-27 16:30,153.1292,-27.3917,69.80,64.40,82.98,190.00,6.00,0.00,29.68,M,6.21,M,FEW,BKN,OVC,M,4000.00,11500.00,13000.00,M,-RA,YBBN 271630Z 19006KT 9999 -RA FEW040 BKN115 OVC130 21/18 Q1005
YBBN,2015-01-27 17:00,153.1292,-27.3917,69.80,66.20,88.34,190.00,6.00,0.00,29.68,M,6.21,M,M,M,M,M,M,M,M,M,M,YBBN 271700Z 19006KT CAVOK 21/19 Q1005
YBBN,2015-01-27 17:30,153.1292,-27.3917,69.80,66.20,88.34,190.00,6.00,0.00,29.68,M,6.21,M,M,M,M,M,M,M,M,M,M,YBBN 271730Z 19006KT CAVOK 21/19 Q1005 RMK 7AC130
YBBN,2015-01-27 18:00,153.1292,-27.3917,68.00,66.20,93.97,210.00,8.00,0.00,29.68,M,6.21,M,M,M,M,M,M,M,M,M,M,YBBN 271800Z 21008KT CAVOK 20/19 Q1005
YBBN,2015-01-27 18:30,153.1292,-27.3917,68.00,64.40,88.26,210.00,8.00,0.00,29.68,M,6.21,M,M,M,M,M,M,M,M,M,M,YBBN 271830Z 21008KT CAVOK 20/18 Q1005 RMK 7AC140
YBBN,2015-01-27 19:00,153.1292,-27.3917,68.00,64.40,88.26,210.00,7.00,0.00,29.68,M,6.21,M,BKN,M,M,M,12000.00,M,M,M,-RA,YBBN 271900Z 21007KT 9999 -RA BKN120 20/18 Q1005
YBBN,2015-01-27 19:30,153.1292,-27.3917,68.00,64.40,88.26,200.00,8.00,0.00,29.68,M,6.21,M,BKN,BKN,M,M,12000.00,16000.00,M,M,VCSH,YBBN 271930Z 20008KT 9999 VCSH BKN120 BKN160 20/18 Q1005
YBBN,2015-01-27 20:00,153.1292,-27.3917,68.00,64.40,88.26,200.00,7.00,0.00,29.68,M,6.21,M,FEW,BKN,BKN,M,1700.00,12000.00,16000.00,M,VCSH,YBBN 272000Z 20007KT 9999 VCSH FEW017 BKN120 BKN160 20/18 Q1005
YBBN,2015-01-27 20:30,153.1292,-27.3917,68.00,64.40,88.26,200.00,8.00,0.00,29.68,M,6.21,M,FEW,SCT,BKN,M,1700.00,4500.00,12000.00,M,-RA,YBBN 272030Z 20008KT 9999 -RA FEW017 SCT045 BKN120 20/18 Q1005
YBBN,2015-01-27 21:00,153.1292,-27.3917,68.00,64.40,88.26,210.00,7.00,0.00,29.71,M,6.21,M,FEW,SCT,BKN,M,1400.00,4500.00,12000.00,M,-RA,YBBN 272100Z 21007KT 9999 -RA FEW014 SCT045 BKN120 20/18 Q1006
YBBN,2015-01-27 21:30,153.1292,-27.3917,68.00,64.40,88.26,200.00,6.00,0.00,29.71,M,6.21,M,FEW,SCT,BKN,M,1400.00,4000.00,12000.00,M,-RA,YBBN 272130Z 20006KT 9999 -RA FEW014 SCT040 BKN120 20/18 Q1006
YBBN,2015-01-27 22:00,153.1292,-27.3917,69.80,64.40,82.98,170.00,7.00,0.00,29.68,M,6.21,M,FEW,SCT,BKN,M,1500.00,4000.00,12000.00,M,VCSH,YBBN 272200Z 17007KT 9999 VCSH FEW015 SCT040 BKN120 21/18 Q1005
YBBN,2015-01-27 22:30,153.1292,-27.3917,69.80,66.20,88.34,200.00,9.00,0.00,29.71,M,6.21,M,FEW,SCT,BKN,M,1500.00,4000.00,12000.00,M,M,YBBN 272230Z 20009KT 9999 FEW015 SCT040 BKN120 21/19 Q1006
YBBN,2015-01-27 23:00,153.1292,-27.3917,69.80,66.20,88.34,200.00,11.00,0.00,29.71,M,6.21,M,FEW,SCT,BKN,M,1500.00,3500.00,12000.00,M,-RA,YBBN 272300Z 20011KT 9999 -RA FEW015 SCT035 BKN120 21/19 Q1006
YBBN,2015-01-27 23:30,153.1292,-27.3917,71.60,66.20,83.09,190.00,8.00,0.00,29.71,M,6.21,M,FEW,SCT,BKN,M,1600.00,3500.00,12000.00,M,-RA,YBBN 272330Z 19008KT 9999 -RA FEW016 SCT035 BKN120 22/19 Q1006
