#DEBUG: Format Typ    -> comma
#DEBUG: Time Period   -> 2012-10-08 00:00:00+00:00 2012-10-09 00:00:00+00:00
#DEBUG: Time Zone     -> Etc/UTC
#DEBUG: Data Contact   -> daryl herzmann akrherz@iastate.edu 515-294-5978
#DEBUG: Entries Found -> -1
station,valid,lon,lat,tmpf, dwpf, relh, drct, sknt, p01i, alti, mslp, vsby, gust, skyc1, skyc2, skyc3, skyc4, skyl1, skyl2, skyl3, skyl4, presentwx, metar
YBBN,2012-10-08 00:00,153.1292,-27.3917,71.60,57.20,60.44,130.00,8.00,0.00,29.94,M,6.21,M,FEW,BKN,M,M,3200.00,4100.00,M,M,VCSH,YBBN 080000Z 13008KT 9999 VCSH FEW032 BKN041 22/14 Q1014 NOSIG
YBBN,2012-10-08 00:30,153.1292,-27.3917,71.60,57.20,60.44,120.00,7.00,0.00,29.94,M,6.21,M,SCT,BKN,M,M,3100.00,4500.00,M,M,M,YBBN 080030Z 12007KT 9999 SCT031 BKN045 22/14 Q1014
YBBN,2012-10-08 01:00,153.1292,-27.3917,71.60,57.20,60.44,120.00,10.00,0.00,29.91,M,6.21,M,SCT,SCT,M,M,3500.00,5000.00,M,M,M,YBBN 080100Z 12010KT 9999 SCT035 SCT050 22/14 Q1013
YBBN,2012-10-08 01:30,153.1292,-27.3917,71.60,57.20,60.44,120.00,9.00,0.00,29.91,M,6.21,M,FEW,SCT,M,M,3500.00,6000.00,M,M,M,YBBN 080130Z 12009KT 9999 FEW035 SCT060 22/14 Q1013
YBBN,2012-10-08 02:00,153.1292,-27.3917,71.60,59.00,64.48,120.00,10.00,0.00,29.91,M,6.21,M,SCT,SCT,M,M,3500.00,6200.00,M,M,M,YBBN 080200Z 12010KT 9999 SCT035 SCT062 22/15 Q1013
YBBN,2012-10-08 02:30,153.1292,-27.3917,73.40,59.00,60.67,120.00,9.00,0.00,29.88,M,6.21,M,SCT,SCT,M,M,3500.00,6500.00,M,M,M,YBBN 080230Z 12009KT 9999 SCT035 SCT065 23/15 Q1012
YBBN,2012-10-08 03:00,153.1292,-27.3917,71.60,57.20,60.44,120.00,10.00,0.00,29.88,M,6.21,M,SCT,SCT,M,M,3500.00,6500.00,M,M,M,YBBN 080300Z 12010KT 9999 SCT035 SCT065 22/14 Q1012 NOSIG
YBBN,2012-10-08 03:30,153.1292,-27.3917,73.40,59.00,60.67,120.00,11.00,0.00,29.85,M,6.21,M,FEW,SCT,M,M,2300.00,3800.00,M,M,M,YBBN 080330Z 12011KT 9999 FEW023 SCT038 23/15 Q1011
YBBN,2012-10-08 04:00,153.1292,-27.3917,71.60,57.20,60.44,90.00,8.00,0.00,29.85,M,6.21,M,SCT,SCT,M,M,4000.00,7000.00,M,M,M,YBBN 080400Z 09008KT 9999 SCT040 SCT070 22/14 Q1011 NOSIG
YBBN,2012-10-08 04:30,153.1292,-27.3917,73.40,59.00,60.67,100.00,9.00,0.00,29.85,M,6.21,M,FEW,SCT,M,M,4000.00,6500.00,M,M,M,YBBN 080430Z 10009KT 9999 FEW040 SCT065 23/15 Q1011
YBBN,2012-10-08 05:00,153.1292,-27.3917,73.40,59.00,60.67,100.00,9.00,0.00,29.83,M,6.21,M,FEW,M,M,M,3500.00,M,M,M,M,YBBN 080500Z 10009KT 9999 FEW035 23/15 Q1010 NOSIG
YBBN,2012-10-08 05:30,153.1292,-27.3917,71.60,59.00,64.48,90.00,9.00,0.00,29.83,M,6.21,M,FEW,M,M,M,3500.00,M,M,M,M,YBBN 080530Z 09009KT 9999 FEW035 22/15 Q1010
YBBN,2012-10-08 06:00,153.1292,-27.3917,71.60,59.00,64.48,60.00,11.00,0.00,29.83,M,6.21,M,FEW,SCT,M,M,2500.00,7000.00,M,M,M,YBBN 080600Z 06011KT 9999 FEW025 SCT070 22/15 Q1010
YBBN,2012-10-08 06:30,153.1292,-27.3917,71.60,59.00,64.48,60.00,11.00,0.00,29.83,M,6.21,M,FEW,SCT,M,M,2600.00,6500.00,M,M,M,YBBN 080630Z 06011KT 9999 FEW026 SCT065 22/15 Q1010
YBBN,2012-10-08 07:00,153.1292,-27.3917,69.80,59.00,68.55,70.00,9.00,0.00,29.83,M,6.21,M,FEW,M,M,M,2800.00,M,M,M,M,YBBN 080700Z 07009KT 9999 FEW028 21/15 Q1010 NOSIG
YBBN,2012-10-08 07:30,153.1292,-27.3917,69.80,59.00,68.55,60.00,11.00,0.00,29.83,M,6.21,M,FEW,M,M,M,2800.00,M,M,M,M,YBBN 080730Z 06011KT 9999 FEW028 21/15 Q1010
YBBN,2012-10-08 08:00,153.1292,-27.3917,69.80,57.20,64.26,70.00,8.00,0.00,29.83,M,6.21,M,FEW,M,M,M,2800.00,M,M,M,M,YBBN 080800Z 07008KT 9999 FEW028 21/14 Q1010 NOSIG
YBBN,2012-10-08 08:30,153.1292,-27.3917,69.80,57.20,64.26,80.00,7.00,0.00,29.85,M,6.21,M,SCT,M,M,M,2800.00,M,M,M,M,YBBN 080830Z 08007KT 9999 SCT028 21/14 Q1011
YBBN,2012-10-08 09:00,153.1292,-27.3917,69.80,57.20,64.26,60.00,8.00,0.00,29.85,M,6.21,M,BKN,M,M,M,2700.00,M,M,M,M,YBBN 080900Z 06008KT 9999 BKN027 21/14 Q1011 NOSIG
YBBN,2012-10-08 09:30,153.1292,-27.3917,69.80,57.20,64.26,60.00,8.00,0.00,29.85,M,6.21,M,BKN,M,M,M,2700.00,M,M,M,M,YBBN 080930Z 06008KT 9999 BKN027 21/14 Q1011
YBBN,2012-10-08 10:00,153.1292,-27.3917,69.80,57.20,64.26,60.00,7.00,0.00,29.88,M,6.21,M,FEW,BKN,M,M,2700.00,3800.00,M,M,M,YBBN 081000Z 06007KT 9999 FEW027 BKN038 21/14 Q1012
YBBN,2012-10-08 10:30,153.1292,-27.3917,69.80,57.20,64.26,60.00,9.00,0.00,29.88,M,6.21,M,BKN,M,M,M,4300.00,M,M,M,M,YBBN 081030Z 06009KT 9999 BKN043 21/14 Q1012
YBBN,2012-10-08 11:00,153.1292,-27.3917,69.80,57.20,64.26,50.00,8.00,0.00,29.88,M,6.21,M,OVC,M,M,M,3900.00,M,M,M,M,YBBN 081100Z 05008KT 9999 OVC039 21/14 Q1012
YBBN,2012-10-08 11:30,153.1292,-27.3917,69.80,57.20,64.26,50.00,8.00,0.00,29.88,M,6.21,M,OVC,M,M,M,3700.00,M,M,M,M,YBBN 081130Z 05008KT 9999 OVC037 21/14 Q1012
YBBN,2012-10-08 12:00,153.1292,-27.3917,69.80,59.00,68.55,40.00,8.00,0.00,29.88,M,6.21,M,FEW,OVC,M,M,2500.00,3500.00,M,M,M,YBBN 081200Z 04008KT 9999 FEW025 OVC035 21/15 Q1012 NOSIG
YBBN,2012-10-08 12:30,153.1292,-27.3917,69.80,59.00,68.55,50.00,6.00,0.00,29.88,M,6.21,M,FEW,OVC,M,M,2800.00,3500.00,M,M,M,YBBN 081230Z 05006KT 9999 FEW028 OVC035 21/15 Q1012
YBBN,2012-10-08 13:00,153.1292,-27.3917,69.80,59.00,68.55,50.00,7.00,0.00,29.88,M,6.21,M,SCT,BKN,M,M,2600.00,3400.00,M,M,M,YBBN 081300Z 05007KT 9999 SCT026 BKN034 21/15 Q1012 NOSIG
YBBN,2012-10-08 13:30,153.1292,-27.3917,69.80,59.00,68.55,40.00,7.00,0.00,29.88,M,6.21,M,FEW,OVC,M,M,2600.00,3300.00,M,M,M,YBBN 081330Z 04007KT 9999 FEW026 OVC033 21/15 Q1012
YBBN,2012-10-08 14:00,153.1292,-27.3917,68.00,60.80,77.75,30.00,7.00,0.00,29.85,M,6.21,M,SCT,BKN,M,M,3700.00,5400.00,M,M,M,YBBN 081400Z 03007KT 9999 SCT037 BKN054 20/16 Q1011 NOSIG
YBBN,2012-10-08 14:30,153.1292,-27.3917,68.00,60.80,77.75,40.00,7.00,0.00,29.85,M,6.21,M,SCT,BKN,M,M,3600.00,4300.00,M,M,M,YBBN 081430Z 04007KT 9999 SCT036 BKN043 20/16 Q1011
YBBN,2012-10-08 15:00,153.1292,-27.3917,68.00,60.80,77.75,30.00,6.00,0.00,29.85,M,6.21,M,SCT,BKN,M,M,3600.00,4200.00,M,M,M,YBBN 081500Z 03006KT 9999 SCT036 BKN042 20/16 Q1011 NOSIG
YBBN,2012-10-08 15:30,153.1292,-27.3917,66.20,60.80,82.74,10.00,5.00,0.00,29.83,M,6.21,M,SCT,M,M,M,3900.00,M,M,M,M,YBBN 081530Z 01005KT 9999 SCT039 19/16 Q1010
YBBN,2012-10-08 16:00,153.1292,-27.3917,64.40,60.80,88.09,0.00,0.00,0.00,29.83,M,6.21,M,SCT,M,M,M,3700.00,M,M,M,M,YBBN 081600Z 00000KT 9999 SCT037 18/16 Q1010 NOSIG
YBBN,2012-10-08 16:30,153.1292,-27.3917,64.40,60.80,88.09,0.00,0.00,0.00,29.83,M,6.21,M,FEW,M,M,M,3700.00,M,M,M,M,YBBN 081630Z 00000KT 9999 FEW037 18/16 Q1010
YBBN,2012-10-08 17:00,153.1292,-27.3917,64.40,60.80,88.09,0.00,0.00,0.00,29.80,M,6.21,M,FEW,M,M,M,2500.00,M,M,M,M,YBBN 081700Z 00000KT 9999 FEW025 18/16 Q1009 NOSIG
YBBN,2012-10-08 17:30,153.1292,-27.3917,62.60,60.80,93.83,0.00,0.00,0.00,29.83,M,6.21,M,FEW,M,M,M,2500.00,M,M,M,M,YBBN 081730Z 00000KT 9999 FEW025 17/16 Q1010
YBBN,2012-10-08 18:00,153.1292,-27.3917,64.40,60.80,88.09,240.00,4.00,0.00,29.83,M,6.21,M,BKN,M,M,M,2700.00,M,M,M,M,YBBN 081800Z 24004KT 9999 BKN027 18/16 Q1010
YBBN,2012-10-08 18:30,153.1292,-27.3917,64.40,60.80,88.09,210.00,4.00,0.00,29.83,M,6.21,M,BKN,BKN,M,M,2300.00,3000.00,M,M,M,YBBN 081830Z 21004KT 9999 BKN023 BKN030 18/16 Q1010
YBBN,2012-10-08 19:00,153.1292,-27.3917,64.40,60.80,88.09,0.00,0.00,0.00,29.83,M,6.21,M,FEW,M,M,M,2300.00,M,M,M,M,YBBN 081900Z 00000KT 9999 FEW023 18/16 Q1010 NOSIG
YBBN,2012-10-08 19:30,153.1292,-27.3917,62.60,59.00,88.00,260.00,3.00,0.00,29.85,M,6.21,M,FEW,M,M,M,2900.00,M,M,M,M,YBBN 081930Z 26003KT 9999 FEW029 17/15 Q1011
YBBN,2012-10-08 20:00,153.1292,-27.3917,62.60,59.00,88.00,250.00,3.00,0.00,29.85,M,6.21,M,BKN,M,M,M,2700.00,M,M,M,M,YBBN 082000Z 25003KT 9999 BKN027 17/15 Q1011 NOSIG
YBBN,2012-10-08 20:30,153.1292,-27.3917,68.00,60.80,77.75,270.00,5.00,0.00,29.85,M,6.21,M,FEW,SCT,M,M,2700.00,14000.00,M,M,M,YBBN 082030Z 27005KT 9999 FEW027 SCT140 20/16 Q1011
YBBN,2012-10-08 21:00,153.1292,-27.3917,69.80,60.80,73.09,270.00,5.00,0.00,29.85,M,6.21,M,FEW,SCT,M,M,2500.00,14000.00,M,M,M,YBBN 082100Z 27005KT 9999 FEW025 SCT140 21/16 Q1011 NOSIG
YBBN,2012-10-08 21:30,153.1292,-27.3917,71.60,60.80,68.75,270.00,4.00,0.00,29.88,M,6.21,M,FEW,SCT,M,M,2500.00,16000.00,M,M,M,YBBN 082130Z 27004KT 9999 FEW025 SCT160 22/16 Q1012
YBBN,2012-10-08 22:00,153.1292,-27.3917,71.60,59.00,64.48,310.00,7.00,0.00,29.88,M,6.21,M,FEW,SCT,M,M,2700.00,18000.00,M,M,M,YBBN 082200Z 31007KT 9999 FEW027 SCT180 22/15 Q1012
YBBN,2012-10-08 22:30,153.1292,-27.3917,73.40,59.00,60.67,310.00,6.00,0.00,29.88,M,6.21,M,FEW,SCT,M,M,3000.00,25000.00,M,M,M,YBBN 082230Z 31006KT 9999 FEW030 SCT250 23/15 Q1012
YBBN,2012-10-08 23:00,153.1292,-27.3917,75.20,57.20,53.55,280.00,5.00,0.00,29.88,M,6.21,M,FEW,SCT,M,M,3200.00,25000.00,M,M,M,YBBN 082300Z 28005KT 9999 FEW032 SCT250 24/14 Q1012 NOSIG
YBBN,2012-10-08 23:30,153.1292,-27.3917,77.00,51.80,41.42,10.00,10.00,0.00,29.85,M,6.21,M,FEW,SCT,M,M,4000.00,25000.00,M,M,M,YBBN 082330Z 01010KT 9999 FEW040 SCT250 25/11 Q1011
