#DEBUG: Format Typ    -> comma
#DEBUG: Time Period   -> 2015-12-22 00:00:00+00:00 2015-12-23 00:00:00+00:00
#DEBUG: Time Zone     -> Etc/UTC
#DEBUG: Data Contact   -> daryl herzmann akrherz@iastate.edu 515-294-5978
#DEBUG: Entries Found -> -1
station,valid,lon,lat,tmpf, dwpf, relh, drct, sknt, p01i, alti, mslp, vsby, gust, skyc1, skyc2, skyc3, skyc4, skyl1, skyl2, skyl3, skyl4, presentwx, metar
YBBN,2015-12-22 00:00,153.1292,-27.3917,80.60,64.40,57.84,40.00,8.00,0.00,30.03,M,6.21,M,FEW,BKN,M,M,2700.00,30000.00,M,M,M,YBBN 220000Z 04008KT 9999 FEW027 BKN300 27/18 Q1017 NOSIG
YBBN,2015-12-22 00:30,153.1292,-27.3917,80.60,64.40,57.84,20.00,7.00,0.00,30.06,M,6.21,M,FEW,SCT,BKN,M,2400.00,2800.00,30000.00,M,M,YBBN 220030Z 02007KT 360V060 9999 FEW024 SCT028 BKN300 27/18 Q1018 NOSIG
YBBN,2015-12-22 01:00,153.1292,-27.3917,82.40,64.40,54.55,40.00,8.00,0.00,30.03,M,6.21,M,FEW,BKN,M,M,2800.00,30000.00,M,M,M,YBBN 220100Z 04008KT 9999 FEW028 BKN300 28/18 Q1017
YBBN,2015-12-22 01:30,153.1292,-27.3917,80.60,64.40,57.84,30.00,8.00,0.00,30.03,M,6.21,M,FEW,BKN,M,M,2800.00,30000.00,M,M,M,YBBN 220130Z 03008KT 9999 FEW028 BKN300 27/18 Q1017 NOSIG
YBBN,2015-12-22 02:00,153.1292,-27.3917,84.20,64.40,51.47,40.00,9.00,0.00,30.00,M,6.21,M,FEW,SCT,M,M,3000.00,30000.00,M,M,M,YBBN 220200Z 04009KT 9999 FEW030 SCT300 29/18 Q1016
YBBN,2015-12-22 02:30,153.1292,-27.3917,82.40,64.40,54.55,30.00,10.00,0.00,30.00,M,6.21,M,FEW,SCT,M,M,3000.00,30000.00,M,M,M,YBBN 220230Z 03010KT 9999 FEW030 SCT300 28/18 Q1016 NOSIG
YBBN,2015-12-22 03:00,153.1292,-27.3917,84.20,66.20,54.80,30.00,11.00,0.00,30.00,M,6.21,M,FEW,SCT,M,M,3000.00,30000.00,M,M,M,YBBN 220300Z 03011KT 9999 FEW030 SCT300 29/19 Q1016
YBBN,2015-12-22 03:30,153.1292,-27.3917,84.20,64.40,51.47,30.00,11.00,0.00,30.00,M,6.21,M,FEW,BKN,M,M,3200.00,30000.00,M,M,M,YBBN 220330Z 03011KT 9999 FEW032 BKN300 29/18 Q1016
YBBN,2015-12-22 04:00,153.1292,-27.3917,82.40,66.20,58.08,40.00,12.00,0.00,29.97,M,6.21,M,FEW,SCT,M,M,3300.00,27000.00,M,M,M,YBBN 220400Z 04012KT 9999 FEW033 SCT270 28/19 Q1015 NOSIG
YBBN,2015-12-22 04:30,153.1292,-27.3917,82.40,64.40,54.55,50.00,12.00,0.00,29.97,M,6.21,M,FEW,BKN,M,M,3300.00,30000.00,M,M,M,YBBN 220430Z 05012KT 9999 FEW033 BKN300 28/18 Q1015
YBBN,2015-12-22 05:00,153.1292,-27.3917,80.60,64.40,57.84,50.00,12.00,0.00,29.94,M,6.21,M,FEW,BKN,M,M,3000.00,30000.00,M,M,M,YBBN 220500Z 05012KT 9999 FEW030 BKN300 27/18 Q1014 NOSIG
YBBN,2015-12-22 05:30,153.1292,-27.3917,82.40,64.40,54.55,50.00,11.00,0.00,29.94,M,6.21,M,FEW,BKN,M,M,3000.00,30000.00,M,M,M,YBBN 220530Z 05011KT 9999 FEW030 BKN300 28/18 Q1014 NOSIG
YBBN,2015-12-22 06:00,153.1292,-27.3917,80.60,64.40,57.84,50.00,12.00,0.00,29.94,M,6.21,M,FEW,BKN,M,M,3000.00,30000.00,M,M,M,YBBN 220600Z 05012KT 9999 FEW030 BKN300 27/18 Q1014 NOSIG
YBBN,2015-12-22 06:30,153.1292,-27.3917,78.80,62.60,57.60,50.00,13.00,0.00,29.94,M,6.21,M,FEW,BKN,M,M,2800.00,30000.00,M,M,M,YBBN 220630Z 05013KT 9999 FEW028 BKN300 26/17 Q1014 NOSIG
YBBN,2015-12-22 07:00,153.1292,-27.3917,78.80,62.60,57.60,50.00,12.00,0.00,29.94,M,6.21,M,FEW,SCT,M,M,2800.00,25000.00,M,M,M,YBBN 220700Z 05012KT 9999 FEW028 SCT250 26/17 Q1014 NOSIG
YBBN,2015-12-22 07:30,153.1292,-27.3917,78.80,64.40,61.36,60.00,10.00,0.00,29.94,M,6.21,M,FEW,SCT,BKN,M,2800.00,25000.00,30000.00,M,M,YBBN 220730Z 06010KT 9999 FEW028 SCT250 BKN300 26/18 Q1014 NOSIG
YBBN,2015-12-22 08:00,153.1292,-27.3917,77.00,64.40,65.12,40.00,11.00,0.00,29.97,M,6.21,M,FEW,BKN,M,M,2700.00,30000.00,M,M,M,YBBN 220800Z 04011KT 9999 FEW027 BKN300 25/18 Q1015 NOSIG
YBBN,2015-12-22 08:30,153.1292,-27.3917,77.00,64.40,65.12,40.00,10.00,0.00,29.97,M,6.21,M,FEW,BKN,M,M,2700.00,30000.00,M,M,M,YBBN 220830Z 04010KT 9999 FEW027 BKN300 25/18 Q1015 NOSIG
YBBN,2015-12-22 09:00,153.1292,-27.3917,75.20,64.40,69.14,40.00,9.00,0.00,30.00,M,6.21,M,FEW,BKN,M,M,2700.00,30000.00,M,M,M,YBBN 220900Z 04009KT 9999 FEW027 BKN300 24/18 Q1016
YBBN,2015-12-22 09:30,153.1292,-27.3917,75.20,64.40,69.14,40.00,8.00,0.00,30.00,M,6.21,M,FEW,BKN,M,M,2700.00,30000.00,M,M,M,YBBN 220930Z 04008KT 9999 FEW027 BKN300 24/18 Q1016 NOSIG
YBBN,2015-12-22 10:00,153.1292,-27.3917,75.20,64.40,69.14,40.00,8.00,0.00,30.00,M,6.21,M,FEW,BKN,M,M,2700.00,30000.00,M,M,M,YBBN 221000Z 04008KT 9999 FEW027 BKN300 24/18 Q1016 NOSIG
YBBN,2015-12-22 10:30,153.1292,-27.3917,75.20,64.40,69.14,40.00,6.00,0.00,30.00,M,6.21,M,FEW,BKN,M,M,2700.00,30000.00,M,M,M,YBBN 221030Z 04006KT 9999 FEW027 BKN300 24/18 Q1016 NOSIG
YBBN,2015-12-22 11:00,153.1292,-27.3917,73.40,64.40,73.44,50.00,7.00,0.00,30.00,M,6.21,M,FEW,BKN,M,M,2500.00,30000.00,M,M,M,YBBN 221100Z 05007KT 9999 FEW025 BKN300 23/18 Q1016 NOSIG
YBBN,2015-12-22 11:30,153.1292,-27.3917,73.40,64.40,73.44,40.00,6.00,0.00,30.00,M,6.21,M,FEW,BKN,M,M,2500.00,30000.00,M,M,M,YBBN 221130Z 04006KT 9999 FEW025 BKN300 23/18 Q1016 NOSIG
YBBN,2015-12-22 12:00,153.1292,-27.3917,73.40,64.40,73.44,50.00,5.00,0.00,30.03,M,6.21,M,FEW,BKN,M,M,2500.00,30000.00,M,M,M,YBBN 221200Z 05005KT 9999 FEW025 BKN300 23/18 Q1017 NOSIG
YBBN,2015-12-22 12:30,153.1292,-27.3917,75.20,62.60,64.91,50.00,6.00,0.00,30.00,M,6.21,M,FEW,BKN,M,M,2500.00,30000.00,M,M,M,YBBN 221230Z 05006KT 9999 FEW025 BKN300 24/17 Q1016 NOSIG
YBBN,2015-12-22 13:00,153.1292,-27.3917,73.40,64.40,73.44,40.00,7.00,0.00,30.00,M,6.21,M,FEW,SCT,BKN,M,3000.00,6300.00,30000.00,M,M,YBBN 221300Z 04007KT 9999 FEW030 SCT063 BKN300 23/18 Q1016
YBBN,2015-12-22 13:30,153.1292,-27.3917,75.20,64.40,69.14,50.00,7.00,0.00,29.97,M,6.21,M,SCT,SCT,BKN,M,2800.00,24500.00,30000.00,M,M,YBBN 221330Z 05007KT 9999 SCT028 SCT245 BKN300 24/18 Q1015 NOSIG
YBBN,2015-12-22 14:00,153.1292,-27.3917,75.20,64.40,69.14,60.00,7.00,0.00,29.97,M,6.21,M,SCT,BKN,M,M,2500.00,5800.00,M,M,M,YBBN 221400Z 06007KT 9999 SCT025 BKN058 24/18 Q1015 NOSIG
YBBN,2015-12-22 14:30,153.1292,-27.3917,75.20,64.40,69.14,50.00,7.00,0.00,29.97,M,6.21,M,SCT,BKN,M,M,2800.00,5800.00,M,M,M,YBBN 221430Z 05007KT 9999 SCT028 BKN058 24/18 Q1015 NOSIG
YBBN,2015-12-22 15:00,153.1292,-27.3917,73.40,64.40,73.44,40.00,7.00,0.00,29.97,M,6.21,M,SCT,SCT,BKN,M,2900.00,5800.00,24500.00,M,M,YBBN 221500Z 04007KT 9999 SCT029 SCT058 BKN245 23/18 Q1015 NOSIG
YBBN,2015-12-22 15:30,153.1292,-27.3917,73.40,64.40,73.44,40.00,8.00,0.00,29.94,M,6.21,M,SCT,BKN,M,M,2800.00,4100.00,M,M,M,YBBN 221530Z 04008KT 9999 SCT028 BKN041 23/18 Q1014 NOSIG
YBBN,2015-12-22 16:00,153.1292,-27.3917,73.40,64.40,73.44,30.00,7.00,0.00,29.94,M,6.21,M,SCT,SCT,BKN,M,3000.00,6300.00,24000.00,M,M,YBBN 221600Z 03007KT 9999 SCT030 SCT063 BKN240 23/18 Q1014
YBBN,2015-12-22 16:30,153.1292,-27.3917,73.40,62.60,68.94,30.00,7.00,0.00,29.94,M,6.21,M,FEW,SCT,BKN,M,2800.00,4500.00,22500.00,M,M,YBBN 221630Z 03007KT 9999 FEW028 SCT045 BKN225 23/17 Q1014
YBBN,2015-12-22 17:00,153.1292,-27.3917,71.60,62.60,73.27,30.00,6.00,0.00,29.94,M,6.21,M,FEW,SCT,BKN,M,2500.00,5200.00,30000.00,M,M,YBBN 221700Z 03006KT 9999 FEW025 SCT052 BKN300 22/17 Q1014 NOSIG
YBBN,2015-12-22 17:30,153.1292,-27.3917,71.60,64.40,78.04,30.00,6.00,0.00,29.91,M,6.21,M,SCT,BKN,M,M,3000.00,5200.00,M,M,M,YBBN 221730Z 03006KT 9999 SCT030 BKN052 22/18 Q1013 NOSIG
YBBN,2015-12-22 18:00,153.1292,-27.3917,71.60,62.60,73.27,30.00,5.00,0.00,29.94,M,6.21,M,FEW,SCT,BKN,M,2500.00,3800.00,5000.00,M,M,YBBN 221800Z 03005KT 9999 FEW025 SCT038 BKN050 22/17 Q1014
YBBN,2015-12-22 18:30,153.1292,-27.3917,71.60,62.60,73.27,40.00,6.00,0.00,29.94,M,6.21,M,FEW,SCT,M,M,2500.00,30000.00,M,M,M,YBBN 221830Z 04006KT 9999 FEW025 SCT300 22/17 Q1014 NOSIG
YBBN,2015-12-22 19:00,153.1292,-27.3917,69.80,62.60,77.90,30.00,6.00,0.00,29.91,M,6.21,M,FEW,M,M,M,2500.00,M,M,M,M,YBBN 221900Z 03006KT 9999 FEW025 21/17 Q1013
YBBN,2015-12-22 19:30,153.1292,-27.3917,71.60,64.40,78.04,30.00,5.00,0.00,29.94,M,6.21,M,FEW,M,M,M,2500.00,M,M,M,M,YBBN 221930Z 03005KT 9999 FEW025 22/18 Q1014 NOSIG
YBBN,2015-12-22 20:00,153.1292,-27.3917,75.20,62.60,64.91,20.00,7.00,0.00,29.94,M,6.21,M,FEW,M,M,M,2500.00,M,M,M,M,YBBN 222000Z 02007KT 9999 FEW025 24/17 Q1014 NOSIG
YBBN,2015-12-22 20:30,153.1292,-27.3917,77.00,62.60,61.13,10.00,8.00,0.00,29.94,M,6.21,M,FEW,SCT,M,M,2500.00,20000.00,M,M,M,YBBN 222030Z 01008KT 9999 FEW025 SCT200 25/17 Q1014 NOSIG
YBBN,2015-12-22 21:00,153.1292,-27.3917,77.00,62.60,61.13,350.00,6.00,0.00,29.94,M,6.21,M,FEW,SCT,M,M,2700.00,19000.00,M,M,M,YBBN 222100Z 35006KT 9999 FEW027 SCT190 25/17 Q1014 NOSIG
YBBN,2015-12-22 21:30,153.1292,-27.3917,78.80,62.60,57.60,10.00,8.00,0.00,29.94,M,6.21,M,FEW,SCT,M,M,2800.00,18000.00,M,M,M,YBBN 222130Z 01008KT 9999 FEW028 SCT180 26/17 Q1014 NOSIG
YBBN,2015-12-22 22:00,153.1292,-27.3917,77.00,64.40,65.12,350.00,8.00,0.00,29.94,M,6.21,M,SCT,BKN,M,M,2800.00,14000.00,M,M,M,YBBN 222200Z 35008KT 9999 SCT028 BKN140 25/18 Q1014
YBBN,2015-12-22 23:00,153.1292,-27.3917,80.60,62.60,54.30,10.00,9.00,0.00,29.94,M,6.21,M,FEW,SCT,M,M,3000.00,14000.00,M,M,M,YBBN 222300Z 01009KT 9999 FEW030 SCT140 27/17 Q1014 NOSIG
YBBN,2015-12-22 23:30,153.1292,-27.3917,80.60,60.80,50.95,10.00,8.00,0.00,29.94,M,6.21,M,FEW,SCT,M,M,3300.00,14000.00,M,M,M,YBBN 222330Z 01008KT 9999 FEW033 SCT140 27/16 Q1014 NOSIG
