#DEBUG: Format Typ    -> comma
#DEBUG: Time Period   -> 2013-06-08 00:00:00+00:00 2013-06-09 00:00:00+00:00
#DEBUG: Time Zone     -> Etc/UTC
#DEBUG: Data Contact   -> daryl herzmann akrherz@iastate.edu 515-294-5978
#DEBUG: Entries Found -> -1
station,valid,lon,lat,tmpf, dwpf, relh, drct, sknt, p01i, alti, mslp, vsby, gust, skyc1, skyc2, skyc3, skyc4, skyl1, skyl2, skyl3, skyl4, presentwx, metar
YBBN,2013-06-08 00:00,153.1292,-27.3917,64.40,57.20,77.45,210.00,9.00,0.00,30.30,M,6.21,M,FEW,SCT,BKN,M,3000.00,17500.00,28000.00,M,M,YBBN 080000Z 21009KT 9999 FEW030 SCT175 BKN280 18/14 Q1026 NOSIG
YBBN,2013-06-08 00:30,153.1292,-27.3917,66.20,57.20,72.74,200.00,8.00,0.00,30.30,M,6.21,M,FEW,SCT,BKN,M,3300.00,21500.00,28000.00,M,M,YBBN 080030Z 20008KT 9999 FEW033 SCT215 BKN280 19/14 Q1026
YBBN,2013-06-08 01:00,153.1292,-27.3917,69.80,57.20,64.26,170.00,5.00,0.00,30.30,M,6.21,M,FEW,SCT,BKN,M,2800.00,21500.00,28000.00,M,M,YBBN 080100Z 17005KT 9999 FEW028 SCT215 BKN280 21/14 Q1026 NOSIG
YBBN,2013-06-08 01:30,153.1292,-27.3917,71.60,59.00,64.48,130.00,7.00,0.00,30.27,M,6.21,M,FEW,SCT,BKN,M,3500.00,21000.00,28000.00,M,M,YBBN 080130Z 13007KT 9999 FEW035 SCT210 BKN280 22/15 Q1025
YBBN,2013-06-08 02:00,153.1292,-27.3917,71.60,60.80,68.75,130.00,7.00,0.00,30.27,M,6.21,M,FEW,SCT,BKN,M,2400.00,21000.00,28000.00,M,M,YBBN 080200Z 13007KT 9999 FEW024 SCT210 BKN280 22/16 Q1025
YBBN,2013-06-08 02:30,153.1292,-27.3917,69.80,60.80,73.09,130.00,9.00,0.00,30.24,M,6.21,M,SCT,SCT,BKN,M,2400.00,4500.00,28000.00,M,VCSH,YBBN 080230Z 13009KT 9999 VCSH SCT024 SCT045 BKN280 21/16 Q1024
YBBN,2013-06-08 03:00,153.1292,-27.3917,69.80,60.80,73.09,160.00,8.00,0.00,30.24,M,6.21,M,FEW,SCT,BKN,M,2200.00,2600.00,6600.00,M,M,YBBN 080300Z 16008KT 9999 FEW022 SCT026 BKN066 21/16 Q1024 NOSIG
YBBN,2013-06-08 03:30,153.1292,-27.3917,69.80,59.00,68.55,150.00,8.00,0.00,30.24,M,6.21,M,FEW,SCT,BKN,M,2000.00,2300.00,6400.00,M,M,YBBN 080330Z 15008KT 9999 FEW020 SCT023 BKN064 21/15 Q1024
YBBN,2013-06-08 04:00,153.1292,-27.3917,69.80,59.00,68.55,150.00,7.00,0.00,30.21,M,6.21,M,FEW,SCT,BKN,M,2000.00,2300.00,6400.00,M,VCSH,YBBN 080400Z 15007KT 9999 VCSH FEW020 SCT023 BKN064 21/15 Q1023 NOSIG
YBBN,2013-06-08 04:30,153.1292,-27.3917,66.20,60.80,82.74,170.00,9.00,0.00,30.24,M,6.21,M,FEW,SCT,BKN,M,2000.00,4500.00,5900.00,M,VCSH,YBBN 080430Z 17009KT 9999 VCSH FEW020 SCT045 BKN059 19/16 Q1024
YBBN,2013-06-08 05:00,153.1292,-27.3917,68.00,60.80,77.75,160.00,8.00,0.00,30.24,M,6.21,M,FEW,BKN,BKN,M,2000.00,6200.00,28000.00,M,VCSH,YBBN 080500Z 16008KT 9999 VCSH FEW020 BKN062 BKN280 20/16 Q1024 NOSIG
YBBN,2013-06-08 05:30,153.1292,-27.3917,68.00,59.00,72.92,170.00,9.00,0.00,30.21,M,6.21,M,FEW,SCT,BKN,M,1900.00,3700.00,6200.00,M,M,YBBN 080530Z 17009KT 9999 FEW019 SCT037 BKN062 20/15 Q1023
YBBN,2013-06-08 06:00,153.1292,-27.3917,66.20,59.00,77.60,160.00,7.00,0.00,30.24,M,6.21,M,FEW,BKN,M,M,1900.00,5600.00,M,M,VCSH,YBBN 080600Z 16007KT 9999 VCSH FEW019 BKN056 19/15 Q1024 NOSIG
YBBN,2013-06-08 06:30,153.1292,-27.3917,66.20,60.80,82.74,170.00,8.00,0.00,30.24,M,6.21,M,FEW,SCT,BKN,M,2200.00,3500.00,5600.00,M,VCSH,YBBN 080630Z 17008KT 9999 VCSH FEW022 SCT035 BKN056 19/16 Q1024
YBBN,2013-06-08 07:00,153.1292,-27.3917,66.20,60.80,82.74,170.00,8.00,0.00,30.24,M,6.21,M,FEW,BKN,M,M,2200.00,5600.00,M,M,M,YBBN 080700Z 17008KT 9999 FEW022 BKN056 19/16 Q1024
YBBN,2013-06-08 07:30,153.1292,-27.3917,66.20,59.00,77.60,190.00,9.00,0.00,30.24,M,6.21,M,FEW,SCT,BKN,M,1700.00,3600.00,5800.00,M,M,YBBN 080730Z 19009KT 9999 FEW017 SCT036 BKN058 19/15 Q1024 RMK DIST SH S/SE
YBBN,2013-06-08 08:00,153.1292,-27.3917,64.40,59.00,82.62,190.00,9.00,0.00,30.24,M,6.21,M,FEW,SCT,BKN,M,1700.00,5800.00,7700.00,M,M,YBBN 080800Z 19009KT 9999 FEW017 SCT058 BKN077 18/15 Q1024
YBBN,2013-06-08 08:30,153.1292,-27.3917,64.40,59.00,82.62,200.00,8.00,0.00,30.24,M,6.21,M,M,M,M,M,M,M,M,M,M,YBBN 080830Z 20008KT CAVOK 18/15 Q1024 RMK 5SC075
YBBN,2013-06-08 09:00,153.1292,-27.3917,64.40,59.00,82.62,200.00,7.00,0.00,30.27,M,6.21,M,FEW,BKN,M,M,2000.00,5500.00,M,M,M,YBBN 080900Z 20007KT 9999 FEW020 BKN055 18/15 Q1025 NOSIG
YBBN,2013-06-08 09:30,153.1292,-27.3917,64.40,59.00,82.62,190.00,9.00,0.00,30.27,M,6.21,M,FEW,BKN,M,M,1600.00,5500.00,M,M,M,YBBN 080930Z 19009KT 9999 FEW016 BKN055 18/15 Q1025
YBBN,2013-06-08 10:00,153.1292,-27.3917,64.40,60.80,88.09,180.00,8.00,0.00,30.27,M,6.21,M,FEW,BKN,M,M,1600.00,5500.00,M,M,M,YBBN 081000Z 18008KT 9999 FEW016 BKN055 18/16 Q1025 INTER 1100/1300 3000 SHRA BKN012
YBBN,2013-06-08 10:30,153.1292,-27.3917,62.60,60.80,93.83,170.00,11.00,0.00,30.27,M,4.97,M,SCT,SCT,BKN,M,1000.00,2200.00,5500.00,M,VCSH,YBBN 081030Z 17011KT 8000 VCSH SCT010 SCT022 BKN055 17/16 Q1025
YBBN,2013-06-08 10:43,153.1292,-27.3917,62.60,60.80,93.83,170.00,9.00,0.00,30.27,M,3.11,M,SCT,SCT,BKN,M,1000.00,2400.00,3200.00,M,-SHRA,YBBN 081043Z 17009KT 5000 -SHRA SCT010 SCT024 BKN032 17/16 Q1025
YBBN,2013-06-08 11:00,153.1292,-27.3917,62.60,60.80,93.83,180.00,7.00,0.00,30.27,M,5.59,M,SCT,SCT,BKN,M,900.00,2400.00,3200.00,M,-SHRA,YBBN 081100Z 18007KT 9000 -SHRA SCT009 SCT024 BKN032 17/16 Q1025
YBBN,2013-06-08 11:30,153.1292,-27.3917,62.60,60.80,93.83,190.00,9.00,0.00,30.27,M,6.21,M,SCT,SCT,BKN,M,900.00,2000.00,4500.00,M,-SHRA,YBBN 081130Z 19009KT 9999 -SHRA SCT009 SCT020 BKN045 17/16 Q1025
YBBN,2013-06-08 12:00,153.1292,-27.3917,62.60,60.80,93.83,170.00,9.00,0.00,30.27,M,6.21,M,SCT,SCT,BKN,M,800.00,2200.00,5400.00,M,-SHRA,YBBN 081200Z 17009KT 9999 -SHRA SCT008 SCT022 BKN054 17/16 Q1025 TEMPO 1200/1500 1600 SHRA BKN008
YBBN,2013-06-08 12:17,153.1292,-27.3917,62.60,60.80,93.83,180.00,7.00,0.00,30.27,M,3.11,M,SCT,BKN,BKN,M,900.00,2200.00,3900.00,M,-SHRA,YBBN 081217Z 18007KT 5000 -SHRA SCT009 BKN022 BKN039 17/16 Q1025
YBBN,2013-06-08 12:30,153.1292,-27.3917,62.60,60.80,93.83,190.00,7.00,0.00,30.27,M,2.49,M,FEW,BKN,BKN,M,1000.00,1800.00,2800.00,M,-SHRA,YBBN 081230Z 19007KT 4000 -SHRA FEW010 BKN018 BKN028 17/16 Q1025
YBBN,2013-06-08 13:00,153.1292,-27.3917,62.60,60.80,93.83,200.00,8.00,0.00,30.27,M,2.49,M,FEW,SCT,BKN,M,400.00,1200.00,2800.00,M,-SHRA,YBBN 081300Z 20008KT 4000 -SHRA FEW004 SCT012 BKN028 17/16 Q1025
YBBN,2013-06-08 13:30,153.1292,-27.3917,62.60,62.60,100.00,190.00,5.00,0.00,30.24,M,2.49,M,SCT,BKN,M,M,500.00,1200.00,M,M,-SHRA,YBBN 081330Z 19005KT 4000 -SHRA SCT005 BKN012 17/17 Q1024
YBBN,2013-06-08 14:04,153.1292,-27.3917,62.60,62.60,100.00,160.00,8.00,0.00,30.24,M,4.35,M,FEW,BKN,BKN,M,700.00,1200.00,3200.00,M,-SHRA,YBBN 081404Z 16008KT 7000 -SHRA FEW007 BKN012 BKN032 17/17 Q1024
YBBN,2013-06-08 14:17,153.1292,-27.3917,62.60,62.60,100.00,170.00,7.00,0.00,30.24,M,6.21,M,FEW,SCT,BKN,M,900.00,2200.00,3200.00,M,-SHRA,YBBN 081417Z 17007KT 9999 -SHRA FEW009 SCT022 BKN032 17/17 Q1024
YBBN,2013-06-08 14:30,153.1292,-27.3917,62.60,62.60,100.00,170.00,7.00,0.00,30.24,M,6.21,M,FEW,BKN,BKN,M,1500.00,3400.00,4500.00,M,VCSH,YBBN 081430Z 17007KT 9999 VCSH FEW015 BKN034 BKN045 17/17 Q1024
YBBN,2013-06-08 15:00,153.1292,-27.3917,62.60,62.60,100.00,160.00,7.00,0.00,30.24,M,3.11,M,FEW,SCT,BKN,M,1500.00,2400.00,3800.00,M,-SHRA,YBBN 081500Z 16007KT 5000 -SHRA FEW015 SCT024 BKN038 17/17 Q1024
YBBN,2013-06-08 15:30,153.1292,-27.3917,62.60,62.60,100.00,170.00,6.00,0.00,30.24,M,4.35,M,FEW,SCT,BKN,M,900.00,2400.00,3800.00,M,-SHRA,YBBN 081530Z 17006KT 7000 -SHRA FEW009 SCT024 BKN038 17/17 Q1024
YBBN,2013-06-08 16:00,153.1292,-27.3917,62.60,62.60,100.00,200.00,7.00,0.00,30.24,M,4.97,M,FEW,SCT,BKN,M,900.00,2400.00,4000.00,M,VCSH,YBBN 081600Z 20007KT 8000 VCSH FEW009 SCT024 BKN040 17/17 Q1024
YBBN,2013-06-08 16:30,153.1292,-27.3917,62.60,60.80,93.83,180.00,5.00,0.00,30.24,M,3.11,M,FEW,BKN,BKN,M,600.00,2100.00,3000.00,M,-SHRA,YBBN 081630Z 18005KT 5000 -SHRA FEW006 BKN021 BKN030 17/16 Q1024
YBBN,2013-06-08 17:00,153.1292,-27.3917,62.60,62.60,100.00,180.00,5.00,0.00,30.24,M,3.73,M,SCT,BKN,BKN,M,600.00,2400.00,2800.00,M,-SHRA,YBBN 081700Z 18005KT 6000 -SHRA SCT006 BKN024 BKN028 17/17 Q1024
YBBN,2013-06-08 17:30,153.1292,-27.3917,62.60,62.60,100.00,190.00,5.00,0.00,30.24,M,3.11,M,FEW,OVC,M,M,800.00,3300.00,M,M,-RA,YBBN 081730Z 19005KT 5000 -RA FEW008 OVC033 17/17 Q1024
YBBN,2013-06-08 17:39,153.1292,-27.3917,62.60,62.60,100.00,150.00,4.00,0.00,30.24,M,2.49,M,BKN,OVC,M,M,800.00,3400.00,M,M,-RA,YBBN 081739Z 15004KT 4000 -RA BKN008 OVC034 17/17 Q1024
YBBN,2013-06-08 18:00,153.1292,-27.3917,62.60,62.60,100.00,210.00,6.00,0.00,30.21,M,5.59,M,FEW,SCT,BKN,M,600.00,1400.00,4000.00,M,-RA,YBBN 081800Z 21006KT 9000 -RA FEW006 SCT014 BKN040 17/17 Q1023
YBBN,2013-06-08 18:30,153.1292,-27.3917,62.60,60.80,93.83,200.00,6.00,0.00,30.21,M,6.21,M,FEW,OVC,M,M,2500.00,5000.00,M,M,M,YBBN 081830Z 20006KT 9999 FEW025 OVC050 17/16 Q1023
YBBN,2013-06-08 19:00,153.1292,-27.3917,62.60,60.80,93.83,190.00,6.00,0.00,30.24,M,6.21,M,FEW,OVC,M,M,2500.00,5000.00,M,M,M,YBBN 081900Z 19006KT 9999 FEW025 OVC050 17/16 Q1024 TEMPO 1900/2200 2000 SHRA BKN008
YBBN,2013-06-08 19:30,153.1292,-27.3917,62.60,60.80,93.83,160.00,5.00,0.00,30.24,M,6.21,M,FEW,BKN,M,M,2000.00,5000.00,M,M,M,YBBN 081930Z 16005KT 9999 FEW020 BKN050 17/16 Q1024
YBBN,2013-06-08 20:00,153.1292,-27.3917,62.60,60.80,93.83,180.00,6.00,0.00,30.24,M,6.21,M,FEW,BKN,M,M,2000.00,7500.00,M,M,M,YBBN 082000Z 18006KT 9999 FEW020 BKN075 17/16 Q1024
YBBN,2013-06-08 20:30,153.1292,-27.3917,62.60,60.80,93.83,190.00,6.00,0.00,30.24,M,6.21,M,FEW,BKN,M,M,2700.00,7000.00,M,M,M,YBBN 082030Z 19006KT 9999 FEW027 BKN070 17/16 Q1024
YBBN,2013-06-08 21:00,153.1292,-27.3917,62.60,60.80,93.83,190.00,7.00,0.00,30.24,M,6.21,M,SCT,SCT,BKN,M,3000.00,4500.00,7000.00,M,M,YBBN 082100Z 19007KT 9999 SCT030 SCT045 BKN070 17/16 Q1024 TEMPO 2100/2400 2000 SHRA BKN008
YBBN,2013-06-08 21:30,153.1292,-27.3917,64.40,60.80,88.09,170.00,8.00,0.00,30.27,M,6.21,M,FEW,SCT,BKN,M,2000.00,2800.00,7000.00,M,M,YBBN 082130Z 17008KT 9999 FEW020 SCT028 BKN070 18/16 Q1025 RMK SHOWERS TO THE SOUTH
YBBN,2013-06-08 22:00,153.1292,-27.3917,62.60,60.80,93.83,150.00,8.00,0.00,30.27,M,6.21,M,FEW,SCT,BKN,M,2000.00,2400.00,5000.00,M,VCSH,YBBN 082200Z 15008KT 9999 8000S VCSH FEW020 SCT024 BKN050 17/16 Q1025 TEMPO 2200/0100 2000 SHRA BKN008
YBBN,2013-06-08 22:14,153.1292,-27.3917,62.60,60.80,93.83,170.00,7.00,0.00,30.27,M,4.97,M,FEW,SCT,BKN,M,2000.00,2400.00,4000.00,M,-DZ VCSH,YBBN 082214Z 17007KT 8000 4000S -DZ VCSH FEW020 SCT024 BKN040 17/16 Q1025
YBBN,2013-06-08 22:30,153.1292,-27.3917,62.60,60.80,93.83,160.00,7.00,0.00,30.27,M,3.11,M,FEW,SCT,BKN,M,1500.00,2400.00,3500.00,M,-DZ,YBBN 082230Z 16007KT 5000 -DZ FEW015 SCT024 BKN035 17/16 Q1025
YBBN,2013-06-08 23:00,153.1292,-27.3917,62.60,60.80,93.83,180.00,8.00,0.00,30.27,M,6.21,M,FEW,SCT,BKN,M,1800.00,3000.00,4000.00,M,M,YBBN 082300Z 18008KT 9999 FEW018 SCT030 BKN040 17/16 Q1025
YBBN,2013-06-08 23:30,153.1292,-27.3917,64.40,59.00,82.62,170.00,7.00,0.00,30.30,M,6.21,M,FEW,BKN,M,M,3000.00,4000.00,M,M,M,YBBN 082330Z 17007KT 9999 FEW030 BKN040 18/15 Q1026
