#DEBUG: Format Typ    -> comma
#DEBUG: Time Period   -> 2015-07-05 00:00:00+00:00 2015-07-06 00:00:00+00:00
#DEBUG: Time Zone     -> Etc/UTC
#DEBUG: Data Contact   -> daryl herzmann akrherz@iastate.edu 515-294-5978
#DEBUG: Entries Found -> -1
station,valid,lon,lat,tmpf, dwpf, relh, drct, sknt, p01i, alti, mslp, vsby, gust, skyc1, skyc2, skyc3, skyc4, skyl1, skyl2, skyl3, skyl4, presentwx, metar
YBBN,2015-07-05 00:00,153.1292,-27.3917,64.40,53.60,67.95,210.00,7.00,0.00,30.21,M,6.21,M,FEW,SCT,M,M,2800.00,6500.00,M,M,M,YBBN 050000Z 21007KT 9999 FEW028 SCT065 18/12 Q1023 NOSIG
YBBN,2015-07-05 00:30,153.1292,-27.3917,66.20,53.60,63.82,270.00,4.00,0.00,30.18,M,6.21,M,FEW,SCT,M,M,3000.00,6500.00,M,M,M,YBBN 050030Z 27004KT 9999 FEW030 SCT065 19/12 Q1022
YBBN,2015-07-05 01:00,153.1292,-27.3917,69.80,55.40,60.21,330.00,5.00,0.00,30.18,M,6.21,M,FEW,M,M,M,3000.00,M,M,M,M,YBBN 050100Z 33005KT 9999 FEW030 21/13 Q1022
YBBN,2015-07-05 01:30,153.1292,-27.3917,69.80,55.40,60.21,360.00,7.00,0.00,30.18,M,6.21,M,FEW,M,M,M,3000.00,M,M,M,M,YBBN 050130Z 36007KT 9999 FEW030 21/13 Q1022
YBBN,2015-07-05 02:00,153.1292,-27.3917,68.00,53.60,59.97,360.00,8.00,0.00,30.15,M,6.21,M,FEW,M,M,M,3000.00,M,M,M,M,YBBN 050200Z 36008KT 9999 FEW030 20/12 Q1021
YBBN,2015-07-05 02:30,153.1292,-27.3917,68.00,55.40,64.04,20.00,8.00,0.00,30.12,M,6.21,M,FEW,SCT,M,M,3000.00,6000.00,M,M,M,YBBN 050230Z 02008KT 9999 FEW030 SCT060 20/13 Q1020
YBBN,2015-07-05 03:00,153.1292,-27.3917,68.00,55.40,64.04,20.00,8.00,0.00,30.12,M,6.21,M,FEW,SCT,M,M,3000.00,6000.00,M,M,M,YBBN 050300Z 02008KT 9999 FEW030 SCT060 20/13 Q1020 NOSIG
YBBN,2015-07-05 03:30,153.1292,-27.3917,68.00,57.20,68.35,10.00,7.00,0.00,30.12,M,6.21,M,FEW,SCT,M,M,2800.00,6000.00,M,M,M,YBBN 050330Z 01007KT 9999 FEW028 SCT060 20/14 Q1020
YBBN,2015-07-05 04:00,153.1292,-27.3917,69.80,53.60,56.38,10.00,7.00,0.00,30.09,M,6.21,M,FEW,SCT,M,M,3000.00,6000.00,M,M,M,YBBN 050400Z 01007KT 9999 FEW030 SCT060 21/12 Q1019
YBBN,2015-07-05 04:30,153.1292,-27.3917,68.00,55.40,64.04,30.00,8.00,0.00,30.09,M,6.21,M,FEW,SCT,M,M,3000.00,6000.00,M,M,M,YBBN 050430Z 03008KT 9999 FEW030 SCT060 20/13 Q1019
YBBN,2015-07-05 05:00,153.1292,-27.3917,68.00,53.60,59.97,10.00,6.00,0.00,30.09,M,6.21,M,FEW,M,M,M,3000.00,M,M,M,M,YBBN 050500Z 01006KT 9999 FEW030 20/12 Q1019
YBBN,2015-07-05 05:30,153.1292,-27.3917,69.80,46.40,43.13,320.00,7.00,0.00,30.09,M,6.21,M,FEW,M,M,M,3200.00,M,M,M,M,YBBN 050530Z 32007KT 9999 FEW032 21/08 Q1019
YBBN,2015-07-05 06:00,153.1292,-27.3917,69.80,44.60,40.29,320.00,9.00,0.00,30.09,M,6.21,M,FEW,M,M,M,3200.00,M,M,M,M,YBBN 050600Z 32009KT 9999 FEW032 21/07 Q1019 NOSIG
YBBN,2015-07-05 06:30,153.1292,-27.3917,68.00,46.40,45.88,330.00,7.00,0.00,30.09,M,6.21,M,FEW,M,M,M,3200.00,M,M,M,M,YBBN 050630Z 33007KT 9999 FEW032 20/08 Q1019
YBBN,2015-07-05 07:00,153.1292,-27.3917,64.40,46.40,51.98,320.00,7.00,0.00,30.09,M,6.21,M,FEW,M,M,M,4500.00,M,M,M,M,YBBN 050700Z 32007KT 9999 FEW045 18/08 Q1019
YBBN,2015-07-05 07:30,153.1292,-27.3917,62.60,46.40,55.37,350.00,5.00,0.00,30.09,M,6.21,M,FEW,M,M,M,4500.00,M,M,M,M,YBBN 050730Z 35005KT 9999 FEW045 17/08 Q1019
YBBN,2015-07-05 08:00,153.1292,-27.3917,60.80,51.80,72.20,20.00,4.00,0.00,30.12,M,6.21,M,FEW,M,M,M,4500.00,M,M,M,M,YBBN 050800Z 02004KT 9999 FEW045 16/11 Q1020 NOSIG
YBBN,2015-07-05 08:30,153.1292,-27.3917,59.00,53.60,82.25,360.00,7.00,0.00,30.12,M,6.21,M,M,M,M,M,M,M,M,M,M,YBBN 050830Z 36007KT CAVOK 15/12 Q1020
YBBN,2015-07-05 09:00,153.1292,-27.3917,59.00,55.40,87.83,360.00,9.00,0.00,30.12,M,6.21,M,M,M,M,M,M,M,M,M,M,YBBN 050900Z 36009KT CAVOK 15/13 Q1020 NOSIG
YBBN,2015-07-05 09:30,153.1292,-27.3917,59.00,55.40,87.83,360.00,8.00,0.00,30.12,M,6.21,M,M,M,M,M,M,M,M,M,M,YBBN 050930Z 36008KT CAVOK 15/13 Q1020
YBBN,2015-07-05 10:00,153.1292,-27.3917,59.00,55.40,87.83,350.00,7.00,0.00,30.12,M,6.21,M,M,M,M,M,M,M,M,M,M,YBBN 051000Z 35007KT CAVOK 15/13 Q1020 NOSIG
YBBN,2015-07-05 10:30,153.1292,-27.3917,57.20,55.40,93.69,290.00,4.00,0.00,30.12,M,6.21,M,M,M,M,M,M,M,M,M,M,YBBN 051030Z 29004KT CAVOK 14/13 Q1020
YBBN,2015-07-05 11:00,153.1292,-27.3917,59.00,53.60,82.25,310.00,4.00,0.00,30.12,M,6.21,M,M,M,M,M,M,M,M,M,M,YBBN 051100Z 31004KT CAVOK 15/12 Q1020 NOSIG
YBBN,2015-07-05 11:30,153.1292,-27.3917,57.20,53.60,87.74,320.00,4.00,0.00,30.15,M,6.21,M,M,M,M,M,M,M,M,M,M,YBBN 051130Z 32004KT CAVOK 14/12 Q1021 RMK 5SC070
YBBN,2015-07-05 12:00,153.1292,-27.3917,55.40,51.80,87.65,320.00,3.00,0.00,30.12,M,6.21,M,M,M,M,M,M,M,M,M,M,YBBN 051200Z 32003KT CAVOK 13/11 Q1020 NOSIG
YBBN,2015-07-05 12:30,153.1292,-27.3917,57.20,51.80,82.12,310.00,5.00,0.00,30.12,M,6.21,M,M,M,M,M,M,M,M,M,M,YBBN 051230Z 31005KT CAVOK 14/11 Q1020
YBBN,2015-07-05 13:00,153.1292,-27.3917,55.40,51.80,87.65,320.00,5.00,0.00,30.12,M,6.21,M,M,M,M,M,M,M,M,M,M,YBBN 051300Z 32005KT CAVOK 13/11 Q1020 NOSIG
YBBN,2015-07-05 13:30,153.1292,-27.3917,55.40,51.80,87.65,340.00,6.00,0.00,30.12,M,6.21,M,M,M,M,M,M,M,M,M,M,YBBN 051330Z 34006KT CAVOK 13/11 Q1020
YBBN,2015-07-05 14:00,153.1292,-27.3917,55.40,51.80,87.65,310.00,6.00,0.00,30.12,M,6.21,M,M,M,M,M,M,M,M,M,M,YBBN 051400Z 31006KT CAVOK 13/11 Q1020
YBBN,2015-07-05 14:30,153.1292,-27.3917,55.40,51.80,87.65,310.00,5.00,0.00,30.12,M,6.21,M,M,M,M,M,M,M,M,M,M,YBBN 051430Z 31005KT CAVOK 13/11 Q1020
YBBN,2015-07-05 15:00,153.1292,-27.3917,55.40,51.80,87.65,340.00,4.00,0.00,30.12,M,6.21,M,M,M,M,M,M,M,M,M,M,YBBN 051500Z 34004KT CAVOK 13/11 Q1020 NOSIG
YBBN,2015-07-05 15:30,153.1292,-27.3917,55.40,51.80,87.65,340.00,3.00,0.00,30.12,M,6.21,M,M,M,M,M,M,M,M,M,M,YBBN 051530Z 34003KT CAVOK 13/11 Q1020
YBBN,2015-07-05 16:00,153.1292,-27.3917,53.60,51.80,93.60,270.00,4.00,0.00,30.09,M,6.21,M,M,M,M,M,M,M,M,M,M,YBBN 051600Z 27004KT CAVOK 12/11 Q1019 NOSIG
YBBN,2015-07-05 16:30,153.1292,-27.3917,53.60,50.00,87.56,270.00,2.00,0.00,30.09,M,6.21,M,M,M,M,M,M,M,M,M,M,YBBN 051630Z 27002KT CAVOK 12/10 Q1019
YBBN,2015-07-05 17:00,153.1292,-27.3917,53.60,50.00,87.56,240.00,5.00,0.00,30.09,M,6.21,M,M,M,M,M,M,M,M,M,M,YBBN 051700Z 24005KT CAVOK 12/10 Q1019
YBBN,2015-07-05 17:30,153.1292,-27.3917,53.60,50.00,87.56,270.00,5.00,0.00,30.09,M,6.21,M,M,M,M,M,M,M,M,M,M,YBBN 051730Z 27005KT CAVOK 12/10 Q1019
YBBN,2015-07-05 18:00,153.1292,-27.3917,48.20,48.20,100.00,220.00,5.00,0.00,30.09,M,6.21,M,M,M,M,M,M,M,M,M,M,YBBN 051800Z 22005KT CAVOK 09/09 Q1019 NOSIG
YBBN,2015-07-05 18:30,153.1292,-27.3917,50.00,48.20,93.50,220.00,5.00,0.00,30.09,M,6.21,M,M,M,M,M,M,M,M,M,M,YBBN 051830Z 22005KT CAVOK 10/09 Q1019
YBBN,2015-07-05 19:00,153.1292,-27.3917,50.00,48.20,93.50,210.00,6.00,0.00,30.09,M,6.21,M,M,M,M,M,M,M,M,M,M,YBBN 051900Z 21006KT CAVOK 10/09 Q1019 NOSIG
YBBN,2015-07-05 19:30,153.1292,-27.3917,50.00,46.40,87.37,210.00,7.00,0.00,30.09,M,6.21,M,M,M,M,M,M,M,M,M,M,YBBN 051930Z 21007KT CAVOK 10/08 Q1019
YBBN,2015-07-05 20:00,153.1292,-27.3917,50.00,48.20,93.50,200.00,9.00,0.00,30.09,M,6.21,M,M,M,M,M,M,M,M,M,M,YBBN 052000Z 20009KT CAVOK 10/09 Q1019
YBBN,2015-07-05 20:30,153.1292,-27.3917,50.00,46.40,87.37,190.00,6.00,0.00,30.09,M,6.21,M,FEW,M,M,M,3500.00,M,M,M,M,YBBN 052030Z 19006KT 9999 FEW035 10/08 Q1019
YBBN,2015-07-05 21:00,153.1292,-27.3917,48.20,46.40,93.45,200.00,7.00,0.00,30.09,M,6.21,M,FEW,M,M,M,3500.00,M,M,M,M,YBBN 052100Z 20007KT 9999 FEW035 09/08 Q1019
YBBN,2015-07-05 21:30,153.1292,-27.3917,50.00,48.20,93.50,190.00,5.00,0.00,30.09,M,6.21,M,FEW,M,M,M,3500.00,M,M,M,M,YBBN 052130Z 19005KT 9999 FEW035 10/09 Q1019
YBBN,2015-07-05 22:00,153.1292,-27.3917,51.80,48.20,87.47,200.00,3.00,0.00,30.09,M,6.21,M,FEW,M,M,M,3500.00,M,M,M,M,YBBN 052200Z 20003KT 9999 FEW035 11/09 Q1019 NOSIG
YBBN,2015-07-05 22:30,153.1292,-27.3917,53.60,50.00,87.56,200.00,2.00,0.00,30.09,M,6.21,M,FEW,M,M,M,3500.00,M,M,M,M,YBBN 052230Z 20002KT 9999 FEW035 12/10 Q1019 RMK HAZE
YBBN,2015-07-05 23:00,153.1292,-27.3917,57.20,51.80,82.12,230.00,4.00,0.00,30.09,M,6.21,M,FEW,M,M,M,3500.00,M,M,M,M,YBBN 052300Z 23004KT 9999 FEW035 14/11 Q1019 NOSIG
YBBN,2015-07-05 23:30,153.1292,-27.3917,62.60,51.80,67.75,250.00,4.00,0.00,30.09,M,6.21,M,FEW,M,M,M,3500.00,M,M,M,M,YBBN 052330Z 25004KT 9999 FEW035 17/11 Q1019
