#DEBUG: Format Typ    -> comma
#DEBUG: Time Period   -> 2015-03-13 00:00:00+00:00 2015-03-14 00:00:00+00:00
#DEBUG: Time Zone     -> Etc/UTC
#DEBUG: Data Contact   -> daryl herzmann akrherz@iastate.edu 515-294-5978
#DEBUG: Entries Found -> -1
station,valid,lon,lat,tmpf, dwpf, relh, drct, sknt, p01i, alti, mslp, vsby, gust, skyc1, skyc2, skyc3, skyc4, skyl1, skyl2, skyl3, skyl4, presentwx, metar
YBBN,2015-03-13 00:00,153.1292,-27.3917,80.60,64.40,57.84,120.00,11.00,0.00,29.91,M,6.21,M,SCT,M,M,M,3300.00,M,M,M,M,YBBN 130000Z 12011KT 9999 SCT033 27/18 Q1013
YBBN,2015-03-13 00:30,153.1292,-27.3917,82.40,66.20,58.08,120.00,10.00,0.00,29.91,M,6.21,M,FEW,SCT,M,M,2000.00,3400.00,M,M,VCSH,YBBN 130030Z 12010KT 9999 VCSH FEW020 SCT034 28/19 Q1013
YBBN,2015-03-13 01:00,153.1292,-27.3917,78.80,66.20,65.33,110.00,13.00,0.00,29.91,M,6.21,26.00,FEW,SCT,M,M,1800.00,2700.00,M,M,-SHRA,YBBN 130100Z 11013G26KT 9999 3000S -SHRA FEW018 SCT027 26/19 Q1013
YBBN,2015-03-13 01:30,153.1292,-27.3917,77.00,64.40,65.12,110.00,9.00,0.00,29.91,M,6.21,M,FEW,SCT,M,M,1500.00,5700.00,M,M,VCSH,YBBN 130130Z 11009KT 9999 VCSH FEW015 SCT057 25/18 Q1013 RESHRA
YBBN,2015-03-13 02:00,153.1292,-27.3917,80.60,68.00,65.54,120.00,9.00,0.00,29.91,M,6.21,M,FEW,SCT,M,M,3000.00,9000.00,M,M,VCSH,YBBN 130200Z 12009KT 9999 VCSH FEW030 SCT090 27/20 Q1013
YBBN,2015-03-13 02:30,153.1292,-27.3917,80.60,68.00,65.54,110.00,11.00,0.00,29.88,M,6.21,M,FEW,SCT,M,M,1700.00,2600.00,M,M,VCSH,YBBN 130230Z 11011KT 9999 VCSH FEW017 SCT026 27/20 Q1012
YBBN,2015-03-13 03:00,153.1292,-27.3917,78.80,68.00,69.52,120.00,11.00,0.00,29.88,M,6.21,M,FEW,SCT,M,M,3400.00,9500.00,M,M,VCSH,YBBN 130300Z 12011KT 9999 VCSH FEW034 SCT095 26/20 Q1012
YBBN,2015-03-13 03:30,153.1292,-27.3917,82.40,66.20,58.08,110.00,12.00,0.00,29.88,M,6.21,M,FEW,SCT,M,M,3600.00,9500.00,M,M,M,YBBN 130330Z 11012KT 9999 FEW036 SCT095 28/19 Q1012 RMK DISTANT SHOWER
YBBN,2015-03-13 04:00,153.1292,-27.3917,82.40,66.20,58.08,110.00,12.00,0.00,29.85,M,6.21,M,FEW,SCT,M,M,3600.00,11000.00,M,M,M,YBBN 130400Z 11012KT 9999 FEW036 SCT110 28/19 Q1011
YBBN,2015-03-13 04:30,153.1292,-27.3917,82.40,68.00,61.81,110.00,12.00,0.00,29.85,M,6.21,M,FEW,M,M,M,3600.00,M,M,M,M,YBBN 130430Z 11012KT 9999 FEW036 28/20 Q1011
YBBN,2015-03-13 05:00,153.1292,-27.3917,82.40,62.60,51.21,110.00,13.00,0.00,29.85,M,6.21,M,FEW,M,M,M,3800.00,M,M,M,M,YBBN 130500Z 11013KT 9999 FEW038 28/17 Q1011
YBBN,2015-03-13 05:30,153.1292,-27.3917,80.60,66.20,61.58,120.00,12.00,0.00,29.85,M,6.21,M,FEW,SCT,M,M,3700.00,7000.00,M,M,M,YBBN 130530Z 12012KT 9999 FEW037 SCT070 27/19 Q1011 RMK DISTANT SHOWERS
YBBN,2015-03-13 06:00,153.1292,-27.3917,80.60,64.40,57.84,130.00,11.00,0.00,29.88,M,6.21,M,FEW,SCT,M,M,3700.00,8000.00,M,M,VCSH,YBBN 130600Z 13011KT 9999 VCSH FEW037 SCT080 27/18 Q1012
YBBN,2015-03-13 06:30,153.1292,-27.3917,78.80,62.60,57.60,140.00,11.00,0.00,29.88,M,6.21,M,FEW,BKN,M,M,3400.00,9000.00,M,M,VCSH,YBBN 130630Z 14011KT 9999 VCSH FEW034 BKN090 26/17 Q1012
YBBN,2015-03-13 07:00,153.1292,-27.3917,78.80,62.60,57.60,140.00,10.00,0.00,29.88,M,6.21,M,FEW,BKN,M,M,3400.00,11000.00,M,M,M,YBBN 130700Z 14010KT 9999 FEW034 BKN110 26/17 Q1012 RMK DISTANT SHOWER
YBBN,2015-03-13 07:30,153.1292,-27.3917,77.00,66.20,69.33,160.00,7.00,0.00,29.88,M,6.21,M,FEW,BKN,M,M,3000.00,11000.00,M,M,M,YBBN 130730Z 16007KT 9999 FEW030 BKN110 25/19 Q1012
YBBN,2015-03-13 08:00,153.1292,-27.3917,77.00,66.20,69.33,150.00,8.00,0.00,29.88,M,6.21,M,FEW,SCT,BKN,M,2800.00,10000.00,12000.00,M,M,YBBN 130800Z 15008KT 9999 FEW028 SCT100 BKN120 25/19 Q1012
YBBN,2015-03-13 08:30,153.1292,-27.3917,77.00,64.40,65.12,160.00,9.00,0.00,29.91,M,6.21,M,FEW,SCT,BKN,M,2300.00,12000.00,16000.00,M,M,YBBN 130830Z 16009KT 9999 FEW023 SCT120 BKN160 25/18 Q1013
YBBN,2015-03-13 09:00,153.1292,-27.3917,75.20,66.20,73.61,170.00,9.00,0.00,29.91,M,6.21,M,FEW,SCT,M,M,2300.00,14000.00,M,M,M,YBBN 130900Z 17009KT 9999 FEW023 SCT140 24/19 Q1013
YBBN,2015-03-13 09:30,153.1292,-27.3917,75.20,66.20,73.61,180.00,6.00,0.00,29.94,M,6.21,M,FEW,SCT,M,M,2200.00,13000.00,M,M,M,YBBN 130930Z 18006KT 9999 FEW022 SCT130 24/19 Q1014
YBBN,2015-03-13 10:00,153.1292,-27.3917,75.20,64.40,69.14,150.00,12.00,0.00,29.94,M,6.21,M,FEW,SCT,M,M,2000.00,12000.00,M,M,VCSH,YBBN 131000Z 15012KT 9999 VCSH FEW020 SCT120 24/18 Q1014 RMK SHOWERS TO E/NE.
YBBN,2015-03-13 10:30,153.1292,-27.3917,73.40,62.60,68.94,150.00,10.00,0.00,29.94,M,6.21,M,FEW,M,M,M,2200.00,M,M,M,M,YBBN 131030Z 15010KT 9999 FEW022 23/17 Q1014
YBBN,2015-03-13 11:00,153.1292,-27.3917,73.40,62.60,68.94,170.00,8.00,0.00,29.94,M,6.21,M,FEW,M,M,M,2200.00,M,M,M,M,YBBN 131100Z 17008KT 9999 FEW022 23/17 Q1014
YBBN,2015-03-13 11:30,153.1292,-27.3917,71.60,62.60,73.27,180.00,8.00,0.00,29.94,M,6.21,M,FEW,M,M,M,2200.00,M,M,M,M,YBBN 131130Z 18008KT 9999 FEW022 22/17 Q1014
YBBN,2015-03-13 12:00,153.1292,-27.3917,73.40,62.60,68.94,180.00,9.00,0.00,29.94,M,6.21,M,FEW,M,M,M,2100.00,M,M,M,M,YBBN 131200Z 18009KT 9999 FEW021 23/17 Q1014 NOSIG
YBBN,2015-03-13 12:30,153.1292,-27.3917,73.40,62.60,68.94,180.00,8.00,0.00,29.94,M,6.21,M,FEW,M,M,M,2000.00,M,M,M,M,YBBN 131230Z 18008KT 9999 FEW020 23/17 Q1014
YBBN,2015-03-13 13:00,153.1292,-27.3917,73.40,62.60,68.94,190.00,9.00,0.00,29.94,M,6.21,M,M,M,M,M,M,M,M,M,M,YBBN 131300Z 19009KT CAVOK 23/17 Q1014
YBBN,2015-03-13 13:30,153.1292,-27.3917,71.60,60.80,68.75,190.00,9.00,0.00,29.94,M,6.21,M,M,M,M,M,M,M,M,M,M,YBBN 131330Z 19009KT CAVOK 22/16 Q1014
YBBN,2015-03-13 14:00,153.1292,-27.3917,69.80,60.80,73.09,200.00,9.00,0.00,29.94,M,6.21,M,M,M,M,M,M,M,M,M,M,YBBN 131400Z 20009KT CAVOK 21/16 Q1014
YBBN,2015-03-13 14:30,153.1292,-27.3917,69.80,60.80,73.09,210.00,9.00,0.00,29.91,M,6.21,M,M,M,M,M,M,M,M,M,M,YBBN 131430Z 21009KT CAVOK 21/16 Q1013
YBBN,2015-03-13 15:00,153.1292,-27.3917,69.80,60.80,73.09,200.00,9.00,0.00,29.91,M,6.21,M,M,M,M,M,M,M,M,M,M,YBBN 131500Z 20009KT CAVOK 21/16 Q1013
YBBN,2015-03-13 15:30,153.1292,-27.3917,69.80,60.80,73.09,200.00,9.00,0.00,29.91,M,6.21,M,M,M,M,M,M,M,M,M,M,YBBN 131530Z 20009KT CAVOK 21/16 Q1013
YBBN,2015-03-13 16:00,153.1292,-27.3917,68.00,60.80,77.75,200.00,8.00,0.00,29.91,M,6.21,M,M,M,M,M,M,M,M,M,M,YBBN 131600Z 20008KT CAVOK 20/16 Q1013
YBBN,2015-03-13 16:30,153.1292,-27.3917,68.00,60.80,77.75,200.00,8.00,0.00,29.88,M,6.21,M,M,M,M,M,M,M,M,M,M,YBBN 131630Z 20008KT CAVOK 20/16 Q1012
YBBN,2015-03-13 17:00,153.1292,-27.3917,68.00,60.80,77.75,210.00,9.00,0.00,29.88,M,6.21,M,M,M,M,M,M,M,M,M,M,YBBN 131700Z 21009KT CAVOK 20/16 Q1012
YBBN,2015-03-13 17:30,153.1292,-27.3917,68.00,60.80,77.75,200.00,8.00,0.00,29.88,M,6.21,M,M,M,M,M,M,M,M,M,M,YBBN 131730Z 20008KT CAVOK 20/16 Q1012
YBBN,2015-03-13 18:00,153.1292,-27.3917,68.00,60.80,77.75,200.00,8.00,0.00,29.88,M,6.21,M,M,M,M,M,M,M,M,M,M,YBBN 131800Z 20008KT CAVOK 20/16 Q1012
YBBN,2015-03-13 18:30,153.1292,-27.3917,66.20,60.80,82.74,210.00,7.00,0.00,29.88,M,6.21,M,M,M,M,M,M,M,M,M,M,YBBN 131830Z 21007KT CAVOK 19/16 Q1012
YBBN,2015-03-13 19:00,153.1292,-27.3917,68.00,60.80,77.75,200.00,9.00,0.00,29.91,M,6.21,M,FEW,SCT,M,M,2000.00,22000.00,M,M,M,YBBN 131900Z 20009KT 9999 FEW020 SCT220 20/16 Q1013 NOSIG
YBBN,2015-03-13 19:30,153.1292,-27.3917,66.20,60.80,82.74,200.00,8.00,0.00,29.91,M,6.21,M,FEW,SCT,M,M,2000.00,22000.00,M,M,M,YBBN 131930Z 20008KT 9999 FEW020 SCT220 19/16 Q1013
YBBN,2015-03-13 20:00,153.1292,-27.3917,68.00,60.80,77.75,190.00,6.00,0.00,29.91,M,6.21,M,FEW,M,M,M,2000.00,M,M,M,M,YBBN 132000Z 19006KT 9999 FEW020 20/16 Q1013
YBBN,2015-03-13 20:30,153.1292,-27.3917,66.20,60.80,82.74,200.00,7.00,0.00,29.91,M,6.21,M,FEW,SCT,M,M,2000.00,4000.00,M,M,M,YBBN 132030Z 20007KT 9999 FEW020 SCT040 19/16 Q1013 RMK CB TOP TO DIST E
YBBN,2015-03-13 21:00,153.1292,-27.3917,69.80,60.80,73.09,190.00,6.00,0.00,29.94,M,6.21,M,FEW,SCT,BKN,M,2000.00,4500.00,22000.00,M,M,YBBN 132100Z 19006KT 9999 FEW020 SCT045 BKN220 21/16 Q1014
YBBN,2015-03-13 21:30,153.1292,-27.3917,71.60,60.80,68.75,200.00,8.00,0.00,29.94,M,6.21,M,FEW,SCT,M,M,2200.00,25000.00,M,M,M,YBBN 132130Z 20008KT 9999 FEW022 SCT250 22/16 Q1014
YBBN,2015-03-13 22:00,153.1292,-27.3917,75.20,60.80,60.90,180.00,9.00,0.00,29.94,M,6.21,M,FEW,BKN,M,M,2500.00,25000.00,M,M,M,YBBN 132200Z 18009KT 9999 FEW025 BKN250 24/16 Q1014
YBBN,2015-03-13 22:30,153.1292,-27.3917,75.20,60.80,60.90,170.00,9.00,0.00,29.94,M,6.21,M,FEW,BKN,M,M,2500.00,25000.00,M,M,M,YBBN 132230Z 17009KT 9999 FEW025 BKN250 24/16 Q1014 RMK CB TOP TO DIST E
YBBN,2015-03-13 23:00,153.1292,-27.3917,75.20,60.80,60.90,190.00,9.00,0.00,29.94,M,6.21,M,FEW,BKN,M,M,2000.00,25000.00,M,M,M,YBBN 132300Z 19009KT 9999 FEW020 BKN250 24/16 Q1014
YBBN,2015-03-13 23:30,153.1292,-27.3917,77.00,60.80,57.36,190.00,11.00,0.00,29.94,M,6.21,M,FEW,SCT,M,M,3800.00,25000.00,M,M,M,YBBN 132330Z 19011KT 9999 FEW038 SCT250 25/16 Q1014
