#DEBUG: Format Typ    -> comma
#DEBUG: Time Period   -> 2015-03-27 00:00:00+00:00 2015-03-28 00:00:00+00:00
#DEBUG: Time Zone     -> Etc/UTC
#DEBUG: Data Contact   -> daryl herzmann akrherz@iastate.edu 515-294-5978
#DEBUG: Entries Found -> -1
station,valid,lon,lat,tmpf, dwpf, relh, drct, sknt, p01i, alti, mslp, vsby, gust, skyc1, skyc2, skyc3, skyc4, skyl1, skyl2, skyl3, skyl4, presentwx, metar
YBBN,2015-03-27 00:00,153.1292,-27.3917,82.40,71.60,69.90,260.00,7.00,0.00,30.06,M,6.21,M,SCT,BKN,M,M,2100.00,5200.00,M,M,M,YBBN 270000Z 26007KT 9999 SCT021 BKN052 28/22 Q1018
YBBN,2015-03-27 00:30,153.1292,-27.3917,82.40,71.60,69.90,250.00,7.00,0.00,30.06,M,6.21,M,FEW,SCT,M,M,2300.00,5500.00,M,M,M,YBBN 270030Z 25007KT 9999 FEW023 SCT055 28/22 Q1018
YBBN,2015-03-27 01:00,153.1292,-27.3917,84.20,69.80,62.03,190.00,6.00,0.00,30.06,M,6.21,M,FEW,BKN,M,M,2800.00,5500.00,M,M,M,YBBN 270100Z 19006KT 9999 FEW028 BKN055 29/21 Q1018 NOSIG
YBBN,2015-03-27 01:30,153.1292,-27.3917,84.20,68.00,58.32,160.00,6.00,0.00,30.03,M,6.21,M,FEW,SCT,M,M,3200.00,5800.00,M,M,M,YBBN 270130Z 16006KT 9999 FEW032 SCT058 29/20 Q1017
YBBN,2015-03-27 02:00,153.1292,-27.3917,86.00,66.20,51.72,200.00,6.00,0.00,30.03,M,6.21,M,FEW,SCT,M,M,3800.00,5800.00,M,M,M,YBBN 270200Z 20006KT 9999 FEW038 SCT058 30/19 Q1017 NOSIG
YBBN,2015-03-27 02:30,153.1292,-27.3917,82.40,71.60,69.90,120.00,10.00,0.00,30.03,M,6.21,M,FEW,SCT,BKN,M,1800.00,3800.00,6000.00,M,M,YBBN 270230Z 12010KT 9999 FEW018 SCT038 BKN060 28/22 Q1017
YBBN,2015-03-27 03:00,153.1292,-27.3917,80.60,69.80,69.71,110.00,11.00,0.00,30.00,M,6.21,M,FEW,SCT,M,M,2800.00,22000.00,M,M,M,YBBN 270300Z 11011KT 9999 FEW028 SCT220 27/21 Q1016 NOSIG
YBBN,2015-03-27 03:30,153.1292,-27.3917,82.40,69.80,65.74,110.00,10.00,0.00,30.00,M,6.21,M,FEW,SCT,M,M,2600.00,22000.00,M,M,M,YBBN 270330Z 11010KT 9999 FEW026 SCT220 28/21 Q1016
YBBN,2015-03-27 04:00,153.1292,-27.3917,82.40,69.80,65.74,110.00,11.00,0.00,30.00,M,6.21,M,FEW,SCT,M,M,2600.00,22000.00,M,M,M,YBBN 270400Z 11011KT 9999 FEW026 SCT220 28/21 Q1016 NOSIG
YBBN,2015-03-27 04:30,153.1292,-27.3917,82.40,69.80,65.74,110.00,9.00,0.00,30.00,M,6.21,M,FEW,SCT,M,M,2500.00,22000.00,M,M,M,YBBN 270430Z 11009KT 9999 FEW025 SCT220 28/21 Q1016
YBBN,2015-03-27 05:00,153.1292,-27.3917,82.40,69.80,65.74,110.00,10.00,0.00,30.00,M,6.21,M,FEW,SCT,M,M,2500.00,22000.00,M,M,M,YBBN 270500Z 11010KT 9999 FEW025 SCT220 28/21 Q1016 NOSIG
YBBN,2015-03-27 05:30,153.1292,-27.3917,80.60,69.80,69.71,110.00,10.00,0.00,30.00,M,6.21,M,FEW,M,M,M,2500.00,M,M,M,M,YBBN 270530Z 11010KT 9999 FEW025 27/21 Q1016
YBBN,2015-03-27 06:00,153.1292,-27.3917,80.60,69.80,69.71,110.00,10.00,0.00,30.00,M,6.21,M,FEW,M,M,M,2500.00,M,M,M,M,YBBN 270600Z 11010KT 9999 FEW025 27/21 Q1016
YBBN,2015-03-27 06:30,153.1292,-27.3917,80.60,69.80,69.71,110.00,11.00,0.00,30.00,M,6.21,M,FEW,M,M,M,2400.00,M,M,M,M,YBBN 270630Z 11011KT 9999 FEW024 27/21 Q1016
YBBN,2015-03-27 07:00,153.1292,-27.3917,78.80,69.80,73.95,110.00,11.00,0.00,30.00,M,6.21,M,FEW,M,M,M,2400.00,M,M,M,M,YBBN 270700Z 11011KT 9999 FEW024 26/21 Q1016 NOSIG
YBBN,2015-03-27 07:30,153.1292,-27.3917,78.80,69.80,73.95,110.00,10.00,0.00,30.03,M,6.21,M,FEW,M,M,M,2200.00,M,M,M,M,YBBN 270730Z 11010KT 9999 FEW022 26/21 Q1017
YBBN,2015-03-27 08:00,153.1292,-27.3917,77.00,71.60,83.44,110.00,11.00,0.00,30.03,M,6.21,M,FEW,M,M,M,1600.00,M,M,M,M,YBBN 270800Z 11011KT 9999 FEW016 25/22 Q1017 NOSIG
YBBN,2015-03-27 08:30,153.1292,-27.3917,77.00,71.60,83.44,120.00,10.00,0.00,30.03,M,6.21,M,FEW,BKN,M,M,1600.00,3800.00,M,M,M,YBBN 270830Z 12010KT 9999 FEW016 BKN038 25/22 Q1017
YBBN,2015-03-27 09:00,153.1292,-27.3917,77.00,71.60,83.44,130.00,8.00,0.00,30.06,M,6.21,M,FEW,BKN,M,M,1600.00,4000.00,M,M,M,YBBN 270900Z 13008KT 9999 FEW016 BKN040 25/22 Q1018
YBBN,2015-03-27 09:30,153.1292,-27.3917,77.00,71.60,83.44,130.00,7.00,0.00,30.06,M,6.21,M,SCT,BKN,M,M,1800.00,4000.00,M,M,M,YBBN 270930Z 13007KT 9999 SCT018 BKN040 25/22 Q1018
YBBN,2015-03-27 10:00,153.1292,-27.3917,77.00,71.60,83.44,120.00,5.00,0.00,30.06,M,6.21,M,SCT,BKN,M,M,2000.00,4000.00,M,M,M,YBBN 271000Z 12005KT 9999 SCT020 BKN040 25/22 Q1018
YBBN,2015-03-27 10:30,153.1292,-27.3917,77.00,69.80,78.48,80.00,7.00,0.00,30.06,M,6.21,M,FEW,SCT,BKN,M,1500.00,2500.00,4400.00,M,M,YBBN 271030Z 08007KT 9999 FEW015 SCT025 BKN044 25/21 Q1018
YBBN,2015-03-27 11:00,153.1292,-27.3917,77.00,69.80,78.48,90.00,7.00,0.00,30.09,M,6.21,M,FEW,SCT,BKN,M,1500.00,2200.00,4700.00,M,M,YBBN 271100Z 09007KT 9999 FEW015 SCT022 BKN047 25/21 Q1019 NOSIG
YBBN,2015-03-27 11:30,153.1292,-27.3917,77.00,69.80,78.48,90.00,6.00,0.00,30.09,M,6.21,M,FEW,BKN,BKN,M,1500.00,2500.00,5400.00,M,M,YBBN 271130Z 09006KT 9999 FEW015 BKN025 BKN054 25/21 Q1019
YBBN,2015-03-27 12:00,153.1292,-27.3917,77.00,69.80,78.48,100.00,5.00,0.00,30.09,M,6.21,M,FEW,SCT,BKN,M,1500.00,2500.00,5900.00,M,M,YBBN 271200Z 10005KT 9999 FEW015 SCT025 BKN059 25/21 Q1019
YBBN,2015-03-27 12:30,153.1292,-27.3917,77.00,69.80,78.48,110.00,6.00,0.00,30.09,M,6.21,M,FEW,SCT,M,M,1500.00,2000.00,M,M,M,YBBN 271230Z 11006KT 9999 FEW015 SCT020 25/21 Q1019
YBBN,2015-03-27 13:00,153.1292,-27.3917,77.00,69.80,78.48,110.00,5.00,0.00,30.06,M,6.21,M,FEW,SCT,M,M,1500.00,2400.00,M,M,M,YBBN 271300Z 11005KT 9999 FEW015 SCT024 25/21 Q1018 NOSIG
YBBN,2015-03-27 13:30,153.1292,-27.3917,77.00,69.80,78.48,100.00,6.00,0.00,30.06,M,6.21,M,SCT,BKN,M,M,2500.00,4800.00,M,M,M,YBBN 271330Z 10006KT 9999 SCT025 BKN048 25/21 Q1018
YBBN,2015-03-27 14:00,153.1292,-27.3917,77.00,69.80,78.48,110.00,6.00,0.00,30.06,M,6.21,M,SCT,BKN,M,M,2300.00,5600.00,M,M,M,YBBN 271400Z 11006KT 9999 SCT023 BKN056 25/21 Q1018
YBBN,2015-03-27 14:30,153.1292,-27.3917,75.20,69.80,83.32,120.00,5.00,0.00,30.06,M,6.21,M,SCT,BKN,M,M,2200.00,6000.00,M,M,M,YBBN 271430Z 12005KT 9999 SCT022 BKN060 24/21 Q1018
YBBN,2015-03-27 15:00,153.1292,-27.3917,73.40,69.80,88.51,200.00,5.00,0.00,30.06,M,6.21,M,SCT,BKN,M,M,2200.00,5800.00,M,M,M,YBBN 271500Z 20005KT 9999 SCT022 BKN058 23/21 Q1018
YBBN,2015-03-27 15:30,153.1292,-27.3917,73.40,68.00,83.21,160.00,4.00,0.00,30.03,M,6.21,M,BKN,M,M,M,2900.00,M,M,M,M,YBBN 271530Z 16004KT 9999 BKN029 23/20 Q1017
YBBN,2015-03-27 16:00,153.1292,-27.3917,73.40,68.00,83.21,160.00,4.00,0.00,30.03,M,6.21,M,FEW,M,M,M,2900.00,M,M,M,M,YBBN 271600Z 16004KT 9999 FEW029 23/20 Q1017 NOSIG
YBBN,2015-03-27 16:30,153.1292,-27.3917,73.40,68.00,83.21,170.00,4.00,0.00,30.03,M,6.21,M,SCT,BKN,M,M,2200.00,3000.00,M,M,M,YBBN 271630Z 17004KT 9999 SCT022 BKN030 23/20 Q1017
YBBN,2015-03-27 17:00,153.1292,-27.3917,73.40,68.00,83.21,170.00,4.00,0.00,30.03,M,6.21,M,BKN,M,M,M,3300.00,M,M,M,M,YBBN 271700Z 17004KT 9999 BKN033 23/20 Q1017 NOSIG
YBBN,2015-03-27 17:30,153.1292,-27.3917,73.40,68.00,83.21,170.00,5.00,0.00,30.03,M,6.21,M,BKN,M,M,M,2900.00,M,M,M,M,YBBN 271730Z 17005KT 9999 BKN029 23/20 Q1017
YBBN,2015-03-27 18:00,153.1292,-27.3917,73.40,68.00,83.21,170.00,5.00,0.00,30.03,M,6.21,M,FEW,BKN,BKN,M,1700.00,2500.00,3300.00,M,M,YBBN 271800Z 17005KT 9999 FEW017 BKN025 BKN033 23/20 Q1017
YBBN,2015-03-27 18:30,153.1292,-27.3917,73.40,68.00,83.21,150.00,5.00,0.00,30.06,M,6.21,M,FEW,BKN,M,M,2000.00,6500.00,M,M,M,YBBN 271830Z 15005KT 9999 FEW020 BKN065 23/20 Q1018
YBBN,2015-03-27 19:00,153.1292,-27.3917,73.40,68.00,83.21,170.00,5.00,0.00,30.06,M,6.21,M,FEW,BKN,BKN,M,1700.00,2600.00,3500.00,M,M,YBBN 271900Z 17005KT 9999 FEW017 BKN026 BKN035 23/20 Q1018
YBBN,2015-03-27 19:30,153.1292,-27.3917,73.40,68.00,83.21,170.00,5.00,0.00,30.06,M,6.21,M,BKN,BKN,M,M,1900.00,2900.00,M,M,M,YBBN 271930Z 17005KT 9999 BKN019 BKN029 23/20 Q1018
YBBN,2015-03-27 20:00,153.1292,-27.3917,73.40,68.00,83.21,170.00,5.00,0.00,30.06,M,6.21,M,FEW,BKN,BKN,M,1700.00,2500.00,4600.00,M,M,YBBN 272000Z 17005KT 9999 FEW017 BKN025 BKN046 23/20 Q1018
YBBN,2015-03-27 20:30,153.1292,-27.3917,73.40,68.00,83.21,170.00,5.00,0.00,30.09,M,6.21,M,FEW,SCT,M,M,1200.00,4200.00,M,M,M,YBBN 272030Z 17005KT 9999 FEW012 SCT042 23/20 Q1019
YBBN,2015-03-27 21:00,153.1292,-27.3917,73.40,68.00,83.21,170.00,5.00,0.00,30.09,M,6.21,M,FEW,SCT,M,M,1200.00,4200.00,M,M,M,YBBN 272100Z 17005KT 9999 FEW012 SCT042 23/20 Q1019
YBBN,2015-03-27 21:30,153.1292,-27.3917,75.20,69.80,83.32,170.00,7.00,0.00,30.09,M,6.21,M,FEW,BKN,M,M,1200.00,4200.00,M,M,M,YBBN 272130Z 17007KT 9999 FEW012 BKN042 24/21 Q1019
YBBN,2015-03-27 22:00,153.1292,-27.3917,77.00,69.80,78.48,160.00,5.00,0.00,30.12,M,6.21,M,FEW,SCT,BKN,M,1200.00,2000.00,4200.00,M,VCSH,YBBN 272200Z 16005KT 9999 VCSH FEW012 SCT020 BKN042 25/21 Q1020
YBBN,2015-03-27 22:30,153.1292,-27.3917,78.80,69.80,73.95,160.00,7.00,0.00,30.12,M,6.21,M,FEW,BKN,M,M,1500.00,4600.00,M,M,M,YBBN 272230Z 16007KT 9999 FEW015 BKN046 26/21 Q1020
YBBN,2015-03-27 23:00,153.1292,-27.3917,77.00,68.00,73.78,140.00,7.00,0.00,30.12,M,6.21,M,FEW,SCT,BKN,M,1500.00,2000.00,3000.00,M,M,YBBN 272300Z 14007KT 9999 FEW015 SCT020 BKN030 25/20 Q1020 NOSIG
YBBN,2015-03-27 23:30,153.1292,-27.3917,78.80,69.80,73.95,130.00,8.00,0.00,30.12,M,6.21,M,FEW,BKN,M,M,1200.00,6000.00,M,M,VCSH,YBBN 272330Z 13008KT 9999 VCSH FEW012 BKN060 26/21 Q1020
