#DEBUG: Format Typ    -> comma
#DEBUG: Time Period   -> 2014-05-10 00:00:00+00:00 2014-05-11 00:00:00+00:00
#DEBUG: Time Zone     -> Etc/UTC
#DEBUG: Data Contact   -> daryl herzmann akrherz@iastate.edu 515-294-5978
#DEBUG: Entries Found -> -1
station,valid,lon,lat,tmpf, dwpf, relh, drct, sknt, p01i, alti, mslp, vsby, gust, skyc1, skyc2, skyc3, skyc4, skyl1, skyl2, skyl3, skyl4, presentwx, metar
YBBN,2014-05-10 00:00,153.1292,-27.3917,69.80,57.20,64.26,140.00,6.00,0.00,30.24,M,6.21,M,SCT,BKN,M,M,3000.00,20000.00,M,M,M,YBBN 100000Z 14006KT 9999 SCT030 BKN200 21/14 Q1024 NOSIG
YBBN,2014-05-10 00:30,153.1292,-27.3917,71.60,57.20,60.44,150.00,7.00,0.00,30.24,M,6.21,M,FEW,SCT,BKN,M,3000.00,5000.00,20000.00,M,M,YBBN 100030Z 15007KT 9999 FEW030 SCT050 BKN200 22/14 Q1024
YBBN,2014-05-10 01:00,153.1292,-27.3917,71.60,57.20,60.44,180.00,7.00,0.00,30.24,M,6.21,M,FEW,SCT,BKN,M,3000.00,7500.00,20000.00,M,M,YBBN 100100Z 18007KT 9999 FEW030 SCT075 BKN200 22/14 Q1024
YBBN,2014-05-10 01:30,153.1292,-27.3917,73.40,57.20,56.88,200.00,8.00,0.00,30.24,M,6.21,M,SCT,SCT,BKN,M,2500.00,6000.00,20000.00,M,M,YBBN 100130Z 20008KT 9999 SCT025 SCT060 BKN200 23/14 Q1024 RMK DIST SHRA
YBBN,2014-05-10 02:00,153.1292,-27.3917,71.60,55.40,56.63,190.00,7.00,0.00,30.21,M,6.21,M,FEW,SCT,BKN,M,1800.00,2500.00,4000.00,M,-SHRA,YBBN 100200Z 19007KT 9999 -SHRA FEW018 SCT025 BKN040 22/13 Q1023 INTER 0200/0400 3000 SHRA BKN014
YBBN,2014-05-10 02:30,153.1292,-27.3917,66.20,60.80,82.74,110.00,11.00,0.00,30.21,M,6.21,M,FEW,BKN,BKN,M,1800.00,3000.00,4700.00,M,-SHRA,YBBN 100230Z 11011KT 9999 -SHRA FEW018 BKN030 BKN047 19/16 Q1023
YBBN,2014-05-10 03:00,153.1292,-27.3917,64.40,60.80,88.09,120.00,11.00,0.00,30.21,M,6.21,M,FEW,SCT,BKN,M,1800.00,3000.00,6500.00,M,VCSH,YBBN 100300Z 12011KT 9999 VCSH FEW018 SCT030 BKN065 18/16 Q1023 INTER 0300/0400 3000 SHRA BKN014
YBBN,2014-05-10 03:30,153.1292,-27.3917,66.20,59.00,77.60,110.00,10.00,0.00,30.18,M,6.21,M,SCT,BKN,M,M,3000.00,6000.00,M,M,M,YBBN 100330Z 11010KT 9999 SCT030 BKN060 19/15 Q1022 RMK DIST SHRA
YBBN,2014-05-10 04:00,153.1292,-27.3917,66.20,59.00,77.60,100.00,7.00,0.00,30.18,M,6.21,M,FEW,SCT,BKN,M,3000.00,4500.00,6000.00,M,M,YBBN 100400Z 10007KT 9999 FEW030 SCT045 BKN060 19/15 Q1022
YBBN,2014-05-10 04:30,153.1292,-27.3917,68.00,57.20,68.35,60.00,8.00,0.00,30.18,M,6.21,M,FEW,SCT,BKN,M,3000.00,5000.00,8000.00,M,M,YBBN 100430Z 06008KT 9999 FEW030 SCT050 BKN080 20/14 Q1022
YBBN,2014-05-10 05:00,153.1292,-27.3917,68.00,59.00,72.92,70.00,8.00,0.00,30.18,M,6.21,M,FEW,SCT,BKN,M,3000.00,6000.00,8000.00,M,M,YBBN 100500Z 07008KT 9999 FEW030 SCT060 BKN080 20/15 Q1022
YBBN,2014-05-10 05:30,153.1292,-27.3917,66.20,60.80,82.74,100.00,7.00,0.00,30.18,M,6.21,M,FEW,SCT,BKN,M,3000.00,6500.00,8000.00,M,M,YBBN 100530Z 10007KT 9999 FEW030 SCT065 BKN080 19/16 Q1022
YBBN,2014-05-10 06:00,153.1292,-27.3917,66.20,59.00,77.60,120.00,5.00,0.00,30.18,M,6.21,M,FEW,BKN,M,M,3000.00,6000.00,M,M,M,YBBN 100600Z 12005KT 9999 FEW030 BKN060 19/15 Q1022 NOSIG
YBBN,2014-05-10 06:30,153.1292,-27.3917,66.20,59.00,77.60,130.00,4.00,0.00,30.18,M,6.21,M,FEW,SCT,BKN,M,3000.00,4000.00,6000.00,M,M,YBBN 100630Z 13004KT 9999 FEW030 SCT040 BKN060 19/15 Q1022
YBBN,2014-05-10 07:00,153.1292,-27.3917,66.20,60.80,82.74,70.00,5.00,0.00,30.18,M,6.21,M,FEW,SCT,BKN,M,1600.00,6000.00,18000.00,M,M,YBBN 100700Z 07005KT 9999 FEW016 SCT060 BKN180 19/16 Q1022 NOSIG
YBBN,2014-05-10 07:30,153.1292,-27.3917,66.20,60.80,82.74,90.00,6.00,0.00,30.18,M,6.21,M,FEW,SCT,BKN,M,2500.00,6900.00,18000.00,M,M,YBBN 100730Z 09006KT 9999 FEW025 SCT069 BKN180 19/16 Q1022
YBBN,2014-05-10 08:00,153.1292,-27.3917,64.40,60.80,88.09,70.00,4.00,0.00,30.18,M,6.21,M,FEW,BKN,M,M,2500.00,7200.00,M,M,M,YBBN 100800Z 07004KT 9999 FEW025 BKN072 18/16 Q1022
YBBN,2014-05-10 08:30,153.1292,-27.3917,64.40,60.80,88.09,0.00,0.00,0.00,30.21,M,6.21,M,FEW,SCT,BKN,M,2500.00,7000.00,8500.00,M,M,YBBN 100830Z 00000KT 9999 FEW025 SCT070 BKN085 18/16 Q1023
YBBN,2014-05-10 09:00,153.1292,-27.3917,64.40,60.80,88.09,100.00,3.00,0.00,30.21,M,6.21,M,M,M,M,M,M,M,M,M,M,YBBN 100900Z 10003KT CAVOK 18/16 Q1023 NOSIG
YBBN,2014-05-10 09:30,153.1292,-27.3917,64.40,60.80,88.09,80.00,3.00,0.00,30.21,M,6.21,M,M,M,M,M,M,M,M,M,M,YBBN 100930Z 08003KT CAVOK 18/16 Q1023
YBBN,2014-05-10 10:00,153.1292,-27.3917,64.40,60.80,88.09,0.00,0.00,0.00,30.21,M,6.21,M,M,M,M,M,M,M,M,M,M,YBBN 101000Z 00000KT CAVOK 18/16 Q1023 NOSIG
YBBN,2014-05-10 10:30,153.1292,-27.3917,62.60,59.00,88.00,0.00,0.00,0.00,30.21,M,6.21,M,M,M,M,M,M,M,M,M,M,YBBN 101030Z 00000KT CAVOK 17/15 Q1023
YBBN,2014-05-10 11:00,153.1292,-27.3917,60.80,59.00,93.79,270.00,3.00,0.00,30.21,M,6.21,M,M,M,M,M,M,M,M,M,M,YBBN 101100Z 27003KT CAVOK 16/15 Q1023 NOSIG
YBBN,2014-05-10 11:30,153.1292,-27.3917,60.80,59.00,93.79,200.00,4.00,0.00,30.21,M,6.21,M,M,M,M,M,M,M,M,M,M,YBBN 101130Z 20004KT CAVOK 16/15 Q1023 RMK 5SC073
YBBN,2014-05-10 12:00,153.1292,-27.3917,60.80,59.00,93.79,210.00,4.00,0.00,30.21,M,6.21,M,M,M,M,M,M,M,M,M,M,YBBN 101200Z 21004KT CAVOK 16/15 Q1023 NOSIG
YBBN,2014-05-10 12:30,153.1292,-27.3917,59.00,57.20,93.74,230.00,4.00,0.00,30.21,M,6.21,M,FEW,M,M,M,2500.00,M,M,M,M,YBBN 101230Z 23004KT 9999 FEW025 15/14 Q1023
YBBN,2014-05-10 13:00,153.1292,-27.3917,59.00,57.20,93.74,250.00,4.00,0.00,30.21,M,6.21,M,FEW,M,M,M,2500.00,M,M,M,M,YBBN 101300Z 25004KT 9999 FEW025 15/14 Q1023 NOSIG
YBBN,2014-05-10 13:17,153.1292,-27.3917,59.00,57.20,93.74,210.00,5.00,0.00,30.21,M,6.21,M,FEW,M,M,M,2500.00,M,M,M,BCFG,YBBN 101317Z 21005KT 9999 BCFG FEW025 15/14 Q1023
YBBN,2014-05-10 13:30,153.1292,-27.3917,59.00,57.20,93.74,210.00,5.00,0.00,30.21,M,6.21,M,FEW,M,M,M,2500.00,M,M,M,BCFG,YBBN 101330Z 21005KT 9999 BCFG FEW025 15/14 Q1023
YBBN,2014-05-10 14:00,153.1292,-27.3917,59.00,57.20,93.74,200.00,5.00,0.00,30.21,M,6.21,M,M,M,M,M,M,M,M,M,M,YBBN 101400Z 20005KT CAVOK 15/14 Q1023 NOSIG
YBBN,2014-05-10 14:30,153.1292,-27.3917,57.20,57.20,100.00,210.00,5.00,0.00,30.18,M,6.21,M,M,M,M,M,M,M,M,M,M,YBBN 101430Z 21005KT CAVOK 14/14 Q1022
YBBN,2014-05-10 15:00,153.1292,-27.3917,59.00,57.20,93.74,200.00,5.00,0.00,30.18,M,6.21,M,FEW,M,M,M,4100.00,M,M,M,M,YBBN 101500Z 20005KT 9999 FEW041 15/14 Q1022 NOSIG
YBBN,2014-05-10 15:30,153.1292,-27.3917,59.00,57.20,93.74,190.00,5.00,0.00,30.18,M,6.21,M,M,M,M,M,M,M,M,M,M,YBBN 101530Z 19005KT CAVOK 15/14 Q1022
YBBN,2014-05-10 16:00,153.1292,-27.3917,57.20,55.40,93.69,200.00,6.00,0.00,30.18,M,6.21,M,M,M,M,M,M,M,M,M,M,YBBN 101600Z 20006KT CAVOK 14/13 Q1022 NOSIG
YBBN,2014-05-10 16:30,153.1292,-27.3917,57.20,55.40,93.69,220.00,6.00,0.00,30.18,M,6.21,M,M,M,M,M,M,M,M,M,M,YBBN 101630Z 22006KT CAVOK 14/13 Q1022
YBBN,2014-05-10 17:00,153.1292,-27.3917,57.20,57.20,100.00,210.00,6.00,0.00,30.18,M,6.21,M,M,M,M,M,M,M,M,M,M,YBBN 101700Z 21006KT CAVOK 14/14 Q1022 NOSIG
YBBN,2014-05-10 17:30,153.1292,-27.3917,59.00,57.20,93.74,190.00,7.00,0.00,30.18,M,6.21,M,M,M,M,M,M,M,M,M,M,YBBN 101730Z 19007KT CAVOK 15/14 Q1022
YBBN,2014-05-10 18:00,153.1292,-27.3917,59.00,57.20,93.74,190.00,6.00,0.00,30.18,M,6.21,M,M,M,M,M,M,M,M,M,M,YBBN 101800Z 19006KT CAVOK 15/14 Q1022 NOSIG
YBBN,2014-05-10 18:30,153.1292,-27.3917,57.20,55.40,93.69,200.00,7.00,0.00,30.18,M,6.21,M,M,M,M,M,M,M,M,M,M,YBBN 101830Z 20007KT CAVOK 14/13 Q1022
YBBN,2014-05-10 19:00,153.1292,-27.3917,57.20,55.40,93.69,200.00,7.00,0.00,30.18,M,6.21,M,M,M,M,M,M,M,M,M,M,YBBN 101900Z 20007KT CAVOK 14/13 Q1022 NOSIG
YBBN,2014-05-10 19:30,153.1292,-27.3917,57.20,55.40,93.69,200.00,7.00,0.00,30.18,M,6.21,M,M,M,M,M,M,M,M,M,M,YBBN 101930Z 20007KT CAVOK 14/13 Q1022
YBBN,2014-05-10 20:00,153.1292,-27.3917,57.20,55.40,93.69,200.00,7.00,0.00,30.18,M,6.21,M,FEW,SCT,M,M,2500.00,4700.00,M,M,M,YBBN 102000Z 20007KT 9999 FEW025 SCT047 14/13 Q1022 NOSIG
YBBN,2014-05-10 20:30,153.1292,-27.3917,57.20,55.40,93.69,210.00,8.00,0.00,30.21,M,6.21,M,FEW,SCT,M,M,2500.00,4800.00,M,M,M,YBBN 102030Z 21008KT 9999 FEW025 SCT048 14/13 Q1023
YBBN,2014-05-10 21:00,153.1292,-27.3917,59.00,57.20,93.74,200.00,8.00,0.00,30.21,M,6.21,M,FEW,SCT,M,M,2500.00,4800.00,M,M,M,YBBN 102100Z 20008KT 9999 FEW025 SCT048 15/14 Q1023 NOSIG
YBBN,2014-05-10 21:30,153.1292,-27.3917,60.80,57.20,87.92,200.00,10.00,0.00,30.21,M,6.21,M,FEW,BKN,M,M,2500.00,5000.00,M,M,M,YBBN 102130Z 20010KT 9999 FEW025 BKN050 16/14 Q1023
YBBN,2014-05-10 22:00,153.1292,-27.3917,60.80,57.20,87.92,210.00,10.00,0.00,30.24,M,6.21,M,FEW,M,M,M,2500.00,M,M,M,M,YBBN 102200Z 21010KT 9999 FEW025 16/14 Q1024 NOSIG
YBBN,2014-05-10 22:30,153.1292,-27.3917,62.60,57.20,82.50,210.00,10.00,0.00,30.24,M,6.21,M,FEW,SCT,M,M,2500.00,4800.00,M,M,M,YBBN 102230Z 21010KT 9999 FEW025 SCT048 17/14 Q1024
YBBN,2014-05-10 23:00,153.1292,-27.3917,66.20,57.20,72.74,210.00,9.00,0.00,30.24,M,6.21,M,FEW,M,M,M,2500.00,M,M,M,M,YBBN 102300Z 21009KT 9999 FEW025 19/14 Q1024 NOSIG
YBBN,2014-05-10 23:30,153.1292,-27.3917,68.00,57.20,68.35,210.00,8.00,0.00,30.24,M,6.21,M,FEW,M,M,M,2500.00,M,M,M,M,YBBN 102330Z 21008KT 9999 FEW025 20/14 Q1024
