#DEBUG: Format Typ    -> comma
#DEBUG: Time Period   -> 2016-03-11 00:00:00+00:00 2016-03-12 00:00:00+00:00
#DEBUG: Time Zone     -> Etc/UTC
#DEBUG: Data Contact   -> daryl herzmann akrherz@iastate.edu 515-294-5978
#DEBUG: Entries Found -> -1
station,valid,lon,lat,tmpf, dwpf, relh, drct, sknt, p01i, alti, mslp, vsby, gust, skyc1, skyc2, skyc3, skyc4, skyl1, skyl2, skyl3, skyl4, presentwx, metar
YBBN,2016-03-11 00:00,153.1292,-27.3917,80.60,71.60,74.11,90.00,8.00,0.00,30.09,M,6.21,M,FEW,SCT,M,M,1400.00,2000.00,M,M,VCSH,YBBN 110000Z 09008KT 9999 VCSH FEW014 SCT020 27/22 Q1019 NOSIG
YBBN,2016-03-11 00:30,153.1292,-27.3917,82.40,69.80,65.74,70.00,10.00,0.00,30.09,M,6.21,M,FEW,SCT,M,M,2200.00,8000.00,M,M,VCSH,YBBN 110030Z 07010KT 9999 VCSH FEW022 SCT080 28/21 Q1019 NOSIG
YBBN,2016-03-11 01:00,153.1292,-27.3917,82.40,69.80,65.74,60.00,10.00,0.00,30.09,M,6.21,M,FEW,SCT,M,M,2200.00,8500.00,M,M,M,YBBN 110100Z 06010KT 9999 FEW022 SCT085 28/21 Q1019 NOSIG
YBBN,2016-03-11 01:30,153.1292,-27.3917,82.40,68.00,61.81,70.00,10.00,0.00,30.09,M,6.21,M,FEW,SCT,M,M,2500.00,27000.00,M,M,M,YBBN 110130Z 07010KT 9999 FEW025 SCT270 28/20 Q1019 NOSIG
YBBN,2016-03-11 02:00,153.1292,-27.3917,82.40,69.80,65.74,70.00,9.00,0.00,30.06,M,6.21,M,FEW,SCT,M,M,2700.00,27000.00,M,M,M,YBBN 110200Z 07009KT 9999 FEW027 SCT270 28/21 Q1018
YBBN,2016-03-11 02:30,153.1292,-27.3917,84.20,69.80,62.03,70.00,9.00,0.00,30.06,M,6.21,M,FEW,FEW,M,M,1500.00,2500.00,M,M,VCSH,YBBN 110230Z 07009KT 9999 VCSH FEW015 FEW025TCU 29/21 Q1018 NOSIG
YBBN,2016-03-11 03:00,153.1292,-27.3917,82.40,68.00,61.81,60.00,10.00,0.00,30.06,M,6.21,M,FEW,SCT,M,M,1500.00,2500.00,M,M,VCSH,YBBN 110300Z 06010KT 9999 VCSH FEW015 SCT025 28/20 Q1018 NOSIG
YBBN,2016-03-11 03:30,153.1292,-27.3917,82.40,69.80,65.74,70.00,11.00,0.00,30.03,M,6.21,M,FEW,SCT,BKN,M,1500.00,2500.00,13000.00,M,VCSH,YBBN 110330Z 07011KT 9999 VCSH FEW015 SCT025 BKN130 28/21 Q1017
YBBN,2016-03-11 04:00,153.1292,-27.3917,82.40,71.60,69.90,70.00,11.00,0.00,30.03,M,6.21,M,FEW,SCT,BKN,M,1800.00,2400.00,13000.00,M,VCSH,YBBN 110400Z 07011KT 9999 VCSH FEW018 SCT024 BKN130 28/22 Q1017
YBBN,2016-03-11 04:30,153.1292,-27.3917,80.60,71.60,74.11,70.00,11.00,0.00,30.03,M,6.21,M,FEW,SCT,M,M,2300.00,13000.00,M,M,M,YBBN 110430Z 07011KT 9999 FEW023 SCT130 27/22 Q1017 NOSIG
YBBN,2016-03-11 05:00,153.1292,-27.3917,80.60,71.60,74.11,60.00,11.00,0.00,30.03,M,6.21,M,FEW,SCT,M,M,2300.00,16000.00,M,M,M,YBBN 110500Z 06011KT 9999 FEW023 SCT160 27/22 Q1017 NOSIG
YBBN,2016-03-11 05:30,153.1292,-27.3917,78.80,69.80,73.95,70.00,9.00,0.00,30.03,M,6.21,M,FEW,BKN,M,M,2300.00,25000.00,M,M,M,YBBN 110530Z 07009KT 9999 FEW023 BKN250 26/21 Q1017 NOSIG
YBBN,2016-03-11 06:00,153.1292,-27.3917,80.60,69.80,69.71,60.00,9.00,0.00,30.03,M,6.21,M,FEW,BKN,M,M,1800.00,25000.00,M,M,M,YBBN 110600Z 06009KT 9999 FEW018 BKN250 27/21 Q1017
YBBN,2016-03-11 06:30,153.1292,-27.3917,80.60,68.00,65.54,70.00,9.00,0.00,30.03,M,6.21,M,FEW,BKN,M,M,2300.00,25000.00,M,M,M,YBBN 110630Z 07009KT 9999 FEW023 BKN250 27/20 Q1017 NOSIG
YBBN,2016-03-11 07:00,153.1292,-27.3917,80.60,69.80,69.71,70.00,9.00,0.00,30.03,M,6.21,M,FEW,BKN,M,M,2300.00,25000.00,M,M,M,YBBN 110700Z 07009KT 9999 FEW023 BKN250 27/21 Q1017
YBBN,2016-03-11 07:30,153.1292,-27.3917,78.80,69.80,73.95,60.00,7.00,0.00,30.03,M,6.21,M,FEW,SCT,BKN,M,1800.00,2000.00,25000.00,M,M,YBBN 110730Z 06007KT 9999 FEW018 SCT020 BKN250 26/21 Q1017 NOSIG
YBBN,2016-03-11 08:00,153.1292,-27.3917,78.80,71.60,78.62,90.00,5.00,0.00,30.03,M,6.21,M,FEW,SCT,BKN,M,1700.00,1900.00,24000.00,M,M,YBBN 110800Z 09005KT 9999 FEW017 SCT019 BKN240 26/22 Q1017
YBBN,2016-03-11 08:30,153.1292,-27.3917,78.80,69.80,73.95,80.00,7.00,0.00,30.06,M,6.21,M,FEW,BKN,M,M,1700.00,24000.00,M,M,M,YBBN 110830Z 08007KT 9999 FEW017 BKN240 26/21 Q1018 NOSIG
YBBN,2016-03-11 09:00,153.1292,-27.3917,77.00,69.80,78.48,90.00,7.00,0.00,30.06,M,6.21,M,FEW,SCT,M,M,1700.00,25000.00,M,M,M,YBBN 110900Z 09007KT 9999 FEW017 SCT250 25/21 Q1018
YBBN,2016-03-11 09:30,153.1292,-27.3917,77.00,69.80,78.48,90.00,6.00,0.00,30.06,M,6.21,M,FEW,SCT,M,M,1700.00,2300.00,M,M,M,YBBN 110930Z 09006KT 9999 FEW017 SCT023 25/21 Q1018 NOSIG
YBBN,2016-03-11 10:00,153.1292,-27.3917,77.00,69.80,78.48,90.00,6.00,0.00,30.06,M,6.21,M,FEW,SCT,M,M,2200.00,24000.00,M,M,M,YBBN 111000Z 09006KT 9999 FEW022 SCT240 25/21 Q1018
YBBN,2016-03-11 12:30,153.1292,-27.3917,77.00,68.00,73.78,110.00,5.00,0.00,30.09,M,6.21,M,FEW,M,M,M,2200.00,M,M,M,M,YBBN 111230Z 11005KT 9999 FEW022 25/20 Q1019
YBBN,2016-03-11 13:00,153.1292,-27.3917,77.00,68.00,73.78,100.00,6.00,0.00,30.09,M,6.21,M,FEW,M,M,M,2200.00,M,M,M,M,YBBN 111300Z 10006KT 9999 FEW022 25/20 Q1019 NOSIG
YBBN,2016-03-11 13:30,153.1292,-27.3917,77.00,68.00,73.78,100.00,7.00,0.00,30.06,M,6.21,M,FEW,SCT,M,M,2200.00,24000.00,M,M,M,YBBN 111330Z 10007KT 9999 FEW022 SCT240 25/20 Q1018 NOSIG
YBBN,2016-03-11 14:00,153.1292,-27.3917,77.00,66.20,69.33,110.00,5.00,0.00,30.06,M,6.21,M,FEW,SCT,M,M,2200.00,24000.00,M,M,M,YBBN 111400Z 11005KT 9999 FEW022 SCT240 25/19 Q1018 NOSIG
YBBN,2016-03-11 14:30,153.1292,-27.3917,77.00,66.20,69.33,100.00,5.00,0.00,30.06,M,6.21,M,FEW,BKN,M,M,2200.00,24000.00,M,M,M,YBBN 111430Z 10005KT 9999 FEW022 BKN240 25/19 Q1018 NOSIG
YBBN,2016-03-11 15:00,153.1292,-27.3917,77.00,66.20,69.33,110.00,5.00,0.00,30.03,M,6.21,M,FEW,BKN,M,M,2200.00,23000.00,M,M,M,YBBN 111500Z 11005KT 9999 FEW022 BKN230 25/19 Q1017
YBBN,2016-03-11 15:30,153.1292,-27.3917,77.00,68.00,73.78,120.00,4.00,0.00,30.03,M,6.21,M,FEW,BKN,M,M,2200.00,24000.00,M,M,M,YBBN 111530Z 12004KT 9999 FEW022 BKN240 25/20 Q1017 NOSIG
YBBN,2016-03-11 16:00,153.1292,-27.3917,75.20,68.00,78.34,120.00,5.00,0.00,30.03,M,6.21,M,FEW,BKN,M,M,2200.00,2600.00,M,M,M,YBBN 111600Z 12005KT 9999 FEW022 BKN026 24/20 Q1017 NOSIG
YBBN,2016-03-11 16:30,153.1292,-27.3917,75.20,68.00,78.34,190.00,4.00,0.00,30.03,M,6.21,M,FEW,BKN,M,M,2200.00,2900.00,M,M,M,YBBN 111630Z 19004KT 130V200 9999 FEW022 BKN029 24/20 Q1017 NOSIG
YBBN,2016-03-11 17:00,153.1292,-27.3917,73.40,68.00,83.21,190.00,5.00,0.00,30.03,M,6.21,M,FEW,SCT,BKN,M,2100.00,3500.00,22000.00,M,M,YBBN 111700Z 19005KT 9999 FEW021 SCT035 BKN220 23/20 Q1017 NOSIG
YBBN,2016-03-11 17:30,153.1292,-27.3917,73.40,68.00,83.21,190.00,6.00,0.00,30.03,M,6.21,M,FEW,BKN,M,M,2100.00,24000.00,M,M,M,YBBN 111730Z 19006KT 9999 FEW021 BKN240 23/20 Q1017 NOSIG
YBBN,2016-03-11 18:00,153.1292,-27.3917,73.40,68.00,83.21,190.00,5.00,0.00,30.03,M,6.21,M,FEW,BKN,M,M,2100.00,2800.00,M,M,M,YBBN 111800Z 19005KT 9999 FEW021 BKN028 23/20 Q1017
YBBN,2016-03-11 18:30,153.1292,-27.3917,71.60,68.00,88.43,190.00,6.00,0.00,30.03,M,6.21,M,FEW,BKN,M,M,2100.00,24000.00,M,M,M,YBBN 111830Z 19006KT 9999 FEW021 BKN240 22/20 Q1017 NOSIG
YBBN,2016-03-11 19:00,153.1292,-27.3917,71.60,68.00,88.43,200.00,6.00,0.00,30.03,M,6.21,M,FEW,BKN,M,M,2100.00,24000.00,M,M,M,YBBN 111900Z 20006KT 9999 FEW021 BKN240 22/20 Q1017 NOSIG
YBBN,2016-03-11 19:30,153.1292,-27.3917,73.40,68.00,83.21,190.00,5.00,0.00,30.03,M,6.21,M,FEW,SCT,BKN,M,2200.00,2800.00,24000.00,M,M,YBBN 111930Z 19005KT 9999 FEW022 SCT028 BKN240 23/20 Q1017 NOSIG
YBBN,2016-03-11 20:00,153.1292,-27.3917,71.60,68.00,88.43,200.00,6.00,0.00,30.06,M,6.21,M,FEW,BKN,M,M,2200.00,24000.00,M,M,M,YBBN 112000Z 20006KT 9999 FEW022 BKN240 22/20 Q1018
YBBN,2016-03-11 21:00,153.1292,-27.3917,73.40,68.00,83.21,190.00,5.00,0.00,30.06,M,6.21,M,FEW,SCT,M,M,2200.00,4500.00,M,M,M,YBBN 112100Z 19005KT 9999 FEW022 SCT045 23/20 Q1018
YBBN,2016-03-11 22:30,153.1292,-27.3917,78.80,68.00,69.52,140.00,8.00,0.00,30.09,M,6.21,M,FEW,BKN,M,M,2500.00,24000.00,M,M,M,YBBN 112230Z 14008KT 9999 FEW025 BKN240 26/20 Q1019 NOSIG
YBBN,2016-03-11 23:00,153.1292,-27.3917,80.60,68.00,65.54,150.00,7.00,0.00,30.09,M,6.21,M,SCT,SCT,M,M,2500.00,25000.00,M,M,M,YBBN 112300Z 15007KT 110V170 9999 SCT025 SCT250 27/20 Q1019 NOSIG
YBBN,2016-03-11 23:30,153.1292,-27.3917,82.40,66.20,58.08,130.00,10.00,0.00,30.09,M,6.21,M,SCT,M,M,M,2500.00,M,M,M,M,YBBN 112330Z 13010KT 9999 SCT025 28/19 Q1019 NOSIG
