#DEBUG: Format Typ    -> comma
#DEBUG: Time Period   -> 2012-01-27 00:00:00+00:00 2012-01-28 00:00:00+00:00
#DEBUG: Time Zone     -> Etc/UTC
#DEBUG: Data Contact   -> daryl herzmann akrherz@iastate.edu 515-294-5978
#DEBUG: Entries Found -> -1
station,valid,lon,lat,tmpf, dwpf, relh, drct, sknt, p01i, alti, mslp, vsby, gust, skyc1, skyc2, skyc3, skyc4, skyl1, skyl2, skyl3, skyl4, presentwx, metar
YBBN,2012-01-27 00:00,153.1292,-27.3917,77.00,71.60,83.44,120.00,4.00,0.00,29.85,M,6.21,M,FEW,SCT,BKN,   ,1000.00,1800.00,3000.00,M,M,YBBN 270000Z 12004KT 9999 FEW010 SCT018 BKN030 25/22 Q1011
YBBN,2012-01-27 00:30,153.1292,-27.3917,77.00,71.60,83.44,110.00,7.00,0.00,29.85,M,6.21,M,FEW,BKN,BKN,   ,1500.00,1800.00,3000.00,M,M,YBBN 270030Z 11007KT 9999 FEW015 BKN018 BKN030 25/22 Q1011
YBBN,2012-01-27 00:58,153.1292,-27.3917,75.20,71.60,88.59,130.00,8.00,0.00,29.85,M,4.97,M,FEW,BKN,BKN,   ,1300.00,1800.00,3000.00,M,-SHRA,YBBN 270058Z 13008KT 8000 -SHRA FEW013 BKN018 BKN030 24/22 Q1011
YBBN,2012-01-27 01:30,153.1292,-27.3917,75.20,71.60,88.59,110.00,9.00,0.00,29.85,M,6.21,M,SCT,BKN,BKN,   ,1300.00,1800.00,3000.00,M,-SHRA,YBBN 270130Z 11009KT 9999 -SHRA SCT013 BKN018 BKN030 24/22 Q1011
YBBN,2012-01-27 02:00,153.1292,-27.3917,75.20,71.60,88.59,90.00,9.00,0.00,29.83,M,4.97,M,FEW,SCT,BKN,   ,1300.00,1800.00,2500.00,M,-SHRA,YBBN 270200Z 09009KT 8000 -SHRA FEW013 SCT018 BKN025 24/22 Q1010
YBBN,2012-01-27 02:30,153.1292,-27.3917,75.20,71.60,88.59,90.00,9.00,0.00,29.83,M,6.21,20.00,FEW,SCT,BKN,   ,800.00,1800.00,6500.00,M,-SHRA,YBBN 270230Z 09009G20KT 9999 -SHRA FEW008 SCT018 BKN065 24/22 Q1010
YBBN,2012-01-27 02:59,153.1292,-27.3917,75.20,73.40,94.14,100.00,11.00,0.00,29.83,M,4.35,M,SCT,BKN,BKN,   ,800.00,1500.00,6000.00,M,-RA,YBBN 270259Z 10011KT 7000 4000N -RA SCT008 BKN015 BKN060 24/23 Q1010
YBBN,2012-01-27 03:00,153.1292,-27.3917,75.20,73.40,94.14,100.00,11.00,0.00,29.83,M,4.35,M,SCT,BKN,BKN,   ,800.00,1500.00,6000.00,M,-RA,YBBN 270300Z 10011KT 7000 4000N -RA SCT008 BKN015 BKN060 24/23 Q1010
YBBN,2012-01-27 03:03,153.1292,-27.3917,73.40,71.60,94.10,100.00,11.00,0.00,29.83,M,1.86,M,SCT,BKN,   ,   ,800.00,1700.00,M,M,SHRA,YBBN 270303Z 10011KT 3000 1500N SHRA SCT008 BKN017 23/22 Q1010
YBBN,2012-01-27 03:30,153.1292,-27.3917,73.40,71.60,94.10,100.00,12.00,0.00,29.83,M,1.86,M,FEW,SCT,BKN,   ,600.00,1500.00,3500.00,M,-RA,YBBN 270330Z 10012KT 3000 -RA FEW006 SCT015 BKN035 23/22 Q1010
YBBN,2012-01-27 04:00,153.1292,-27.3917,73.40,73.40,100.00,110.00,12.00,0.00,29.80,M,2.49,M,SCT,BKN,BKN,   ,500.00,2500.00,3100.00,M,-RA,YBBN 270400Z 11012KT 4000 -RA SCT005 BKN025 BKN031 23/23 Q1009
YBBN,2012-01-27 04:08,153.1292,-27.3917,73.40,73.40,100.00,100.00,11.00,0.00,29.80,M,0.93,M,SCT,SCT,BKN,   ,500.00,1700.00,3500.00,M,SHRA,YBBN 270408Z 10011KT 1500 SHRA SCT005 SCT017 BKN035 23/23 Q1009
YBBN,2012-01-27 04:30,153.1292,-27.3917,73.40,73.40,100.00,100.00,12.00,0.00,29.80,M,3.11,M,FEW,BKN,BKN,   ,600.00,2500.00,3500.00,M,-RA,YBBN 270430Z 10012KT 5000 -RA FEW006 BKN025 BKN035 23/23 Q1009
YBBN,2012-01-27 04:56,153.1292,-27.3917,75.20,73.40,94.14,100.00,10.00,0.00,29.80,M,3.11,M,SCT,SCT,BKN,   ,600.00,1300.00,3500.00,M,-RA,YBBN 270456Z 10010KT 5000 -RA SCT006 SCT013 BKN035 24/23 Q1009
YBBN,2012-01-27 05:00,153.1292,-27.3917,75.20,73.40,94.14,100.00,10.00,0.00,29.80,M,3.11,M,SCT,BKN,BKN,   ,600.00,1000.00,3500.00,M,-SHRA,YBBN 270500Z 10010KT 5000 -SHRA SCT006 BKN010 BKN035 24/23 Q1009
YBBN,2012-01-27 05:30,153.1292,-27.3917,75.20,73.40,94.14,100.00,10.00,0.00,29.80,M,3.73,M,FEW,BKN,BKN,   ,600.00,1200.00,3500.00,M,-RA,YBBN 270530Z 10010KT 6000 -RA FEW006 BKN012 BKN035 24/23 Q1009
YBBN,2012-01-27 05:59,153.1292,-27.3917,75.20,73.40,94.14,100.00,9.00,0.00,29.80,M,4.35,M,FEW,BKN,BKN,   ,800.00,1400.00,4000.00,M,-RA,YBBN 270559Z 10009KT 7000 -RA FEW008 BKN014 BKN040 24/23 Q1009
YBBN,2012-01-27 06:19,153.1292,-27.3917,75.20,73.40,94.14,100.00,10.00,0.00,29.80,M,4.97,M,FEW,BKN,BKN,   ,1000.00,1800.00,4800.00,M,-RA,YBBN 270619Z 10010KT 8000 -RA FEW010 BKN018 BKN048 24/23 Q1009
YBBN,2012-01-27 06:30,153.1292,-27.3917,75.20,73.40,94.14,100.00,10.00,0.00,29.80,M,4.97,M,FEW,BKN,BKN,   ,1100.00,1700.00,4800.00,M,-RA,YBBN 270630Z 10010KT 8000 -RA FEW011 BKN017 BKN048 24/23 Q1009
YBBN,2012-01-27 07:00,153.1292,-27.3917,75.20,71.60,88.59,90.00,9.00,0.00,29.80,M,5.59,M,FEW,BKN,   ,   ,1500.00,5500.00,M,M,-RA,YBBN 270700Z 09009KT 9000 -RA FEW015 BKN055 24/22 Q1009
YBBN,2012-01-27 07:30,153.1292,-27.3917,75.20,71.60,88.59,90.00,9.00,0.00,29.83,M,4.97,M,SCT,SCT,OVC,   ,1500.00,2000.00,5200.00,M,-RA,YBBN 270730Z 09009KT 8000 -RA SCT015 SCT020 OVC052 24/22 Q1010
YBBN,2012-01-27 08:00,153.1292,-27.3917,75.20,71.60,88.59,100.00,8.00,0.00,29.83,M,5.59,M,FEW,SCT,OVC,   ,1600.00,4500.00,5500.00,M,-RA,YBBN 270800Z 10008KT 9000 -RA FEW016 SCT045 OVC055 24/22 Q1010 TEMPO 0800/1100 3000 SHRA BKN008
YBBN,2012-01-27 08:30,153.1292,-27.3917,73.40,71.60,94.10,90.00,8.00,0.00,29.83,M,4.97,M,FEW,SCT,OVC,   ,1600.00,3800.00,5000.00,M,-RA,YBBN 270830Z 09008KT 8000 -RA FEW016 SCT038 OVC050 23/22 Q1010
YBBN,2012-01-27 08:54,153.1292,-27.3917,75.20,71.60,88.59,90.00,8.00,0.00,29.85,M,3.73,M,FEW,SCT,OVC,   ,1600.00,2500.00,7000.00,M,-RA,YBBN 270854Z 09008KT 6000 -RA FEW016 SCT025 OVC070 24/22 Q1011 RMK SH FROM NW FM0920 09012KT 8000 -SHRA SCT015 BKN025 OVC040 TEMPO 0854/1154 3000 SHRA BKN008
YBBN,2012-01-27 09:00,153.1292,-27.3917,75.20,71.60,88.59,90.00,7.00,0.00,29.85,M,3.73,M,FEW,SCT,OVC,   ,1600.00,2500.00,7000.00,M,-RA,YBBN 270900Z 09007KT 6000 -RA FEW016 SCT025 OVC070 24/22 Q1011
YBBN,2012-01-27 09:30,153.1292,-27.3917,75.20,71.60,88.59,90.00,8.00,0.00,29.85,M,4.97,M,FEW,SCT,OVC,   ,1600.00,2500.00,5000.00,M,-RA,YBBN 270930Z 09008KT 8000 -RA FEW016 SCT025 OVC050 24/22 Q1011
YBBN,2012-01-27 10:00,153.1292,-27.3917,73.40,71.60,94.10,90.00,7.00,0.00,29.85,M,4.97,M,FEW,SCT,OVC,   ,1600.00,2500.00,5000.00,M,-RA,YBBN 271000Z 09007KT 8000 -RA FEW016 SCT025 OVC050 23/22 Q1011 TEMPO 1000/1300 3000 SHRA BKN008 INTER 1200/1300 2000 +RA BKN006
YBBN,2012-01-27 10:30,153.1292,-27.3917,73.40,71.60,94.10,90.00,7.00,0.00,29.85,M,6.21,M,FEW,BKN,   ,   ,1600.00,5000.00,M,M,-RA,YBBN 271030Z 09007KT 9999 -RA FEW016 BKN050 23/22 Q1011
YBBN,2012-01-27 11:00,153.1292,-27.3917,75.20,71.60,88.59,100.00,6.00,0.00,29.85,M,6.21,M,FEW,BKN,   ,   ,1600.00,5000.00,M,M,-RA,YBBN 271100Z 10006KT 9999 -RA FEW016 BKN050 24/22 Q1011 TEMPO 1100/1400 3000 SHRA BKN008 INTER 1200/1400 2000 +RA BKN006
YBBN,2012-01-27 11:30,153.1292,-27.3917,75.20,71.60,88.59,100.00,7.00,0.00,29.88,M,6.21,M,FEW,BKN,   ,   ,1500.00,5000.00,M,M,-RA,YBBN 271130Z 10007KT 9999 -RA FEW015 BKN050 24/22 Q1012
YBBN,2012-01-27 12:00,153.1292,-27.3917,75.20,71.60,88.59,100.00,7.00,0.00,29.88,M,4.97,M,FEW,SCT,BKN,   ,1200.00,2200.00,5300.00,M,-RA,YBBN 271200Z 10007KT 8000 -RA FEW012 SCT022 BKN053 24/22 Q1012 TEMPO 1200/1500 3000 SHRA BKN008 INTER 1200/1500 2000 +SHRA BKN006
YBBN,2012-01-27 12:30,153.1292,-27.3917,75.20,71.60,88.59,100.00,6.00,0.00,29.85,M,6.21,M,FEW,SCT,BKN,   ,1500.00,4000.00,6100.00,M,VCSH,YBBN 271230Z 10006KT 9999 VCSH FEW015 SCT040 BKN061 24/22 Q1011
YBBN,2012-01-27 13:00,153.1292,-27.3917,73.40,71.60,94.10,90.00,9.00,0.00,29.85,M,3.11,M,FEW,SCT,BKN,   ,1500.00,2300.00,6100.00,M,-RA,YBBN 271300Z 09009KT 5000 -RA FEW015 SCT023 BKN061 23/22 Q1011
YBBN,2012-01-27 13:30,153.1292,-27.3917,73.40,71.60,94.10,100.00,6.00,0.00,29.85,M,6.21,M,FEW,BKN,   ,   ,1800.00,5100.00,M,M,-RA,YBBN 271330Z 10006KT 9999 -RA FEW018 BKN051 23/22 Q1011
YBBN,2012-01-27 14:00,153.1292,-27.3917,75.20,71.60,88.59,100.00,7.00,0.00,29.85,M,6.21,M,FEW,SCT,BKN,   ,1800.00,6000.00,16000.00,M,M,YBBN 271400Z 10007KT 9999 FEW018 SCT060 BKN160 24/22 Q1011
YBBN,2012-01-27 14:30,153.1292,-27.3917,75.20,71.60,88.59,90.00,7.00,0.00,29.85,M,6.21,M,FEW,BKN,   ,   ,2500.00,15000.00,M,M,M,YBBN 271430Z 09007KT 9999 FEW025 BKN150 24/22 Q1011
YBBN,2012-01-27 15:00,153.1292,-27.3917,75.20,71.60,88.59,90.00,7.00,0.00,29.83,M,6.21,M,SCT,BKN,   ,   ,2500.00,15000.00,M,M,VCSH,YBBN 271500Z 09007KT 9999 VCSH SCT025 BKN150 24/22 Q1010
YBBN,2012-01-27 15:30,153.1292,-27.3917,75.20,69.80,83.32,90.00,8.00,0.00,29.83,M,6.21,M,FEW,SCT,BKN,   ,2500.00,6000.00,17000.00,M,VCSH,YBBN 271530Z 09008KT 9999 VCSH FEW025 SCT060 BKN170 24/21 Q1010
YBBN,2012-01-27 16:00,153.1292,-27.3917,75.20,69.80,83.32,100.00,8.00,0.00,29.83,M,6.21,M,FEW,BKN,   ,   ,2500.00,17000.00,M,M,VCSH,YBBN 271600Z 10008KT 9999 VCSH FEW025 BKN170 24/21 Q1010 TEMPO 1600/1900 3000 SHRA BKN008 INTER 1600/1900 2000 +SHRA BKN006
YBBN,2012-01-27 16:30,153.1292,-27.3917,75.20,69.80,83.32,90.00,9.00,0.00,29.83,M,6.21,M,FEW,BKN,   ,   ,3000.00,16000.00,M,M,-RA,YBBN 271630Z 09009KT 9999 -RA FEW030 BKN160 24/21 Q1010
YBBN,2012-01-27 17:00,153.1292,-27.3917,75.20,69.80,83.32,90.00,8.00,0.00,29.80,M,6.21,M,FEW,BKN,   ,   ,3000.00,17000.00,M,M,M,YBBN 271700Z 09008KT 9999 FEW030 BKN170 24/21 Q1009
YBBN,2012-01-27 17:30,153.1292,-27.3917,75.20,69.80,83.32,90.00,8.00,0.00,29.80,M,6.21,M,FEW,BKN,   ,   ,3000.00,16000.00,M,M,M,YBBN 271730Z 09008KT 9999 FEW030 BKN160 24/21 Q1009
YBBN,2012-01-27 18:00,153.1292,-27.3917,75.20,69.80,83.32,90.00,9.00,0.00,29.80,M,6.21,M,FEW,BKN,   ,   ,3000.00,15000.00,M,M,VCSH,YBBN 271800Z 09009KT 9999 VCSH FEW030 BKN150 24/21 Q1009 TEMPO 1800/2100 3000 SHRA BKN008 INTER 1800/2100 2000 +SHRA BKN006
YBBN,2012-01-27 18:30,153.1292,-27.3917,75.20,69.80,83.32,90.00,8.00,0.00,29.80,M,6.21,M,FEW,BKN,   ,   ,3000.00,13000.00,M,M,-RA,YBBN 271830Z 09008KT 9999 -RA FEW030 BKN130 24/21 Q1009
YBBN,2012-01-27 19:00,153.1292,-27.3917,73.40,69.80,88.51,90.00,9.00,0.00,29.83,M,4.97,M,FEW,BKN,   ,   ,3000.00,13000.00,M,M,-RA,YBBN 271900Z 09009KT 8000 -RA FEW030 BKN130 23/21 Q1010
YBBN,2012-01-27 19:30,153.1292,-27.3917,75.20,69.80,83.32,90.00,7.00,0.00,29.83,M,6.21,M,FEW,BKN,   ,   ,3000.00,13000.00,M,M,-RA,YBBN 271930Z 09007KT 9999 -RA FEW030 BKN130 24/21 Q1010
YBBN,2012-01-27 20:00,153.1292,-27.3917,75.20,69.80,83.32,90.00,7.00,0.00,29.83,M,4.97,M,FEW,BKN,   ,   ,3000.00,11500.00,M,M,M,YBBN 272000Z 09007KT 8000 FEW030 BKN115 24/21 Q1010
YBBN,2012-01-27 20:30,153.1292,-27.3917,75.20,69.80,83.32,90.00,7.00,0.00,29.85,M,6.21,M,FEW,BKN,   ,   ,2500.00,12000.00,M,M,M,YBBN 272030Z 09007KT 9999 FEW025 BKN120 24/21 Q1011
YBBN,2012-01-27 21:00,153.1292,-27.3917,75.20,69.80,83.32,90.00,7.00,0.00,29.85,M,6.21,M,FEW,OVC,   ,   ,2500.00,11500.00,M,M,M,YBBN 272100Z 09007KT 9999 FEW025 OVC115 24/21 Q1011
YBBN,2012-01-27 21:30,153.1292,-27.3917,75.20,71.60,88.59,100.00,6.00,0.00,29.85,M,6.21,M,FEW,OVC,   ,   ,2000.00,9500.00,M,M,-RA,YBBN 272130Z 10006KT 9999 -RA FEW020 OVC095 24/22 Q1011
YBBN,2012-01-27 22:00,153.1292,-27.3917,75.20,71.60,88.59,100.00,8.00,0.00,29.85,M,6.21,M,FEW,SCT,OVC,   ,1800.00,2200.00,9000.00,M,-RA,YBBN 272200Z 10008KT 9999 -RA FEW018 SCT022 OVC090 24/22 Q1011
YBBN,2012-01-27 22:30,153.1292,-27.3917,75.20,71.60,88.59,120.00,7.00,0.00,29.85,M,4.97,M,FEW,SCT,OVC,   ,1500.00,2200.00,8000.00,M,-RA,YBBN 272230Z 12007KT 8000 -RA FEW015 SCT022 OVC080 24/22 Q1011
YBBN,2012-01-27 22:40,153.1292,-27.3917,75.20,71.60,88.59,110.00,6.00,0.00,29.85,M,3.11,M,FEW,BKN,OVC,   ,1200.00,2000.00,8000.00,M,-SHRA,YBBN 272240Z 11006KT 5000 -SHRA FEW012 BKN020 OVC080 24/22 Q1011
YBBN,2012-01-27 23:00,153.1292,-27.3917,71.60,68.00,88.43,60.00,11.00,0.00,29.85,M,4.97,M,FEW,BKN,BKN,   ,1200.00,1800.00,6000.00,M,-SHRA,YBBN 272300Z 06011KT 8000 -SHRA FEW012 BKN018 BKN060 22/20 Q1011
YBBN,2012-01-27 23:30,153.1292,-27.3917,73.40,69.80,88.51,70.00,7.00,0.00,29.85,M,6.21,M,FEW,BKN,   ,   ,1800.00,6000.00,M,M,-RA,YBBN 272330Z 07007KT 9999 -RA FEW018 BKN060 23/21 Q1011
