#DEBUG: Format Typ    -> comma
#DEBUG: Time Period   -> 2014-12-20 00:00:00+00:00 2014-12-21 00:00:00+00:00
#DEBUG: Time Zone     -> Etc/UTC
#DEBUG: Data Contact   -> daryl herzmann akrherz@iastate.edu 515-294-5978
#DEBUG: Entries Found -> -1
station,valid,lon,lat,tmpf, dwpf, relh, drct, sknt, p01i, alti, mslp, vsby, gust, skyc1, skyc2, skyc3, skyc4, skyl1, skyl2, skyl3, skyl4, presentwx, metar
YBBN,2014-12-20 00:00,153.1292,-27.3917,80.60,64.40,57.84,110.00,10.00,0.00,29.97,M,6.21,M,FEW,M,M,M,2500.00,M,M,M,M,YBBN 200000Z 11010KT 9999 FEW025 27/18 Q1015 NOSIG
YBBN,2014-12-20 00:30,153.1292,-27.3917,80.60,64.40,57.84,120.00,11.00,0.00,29.97,M,6.21,M,FEW,SCT,M,M,2800.00,5500.00,M,M,M,YBBN 200030Z 12011KT 9999 FEW028 SCT055 27/18 Q1015
YBBN,2014-12-20 01:00,153.1292,-27.3917,80.60,64.40,57.84,120.00,9.00,0.00,29.97,M,6.21,M,FEW,SCT,M,M,2800.00,5800.00,M,M,M,YBBN 200100Z 12009KT 9999 FEW028 SCT058 27/18 Q1015 NOSIG
YBBN,2014-12-20 01:30,153.1292,-27.3917,80.60,64.40,57.84,120.00,11.00,0.00,29.97,M,6.21,M,FEW,SCT,M,M,2500.00,6000.00,M,M,M,YBBN 200130Z 12011KT 9999 FEW025 SCT060 27/18 Q1015
YBBN,2014-12-20 02:00,153.1292,-27.3917,80.60,64.40,57.84,110.00,11.00,0.00,29.97,M,6.21,M,FEW,SCT,M,M,2500.00,6200.00,M,M,M,YBBN 200200Z 11011KT 9999 FEW025 SCT062 27/18 Q1015 NOSIG
YBBN,2014-12-20 02:30,153.1292,-27.3917,80.60,62.60,54.30,130.00,12.00,0.00,29.97,M,6.21,M,FEW,M,M,M,3000.00,M,M,M,M,YBBN 200230Z 13012KT 9999 FEW030 27/17 Q1015
YBBN,2014-12-20 03:00,153.1292,-27.3917,80.60,62.60,54.30,120.00,12.00,0.00,29.94,M,6.21,M,FEW,M,M,M,3000.00,M,M,M,M,YBBN 200300Z 12012KT 9999 FEW030 27/17 Q1014 NOSIG
YBBN,2014-12-20 03:30,153.1292,-27.3917,80.60,64.40,57.84,120.00,11.00,0.00,29.94,M,6.21,M,FEW,M,M,M,3000.00,M,M,M,M,YBBN 200330Z 12011KT 9999 FEW030 27/18 Q1014
YBBN,2014-12-20 04:00,153.1292,-27.3917,80.60,62.60,54.30,90.00,10.00,0.00,29.94,M,6.21,M,FEW,M,M,M,3000.00,M,M,M,M,YBBN 200400Z 09010KT 9999 FEW030 27/17 Q1014 NOSIG
YBBN,2014-12-20 04:30,153.1292,-27.3917,80.60,64.40,57.84,90.00,11.00,0.00,29.94,M,6.21,M,FEW,M,M,M,3000.00,M,M,M,M,YBBN 200430Z 09011KT 9999 FEW030 27/18 Q1014
YBBN,2014-12-20 05:00,153.1292,-27.3917,80.60,64.40,57.84,90.00,10.00,0.00,29.91,M,6.21,M,FEW,M,M,M,3200.00,M,M,M,M,YBBN 200500Z 09010KT 9999 FEW032 27/18 Q1013 NOSIG
YBBN,2014-12-20 05:30,153.1292,-27.3917,80.60,64.40,57.84,80.00,10.00,0.00,29.91,M,6.21,M,FEW,M,M,M,3200.00,M,M,M,M,YBBN 200530Z 08010KT 9999 FEW032 27/18 Q1013
YBBN,2014-12-20 06:00,153.1292,-27.3917,80.60,64.40,57.84,80.00,11.00,0.00,29.91,M,6.21,M,FEW,M,M,M,3200.00,M,M,M,M,YBBN 200600Z 08011KT 9999 FEW032 27/18 Q1013 NOSIG
YBBN,2014-12-20 06:30,153.1292,-27.3917,78.80,64.40,61.36,70.00,10.00,0.00,29.91,M,6.21,M,FEW,M,M,M,3200.00,M,M,M,M,YBBN 200630Z 07010KT 9999 FEW032 26/18 Q1013
YBBN,2014-12-20 07:00,153.1292,-27.3917,78.80,64.40,61.36,70.00,9.00,0.00,29.91,M,6.21,M,FEW,M,M,M,3200.00,M,M,M,M,YBBN 200700Z 07009KT 9999 FEW032 26/18 Q1013 NOSIG
YBBN,2014-12-20 07:30,153.1292,-27.3917,77.00,64.40,65.12,60.00,11.00,0.00,29.94,M,6.21,M,FEW,BKN,M,M,1800.00,2700.00,M,M,M,YBBN 200730Z 06011KT 9999 FEW018 BKN027 25/18 Q1014
YBBN,2014-12-20 08:00,153.1292,-27.3917,77.00,64.40,65.12,70.00,10.00,0.00,29.94,M,6.21,M,FEW,SCT,M,M,2000.00,2800.00,M,M,M,YBBN 200800Z 07010KT 9999 FEW020 SCT028 25/18 Q1014 NOSIG
YBBN,2014-12-20 08:30,153.1292,-27.3917,75.20,62.60,64.91,80.00,10.00,0.00,29.97,M,6.21,M,FEW,SCT,M,M,2000.00,30000.00,M,M,M,YBBN 200830Z 08010KT 9999 FEW020 SCT300 24/17 Q1015
YBBN,2014-12-20 09:00,153.1292,-27.3917,75.20,60.80,60.90,80.00,8.00,0.00,29.97,M,6.21,M,FEW,M,M,M,3300.00,M,M,M,M,YBBN 200900Z 08008KT 9999 FEW033 24/16 Q1015
YBBN,2014-12-20 09:30,153.1292,-27.3917,75.20,60.80,60.90,80.00,8.00,0.00,29.97,M,6.21,M,FEW,M,M,M,3300.00,M,M,M,M,YBBN 200930Z 08008KT 9999 FEW033 24/16 Q1015
YBBN,2014-12-20 10:00,153.1292,-27.3917,75.20,60.80,60.90,90.00,9.00,0.00,30.00,M,6.21,M,FEW,M,M,M,3300.00,M,M,M,M,YBBN 201000Z 09009KT 9999 FEW033 24/16 Q1016 NOSIG
YBBN,2014-12-20 10:30,153.1292,-27.3917,75.20,62.60,64.91,90.00,8.00,0.00,30.00,M,6.21,M,SCT,M,M,M,3300.00,M,M,M,M,YBBN 201030Z 09008KT 9999 SCT033 24/17 Q1016
YBBN,2014-12-20 11:00,153.1292,-27.3917,75.20,62.60,64.91,80.00,8.00,0.00,30.03,M,6.21,M,SCT,M,M,M,3300.00,M,M,M,M,YBBN 201100Z 08008KT 9999 SCT033 24/17 Q1017
YBBN,2014-12-20 11:30,153.1292,-27.3917,75.20,62.60,64.91,90.00,8.00,0.00,30.03,M,6.21,M,SCT,M,M,M,3300.00,M,M,M,M,YBBN 201130Z 09008KT 9999 SCT033 24/17 Q1017
YBBN,2014-12-20 12:00,153.1292,-27.3917,75.20,62.60,64.91,90.00,7.00,0.00,30.03,M,6.21,M,FEW,M,M,M,3300.00,M,M,M,M,YBBN 201200Z 09007KT 9999 FEW033 24/17 Q1017
YBBN,2014-12-20 12:30,153.1292,-27.3917,75.20,62.60,64.91,90.00,7.00,0.00,30.03,M,6.21,M,FEW,M,M,M,3200.00,M,M,M,M,YBBN 201230Z 09007KT 9999 FEW032 24/17 Q1017
YBBN,2014-12-20 13:00,153.1292,-27.3917,75.20,62.60,64.91,80.00,5.00,0.00,30.03,M,6.21,M,SCT,M,M,M,2800.00,M,M,M,M,YBBN 201300Z 08005KT 9999 SCT028 24/17 Q1017
YBBN,2014-12-20 13:30,153.1292,-27.3917,73.40,64.40,73.44,80.00,7.00,0.00,30.03,M,6.21,M,SCT,M,M,M,2800.00,M,M,M,M,YBBN 201330Z 08007KT 9999 SCT028 23/18 Q1017
YBBN,2014-12-20 14:00,153.1292,-27.3917,73.40,62.60,68.94,80.00,6.00,0.00,30.03,M,6.21,M,SCT,M,M,M,2800.00,M,M,M,M,YBBN 201400Z 08006KT 9999 SCT028 23/17 Q1017 NOSIG
YBBN,2014-12-20 14:30,153.1292,-27.3917,73.40,62.60,68.94,90.00,7.00,0.00,30.00,M,6.21,M,SCT,M,M,M,2800.00,M,M,M,M,YBBN 201430Z 09007KT 9999 SCT028 23/17 Q1016
YBBN,2014-12-20 15:00,153.1292,-27.3917,73.40,62.60,68.94,90.00,7.00,0.00,30.00,M,6.21,M,FEW,M,M,M,2800.00,M,M,M,M,YBBN 201500Z 09007KT 9999 FEW028 23/17 Q1016
YBBN,2014-12-20 15:30,153.1292,-27.3917,73.40,62.60,68.94,90.00,6.00,0.00,30.00,M,6.21,M,SCT,M,M,M,2800.00,M,M,M,M,YBBN 201530Z 09006KT 9999 SCT028 23/17 Q1016
YBBN,2014-12-20 16:00,153.1292,-27.3917,73.40,62.60,68.94,90.00,7.00,0.00,29.97,M,6.21,M,SCT,M,M,M,2800.00,M,M,M,M,YBBN 201600Z 09007KT 9999 SCT028 23/17 Q1015
YBBN,2014-12-20 16:30,153.1292,-27.3917,73.40,62.60,68.94,80.00,6.00,0.00,29.97,M,6.21,M,FEW,M,M,M,2800.00,M,M,M,M,YBBN 201630Z 08006KT 9999 FEW028 23/17 Q1015
YBBN,2014-12-20 17:00,153.1292,-27.3917,73.40,62.60,68.94,80.00,5.00,0.00,29.97,M,6.21,M,FEW,M,M,M,2800.00,M,M,M,M,YBBN 201700Z 08005KT 9999 FEW028 23/17 Q1015
YBBN,2014-12-20 17:30,153.1292,-27.3917,73.40,62.60,68.94,80.00,6.00,0.00,29.97,M,6.21,M,FEW,M,M,M,2800.00,M,M,M,M,YBBN 201730Z 08006KT 9999 FEW028 23/17 Q1015
YBBN,2014-12-20 18:00,153.1292,-27.3917,73.40,62.60,68.94,80.00,6.00,0.00,29.97,M,6.21,M,FEW,M,M,M,3000.00,M,M,M,M,YBBN 201800Z 08006KT 9999 FEW030 23/17 Q1015 NOSIG
YBBN,2014-12-20 18:30,153.1292,-27.3917,73.40,62.60,68.94,90.00,6.00,0.00,30.00,M,6.21,M,FEW,M,M,M,3000.00,M,M,M,M,YBBN 201830Z 09006KT 9999 FEW030 23/17 Q1016
YBBN,2014-12-20 19:00,153.1292,-27.3917,73.40,62.60,68.94,90.00,6.00,0.00,30.00,M,6.21,M,FEW,M,M,M,3000.00,M,M,M,M,YBBN 201900Z 09006KT 9999 FEW030 23/17 Q1016
YBBN,2014-12-20 19:30,153.1292,-27.3917,73.40,62.60,68.94,90.00,5.00,0.00,30.00,M,6.21,M,FEW,M,M,M,3000.00,M,M,M,M,YBBN 201930Z 09005KT 9999 FEW030 23/17 Q1016
YBBN,2014-12-20 20:00,153.1292,-27.3917,75.20,62.60,64.91,70.00,7.00,0.00,30.03,M,6.21,M,FEW,M,M,M,3000.00,M,M,M,M,YBBN 202000Z 07007KT 9999 FEW030 24/17 Q1017
YBBN,2014-12-20 20:30,153.1292,-27.3917,75.20,62.60,64.91,50.00,7.00,0.00,30.03,M,6.21,M,FEW,M,M,M,3000.00,M,M,M,M,YBBN 202030Z 05007KT 9999 FEW030 24/17 Q1017
YBBN,2014-12-20 21:00,153.1292,-27.3917,75.20,62.60,64.91,50.00,8.00,0.00,30.03,M,6.21,M,FEW,SCT,M,M,3000.00,6000.00,M,M,M,YBBN 202100Z 05008KT 9999 FEW030 SCT060 24/17 Q1017 NOSIG
YBBN,2014-12-20 21:30,153.1292,-27.3917,77.00,62.60,61.13,70.00,7.00,0.00,30.03,M,6.21,M,FEW,SCT,M,M,3000.00,6000.00,M,M,M,YBBN 202130Z 07007KT 9999 FEW030 SCT060 25/17 Q1017
YBBN,2014-12-20 22:00,153.1292,-27.3917,78.80,62.60,57.60,50.00,7.00,0.00,30.06,M,6.21,M,SCT,M,M,M,3200.00,M,M,M,M,YBBN 202200Z 05007KT 9999 SCT032 26/17 Q1018 NOSIG
YBBN,2014-12-20 22:30,153.1292,-27.3917,78.80,62.60,57.60,50.00,7.00,0.00,30.06,M,6.21,M,SCT,M,M,M,3200.00,M,M,M,M,YBBN 202230Z 05007KT 9999 SCT032 26/17 Q1018
YBBN,2014-12-20 23:00,153.1292,-27.3917,80.60,64.40,57.84,50.00,8.00,0.00,30.06,M,6.21,M,FEW,SCT,M,M,3200.00,6500.00,M,M,M,YBBN 202300Z 05008KT 9999 FEW032 SCT065 27/18 Q1018 NOSIG
YBBN,2014-12-20 23:30,153.1292,-27.3917,78.80,62.60,57.60,50.00,9.00,0.00,30.06,M,6.21,M,FEW,SCT,M,M,3200.00,6500.00,M,M,M,YBBN 202330Z 05009KT 9999 FEW032 SCT065 26/17 Q1018
