#DEBUG: Format Typ    -> comma
#DEBUG: Time Period   -> 2016-02-12 00:00:00+00:00 2016-02-13 00:00:00+00:00
#DEBUG: Time Zone     -> Etc/UTC
#DEBUG: Data Contact   -> daryl herzmann akrherz@iastate.edu 515-294-5978
#DEBUG: Entries Found -> -1
station,valid,lon,lat,tmpf, dwpf, relh, drct, sknt, p01i, alti, mslp, vsby, gust, skyc1, skyc2, skyc3, skyc4, skyl1, skyl2, skyl3, skyl4, presentwx, metar
YBBN,2016-02-12 00:00,153.1292,-27.3917,82.40,66.20,58.08,130.00,12.00,0.00,29.91,M,6.21,M,SCT,M,M,M,3000.00,M,M,M,M,YBBN 120000Z 13012KT 9999 SCT030 28/19 Q1013
YBBN,2016-02-12 00:30,153.1292,-27.3917,82.40,66.20,58.08,110.00,12.00,0.00,29.88,M,6.21,M,SCT,M,M,M,3000.00,M,M,M,M,YBBN 120030Z 11012KT 9999 SCT030 28/19 Q1012 NOSIG
YBBN,2016-02-12 01:00,153.1292,-27.3917,82.40,64.40,54.55,120.00,13.00,0.00,29.88,M,6.21,M,SCT,M,M,M,3000.00,M,M,M,M,YBBN 120100Z 12013KT 9999 SCT030 28/18 Q1012
YBBN,2016-02-12 01:30,153.1292,-27.3917,82.40,64.40,54.55,110.00,13.00,0.00,29.88,M,6.21,24.00,SCT,M,M,M,3300.00,M,M,M,M,YBBN 120130Z 11013G24KT 9999 SCT033 28/18 Q1012 NOSIG
YBBN,2016-02-12 02:00,153.1292,-27.3917,82.40,62.60,51.21,120.00,13.00,0.00,29.88,M,6.21,23.00,SCT,M,M,M,3500.00,M,M,M,M,YBBN 120200Z 12013G23KT 9999 SCT035 28/17 Q1012 NOSIG
YBBN,2016-02-12 02:30,153.1292,-27.3917,84.20,64.40,51.47,110.00,14.00,0.00,29.88,M,6.21,M,SCT,SCT,M,M,3800.00,4800.00,M,M,M,YBBN 120230Z 11014KT 9999 SCT038 SCT048 29/18 Q1012 NOSIG
YBBN,2016-02-12 03:00,153.1292,-27.3917,82.40,64.40,54.55,120.00,15.00,0.00,29.88,M,6.21,M,SCT,BKN,M,M,3800.00,7800.00,M,M,M,YBBN 120300Z 12015KT 9999 SCT038 BKN078 28/18 Q1012 NOSIG
YBBN,2016-02-12 03:30,153.1292,-27.3917,80.60,64.40,57.84,110.00,14.00,0.00,29.85,M,6.21,M,SCT,BKN,M,M,3800.00,8000.00,M,M,M,YBBN 120330Z 11014KT 9999 SCT038 BKN080 27/18 Q1011 NOSIG
YBBN,2016-02-12 04:00,153.1292,-27.3917,80.60,64.40,57.84,110.00,15.00,0.00,29.85,M,6.21,25.00,FEW,BKN,M,M,3800.00,8200.00,M,M,M,YBBN 120400Z 11015G25KT 9999 FEW038 BKN082 27/18 Q1011
YBBN,2016-02-12 04:30,153.1292,-27.3917,82.40,64.40,54.55,110.00,14.00,0.00,29.85,M,6.21,24.00,FEW,BKN,M,M,3800.00,8200.00,M,M,M,YBBN 120430Z 11014G24KT 9999 FEW038 BKN082 28/18 Q1011 NOSIG
YBBN,2016-02-12 05:00,153.1292,-27.3917,82.40,64.40,54.55,120.00,15.00,0.00,29.85,M,6.21,M,FEW,BKN,M,M,3800.00,8200.00,M,M,M,YBBN 120500Z 12015KT 9999 FEW038 BKN082 28/18 Q1011
YBBN,2016-02-12 05:27,153.1292,-27.3917,80.60,64.40,57.84,120.00,15.00,0.00,29.85,M,6.21,25.00,FEW,SCT,M,M,3800.00,8200.00,M,M,M,YBBN 120527Z 12015G25KT 9999 FEW038 SCT082 27/18 Q1011
YBBN,2016-02-12 05:30,153.1292,-27.3917,82.40,64.40,54.55,110.00,16.00,0.00,29.85,M,6.21,26.00,FEW,SCT,M,M,3800.00,8200.00,M,M,M,YBBN 120530Z 11016G26KT 9999 FEW038 SCT082 28/18 Q1011
YBBN,2016-02-12 06:00,153.1292,-27.3917,80.60,64.40,57.84,110.00,14.00,0.00,29.85,M,6.21,M,SCT,SCT,M,M,3800.00,8200.00,M,M,M,YBBN 120600Z 11014KT 9999 SCT038 SCT082 27/18 Q1011 NOSIG
YBBN,2016-02-12 06:10,153.1292,-27.3917,80.60,64.40,57.84,110.00,15.00,0.00,29.85,M,6.21,25.00,FEW,SCT,M,M,3800.00,8200.00,M,M,M,YBBN 120610Z 11015G25KT 9999 FEW038 SCT082 27/18 Q1011
YBBN,2016-02-12 06:30,153.1292,-27.3917,80.60,62.60,54.30,120.00,13.00,0.00,29.85,M,6.21,M,FEW,SCT,M,M,3800.00,8200.00,M,M,M,YBBN 120630Z 12013KT 9999 FEW038 SCT082 27/17 Q1011 NOSIG
YBBN,2016-02-12 07:00,153.1292,-27.3917,80.60,62.60,54.30,130.00,13.00,0.00,29.85,M,6.21,M,FEW,SCT,M,M,3800.00,8200.00,M,M,M,YBBN 120700Z 13013KT 9999 FEW038 SCT082 27/17 Q1011
YBBN,2016-02-12 07:30,153.1292,-27.3917,78.80,60.80,54.05,130.00,11.00,0.00,29.88,M,6.21,M,FEW,M,M,M,3800.00,M,M,M,M,YBBN 120730Z 13011KT 9999 FEW038 26/16 Q1012 NOSIG
YBBN,2016-02-12 08:00,153.1292,-27.3917,78.80,60.80,54.05,130.00,12.00,0.00,29.88,M,6.21,M,FEW,M,M,M,3500.00,M,M,M,M,YBBN 120800Z 13012KT 9999 FEW035 26/16 Q1012
YBBN,2016-02-12 08:30,153.1292,-27.3917,77.00,60.80,57.36,130.00,10.00,0.00,29.88,M,6.21,M,FEW,M,M,M,3500.00,M,M,M,M,YBBN 120830Z 13010KT 9999 FEW035 25/16 Q1012 NOSIG
YBBN,2016-02-12 09:00,153.1292,-27.3917,77.00,62.60,61.13,150.00,10.00,0.00,29.88,M,6.21,M,FEW,M,M,M,4000.00,M,M,M,M,YBBN 120900Z 15010KT 9999 FEW040 25/17 Q1012 NOSIG
YBBN,2016-02-12 09:30,153.1292,-27.3917,77.00,64.40,65.12,160.00,7.00,0.00,29.88,M,6.21,M,M,M,M,M,M,M,M,M,M,YBBN 120930Z 16007KT CAVOK 25/18 Q1012 NOSIG
YBBN,2016-02-12 10:00,153.1292,-27.3917,75.20,64.40,69.14,160.00,8.00,0.00,29.88,M,6.21,18.00,M,M,M,M,M,M,M,M,M,YBBN 121000Z 16008G18KT CAVOK 24/18 Q1012 NOSIG
YBBN,2016-02-12 10:30,153.1292,-27.3917,75.20,64.40,69.14,160.00,9.00,0.00,29.91,M,6.21,M,M,M,M,M,M,M,M,M,M,YBBN 121030Z 16009KT CAVOK 24/18 Q1013 NOSIG
YBBN,2016-02-12 11:00,153.1292,-27.3917,75.20,64.40,69.14,170.00,9.00,0.00,29.91,M,6.21,M,FEW,M,M,M,3000.00,M,M,M,M,YBBN 121100Z 17009KT 9999 FEW030 24/18 Q1013 NOSIG
YBBN,2016-02-12 11:30,153.1292,-27.3917,75.20,64.40,69.14,190.00,7.00,0.00,29.91,M,6.21,M,SCT,M,M,M,3200.00,M,M,M,M,YBBN 121130Z 19007KT 9999 SCT032 24/18 Q1013 NOSIG
YBBN,2016-02-12 12:00,153.1292,-27.3917,75.20,64.40,69.14,190.00,7.00,0.00,29.91,M,6.21,M,BKN,M,M,M,3200.00,M,M,M,M,YBBN 121200Z 19007KT 9999 BKN032 24/18 Q1013 NOSIG
YBBN,2016-02-12 12:30,153.1292,-27.3917,73.40,64.40,73.44,180.00,7.00,0.00,29.91,M,6.21,M,SCT,M,M,M,2900.00,M,M,M,M,YBBN 121230Z 18007KT 9999 SCT029 23/18 Q1013 NOSIG
YBBN,2016-02-12 13:00,153.1292,-27.3917,73.40,64.40,73.44,190.00,7.00,0.00,29.88,M,6.21,M,SCT,M,M,M,3200.00,M,M,M,M,YBBN 121300Z 19007KT 9999 SCT032 23/18 Q1012 NOSIG
YBBN,2016-02-12 13:30,153.1292,-27.3917,73.40,64.40,73.44,190.00,7.00,0.00,29.88,M,6.21,M,FEW,M,M,M,3000.00,M,M,M,M,YBBN 121330Z 19007KT 9999 FEW030 23/18 Q1012 NOSIG
YBBN,2016-02-12 14:00,153.1292,-27.3917,73.40,64.40,73.44,190.00,7.00,0.00,29.88,M,6.21,M,FEW,M,M,M,3000.00,M,M,M,M,YBBN 121400Z 19007KT 9999 FEW030 23/18 Q1012
YBBN,2016-02-12 14:30,153.1292,-27.3917,73.40,64.40,73.44,200.00,7.00,0.00,29.85,M,6.21,M,SCT,M,M,M,2800.00,M,M,M,M,YBBN 121430Z 20007KT 9999 SCT028 23/18 Q1011 NOSIG
YBBN,2016-02-12 15:00,153.1292,-27.3917,73.40,62.60,68.94,200.00,7.00,0.00,29.85,M,6.21,M,SCT,M,M,M,2800.00,M,M,M,M,YBBN 121500Z 20007KT 9999 SCT028 23/17 Q1011
YBBN,2016-02-12 15:30,153.1292,-27.3917,69.80,62.60,77.90,200.00,7.00,0.00,29.85,M,6.21,M,SCT,M,M,M,2800.00,M,M,M,M,YBBN 121530Z 20007KT 9999 SCT028 21/17 Q1011 NOSIG
YBBN,2016-02-12 16:00,153.1292,-27.3917,68.00,60.80,77.75,200.00,7.00,0.00,29.85,M,6.21,M,FEW,M,M,M,2800.00,M,M,M,M,YBBN 121600Z 20007KT 9999 FEW028 20/16 Q1011
YBBN,2016-02-12 16:30,153.1292,-27.3917,68.00,60.80,77.75,200.00,7.00,0.00,29.83,M,6.21,M,FEW,SCT,M,M,2800.00,16000.00,M,M,M,YBBN 121630Z 20007KT 9999 FEW028 SCT160 20/16 Q1010 NOSIG
YBBN,2016-02-12 17:00,153.1292,-27.3917,68.00,60.80,77.75,200.00,7.00,0.00,29.83,M,6.21,M,FEW,BKN,M,M,2500.00,16000.00,M,M,M,YBBN 121700Z 20007KT 9999 FEW025 BKN160 20/16 Q1010
YBBN,2016-02-12 17:30,153.1292,-27.3917,68.00,62.60,82.86,210.00,9.00,0.00,29.83,M,6.21,M,FEW,BKN,M,M,2500.00,16000.00,M,M,M,YBBN 121730Z 21009KT 9999 FEW025 BKN160 20/17 Q1010 NOSIG
YBBN,2016-02-12 18:00,153.1292,-27.3917,69.80,62.60,77.90,200.00,7.00,0.00,29.83,M,6.21,M,FEW,SCT,BKN,M,2500.00,4200.00,18000.00,M,M,YBBN 121800Z 20007KT 9999 FEW025 SCT042 BKN180 21/17 Q1010
YBBN,2016-02-12 18:30,153.1292,-27.3917,69.80,62.60,77.90,210.00,9.00,0.00,29.83,M,6.21,M,FEW,SCT,BKN,M,4000.00,16000.00,24000.00,M,M,YBBN 121830Z 21009KT 9999 FEW040 SCT160 BKN240 21/17 Q1010 NOSIG
YBBN,2016-02-12 19:00,153.1292,-27.3917,71.60,62.60,73.27,190.00,8.00,0.00,29.83,M,6.21,M,M,M,M,M,M,M,M,M,M,YBBN 121900Z 19008KT CAVOK 22/17 Q1010
YBBN,2016-02-12 19:30,153.1292,-27.3917,71.60,64.40,78.04,190.00,8.00,0.00,29.83,M,6.21,M,M,M,M,M,M,M,M,M,M,YBBN 121930Z 19008KT CAVOK 22/18 Q1010 NOSIG
YBBN,2016-02-12 20:00,153.1292,-27.3917,69.80,62.60,77.90,210.00,9.00,0.00,29.83,M,6.21,M,FEW,BKN,M,M,1500.00,24000.00,M,M,M,YBBN 122000Z 21009KT 9999 FEW015 BKN240 21/17 Q1010
YBBN,2016-02-12 20:30,153.1292,-27.3917,69.80,62.60,77.90,210.00,10.00,0.00,29.85,M,6.21,M,SCT,SCT,M,M,4400.00,24000.00,M,M,M,YBBN 122030Z 21010KT 9999 SCT044 SCT240 21/17 Q1011 NOSIG
YBBN,2016-02-12 21:00,153.1292,-27.3917,71.60,62.60,73.27,210.00,13.00,0.00,29.85,M,6.21,M,FEW,BKN,M,M,1700.00,4600.00,M,M,M,YBBN 122100Z 21013KT 9999 FEW017 BKN046 22/17 Q1011 NOSIG
YBBN,2016-02-12 21:30,153.1292,-27.3917,73.40,62.60,68.94,200.00,10.00,0.00,29.85,M,6.21,M,FEW,SCT,BKN,M,1700.00,3500.00,24000.00,M,M,YBBN 122130Z 20010KT 9999 FEW017 SCT035 BKN240 23/17 Q1011
YBBN,2016-02-12 22:00,153.1292,-27.3917,75.20,60.80,60.90,190.00,10.00,0.00,29.85,M,6.21,M,FEW,BKN,M,M,1700.00,4600.00,M,M,M,YBBN 122200Z 19010KT 9999 FEW017 BKN046 24/16 Q1011 NOSIG
YBBN,2016-02-12 22:30,153.1292,-27.3917,77.00,62.60,61.13,180.00,11.00,0.00,29.85,M,6.21,M,FEW,BKN,BKN,M,1700.00,2900.00,3900.00,M,M,YBBN 122230Z 18011KT 9999 FEW017 BKN029 BKN039 25/17 Q1011 NOSIG
YBBN,2016-02-12 23:00,153.1292,-27.3917,77.00,62.60,61.13,170.00,8.00,0.00,29.85,M,6.21,M,FEW,BKN,BKN,M,1700.00,2900.00,4500.00,M,VCSH,YBBN 122300Z 17008KT 9999 VCSH FEW017 BKN029 BKN045 25/17 Q1011
YBBN,2016-02-12 23:30,153.1292,-27.3917,75.20,66.20,73.61,160.00,11.00,0.00,29.85,M,6.21,M,FEW,BKN,BKN,M,1700.00,3000.00,5200.00,M,-SHRA,YBBN 122330Z 16011KT 9999 -SHRA FEW017 BKN030 BKN052 24/19 Q1011 NOSIG
