#DEBUG: Format Typ    -> comma
#DEBUG: Time Period   -> 2012-11-05 00:00:00+00:00 2012-11-06 00:00:00+00:00
#DEBUG: Time Zone     -> Etc/UTC
#DEBUG: Data Contact   -> daryl herzmann akrherz@iastate.edu 515-294-5978
#DEBUG: Entries Found -> -1
station,valid,lon,lat,tmpf, dwpf, relh, drct, sknt, p01i, alti, mslp, vsby, gust, skyc1, skyc2, skyc3, skyc4, skyl1, skyl2, skyl3, skyl4, presentwx, metar
YBBN,2012-11-05 00:00,153.1292,-27.3917,77.00,57.20,50.43,70.00,7.00,0.00,30.12,M,6.21,M,FEW,SCT,M,M,3800.00,5200.00,M,M,M,YBBN 050000Z 07007KT 9999 FEW038 SCT052 25/14 Q1020
YBBN,2012-11-05 00:30,153.1292,-27.3917,75.20,57.20,53.55,70.00,7.00,0.00,30.12,M,6.21,M,SCT,BKN,M,M,4000.00,5500.00,M,M,M,YBBN 050030Z 07007KT 9999 SCT040 BKN055 24/14 Q1020
YBBN,2012-11-05 01:00,153.1292,-27.3917,75.20,57.20,53.55,30.00,8.00,0.00,30.12,M,6.21,M,SCT,SCT,M,M,4000.00,5400.00,M,M,M,YBBN 050100Z 03008KT 9999 SCT040 SCT054 24/14 Q1020
YBBN,2012-11-05 01:30,153.1292,-27.3917,77.00,57.20,50.43,20.00,11.00,0.00,30.12,M,6.21,M,FEW,SCT,M,M,4200.00,5500.00,M,M,M,YBBN 050130Z 02011KT 9999 FEW042 SCT055 25/14 Q1020
YBBN,2012-11-05 02:00,153.1292,-27.3917,77.00,57.20,50.43,30.00,13.00,0.00,30.09,M,6.21,M,FEW,SCT,M,M,4200.00,5500.00,M,M,M,YBBN 050200Z 03013KT 9999 FEW042 SCT055 25/14 Q1019 NOSIG
YBBN,2012-11-05 02:30,153.1292,-27.3917,77.00,59.00,53.80,60.00,11.00,0.00,30.09,M,6.21,M,FEW,M,M,M,4200.00,M,M,M,M,YBBN 050230Z 06011KT 9999 FEW042 25/15 Q1019
YBBN,2012-11-05 03:00,153.1292,-27.3917,77.00,57.20,50.43,30.00,13.00,0.00,30.09,M,6.21,M,FEW,M,M,M,4200.00,M,M,M,M,YBBN 050300Z 03013KT 9999 FEW042 25/14 Q1019
YBBN,2012-11-05 03:30,153.1292,-27.3917,77.00,57.20,50.43,50.00,12.00,0.00,30.06,M,6.21,M,FEW,M,M,M,4200.00,M,M,M,M,YBBN 050330Z 05012KT 9999 FEW042 25/14 Q1018
YBBN,2012-11-05 04:00,153.1292,-27.3917,77.00,57.20,50.43,60.00,12.00,0.00,30.06,M,6.21,M,FEW,M,M,M,4200.00,M,M,M,M,YBBN 050400Z 06012KT 9999 FEW042 25/14 Q1018
YBBN,2012-11-05 04:30,153.1292,-27.3917,77.00,55.40,47.25,40.00,14.00,0.00,30.06,M,6.21,M,FEW,M,M,M,4200.00,M,M,M,M,YBBN 050430Z 04014KT 9999 FEW042 25/13 Q1018
YBBN,2012-11-05 05:00,153.1292,-27.3917,77.00,55.40,47.25,50.00,14.00,0.00,30.03,M,6.21,M,FEW,M,M,M,4200.00,M,M,M,M,YBBN 050500Z 05014KT 9999 FEW042 25/13 Q1017 NOSIG
YBBN,2012-11-05 05:30,153.1292,-27.3917,75.20,57.20,53.55,50.00,13.00,0.00,30.03,M,6.21,M,FEW,M,M,M,4000.00,M,M,M,M,YBBN 050530Z 05013KT 9999 FEW040 24/14 Q1017
YBBN,2012-11-05 06:00,153.1292,-27.3917,73.40,55.40,53.29,60.00,13.00,0.00,30.03,M,6.21,M,FEW,M,M,M,4000.00,M,M,M,M,YBBN 050600Z 06013KT 9999 FEW040 23/13 Q1017
YBBN,2012-11-05 06:30,153.1292,-27.3917,73.40,57.20,56.88,50.00,13.00,0.00,30.03,M,6.21,M,FEW,M,M,M,4000.00,M,M,M,M,YBBN 050630Z 05013KT 9999 FEW040 23/14 Q1017
YBBN,2012-11-05 07:00,153.1292,-27.3917,73.40,57.20,56.88,50.00,10.00,0.00,30.06,M,6.21,M,FEW,M,M,M,4000.00,M,M,M,M,YBBN 050700Z 05010KT 9999 FEW040 23/14 Q1018
YBBN,2012-11-05 07:30,153.1292,-27.3917,71.60,57.20,60.44,60.00,10.00,0.00,30.06,M,6.21,M,FEW,M,M,M,4000.00,M,M,M,M,YBBN 050730Z 06010KT 9999 FEW040 22/14 Q1018
YBBN,2012-11-05 08:00,153.1292,-27.3917,71.60,57.20,60.44,50.00,8.00,0.00,30.09,M,6.21,M,FEW,M,M,M,4000.00,M,M,M,M,YBBN 050800Z 05008KT 9999 FEW040 22/14 Q1019
YBBN,2012-11-05 08:30,153.1292,-27.3917,71.60,59.00,64.48,50.00,8.00,0.00,30.09,M,6.21,M,FEW,M,M,M,4000.00,M,M,M,M,YBBN 050830Z 05008KT 9999 FEW040 22/15 Q1019
YBBN,2012-11-05 09:00,153.1292,-27.3917,69.80,59.00,68.55,50.00,7.00,0.00,30.09,M,6.21,M,FEW,M,M,M,4000.00,M,M,M,M,YBBN 050900Z 05007KT 9999 FEW040 21/15 Q1019
YBBN,2012-11-05 09:30,153.1292,-27.3917,69.80,57.20,64.26,60.00,8.00,0.00,30.09,M,6.21,M,FEW,M,M,M,4000.00,M,M,M,M,YBBN 050930Z 06008KT 9999 FEW040 21/14 Q1019
YBBN,2012-11-05 10:00,153.1292,-27.3917,69.80,57.20,64.26,50.00,7.00,0.00,30.12,M,6.21,M,FEW,M,M,M,4000.00,M,M,M,M,YBBN 051000Z 05007KT 9999 FEW040 21/14 Q1020
YBBN,2012-11-05 10:30,153.1292,-27.3917,69.80,59.00,68.55,60.00,8.00,0.00,30.12,M,6.21,M,FEW,M,M,M,4000.00,M,M,M,M,YBBN 051030Z 06008KT 9999 FEW040 21/15 Q1020
YBBN,2012-11-05 11:00,153.1292,-27.3917,69.80,59.00,68.55,60.00,7.00,0.00,30.12,M,6.21,M,FEW,M,M,M,3000.00,M,M,M,M,YBBN 051100Z 06007KT 9999 FEW030 21/15 Q1020
YBBN,2012-11-05 11:30,153.1292,-27.3917,69.80,59.00,68.55,60.00,7.00,0.00,30.15,M,6.21,M,SCT,M,M,M,2800.00,M,M,M,M,YBBN 051130Z 06007KT 9999 SCT028 21/15 Q1021
YBBN,2012-11-05 12:00,153.1292,-27.3917,69.80,59.00,68.55,50.00,7.00,0.00,30.15,M,6.21,M,SCT,M,M,M,2800.00,M,M,M,M,YBBN 051200Z 05007KT 9999 SCT028 21/15 Q1021
YBBN,2012-11-05 12:30,153.1292,-27.3917,69.80,57.20,64.26,50.00,6.00,0.00,30.15,M,6.21,M,FEW,M,M,M,2800.00,M,M,M,M,YBBN 051230Z 05006KT 9999 FEW028 21/14 Q1021
YBBN,2012-11-05 13:00,153.1292,-27.3917,69.80,57.20,64.26,70.00,5.00,0.00,30.12,M,6.21,M,FEW,M,M,M,2800.00,M,M,M,M,YBBN 051300Z 07005KT 9999 FEW028 21/14 Q1020 NOSIG
YBBN,2012-11-05 13:30,153.1292,-27.3917,69.80,57.20,64.26,80.00,5.00,0.00,30.12,M,6.21,M,FEW,M,M,M,3000.00,M,M,M,M,YBBN 051330Z 08005KT 9999 FEW030 21/14 Q1020
YBBN,2012-11-05 14:00,153.1292,-27.3917,68.00,57.20,68.35,80.00,3.00,0.00,30.12,M,6.21,M,FEW,M,M,M,3000.00,M,M,M,M,YBBN 051400Z 08003KT 9999 FEW030 20/14 Q1020
YBBN,2012-11-05 14:30,153.1292,-27.3917,66.20,59.00,77.60,60.00,3.00,0.00,30.09,M,6.21,M,FEW,M,M,M,3000.00,M,M,M,M,YBBN 051430Z 06003KT 9999 FEW030 19/15 Q1019
YBBN,2012-11-05 15:00,153.1292,-27.3917,66.20,57.20,72.74,80.00,4.00,0.00,30.09,M,6.21,M,FEW,M,M,M,3000.00,M,M,M,M,YBBN 051500Z 08004KT 9999 FEW030 19/14 Q1019
YBBN,2012-11-05 15:30,153.1292,-27.3917,64.40,59.00,82.62,90.00,4.00,0.00,30.09,M,6.21,M,FEW,M,M,M,3000.00,M,M,M,M,YBBN 051530Z 09004KT 9999 FEW030 18/15 Q1019
YBBN,2012-11-05 16:00,153.1292,-27.3917,66.20,59.00,77.60,90.00,5.00,0.00,30.06,M,6.21,M,FEW,M,M,M,3000.00,M,M,M,M,YBBN 051600Z 09005KT 9999 FEW030 19/15 Q1018
YBBN,2012-11-05 16:30,153.1292,-27.3917,64.40,59.00,82.62,120.00,3.00,0.00,30.06,M,6.21,M,FEW,M,M,M,3000.00,M,M,M,M,YBBN 051630Z 12003KT 9999 FEW030 18/15 Q1018
YBBN,2012-11-05 17:00,153.1292,-27.3917,62.60,57.20,82.50,200.00,4.00,0.00,30.06,M,6.21,M,FEW,M,M,M,2500.00,M,M,M,M,YBBN 051700Z 20004KT 9999 FEW025 17/14 Q1018 NOSIG
YBBN,2012-11-05 17:30,153.1292,-27.3917,62.60,57.20,82.50,210.00,5.00,0.00,30.06,M,6.21,M,FEW,M,M,M,2500.00,M,M,M,M,YBBN 051730Z 21005KT 9999 FEW025 17/14 Q1018
YBBN,2012-11-05 18:00,153.1292,-27.3917,62.60,59.00,88.00,190.00,5.00,0.00,30.06,M,6.21,M,FEW,M,M,M,2500.00,M,M,M,M,YBBN 051800Z 19005KT 9999 FEW025 17/15 Q1018 NOSIG
YBBN,2012-11-05 18:30,153.1292,-27.3917,60.80,57.20,87.92,190.00,5.00,0.00,30.06,M,6.21,M,FEW,M,M,M,2500.00,M,M,M,M,YBBN 051830Z 19005KT 9999 FEW025 16/14 Q1018
YBBN,2012-11-05 19:00,153.1292,-27.3917,60.80,57.20,87.92,200.00,6.00,0.00,30.09,M,6.21,M,FEW,SCT,M,M,2500.00,30000.00,M,M,M,YBBN 051900Z 20006KT 9999 FEW025 SCT300 16/14 Q1019 NOSIG
YBBN,2012-11-05 19:30,153.1292,-27.3917,62.60,59.00,88.00,190.00,7.00,0.00,30.09,M,6.21,M,FEW,BKN,M,M,2500.00,30000.00,M,M,M,YBBN 051930Z 19007KT 9999 FEW025 BKN300 17/15 Q1019
YBBN,2012-11-05 20:00,153.1292,-27.3917,66.20,59.00,77.60,190.00,5.00,0.00,30.09,M,6.21,M,FEW,BKN,M,M,2500.00,30000.00,M,M,M,YBBN 052000Z 19005KT 9999 FEW025 BKN300 19/15 Q1019
YBBN,2012-11-05 20:30,153.1292,-27.3917,68.00,59.00,72.92,200.00,6.00,0.00,30.09,M,6.21,M,FEW,BKN,M,M,2500.00,30000.00,M,M,M,YBBN 052030Z 20006KT 9999 FEW025 BKN300 20/15 Q1019
YBBN,2012-11-05 21:00,153.1292,-27.3917,69.80,59.00,68.55,200.00,5.00,0.00,30.09,M,6.21,M,FEW,BKN,M,M,2500.00,30000.00,M,M,M,YBBN 052100Z 20005KT 9999 FEW025 BKN300 21/15 Q1019 NOSIG
YBBN,2012-11-05 21:30,153.1292,-27.3917,71.60,57.20,60.44,120.00,5.00,0.00,30.12,M,6.21,M,FEW,SCT,M,M,2800.00,30000.00,M,M,M,YBBN 052130Z 12005KT 9999 FEW028 SCT300 22/14 Q1020
YBBN,2012-11-05 22:00,153.1292,-27.3917,73.40,59.00,60.67,120.00,7.00,0.00,30.09,M,6.21,M,FEW,M,M,M,3000.00,M,M,M,M,YBBN 052200Z 12007KT 9999 FEW030 23/15 Q1019
YBBN,2012-11-05 22:30,153.1292,-27.3917,73.40,57.20,56.88,80.00,6.00,0.00,30.12,M,6.21,M,SCT,M,M,M,3000.00,M,M,M,M,YBBN 052230Z 08006KT 9999 SCT030 23/14 Q1020
YBBN,2012-11-05 23:00,153.1292,-27.3917,75.20,57.20,53.55,60.00,7.00,0.00,30.12,M,6.21,M,SCT,M,M,M,3000.00,M,M,M,M,YBBN 052300Z 06007KT 9999 SCT030 24/14 Q1020 NOSIG
YBBN,2012-11-05 23:30,153.1292,-27.3917,75.20,57.20,53.55,60.00,8.00,0.00,30.12,M,6.21,M,SCT,M,M,M,3500.00,M,M,M,M,YBBN 052330Z 06008KT 9999 SCT035 24/14 Q1020
