#DEBUG: Format Typ    -> comma
#DEBUG: Time Period   -> 2015-11-05 00:00:00+00:00 2015-11-06 00:00:00+00:00
#DEBUG: Time Zone     -> Etc/UTC
#DEBUG: Data Contact   -> daryl herzmann akrherz@iastate.edu 515-294-5978
#DEBUG: Entries Found -> -1
station,valid,lon,lat,tmpf, dwpf, relh, drct, sknt, p01i, alti, mslp, vsby, gust, skyc1, skyc2, skyc3, skyc4, skyl1, skyl2, skyl3, skyl4, presentwx, metar
YBBN,2015-11-05 00:00,153.1292,-27.3917,77.00,66.20,69.33,10.00,11.00,0.00,29.94,M,6.21,M,FEW,SCT,M,M,2400.00,16000.00,M,M,M,YBBN 050000Z 01011KT 9999 FEW024 SCT160 25/19 Q1014 NOSIG
YBBN,2015-11-05 00:30,153.1292,-27.3917,80.60,68.00,65.54,20.00,12.00,0.00,29.91,M,6.21,M,FEW,BKN,M,M,2400.00,25000.00,M,M,M,YBBN 050030Z 02012KT 9999 FEW024 BKN250 27/20 Q1013
YBBN,2015-11-05 01:00,153.1292,-27.3917,78.80,68.00,69.52,30.00,12.00,0.00,29.91,M,6.21,M,FEW,SCT,BKN,M,2400.00,13000.00,25000.00,M,M,YBBN 050100Z 03012KT 9999 FEW024 SCT130 BKN250 26/20 Q1013
YBBN,2015-11-05 01:30,153.1292,-27.3917,78.80,69.80,73.95,30.00,12.00,0.00,29.91,M,6.21,M,FEW,SCT,BKN,M,2400.00,13000.00,25000.00,M,M,YBBN 050130Z 03012KT 9999 FEW024 SCT130 BKN250 26/21 Q1013
YBBN,2015-11-05 02:00,153.1292,-27.3917,78.80,69.80,73.95,30.00,14.00,0.00,29.88,M,6.21,M,FEW,BKN,M,M,2400.00,14000.00,M,M,M,YBBN 050200Z 03014KT 9999 FEW024 BKN140 26/21 Q1012
YBBN,2015-11-05 02:30,153.1292,-27.3917,80.60,69.80,69.71,30.00,14.00,0.00,29.88,M,6.21,M,FEW,BKN,M,M,2600.00,14000.00,M,M,M,YBBN 050230Z 03014KT 9999 FEW026 BKN140 27/21 Q1012
YBBN,2015-11-05 03:00,153.1292,-27.3917,78.80,68.00,69.52,20.00,15.00,0.00,29.88,M,6.21,M,FEW,SCT,M,M,2600.00,14000.00,M,M,M,YBBN 050300Z 02015KT 9999 FEW026 SCT140 26/20 Q1012 NOSIG
YBBN,2015-11-05 03:30,153.1292,-27.3917,78.80,66.20,65.33,20.00,14.00,0.00,29.85,M,6.21,M,FEW,SCT,M,M,2600.00,11000.00,M,M,M,YBBN 050330Z 02014KT 9999 FEW026 SCT110 26/19 Q1011
YBBN,2015-11-05 04:00,153.1292,-27.3917,78.80,68.00,69.52,20.00,14.00,0.00,29.85,M,6.21,M,FEW,SCT,BKN,M,2600.00,11000.00,25000.00,M,M,YBBN 050400Z 02014KT 9999 FEW026 SCT110 BKN250 26/20 Q1011
YBBN,2015-11-05 04:30,153.1292,-27.3917,78.80,69.80,73.95,30.00,12.00,0.00,29.85,M,6.21,M,FEW,BKN,M,M,2600.00,25000.00,M,M,M,YBBN 050430Z 03012KT 9999 FEW026 BKN250 26/21 Q1011
YBBN,2015-11-05 05:00,153.1292,-27.3917,78.80,68.00,69.52,20.00,12.00,0.00,29.85,M,6.21,M,FEW,BKN,M,M,2600.00,25000.00,M,M,M,YBBN 050500Z 02012KT 9999 FEW026 BKN250 26/20 Q1011 NOSIG
YBBN,2015-11-05 05:30,153.1292,-27.3917,77.00,68.00,73.78,20.00,13.00,0.00,29.85,M,6.21,M,FEW,BKN,M,M,2600.00,25000.00,M,M,M,YBBN 050530Z 02013KT 9999 FEW026 BKN250 25/20 Q1011 RMK GENERATED FROM 11/05 /2015 05:28 MESSAGE
YBBN,2015-11-05 06:00,153.1292,-27.3917,78.80,68.00,69.52,20.00,11.00,0.00,29.85,M,6.21,M,FEW,BKN,M,M,2600.00,25000.00,M,M,M,YBBN 050600Z 02011KT 9999 FEW026 BKN250 26/20 Q1011
YBBN,2015-11-05 06:30,153.1292,-27.3917,78.80,68.00,69.52,30.00,12.00,0.00,29.85,M,6.21,M,FEW,SCT,BKN,M,2600.00,24000.00,25000.00,M,M,YBBN 050630Z 03012KT 9999 FEW026 SCT240 BKN250 26/20 Q1011
YBBN,2015-11-05 07:00,153.1292,-27.3917,75.20,68.00,78.34,30.00,11.00,0.00,29.85,M,6.21,M,FEW,BKN,M,M,2400.00,25000.00,M,M,M,YBBN 050700Z 03011KT 9999 FEW024 BKN250 24/20 Q1011
YBBN,2015-11-05 07:30,153.1292,-27.3917,75.20,66.20,73.61,50.00,7.00,0.00,29.88,M,6.21,M,FEW,BKN,BKN,M,2400.00,24000.00,26000.00,M,M,YBBN 050730Z 05007KT 9999 FEW024 BKN240 BKN260 24/19 Q1012
YBBN,2015-11-05 08:00,153.1292,-27.3917,75.20,66.20,73.61,60.00,7.00,0.00,29.88,M,6.21,M,FEW,SCT,BKN,M,2400.00,3500.00,25000.00,M,M,YBBN 050800Z 06007KT 9999 FEW024 SCT035 BKN250 24/19 Q1012
YBBN,2015-11-05 08:30,153.1292,-27.3917,75.20,66.20,73.61,70.00,6.00,0.00,29.91,M,6.21,M,FEW,BKN,BKN,M,2200.00,15000.00,24000.00,M,M,YBBN 050830Z 07006KT 9999 FEW022 BKN150 BKN240 24/19 Q1013
YBBN,2015-11-05 09:00,153.1292,-27.3917,75.20,66.20,73.61,80.00,6.00,0.00,29.94,M,6.21,M,FEW,SCT,BKN,M,2200.00,6500.00,15000.00,M,M,YBBN 050900Z 08006KT 9999 FEW022 SCT065 BKN150 24/19 Q1014
YBBN,2015-11-05 09:30,153.1292,-27.3917,75.20,66.20,73.61,90.00,6.00,0.00,29.94,M,6.21,M,SCT,SCT,BKN,M,1900.00,3500.00,15000.00,M,M,YBBN 050930Z 09006KT 9999 SCT019 SCT035 BKN150 24/19 Q1014 RMK DISTANT LIGHTING TO SW
YBBN,2015-11-05 10:00,153.1292,-27.3917,75.20,68.00,78.34,90.00,6.00,0.00,29.94,M,6.21,M,FEW,BKN,BKN,FEW,1500.00,1900.00,4000.00,2000.00,VCTS,YBBN 051000Z 09006KT 9999 VCTS FEW015 BKN019 BKN040 FEW020CB 24/20 Q1014 RMK VCTS TO SW
YBBN,2015-11-05 10:30,153.1292,-27.3917,75.20,68.00,78.34,100.00,5.00,0.00,29.97,M,6.21,M,FEW,BKN,FEW,M,1000.00,4000.00,2000.00,M,VCTS,YBBN 051030Z 10005KT 9999 VCTS FEW010 BKN040 FEW020CB 24/20 Q1015 RMK VCTS TO S AND SW
YBBN,2015-11-05 10:47,153.1292,-27.3917,75.20,68.00,78.34,100.00,4.00,0.00,29.97,M,6.21,M,FEW,SCT,BKN,FEW,1000.00,3500.00,9000.00,2000.00,-TSRA,YBBN 051047Z 10004KT 070V140 9999 -TSRA FEW010 SCT035 BKN090 FEW020CB 24/20 Q1015
YBBN,2015-11-05 11:00,153.1292,-27.3917,75.20,68.00,78.34,150.00,4.00,0.00,29.97,M,5.59,M,FEW,SCT,BKN,M,1000.00,2000.00,10000.00,M,-TSRA,YBBN 051100Z 15004KT 120V190 9000 -TSRA FEW010 SCT020CB BKN100 24/20 Q1015
YBBN,2015-11-05 11:30,153.1292,-27.3917,71.60,69.80,94.06,210.00,12.00,0.00,30.00,M,5.59,M,SCT,BKN,FEW,M,1900.00,7500.00,2000.00,M,-TSRA,YBBN 051130Z 21012KT 150V220 9000 -TSRA SCT019 BKN075 FEW020CB 22/21 Q1016
YBBN,2015-11-05 12:00,153.1292,-27.3917,69.80,69.80,100.00,240.00,13.00,0.00,30.00,M,6.21,M,FEW,BKN,BKN,FEW,1000.00,6000.00,12000.00,2000.00,-TSRA,YBBN 051200Z 24013KT 9999 -TSRA FEW010 BKN060 BKN120 FEW020CB 21/21 Q1016
YBBN,2015-11-05 12:30,153.1292,-27.3917,69.80,68.00,94.01,290.00,5.00,0.00,30.00,M,6.21,M,FEW,SCT,BKN,M,2000.00,4500.00,9000.00,M,-TSRA,YBBN 051230Z 29005KT 9999 -TSRA FEW020CB SCT045 BKN090 21/20 Q1016
YBBN,2015-11-05 13:00,153.1292,-27.3917,69.80,68.00,94.01,310.00,5.00,0.00,29.97,M,6.21,M,FEW,BKN,BKN,M,2000.00,6000.00,9000.00,M,-TSRA,YBBN 051300Z 31005KT 9999 -TSRA FEW020CB BKN060 BKN090 21/20 Q1015
YBBN,2015-11-05 13:30,153.1292,-27.3917,69.80,68.00,94.01,320.00,7.00,0.00,29.94,M,6.21,M,FEW,BKN,BKN,M,2000.00,6000.00,9000.00,M,-SHRA VCTS,YBBN 051330Z 32007KT 9999 -SHRA VCTS FEW020CB BKN060 BKN090 21/20 Q1014
YBBN,2015-11-05 14:00,153.1292,-27.3917,68.00,68.00,100.00,310.00,11.00,0.00,29.94,M,6.21,M,FEW,BKN,BKN,M,1500.00,5500.00,12000.00,M,-SHRA,YBBN 051400Z 31011KT 9999 -SHRA FEW015 BKN055 BKN120 20/20 Q1014
YBBN,2015-11-05 14:30,153.1292,-27.3917,69.80,68.00,94.01,310.00,10.00,0.00,29.91,M,6.21,M,FEW,BKN,BKN,M,1500.00,6000.00,12000.00,M,-SHRA,YBBN 051430Z 31010KT 9999 -SHRA FEW015 BKN060 BKN120 21/20 Q1013
YBBN,2015-11-05 15:00,153.1292,-27.3917,69.80,68.00,94.01,320.00,12.00,0.00,29.88,M,6.21,M,SCT,OVC,M,M,6700.00,12000.00,M,M,-RA,YBBN 051500Z AUTO 32012KT 9999 -RA SCT067 OVC120 21/20 Q1012 RERA
YBBN,2015-11-05 15:30,153.1292,-27.3917,68.00,66.20,93.97,310.00,14.00,0.00,29.88,M,6.21,M,FEW,BKN,M,M,1500.00,10000.00,M,M,-SHRA,YBBN 051530Z 31014KT 9999 -SHRA FEW015 BKN100 20/19 Q1012
YBBN,2015-11-05 16:00,153.1292,-27.3917,68.00,64.40,88.26,310.00,13.00,0.00,29.83,M,6.21,M,FEW,SCT,BKN,M,1500.00,5000.00,10000.00,M,-SHRA,YBBN 051600Z 31013KT 9999 -SHRA FEW015 SCT050 BKN100 20/18 Q1010
YBBN,2015-11-05 16:30,153.1292,-27.3917,68.00,64.40,88.26,270.00,14.00,0.00,29.80,M,6.21,M,FEW,BKN,BKN,M,800.00,10000.00,19000.00,M,-RA,YBBN 051630Z 27014KT 260V330 9999 -RA FEW008 BKN100 BKN190 20/18 Q1009
YBBN,2015-11-05 17:00,153.1292,-27.3917,68.00,64.40,88.26,310.00,9.00,0.00,29.77,M,6.21,M,M,M,M,M,M,M,M,M,// //////,YBBN 051700Z AUTO 31009KT 9999 // ////// 20/18 Q1008
YBBN,2015-11-05 17:30,153.1292,-27.3917,M,M,M,280.00,8.00,0.00,M,M,6.21,M,M,M,M,M,M,M,M,M,// ////// /////,YBBN 051730Z AUTO 28008KT 9999 // ////// ///// Q////
YBBN,2015-11-05 18:00,153.1292,-27.3917,68.00,64.40,88.26,350.00,5.00,0.00,29.83,M,6.21,M,M,M,M,M,M,M,M,M,M,YBBN 051800Z 35005KT 310V020 CAVOK 20/18 Q1010 RMK 3AC120 7AS150
YBBN,2015-11-05 18:30,153.1292,-27.3917,68.00,64.40,88.26,150.00,6.00,0.00,29.83,M,6.21,M,FEW,SCT,BKN,M,2000.00,12000.00,18000.00,M,M,YBBN 051830Z 15006KT 130V190 9999 FEW020 SCT120 BKN180 20/18 Q1010
YBBN,2015-11-05 19:00,153.1292,-27.3917,68.00,64.40,88.26,140.00,7.00,0.00,29.85,M,6.21,M,NCD,M,M,M,M,M,M,M,//,YBBN 051900Z AUTO 14007KT 9999 // NCD 20/18 Q1011
YBBN,2015-11-05 19:30,153.1292,-27.3917,68.00,64.40,88.26,150.00,6.00,0.00,29.85,M,6.21,M,M,M,M,M,M,M,M,M,// //////,YBBN 051930Z AUTO 15006KT 9999 // ////// 20/18 Q1011
YBBN,2015-11-05 20:00,153.1292,-27.3917,69.80,64.40,82.98,140.00,5.00,0.00,29.88,M,6.21,M,FEW,SCT,BKN,M,500.00,13000.00,20000.00,M,M,YBBN 052000Z 14005KT 9999 FEW005 SCT130 BKN200 21/18 Q1012
YBBN,2015-11-05 21:00,153.1292,-27.3917,69.80,64.40,82.98,190.00,5.00,0.00,29.91,M,6.21,M,FEW,SCT,BKN,M,500.00,13000.00,20000.00,M,M,YBBN 052100Z 19005KT 9999 FEW005 SCT130 BKN200 21/18 Q1013
YBBN,2015-11-05 21:30,153.1292,-27.3917,71.60,66.20,83.09,180.00,4.00,0.00,29.91,M,6.21,M,FEW,SCT,BKN,M,500.00,14000.00,20000.00,M,M,YBBN 052130Z 18004KT 9999 FEW005 SCT140 BKN200 22/19 Q1013
YBBN,2015-11-05 22:00,153.1292,-27.3917,73.40,66.20,78.19,80.00,5.00,0.00,29.91,M,6.21,M,FEW,SCT,BKN,M,2000.00,14000.00,20000.00,M,M,YBBN 052200Z 08005KT 9999 FEW020 SCT140 BKN200 23/19 Q1013
YBBN,2015-11-05 22:30,153.1292,-27.3917,75.20,66.20,73.61,30.00,6.00,0.00,29.91,M,6.21,M,FEW,SCT,BKN,M,2500.00,14000.00,26000.00,M,M,YBBN 052230Z 03006KT 9999 FEW025 SCT140 BKN260 24/19 Q1013
YBBN,2015-11-05 23:00,153.1292,-27.3917,77.00,66.20,69.33,20.00,6.00,0.00,29.91,M,6.21,M,M,M,M,M,M,M,M,M,M,YBBN 052300Z 02006KT CAVOK 25/19 Q1013 NOSIG
YBBN,2015-11-05 23:30,153.1292,-27.3917,77.00,66.20,69.33,20.00,3.00,0.00,29.91,M,6.21,M,M,M,M,M,M,M,M,M,M,YBBN 052330Z 02003KT CAVOK 25/19 Q1013
