#DEBUG: Format Typ    -> comma
#DEBUG: Time Period   -> 2016-02-21 00:00:00+00:00 2016-02-22 00:00:00+00:00
#DEBUG: Time Zone     -> Etc/UTC
#DEBUG: Data Contact   -> daryl herzmann akrherz@iastate.edu 515-294-5978
#DEBUG: Entries Found -> -1
station,valid,lon,lat,tmpf, dwpf, relh, drct, sknt, p01i, alti, mslp, vsby, gust, skyc1, skyc2, skyc3, skyc4, skyl1, skyl2, skyl3, skyl4, presentwx, metar
YBBN,2016-02-21 00:00,153.1292,-27.3917,84.20,66.20,54.80,110.00,12.00,0.00,30.12,M,6.21,M,FEW,M,M,M,4000.00,M,M,M,M,YBBN 210000Z 11012KT 9999 FEW040 29/19 Q1020 NOSIG
YBBN,2016-02-21 00:30,153.1292,-27.3917,84.20,66.20,54.80,110.00,13.00,0.00,30.12,M,6.21,M,FEW,M,M,M,4000.00,M,M,M,M,YBBN 210030Z 11013KT 9999 FEW040 29/19 Q1020 NOSIG
YBBN,2016-02-21 01:00,153.1292,-27.3917,84.20,62.60,48.32,120.00,13.00,0.00,30.12,M,6.21,M,FEW,M,M,M,4400.00,M,M,M,M,YBBN 210100Z 12013KT 9999 FEW044 29/17 Q1020
YBBN,2016-02-21 01:30,153.1292,-27.3917,84.20,64.40,51.47,130.00,12.00,0.00,30.12,M,6.21,M,FEW,M,M,M,4600.00,M,M,M,M,YBBN 210130Z 13012KT 9999 FEW046 29/18 Q1020 NOSIG
YBBN,2016-02-21 02:00,153.1292,-27.3917,84.20,64.40,51.47,120.00,11.00,0.00,30.12,M,6.21,M,FEW,M,M,M,4200.00,M,M,M,M,YBBN 210200Z 12011KT 9999 FEW042 29/18 Q1020 NOSIG
YBBN,2016-02-21 02:30,153.1292,-27.3917,84.20,64.40,51.47,120.00,13.00,0.00,30.12,M,6.21,M,FEW,M,M,M,4500.00,M,M,M,M,YBBN 210230Z 12013KT 9999 FEW045 29/18 Q1020 NOSIG
YBBN,2016-02-21 03:00,153.1292,-27.3917,84.20,64.40,51.47,110.00,13.00,0.00,30.12,M,6.21,M,FEW,M,M,M,4400.00,M,M,M,M,YBBN 210300Z 11013KT 9999 FEW044 29/18 Q1020 NOSIG
YBBN,2016-02-21 03:30,153.1292,-27.3917,84.20,64.40,51.47,120.00,14.00,0.00,30.09,M,6.21,M,FEW,M,M,M,4400.00,M,M,M,M,YBBN 210330Z 12014KT 9999 FEW044 29/18 Q1019 NOSIG
YBBN,2016-02-21 04:00,153.1292,-27.3917,82.40,64.40,54.55,120.00,13.00,0.00,30.09,M,6.21,23.00,FEW,M,M,M,3900.00,M,M,M,M,YBBN 210400Z 12013G23KT 9999 FEW039 28/18 Q1019 NOSIG
YBBN,2016-02-21 04:30,153.1292,-27.3917,84.20,66.20,54.80,110.00,14.00,0.00,30.09,M,6.21,M,FEW,M,M,M,3800.00,M,M,M,M,YBBN 210430Z 11014KT 9999 FEW038 29/19 Q1019 NOSIG
YBBN,2016-02-21 05:00,153.1292,-27.3917,82.40,62.60,51.21,120.00,13.00,0.00,30.09,M,6.21,M,FEW,M,M,M,3800.00,M,M,M,M,YBBN 210500Z 12013KT 9999 FEW038 28/17 Q1019 NOSIG
YBBN,2016-02-21 05:30,153.1292,-27.3917,82.40,66.20,58.08,130.00,13.00,0.00,30.09,M,6.21,M,FEW,M,M,M,3800.00,M,M,M,M,YBBN 210530Z 13013KT 9999 FEW038 28/19 Q1019 NOSIG
YBBN,2016-02-21 06:00,153.1292,-27.3917,80.60,64.40,57.84,120.00,14.00,0.00,30.09,M,6.21,M,FEW,M,M,M,3700.00,M,M,M,M,YBBN 210600Z 12014KT 9999 FEW037 27/18 Q1019 NOSIG
YBBN,2016-02-21 06:30,153.1292,-27.3917,80.60,64.40,57.84,120.00,13.00,0.00,30.09,M,6.21,M,FEW,M,M,M,3700.00,M,M,M,M,YBBN 210630Z 12013KT 9999 FEW037 27/18 Q1019
YBBN,2016-02-21 07:00,153.1292,-27.3917,80.60,64.40,57.84,140.00,11.00,0.00,30.09,M,6.21,M,FEW,M,M,M,3500.00,M,M,M,M,YBBN 210700Z 14011KT 9999 FEW035 27/18 Q1019 NOSIG
YBBN,2016-02-21 07:30,153.1292,-27.3917,80.60,64.40,57.84,140.00,11.00,0.00,30.12,M,6.21,M,FEW,M,M,M,3500.00,M,M,M,M,YBBN 210730Z 14011KT 9999 FEW035 27/18 Q1020 NOSIG
YBBN,2016-02-21 08:00,153.1292,-27.3917,80.60,64.40,57.84,140.00,11.00,0.00,30.12,M,6.21,M,FEW,M,M,M,3000.00,M,M,M,M,YBBN 210800Z 14011KT 9999 FEW030 27/18 Q1020 NOSIG
YBBN,2016-02-21 08:30,153.1292,-27.3917,78.80,66.20,65.33,140.00,9.00,0.00,30.12,M,6.21,M,SCT,M,M,M,3000.00,M,M,M,M,YBBN 210830Z 14009KT 9999 SCT030 26/19 Q1020 NOSIG
YBBN,2016-02-21 09:00,153.1292,-27.3917,78.80,64.40,61.36,140.00,12.00,0.00,30.15,M,6.21,M,SCT,M,M,M,2700.00,M,M,M,M,YBBN 210900Z 14012KT 9999 SCT027 26/18 Q1021 NOSIG
YBBN,2016-02-21 09:30,153.1292,-27.3917,78.80,66.20,65.33,140.00,10.00,0.00,30.15,M,6.21,M,FEW,M,M,M,2700.00,M,M,M,M,YBBN 210930Z 14010KT 9999 FEW027 26/19 Q1021 NOSIG
YBBN,2016-02-21 10:00,153.1292,-27.3917,77.00,66.20,69.33,140.00,10.00,0.00,30.15,M,6.21,M,FEW,M,M,M,2700.00,M,M,M,M,YBBN 211000Z 14010KT 9999 FEW027 25/19 Q1021 NOSIG
YBBN,2016-02-21 10:30,153.1292,-27.3917,77.00,66.20,69.33,160.00,7.00,0.00,30.18,M,6.21,M,SCT,M,M,M,2700.00,M,M,M,M,YBBN 211030Z 16007KT 9999 SCT027 25/19 Q1022 NOSIG
YBBN,2016-02-21 11:00,153.1292,-27.3917,77.00,66.20,69.33,170.00,7.00,0.00,30.18,M,6.21,M,SCT,M,M,M,2700.00,M,M,M,M,YBBN 211100Z 17007KT 9999 SCT027 25/19 Q1022 NOSIG
YBBN,2016-02-21 11:30,153.1292,-27.3917,77.00,66.20,69.33,180.00,7.00,0.00,30.18,M,6.21,M,SCT,SCT,M,M,2700.00,5500.00,M,M,M,YBBN 211130Z 18007KT 9999 SCT027 SCT055 25/19 Q1022 NOSIG
YBBN,2016-02-21 12:00,153.1292,-27.3917,77.00,66.20,69.33,190.00,6.00,0.00,30.18,M,6.21,M,SCT,SCT,M,M,2500.00,5500.00,M,M,-SHRA,YBBN 211200Z 19006KT 9999 -SHRA SCT025 SCT055 25/19 Q1022
YBBN,2016-02-21 12:30,153.1292,-27.3917,77.00,66.20,69.33,170.00,6.00,0.00,30.18,M,6.21,M,BKN,M,M,M,2400.00,M,M,M,-SHRA,YBBN 211230Z 17006KT 9999 -SHRA BKN024 25/19 Q1022 NOSIG
YBBN,2016-02-21 13:00,153.1292,-27.3917,75.20,66.20,73.61,180.00,7.00,0.00,30.18,M,6.21,M,SCT,SCT,M,M,2200.00,5500.00,M,M,M,YBBN 211300Z 18007KT 9999 SCT022 SCT055 24/19 Q1022
YBBN,2016-02-21 13:30,153.1292,-27.3917,75.20,68.00,78.34,190.00,7.00,0.00,30.18,M,6.21,M,FEW,SCT,M,M,2100.00,6000.00,M,M,M,YBBN 211330Z 19007KT 9999 FEW021 SCT060 24/20 Q1022 NOSIG
YBBN,2016-02-21 14:00,153.1292,-27.3917,75.20,68.00,78.34,190.00,7.00,0.00,30.15,M,6.21,M,BKN,SCT,M,M,2100.00,6000.00,M,M,M,YBBN 211400Z 19007KT 9999 BKN021 SCT060 24/20 Q1021
YBBN,2016-02-21 14:30,153.1292,-27.3917,73.40,69.80,88.51,190.00,6.00,0.00,30.15,M,6.21,M,BKN,SCT,M,M,2000.00,6000.00,M,M,SHRA,YBBN 211430Z 19006KT 9999 4500NW SHRA BKN020 SCT060 23/21 Q1021
YBBN,2016-02-21 14:49,153.1292,-27.3917,73.40,69.80,88.51,170.00,5.00,0.00,30.15,M,6.21,M,SCT,SCT,M,M,1700.00,6000.00,M,M,M,YBBN 211449Z 17005KT 9999 SCT017 SCT060 23/21 Q1021
YBBN,2016-02-21 15:00,153.1292,-27.3917,73.40,69.80,88.51,190.00,5.00,0.00,30.15,M,6.21,M,SCT,M,M,M,1700.00,M,M,M,M,YBBN 211500Z 19005KT 9999 SCT017 23/21 Q1021
YBBN,2016-02-21 15:30,153.1292,-27.3917,73.40,69.80,88.51,190.00,5.00,0.00,30.15,M,6.21,M,SCT,M,M,M,1800.00,M,M,M,M,YBBN 211530Z 19005KT 9999 SCT018 23/21 Q1021 NOSIG
YBBN,2016-02-21 16:00,153.1292,-27.3917,73.40,69.80,88.51,190.00,7.00,0.00,30.12,M,6.21,M,SCT,M,M,M,1900.00,M,M,M,M,YBBN 211600Z 19007KT 9999 SCT019 23/21 Q1020
YBBN,2016-02-21 16:30,153.1292,-27.3917,73.40,69.80,88.51,180.00,7.00,0.00,30.12,M,6.21,M,SCT,M,M,M,2000.00,M,M,M,M,YBBN 211630Z 18007KT 9999 SCT020 23/21 Q1020 NOSIG
YBBN,2016-02-21 17:00,153.1292,-27.3917,73.40,69.80,88.51,190.00,7.00,0.00,30.12,M,6.21,M,SCT,M,M,M,2000.00,M,M,M,VCSH,YBBN 211700Z 19007KT 9999 VCSH SCT020 23/21 Q1020
YBBN,2016-02-21 17:30,153.1292,-27.3917,73.40,68.00,83.21,180.00,7.00,0.00,30.12,M,6.21,M,FEW,M,M,M,2000.00,M,M,M,M,YBBN 211730Z 18007KT 9999 FEW020 23/20 Q1020 NOSIG
YBBN,2016-02-21 18:00,153.1292,-27.3917,73.40,68.00,83.21,180.00,6.00,0.00,30.12,M,6.21,M,FEW,M,M,M,2000.00,M,M,M,M,YBBN 211800Z 18006KT 9999 FEW020 23/20 Q1020 NOSIG
YBBN,2016-02-21 18:30,153.1292,-27.3917,73.40,68.00,83.21,190.00,6.00,0.00,30.12,M,6.21,M,FEW,M,M,M,2000.00,M,M,M,M,YBBN 211830Z 19006KT 9999 FEW020 23/20 Q1020 NOSIG
YBBN,2016-02-21 19:00,153.1292,-27.3917,71.60,68.00,88.43,190.00,6.00,0.00,30.12,M,6.21,M,FEW,M,M,M,2000.00,M,M,M,M,YBBN 211900Z 19006KT 9999 FEW020 22/20 Q1020 NOSIG
YBBN,2016-02-21 19:30,153.1292,-27.3917,71.60,68.00,88.43,190.00,7.00,0.00,30.15,M,6.21,M,FEW,M,M,M,2000.00,M,M,M,M,YBBN 211930Z 19007KT 9999 FEW020 22/20 Q1021 NOSIG
YBBN,2016-02-21 20:00,153.1292,-27.3917,71.60,68.00,88.43,190.00,6.00,0.00,30.15,M,6.21,M,FEW,M,M,M,2000.00,M,M,M,M,YBBN 212000Z 19006KT 9999 FEW020 22/20 Q1021 NOSIG
YBBN,2016-02-21 20:30,153.1292,-27.3917,73.40,68.00,83.21,190.00,7.00,0.00,30.15,M,6.21,M,FEW,M,M,M,1600.00,M,M,M,M,YBBN 212030Z 19007KT 9999 FEW016 23/20 Q1021 NOSIG
YBBN,2016-02-21 21:00,153.1292,-27.3917,75.20,68.00,78.34,190.00,7.00,0.00,30.15,M,6.21,M,FEW,M,M,M,1800.00,M,M,M,M,YBBN 212100Z 19007KT 9999 FEW018 24/20 Q1021 NOSIG
YBBN,2016-02-21 21:30,153.1292,-27.3917,77.00,68.00,73.78,170.00,7.00,0.00,30.18,M,6.21,M,FEW,M,M,M,2000.00,M,M,M,M,YBBN 212130Z 17007KT 9999 FEW020 25/20 Q1022 NOSIG
YBBN,2016-02-21 22:00,153.1292,-27.3917,77.00,66.20,69.33,150.00,8.00,0.00,30.18,M,6.21,M,FEW,SCT,M,M,3000.00,4500.00,M,M,M,YBBN 212200Z 15008KT 9999 FEW030 SCT045 25/19 Q1022
YBBN,2016-02-21 23:00,153.1292,-27.3917,80.60,64.40,57.84,130.00,11.00,0.00,30.18,M,6.21,M,FEW,SCT,M,M,3500.00,4500.00,M,M,M,YBBN 212300Z 13011KT 9999 FEW035 SCT045 27/18 Q1022
YBBN,2016-02-21 23:30,153.1292,-27.3917,82.40,64.40,54.55,130.00,11.00,0.00,30.18,M,6.21,M,FEW,SCT,M,M,3500.00,4200.00,M,M,M,YBBN 212330Z 13011KT 9999 FEW035 SCT042 28/18 Q1022
