#DEBUG: Format Typ    -> comma
#DEBUG: Time Period   -> 2014-01-22 00:00:00+00:00 2014-01-23 00:00:00+00:00
#DEBUG: Time Zone     -> Etc/UTC
#DEBUG: Data Contact   -> daryl herzmann akrherz@iastate.edu 515-294-5978
#DEBUG: Entries Found -> -1
station,valid,lon,lat,tmpf, dwpf, relh, drct, sknt, p01i, alti, mslp, vsby, gust, skyc1, skyc2, skyc3, skyc4, skyl1, skyl2, skyl3, skyl4, presentwx, metar
YBBN,2014-01-22 00:00,153.1292,-27.3917,86.00,71.60,62.25,10.00,7.00,0.00,29.85,M,6.21,M,M,M,M,M,M,M,M,M,M,YBBN 220000Z 01007KT CAVOK 30/22 Q1011 NOSIG
YBBN,2014-01-22 00:30,153.1292,-27.3917,86.00,71.60,62.25,30.00,10.00,0.00,29.85,M,6.21,M,FEW,M,M,M,3800.00,M,M,M,M,YBBN 220030Z 03010KT 9999 FEW038 30/22 Q1011
YBBN,2014-01-22 01:00,153.1292,-27.3917,86.00,71.60,62.25,30.00,10.00,0.00,29.85,M,6.21,M,FEW,M,M,M,3800.00,M,M,M,M,YBBN 220100Z 03010KT 9999 FEW038 30/22 Q1011 NOSIG
YBBN,2014-01-22 01:30,153.1292,-27.3917,86.00,73.40,66.15,30.00,12.00,0.00,29.85,M,6.21,M,FEW,M,M,M,3800.00,M,M,M,M,YBBN 220130Z 03012KT 9999 FEW038 30/23 Q1011
YBBN,2014-01-22 02:00,153.1292,-27.3917,86.00,73.40,66.15,50.00,11.00,0.00,29.85,M,6.21,M,FEW,M,M,M,3500.00,M,M,M,M,YBBN 220200Z 05011KT 9999 FEW035 30/23 Q1011 NOSIG
YBBN,2014-01-22 02:30,153.1292,-27.3917,87.80,71.60,58.78,50.00,11.00,0.00,29.85,M,6.21,M,FEW,M,M,M,3800.00,M,M,M,M,YBBN 220230Z 05011KT 9999 FEW038 31/22 Q1011
YBBN,2014-01-22 03:00,153.1292,-27.3917,86.00,71.60,62.25,70.00,9.00,0.00,29.85,M,6.21,M,FEW,M,M,M,3800.00,M,M,M,M,YBBN 220300Z 07009KT 9999 FEW038 30/22 Q1011 NOSIG
YBBN,2014-01-22 03:30,153.1292,-27.3917,86.00,71.60,62.25,70.00,11.00,0.00,29.85,M,6.21,M,FEW,M,M,M,4000.00,M,M,M,M,YBBN 220330Z 07011KT 9999 FEW040 30/22 Q1011 RMK CB TOP TO NW
YBBN,2014-01-22 04:00,153.1292,-27.3917,87.80,73.40,62.47,70.00,13.00,0.00,29.85,M,6.21,M,FEW,M,M,M,3800.00,M,M,M,M,YBBN 220400Z 07013KT 9999 FEW038 31/23 Q1011
YBBN,2014-01-22 04:30,153.1292,-27.3917,86.00,73.40,66.15,70.00,11.00,0.00,29.85,M,6.21,M,FEW,M,M,M,3500.00,M,M,M,M,YBBN 220430Z 07011KT 9999 FEW035 30/23 Q1011 RMK CB TOPS TO NW AND SW
YBBN,2014-01-22 05:00,153.1292,-27.3917,87.80,73.40,62.47,90.00,11.00,0.00,29.85,M,6.21,M,FEW,M,M,M,3800.00,M,M,M,M,YBBN 220500Z 09011KT 9999 FEW038 31/23 Q1011 INTER 0700/0800 3000 SHRA BKN012
YBBN,2014-01-22 05:30,153.1292,-27.3917,86.00,73.40,66.15,60.00,12.00,0.00,29.85,M,6.21,M,FEW,SCT,M,M,4000.00,32000.00,M,M,M,YBBN 220530Z 06012KT 9999 FEW040 SCT320 30/23 Q1011 RMK CB TOPS TO NW AND SW
YBBN,2014-01-22 06:00,153.1292,-27.3917,86.00,73.40,66.15,70.00,11.00,0.00,29.85,M,6.21,M,FEW,SCT,M,M,2200.00,26000.00,M,M,M,YBBN 220600Z 07011KT 9999 FEW022 SCT260 30/23 Q1011
YBBN,2014-01-22 06:30,153.1292,-27.3917,84.20,73.40,70.08,70.00,9.00,0.00,29.85,M,6.21,M,FEW,SCT,M,M,2500.00,26000.00,M,M,M,YBBN 220630Z 07009KT 9999 FEW025 SCT260 29/23 Q1011
YBBN,2014-01-22 07:00,153.1292,-27.3917,84.20,71.60,65.95,100.00,11.00,0.00,29.85,M,6.21,M,FEW,SCT,M,M,2300.00,20000.00,M,M,M,YBBN 220700Z 10011KT 9999 FEW023 SCT200 29/22 Q1011 INTER 0730/1000 3000 SHRA BKN012
YBBN,2014-01-22 07:30,153.1292,-27.3917,82.40,71.60,69.90,100.00,8.00,0.00,29.88,M,6.21,M,FEW,BKN,M,M,2300.00,26000.00,M,M,M,YBBN 220730Z 10008KT 9999 FEW023 BKN260 28/22 Q1012
YBBN,2014-01-22 08:00,153.1292,-27.3917,82.40,71.60,69.90,70.00,7.00,0.00,29.91,M,6.21,M,FEW,SCT,BKN,M,2100.00,20000.00,26000.00,M,M,YBBN 220800Z 07007KT 9999 FEW021 SCT200 BKN260 28/22 Q1013 INTER 0900/1100 3000 SHRA BKN012
YBBN,2014-01-22 08:30,153.1292,-27.3917,82.40,71.60,69.90,100.00,10.00,0.00,29.94,M,6.21,M,FEW,BKN,BKN,M,2100.00,6200.00,19000.00,M,M,YBBN 220830Z 10010KT 9999 FEW021 BKN062 BKN190 28/22 Q1014
YBBN,2014-01-22 09:00,153.1292,-27.3917,78.80,73.40,83.55,130.00,11.00,0.00,29.97,M,6.21,M,FEW,SCT,BKN,FEW,1400.00,2300.00,19000.00,2500.00,TS,YBBN 220900Z 13011KT 9999 TS FEW014 SCT023 BKN190 FEW025CB 26/23 Q1015
YBBN,2014-01-22 09:30,153.1292,-27.3917,78.80,71.60,78.62,130.00,10.00,0.00,29.97,M,4.97,M,FEW,SCT,BKN,M,1100.00,3200.00,9500.00,M,-TSRA,YBBN 220930Z 13010KT 8000 -TSRA FEW011 SCT032CB BKN095 26/22 Q1015
YBBN,2014-01-22 10:00,153.1292,-27.3917,77.00,71.60,83.44,140.00,9.00,0.00,30.00,M,3.73,M,FEW,SCT,BKN,M,1100.00,7000.00,9500.00,M,-TSRA,YBBN 221000Z 14009KT 6000 -TSRA FEW011 SCT070 BKN095 25/22 Q1016
YBBN,2014-01-22 10:30,153.1292,-27.3917,77.00,73.40,88.67,120.00,6.00,0.00,30.00,M,4.97,M,FEW,BKN,BKN,FEW,1300.00,8200.00,11000.00,3500.00,-TSRA,YBBN 221030Z 12006KT 8000 -TSRA FEW013 BKN082 BKN110 FEW035CB 25/23 Q1016
YBBN,2014-01-22 11:00,153.1292,-27.3917,77.00,73.40,88.67,90.00,7.00,0.00,30.00,M,5.59,M,FEW,SCT,BKN,M,1400.00,7000.00,14000.00,M,-RA,YBBN 221100Z 09007KT 9000 -RA FEW014 SCT070 BKN140 25/23 Q1016 RETS FM1100 13012KT 9999 -SHRA SCT030 SCT045 INTER 1100/1130 3000 TSRA BKN020 SCT050CB
YBBN,2014-01-22 11:30,153.1292,-27.3917,77.00,71.60,83.44,140.00,7.00,0.00,30.00,M,6.21,M,BKN,M,M,M,2800.00,M,M,M,M,YBBN 221130Z 14007KT 9999 BKN028 25/22 Q1016
YBBN,2014-01-22 12:00,153.1292,-27.3917,77.00,71.60,83.44,130.00,8.00,0.00,30.00,M,6.21,M,FEW,SCT,M,M,2800.00,3600.00,M,M,M,YBBN 221200Z 13008KT 9999 FEW028 SCT036 25/22 Q1016 NOSIG
YBBN,2014-01-22 12:30,153.1292,-27.3917,77.00,71.60,83.44,140.00,9.00,0.00,29.97,M,6.21,M,FEW,BKN,M,M,4200.00,19000.00,M,M,M,YBBN 221230Z 14009KT 9999 FEW042 BKN190 25/22 Q1015
YBBN,2014-01-22 13:00,153.1292,-27.3917,77.00,71.60,83.44,140.00,9.00,0.00,29.97,M,6.21,M,FEW,SCT,M,M,4500.00,19000.00,M,M,M,YBBN 221300Z 14009KT 9999 FEW045 SCT190 25/22 Q1015 NOSIG
YBBN,2014-01-22 13:30,153.1292,-27.3917,77.00,71.60,83.44,140.00,8.00,0.00,29.97,M,6.21,M,M,M,M,M,M,M,M,M,M,YBBN 221330Z 14008KT CAVOK 25/22 Q1015
YBBN,2014-01-22 14:00,153.1292,-27.3917,77.00,71.60,83.44,150.00,9.00,0.00,29.97,M,6.21,M,M,M,M,M,M,M,M,M,M,YBBN 221400Z 15009KT CAVOK 25/22 Q1015
YBBN,2014-01-22 14:30,153.1292,-27.3917,77.00,71.60,83.44,150.00,9.00,0.00,29.97,M,6.21,M,M,M,M,M,M,M,M,M,M,YBBN 221430Z 15009KT CAVOK 25/22 Q1015 RMK 6SC054
YBBN,2014-01-22 15:00,153.1292,-27.3917,77.00,71.60,83.44,150.00,7.00,0.00,29.97,M,6.21,M,M,M,M,M,M,M,M,M,M,YBBN 221500Z 15007KT CAVOK 25/22 Q1015 NOSIG
YBBN,2014-01-22 15:30,153.1292,-27.3917,77.00,71.60,83.44,140.00,8.00,0.00,29.97,M,6.21,M,M,M,M,M,M,M,M,M,M,YBBN 221530Z 14008KT CAVOK 25/22 Q1015 RMK 6SC057
YBBN,2014-01-22 16:00,153.1292,-27.3917,77.00,71.60,83.44,160.00,6.00,0.00,29.94,M,6.21,M,FEW,SCT,M,M,4500.00,5700.00,M,M,M,YBBN 221600Z 16006KT 9999 FEW045 SCT057 25/22 Q1014 NOSIG
YBBN,2014-01-22 16:30,153.1292,-27.3917,75.20,71.60,88.59,160.00,8.00,0.00,29.94,M,6.21,M,SCT,M,M,M,4500.00,M,M,M,M,YBBN 221630Z 16008KT 9999 SCT045 24/22 Q1014
YBBN,2014-01-22 17:00,153.1292,-27.3917,75.20,71.60,88.59,150.00,5.00,0.00,29.94,M,6.21,M,FEW,SCT,M,M,1800.00,4500.00,M,M,M,YBBN 221700Z 15005KT 9999 FEW018 SCT045 24/22 Q1014 NOSIG
YBBN,2014-01-22 17:30,153.1292,-27.3917,75.20,71.60,88.59,160.00,7.00,0.00,29.94,M,6.21,M,FEW,M,M,M,1400.00,M,M,M,M,YBBN 221730Z 16007KT 9999 FEW014 24/22 Q1014
YBBN,2014-01-22 18:00,153.1292,-27.3917,75.20,71.60,88.59,150.00,7.00,0.00,29.94,M,6.21,M,FEW,SCT,M,M,1400.00,4200.00,M,M,M,YBBN 221800Z 15007KT 9999 FEW014 SCT042 24/22 Q1014 INTER 2000/2100 3000 SHRA BKN010
YBBN,2014-01-22 18:30,153.1292,-27.3917,75.20,71.60,88.59,170.00,7.00,0.00,29.97,M,6.21,M,SCT,M,M,M,1600.00,M,M,M,M,YBBN 221830Z 17007KT 9999 SCT016 24/22 Q1015
YBBN,2014-01-22 19:00,153.1292,-27.3917,77.00,71.60,83.44,170.00,8.00,0.00,29.97,M,6.21,M,BKN,BKN,M,M,1600.00,2400.00,M,M,VCSH,YBBN 221900Z 17008KT 9999 VCSH BKN016 BKN024 25/22 Q1015
YBBN,2014-01-22 19:30,153.1292,-27.3917,77.00,71.60,83.44,170.00,8.00,0.00,29.97,M,6.21,M,SCT,BKN,M,M,1600.00,3700.00,M,M,VCSH,YBBN 221930Z 17008KT 9999 VCSH SCT016 BKN037 25/22 Q1015
YBBN,2014-01-22 20:00,153.1292,-27.3917,77.00,71.60,83.44,150.00,6.00,0.00,29.97,M,6.21,M,SCT,BKN,M,M,1400.00,2800.00,M,M,VCSH,YBBN 222000Z 15006KT 9999 VCSH SCT014 BKN028 25/22 Q1015 FM2000 16008KT 9999 -SHRA SCT016 BKN020 INTER 2000/2300 3000 SHRA BKN010
YBBN,2014-01-22 20:30,153.1292,-27.3917,77.00,71.60,83.44,150.00,7.00,0.00,30.00,M,6.21,M,SCT,BKN,M,M,1400.00,2000.00,M,M,M,YBBN 222030Z 15007KT 9999 SCT014 BKN020 25/22 Q1016
YBBN,2014-01-22 21:00,153.1292,-27.3917,78.80,73.40,83.55,40.00,5.00,0.00,30.00,M,6.21,M,FEW,BKN,BKN,M,900.00,1600.00,3500.00,M,VCSH,YBBN 222100Z 04005KT 9999 VCSH FEW009 BKN016 BKN035 26/23 Q1016 FM2100 07007KT 9999 -SHRA SCT016 BKN020 INTER 2100/0001 3000 SHRA BKN010
YBBN,2014-01-22 21:30,153.1292,-27.3917,78.80,71.60,78.62,10.00,5.00,0.00,30.00,M,6.21,M,FEW,BKN,BKN,M,1100.00,1900.00,3500.00,M,VCSH,YBBN 222130Z 01005KT 9999 VCSH FEW011 BKN019 BKN035 26/22 Q1016
YBBN,2014-01-22 22:00,153.1292,-27.3917,80.60,73.40,78.76,30.00,5.00,0.00,30.00,M,6.21,M,FEW,SCT,BKN,M,1600.00,2200.00,3700.00,M,M,YBBN 222200Z 03005KT 9999 FEW016 SCT022 BKN037 27/23 Q1016
YBBN,2014-01-22 22:30,153.1292,-27.3917,80.60,73.40,78.76,30.00,6.00,0.00,30.00,M,6.21,M,FEW,SCT,BKN,M,1600.00,2200.00,3700.00,M,M,YBBN 222230Z 03006KT 9999 FEW016 SCT022 BKN037 27/23 Q1016
YBBN,2014-01-22 23:00,153.1292,-27.3917,80.60,69.80,69.71,10.00,8.00,0.00,30.00,M,6.21,M,FEW,SCT,M,M,1900.00,5900.00,M,M,M,YBBN 222300Z 01008KT 9999 FEW019 SCT059 27/21 Q1016
YBBN,2014-01-22 23:30,153.1292,-27.3917,82.40,69.80,65.74,360.00,6.00,0.00,30.00,M,6.21,M,FEW,SCT,M,M,2200.00,5900.00,M,M,M,YBBN 222330Z 36006KT 9999 FEW022 SCT059 28/21 Q1016
