#DEBUG: Format Typ    -> comma
#DEBUG: Time Period   -> 2015-04-01 00:00:00+00:00 2015-04-02 00:00:00+00:00
#DEBUG: Time Zone     -> Etc/UTC
#DEBUG: Data Contact   -> daryl herzmann akrherz@iastate.edu 515-294-5978
#DEBUG: Entries Found -> -1
station,valid,lon,lat,tmpf, dwpf, relh, drct, sknt, p01i, alti, mslp, vsby, gust, skyc1, skyc2, skyc3, skyc4, skyl1, skyl2, skyl3, skyl4, presentwx, metar
YBBN,2015-04-01 00:00,153.1292,-27.3917,68.00,66.20,93.97,210.00,9.00,0.00,30.18,M,6.21,M,FEW,BKN,BKN,M,1000.00,6800.00,8300.00,M,-RA,YBBN 010000Z 21009KT 9999 -RA FEW010 BKN068 BKN083 20/19 Q1022
YBBN,2015-04-01 00:30,153.1292,-27.3917,68.00,64.40,88.26,180.00,5.00,0.00,30.18,M,6.21,M,FEW,SCT,BKN,M,1500.00,12000.00,16000.00,M,VCSH,YBBN 010030Z 18005KT 9999 VCSH FEW015 SCT120 BKN160 20/18 Q1022
YBBN,2015-04-01 01:00,153.1292,-27.3917,69.80,66.20,88.34,200.00,6.00,0.00,30.15,M,6.21,M,FEW,BKN,BKN,M,2500.00,19000.00,30000.00,M,VCSH,YBBN 010100Z 20006KT 9999 VCSH FEW025 BKN190 BKN300 21/19 Q1021
YBBN,2015-04-01 01:30,153.1292,-27.3917,69.80,66.20,88.34,200.00,6.00,0.00,30.15,M,6.21,M,FEW,SCT,BKN,M,2500.00,16000.00,27000.00,M,VCSH,YBBN 010130Z 20006KT 9999 VCSH FEW025 SCT160 BKN270 21/19 Q1021
YBBN,2015-04-01 02:00,153.1292,-27.3917,71.60,66.20,83.09,190.00,6.00,0.00,30.12,M,6.21,M,FEW,BKN,BKN,M,3000.00,16000.00,27000.00,M,VCSH,YBBN 010200Z 19006KT 9999 VCSH FEW030 BKN160 BKN270 22/19 Q1020
YBBN,2015-04-01 02:30,153.1292,-27.3917,73.40,66.20,78.19,170.00,5.00,0.00,30.12,M,6.21,M,FEW,SCT,BKN,M,3000.00,19000.00,27000.00,M,VCSH,YBBN 010230Z 17005KT 9999 VCSH FEW030 SCT190 BKN270 23/19 Q1020
YBBN,2015-04-01 03:00,153.1292,-27.3917,77.00,64.40,65.12,110.00,9.00,0.00,30.09,M,6.21,M,FEW,SCT,BKN,M,3200.00,17000.00,27000.00,M,M,YBBN 010300Z 11009KT 9999 FEW032 SCT170 BKN270 25/18 Q1019
YBBN,2015-04-01 03:30,153.1292,-27.3917,77.00,62.60,61.13,110.00,7.00,0.00,30.09,M,6.21,M,FEW,SCT,BKN,M,3200.00,17000.00,27000.00,M,M,YBBN 010330Z 11007KT 9999 FEW032 SCT170 BKN270 25/17 Q1019
YBBN,2015-04-01 04:00,153.1292,-27.3917,77.00,64.40,65.12,110.00,8.00,0.00,30.09,M,6.21,M,FEW,SCT,BKN,M,3200.00,17000.00,27000.00,M,M,YBBN 010400Z 11008KT 9999 FEW032 SCT170 BKN270 25/18 Q1019
YBBN,2015-04-01 04:30,153.1292,-27.3917,75.20,64.40,69.14,100.00,8.00,0.00,30.06,M,6.21,M,SCT,SCT,BKN,M,3200.00,17000.00,27000.00,M,VCSH,YBBN 010430Z 10008KT 9999 VCSH SCT032 SCT170 BKN270 24/18 Q1018
YBBN,2015-04-01 05:00,153.1292,-27.3917,75.20,64.40,69.14,100.00,8.00,0.00,30.06,M,6.21,M,FEW,SCT,BKN,M,2200.00,2800.00,27000.00,M,VCSH,YBBN 010500Z 10008KT 9999 VCSH FEW022 SCT028 BKN270 24/18 Q1018
YBBN,2015-04-01 05:30,153.1292,-27.3917,75.20,66.20,73.61,100.00,8.00,0.00,30.06,M,6.21,M,FEW,SCT,BKN,M,2600.00,6500.00,27000.00,M,VCSH,YBBN 010530Z 10008KT 9999 VCSH FEW026 SCT065 BKN270 24/19 Q1018
YBBN,2015-04-01 06:00,153.1292,-27.3917,75.20,66.20,73.61,100.00,9.00,0.00,30.06,M,6.21,M,FEW,BKN,M,M,2600.00,27000.00,M,M,M,YBBN 010600Z 10009KT 9999 FEW026 BKN270 24/19 Q1018
YBBN,2015-04-01 06:30,153.1292,-27.3917,75.20,66.20,73.61,110.00,9.00,0.00,30.06,M,6.21,M,FEW,BKN,M,M,2500.00,27000.00,M,M,M,YBBN 010630Z 11009KT 9999 FEW025 BKN270 24/19 Q1018
YBBN,2015-04-01 07:00,153.1292,-27.3917,75.20,64.40,69.14,110.00,9.00,0.00,30.06,M,6.21,M,FEW,SCT,BKN,M,2500.00,18000.00,27000.00,M,VCSH,YBBN 010700Z 11009KT 9999 VCSH FEW025 SCT180 BKN270 24/18 Q1018
YBBN,2015-04-01 07:30,153.1292,-27.3917,73.40,66.20,78.19,110.00,9.00,0.00,30.06,M,6.21,M,FEW,SCT,BKN,M,2400.00,10000.00,27000.00,M,-SHRA,YBBN 010730Z 11009KT 9999 -SHRA FEW024 SCT100 BKN270 23/19 Q1018
YBBN,2015-04-01 08:00,153.1292,-27.3917,71.60,68.00,88.43,80.00,7.00,0.00,30.06,M,6.21,M,FEW,SCT,BKN,M,1800.00,2400.00,27000.00,M,-SHRA,YBBN 010800Z 08007KT 9999 -SHRA FEW018 SCT024 BKN270 22/20 Q1018
YBBN,2015-04-01 08:30,153.1292,-27.3917,73.40,66.20,78.19,130.00,7.00,0.00,30.06,M,6.21,M,FEW,SCT,BKN,FEW,1400.00,3600.00,12000.00,1700.00,-SHRA,YBBN 010830Z 13007KT 9999 -SHRA FEW014 SCT036 BKN120 FEW017TCU 23/19 Q1018 WS RWY19
YBBN,2015-04-01 09:00,153.1292,-27.3917,73.40,66.20,78.19,120.00,8.00,0.00,30.09,M,6.21,M,FEW,SCT,BKN,FEW,1300.00,3000.00,12000.00,1700.00,VCSH,YBBN 010900Z 12008KT 9999 VCSH FEW013 SCT030 BKN120 FEW017TCU 23/19 Q1019
YBBN,2015-04-01 09:30,153.1292,-27.3917,73.40,66.20,78.19,110.00,8.00,0.00,30.09,M,6.21,M,FEW,SCT,BKN,FEW,1200.00,1600.00,10500.00,1700.00,SHRA,YBBN 010930Z 11008KT 9999 SHRA FEW012 SCT016 BKN105 FEW017TCU 23/19 Q1019 RMK VIS RED TO 6KM NW IN SHRA
YBBN,2015-04-01 10:00,153.1292,-27.3917,73.40,68.00,83.21,100.00,9.00,0.00,30.09,M,4.97,M,FEW,SCT,BKN,FEW,1200.00,1800.00,3200.00,1900.00,-SHRA,YBBN 011000Z 10009KT 8000 -SHRA FEW012 SCT018 BKN032 FEW019TCU 23/20 Q1019
YBBN,2015-04-01 10:30,153.1292,-27.3917,73.40,64.40,73.44,100.00,7.00,0.00,30.09,M,6.21,M,FEW,SCT,BKN,M,1100.00,1900.00,7400.00,M,SHRA,YBBN 011030Z 10007KT 9999 4500N SHRA FEW011 SCT019TCU BKN074 23/18 Q1019
YBBN,2015-04-01 11:00,153.1292,-27.3917,73.40,68.00,83.21,60.00,12.00,0.00,30.09,M,3.73,M,FEW,SCT,BKN,FEW,800.00,1400.00,12000.00,1900.00,SHRA,YBBN 011100Z 06012KT 6000 SHRA FEW008 SCT014 BKN120 FEW019TCU 23/20 Q1019
YBBN,2015-04-01 11:15,153.1292,-27.3917,71.60,68.00,88.43,50.00,15.00,0.00,30.12,M,1.86,M,FEW,SCT,BKN,FEW,900.00,1400.00,3300.00,1800.00,SHRA,YBBN 011115Z 05015KT 3000 SHRA FEW009 SCT014 BKN033 FEW018TCU 22/20 Q1020
YBBN,2015-04-01 11:25,153.1292,-27.3917,68.00,66.20,93.97,60.00,12.00,0.00,30.12,M,1.55,M,FEW,SCT,BKN,FEW,800.00,1300.00,2900.00,1800.00,+SHRA,YBBN 011125Z 06012KT 2500 +SHRA FEW008 SCT013 BKN029 FEW018TCU 20/19 Q1020 WS RWY01
YBBN,2015-04-01 11:30,153.1292,-27.3917,68.00,68.00,100.00,50.00,11.00,0.00,30.12,M,3.11,M,FEW,SCT,BKN,FEW,600.00,1200.00,3200.00,1800.00,SHRA,YBBN 011130Z 05011KT 5000 SHRA FEW006 SCT012 BKN032 FEW018TCU 20/20 Q1020 RESHRA WS RWY01
YBBN,2015-04-01 11:45,153.1292,-27.3917,69.80,68.00,94.01,50.00,13.00,0.00,30.12,M,4.97,M,FEW,SCT,BKN,FEW,700.00,3000.00,7700.00,1800.00,-SHRA,YBBN 011145Z 05013KT 8000 -SHRA FEW007 SCT030 BKN077 FEW018TCU 21/20 Q1020 WS RWY01 RMK MOD O/SHOOT WS RWY 01 AT 200FT ON FINAL
YBBN,2015-04-01 12:00,153.1292,-27.3917,69.80,68.00,94.01,50.00,13.00,0.00,30.12,M,5.59,M,FEW,SCT,BKN,M,700.00,3800.00,7800.00,M,-SHRA,YBBN 011200Z 05013KT 9000 -SHRA FEW007 SCT038 BKN078 21/20 Q1020
YBBN,2015-04-01 12:30,153.1292,-27.3917,69.80,68.00,94.01,90.00,5.00,0.00,30.12,M,4.97,M,FEW,SCT,BKN,M,900.00,3800.00,5800.00,M,-SHRA,YBBN 011230Z 09005KT 8000 -SHRA FEW009 SCT038 BKN058 21/20 Q1020
YBBN,2015-04-01 13:00,153.1292,-27.3917,69.80,68.00,94.01,10.00,5.00,0.00,30.12,M,3.73,M,FEW,SCT,BKN,FEW,700.00,1200.00,3700.00,1800.00,-SHRA,YBBN 011300Z 01005KT 6000 -SHRA FEW007 SCT012 BKN037 FEW018TCU 21/20 Q1020
YBBN,2015-04-01 13:15,153.1292,-27.3917,69.80,68.00,94.01,10.00,5.00,0.00,30.12,M,4.97,M,FEW,SCT,BKN,M,700.00,1000.00,6200.00,M,-SHRA,YBBN 011315Z 01005KT 8000 -SHRA FEW007 SCT010 BKN062 21/20 Q1020
YBBN,2015-04-01 13:30,153.1292,-27.3917,69.80,68.00,94.01,360.00,2.00,0.00,30.09,M,6.21,M,FEW,SCT,BKN,M,700.00,1200.00,6500.00,M,-SHRA,YBBN 011330Z 36002KT 9999 -SHRA FEW007 SCT012 BKN065 21/20 Q1019
YBBN,2015-04-01 14:00,153.1292,-27.3917,69.80,68.00,94.01,230.00,4.00,0.00,30.09,M,5.59,M,FEW,SCT,BKN,M,700.00,1600.00,5300.00,M,-SHRA,YBBN 011400Z 23004KT 9000 -SHRA FEW007 SCT016 BKN053 21/20 Q1019
YBBN,2015-04-01 14:30,153.1292,-27.3917,68.00,68.00,100.00,220.00,9.00,0.00,30.09,M,3.73,M,FEW,SCT,BKN,M,500.00,1200.00,3800.00,M,-SHRA,YBBN 011430Z 22009KT 6000 -SHRA FEW005 SCT012 BKN038 20/20 Q1019
YBBN,2015-04-01 14:48,153.1292,-27.3917,68.00,68.00,100.00,210.00,5.00,0.00,30.09,M,2.80,M,FEW,SCT,BKN,M,400.00,1000.00,4200.00,M,SHRA,YBBN 011448Z 21005KT 4500 SHRA FEW004 SCT010 BKN042 20/20 Q1019
YBBN,2015-04-01 15:00,153.1292,-27.3917,68.00,68.00,100.00,240.00,5.00,0.00,30.09,M,4.35,M,FEW,SCT,BKN,FEW,300.00,1000.00,4200.00,1600.00,-SHRA,YBBN 011500Z 24005KT 7000 -SHRA FEW003 SCT010 BKN042 FEW016TCU 20/20 Q1019
YBBN,2015-04-01 15:19,153.1292,-27.3917,68.00,68.00,100.00,210.00,8.00,0.00,30.09,M,5.59,M,FEW,SCT,BKN,M,500.00,1500.00,4600.00,M,-SHRA,YBBN 011519Z 21008KT 9000 -SHRA FEW005 SCT015 BKN046 20/20 Q1019
YBBN,2015-04-01 15:30,153.1292,-27.3917,68.00,68.00,100.00,210.00,8.00,0.00,30.09,M,6.21,M,FEW,SCT,BKN,M,500.00,1500.00,5000.00,M,-SHRA,YBBN 011530Z 21008KT 9999 -SHRA FEW005 SCT015 BKN050 20/20 Q1019
YBBN,2015-04-01 16:00,153.1292,-27.3917,68.00,66.20,93.97,200.00,8.00,0.00,30.06,M,3.73,M,FEW,SCT,BKN,M,300.00,1600.00,5000.00,M,-SHRA,YBBN 011600Z 20008KT 6000 -SHRA FEW003 SCT016 BKN050 20/19 Q1018
YBBN,2015-04-01 16:30,153.1292,-27.3917,68.00,66.20,93.97,210.00,9.00,0.00,30.03,M,6.21,M,FEW,SCT,BKN,M,600.00,1600.00,5600.00,M,VCSH,YBBN 011630Z 21009KT 9999 VCSH FEW006 SCT016 BKN056 20/19 Q1017
YBBN,2015-04-01 17:00,153.1292,-27.3917,68.00,66.20,93.97,200.00,9.00,0.00,30.03,M,6.21,M,FEW,SCT,BKN,M,500.00,5800.00,16000.00,M,VCSH,YBBN 011700Z 20009KT 9999 VCSH FEW005 SCT058 BKN160 20/19 Q1017
YBBN,2015-04-01 17:30,153.1292,-27.3917,68.00,66.20,93.97,200.00,8.00,0.00,30.03,M,6.21,M,FEW,BKN,M,M,700.00,16000.00,M,M,VCSH,YBBN 011730Z 20008KT 9999 VCSH FEW007 BKN160 20/19 Q1017
YBBN,2015-04-01 18:00,153.1292,-27.3917,66.20,64.40,93.92,200.00,7.00,0.00,30.03,M,6.21,M,FEW,BKN,M,M,900.00,16500.00,M,M,VCSH,YBBN 011800Z 20007KT 9999 VCSH FEW009 BKN165 19/18 Q1017
YBBN,2015-04-01 18:30,153.1292,-27.3917,66.20,66.20,100.00,210.00,8.00,0.00,30.03,M,6.21,M,FEW,SCT,M,M,1600.00,17000.00,M,M,M,YBBN 011830Z 21008KT 9999 FEW016 SCT170 19/19 Q1017
YBBN,2015-04-01 19:00,153.1292,-27.3917,66.20,66.20,100.00,210.00,7.00,0.00,30.03,M,6.21,M,FEW,SCT,M,M,1600.00,3200.00,M,M,VCSH,YBBN 011900Z 21007KT 9999 VCSH FEW016 SCT032 19/19 Q1017
YBBN,2015-04-01 19:30,153.1292,-27.3917,68.00,66.20,93.97,210.00,8.00,0.00,30.03,M,6.21,M,FEW,SCT,M,M,900.00,1700.00,M,M,-SHRA,YBBN 011930Z 21008KT 9999 -SHRA FEW009 SCT017 20/19 Q1017
YBBN,2015-04-01 20:00,153.1292,-27.3917,66.20,66.20,100.00,200.00,7.00,0.00,30.03,M,6.21,M,FEW,SCT,M,M,1000.00,5800.00,M,M,VCSH,YBBN 012000Z 20007KT 9999 VCSH FEW010 SCT058 19/19 Q1017
YBBN,2015-04-01 20:30,153.1292,-27.3917,66.20,66.20,100.00,200.00,7.00,0.00,30.03,M,6.21,M,FEW,SCT,M,M,1000.00,6500.00,M,M,VCSH,YBBN 012030Z 20007KT 9999 VCSH FEW010 SCT065 19/19 Q1017
YBBN,2015-04-01 21:00,153.1292,-27.3917,68.00,66.20,93.97,210.00,6.00,0.00,30.06,M,6.21,M,FEW,BKN,M,M,1000.00,6500.00,M,M,VCSH,YBBN 012100Z 21006KT 9999 VCSH FEW010 BKN065 20/19 Q1018
YBBN,2015-04-01 21:30,153.1292,-27.3917,69.80,68.00,94.01,210.00,6.00,0.00,30.06,M,6.21,M,FEW,SCT,M,M,1000.00,6300.00,M,M,VCSH,YBBN 012130Z 21006KT 9999 VCSH FEW010 SCT063 21/20 Q1018
YBBN,2015-04-01 22:00,153.1292,-27.3917,71.60,68.00,88.43,200.00,6.00,0.00,30.09,M,6.21,M,FEW,SCT,M,M,1000.00,6300.00,M,M,M,YBBN 012200Z 20006KT 9999 FEW010 SCT063 22/20 Q1019
YBBN,2015-04-01 22:30,153.1292,-27.3917,73.40,68.00,83.21,190.00,5.00,0.00,30.09,M,6.21,M,FEW,M,M,M,1500.00,M,M,M,M,YBBN 012230Z 19005KT 9999 FEW015 23/20 Q1019
YBBN,2015-04-01 23:00,153.1292,-27.3917,75.20,69.80,83.32,150.00,5.00,0.00,30.09,M,6.21,M,FEW,SCT,M,M,1500.00,6500.00,M,M,M,YBBN 012300Z 15005KT 9999 FEW015 SCT065 24/21 Q1019
YBBN,2015-04-01 23:30,153.1292,-27.3917,77.00,68.00,73.78,130.00,6.00,0.00,30.09,M,6.21,M,FEW,SCT,M,M,1500.00,2800.00,M,M,M,YBBN 012330Z 13006KT 9999 FEW015 SCT028 25/20 Q1019
