#DEBUG: Format Typ    -> comma
#DEBUG: Time Period   -> 2013-10-31 00:00:00+00:00 2013-11-01 00:00:00+00:00
#DEBUG: Time Zone     -> Etc/UTC
#DEBUG: Data Contact   -> daryl herzmann akrherz@iastate.edu 515-294-5978
#DEBUG: Entries Found -> -1
station,valid,lon,lat,tmpf, dwpf, relh, drct, sknt, p01i, alti, mslp, vsby, gust, skyc1, skyc2, skyc3, skyc4, skyl1, skyl2, skyl3, skyl4, presentwx, metar
YBBN,2013-10-31 00:00,153.1292,-27.3917,75.20,55.40,50.17,110.00,10.00,0.00,30.12,M,6.21,M,FEW,M,M,M,3200.00,M,M,M,M,YBBN 310000Z 11010KT 9999 FEW032 24/13 Q1020 NOSIG
YBBN,2013-10-31 00:30,153.1292,-27.3917,73.40,55.40,53.29,120.00,9.00,0.00,30.12,M,6.21,M,FEW,M,M,M,3500.00,M,M,M,M,YBBN 310030Z 12009KT 9999 FEW035 23/13 Q1020
YBBN,2013-10-31 01:00,153.1292,-27.3917,75.20,57.20,53.55,120.00,10.00,0.00,30.09,M,6.21,M,SCT,M,M,M,3500.00,M,M,M,M,YBBN 310100Z 12010KT 9999 SCT035 24/14 Q1019 NOSIG
YBBN,2013-10-31 01:30,153.1292,-27.3917,75.20,57.20,53.55,100.00,10.00,0.00,30.09,M,6.21,M,SCT,BKN,M,M,3500.00,5500.00,M,M,M,YBBN 310130Z 10010KT 9999 SCT035 BKN055 24/14 Q1019
YBBN,2013-10-31 02:00,153.1292,-27.3917,75.20,57.20,53.55,110.00,10.00,0.00,30.09,M,6.21,M,FEW,SCT,M,M,3500.00,5500.00,M,M,M,YBBN 310200Z 11010KT 9999 FEW035 SCT055 24/14 Q1019
YBBN,2013-10-31 02:30,153.1292,-27.3917,75.20,57.20,53.55,90.00,8.00,0.00,30.09,M,6.21,M,FEW,M,M,M,3500.00,M,M,M,M,YBBN 310230Z 09008KT 9999 FEW035 24/14 Q1019
YBBN,2013-10-31 03:00,153.1292,-27.3917,77.00,57.20,50.43,90.00,9.00,0.00,30.09,M,6.21,M,SCT,M,M,M,3300.00,M,M,M,M,YBBN 310300Z 09009KT 9999 SCT033 25/14 Q1019 FM0400 06012KT 9999 FEW045
YBBN,2013-10-31 03:30,153.1292,-27.3917,75.20,57.20,53.55,100.00,10.00,0.00,30.06,M,6.21,M,FEW,M,M,M,3200.00,M,M,M,M,YBBN 310330Z 10010KT 9999 FEW032 24/14 Q1018
YBBN,2013-10-31 04:00,153.1292,-27.3917,77.00,57.20,50.43,110.00,9.00,0.00,30.06,M,6.21,M,FEW,M,M,M,3200.00,M,M,M,M,YBBN 310400Z 11009KT 9999 FEW032 25/14 Q1018
YBBN,2013-10-31 04:30,153.1292,-27.3917,77.00,55.40,47.25,70.00,12.00,0.00,30.06,M,6.21,M,FEW,M,M,M,3300.00,M,M,M,M,YBBN 310430Z 07012KT 9999 FEW033 25/13 Q1018
YBBN,2013-10-31 05:00,153.1292,-27.3917,77.00,55.40,47.25,70.00,10.00,0.00,30.06,M,6.21,M,FEW,M,M,M,3500.00,M,M,M,M,YBBN 310500Z 07010KT 9999 FEW035 25/13 Q1018 NOSIG
YBBN,2013-10-31 05:30,153.1292,-27.3917,77.00,57.20,50.43,70.00,11.00,0.00,30.06,M,6.21,M,FEW,M,M,M,3800.00,M,M,M,M,YBBN 310530Z 07011KT 9999 FEW038 25/14 Q1018
YBBN,2013-10-31 06:00,153.1292,-27.3917,71.60,57.20,60.44,70.00,12.00,0.00,30.06,M,6.21,M,SCT,M,M,M,3500.00,M,M,M,M,YBBN 310600Z 07012KT 9999 SCT035 22/14 Q1018
YBBN,2013-10-31 06:30,153.1292,-27.3917,71.60,57.20,60.44,60.00,12.00,0.00,30.06,M,6.21,M,SCT,M,M,M,3500.00,M,M,M,M,YBBN 310630Z 06012KT 9999 SCT035 22/14 Q1018
YBBN,2013-10-31 07:00,153.1292,-27.3917,71.60,55.40,56.63,90.00,8.00,0.00,30.06,M,6.21,M,SCT,M,M,M,3500.00,M,M,M,M,YBBN 310700Z 09008KT 9999 SCT035 22/13 Q1018
YBBN,2013-10-31 07:30,153.1292,-27.3917,71.60,55.40,56.63,90.00,8.00,0.00,30.06,M,6.21,M,BKN,M,M,M,3500.00,M,M,M,M,YBBN 310730Z 09008KT 9999 BKN035 22/13 Q1018
YBBN,2013-10-31 08:00,153.1292,-27.3917,71.60,55.40,56.63,90.00,9.00,0.00,30.09,M,6.21,M,FEW,BKN,M,M,3500.00,4600.00,M,M,M,YBBN 310800Z 09009KT 9999 FEW035 BKN046 22/13 Q1019
YBBN,2013-10-31 08:30,153.1292,-27.3917,71.60,55.40,56.63,90.00,7.00,0.00,30.09,M,6.21,M,SCT,BKN,M,M,3500.00,4600.00,M,M,M,YBBN 310830Z 09007KT 9999 SCT035 BKN046 22/13 Q1019
YBBN,2013-10-31 09:00,153.1292,-27.3917,69.80,55.40,60.21,80.00,8.00,0.00,30.12,M,6.21,M,BKN,M,M,M,3700.00,M,M,M,M,YBBN 310900Z 08008KT 9999 BKN037 21/13 Q1020
YBBN,2013-10-31 09:30,153.1292,-27.3917,69.80,55.40,60.21,90.00,7.00,0.00,30.12,M,6.21,M,BKN,M,M,M,3700.00,M,M,M,M,YBBN 310930Z 09007KT 9999 BKN037 21/13 Q1020
YBBN,2013-10-31 10:00,153.1292,-27.3917,69.80,55.40,60.21,100.00,6.00,0.00,30.12,M,6.21,M,SCT,BKN,M,M,3500.00,4100.00,M,M,M,YBBN 311000Z 10006KT 9999 SCT035 BKN041 21/13 Q1020 NOSIG
YBBN,2013-10-31 10:30,153.1292,-27.3917,69.80,53.60,56.38,100.00,6.00,0.00,30.15,M,6.21,M,FEW,BKN,M,M,3500.00,4100.00,M,M,M,YBBN 311030Z 10006KT 9999 FEW035 BKN041 21/12 Q1021
YBBN,2013-10-31 10:37,153.1292,-27.3917,69.80,55.40,60.21,100.00,7.00,0.00,30.15,M,6.21,M,BKN,OVC,M,M,4300.00,7200.00,M,M,//,YBBN 311037Z AUTO 10007KT 9999 // BKN043 OVC072 21/13 Q1021
YBBN,2013-10-31 11:00,153.1292,-27.3917,69.80,53.60,56.38,110.00,7.00,0.00,30.15,M,6.21,M,FEW,SCT,M,M,3500.00,4100.00,M,M,M,YBBN 311100Z 11007KT 9999 FEW035 SCT041 21/12 Q1021 FM1200 19004KT 9999 FEW025 SCT040
YBBN,2013-10-31 11:30,153.1292,-27.3917,69.80,53.60,56.38,90.00,7.00,0.00,30.15,M,6.21,M,FEW,SCT,M,M,3700.00,6800.00,M,M,M,YBBN 311130Z 09007KT 9999 FEW037 SCT068 21/12 Q1021
YBBN,2013-10-31 12:00,153.1292,-27.3917,69.80,55.40,60.21,80.00,7.00,0.00,30.15,M,6.21,M,FEW,SCT,M,M,3700.00,6800.00,M,M,M,YBBN 311200Z 08007KT 9999 FEW037 SCT068 21/13 Q1021 FM1300 19004KT 9999 FEW025 SCT040
YBBN,2013-10-31 12:30,153.1292,-27.3917,69.80,55.40,60.21,70.00,6.00,0.00,30.15,M,6.21,M,M,M,M,M,M,M,M,M,M,YBBN 311230Z 07006KT CAVOK 21/13 Q1021
YBBN,2013-10-31 13:00,153.1292,-27.3917,69.80,55.40,60.21,80.00,6.00,0.00,30.15,M,6.21,M,BKN,M,M,M,3600.00,M,M,M,M,YBBN 311300Z 08006KT 9999 BKN036 21/13 Q1021 NOSIG
YBBN,2013-10-31 13:30,153.1292,-27.3917,69.80,57.20,64.26,90.00,6.00,0.00,30.15,M,6.21,M,FEW,SCT,M,M,3400.00,3900.00,M,M,M,YBBN 311330Z 09006KT 9999 FEW034 SCT039 21/14 Q1021
YBBN,2013-10-31 14:00,153.1292,-27.3917,69.80,57.20,64.26,90.00,6.00,0.00,30.15,M,6.21,M,FEW,SCT,M,M,3200.00,3900.00,M,M,M,YBBN 311400Z 09006KT 9999 FEW032 SCT039 21/14 Q1021 NOSIG
YBBN,2013-10-31 14:30,153.1292,-27.3917,69.80,55.40,60.21,100.00,6.00,0.00,30.12,M,6.21,M,FEW,SCT,M,M,3200.00,3900.00,M,M,M,YBBN 311430Z 10006KT 9999 FEW032 SCT039 21/13 Q1020
YBBN,2013-10-31 15:00,153.1292,-27.3917,69.80,55.40,60.21,100.00,6.00,0.00,30.12,M,6.21,M,FEW,M,M,M,3200.00,M,M,M,M,YBBN 311500Z 10006KT 9999 FEW032 21/13 Q1020 NOSIG
YBBN,2013-10-31 15:30,153.1292,-27.3917,68.00,55.40,64.04,90.00,5.00,0.00,30.12,M,6.21,M,FEW,M,M,M,3200.00,M,M,M,M,YBBN 311530Z 09005KT 9999 FEW032 20/13 Q1020
YBBN,2013-10-31 16:00,153.1292,-27.3917,68.00,55.40,64.04,100.00,6.00,0.00,30.12,M,6.21,M,FEW,SCT,M,M,3200.00,4000.00,M,M,M,YBBN 311600Z 10006KT 9999 FEW032 SCT040 20/13 Q1020 NOSIG
YBBN,2013-10-31 16:30,153.1292,-27.3917,68.00,53.60,59.97,100.00,5.00,0.00,30.12,M,6.21,M,FEW,SCT,M,M,3200.00,4000.00,M,M,M,YBBN 311630Z 10005KT 9999 FEW032 SCT040 20/12 Q1020
YBBN,2013-10-31 17:00,153.1292,-27.3917,68.00,53.60,59.97,110.00,5.00,0.00,30.12,M,6.21,M,FEW,M,M,M,3900.00,M,M,M,M,YBBN 311700Z 11005KT 9999 FEW039 20/12 Q1020 NOSIG
YBBN,2013-10-31 17:30,153.1292,-27.3917,68.00,55.40,64.04,110.00,6.00,0.00,30.12,M,6.21,M,FEW,M,M,M,3900.00,M,M,M,M,YBBN 311730Z 11006KT 9999 FEW039 20/13 Q1020
YBBN,2013-10-31 18:00,153.1292,-27.3917,68.00,53.60,59.97,110.00,6.00,0.00,30.12,M,6.21,M,FEW,M,M,M,3500.00,M,M,M,M,YBBN 311800Z 11006KT 9999 FEW035 20/12 Q1020 NOSIG
YBBN,2013-10-31 18:30,153.1292,-27.3917,68.00,53.60,59.97,100.00,5.00,0.00,30.12,M,6.21,M,FEW,M,M,M,3500.00,M,M,M,M,YBBN 311830Z 10005KT 9999 FEW035 20/12 Q1020
YBBN,2013-10-31 19:00,153.1292,-27.3917,64.40,55.40,72.56,100.00,5.00,0.00,30.15,M,6.21,M,FEW,M,M,M,3900.00,M,M,M,M,YBBN 311900Z 10005KT 9999 FEW039 18/13 Q1021 NOSIG
YBBN,2013-10-31 19:30,153.1292,-27.3917,64.40,55.40,72.56,200.00,1.00,0.00,30.15,M,6.21,M,FEW,M,M,M,3900.00,M,M,M,M,YBBN 311930Z 20001KT 9999 FEW039 18/13 Q1021
YBBN,2013-10-31 20:00,153.1292,-27.3917,66.20,55.40,68.15,190.00,4.00,0.00,30.15,M,6.21,M,FEW,M,M,M,3900.00,M,M,M,M,YBBN 312000Z 19004KT 9999 FEW039 19/13 Q1021 NOSIG
YBBN,2013-10-31 20:30,153.1292,-27.3917,68.00,55.40,64.04,200.00,7.00,0.00,30.18,M,6.21,M,FEW,M,M,M,3000.00,M,M,M,M,YBBN 312030Z 20007KT 9999 FEW030 20/13 Q1022
YBBN,2013-10-31 21:00,153.1292,-27.3917,71.60,55.40,56.63,160.00,6.00,0.00,30.18,M,6.21,M,FEW,M,M,M,3000.00,M,M,M,M,YBBN 312100Z 16006KT 9999 FEW030 22/13 Q1022
YBBN,2013-10-31 21:30,153.1292,-27.3917,71.60,51.80,49.64,130.00,6.00,0.00,30.18,M,6.21,M,FEW,M,M,M,3000.00,M,M,M,M,YBBN 312130Z 13006KT 9999 FEW030 22/11 Q1022
YBBN,2013-10-31 22:00,153.1292,-27.3917,73.40,51.80,46.71,100.00,8.00,0.00,30.18,M,6.21,M,SCT,M,M,M,3000.00,M,M,M,M,YBBN 312200Z 10008KT 9999 SCT030 23/11 Q1022 NOSIG
YBBN,2013-10-31 22:30,153.1292,-27.3917,75.20,51.80,43.97,110.00,7.00,0.00,30.21,M,6.21,M,SCT,M,M,M,3000.00,M,M,M,M,YBBN 312230Z 11007KT 9999 SCT030 24/11 Q1023
YBBN,2013-10-31 23:00,153.1292,-27.3917,75.20,51.80,43.97,120.00,7.00,0.00,30.21,M,6.21,M,SCT,M,M,M,3500.00,M,M,M,M,YBBN 312300Z 12007KT 9999 SCT035 24/11 Q1023 NOSIG
YBBN,2013-10-31 23:30,153.1292,-27.3917,75.20,51.80,43.97,120.00,8.00,0.00,30.21,M,6.21,M,SCT,M,M,M,3800.00,M,M,M,M,YBBN 312330Z 12008KT 9999 SCT038 24/11 Q1023
