#DEBUG: Format Typ    -> comma
#DEBUG: Time Period   -> 2011-11-21 00:00:00+00:00 2011-11-22 00:00:00+00:00
#DEBUG: Time Zone     -> Etc/UTC
#DEBUG: Data Contact   -> daryl herzmann akrherz@iastate.edu 515-294-5978
#DEBUG: Entries Found -> -1
station,valid,lon,lat,tmpf, dwpf, relh, drct, sknt, p01i, alti, mslp, vsby, gust, skyc1, skyc2, skyc3, skyc4, skyl1, skyl2, skyl3, skyl4, presentwx, metar
YBBN,2011-11-21 00:00,153.1292,-27.3917,80.60,64.40,57.84,40.00,10.00,M,30.00,M,6.21,M,FEW,M,M,M,4000.00,M,M,M,M,YBBN 210000Z 04010KT 9999 FEW040 27/18 Q1016 NOSIG
YBBN,2011-11-21 00:30,153.1292,-27.3917,80.60,64.40,57.84,30.00,13.00,M,30.00,M,6.21,M,FEW,SCT,M,M,3800.00,33000.00,M,M,M,YBBN 210030Z 03013KT 9999 FEW038 SCT330 27/18 Q1016
YBBN,2011-11-21 01:00,153.1292,-27.3917,80.60,64.40,57.84,40.00,13.00,M,29.97,M,6.21,M,FEW,SCT,M,M,3800.00,33000.00,M,M,M,YBBN 210100Z 04013KT 9999 FEW038 SCT330 27/18 Q1015 NOSIG
YBBN,2011-11-21 01:30,153.1292,-27.3917,80.60,62.60,54.30,30.00,15.00,M,29.97,M,6.21,M,FEW,SCT,M,M,3800.00,33000.00,M,M,M,YBBN 210130Z 03015KT 9999 FEW038 SCT330 27/17 Q1015
YBBN,2011-11-21 02:00,153.1292,-27.3917,82.40,60.80,48.05,30.00,15.00,M,29.97,M,6.21,M,FEW,SCT,M,M,3800.00,33000.00,M,M,M,YBBN 210200Z 03015KT 9999 FEW038 SCT330 28/16 Q1015 NOSIG
YBBN,2011-11-21 02:30,153.1292,-27.3917,84.20,59.00,42.52,40.00,16.00,M,29.94,M,6.21,M,FEW,M,M,M,4400.00,M,M,M,M,YBBN 210230Z 04016KT 9999 FEW044 29/15 Q1014
YBBN,2011-11-21 03:00,153.1292,-27.3917,82.40,57.20,42.25,30.00,17.00,M,29.94,M,6.21,M,FEW,M,M,M,4500.00,M,M,M,M,YBBN 210300Z 03017KT 9999 FEW045 28/14 Q1014 NOSIG
YBBN,2011-11-21 03:30,153.1292,-27.3917,82.40,59.00,45.07,30.00,16.00,M,29.91,M,6.21,M,FEW,M,M,M,4800.00,M,M,M,M,YBBN 210330Z 03016KT 9999 FEW048 28/15 Q1013
YBBN,2011-11-21 04:00,153.1292,-27.3917,82.40,53.60,37.07,20.00,17.00,M,29.91,M,6.21,M,FEW,M,M,M,4800.00,M,M,M,M,YBBN 210400Z 02017KT 9999 FEW048 28/12 Q1013 NOSIG
YBBN,2011-11-21 04:30,153.1292,-27.3917,82.40,57.20,42.25,20.00,18.00,M,29.91,M,6.21,M,NCD,M,M,M,M,M,M,M,//,YBBN 210430Z AUTO 02018KT 9999 // NCD 28/14 Q1013
YBBN,2011-11-21 05:00,153.1292,-27.3917,80.60,59.00,47.79,20.00,17.00,M,29.91,M,6.21,M,FEW,M,M,M,4800.00,M,M,M,M,YBBN 210500Z 02017KT 9999 FEW048 27/15 Q1013 NOSIG
YBBN,2011-11-21 05:30,153.1292,-27.3917,80.60,62.60,54.30,20.00,17.00,M,29.91,M,6.21,M,FEW,M,M,M,4800.00,M,M,M,M,YBBN 210530Z 02017KT 9999 FEW048 27/17 Q1013
YBBN,2011-11-21 06:00,153.1292,-27.3917,78.80,62.60,57.60,20.00,16.00,M,29.91,M,6.21,M,FEW,M,M,M,4500.00,M,M,M,M,YBBN 210600Z 02016KT 9999 FEW045 26/17 Q1013 NOSIG
YBBN,2011-11-21 06:30,153.1292,-27.3917,78.80,62.60,57.60,20.00,16.00,M,29.91,M,6.21,M,FEW,M,M,M,4000.00,M,M,M,M,YBBN 210630Z 02016KT 9999 FEW040 26/17 Q1013
YBBN,2011-11-21 07:00,153.1292,-27.3917,78.80,60.80,54.05,20.00,17.00,M,29.91,M,6.21,M,FEW,M,M,M,4000.00,M,M,M,M,YBBN 210700Z 02017KT 9999 FEW040 26/16 Q1013 NOSIG
YBBN,2011-11-21 07:30,153.1292,-27.3917,77.00,62.60,61.13,10.00,15.00,M,29.94,M,6.21,M,M,M,M,M,M,M,M,M,M,YBBN 210730Z 01015KT CAVOK 25/17 Q1014
YBBN,2011-11-21 08:00,153.1292,-27.3917,75.20,62.60,64.91,10.00,14.00,M,29.94,M,6.21,M,M,M,M,M,M,M,M,M,M,YBBN 210800Z 01014KT CAVOK 24/17 Q1014 NOSIG
YBBN,2011-11-21 08:30,153.1292,-27.3917,75.20,64.40,69.14,20.00,14.00,M,29.94,M,6.21,M,FEW,SCT,M,M,1800.00,33000.00,M,M,M,YBBN 210830Z 02014KT 9999 FEW018 SCT330 24/18 Q1014
YBBN,2011-11-21 09:00,153.1292,-27.3917,75.20,64.40,69.14,30.00,13.00,M,29.94,M,6.21,M,M,M,M,M,M,M,M,M,M,YBBN 210900Z 03013KT CAVOK 24/18 Q1014
YBBN,2011-11-21 09:30,153.1292,-27.3917,73.40,66.20,78.19,20.00,13.00,M,29.97,M,6.21,M,FEW,SCT,M,M,1800.00,33000.00,M,M,M,YBBN 210930Z 02013KT 9999 FEW018 SCT330 23/19 Q1015
YBBN,2011-11-21 10:00,153.1292,-27.3917,73.40,64.40,73.44,30.00,15.00,M,29.97,M,6.21,M,FEW,M,M,M,1800.00,M,M,M,M,YBBN 211000Z 03015KT 9999 FEW018 23/18 Q1015 NOSIG
YBBN,2011-11-21 10:30,153.1292,-27.3917,73.40,64.40,73.44,20.00,14.00,M,30.00,M,6.21,M,FEW,M,M,M,2300.00,M,M,M,M,YBBN 211030Z 02014KT 9999 FEW023 23/18 Q1016
YBBN,2011-11-21 11:00,153.1292,-27.3917,73.40,64.40,73.44,20.00,14.00,M,30.00,M,6.21,M,FEW,M,M,M,2300.00,M,M,M,M,YBBN 211100Z 02014KT 9999 FEW023 23/18 Q1016 NOSIG
YBBN,2011-11-21 11:30,153.1292,-27.3917,73.40,62.60,68.94,30.00,14.00,M,30.00,M,6.21,M,FEW,M,M,M,2300.00,M,M,M,M,YBBN 211130Z 03014KT 9999 FEW023 23/17 Q1016
YBBN,2011-11-21 12:00,153.1292,-27.3917,73.40,64.40,73.44,20.00,14.00,M,30.00,M,6.21,M,FEW,M,M,M,2500.00,M,M,M,M,YBBN 211200Z 02014KT 9999 FEW025 23/18 Q1016 NOSIG
YBBN,2011-11-21 12:30,153.1292,-27.3917,73.40,64.40,73.44,20.00,13.00,M,30.00,M,6.21,M,FEW,M,M,M,2700.00,M,M,M,M,YBBN 211230Z 02013KT 9999 FEW027 23/18 Q1016
YBBN,2011-11-21 13:00,153.1292,-27.3917,73.40,62.60,68.94,30.00,15.00,M,30.00,M,6.21,M,FEW,M,M,M,2700.00,M,M,M,M,YBBN 211300Z 03015KT 9999 FEW027 23/17 Q1016 NOSIG
YBBN,2011-11-21 13:30,153.1292,-27.3917,73.40,62.60,68.94,10.00,15.00,M,30.00,M,6.21,M,FEW,M,M,M,2700.00,M,M,M,M,YBBN 211330Z 01015KT 9999 FEW027 23/17 Q1016
YBBN,2011-11-21 14:00,153.1292,-27.3917,73.40,60.80,64.69,20.00,14.00,M,29.97,M,6.21,M,FEW,M,M,M,3000.00,M,M,M,M,YBBN 211400Z 02014KT 9999 FEW030 23/16 Q1015 NOSIG
YBBN,2011-11-21 14:30,153.1292,-27.3917,73.40,60.80,64.69,20.00,15.00,M,29.97,M,6.21,M,SCT,M,M,M,3300.00,M,M,M,M,YBBN 211430Z 02015KT 9999 SCT033 23/16 Q1015
YBBN,2011-11-21 15:00,153.1292,-27.3917,73.40,60.80,64.69,10.00,13.00,M,29.94,M,6.21,M,FEW,M,M,M,3300.00,M,M,M,M,YBBN 211500Z 01013KT 9999 FEW033 23/16 Q1014 NOSIG
YBBN,2011-11-21 15:30,153.1292,-27.3917,71.60,60.80,68.75,10.00,14.00,M,29.94,M,6.21,M,FEW,M,M,M,3300.00,M,M,M,M,YBBN 211530Z 01014KT 9999 FEW033 22/16 Q1014
YBBN,2011-11-21 16:00,153.1292,-27.3917,71.60,60.80,68.75,360.00,13.00,M,29.94,M,6.21,M,FEW,M,M,M,3300.00,M,M,M,M,YBBN 211600Z 36013KT 9999 FEW033 22/16 Q1014 NOSIG
YBBN,2011-11-21 16:30,153.1292,-27.3917,71.60,60.80,68.75,360.00,11.00,M,29.94,M,6.21,M,FEW,M,M,M,3300.00,M,M,M,M,YBBN 211630Z 36011KT 9999 FEW033 22/16 Q1014
YBBN,2011-11-21 17:00,153.1292,-27.3917,71.60,62.60,73.27,330.00,7.00,M,29.94,M,6.21,18.00,FEW,M,M,M,3300.00,M,M,M,M,YBBN 211700Z 33007G18KT 9999 FEW033 22/17 Q1014 NOSIG
YBBN,2011-11-21 17:30,153.1292,-27.3917,68.00,60.80,77.75,310.00,5.00,M,29.94,M,6.21,M,FEW,M,M,M,2700.00,M,M,M,M,YBBN 211730Z 31005KT 9999 FEW027 20/16 Q1014
YBBN,2011-11-21 18:00,153.1292,-27.3917,68.00,60.80,77.75,310.00,5.00,M,29.94,M,6.21,M,FEW,SCT,M,M,2700.00,3300.00,M,M,M,YBBN 211800Z 31005KT 9999 FEW027 SCT033 20/16 Q1014 NOSIG
YBBN,2011-11-21 18:30,153.1292,-27.3917,66.20,60.80,82.74,270.00,5.00,M,29.94,M,6.21,M,FEW,SCT,M,M,2700.00,3300.00,M,M,M,YBBN 211830Z 27005KT 9999 FEW027 SCT033 19/16 Q1014
YBBN,2011-11-21 19:00,153.1292,-27.3917,68.00,60.80,77.75,270.00,5.00,M,29.94,M,6.21,M,FEW,BKN,M,M,2700.00,30000.00,M,M,M,YBBN 211900Z 27005KT 9999 FEW027 BKN300 20/16 Q1014
YBBN,2011-11-21 19:30,153.1292,-27.3917,68.00,60.80,77.75,250.00,4.00,M,29.94,M,6.21,M,FEW,BKN,M,M,2700.00,31000.00,M,M,M,YBBN 211930Z 25004KT 9999 FEW027 BKN310 20/16 Q1014
YBBN,2011-11-21 20:00,153.1292,-27.3917,71.60,62.60,73.27,240.00,5.00,M,29.97,M,6.21,M,SCT,BKN,M,M,3300.00,31000.00,M,M,M,YBBN 212000Z 24005KT 9999 SCT033 BKN310 22/17 Q1015 NOSIG
YBBN,2011-11-21 20:30,153.1292,-27.3917,75.20,60.80,60.90,270.00,5.00,M,29.97,M,6.21,M,FEW,BKN,M,M,3300.00,31000.00,M,M,M,YBBN 212030Z 27005KT 9999 FEW033 BKN310 24/16 Q1015
YBBN,2011-11-21 21:00,153.1292,-27.3917,75.20,60.80,60.90,330.00,5.00,M,29.97,M,6.21,M,SCT,BKN,M,M,3500.00,31000.00,M,M,M,YBBN 212100Z 33005KT 9999 SCT035 BKN310 24/16 Q1015 NOSIG
YBBN,2011-11-21 21:30,153.1292,-27.3917,75.20,62.60,64.91,340.00,7.00,M,29.97,M,6.21,M,SCT,BKN,M,M,3500.00,31000.00,M,M,M,YBBN 212130Z 34007KT 9999 SCT035 BKN310 24/17 Q1015
YBBN,2011-11-21 22:00,153.1292,-27.3917,77.00,62.60,61.13,340.00,8.00,M,29.97,M,6.21,M,SCT,BKN,M,M,2800.00,31000.00,M,M,M,YBBN 212200Z 34008KT 9999 SCT028 BKN310 25/17 Q1015 NOSIG
YBBN,2011-11-21 22:30,153.1292,-27.3917,77.00,62.60,61.13,360.00,8.00,M,29.97,M,6.21,M,FEW,BKN,M,M,2800.00,31000.00,M,M,M,YBBN 212230Z 36008KT 9999 FEW028 BKN310 25/17 Q1015
YBBN,2011-11-21 23:00,153.1292,-27.3917,78.80,64.40,61.36,10.00,8.00,M,29.97,M,6.21,M,FEW,BKN,M,M,2800.00,31000.00,M,M,M,YBBN 212300Z 01008KT 9999 FEW028 BKN310 26/18 Q1015 NOSIG
YBBN,2011-11-21 23:30,153.1292,-27.3917,78.80,64.40,61.36,10.00,10.00,M,29.97,M,6.21,M,FEW,BKN,M,M,2800.00,31000.00,M,M,M,YBBN 212330Z 01010KT 9999 FEW028 BKN310 26/18 Q1015
