#DEBUG: Format Typ    -> comma
#DEBUG: Time Period   -> 2012-07-13 00:00:00+00:00 2012-07-14 00:00:00+00:00
#DEBUG: Time Zone     -> Etc/UTC
#DEBUG: Data Contact   -> daryl herzmann akrherz@iastate.edu 515-294-5978
#DEBUG: Entries Found -> -1
station,valid,lon,lat,tmpf, dwpf, relh, drct, sknt, p01i, alti, mslp, vsby, gust, skyc1, skyc2, skyc3, skyc4, skyl1, skyl2, skyl3, skyl4, presentwx, metar
YBBN,2012-07-13 00:00,153.1292,-27.3917,69.80,66.20,88.34,350.00,9.00,0.00,30.03,M,6.21,M,SCT,SCT,BKN,M,600.00,4000.00,8800.00,M,VCSH,YBBN 130000Z 35009KT 9999 VCSH SCT006 SCT040 BKN088 21/19 Q1017 RMK LOW CLOUD S/SW
YBBN,2012-07-13 00:30,153.1292,-27.3917,71.60,66.20,83.09,350.00,9.00,0.00,30.00,M,6.21,M,FEW,SCT,BKN,M,700.00,5200.00,8500.00,M,VCSH,YBBN 130030Z 35009KT 9999 VCSH FEW007 SCT052 BKN085 22/19 Q1016
YBBN,2012-07-13 00:54,153.1292,-27.3917,69.80,66.20,88.34,360.00,9.00,0.00,30.00,M,3.73,M,FEW,SCT,BKN,M,700.00,3800.00,5700.00,M,-SHRA VCSH,YBBN 130054Z 36009KT 6000 -SHRA VCSH FEW007 SCT038 BKN057 21/19 Q1016
YBBN,2012-07-13 01:00,153.1292,-27.3917,69.80,66.20,88.34,360.00,9.00,0.00,30.00,M,3.11,M,FEW,SCT,BKN,M,700.00,3200.00,5700.00,M,-SHRA VCSH,YBBN 130100Z 36009KT 5000 -SHRA VCSH FEW007 SCT032 BKN057 21/19 Q1016
YBBN,2012-07-13 01:16,153.1292,-27.3917,69.80,68.00,94.01,360.00,9.00,0.00,30.00,M,3.73,M,FEW,SCT,BKN,M,600.00,1700.00,5700.00,M,-SHRA VCSH,YBBN 130116Z 36009KT 6000 -SHRA VCSH FEW006 SCT017 BKN057 21/20 Q1016
YBBN,2012-07-13 01:23,153.1292,-27.3917,69.80,66.20,88.34,360.00,10.00,0.00,30.00,M,3.73,M,FEW,SCT,BKN,M,600.00,1700.00,11000.00,M,-SHRA VCSH,YBBN 130123Z 36010KT 6000 -SHRA VCSH FEW006 SCT017 BKN110 21/19 Q1016
YBBN,2012-07-13 01:30,153.1292,-27.3917,69.80,66.20,88.34,360.00,10.00,0.00,30.00,M,4.97,M,FEW,SCT,BKN,M,600.00,1900.00,10500.00,M,-SHRA VCSH,YBBN 130130Z 36010KT 8000 -SHRA VCSH FEW006 SCT019 BKN105 21/19 Q1016
YBBN,2012-07-13 02:00,153.1292,-27.3917,69.80,66.20,88.34,360.00,9.00,0.00,29.97,M,4.97,M,FEW,SCT,BKN,M,700.00,1200.00,5800.00,M,-SHRA VCSH,YBBN 130200Z 36009KT 8000 -SHRA VCSH FEW007 SCT012 BKN058 21/19 Q1015
YBBN,2012-07-13 02:30,153.1292,-27.3917,69.80,66.20,88.34,360.00,9.00,0.00,29.97,M,5.59,M,FEW,SCT,BKN,M,700.00,1200.00,4200.00,M,-SHRA VCSH,YBBN 130230Z 36009KT 9000 -SHRA VCSH FEW007 SCT012 BKN042 21/19 Q1015
YBBN,2012-07-13 03:00,153.1292,-27.3917,69.80,66.20,88.34,10.00,10.00,0.00,29.94,M,5.59,M,FEW,BKN,M,M,500.00,1200.00,M,M,-DZ VCSH,YBBN 130300Z 01010KT 9000 -DZ VCSH FEW005 BKN012 21/19 Q1014
YBBN,2012-07-13 03:06,153.1292,-27.3917,68.00,66.20,93.97,10.00,9.00,0.00,29.94,M,3.73,M,SCT,BKN,M,M,500.00,1000.00,M,M,-SHRA VCSH,YBBN 130306Z 01009KT 6000 -SHRA VCSH SCT005 BKN010 20/19 Q1014
YBBN,2012-07-13 03:16,153.1292,-27.3917,68.00,68.00,100.00,10.00,9.00,0.00,29.94,M,3.11,M,SCT,SCT,BKN,M,500.00,900.00,1800.00,M,-SHRADZ VCSH,YBBN 130316Z 01009KT 5000 -SHRADZ VCSH SCT005 SCT009 BKN018 20/20 Q1014
YBBN,2012-07-13 03:30,153.1292,-27.3917,68.00,68.00,100.00,10.00,9.00,0.00,29.94,M,3.11,M,FEW,SCT,BKN,M,200.00,500.00,1000.00,M,-SHRADZ VCSH,YBBN 130330Z 01009KT 5000 -SHRADZ VCSH FEW002 SCT005 BKN010 20/20 Q1014
YBBN,2012-07-13 03:54,153.1292,-27.3917,68.00,68.00,100.00,10.00,9.00,0.00,29.94,M,2.49,M,FEW,BKN,M,M,100.00,200.00,M,M,-SHRADZ VCSH,YBBN 130354Z 01009KT 4000 -SHRADZ VCSH FEW001 BKN002 20/20 Q1014
YBBN,2012-07-13 04:00,153.1292,-27.3917,68.00,68.00,100.00,10.00,10.00,0.00,29.94,M,2.49,M,FEW,BKN,M,M,100.00,200.00,M,M,-SHRADZ VCSH,YBBN 130400Z 01010KT 4000 -SHRADZ VCSH FEW001 BKN002 20/20 Q1014
YBBN,2012-07-13 04:13,153.1292,-27.3917,68.00,68.00,100.00,10.00,11.00,0.00,29.94,M,2.49,M,SCT,BKN,M,M,100.00,200.00,M,M,-SHRADZ VCSH,YBBN 130413Z 01011KT 4000 -SHRADZ VCSH SCT001 BKN002 20/20 Q1014
YBBN,2012-07-13 04:30,153.1292,-27.3917,68.00,66.20,93.97,10.00,12.00,0.00,29.94,M,1.86,M,FEW,SCT,BKN,M,100.00,200.00,500.00,M,DZ VCSH,YBBN 130430Z 01012KT 3000 DZ VCSH FEW001 SCT002 BKN005 20/19 Q1014
YBBN,2012-07-13 04:45,153.1292,-27.3917,68.00,66.20,93.97,10.00,12.00,0.00,29.94,M,2.49,M,FEW,SCT,BKN,M,100.00,200.00,900.00,M,-SHRADZ VCSH,YBBN 130445Z 01012KT 4000 -SHRADZ VCSH FEW001 SCT002 BKN009 20/19 Q1014
YBBN,2012-07-13 05:00,153.1292,-27.3917,68.00,66.20,93.97,10.00,11.00,0.00,29.94,M,3.11,M,FEW,SCT,BKN,M,200.00,300.00,1400.00,M,-DZ VCSH,YBBN 130500Z 01011KT 5000 -DZ VCSH FEW002 SCT003 BKN014 20/19 Q1014
YBBN,2012-07-13 05:16,153.1292,-27.3917,68.00,66.20,93.97,20.00,11.00,0.00,29.94,M,3.11,M,FEW,BKN,M,M,200.00,300.00,M,M,-SHRADZ VCSH,YBBN 130516Z 02011KT 5000 -SHRADZ VCSH FEW002 BKN003 20/19 Q1014
YBBN,2012-07-13 05:30,153.1292,-27.3917,66.20,66.20,100.00,20.00,12.00,0.00,29.94,M,3.11,M,FEW,BKN,M,M,200.00,300.00,M,M,-SHRADZ VCSH,YBBN 130530Z 02012KT 5000 -SHRADZ VCSH FEW002 BKN003 19/19 Q1014
YBBN,2012-07-13 05:42,153.1292,-27.3917,66.20,66.20,100.00,20.00,11.00,0.00,29.94,M,2.49,M,SCT,SCT,BKN,M,300.00,1200.00,1700.00,M,-SHRADZ VCSH,YBBN 130542Z 02011KT 4000 -SHRADZ VCSH SCT003 SCT012 BKN017 19/19 Q1014
YBBN,2012-07-13 05:51,153.1292,-27.3917,66.20,66.20,100.00,20.00,9.00,0.00,29.94,M,2.49,M,FEW,SCT,BKN,M,200.00,1000.00,2000.00,M,-DZ BR,YBBN 130551Z 02009KT 4000 -DZ BR FEW002 SCT010 BKN020 19/19 Q1014
YBBN,2012-07-13 06:00,153.1292,-27.3917,66.20,66.20,100.00,20.00,9.00,0.00,29.91,M,3.11,M,FEW,SCT,BKN,M,200.00,1000.00,3600.00,M,-DZ BR,YBBN 130600Z 02009KT 5000 -DZ BR FEW002 SCT010 BKN036 19/19 Q1013
YBBN,2012-07-13 06:11,153.1292,-27.3917,66.20,66.20,100.00,10.00,10.00,0.00,29.91,M,3.73,M,FEW,SCT,BKN,M,300.00,1200.00,3000.00,M,-DZ,YBBN 130611Z 01010KT 6000 -DZ FEW003 SCT012 BKN030 19/19 Q1013
YBBN,2012-07-13 06:30,153.1292,-27.3917,66.20,66.20,100.00,10.00,9.00,0.00,29.94,M,3.73,M,SCT,SCT,BKN,M,300.00,1200.00,3200.00,M,-DZ,YBBN 130630Z 01009KT 6000 -DZ SCT003 SCT012 BKN032 19/19 Q1014
YBBN,2012-07-13 07:00,153.1292,-27.3917,66.20,66.20,100.00,10.00,10.00,0.00,29.94,M,4.97,M,FEW,SCT,BKN,M,300.00,3000.00,5800.00,M,-DZ,YBBN 130700Z 01010KT 8000 -DZ FEW003 SCT030 BKN058 19/19 Q1014
YBBN,2012-07-13 07:30,153.1292,-27.3917,66.20,64.40,93.92,10.00,11.00,0.00,29.94,M,3.73,M,FEW,SCT,BKN,M,300.00,1000.00,4400.00,M,-DZ VCSH,YBBN 130730Z 01011KT 6000 -DZ VCSH FEW003 SCT010 BKN044 19/18 Q1014
YBBN,2012-07-13 07:45,153.1292,-27.3917,66.20,64.40,93.92,10.00,11.00,0.00,29.94,M,2.49,M,FEW,SCT,BKN,M,300.00,1000.00,4000.00,M,-SHRA VCSH,YBBN 130745Z 01011KT 4000 -SHRA VCSH FEW003 SCT010 BKN040 19/18 Q1014
YBBN,2012-07-13 08:00,153.1292,-27.3917,66.20,64.40,93.92,10.00,11.00,0.00,29.94,M,3.11,M,FEW,SCT,BKN,M,300.00,900.00,3800.00,M,-SHRA VCSH,YBBN 130800Z 01011KT 5000 -SHRA VCSH FEW003 SCT009 BKN038 19/18 Q1014
YBBN,2012-07-13 08:10,153.1292,-27.3917,66.20,64.40,93.92,10.00,11.00,0.00,29.94,M,3.73,M,FEW,SCT,BKN,M,300.00,1200.00,4400.00,M,-SHRA VCSH,YBBN 130810Z 01011KT 6000 -SHRA VCSH FEW003 SCT012 BKN044 19/18 Q1014
YBBN,2012-07-13 08:30,153.1292,-27.3917,66.20,64.40,93.92,10.00,10.00,0.00,29.94,M,4.97,M,SCT,SCT,BKN,M,300.00,500.00,4800.00,M,-SHRA VCSH,YBBN 130830Z 01010KT 8000 -SHRA VCSH SCT003 SCT005 BKN048 19/18 Q1014
YBBN,2012-07-13 08:52,153.1292,-27.3917,66.20,64.40,93.92,10.00,9.00,0.00,29.94,M,5.59,M,FEW,SCT,BKN,M,300.00,600.00,4500.00,M,-DZ VCSH,YBBN 130852Z 01009KT 9000 -DZ VCSH FEW003 SCT006 BKN045 19/18 Q1014
YBBN,2012-07-13 09:00,153.1292,-27.3917,66.20,64.40,93.92,10.00,10.00,0.00,29.94,M,5.59,M,FEW,BKN,BKN,M,300.00,3500.00,5500.00,M,-DZ VCSH,YBBN 130900Z 01010KT 9000 -DZ VCSH FEW003 BKN035 BKN055 19/18 Q1014
YBBN,2012-07-13 09:30,153.1292,-27.3917,66.20,64.40,93.92,360.00,9.00,0.00,29.97,M,1.86,M,FEW,SCT,BKN,M,300.00,600.00,2500.00,M,-SHRA,YBBN 130930Z 36009KT 3000 -SHRA FEW003 SCT006 BKN025 19/18 Q1015
YBBN,2012-07-13 10:00,153.1292,-27.3917,66.20,66.20,100.00,360.00,8.00,0.00,29.97,M,2.80,M,FEW,SCT,BKN,M,200.00,500.00,1700.00,M,-SHRA -DZ,YBBN 131000Z 36008KT 4500 -SHRA -DZ FEW002 SCT005 BKN017 19/19 Q1015
YBBN,2012-07-13 10:30,153.1292,-27.3917,66.20,66.20,100.00,360.00,7.00,0.00,29.97,M,1.86,M,FEW,SCT,BKN,M,200.00,500.00,1700.00,M,-SHRA,YBBN 131030Z 36007KT 3000 -SHRA FEW002 SCT005 BKN017 19/19 Q1015
YBBN,2012-07-13 10:49,153.1292,-27.3917,66.20,66.20,100.00,350.00,6.00,0.00,29.97,M,4.35,M,FEW,SCT,BKN,M,200.00,600.00,1700.00,M,-DZ VCSH,YBBN 131049Z 35006KT 7000 -DZ VCSH FEW002 SCT006 BKN017 19/19 Q1015 TEMPO 1049/1349 2000 DZ RA BKN004
YBBN,2012-07-13 11:00,153.1292,-27.3917,66.20,66.20,100.00,350.00,7.00,0.00,29.97,M,4.35,M,FEW,SCT,BKN,M,300.00,600.00,1800.00,M,-DZ,YBBN 131100Z 35007KT 7000 -DZ FEW003 SCT006 BKN018 19/19 Q1015 TEMPO 1100/1400 2000 DZ RA BKN004
YBBN,2012-07-13 11:22,153.1292,-27.3917,66.20,64.40,93.92,360.00,6.00,0.00,29.97,M,5.59,M,FEW,BKN,BKN,M,300.00,2000.00,3000.00,M,VCSH,YBBN 131122Z 36006KT 9000 VCSH FEW003 BKN020 BKN030 19/18 Q1015 TEMPO 1122/1422 2000 DZ RA BKN004
YBBN,2012-07-13 11:30,153.1292,-27.3917,66.20,66.20,100.00,360.00,6.00,0.00,29.94,M,5.59,M,FEW,SCT,BKN,M,300.00,1500.00,2000.00,M,VCSH,YBBN 131130Z 36006KT 9000 VCSH FEW003 SCT015 BKN020 19/19 Q1014
YBBN,2012-07-13 11:45,153.1292,-27.3917,66.20,64.40,93.92,360.00,6.00,0.00,29.94,M,6.21,M,FEW,BKN,M,M,600.00,1200.00,M,M,M,YBBN 131145Z 36006KT 9999 FEW006 BKN012 19/18 Q1014 TEMPO 1145/1445 2000 DZ RA BKN004
YBBN,2012-07-13 12:00,153.1292,-27.3917,66.20,66.20,100.00,360.00,6.00,0.00,29.94,M,6.21,M,FEW,SCT,BKN,M,500.00,1000.00,1200.00,M,M,YBBN 131200Z 36006KT 9999 FEW005 SCT010 BKN012 19/19 Q1014
YBBN,2012-07-13 12:30,153.1292,-27.3917,66.20,64.40,93.92,360.00,5.00,0.00,29.94,M,6.21,M,FEW,BKN,OVC,M,500.00,800.00,2500.00,M,M,YBBN 131230Z 36005KT 9999 FEW005 BKN008 OVC025 19/18 Q1014 TEMPO 1230/1530 2000 DZ RA BKN004
YBBN,2012-07-13 13:00,153.1292,-27.3917,66.20,64.40,93.92,360.00,3.00,0.00,29.94,M,6.21,M,FEW,OVC,M,M,600.00,800.00,M,M,M,YBBN 131300Z 36003KT 9999 FEW006 OVC008 19/18 Q1014
YBBN,2012-07-13 13:30,153.1292,-27.3917,66.20,66.20,100.00,360.00,7.00,0.00,29.94,M,6.21,M,FEW,BKN,OVC,M,500.00,800.00,1400.00,M,VCSH,YBBN 131330Z 36007KT 9999 VCSH FEW005 BKN008 OVC014 19/19 Q1014
YBBN,2012-07-13 14:00,153.1292,-27.3917,66.20,66.20,100.00,360.00,6.00,0.00,29.94,M,3.73,M,FEW,BKN,OVC,M,500.00,800.00,1200.00,M,-DZ,YBBN 131400Z 36006KT 6000 -DZ FEW005 BKN008 OVC012 19/19 Q1014
YBBN,2012-07-13 14:17,153.1292,-27.3917,66.20,66.20,100.00,330.00,5.00,0.00,29.94,M,3.73,M,SCT,OVC,M,M,300.00,800.00,M,M,-DZ,YBBN 131417Z 33005KT 6000 3000SW -DZ SCT003 OVC008 19/19 Q1014
YBBN,2012-07-13 14:30,153.1292,-27.3917,66.20,66.20,100.00,270.00,4.00,0.00,29.94,M,4.97,M,FEW,SCT,OVC,M,300.00,500.00,800.00,M,-DZ,YBBN 131430Z 27004KT 8000 -DZ FEW003 SCT005 OVC008 19/19 Q1014
YBBN,2012-07-13 14:43,153.1292,-27.3917,66.20,64.40,93.92,210.00,5.00,0.00,29.94,M,1.86,M,OVC,M,M,M,500.00,M,M,M,-SHRA -DZ,YBBN 131443Z 21005KT 3000 -SHRA -DZ OVC005 19/18 Q1014
YBBN,2012-07-13 15:00,153.1292,-27.3917,66.20,64.40,93.92,190.00,7.00,0.00,29.94,M,4.35,M,SCT,OVC,M,M,500.00,800.00,M,M,-DZ VCSH,YBBN 131500Z 19007KT 7000 -DZ VCSH SCT005 OVC008 19/18 Q1014
YBBN,2012-07-13 15:14,153.1292,-27.3917,66.20,64.40,93.92,200.00,6.00,0.00,29.91,M,3.11,M,FEW,OVC,M,M,500.00,800.00,M,M,-SHRA -DZ,YBBN 131514Z 20006KT 5000 -SHRA -DZ FEW005 OVC008 19/18 Q1013
YBBN,2012-07-13 15:30,153.1292,-27.3917,66.20,64.40,93.92,230.00,7.00,0.00,29.94,M,3.11,M,FEW,BKN,OVC,M,200.00,1200.00,1600.00,M,-DZ VCSH,YBBN 131530Z 23007KT 5000 -DZ VCSH FEW002 BKN012 OVC016 19/18 Q1014
YBBN,2012-07-13 16:00,153.1292,-27.3917,66.20,66.20,100.00,270.00,5.00,0.00,29.91,M,2.17,M,FEW,SCT,BKN,M,600.00,1500.00,2500.00,M,-RA -DZ,YBBN 131600Z 27005KT 3500 -RA -DZ FEW006 SCT015 BKN025 19/19 Q1013
YBBN,2012-07-13 16:30,153.1292,-27.3917,66.20,64.40,93.92,240.00,5.00,0.00,29.91,M,4.35,M,FEW,SCT,OVC,M,400.00,1500.00,3500.00,M,-DZ,YBBN 131630Z 24005KT 7000 -DZ FEW004 SCT015 OVC035 19/18 Q1013
YBBN,2012-07-13 16:48,153.1292,-27.3917,66.20,64.40,93.92,250.00,3.00,0.00,29.91,M,2.80,M,FEW,SCT,OVC,M,600.00,1500.00,3500.00,M,-SHRA -DZ,YBBN 131648Z 25003KT 4500 -SHRA -DZ FEW006 SCT015 OVC035 19/18 Q1013
YBBN,2012-07-13 17:00,153.1292,-27.3917,66.20,64.40,93.92,260.00,1.00,0.00,29.91,M,3.73,M,M,M,M,M,M,M,M,M,-RA -DZ,YBBN 131700Z 26001KT 6000 -RA -DZ 19/18 Q1013
YBBN,2012-07-13 17:12,153.1292,-27.3917,66.20,64.40,93.92,280.00,2.00,0.00,29.91,M,3.11,M,FEW,SCT,BKN,M,300.00,1500.00,2500.00,M,-RA -DZ,YBBN 131712Z 28002KT 5000 -RA -DZ FEW003 SCT015 BKN025 19/18 Q1013
YBBN,2012-07-13 17:30,153.1292,-27.3917,66.20,64.40,93.92,280.00,1.00,0.00,29.91,M,3.73,M,FEW,SCT,OVC,M,600.00,2500.00,3500.00,M,VCSH,YBBN 131730Z 28001KT 6000 VCSH FEW006 SCT025 OVC035 19/18 Q1013
YBBN,2012-07-13 17:48,153.1292,-27.3917,66.20,64.40,93.92,350.00,4.00,0.00,29.91,M,6.21,M,FEW,SCT,OVC,M,400.00,1800.00,3000.00,M,VCSH,YBBN 131748Z 35004KT 9999 VCSH FEW004 SCT018 OVC030 19/18 Q1013
YBBN,2012-07-13 18:00,153.1292,-27.3917,66.20,64.40,93.92,350.00,5.00,0.00,29.91,M,6.21,M,FEW,BKN,OVC,M,300.00,3000.00,4500.00,M,-DZ,YBBN 131800Z 35005KT 9999 -DZ FEW003 BKN030 OVC045 19/18 Q1013
YBBN,2012-07-13 18:25,153.1292,-27.3917,66.20,64.40,93.92,360.00,5.00,0.00,29.91,M,6.21,M,BKN,BKN,M,M,100.00,3500.00,M,M,-DZ,YBBN 131825Z 36005KT 9999 -DZ BKN001 BKN035 19/18 Q1013
YBBN,2012-07-13 18:30,153.1292,-27.3917,66.20,64.40,93.92,360.00,5.00,0.00,29.91,M,6.21,M,BKN,BKN,M,M,100.00,3000.00,M,M,M,YBBN 131830Z 36005KT 9999 BKN001 BKN030 19/18 Q1013
YBBN,2012-07-13 18:41,153.1292,-27.3917,66.20,64.40,93.92,360.00,5.00,0.00,29.91,M,3.73,M,OVC,M,M,M,100.00,M,M,M,BR,YBBN 131841Z 36005KT 6000 2500W BR OVC001 19/18 Q1013
YBBN,2012-07-13 19:01,153.1292,-27.3917,64.40,64.40,100.00,360.00,6.00,0.00,29.91,M,3.11,M,BKN,SCT,OVC,M,100.00,300.00,4000.00,M,-DZ BR,YBBN 131901Z 36006KT 5000 -DZ BR BKN001 SCT003 OVC040 18/18 Q1013
YBBN,2012-07-13 19:13,153.1292,-27.3917,64.40,64.40,100.00,10.00,5.00,0.00,29.91,M,4.97,M,SCT,SCT,OVC,M,100.00,300.00,4000.00,M,M,YBBN 131913Z 01005KT 8000 SCT001 SCT003 OVC040 18/18 Q1013
YBBN,2012-07-13 19:30,153.1292,-27.3917,64.40,64.40,100.00,20.00,1.00,0.00,29.94,M,6.21,M,SCT,OVC,M,M,100.00,4500.00,M,M,-DZ,YBBN 131930Z 02001KT 9999 -DZ SCT001 OVC045 18/18 Q1014
YBBN,2012-07-13 20:00,153.1292,-27.3917,66.20,64.40,93.92,300.00,2.00,0.00,29.94,M,6.21,M,FEW,OVC,M,M,200.00,4500.00,M,M,M,YBBN 132000Z 30002KT 9999 FEW002 OVC045 19/18 Q1014
YBBN,2012-07-13 20:22,153.1292,-27.3917,66.20,64.40,93.92,240.00,7.00,0.00,29.97,M,3.73,M,FEW,SCT,BKN,M,200.00,500.00,4200.00,M,-DZ VCSH,YBBN 132022Z 24007KT 6000 -DZ VCSH FEW002 SCT005 BKN042 19/18 Q1015
YBBN,2012-07-13 20:30,153.1292,-27.3917,66.20,64.40,93.92,250.00,6.00,0.00,29.97,M,3.73,M,FEW,SCT,BKN,M,200.00,500.00,4200.00,M,-SHRADZ VCSH,YBBN 132030Z 25006KT 6000 -SHRADZ VCSH FEW002 SCT005 BKN042 19/18 Q1015
YBBN,2012-07-13 21:00,153.1292,-27.3917,66.20,64.40,93.92,220.00,7.00,0.00,29.97,M,3.73,M,FEW,SCT,BKN,M,200.00,600.00,1700.00,M,-SHRADZ VCSH,YBBN 132100Z 22007KT 6000 -SHRADZ VCSH FEW002 SCT006 BKN017 19/18 Q1015
YBBN,2012-07-13 21:19,153.1292,-27.3917,64.40,62.60,93.88,240.00,8.00,0.00,30.00,M,4.97,M,FEW,SCT,BKN,M,200.00,500.00,1700.00,M,-DZ VCSH,YBBN 132119Z 24008KT 8000 -DZ VCSH FEW002 SCT005 BKN017 18/17 Q1016
YBBN,2012-07-13 21:30,153.1292,-27.3917,64.40,62.60,93.88,250.00,8.00,0.00,30.00,M,5.59,M,FEW,SCT,BKN,M,200.00,1500.00,1700.00,M,-DZ VCSH,YBBN 132130Z 25008KT 9000 -DZ VCSH FEW002 SCT015 BKN017 18/17 Q1016
YBBN,2012-07-13 22:00,153.1292,-27.3917,66.20,62.60,88.18,230.00,8.00,0.00,30.00,M,6.21,M,FEW,SCT,BKN,M,500.00,1700.00,2200.00,M,VCSH,YBBN 132200Z 23008KT 9999 VCSH FEW005 SCT017 BKN022 19/17 Q1016
YBBN,2012-07-13 22:30,153.1292,-27.3917,66.20,62.60,88.18,220.00,8.00,0.00,30.00,M,6.21,M,FEW,SCT,BKN,M,700.00,4900.00,8000.00,M,M,YBBN 132230Z 22008KT 9999 FEW007 SCT049 BKN080 19/17 Q1016
YBBN,2012-07-13 23:00,153.1292,-27.3917,68.00,62.60,82.86,180.00,5.00,0.00,30.00,M,6.21,M,FEW,SCT,BKN,M,800.00,5200.00,9500.00,M,M,YBBN 132300Z 18005KT 9999 FEW008 SCT052 BKN095 20/17 Q1016 INTER 2300/0200 4000 SHRA BKN010
YBBN,2012-07-13 23:30,153.1292,-27.3917,68.00,60.80,77.75,230.00,7.00,0.00,30.03,M,6.21,M,FEW,BKN,M,M,1100.00,5200.00,M,M,VCSH,YBBN 132330Z 23007KT 9999 VCSH FEW011 BKN052 20/16 Q1017
