#DEBUG: Format Typ    -> comma
#DEBUG: Time Period   -> 2013-07-18 00:00:00+00:00 2013-07-19 00:00:00+00:00
#DEBUG: Time Zone     -> Etc/UTC
#DEBUG: Data Contact   -> daryl herzmann akrherz@iastate.edu 515-294-5978
#DEBUG: Entries Found -> -1
station,valid,lon,lat,tmpf, dwpf, relh, drct, sknt, p01i, alti, mslp, vsby, gust, skyc1, skyc2, skyc3, skyc4, skyl1, skyl2, skyl3, skyl4, presentwx, metar
YBBN,2013-07-18 00:00,153.1292,-27.3917,64.40,62.60,93.88,110.00,4.00,0.00,30.24,M,2.49,M,FEW,SCT,BKN,M,500.00,1400.00,3800.00,M,-SHRA VCSH,YBBN 180000Z 11004KT 4000 -SHRA VCSH FEW005 SCT014 BKN038 18/17 Q1024
YBBN,2013-07-18 00:11,153.1292,-27.3917,66.20,62.60,88.18,40.00,3.00,0.00,30.24,M,3.73,M,FEW,SCT,BKN,M,500.00,1400.00,3800.00,M,-SHRA VCSH,YBBN 180011Z 04003KT 6000 -SHRA VCSH FEW005 SCT014 BKN038 19/17 Q1024
YBBN,2013-07-18 00:30,153.1292,-27.3917,64.40,60.80,88.09,90.00,2.00,0.00,30.24,M,6.21,M,FEW,SCT,BKN,M,400.00,1400.00,3700.00,M,-SHRA VCSH,YBBN 180030Z 09002KT 9999 -SHRA VCSH FEW004 SCT014 BKN037 18/16 Q1024
YBBN,2013-07-18 00:40,153.1292,-27.3917,64.40,62.60,93.88,90.00,3.00,0.00,30.24,M,2.49,M,FEW,SCT,BKN,M,400.00,1000.00,2400.00,M,SHRA VCSH,YBBN 180040Z 09003KT 4000 SHRA VCSH FEW004 SCT010 BKN024 18/17 Q1024
YBBN,2013-07-18 00:52,153.1292,-27.3917,66.20,62.60,88.18,110.00,3.00,0.00,30.24,M,3.73,M,FEW,SCT,BKN,M,400.00,1500.00,2400.00,M,SHRA VCSH,YBBN 180052Z 11003KT 6000 SHRA VCSH FEW004 SCT015 BKN024 19/17 Q1024
YBBN,2013-07-18 01:00,153.1292,-27.3917,66.20,62.60,88.18,110.00,5.00,0.00,30.24,M,5.59,M,FEW,SCT,BKN,M,400.00,1700.00,4800.00,M,-SHRA VCSH,YBBN 180100Z 11005KT 9000 -SHRA VCSH FEW004 SCT017 BKN048 19/17 Q1024
YBBN,2013-07-18 01:30,153.1292,-27.3917,68.00,62.60,82.86,120.00,6.00,0.00,30.21,M,6.21,M,FEW,SCT,BKN,M,1200.00,2400.00,5000.00,M,VCSH,YBBN 180130Z 12006KT 9999 VCSH FEW012 SCT024 BKN050 20/17 Q1023
YBBN,2013-07-18 02:00,153.1292,-27.3917,69.80,60.80,73.09,70.00,7.00,0.00,30.21,M,6.21,M,FEW,SCT,BKN,M,1400.00,2400.00,30000.00,M,VCSH,YBBN 180200Z 07007KT 9999 VCSH FEW014 SCT024 BKN300 21/16 Q1023
YBBN,2013-07-18 02:30,153.1292,-27.3917,68.00,60.80,77.75,90.00,5.00,0.00,30.21,M,6.21,M,FEW,SCT,BKN,M,1300.00,2300.00,28000.00,M,-SHRA VCSH,YBBN 180230Z 09005KT 9999 -SHRA VCSH FEW013 SCT023 BKN280 20/16 Q1023 RMK VIS REDUCED TO 9KM NE DUE -SHRA
YBBN,2013-07-18 03:00,153.1292,-27.3917,66.20,60.80,82.74,40.00,5.00,0.00,30.18,M,6.21,M,FEW,SCT,BKN,M,1300.00,2300.00,28000.00,M,-SHRA VCSH,YBBN 180300Z 04005KT 9999 -SHRA VCSH FEW013 SCT023 BKN280 19/16 Q1022
YBBN,2013-07-18 03:30,153.1292,-27.3917,68.00,62.60,82.86,50.00,5.00,0.00,30.18,M,6.21,M,FEW,SCT,BKN,M,1600.00,2400.00,28000.00,M,VCSH,YBBN 180330Z 05005KT 9999 VCSH FEW016 SCT024 BKN280 20/17 Q1022 RMK -SHRA W/SW
YBBN,2013-07-18 04:00,153.1292,-27.3917,69.80,57.20,64.26,50.00,9.00,0.00,30.18,M,6.21,M,FEW,SCT,BKN,M,1600.00,2400.00,28000.00,M,M,YBBN 180400Z 05009KT 9999 FEW016 SCT024 BKN280 21/14 Q1022 RMK DIST -SHRA W/SW
YBBN,2013-07-18 04:30,153.1292,-27.3917,69.80,57.20,64.26,60.00,9.00,0.00,30.18,M,6.21,M,SCT,BKN,M,M,2400.00,28000.00,M,M,M,YBBN 180430Z 06009KT 9999 SCT024 BKN280 21/14 Q1022
YBBN,2013-07-18 05:00,153.1292,-27.3917,69.80,57.20,64.26,60.00,8.00,0.00,30.18,M,6.21,M,FEW,BKN,M,M,2200.00,28000.00,M,M,M,YBBN 180500Z 06008KT 9999 FEW022 BKN280 21/14 Q1022 NOSIG
YBBN,2013-07-18 05:30,153.1292,-27.3917,69.80,57.20,64.26,50.00,7.00,0.00,30.18,M,6.21,M,FEW,BKN,M,M,2200.00,28000.00,M,M,M,YBBN 180530Z 05007KT 9999 FEW022 BKN280 21/14 Q1022
YBBN,2013-07-18 06:00,153.1292,-27.3917,68.00,57.20,68.35,60.00,7.00,0.00,30.18,M,6.21,M,FEW,BKN,M,M,2200.00,28000.00,M,M,M,YBBN 180600Z 06007KT 9999 FEW022 BKN280 20/14 Q1022
YBBN,2013-07-18 06:30,153.1292,-27.3917,68.00,57.20,68.35,60.00,6.00,0.00,30.18,M,6.21,M,FEW,BKN,M,M,2100.00,27000.00,M,M,M,YBBN 180630Z 06006KT 9999 FEW021 BKN270 20/14 Q1022
YBBN,2013-07-18 07:00,153.1292,-27.3917,66.20,59.00,77.60,70.00,5.00,0.00,30.18,M,6.21,M,FEW,BKN,M,M,2000.00,27000.00,M,M,M,YBBN 180700Z 07005KT 9999 FEW020 BKN270 19/15 Q1022
YBBN,2013-07-18 07:30,153.1292,-27.3917,66.20,57.20,72.74,70.00,4.00,0.00,30.18,M,6.21,M,FEW,SCT,M,M,2300.00,27000.00,M,M,M,YBBN 180730Z 07004KT 9999 FEW023 SCT270 19/14 Q1022
YBBN,2013-07-18 08:00,153.1292,-27.3917,64.40,59.00,82.62,80.00,4.00,0.00,30.18,M,6.21,M,FEW,SCT,M,M,2300.00,27000.00,M,M,M,YBBN 180800Z 08004KT 9999 FEW023 SCT270 18/15 Q1022
YBBN,2013-07-18 08:30,153.1292,-27.3917,62.60,59.00,88.00,90.00,4.00,0.00,30.18,M,6.21,M,FEW,SCT,M,M,2000.00,27000.00,M,M,M,YBBN 180830Z 09004KT 9999 FEW020 SCT270 17/15 Q1022
YBBN,2013-07-18 09:00,153.1292,-27.3917,62.60,59.00,88.00,100.00,4.00,0.00,30.18,M,6.21,M,FEW,SCT,M,M,2000.00,27000.00,M,M,M,YBBN 180900Z 10004KT 9999 FEW020 SCT270 17/15 Q1022
YBBN,2013-07-18 09:30,153.1292,-27.3917,62.60,59.00,88.00,120.00,5.00,0.00,30.21,M,6.21,M,FEW,SCT,M,M,2000.00,27000.00,M,M,M,YBBN 180930Z 12005KT 9999 FEW020 SCT270 17/15 Q1023
YBBN,2013-07-18 10:00,153.1292,-27.3917,62.60,60.80,93.83,110.00,4.00,0.00,30.21,M,6.21,M,FEW,M,M,M,2000.00,M,M,M,M,YBBN 181000Z 11004KT 9999 FEW020 17/16 Q1023
YBBN,2013-07-18 10:30,153.1292,-27.3917,62.60,59.00,88.00,120.00,4.00,0.00,30.21,M,6.21,M,FEW,M,M,M,3000.00,M,M,M,M,YBBN 181030Z 12004KT 9999 FEW030 17/15 Q1023
YBBN,2013-07-18 11:00,153.1292,-27.3917,62.60,59.00,88.00,130.00,4.00,0.00,30.21,M,6.21,M,FEW,SCT,M,M,2000.00,27000.00,M,M,M,YBBN 181100Z 13004KT 9999 FEW020 SCT270 17/15 Q1023 NOSIG
YBBN,2013-07-18 11:30,153.1292,-27.3917,62.60,59.00,88.00,140.00,4.00,0.00,30.21,M,6.21,M,SCT,SCT,M,M,2900.00,27000.00,M,M,M,YBBN 181130Z 14004KT 9999 SCT029 SCT270 17/15 Q1023
YBBN,2013-07-18 12:00,153.1292,-27.3917,60.80,59.00,93.79,90.00,4.00,0.00,30.21,M,6.21,M,FEW,BKN,M,M,2900.00,27000.00,M,M,M,YBBN 181200Z 09004KT 9999 FEW029 BKN270 16/15 Q1023
YBBN,2013-07-18 12:30,153.1292,-27.3917,62.60,59.00,88.00,130.00,4.00,0.00,30.18,M,6.21,M,FEW,BKN,M,M,2900.00,30000.00,M,M,M,YBBN 181230Z 13004KT 9999 FEW029 BKN300 17/15 Q1022
YBBN,2013-07-18 13:00,153.1292,-27.3917,62.60,59.00,88.00,140.00,3.00,0.00,30.18,M,6.21,M,FEW,BKN,M,M,2900.00,30000.00,M,M,M,YBBN 181300Z 14003KT 9999 FEW029 BKN300 17/15 Q1022
YBBN,2013-07-18 13:30,153.1292,-27.3917,60.80,59.00,93.79,150.00,3.00,0.00,30.18,M,6.21,M,SCT,BKN,M,M,3100.00,30000.00,M,M,M,YBBN 181330Z 15003KT 9999 SCT031 BKN300 16/15 Q1022
YBBN,2013-07-18 14:00,153.1292,-27.3917,59.00,57.20,93.74,0.00,0.00,0.00,30.18,M,6.21,M,FEW,BKN,M,M,3100.00,30000.00,M,M,M,YBBN 181400Z 00000KT 9999 FEW031 BKN300 15/14 Q1022 NOSIG
YBBN,2013-07-18 14:30,153.1292,-27.3917,57.20,55.40,93.69,0.00,0.00,0.00,30.15,M,6.21,M,FEW,BKN,M,M,3100.00,30000.00,M,M,M,YBBN 181430Z 00000KT 9999 FEW031 BKN300 14/13 Q1021
YBBN,2013-07-18 15:00,153.1292,-27.3917,57.20,55.40,93.69,210.00,5.00,0.00,30.15,M,6.21,M,FEW,BKN,M,M,3100.00,30000.00,M,M,M,YBBN 181500Z 21005KT 9999 FEW031 BKN300 14/13 Q1021
YBBN,2013-07-18 15:30,153.1292,-27.3917,57.20,55.40,93.69,210.00,5.00,0.00,30.15,M,6.21,M,FEW,BKN,M,M,2600.00,27000.00,M,M,M,YBBN 181530Z 21005KT 9999 FEW026 BKN270 14/13 Q1021
YBBN,2013-07-18 16:00,153.1292,-27.3917,57.20,55.40,93.69,210.00,5.00,0.00,30.15,M,6.21,M,SCT,BKN,M,M,2700.00,4500.00,M,M,M,YBBN 181600Z 21005KT 9999 SCT027 BKN045 14/13 Q1021 INTER 1800/1900 3000 SHRA BKN012
YBBN,2013-07-18 16:30,153.1292,-27.3917,57.20,55.40,93.69,210.00,5.00,0.00,30.15,M,6.21,M,FEW,BKN,M,M,2800.00,27000.00,M,M,M,YBBN 181630Z 21005KT 9999 FEW028 BKN270 14/13 Q1021
YBBN,2013-07-18 17:00,153.1292,-27.3917,57.20,55.40,93.69,210.00,4.00,0.00,30.12,M,6.21,M,FEW,BKN,M,M,2800.00,27000.00,M,M,M,YBBN 181700Z 21004KT 9999 FEW028 BKN270 14/13 Q1020 INTER 1800/2000 3000 SHRA BKN012
YBBN,2013-07-18 17:30,153.1292,-27.3917,55.40,55.40,100.00,210.00,5.00,0.00,30.12,M,6.21,M,FEW,BKN,M,M,2800.00,27000.00,M,M,M,YBBN 181730Z 21005KT 9999 FEW028 BKN270 13/13 Q1020
YBBN,2013-07-18 18:00,153.1292,-27.3917,55.40,55.40,100.00,210.00,7.00,0.00,30.12,M,6.21,M,FEW,BKN,M,M,2800.00,27000.00,M,M,M,YBBN 181800Z 21007KT 9999 FEW028 BKN270 13/13 Q1020 INTER 1900/2100 3000 SHRA BKN012
YBBN,2013-07-18 18:30,153.1292,-27.3917,55.40,55.40,100.00,210.00,7.00,0.00,30.12,M,6.21,M,FEW,SCT,BKN,M,2100.00,5500.00,27000.00,M,M,YBBN 181830Z 21007KT 9999 FEW021 SCT055 BKN270 13/13 Q1020
YBBN,2013-07-18 19:00,153.1292,-27.3917,57.20,55.40,93.69,210.00,7.00,0.00,30.12,M,6.21,M,FEW,SCT,BKN,M,2100.00,5500.00,27000.00,M,M,YBBN 181900Z 21007KT 9999 FEW021 SCT055 BKN270 14/13 Q1020
YBBN,2013-07-18 19:30,153.1292,-27.3917,57.20,57.20,100.00,200.00,8.00,0.00,30.12,M,6.21,M,FEW,BKN,M,M,2500.00,5900.00,M,M,M,YBBN 181930Z 20008KT 9999 FEW025 BKN059 14/14 Q1020
YBBN,2013-07-18 20:00,153.1292,-27.3917,57.20,57.20,100.00,220.00,8.00,0.00,30.15,M,6.21,M,SCT,SCT,BKN,M,2400.00,3700.00,6000.00,M,VCSH,YBBN 182000Z 22008KT 9999 VCSH SCT024 SCT037 BKN060 14/14 Q1021 INTER 2000/2300 3000 SHRA BKN012
YBBN,2013-07-18 20:27,153.1292,-27.3917,57.20,57.20,100.00,240.00,9.00,0.00,30.15,M,1.86,M,FEW,BKN,BKN,M,1500.00,2200.00,5000.00,M,-SHRA,YBBN 182027Z 24009KT 3000 -SHRA FEW015 BKN022 BKN050 14/14 Q1021
YBBN,2013-07-18 20:30,153.1292,-27.3917,59.00,57.20,93.74,250.00,9.00,0.00,30.15,M,1.24,M,FEW,BKN,BKN,M,1500.00,2200.00,5000.00,M,-SHRA,YBBN 182030Z 25009KT 2000 -SHRA FEW015 BKN022 BKN050 15/14 Q1021
YBBN,2013-07-18 20:53,153.1292,-27.3917,59.00,57.20,93.74,160.00,6.00,0.00,30.18,M,1.86,M,SCT,BKN,BKN,M,1000.00,2000.00,5000.00,M,SHRA,YBBN 182053Z 16006KT 3000 1300N SHRA SCT010 BKN020 BKN050 15/14 Q1022 RESHRA
YBBN,2013-07-18 21:00,153.1292,-27.3917,57.20,57.20,100.00,180.00,5.00,0.00,30.18,M,1.86,M,SCT,BKN,BKN,M,1000.00,2000.00,5000.00,M,SHRA,YBBN 182100Z 18005KT 3000 1000N SHRA SCT010 BKN020 BKN050 14/14 Q1022 RESHRA
YBBN,2013-07-18 21:16,153.1292,-27.3917,59.00,57.20,93.74,190.00,8.00,0.00,30.15,M,1.55,M,FEW,BKN,BKN,M,1000.00,2000.00,5000.00,M,SHRA,YBBN 182116Z 19008KT 2500 SHRA FEW010 BKN020 BKN050 15/14 Q1021 RESHRA
YBBN,2013-07-18 21:30,153.1292,-27.3917,59.00,59.00,100.00,190.00,7.00,0.00,30.15,M,6.21,M,FEW,BKN,M,M,1000.00,2000.00,M,M,-SHRA,YBBN 182130Z 19007KT 9999 -SHRA FEW010 BKN020 15/15 Q1021 RESHRA
YBBN,2013-07-18 22:00,153.1292,-27.3917,60.80,59.00,93.79,210.00,9.00,0.00,30.18,M,6.21,M,FEW,SCT,BKN,M,600.00,2000.00,5000.00,M,-SHRA,YBBN 182200Z 21009KT 9999 -SHRA FEW006 SCT020 BKN050 16/15 Q1022 INTER 2200/0100 3000 SHRA BKN012
YBBN,2013-07-18 22:30,153.1292,-27.3917,62.60,60.80,93.83,210.00,6.00,0.00,30.18,M,6.21,M,FEW,SCT,M,M,400.00,2500.00,M,M,M,YBBN 182230Z 21006KT 9999 FEW004 SCT025 17/16 Q1022
YBBN,2013-07-18 23:00,153.1292,-27.3917,64.40,60.80,88.09,190.00,5.00,0.00,30.15,M,6.21,M,FEW,SCT,M,M,600.00,6000.00,M,M,M,YBBN 182300Z 19005KT 9999 FEW006 SCT060 18/16 Q1021
YBBN,2013-07-18 23:30,153.1292,-27.3917,66.20,60.80,82.74,230.00,4.00,0.00,30.15,M,6.21,M,FEW,SCT,M,M,1000.00,6000.00,M,M,M,YBBN 182330Z 23004KT 9999 FEW010 SCT060 19/16 Q1021
