#DEBUG: Format Typ    -> comma
#DEBUG: Time Period   -> 2014-03-07 00:00:00+00:00 2014-03-08 00:00:00+00:00
#DEBUG: Time Zone     -> Etc/UTC
#DEBUG: Data Contact   -> daryl herzmann akrherz@iastate.edu 515-294-5978
#DEBUG: Entries Found -> -1
station,valid,lon,lat,tmpf, dwpf, relh, drct, sknt, p01i, alti, mslp, vsby, gust, skyc1, skyc2, skyc3, skyc4, skyl1, skyl2, skyl3, skyl4, presentwx, metar
YBBN,2014-03-07 00:00,153.1292,-27.3917,77.00,64.40,65.12,110.00,7.00,0.00,30.12,M,6.21,M,FEW,BKN,M,M,3500.00,5800.00,M,M,VCSH,YBBN 070000Z 11007KT 9999 VCSH FEW035 BKN058 25/18 Q1020
YBBN,2014-03-07 00:30,153.1292,-27.3917,71.60,66.20,83.09,150.00,8.00,0.00,30.12,M,6.21,M,SCT,SCT,M,M,3200.00,5000.00,M,M,-SHRA VCSH,YBBN 070030Z 15008KT 9999 -SHRA VCSH SCT032 SCT050 22/19 Q1020
YBBN,2014-03-07 01:00,153.1292,-27.3917,71.60,66.20,83.09,180.00,5.00,0.00,30.12,M,6.21,M,FEW,SCT,M,M,3000.00,5000.00,M,M,VCSH,YBBN 070100Z 18005KT 9999 VCSH FEW030 SCT050 22/19 Q1020 NOSIG
YBBN,2014-03-07 01:30,153.1292,-27.3917,77.00,64.40,65.12,150.00,6.00,0.00,30.09,M,6.21,M,FEW,SCT,M,M,2500.00,5500.00,M,M,VCSH,YBBN 070130Z 15006KT 9999 VCSH FEW025 SCT055 25/18 Q1019
YBBN,2014-03-07 02:00,153.1292,-27.3917,78.80,59.00,50.69,140.00,6.00,0.00,30.09,M,6.21,M,FEW,SCT,M,M,3500.00,5500.00,M,M,VCSH,YBBN 070200Z 14006KT 9999 VCSH FEW035 SCT055 26/15 Q1019 NOSIG
YBBN,2014-03-07 02:30,153.1292,-27.3917,78.80,59.00,50.69,120.00,7.00,0.00,30.09,M,6.21,M,FEW,SCT,M,M,4000.00,6000.00,M,M,M,YBBN 070230Z 12007KT 9999 FEW040 SCT060 26/15 Q1019
YBBN,2014-03-07 03:00,153.1292,-27.3917,80.60,59.00,47.79,120.00,8.00,0.00,30.06,M,6.21,M,FEW,SCT,M,M,4000.00,6500.00,M,M,M,YBBN 070300Z 12008KT 9999 FEW040 SCT065 27/15 Q1018 NOSIG
YBBN,2014-03-07 03:30,153.1292,-27.3917,80.60,60.80,50.95,70.00,11.00,0.00,30.06,M,6.21,M,SCT,M,M,M,4000.00,M,M,M,M,YBBN 070330Z 07011KT 9999 SCT040 27/16 Q1018
YBBN,2014-03-07 04:00,153.1292,-27.3917,78.80,60.80,54.05,80.00,11.00,0.00,30.06,M,6.21,M,SCT,M,M,M,4000.00,M,M,M,M,YBBN 070400Z 08011KT 9999 SCT040 26/16 Q1018
YBBN,2014-03-07 04:30,153.1292,-27.3917,80.60,60.80,50.95,60.00,13.00,0.00,30.06,M,6.21,M,SCT,M,M,M,4000.00,M,M,M,M,YBBN 070430Z 06013KT 9999 SCT040 27/16 Q1018
YBBN,2014-03-07 05:00,153.1292,-27.3917,80.60,59.00,47.79,70.00,12.00,0.00,30.03,M,6.21,M,FEW,M,M,M,4500.00,M,M,M,M,YBBN 070500Z 07012KT 9999 FEW045 27/15 Q1017
YBBN,2014-03-07 05:30,153.1292,-27.3917,78.80,60.80,54.05,60.00,12.00,0.00,30.03,M,6.21,M,FEW,M,M,M,4000.00,M,M,M,M,YBBN 070530Z 06012KT 9999 FEW040 26/16 Q1017
YBBN,2014-03-07 06:00,153.1292,-27.3917,78.80,59.00,50.69,70.00,10.00,0.00,30.03,M,6.21,M,FEW,M,M,M,4000.00,M,M,M,M,YBBN 070600Z 07010KT 9999 FEW040 26/15 Q1017
YBBN,2014-03-07 06:30,153.1292,-27.3917,78.80,59.00,50.69,70.00,9.00,0.00,30.03,M,6.21,M,FEW,M,M,M,4000.00,M,M,M,M,YBBN 070630Z 07009KT 9999 FEW040 26/15 Q1017
YBBN,2014-03-07 07:00,153.1292,-27.3917,77.00,59.00,53.80,80.00,9.00,0.00,30.03,M,6.21,M,FEW,M,M,M,4200.00,M,M,M,M,YBBN 070700Z 08009KT 9999 FEW042 25/15 Q1017 NOSIG
YBBN,2014-03-07 07:30,153.1292,-27.3917,77.00,59.00,53.80,100.00,8.00,0.00,30.06,M,6.21,M,FEW,M,M,M,3800.00,M,M,M,M,YBBN 070730Z 10008KT 9999 FEW038 25/15 Q1018
YBBN,2014-03-07 08:00,153.1292,-27.3917,75.20,59.00,57.12,100.00,7.00,0.00,30.06,M,6.21,M,FEW,M,M,M,3800.00,M,M,M,M,YBBN 070800Z 10007KT 9999 FEW038 24/15 Q1018
YBBN,2014-03-07 08:30,153.1292,-27.3917,75.20,60.80,60.90,90.00,8.00,0.00,30.06,M,6.21,M,SCT,M,M,M,3900.00,M,M,M,M,YBBN 070830Z 09008KT 9999 SCT039 24/16 Q1018
YBBN,2014-03-07 09:00,153.1292,-27.3917,75.20,60.80,60.90,100.00,8.00,0.00,30.06,M,6.21,M,SCT,M,M,M,3900.00,M,M,M,M,YBBN 070900Z 10008KT 9999 SCT039 24/16 Q1018 NOSIG
YBBN,2014-03-07 09:30,153.1292,-27.3917,75.20,62.60,64.91,90.00,8.00,0.00,30.09,M,6.21,M,SCT,M,M,M,3400.00,M,M,M,M,YBBN 070930Z 09008KT 9999 SCT034 24/17 Q1019
YBBN,2014-03-07 10:00,153.1292,-27.3917,73.40,62.60,68.94,90.00,8.00,0.00,30.09,M,6.21,M,SCT,M,M,M,3400.00,M,M,M,M,YBBN 071000Z 09008KT 9999 SCT034 23/17 Q1019
YBBN,2014-03-07 10:30,153.1292,-27.3917,73.40,62.60,68.94,100.00,7.00,0.00,30.09,M,6.21,M,FEW,M,M,M,3000.00,M,M,M,M,YBBN 071030Z 10007KT 9999 FEW030 23/17 Q1019
YBBN,2014-03-07 11:00,153.1292,-27.3917,73.40,60.80,64.69,110.00,7.00,0.00,30.09,M,6.21,M,FEW,M,M,M,3000.00,M,M,M,M,YBBN 071100Z 11007KT 9999 FEW030 23/16 Q1019 NOSIG
YBBN,2014-03-07 11:30,153.1292,-27.3917,73.40,62.60,68.94,100.00,7.00,0.00,30.09,M,6.21,M,FEW,M,M,M,3000.00,M,M,M,M,YBBN 071130Z 10007KT 9999 FEW030 23/17 Q1019
YBBN,2014-03-07 12:00,153.1292,-27.3917,73.40,62.60,68.94,100.00,7.00,0.00,30.09,M,6.21,M,FEW,M,M,M,3000.00,M,M,M,M,YBBN 071200Z 10007KT 9999 FEW030 23/17 Q1019 NOSIG
YBBN,2014-03-07 12:30,153.1292,-27.3917,75.20,62.60,64.91,90.00,7.00,0.00,30.09,M,6.21,M,FEW,M,M,M,3000.00,M,M,M,M,YBBN 071230Z 09007KT 9999 FEW030 24/17 Q1019
YBBN,2014-03-07 13:00,153.1292,-27.3917,73.40,62.60,68.94,90.00,7.00,0.00,30.09,M,6.21,M,FEW,M,M,M,3000.00,M,M,M,M,YBBN 071300Z 09007KT 9999 FEW030 23/17 Q1019
YBBN,2014-03-07 13:30,153.1292,-27.3917,73.40,62.60,68.94,90.00,7.00,0.00,30.09,M,6.21,M,FEW,M,M,M,3000.00,M,M,M,M,YBBN 071330Z 09007KT 9999 FEW030 23/17 Q1019
YBBN,2014-03-07 14:00,153.1292,-27.3917,73.40,62.60,68.94,90.00,7.00,0.00,30.09,M,6.21,M,FEW,M,M,M,3000.00,M,M,M,M,YBBN 071400Z 09007KT 9999 FEW030 23/17 Q1019
YBBN,2014-03-07 14:30,153.1292,-27.3917,73.40,60.80,64.69,100.00,7.00,0.00,30.09,M,6.21,M,FEW,M,M,M,3000.00,M,M,M,M,YBBN 071430Z 10007KT 9999 FEW030 23/16 Q1019
YBBN,2014-03-07 15:00,153.1292,-27.3917,73.40,59.00,60.67,100.00,7.00,0.00,30.09,M,6.21,M,FEW,M,M,M,3000.00,M,M,M,M,YBBN 071500Z 10007KT 9999 FEW030 23/15 Q1019
YBBN,2014-03-07 15:30,153.1292,-27.3917,73.40,59.00,60.67,100.00,7.00,0.00,30.06,M,6.21,M,FEW,M,M,M,3000.00,M,M,M,M,YBBN 071530Z 10007KT 9999 FEW030 23/15 Q1018
YBBN,2014-03-07 16:00,153.1292,-27.3917,73.40,59.00,60.67,100.00,7.00,0.00,30.06,M,6.21,M,FEW,M,M,M,3000.00,M,M,M,M,YBBN 071600Z 10007KT 9999 FEW030 23/15 Q1018
YBBN,2014-03-07 16:30,153.1292,-27.3917,73.40,59.00,60.67,100.00,5.00,0.00,30.06,M,6.21,M,FEW,SCT,M,M,3000.00,5000.00,M,M,M,YBBN 071630Z 10005KT 9999 FEW030 SCT050 23/15 Q1018
YBBN,2014-03-07 17:00,153.1292,-27.3917,73.40,60.80,64.69,110.00,7.00,0.00,30.03,M,6.21,M,FEW,BKN,M,M,3000.00,6000.00,M,M,M,YBBN 071700Z 11007KT 9999 FEW030 BKN060 23/16 Q1017
YBBN,2014-03-07 17:30,153.1292,-27.3917,73.40,59.00,60.67,100.00,7.00,0.00,30.03,M,6.21,M,FEW,BKN,M,M,3000.00,6200.00,M,M,M,YBBN 071730Z 10007KT 9999 FEW030 BKN062 23/15 Q1017
YBBN,2014-03-07 18:00,153.1292,-27.3917,73.40,60.80,64.69,110.00,6.00,0.00,30.03,M,6.21,M,FEW,SCT,BKN,M,3000.00,4800.00,6200.00,M,M,YBBN 071800Z 11006KT 9999 FEW030 SCT048 BKN062 23/16 Q1017 FM1810 11005KT 3000 SHRA BKN020 FM1830 12010KT 9999 -SHRA SCT030 SCT040
YBBN,2014-03-07 18:30,153.1292,-27.3917,69.80,62.60,77.90,90.00,6.00,0.00,30.06,M,6.21,M,BKN,BKN,M,M,3400.00,6400.00,M,M,VCSH,YBBN 071830Z 09006KT 9999 VCSH BKN034 BKN064 21/17 Q1018
YBBN,2014-03-07 19:00,153.1292,-27.3917,69.80,62.60,77.90,150.00,4.00,0.00,30.06,M,6.21,M,SCT,BKN,M,M,3400.00,6800.00,M,M,VCSH,YBBN 071900Z 15004KT 9999 VCSH SCT034 BKN068 21/17 Q1018
YBBN,2014-03-07 19:30,153.1292,-27.3917,68.00,64.40,88.26,170.00,7.00,0.00,30.06,M,6.21,M,SCT,SCT,BKN,M,3400.00,4300.00,6300.00,M,VCSH,YBBN 071930Z 17007KT 9999 VCSH SCT034 SCT043 BKN063 20/18 Q1018
YBBN,2014-03-07 20:00,153.1292,-27.3917,68.00,64.40,88.26,190.00,5.00,0.00,30.06,M,6.21,M,SCT,BKN,M,M,3400.00,6800.00,M,M,VCSH,YBBN 072000Z 19005KT 9999 VCSH SCT034 BKN068 20/18 Q1018
YBBN,2014-03-07 20:30,153.1292,-27.3917,69.80,64.40,82.98,200.00,7.00,0.00,30.06,M,6.21,M,SCT,BKN,M,M,3400.00,6800.00,M,M,VCSH,YBBN 072030Z 20007KT 9999 VCSH SCT034 BKN068 21/18 Q1018
YBBN,2014-03-07 21:00,153.1292,-27.3917,69.80,64.40,82.98,200.00,7.00,0.00,30.09,M,6.21,M,FEW,SCT,M,M,3000.00,6800.00,M,M,M,YBBN 072100Z 20007KT 9999 FEW030 SCT068 21/18 Q1019 NOSIG
YBBN,2014-03-07 21:30,153.1292,-27.3917,71.60,64.40,78.04,140.00,1.00,0.00,30.09,M,6.21,M,FEW,SCT,M,M,2800.00,6800.00,M,M,-SHRA VCSH,YBBN 072130Z 14001KT 9999 -SHRA VCSH FEW028 SCT068 22/18 Q1019
YBBN,2014-03-07 22:00,153.1292,-27.3917,73.40,62.60,68.94,130.00,5.00,0.00,30.09,M,6.21,M,FEW,SCT,M,M,3500.00,6800.00,M,M,M,YBBN 072200Z 13005KT 9999 FEW035 SCT068 23/17 Q1019 NOSIG
YBBN,2014-03-07 22:30,153.1292,-27.3917,77.00,62.60,61.13,120.00,9.00,0.00,30.09,M,6.21,M,FEW,M,M,M,3200.00,M,M,M,M,YBBN 072230Z 12009KT 9999 FEW032 25/17 Q1019
YBBN,2014-03-07 23:00,153.1292,-27.3917,77.00,60.80,57.36,110.00,10.00,0.00,30.12,M,6.21,M,SCT,M,M,M,3500.00,M,M,M,M,YBBN 072300Z 11010KT 9999 SCT035 25/16 Q1020 NOSIG
YBBN,2014-03-07 23:30,153.1292,-27.3917,78.80,59.00,50.69,100.00,9.00,0.00,30.12,M,6.21,M,SCT,M,M,M,3800.00,M,M,M,M,YBBN 072330Z 10009KT 9999 SCT038 26/15 Q1020
