#DEBUG: Format Typ    -> comma
#DEBUG: Time Period   -> 2015-11-12 00:00:00+00:00 2015-11-13 00:00:00+00:00
#DEBUG: Time Zone     -> Etc/UTC
#DEBUG: Data Contact   -> daryl herzmann akrherz@iastate.edu 515-294-5978
#DEBUG: Entries Found -> -1
station,valid,lon,lat,tmpf, dwpf, relh, drct, sknt, p01i, alti, mslp, vsby, gust, skyc1, skyc2, skyc3, skyc4, skyl1, skyl2, skyl3, skyl4, presentwx, metar
YBBN,2015-11-12 00:00,153.1292,-27.3917,73.40,62.60,68.94,110.00,8.00,0.00,30.15,M,6.21,M,FEW,BKN,M,M,3200.00,3700.00,M,M,M,YBBN 120000Z 11008KT 9999 FEW032 BKN037 23/17 Q1021
YBBN,2015-11-12 00:30,153.1292,-27.3917,73.40,62.60,68.94,130.00,8.00,0.00,30.15,M,6.21,M,FEW,BKN,M,M,2500.00,4000.00,M,M,M,YBBN 120030Z 13008KT 9999 FEW025 BKN040 23/17 Q1021
YBBN,2015-11-12 01:00,153.1292,-27.3917,73.40,60.80,64.69,100.00,8.00,0.00,30.12,M,6.21,M,FEW,SCT,BKN,M,2000.00,5000.00,7200.00,M,M,YBBN 120100Z 10008KT 9999 FEW020 SCT050 BKN072 23/16 Q1020
YBBN,2015-11-12 01:30,153.1292,-27.3917,75.20,62.60,64.91,80.00,10.00,0.00,30.12,M,6.21,M,FEW,BKN,M,M,2000.00,5300.00,M,M,VCSH,YBBN 120130Z 08010KT 9999 VCSH FEW020 BKN053 24/17 Q1020
YBBN,2015-11-12 02:00,153.1292,-27.3917,77.00,62.60,61.13,70.00,11.00,0.00,30.12,M,6.21,M,FEW,SCT,BKN,M,2000.00,5300.00,25000.00,M,VCSH,YBBN 120200Z 07011KT 9999 VCSH FEW020 SCT053 BKN250 25/17 Q1020 NOSIG
YBBN,2015-11-12 02:30,153.1292,-27.3917,75.20,60.80,60.90,50.00,13.00,0.00,30.09,M,6.21,M,FEW,BKN,M,M,2000.00,25000.00,M,M,VCSH,YBBN 120230Z 05013KT 9999 VCSH FEW020 BKN250 24/16 Q1019
YBBN,2015-11-12 03:00,153.1292,-27.3917,75.20,60.80,60.90,50.00,9.00,0.00,30.09,M,6.21,M,FEW,SCT,BKN,M,1900.00,3000.00,25000.00,M,VCSH,YBBN 120300Z 05009KT 9999 VCSH FEW019 SCT030 BKN250 24/16 Q1019 RMK -SHRA EAST
YBBN,2015-11-12 03:30,153.1292,-27.3917,75.20,62.60,64.91,50.00,9.00,0.00,30.09,M,6.21,M,FEW,SCT,BKN,M,2200.00,3000.00,25000.00,M,M,YBBN 120330Z 05009KT 030V090 9999 FEW022 SCT030 BKN250 24/17 Q1019 RMK DIST -SHRA SE/SW
YBBN,2015-11-12 04:00,153.1292,-27.3917,77.00,62.60,61.13,70.00,8.00,0.00,30.06,M,6.21,M,FEW,BKN,M,M,2500.00,25000.00,M,M,M,YBBN 120400Z 07008KT 030V100 9999 FEW025 BKN250 25/17 Q1018
YBBN,2015-11-12 04:30,153.1292,-27.3917,77.00,62.60,61.13,60.00,8.00,0.00,30.06,M,6.21,M,FEW,BKN,M,M,2500.00,25000.00,M,M,M,YBBN 120430Z 06008KT 9999 FEW025 BKN250 25/17 Q1018
YBBN,2015-11-12 05:00,153.1292,-27.3917,75.20,60.80,60.90,50.00,10.00,0.00,30.06,M,6.21,M,FEW,BKN,M,M,2200.00,25000.00,M,M,M,YBBN 120500Z 05010KT 9999 FEW022 BKN250 24/16 Q1018 NOSIG
YBBN,2015-11-12 05:30,153.1292,-27.3917,75.20,60.80,60.90,70.00,8.00,0.00,30.06,M,6.21,M,FEW,BKN,M,M,3000.00,25000.00,M,M,M,YBBN 120530Z 07008KT 9999 FEW030 BKN250 24/16 Q1018
YBBN,2015-11-12 06:00,153.1292,-27.3917,73.40,60.80,64.69,60.00,8.00,0.00,30.06,M,6.21,M,FEW,BKN,M,M,3000.00,25000.00,M,M,M,YBBN 120600Z 06008KT 9999 FEW030 BKN250 23/16 Q1018 NOSIG
YBBN,2015-11-12 06:30,153.1292,-27.3917,73.40,60.80,64.69,60.00,9.00,0.00,30.06,M,6.21,M,FEW,SCT,BKN,M,2200.00,3100.00,25000.00,M,M,YBBN 120630Z 06009KT 9999 FEW022 SCT031 BKN250 23/16 Q1018
YBBN,2015-11-12 07:00,153.1292,-27.3917,73.40,64.40,73.44,70.00,8.00,0.00,30.06,M,6.21,M,FEW,BKN,M,M,2200.00,25000.00,M,M,M,YBBN 120700Z 07008KT 9999 FEW022 BKN250 23/18 Q1018 NOSIG
YBBN,2015-11-12 07:30,153.1292,-27.3917,73.40,62.60,68.94,50.00,10.00,0.00,30.06,M,6.21,M,FEW,BKN,M,M,2000.00,25000.00,M,M,M,YBBN 120730Z 05010KT 9999 FEW020 BKN250 23/17 Q1018
YBBN,2015-11-12 08:00,153.1292,-27.3917,71.60,62.60,73.27,60.00,9.00,0.00,30.06,M,6.21,M,FEW,BKN,M,M,2000.00,25000.00,M,M,M,YBBN 120800Z 06009KT 9999 FEW020 BKN250 22/17 Q1018
YBBN,2015-11-12 08:30,153.1292,-27.3917,71.60,62.60,73.27,60.00,8.00,0.00,30.06,M,6.21,M,FEW,BKN,M,M,2000.00,25000.00,M,M,M,YBBN 120830Z 06008KT 9999 FEW020 BKN250 22/17 Q1018
YBBN,2015-11-12 09:00,153.1292,-27.3917,71.60,62.60,73.27,50.00,8.00,0.00,30.06,M,6.21,M,FEW,BKN,M,M,2000.00,25000.00,M,M,M,YBBN 120900Z 05008KT 9999 FEW020 BKN250 22/17 Q1018 NOSIG
YBBN,2015-11-12 09:30,153.1292,-27.3917,71.60,60.80,68.75,60.00,8.00,0.00,30.06,M,6.21,M,FEW,BKN,M,M,2000.00,25000.00,M,M,M,YBBN 120930Z 06008KT 9999 FEW020 BKN250 22/16 Q1018
YBBN,2015-11-12 10:00,153.1292,-27.3917,71.60,60.80,68.75,60.00,9.00,0.00,30.06,M,6.21,M,FEW,BKN,M,M,2000.00,27000.00,M,M,M,YBBN 121000Z 06009KT 9999 FEW020 BKN270 22/16 Q1018 NOSIG
YBBN,2015-11-12 10:30,153.1292,-27.3917,71.60,60.80,68.75,60.00,10.00,0.00,30.06,M,6.21,M,FEW,BKN,M,M,2000.00,27000.00,M,M,M,YBBN 121030Z 06010KT 9999 FEW020 BKN270 22/16 Q1018
YBBN,2015-11-12 11:00,153.1292,-27.3917,71.60,60.80,68.75,50.00,7.00,0.00,30.06,M,6.21,M,FEW,BKN,M,M,2000.00,27000.00,M,M,M,YBBN 121100Z 05007KT 9999 FEW020 BKN270 22/16 Q1018 NOSIG
YBBN,2015-11-12 11:30,153.1292,-27.3917,71.60,60.80,68.75,50.00,7.00,0.00,30.09,M,6.21,M,FEW,BKN,M,M,2000.00,22000.00,M,M,M,YBBN 121130Z 05007KT 9999 FEW020 BKN220 22/16 Q1019
YBBN,2015-11-12 12:00,153.1292,-27.3917,71.60,60.80,68.75,50.00,6.00,0.00,30.09,M,6.21,M,SCT,BKN,M,M,2000.00,22000.00,M,M,M,YBBN 121200Z 05006KT 9999 SCT020 BKN220 22/16 Q1019 NOSIG
YBBN,2015-11-12 12:30,153.1292,-27.3917,71.60,62.60,73.27,60.00,6.00,0.00,30.09,M,6.21,M,FEW,BKN,M,M,2000.00,22000.00,M,M,M,YBBN 121230Z 06006KT 9999 FEW020 BKN220 22/17 Q1019
YBBN,2015-11-12 13:00,153.1292,-27.3917,71.60,62.60,73.27,60.00,6.00,0.00,30.09,M,6.21,M,SCT,BKN,M,M,2000.00,17000.00,M,M,M,YBBN 121300Z 06006KT 9999 SCT020 BKN170 22/17 Q1019 NOSIG
YBBN,2015-11-12 13:30,153.1292,-27.3917,71.60,62.60,73.27,60.00,6.00,0.00,30.09,M,6.21,M,FEW,BKN,M,M,2000.00,18000.00,M,M,M,YBBN 121330Z 06006KT 9999 FEW020 BKN180 22/17 Q1019
YBBN,2015-11-12 14:00,153.1292,-27.3917,71.60,62.60,73.27,60.00,6.00,0.00,30.09,M,6.21,M,FEW,OVC,M,M,2000.00,18000.00,M,M,M,YBBN 121400Z 06006KT 9999 FEW020 OVC180 22/17 Q1019 NOSIG
YBBN,2015-11-12 14:30,153.1292,-27.3917,71.60,62.60,73.27,60.00,5.00,0.00,30.06,M,6.21,M,FEW,OVC,M,M,2400.00,14000.00,M,M,M,YBBN 121430Z 06005KT 9999 FEW024 OVC140 22/17 Q1018
YBBN,2015-11-12 15:00,153.1292,-27.3917,71.60,62.60,73.27,60.00,5.00,0.00,30.03,M,6.21,M,FEW,BKN,OVC,M,2000.00,14000.00,18000.00,M,M,YBBN 121500Z 06005KT 9999 FEW020 BKN140 OVC180 22/17 Q1017 NOSIG
YBBN,2015-11-12 15:30,153.1292,-27.3917,71.60,62.60,73.27,50.00,4.00,0.00,30.03,M,6.21,M,SCT,BKN,OVC,M,2000.00,14000.00,18000.00,M,M,YBBN 121530Z 05004KT 9999 SCT020 BKN140 OVC180 22/17 Q1017
YBBN,2015-11-12 16:00,153.1292,-27.3917,69.80,64.40,82.98,60.00,3.00,0.00,30.03,M,6.21,M,FEW,BKN,OVC,M,2000.00,14000.00,18000.00,M,M,YBBN 121600Z 06003KT 9999 FEW020 BKN140 OVC180 21/18 Q1017 NOSIG
YBBN,2015-11-12 16:30,153.1292,-27.3917,69.80,64.40,82.98,50.00,1.00,0.00,30.00,M,6.21,M,FEW,BKN,M,M,2400.00,18000.00,M,M,M,YBBN 121630Z 05001KT 9999 FEW024 BKN180 21/18 Q1016
YBBN,2015-11-12 17:00,153.1292,-27.3917,68.00,64.40,88.26,40.00,5.00,0.00,30.00,M,6.21,M,SCT,SCT,BKN,M,2000.00,4100.00,18000.00,M,M,YBBN 121700Z 04005KT 9999 SCT020 SCT041 BKN180 20/18 Q1016 NOSIG
YBBN,2015-11-12 17:30,153.1292,-27.3917,68.00,62.60,82.86,30.00,5.00,0.00,30.00,M,6.21,M,SCT,SCT,M,M,2000.00,27000.00,M,M,M,YBBN 121730Z 03005KT 9999 SCT020 SCT270 20/17 Q1016
YBBN,2015-11-12 18:00,153.1292,-27.3917,68.00,62.60,82.86,30.00,3.00,0.00,30.00,M,6.21,M,FEW,SCT,M,M,2000.00,27000.00,M,M,M,YBBN 121800Z 03003KT 9999 FEW020 SCT270 20/17 Q1016 NOSIG
YBBN,2015-11-12 18:30,153.1292,-27.3917,66.20,62.60,88.18,0.00,0.00,0.00,30.00,M,6.21,M,FEW,M,M,M,2000.00,M,M,M,M,YBBN 121830Z 00000KT 9999 FEW020 19/17 Q1016
YBBN,2015-11-12 19:00,153.1292,-27.3917,66.20,62.60,88.18,230.00,1.00,0.00,30.00,M,6.21,M,FEW,M,M,M,2000.00,M,M,M,M,YBBN 121900Z 23001KT 9999 FEW020 19/17 Q1016 NOSIG
YBBN,2015-11-12 19:30,153.1292,-27.3917,66.20,64.40,93.92,200.00,4.00,0.00,30.00,M,6.21,M,FEW,M,M,M,1800.00,M,M,M,M,YBBN 121930Z 20004KT 9999 FEW018 19/18 Q1016
YBBN,2015-11-12 20:00,153.1292,-27.3917,68.00,64.40,88.26,210.00,5.00,0.00,30.00,M,6.21,M,FEW,SCT,M,M,1800.00,2000.00,M,M,M,YBBN 122000Z 21005KT 9999 FEW018 SCT020 20/18 Q1016
YBBN,2015-11-12 20:30,153.1292,-27.3917,71.60,64.40,78.04,210.00,5.00,0.00,30.00,M,6.21,M,FEW,M,M,M,2000.00,M,M,M,M,YBBN 122030Z 21005KT 9999 FEW020 22/18 Q1016
YBBN,2015-11-12 21:00,153.1292,-27.3917,73.40,64.40,73.44,220.00,4.00,0.00,30.00,M,6.21,M,FEW,M,M,M,2200.00,M,M,M,M,YBBN 122100Z 22004KT 180V270 9999 FEW022 23/18 Q1016 NOSIG
YBBN,2015-11-12 21:30,153.1292,-27.3917,75.20,64.40,69.14,50.00,6.00,0.00,30.03,M,6.21,M,SCT,M,M,M,2300.00,M,M,M,M,YBBN 122130Z 05006KT 9999 SCT023 24/18 Q1017
YBBN,2015-11-12 22:00,153.1292,-27.3917,75.20,64.40,69.14,10.00,7.00,0.00,30.00,M,6.21,M,SCT,M,M,M,2400.00,M,M,M,M,YBBN 122200Z 01007KT 9999 SCT024 24/18 Q1016 NOSIG
YBBN,2015-11-12 22:30,153.1292,-27.3917,75.20,64.40,69.14,30.00,8.00,0.00,30.00,M,6.21,M,FEW,SCT,M,M,2700.00,5700.00,M,M,M,YBBN 122230Z 03008KT 9999 FEW027 SCT057 24/18 Q1016
YBBN,2015-11-12 23:00,153.1292,-27.3917,75.20,64.40,69.14,10.00,8.00,0.00,30.00,M,6.21,M,FEW,SCT,M,M,2600.00,5800.00,M,M,M,YBBN 122300Z 01008KT 9999 FEW026 SCT058 24/18 Q1016 NOSIG
YBBN,2015-11-12 23:30,153.1292,-27.3917,77.00,64.40,65.12,30.00,8.00,0.00,30.00,M,6.21,M,FEW,SCT,M,M,2500.00,6000.00,M,M,VCSH,YBBN 122330Z 03008KT 9999 VCSH FEW025 SCT060 25/18 Q1016
