#DEBUG: Format Typ    -> comma
#DEBUG: Time Period   -> 2014-09-06 00:00:00+00:00 2014-09-07 00:00:00+00:00
#DEBUG: Time Zone     -> Etc/UTC
#DEBUG: Data Contact   -> daryl herzmann akrherz@iastate.edu 515-294-5978
#DEBUG: Entries Found -> -1
station,valid,lon,lat,tmpf, dwpf, relh, drct, sknt, p01i, alti, mslp, vsby, gust, skyc1, skyc2, skyc3, skyc4, skyl1, skyl2, skyl3, skyl4, presentwx, metar
YBBN,2014-09-06 00:00,153.1292,-27.3917,66.20,44.60,45.60,210.00,9.00,0.00,30.24,M,6.21,M,FEW,M,M,M,3700.00,M,M,M,M,YBBN 060000Z 21009KT 9999 FEW037 19/07 Q1024 NOSIG
YBBN,2014-09-06 00:30,153.1292,-27.3917,68.00,44.60,42.85,170.00,8.00,0.00,30.24,M,6.21,M,FEW,M,M,M,3800.00,M,M,M,M,YBBN 060030Z 17008KT 9999 FEW038 20/07 Q1024
YBBN,2014-09-06 01:00,153.1292,-27.3917,68.00,44.60,42.85,150.00,7.00,0.00,30.24,M,6.21,M,FEW,M,M,M,3800.00,M,M,M,M,YBBN 060100Z 15007KT 9999 FEW038 20/07 Q1024 NOSIG
YBBN,2014-09-06 01:30,153.1292,-27.3917,69.80,44.60,40.29,150.00,8.00,0.00,30.24,M,6.21,M,SCT,M,M,M,3900.00,M,M,M,M,YBBN 060130Z 15008KT 9999 SCT039 21/07 Q1024
YBBN,2014-09-06 02:00,153.1292,-27.3917,68.00,46.40,45.88,120.00,8.00,0.00,30.21,M,6.21,M,SCT,M,M,M,4000.00,M,M,M,M,YBBN 060200Z 12008KT 9999 SCT040 20/08 Q1023
YBBN,2014-09-06 02:30,153.1292,-27.3917,68.00,44.60,42.85,110.00,11.00,0.00,30.21,M,6.21,M,SCT,M,M,M,4200.00,M,M,M,M,YBBN 060230Z 11011KT 9999 SCT042 20/07 Q1023 RMK DIST -SHRA SOUTH
YBBN,2014-09-06 03:00,153.1292,-27.3917,69.80,46.40,43.13,110.00,11.00,0.00,30.18,M,6.21,M,SCT,SCT,M,M,4200.00,25000.00,M,M,M,YBBN 060300Z 11011KT 9999 SCT042 SCT250 21/08 Q1022
YBBN,2014-09-06 03:30,153.1292,-27.3917,68.00,48.20,49.10,110.00,13.00,0.00,30.18,M,6.21,M,SCT,SCT,M,M,4200.00,5600.00,M,M,M,YBBN 060330Z 11013KT 9999 SCT042 SCT056 20/09 Q1022
YBBN,2014-09-06 04:00,153.1292,-27.3917,69.80,48.20,46.16,110.00,13.00,0.00,30.18,M,6.21,M,FEW,SCT,BKN,M,2700.00,4000.00,6300.00,M,M,YBBN 060400Z 11013KT 9999 FEW027 SCT040 BKN063 21/09 Q1022 NOSIG
YBBN,2014-09-06 04:30,153.1292,-27.3917,68.00,48.20,49.10,110.00,12.00,0.00,30.18,M,6.21,M,FEW,SCT,BKN,M,2700.00,4000.00,6200.00,M,M,YBBN 060430Z 11012KT 9999 FEW027 SCT040 BKN062 20/09 Q1022 RMK HZ
YBBN,2014-09-06 05:00,153.1292,-27.3917,68.00,50.00,52.51,110.00,12.00,0.00,30.18,M,6.21,M,FEW,SCT,BKN,M,2700.00,3900.00,7300.00,M,M,YBBN 060500Z 11012KT 9999 FEW027 SCT039 BKN073 20/10 Q1022
YBBN,2014-09-06 05:30,153.1292,-27.3917,66.20,50.00,55.88,120.00,12.00,0.00,30.21,M,6.21,M,FEW,SCT,BKN,M,2700.00,3800.00,7800.00,M,M,YBBN 060530Z 12012KT 9999 FEW027 SCT038 BKN078 19/10 Q1023 RMK HZ/ DIST -SHRA SW
YBBN,2014-09-06 06:00,153.1292,-27.3917,66.20,48.20,52.25,130.00,11.00,0.00,30.21,M,6.21,M,FEW,SCT,BKN,M,2600.00,3800.00,7400.00,M,M,YBBN 060600Z 13011KT 9999 FEW026 SCT038 BKN074 19/09 Q1023 NOSIG
YBBN,2014-09-06 06:30,153.1292,-27.3917,66.20,48.20,52.25,130.00,12.00,0.00,30.21,M,6.21,M,FEW,SCT,BKN,M,2600.00,3700.00,25000.00,M,M,YBBN 060630Z 13012KT 9999 FEW026 SCT037 BKN250 19/09 Q1023 RMK HZ
YBBN,2014-09-06 07:00,153.1292,-27.3917,66.20,48.20,52.25,130.00,11.00,0.00,30.21,M,6.21,M,FEW,BKN,M,M,2600.00,25000.00,M,M,M,YBBN 060700Z 13011KT 9999 FEW026 BKN250 19/09 Q1023
YBBN,2014-09-06 07:30,153.1292,-27.3917,66.20,46.40,48.83,140.00,11.00,0.00,30.24,M,6.21,M,FEW,BKN,M,M,2500.00,25000.00,M,M,M,YBBN 060730Z 14011KT 9999 FEW025 BKN250 19/08 Q1024
YBBN,2014-09-06 08:00,153.1292,-27.3917,64.40,48.20,55.63,140.00,12.00,0.00,30.24,M,6.21,M,M,M,M,M,M,M,M,M,M,YBBN 060800Z 14012KT CAVOK 18/09 Q1024
YBBN,2014-09-06 08:30,153.1292,-27.3917,64.40,48.20,55.63,140.00,10.00,0.00,30.24,M,6.21,M,M,M,M,M,M,M,M,M,M,YBBN 060830Z 14010KT CAVOK 18/09 Q1024
YBBN,2014-09-06 09:00,153.1292,-27.3917,64.40,46.40,51.98,140.00,10.00,0.00,30.27,M,6.21,M,M,M,M,M,M,M,M,M,M,YBBN 060900Z 14010KT CAVOK 18/08 Q1025 NOSIG
YBBN,2014-09-06 09:30,153.1292,-27.3917,64.40,48.20,55.63,150.00,9.00,0.00,30.27,M,6.21,M,M,M,M,M,M,M,M,M,M,YBBN 060930Z 15009KT CAVOK 18/09 Q1025
YBBN,2014-09-06 10:00,153.1292,-27.3917,62.60,48.20,59.26,150.00,7.00,0.00,30.27,M,6.21,M,M,M,M,M,M,M,M,M,M,YBBN 061000Z 15007KT CAVOK 17/09 Q1025
YBBN,2014-09-06 10:30,153.1292,-27.3917,62.60,48.20,59.26,170.00,7.00,0.00,30.30,M,6.21,M,M,M,M,M,M,M,M,M,M,YBBN 061030Z 17007KT CAVOK 17/09 Q1026
YBBN,2014-09-06 11:00,153.1292,-27.3917,60.80,48.20,63.15,170.00,8.00,0.00,30.30,M,6.21,M,M,M,M,M,M,M,M,M,M,YBBN 061100Z 17008KT CAVOK 16/09 Q1026
YBBN,2014-09-06 11:30,153.1292,-27.3917,60.80,48.20,63.15,180.00,7.00,0.00,30.30,M,6.21,M,M,M,M,M,M,M,M,M,M,YBBN 061130Z 18007KT CAVOK 16/09 Q1026
YBBN,2014-09-06 12:00,153.1292,-27.3917,60.80,48.20,63.15,180.00,7.00,0.00,30.30,M,6.21,M,M,M,M,M,M,M,M,M,M,YBBN 061200Z 18007KT CAVOK 16/09 Q1026 NOSIG
YBBN,2014-09-06 12:30,153.1292,-27.3917,59.00,48.20,67.33,200.00,6.00,0.00,30.30,M,6.21,M,M,M,M,M,M,M,M,M,M,YBBN 061230Z 20006KT CAVOK 15/09 Q1026
YBBN,2014-09-06 13:00,153.1292,-27.3917,60.80,48.20,63.15,190.00,5.00,0.00,30.30,M,6.21,M,M,M,M,M,M,M,M,M,M,YBBN 061300Z 19005KT CAVOK 16/09 Q1026 NOSIG
YBBN,2014-09-06 13:30,153.1292,-27.3917,59.00,48.20,67.33,190.00,5.00,0.00,30.30,M,6.21,M,FEW,SCT,M,M,4000.00,6000.00,M,M,M,YBBN 061330Z 19005KT 9999 FEW040 SCT060 15/09 Q1026
YBBN,2014-09-06 14:00,153.1292,-27.3917,59.00,50.00,72.01,180.00,3.00,0.00,30.30,M,6.21,M,FEW,SCT,M,M,2000.00,6000.00,M,M,VCSH,YBBN 061400Z 18003KT 9999 VCSH FEW020 SCT060 15/10 Q1026
YBBN,2014-09-06 14:30,153.1292,-27.3917,59.00,50.00,72.01,190.00,4.00,0.00,30.30,M,6.21,M,FEW,SCT,M,M,2000.00,5000.00,M,M,VCSH,YBBN 061430Z 19004KT 9999 VCSH FEW020 SCT050 15/10 Q1026
YBBN,2014-09-06 15:00,153.1292,-27.3917,57.20,51.80,82.12,210.00,8.00,0.00,30.30,M,6.21,M,FEW,SCT,M,M,2000.00,5000.00,M,M,VCSH,YBBN 061500Z 21008KT 9999 VCSH FEW020 SCT050 14/11 Q1026 NOSIG
YBBN,2014-09-06 15:30,153.1292,-27.3917,57.20,51.80,82.12,210.00,7.00,0.00,30.30,M,6.21,M,FEW,BKN,M,M,2000.00,5000.00,M,M,VCSH,YBBN 061530Z 21007KT 9999 VCSH FEW020 BKN050 14/11 Q1026
YBBN,2014-09-06 16:00,153.1292,-27.3917,57.20,50.00,76.82,210.00,8.00,0.00,30.27,M,6.21,M,FEW,SCT,M,M,2000.00,5000.00,M,M,VCSH,YBBN 061600Z 21008KT 9999 VCSH FEW020 SCT050 14/10 Q1025 NOSIG
YBBN,2014-09-06 16:30,153.1292,-27.3917,55.40,50.00,81.99,210.00,8.00,0.00,30.27,M,6.21,M,FEW,SCT,M,M,2000.00,5000.00,M,M,M,YBBN 061630Z 21008KT 9999 FEW020 SCT050 13/10 Q1025
YBBN,2014-09-06 17:00,153.1292,-27.3917,57.20,50.00,76.82,200.00,7.00,0.00,30.27,M,6.21,M,FEW,SCT,M,M,2000.00,5000.00,M,M,M,YBBN 061700Z 20007KT 9999 FEW020 SCT050 14/10 Q1025 NOSIG
YBBN,2014-09-06 17:30,153.1292,-27.3917,55.40,50.00,81.99,210.00,7.00,0.00,30.27,M,6.21,M,FEW,SCT,M,M,2000.00,5000.00,M,M,M,YBBN 061730Z 21007KT 9999 FEW020 SCT050 13/10 Q1025
YBBN,2014-09-06 18:00,153.1292,-27.3917,55.40,48.20,76.66,210.00,8.00,0.00,30.27,M,6.21,M,FEW,M,M,M,4500.00,M,M,M,M,YBBN 061800Z 21008KT 9999 FEW045 13/09 Q1025 NOSIG
YBBN,2014-09-06 18:30,153.1292,-27.3917,55.40,48.20,76.66,200.00,7.00,0.00,30.27,M,6.21,M,FEW,SCT,M,M,4000.00,25000.00,M,M,M,YBBN 061830Z 20007KT 9999 FEW040 SCT250 13/09 Q1025
YBBN,2014-09-06 19:00,153.1292,-27.3917,55.40,48.20,76.66,200.00,9.00,0.00,30.27,M,6.21,M,FEW,SCT,M,M,4000.00,25000.00,M,M,M,YBBN 061900Z 20009KT 9999 FEW040 SCT250 13/09 Q1025
YBBN,2014-09-06 19:30,153.1292,-27.3917,53.60,48.20,81.87,210.00,8.00,0.00,30.27,M,6.21,M,FEW,SCT,M,M,4000.00,25000.00,M,M,M,YBBN 061930Z 21008KT 9999 FEW040 SCT250 12/09 Q1025
YBBN,2014-09-06 20:00,153.1292,-27.3917,53.60,48.20,81.87,210.00,8.00,0.00,30.30,M,6.21,M,FEW,SCT,M,M,4000.00,25000.00,M,M,M,YBBN 062000Z 21008KT 9999 FEW040 SCT250 12/09 Q1026
YBBN,2014-09-06 20:30,153.1292,-27.3917,55.40,50.00,81.99,200.00,9.00,0.00,30.30,M,6.21,M,FEW,BKN,M,M,2600.00,23000.00,M,M,M,YBBN 062030Z 20009KT 9999 FEW026 BKN230 13/10 Q1026 RMK HZ/DIST -SHRA EAST
YBBN,2014-09-06 21:00,153.1292,-27.3917,59.00,50.00,72.01,200.00,8.00,0.00,30.30,M,6.21,M,FEW,SCT,M,M,2600.00,23000.00,M,M,M,YBBN 062100Z 20008KT 9999 FEW026 SCT230 15/10 Q1026 NOSIG
YBBN,2014-09-06 21:30,153.1292,-27.3917,60.80,50.00,67.54,200.00,8.00,0.00,30.30,M,6.21,M,FEW,M,M,M,3000.00,M,M,M,M,YBBN 062130Z 20008KT 9999 FEW030 16/10 Q1026
YBBN,2014-09-06 22:00,153.1292,-27.3917,62.60,50.00,63.38,190.00,9.00,0.00,30.30,M,6.21,M,FEW,M,M,M,3200.00,M,M,M,M,YBBN 062200Z 19009KT 9999 FEW032 17/10 Q1026 NOSIG
YBBN,2014-09-06 22:30,153.1292,-27.3917,64.40,50.00,59.50,160.00,9.00,0.00,30.33,M,6.21,M,FEW,SCT,M,M,3200.00,4000.00,M,M,M,YBBN 062230Z 16009KT 9999 FEW032 SCT040 18/10 Q1027
YBBN,2014-09-06 23:00,153.1292,-27.3917,66.20,51.80,59.74,130.00,9.00,0.00,30.33,M,6.21,M,FEW,BKN,M,M,3300.00,4200.00,M,M,M,YBBN 062300Z 13009KT 9999 FEW033 BKN042 19/11 Q1027
YBBN,2014-09-06 23:30,153.1292,-27.3917,66.20,51.80,59.74,140.00,8.00,0.00,30.30,M,6.21,M,FEW,SCT,BKN,FEW,2600.00,3300.00,5000.00,3400.00,M,YBBN 062330Z 14008KT 9999 FEW026 SCT033 BKN050 FEW034TCU 19/11 Q1026
