#DEBUG: Format Typ    -> comma
#DEBUG: Time Period   -> 2011-11-06 00:00:00+00:00 2011-11-07 00:00:00+00:00
#DEBUG: Time Zone     -> Etc/UTC
#DEBUG: Data Contact   -> daryl herzmann akrherz@iastate.edu 515-294-5978
#DEBUG: Entries Found -> -1
station,valid,lon,lat,tmpf, dwpf, relh, drct, sknt, p01i, alti, mslp, vsby, gust, skyc1, skyc2, skyc3, skyc4, skyl1, skyl2, skyl3, skyl4, presentwx, metar
YBBN,2011-11-06 00:00,153.1292,-27.3917,75.20,57.20,53.55,20.00,8.00,M,30.06,M,6.21,M,FEW,M,M,M,3500.00,M,M,M,M,YBBN 060000Z 02008KT 9999 FEW035 24/14 Q1018 NOSIG
YBBN,2011-11-06 00:30,153.1292,-27.3917,75.20,57.20,53.55,10.00,8.00,M,30.03,M,6.21,M,FEW,M,M,M,3500.00,M,M,M,M,YBBN 060030Z 01008KT 9999 FEW035 24/14 Q1017
YBBN,2011-11-06 01:00,153.1292,-27.3917,75.20,57.20,53.55,30.00,9.00,M,30.03,M,6.21,M,FEW,M,M,M,3800.00,M,M,M,M,YBBN 060100Z 03009KT 9999 FEW038 24/14 Q1017 NOSIG
YBBN,2011-11-06 01:30,153.1292,-27.3917,77.00,57.20,50.43,40.00,10.00,M,30.03,M,6.21,M,FEW,SCT,M,M,3800.00,25000.00,M,M,M,YBBN 060130Z 04010KT 9999 FEW038 SCT250 25/14 Q1017
YBBN,2011-11-06 02:00,153.1292,-27.3917,77.00,59.00,53.80,40.00,12.00,M,30.00,M,6.21,M,FEW,SCT,M,M,4000.00,25000.00,M,M,M,YBBN 060200Z 04012KT 9999 FEW040 SCT250 25/15 Q1016 NOSIG
YBBN,2011-11-06 02:30,153.1292,-27.3917,75.20,59.00,57.12,30.00,13.00,M,30.00,M,6.21,M,FEW,SCT,M,M,4000.00,25000.00,M,M,M,YBBN 060230Z 03013KT 9999 FEW040 SCT250 24/15 Q1016
YBBN,2011-11-06 03:00,153.1292,-27.3917,77.00,57.20,50.43,50.00,14.00,M,29.97,M,6.21,M,FEW,BKN,M,M,4000.00,25000.00,M,M,M,YBBN 060300Z 05014KT 9999 FEW040 BKN250 25/14 Q1015 NOSIG
YBBN,2011-11-06 03:30,153.1292,-27.3917,75.20,57.20,53.55,40.00,14.00,M,29.97,M,6.21,M,FEW,BKN,M,M,4000.00,27000.00,M,M,M,YBBN 060330Z 04014KT 9999 FEW040 BKN270 24/14 Q1015
YBBN,2011-11-06 04:00,153.1292,-27.3917,77.00,59.00,53.80,30.00,13.00,M,29.97,M,6.21,M,FEW,BKN,M,M,4000.00,27000.00,M,M,M,YBBN 060400Z 03013KT 9999 FEW040 BKN270 25/15 Q1015 NOSIG
YBBN,2011-11-06 04:30,153.1292,-27.3917,75.20,57.20,53.55,20.00,14.00,M,29.97,M,6.21,M,FEW,BKN,M,M,4000.00,27000.00,M,M,M,YBBN 060430Z 02014KT 9999 FEW040 BKN270 24/14 Q1015
YBBN,2011-11-06 05:00,153.1292,-27.3917,75.20,57.20,53.55,20.00,14.00,M,29.97,M,6.21,M,FEW,BKN,M,M,4000.00,27000.00,M,M,M,YBBN 060500Z 02014KT 9999 FEW040 BKN270 24/14 Q1015 NOSIG
YBBN,2011-11-06 05:30,153.1292,-27.3917,73.40,55.40,53.29,20.00,14.00,M,29.94,M,6.21,M,FEW,BKN,M,M,4000.00,27000.00,M,M,M,YBBN 060530Z 02014KT 9999 FEW040 BKN270 23/13 Q1014
YBBN,2011-11-06 06:00,153.1292,-27.3917,73.40,57.20,56.88,20.00,14.00,M,29.94,M,6.21,M,FEW,BKN,M,M,4000.00,27000.00,M,M,M,YBBN 060600Z 02014KT 9999 FEW040 BKN270 23/14 Q1014 NOSIG
YBBN,2011-11-06 06:30,153.1292,-27.3917,73.40,57.20,56.88,20.00,15.00,M,29.94,M,6.21,M,FEW,BKN,M,M,4000.00,27000.00,M,M,M,YBBN 060630Z 02015KT 9999 FEW040 BKN270 23/14 Q1014
YBBN,2011-11-06 07:00,153.1292,-27.3917,71.60,57.20,60.44,20.00,14.00,M,29.94,M,6.21,M,M,M,M,M,M,M,M,M,M,YBBN 060700Z 02014KT CAVOK 22/14 Q1014 NOSIG
YBBN,2011-11-06 07:30,153.1292,-27.3917,71.60,59.00,64.48,20.00,13.00,M,29.97,M,6.21,M,M,M,M,M,M,M,M,M,M,YBBN 060730Z 02013KT CAVOK 22/15 Q1015
YBBN,2011-11-06 08:00,153.1292,-27.3917,71.60,57.20,60.44,20.00,13.00,M,29.97,M,6.21,M,M,M,M,M,M,M,M,M,M,YBBN 060800Z 02013KT CAVOK 22/14 Q1015 NOSIG
YBBN,2011-11-06 08:30,153.1292,-27.3917,69.80,57.20,64.26,20.00,13.00,M,29.97,M,6.21,M,M,M,M,M,M,M,M,M,M,YBBN 060830Z 02013KT CAVOK 21/14 Q1015
YBBN,2011-11-06 09:00,153.1292,-27.3917,69.80,57.20,64.26,20.00,14.00,M,30.00,M,6.21,M,M,M,M,M,M,M,M,M,M,YBBN 060900Z 02014KT CAVOK 21/14 Q1016 NOSIG
YBBN,2011-11-06 10:30,153.1292,-27.3917,69.80,57.20,64.26,10.00,12.00,M,30.03,M,6.21,M,FEW,BKN,M,M,4000.00,24000.00,M,M,M,YBBN 061030Z 01012KT 9999 FEW040 BKN240 21/14 Q1017
YBBN,2011-11-06 11:00,153.1292,-27.3917,69.80,59.00,68.55,10.00,11.00,M,30.03,M,6.21,M,FEW,BKN,M,M,2700.00,23000.00,M,M,M,YBBN 061100Z 01011KT 9999 FEW027 BKN230 21/15 Q1017 NOSIG
YBBN,2011-11-06 11:30,153.1292,-27.3917,69.80,59.00,68.55,10.00,12.00,M,30.03,M,6.21,M,FEW,BKN,M,M,2900.00,23000.00,M,M,M,YBBN 061130Z 01012KT 9999 FEW029 BKN230 21/15 Q1017
YBBN,2011-11-06 12:00,153.1292,-27.3917,69.80,59.00,68.55,360.00,13.00,M,30.03,M,6.21,M,FEW,BKN,M,M,2900.00,23000.00,M,M,M,YBBN 061200Z 36013KT 9999 FEW029 BKN230 21/15 Q1017 NOSIG
YBBN,2011-11-06 12:30,153.1292,-27.3917,69.80,57.20,64.26,360.00,11.00,M,30.00,M,6.21,M,FEW,BKN,M,M,2900.00,23000.00,M,M,M,YBBN 061230Z 36011KT 9999 FEW029 BKN230 21/14 Q1016
YBBN,2011-11-06 13:00,153.1292,-27.3917,69.80,57.20,64.26,10.00,11.00,M,30.00,M,6.21,M,FEW,BKN,M,M,3000.00,23000.00,M,M,M,YBBN 061300Z 01011KT 9999 FEW030 BKN230 21/14 Q1016 NOSIG
YBBN,2011-11-06 13:30,153.1292,-27.3917,68.00,59.00,72.92,360.00,11.00,M,30.00,M,6.21,M,FEW,BKN,M,M,3000.00,30000.00,M,M,M,YBBN 061330Z 36011KT 9999 FEW030 BKN300 20/15 Q1016
YBBN,2011-11-06 14:00,153.1292,-27.3917,66.20,59.00,77.60,320.00,7.00,M,30.00,M,6.21,M,FEW,BKN,M,M,3000.00,30000.00,M,M,M,YBBN 061400Z 32007KT 9999 FEW030 BKN300 19/15 Q1016 NOSIG
YBBN,2011-11-06 14:30,153.1292,-27.3917,66.20,59.00,77.60,310.00,6.00,M,30.00,M,6.21,M,FEW,BKN,M,M,3000.00,30000.00,M,M,M,YBBN 061430Z 31006KT 9999 FEW030 BKN300 19/15 Q1016
YBBN,2011-11-06 15:00,153.1292,-27.3917,64.40,57.20,77.45,310.00,6.00,M,29.97,M,6.21,M,FEW,SCT,M,M,3000.00,28000.00,M,M,M,YBBN 061500Z 31006KT 9999 FEW030 SCT280 18/14 Q1015 NOSIG
YBBN,2011-11-06 15:30,153.1292,-27.3917,64.40,57.20,77.45,310.00,6.00,M,29.97,M,6.21,M,FEW,SCT,M,M,3000.00,30000.00,M,M,M,YBBN 061530Z 31006KT 9999 FEW030 SCT300 18/14 Q1015
YBBN,2011-11-06 16:00,153.1292,-27.3917,62.60,57.20,82.50,320.00,5.00,M,29.97,M,6.21,M,FEW,SCT,M,M,3000.00,30000.00,M,M,M,YBBN 061600Z 32005KT 9999 FEW030 SCT300 17/14 Q1015 NOSIG
YBBN,2011-11-06 16:30,153.1292,-27.3917,62.60,57.20,82.50,320.00,5.00,M,29.97,M,6.21,M,FEW,SCT,M,M,3000.00,30000.00,M,M,M,YBBN 061630Z 32005KT 9999 FEW030 SCT300 17/14 Q1015
YBBN,2011-11-06 17:00,153.1292,-27.3917,62.60,57.20,82.50,330.00,5.00,M,29.97,M,6.21,M,FEW,SCT,M,M,3000.00,30000.00,M,M,M,YBBN 061700Z 33005KT 9999 FEW030 SCT300 17/14 Q1015 NOSIG
YBBN,2011-11-06 17:30,153.1292,-27.3917,60.80,57.20,87.92,330.00,3.00,M,29.97,M,6.21,M,FEW,M,M,M,3000.00,M,M,M,M,YBBN 061730Z 33003KT 9999 FEW030 16/14 Q1015
YBBN,2011-11-06 18:00,153.1292,-27.3917,60.80,57.20,87.92,0.00,0.00,M,29.97,M,6.21,M,FEW,M,M,M,3000.00,M,M,M,M,YBBN 061800Z 00000KT 9999 FEW030 16/14 Q1015 NOSIG
YBBN,2011-11-06 18:30,153.1292,-27.3917,60.80,57.20,87.92,0.00,0.00,M,30.00,M,6.21,M,FEW,M,M,M,3000.00,M,M,M,M,YBBN 061830Z 00000KT 9999 FEW030 16/14 Q1016
YBBN,2011-11-06 19:00,153.1292,-27.3917,59.00,57.20,93.74,0.00,0.00,M,30.00,M,6.21,M,FEW,M,M,M,3000.00,M,M,M,M,YBBN 061900Z 00000KT 9999 FEW030 15/14 Q1016 NOSIG
YBBN,2011-11-06 19:30,153.1292,-27.3917,60.80,57.20,87.92,280.00,1.00,M,30.00,M,6.21,M,FEW,M,M,M,3000.00,M,M,M,M,YBBN 061930Z 28001KT 9999 FEW030 16/14 Q1016
YBBN,2011-11-06 20:00,153.1292,-27.3917,64.40,60.80,88.09,0.00,0.00,M,30.00,M,6.21,M,FEW,SCT,M,M,3000.00,23000.00,M,M,M,YBBN 062000Z 00000KT 9999 FEW030 SCT230 18/16 Q1016 NOSIG
YBBN,2011-11-06 20:30,153.1292,-27.3917,68.00,59.00,72.92,240.00,4.00,M,30.03,M,6.21,M,FEW,SCT,M,M,3000.00,23000.00,M,M,M,YBBN 062030Z 24004KT 9999 FEW030 SCT230 20/15 Q1017
YBBN,2011-11-06 21:00,153.1292,-27.3917,69.80,57.20,64.26,310.00,6.00,M,30.06,M,6.21,M,FEW,SCT,M,M,3000.00,23000.00,M,M,M,YBBN 062100Z 31006KT 9999 FEW030 SCT230 21/14 Q1018 NOSIG
YBBN,2011-11-06 21:30,153.1292,-27.3917,71.60,59.00,64.48,310.00,5.00,M,30.06,M,6.21,M,FEW,SCT,M,M,3000.00,23000.00,M,M,M,YBBN 062130Z 31005KT 9999 FEW030 SCT230 22/15 Q1018
YBBN,2011-11-06 22:00,153.1292,-27.3917,75.20,59.00,57.12,350.00,6.00,M,30.06,M,6.21,M,FEW,M,M,M,3000.00,M,M,M,M,YBBN 062200Z 35006KT 9999 FEW030 24/15 Q1018 NOSIG
YBBN,2011-11-06 22:30,153.1292,-27.3917,73.40,59.00,60.67,10.00,7.00,M,30.06,M,6.21,M,FEW,M,M,M,3000.00,M,M,M,M,YBBN 062230Z 01007KT 9999 FEW030 23/15 Q1018
YBBN,2011-11-06 23:00,153.1292,-27.3917,75.20,57.20,53.55,10.00,6.00,M,30.06,M,6.21,M,FEW,M,M,M,3500.00,M,M,M,M,YBBN 062300Z 01006KT 9999 FEW035 24/14 Q1018 NOSIG
YBBN,2011-11-06 23:30,153.1292,-27.3917,75.20,57.20,53.55,20.00,7.00,M,30.06,M,6.21,M,FEW,M,M,M,3000.00,M,M,M,M,YBBN 062330Z 02007KT 9999 FEW030 24/14 Q1018
