#DEBUG: Format Typ    -> comma
#DEBUG: Time Period   -> 2010-12-28 00:00:00+00:00 2010-12-29 00:00:00+00:00
#DEBUG: Time Zone     -> Etc/UTC
#DEBUG: Data Contact   -> daryl herzmann akrherz@iastate.edu 515-294-5978
#DEBUG: Entries Found -> -1
station,valid,lon,lat,tmpf, dwpf, relh, drct, sknt, p01i, alti, mslp, vsby, gust, skyc1, skyc2, skyc3, skyc4, skyl1, skyl2, skyl3, skyl4, presentwx, metar
YBBN,2010-12-28 08:00,153.1292,-27.3917,73.40,62.60,68.94,130.00,14.00,M,29.94,M,6.21,M,SCT,SCT,BKN,M,3000.00,3500.00,6000.00,M,VCSH,YBBN 280800Z 13014KT 9999 VCSH SCT030 SCT035 BKN060 23/17 Q1014 NOSIG
YBBN,2010-12-28 08:30,153.1292,-27.3917,75.20,62.60,64.91,140.00,12.00,M,29.94,M,6.21,22.00,FEW,SCT,BKN,M,3000.00,3500.00,4900.00,M,M,YBBN 280830Z 14012G22KT 9999 FEW030 SCT035 BKN049 24/17 Q1014 NOSIG
YBBN,2010-12-28 09:00,153.1292,-27.3917,75.20,62.60,64.91,140.00,12.00,M,29.97,M,6.21,M,FEW,SCT,BKN,M,1200.00,4900.00,6600.00,M,M,YBBN 280900Z 14012KT 9999 FEW012 SCT049 BKN066 24/17 Q1015 NOSIG
YBBN,2010-12-28 09:30,153.1292,-27.3917,75.20,60.80,60.90,150.00,11.00,M,29.97,M,6.21,M,FEW,BKN,M,M,1100.00,6600.00,M,M,M,YBBN 280930Z 15011KT 9999 FEW011 BKN066 24/16 Q1015 NOSIG
YBBN,2010-12-28 10:00,153.1292,-27.3917,73.40,60.80,64.69,150.00,10.00,M,29.97,M,6.21,M,SCT,BKN,M,M,4400.00,8200.00,M,M,M,YBBN 281000Z 15010KT 9999 SCT044 BKN082 23/16 Q1015 NOSIG
YBBN,2010-12-28 10:30,153.1292,-27.3917,73.40,62.60,68.94,150.00,12.00,M,29.97,M,6.21,M,M,M,M,M,M,M,M,M,M,YBBN 281030Z 15012KT CAVOK 23/17 Q1015 RMK 7SC076 NOSIG
YBBN,2010-12-28 11:00,153.1292,-27.3917,73.40,62.60,68.94,150.00,10.00,M,29.97,M,6.21,M,M,M,M,M,M,M,M,M,M,YBBN 281100Z 15010KT CAVOK 23/17 Q1015 RMK 7SC078 NOSIG
YBBN,2010-12-28 11:30,153.1292,-27.3917,73.40,62.60,68.94,150.00,9.00,M,29.97,M,6.21,M,M,M,M,M,M,M,M,M,M,YBBN 281130Z 15009KT CAVOK 23/17 Q1015 RMK 7SC067 NOSIG
YBBN,2010-12-28 12:00,153.1292,-27.3917,73.40,62.60,68.94,150.00,10.00,M,29.97,M,6.21,M,FEW,BKN,M,M,2500.00,6600.00,M,M,M,YBBN 281200Z 15010KT 9999 FEW025 BKN066 23/17 Q1015 NOSIG
YBBN,2010-12-28 12:30,153.1292,-27.3917,73.40,62.60,68.94,150.00,9.00,M,29.97,M,6.21,M,FEW,BKN,M,M,2500.00,6600.00,M,M,M,YBBN 281230Z 15009KT 9999 FEW025 BKN066 23/17 Q1015 NOSIG
YBBN,2010-12-28 13:00,153.1292,-27.3917,73.40,59.00,60.67,150.00,10.00,M,29.97,M,6.21,M,FEW,BKN,M,M,3000.00,6600.00,M,M,M,YBBN 281300Z 15010KT 9999 FEW030 BKN066 23/15 Q1015 NOSIG
YBBN,2010-12-28 13:30,153.1292,-27.3917,73.40,60.80,64.69,150.00,10.00,M,29.97,M,6.21,M,M,M,M,M,M,M,M,M,M,YBBN 281330Z 15010KT CAVOK 23/16 Q1015 RMK 7SC066 NOSIG
YBBN,2010-12-28 14:00,153.1292,-27.3917,73.40,59.00,60.67,150.00,9.00,M,29.97,M,6.21,M,FEW,BKN,M,M,3000.00,6600.00,M,M,M,YBBN 281400Z 15009KT 9999 FEW030 BKN066 23/15 Q1015 NOSIG
YBBN,2010-12-28 14:30,153.1292,-27.3917,73.40,59.00,60.67,150.00,11.00,M,29.94,M,6.21,M,FEW,BKN,M,M,3000.00,6600.00,M,M,VCSH,YBBN 281430Z 15011KT 9999 VCSH FEW030 BKN066 23/15 Q1014 NOSIG
YBBN,2010-12-28 15:00,153.1292,-27.3917,73.40,60.80,64.69,150.00,9.00,M,29.94,M,6.21,M,FEW,BKN,M,M,2500.00,6400.00,M,M,VCSH,YBBN 281500Z 15009KT 9999 VCSH FEW025 BKN064 23/16 Q1014 NOSIG
YBBN,2010-12-28 15:30,153.1292,-27.3917,73.40,60.80,64.69,160.00,10.00,M,29.94,M,6.21,M,FEW,BKN,M,M,2500.00,6400.00,M,M,VCSH,YBBN 281530Z 16010KT 9999 VCSH FEW025 BKN064 23/16 Q1014 NOSIG
YBBN,2010-12-28 16:00,153.1292,-27.3917,71.60,60.80,68.75,150.00,10.00,M,29.91,M,6.21,M,FEW,BKN,M,M,2500.00,6400.00,M,M,-SHRA,YBBN 281600Z 15010KT 9999 -SHRA FEW025 BKN064 22/16 Q1013 NOSIG
YBBN,2010-12-28 16:30,153.1292,-27.3917,71.60,60.80,68.75,160.00,9.00,M,29.91,M,6.21,M,FEW,BKN,M,M,2500.00,6400.00,M,M,VCSH,YBBN 281630Z 16009KT 9999 VCSH FEW025 BKN064 22/16 Q1013 NOSIG
YBBN,2010-12-28 17:00,153.1292,-27.3917,71.60,60.80,68.75,160.00,9.00,M,29.91,M,6.21,M,FEW,BKN,M,M,3000.00,6600.00,M,M,VCSH,YBBN 281700Z 16009KT 9999 VCSH FEW030 BKN066 22/16 Q1013 NOSIG
YBBN,2010-12-28 17:30,153.1292,-27.3917,71.60,60.80,68.75,170.00,9.00,M,29.91,M,6.21,M,FEW,BKN,M,M,3000.00,6200.00,M,M,M,YBBN 281730Z 17009KT 9999 FEW030 BKN062 22/16 Q1013 NOSIG
YBBN,2010-12-28 18:00,153.1292,-27.3917,71.60,62.60,73.27,160.00,9.00,M,29.91,M,6.21,M,FEW,BKN,M,M,3000.00,5800.00,M,M,M,YBBN 281800Z 16009KT 9999 FEW030 BKN058 22/17 Q1013 NOSIG
YBBN,2010-12-28 18:30,153.1292,-27.3917,71.60,62.60,73.27,170.00,8.00,M,29.91,M,6.21,M,FEW,BKN,M,M,3000.00,5600.00,M,M,M,YBBN 281830Z 17008KT 9999 FEW030 BKN056 22/17 Q1013 NOSIG
YBBN,2010-12-28 19:00,153.1292,-27.3917,69.80,60.80,73.09,210.00,6.00,M,29.94,M,6.21,M,FEW,BKN,M,M,2800.00,5600.00,M,M,M,YBBN 281900Z 21006KT 9999 FEW028 BKN056 21/16 Q1014 NOSIG
YBBN,2010-12-28 19:30,153.1292,-27.3917,69.80,60.80,73.09,210.00,7.00,M,29.94,M,6.21,M,FEW,BKN,M,M,3000.00,5400.00,M,M,M,YBBN 281930Z 21007KT 9999 FEW030 BKN054 21/16 Q1014 NOSIG
YBBN,2010-12-28 20:00,153.1292,-27.3917,69.80,60.80,73.09,210.00,7.00,M,29.97,M,6.21,M,FEW,SCT,BKN,M,2300.00,5300.00,11000.00,M,VCSH,YBBN 282000Z 21007KT 9999 VCSH FEW023 SCT053 BKN110 21/16 Q1015 NOSIG
YBBN,2010-12-28 20:30,153.1292,-27.3917,71.60,60.80,68.75,210.00,8.00,M,29.97,M,6.21,M,FEW,BKN,BKN,M,2000.00,5200.00,10000.00,M,M,YBBN 282030Z 21008KT 9999 FEW020 BKN052 BKN100 22/16 Q1015 NOSIG
YBBN,2010-12-28 21:00,153.1292,-27.3917,71.60,60.80,68.75,200.00,8.00,M,29.97,M,6.21,M,FEW,BKN,BKN,M,2000.00,5000.00,10000.00,M,M,YBBN 282100Z 20008KT 9999 FEW020 BKN050 BKN100 22/16 Q1015 NOSIG
YBBN,2010-12-28 21:30,153.1292,-27.3917,73.40,62.60,68.94,190.00,7.00,M,29.97,M,6.21,M,FEW,BKN,BKN,M,2000.00,5000.00,10000.00,M,M,YBBN 282130Z 19007KT 9999 FEW020 BKN050 BKN100 23/17 Q1015 NOSIG
YBBN,2010-12-28 22:00,153.1292,-27.3917,73.40,62.60,68.94,180.00,9.00,M,29.97,M,6.21,M,FEW,BKN,BKN,M,2000.00,4800.00,7300.00,M,M,YBBN 282200Z 18009KT 9999 FEW020 BKN048 BKN073 23/17 Q1015 NOSIG
YBBN,2010-12-28 22:30,153.1292,-27.3917,75.20,62.60,64.91,180.00,10.00,M,29.97,M,6.21,M,FEW,BKN,BKN,M,2500.00,4600.00,10000.00,M,M,YBBN 282230Z 18010KT 9999 FEW025 BKN046 BKN100 24/17 Q1015 NOSIG
YBBN,2010-12-28 23:00,153.1292,-27.3917,75.20,62.60,64.91,160.00,9.00,M,29.97,M,6.21,M,FEW,BKN,M,M,2800.00,4400.00,M,M,M,YBBN 282300Z 16009KT 9999 FEW028 BKN044 24/17 Q1015 NOSIG
YBBN,2010-12-28 23:30,153.1292,-27.3917,75.20,60.80,60.90,170.00,9.00,M,29.97,M,6.21,M,FEW,BKN,M,M,2800.00,4000.00,M,M,M,YBBN 282330Z 17009KT 9999 FEW028 BKN040 24/16 Q1015 NOSIG
