#DEBUG: Format Typ    -> comma
#DEBUG: Time Period   -> 2014-10-08 00:00:00+00:00 2014-10-09 00:00:00+00:00
#DEBUG: Time Zone     -> Etc/UTC
#DEBUG: Data Contact   -> daryl herzmann akrherz@iastate.edu 515-294-5978
#DEBUG: Entries Found -> -1
station,valid,lon,lat,tmpf, dwpf, relh, drct, sknt, p01i, alti, mslp, vsby, gust, skyc1, skyc2, skyc3, skyc4, skyl1, skyl2, skyl3, skyl4, presentwx, metar
YBBN,2014-10-08 00:00,153.1292,-27.3917,78.80,64.40,61.36,10.00,7.00,0.00,29.91,M,6.21,M,M,M,M,M,M,M,M,M,M,YBBN 080000Z 01007KT CAVOK 26/18 Q1013 NOSIG
YBBN,2014-10-08 00:30,153.1292,-27.3917,78.80,62.60,57.60,30.00,9.00,0.00,29.91,M,6.21,M,M,M,M,M,M,M,M,M,M,YBBN 080030Z 03009KT CAVOK 26/17 Q1013
YBBN,2014-10-08 01:00,153.1292,-27.3917,80.60,64.40,57.84,40.00,10.00,0.00,29.91,M,6.21,M,M,M,M,M,M,M,M,M,M,YBBN 080100Z 04010KT CAVOK 27/18 Q1013 NOSIG
YBBN,2014-10-08 01:30,153.1292,-27.3917,78.80,64.40,61.36,40.00,15.00,0.00,29.88,M,6.21,M,FEW,M,M,M,3000.00,M,M,M,M,YBBN 080130Z 04015KT 9999 FEW030 26/18 Q1012
YBBN,2014-10-08 02:00,153.1292,-27.3917,78.80,62.60,57.60,30.00,13.00,0.00,29.88,M,6.21,M,FEW,M,M,M,3000.00,M,M,M,M,YBBN 080200Z 03013KT 9999 FEW030 26/17 Q1012 FM0400 13014KT 9999 FEW020 BKN030
YBBN,2014-10-08 02:30,153.1292,-27.3917,78.80,60.80,54.05,50.00,11.00,0.00,29.88,M,6.21,M,FEW,M,M,M,3000.00,M,M,M,M,YBBN 080230Z 05011KT 9999 FEW030 26/16 Q1012
YBBN,2014-10-08 03:00,153.1292,-27.3917,77.00,62.60,61.13,90.00,8.00,0.00,29.85,M,6.21,M,FEW,M,M,M,3000.00,M,M,M,M,YBBN 080300Z 09008KT 9999 FEW030 25/17 Q1011 FM0330 13014KT 9999 FEW020 BKN030
YBBN,2014-10-08 03:30,153.1292,-27.3917,77.00,64.40,65.12,90.00,9.00,0.00,29.85,M,6.21,M,FEW,M,M,M,3000.00,M,M,M,M,YBBN 080330Z 09009KT 9999 FEW030 25/18 Q1011
YBBN,2014-10-08 04:00,153.1292,-27.3917,77.00,64.40,65.12,70.00,11.00,0.00,29.85,M,6.21,M,FEW,M,M,M,3000.00,M,M,M,M,YBBN 080400Z 07011KT 9999 FEW030 25/18 Q1011 FM0415 13014KT 9999 FEW020 BKN030
YBBN,2014-10-08 04:30,153.1292,-27.3917,77.00,64.40,65.12,70.00,12.00,0.00,29.85,M,6.21,M,FEW,SCT,M,M,3000.00,10000.00,M,M,M,YBBN 080430Z 07012KT 9999 FEW030 SCT100 25/18 Q1011
YBBN,2014-10-08 05:00,153.1292,-27.3917,77.00,64.40,65.12,70.00,12.00,0.00,29.85,M,6.21,M,SCT,M,M,M,2400.00,M,M,M,M,YBBN 080500Z 07012KT 9999 SCT024 25/18 Q1011
YBBN,2014-10-08 05:30,153.1292,-27.3917,73.40,66.20,78.19,70.00,11.00,0.00,29.85,M,6.21,M,FEW,BKN,M,M,1000.00,2000.00,M,M,M,YBBN 080530Z 07011KT 9999 FEW010 BKN020 23/19 Q1011
YBBN,2014-10-08 06:00,153.1292,-27.3917,73.40,66.20,78.19,120.00,11.00,0.00,29.88,M,5.59,M,FEW,BKN,M,M,800.00,1300.00,M,M,-RA,YBBN 080600Z 12011KT 9000 -RA FEW008 BKN013 23/19 Q1012
YBBN,2014-10-08 06:30,153.1292,-27.3917,73.40,66.20,78.19,120.00,11.00,0.00,29.88,M,5.59,M,FEW,SCT,BKN,M,800.00,1300.00,1600.00,M,-RA,YBBN 080630Z 12011KT 9000 -RA FEW008 SCT013 BKN016 23/19 Q1012
YBBN,2014-10-08 07:00,153.1292,-27.3917,73.40,64.40,73.44,110.00,11.00,0.00,29.91,M,5.59,M,SCT,BKN,M,M,1300.00,1800.00,M,M,VCSH,YBBN 080700Z 11011KT 9000 VCSH SCT013 BKN018 23/18 Q1013 NOSIG
YBBN,2014-10-08 07:30,153.1292,-27.3917,73.40,64.40,73.44,110.00,10.00,0.00,29.91,M,6.21,M,FEW,BKN,M,M,1300.00,2000.00,M,M,M,YBBN 080730Z 11010KT 9999 FEW013 BKN020 23/18 Q1013
YBBN,2014-10-08 08:00,153.1292,-27.3917,71.60,64.40,78.04,130.00,10.00,0.00,29.94,M,6.21,M,FEW,SCT,BKN,M,1500.00,2000.00,3000.00,M,M,YBBN 080800Z 13010KT 9999 FEW015 SCT020 BKN030 22/18 Q1014 NOSIG
YBBN,2014-10-08 08:30,153.1292,-27.3917,71.60,62.60,73.27,140.00,11.00,0.00,29.94,M,6.21,M,FEW,BKN,M,M,1500.00,3700.00,M,M,M,YBBN 080830Z 14011KT 9999 FEW015 BKN037 22/17 Q1014
YBBN,2014-10-08 09:00,153.1292,-27.3917,71.60,62.60,73.27,140.00,10.00,0.00,29.97,M,6.21,M,FEW,BKN,M,M,1600.00,4000.00,M,M,M,YBBN 080900Z 14010KT 9999 FEW016 BKN040 22/17 Q1015 NOSIG
YBBN,2014-10-08 09:30,153.1292,-27.3917,71.60,60.80,68.75,140.00,13.00,0.00,30.00,M,6.21,M,FEW,BKN,M,M,1600.00,4600.00,M,M,M,YBBN 080930Z 14013KT 9999 FEW016 BKN046 22/16 Q1016
YBBN,2014-10-08 10:00,153.1292,-27.3917,71.60,59.00,64.48,140.00,10.00,0.00,30.00,M,6.21,M,FEW,BKN,M,M,1800.00,4900.00,M,M,M,YBBN 081000Z 14010KT 9999 FEW018 BKN049 22/15 Q1016 NOSIG
YBBN,2014-10-08 10:30,153.1292,-27.3917,71.60,60.80,68.75,130.00,12.00,0.00,30.03,M,6.21,22.00,FEW,BKN,M,M,1800.00,6000.00,M,M,M,YBBN 081030Z 13012G22KT 9999 FEW018 BKN060 22/16 Q1017
YBBN,2014-10-08 11:00,153.1292,-27.3917,71.60,59.00,64.48,140.00,12.00,0.00,30.03,M,6.21,23.00,FEW,BKN,M,M,1800.00,5000.00,M,M,M,YBBN 081100Z 14012G23KT 9999 FEW018 BKN050 22/15 Q1017
YBBN,2014-10-08 11:30,153.1292,-27.3917,71.60,57.20,60.44,140.00,9.00,0.00,30.03,M,6.21,M,FEW,SCT,M,M,1800.00,5200.00,M,M,M,YBBN 081130Z 14009KT 9999 FEW018 SCT052 22/14 Q1017
YBBN,2014-10-08 12:00,153.1292,-27.3917,69.80,57.20,64.26,140.00,12.00,0.00,30.03,M,6.21,M,FEW,M,M,M,1800.00,M,M,M,M,YBBN 081200Z 14012KT 9999 FEW018 21/14 Q1017 NOSIG
YBBN,2014-10-08 12:30,153.1292,-27.3917,69.80,59.00,68.55,150.00,10.00,0.00,30.06,M,6.21,M,FEW,SCT,M,M,1800.00,5000.00,M,M,M,YBBN 081230Z 15010KT 9999 FEW018 SCT050 21/15 Q1018
YBBN,2014-10-08 13:00,153.1292,-27.3917,69.80,59.00,68.55,150.00,9.00,0.00,30.06,M,6.21,M,FEW,BKN,M,M,2000.00,5200.00,M,M,M,YBBN 081300Z 15009KT 9999 FEW020 BKN052 21/15 Q1018 NOSIG
YBBN,2014-10-08 13:30,153.1292,-27.3917,69.80,57.20,64.26,150.00,7.00,0.00,30.06,M,6.21,M,FEW,BKN,M,M,2000.00,5500.00,M,M,M,YBBN 081330Z 15007KT 9999 FEW020 BKN055 21/14 Q1018
YBBN,2014-10-08 14:00,153.1292,-27.3917,69.80,59.00,68.55,150.00,8.00,0.00,30.03,M,6.21,M,M,M,M,M,M,M,M,M,M,YBBN 081400Z 15008KT CAVOK 21/15 Q1017
YBBN,2014-10-08 14:30,153.1292,-27.3917,69.80,59.00,68.55,150.00,9.00,0.00,30.03,M,6.21,M,M,M,M,M,M,M,M,M,M,YBBN 081430Z 15009KT CAVOK 21/15 Q1017 RMK 5SC055
YBBN,2014-10-08 15:00,153.1292,-27.3917,69.80,57.20,64.26,160.00,7.00,0.00,30.03,M,6.21,M,M,M,M,M,M,M,M,M,M,YBBN 081500Z 16007KT CAVOK 21/14 Q1017 NOSIG
YBBN,2014-10-08 15:30,153.1292,-27.3917,68.00,57.20,68.35,160.00,7.00,0.00,30.03,M,6.21,M,M,M,M,M,M,M,M,M,M,YBBN 081530Z 16007KT CAVOK 20/14 Q1017 RMK 6SC060
YBBN,2014-10-08 16:00,153.1292,-27.3917,68.00,57.20,68.35,160.00,8.00,0.00,30.00,M,6.21,M,M,M,M,M,M,M,M,M,M,YBBN 081600Z 16008KT CAVOK 20/14 Q1016 NOSIG
YBBN,2014-10-08 16:30,153.1292,-27.3917,68.00,57.20,68.35,170.00,8.00,0.00,30.00,M,6.21,M,M,M,M,M,M,M,M,M,M,YBBN 081630Z 17008KT CAVOK 20/14 Q1016
YBBN,2014-10-08 17:00,153.1292,-27.3917,68.00,57.20,68.35,160.00,7.00,0.00,30.00,M,6.21,M,M,M,M,M,M,M,M,M,M,YBBN 081700Z 16007KT CAVOK 20/14 Q1016 NOSIG
YBBN,2014-10-08 17:30,153.1292,-27.3917,66.20,57.20,72.74,170.00,7.00,0.00,30.03,M,6.21,M,M,M,M,M,M,M,M,M,M,YBBN 081730Z 17007KT CAVOK 19/14 Q1017
YBBN,2014-10-08 18:00,153.1292,-27.3917,66.20,57.20,72.74,170.00,6.00,0.00,30.03,M,6.21,M,M,M,M,M,M,M,M,M,M,YBBN 081800Z 17006KT CAVOK 19/14 Q1017 NOSIG
YBBN,2014-10-08 18:30,153.1292,-27.3917,66.20,57.20,72.74,160.00,6.00,0.00,30.03,M,6.21,M,FEW,SCT,M,M,1800.00,6200.00,M,M,M,YBBN 081830Z 16006KT 9999 FEW018 SCT062 19/14 Q1017
YBBN,2014-10-08 19:00,153.1292,-27.3917,66.20,57.20,72.74,170.00,6.00,0.00,30.06,M,6.21,M,FEW,BKN,M,M,2000.00,6400.00,M,M,M,YBBN 081900Z 17006KT 9999 FEW020 BKN064 19/14 Q1018 NOSIG
YBBN,2014-10-08 19:30,153.1292,-27.3917,66.20,57.20,72.74,170.00,7.00,0.00,30.06,M,6.21,M,FEW,BKN,M,M,2800.00,6200.00,M,M,M,YBBN 081930Z 17007KT 9999 FEW028 BKN062 19/14 Q1018
YBBN,2014-10-08 20:00,153.1292,-27.3917,68.00,57.20,68.35,160.00,7.00,0.00,30.06,M,6.21,M,FEW,BKN,M,M,3000.00,6500.00,M,M,M,YBBN 082000Z 16007KT 9999 FEW030 BKN065 20/14 Q1018 NOSIG
YBBN,2014-10-08 20:30,153.1292,-27.3917,68.00,57.20,68.35,160.00,7.00,0.00,30.09,M,6.21,M,FEW,SCT,BKN,M,2800.00,4500.00,6400.00,M,M,YBBN 082030Z 16007KT 9999 FEW028 SCT045 BKN064 20/14 Q1019
YBBN,2014-10-08 21:00,153.1292,-27.3917,68.00,57.20,68.35,160.00,6.00,0.00,30.09,M,6.21,M,FEW,BKN,M,M,3000.00,6200.00,M,M,M,YBBN 082100Z 16006KT 9999 FEW030 BKN062 20/14 Q1019
YBBN,2014-10-08 21:30,153.1292,-27.3917,69.80,57.20,64.26,160.00,7.00,0.00,30.09,M,6.21,M,FEW,BKN,M,M,3000.00,7200.00,M,M,M,YBBN 082130Z 16007KT 9999 FEW030 BKN072 21/14 Q1019
YBBN,2014-10-08 22:00,153.1292,-27.3917,69.80,59.00,68.55,150.00,8.00,0.00,30.12,M,6.21,M,SCT,BKN,M,M,2500.00,6500.00,M,M,M,YBBN 082200Z 15008KT 9999 SCT025 BKN065 21/15 Q1020 FM2300 13018KT 9999 SCT040
YBBN,2014-10-08 22:30,153.1292,-27.3917,73.40,59.00,60.67,120.00,11.00,0.00,30.12,M,6.21,M,SCT,BKN,M,M,2800.00,3800.00,M,M,M,YBBN 082230Z 12011KT 9999 SCT028 BKN038 23/15 Q1020
YBBN,2014-10-08 23:00,153.1292,-27.3917,71.60,59.00,64.48,120.00,11.00,0.00,30.12,M,6.21,M,FEW,BKN,M,M,2800.00,4500.00,M,M,M,YBBN 082300Z 12011KT 9999 FEW028 BKN045 22/15 Q1020 FM2330 12018KT 9999 SCT030 BKN050
YBBN,2014-10-08 23:30,153.1292,-27.3917,71.60,59.00,64.48,120.00,11.00,0.00,30.12,M,6.21,M,FEW,SCT,BKN,M,2500.00,2800.00,7500.00,M,M,YBBN 082330Z 12011KT 9999 FEW025 SCT028 BKN075 22/15 Q1020
