#DEBUG: Format Typ    -> comma
#DEBUG: Time Period   -> 2015-12-19 00:00:00+00:00 2015-12-20 00:00:00+00:00
#DEBUG: Time Zone     -> Etc/UTC
#DEBUG: Data Contact   -> daryl herzmann akrherz@iastate.edu 515-294-5978
#DEBUG: Entries Found -> -1
station,valid,lon,lat,tmpf, dwpf, relh, drct, sknt, p01i, alti, mslp, vsby, gust, skyc1, skyc2, skyc3, skyc4, skyl1, skyl2, skyl3, skyl4, presentwx, metar
YBBN,2015-12-19 00:00,153.1292,-27.3917,78.80,59.00,50.69,80.00,8.00,0.00,30.03,M,6.21,M,SCT,M,M,M,4700.00,M,M,M,M,YBBN 190000Z 08008KT 060V120 9999 SCT047 26/15 Q1017 NOSIG
YBBN,2015-12-19 00:30,153.1292,-27.3917,78.80,59.00,50.69,80.00,8.00,0.00,30.03,M,6.21,M,FEW,M,M,M,4400.00,M,M,M,M,YBBN 190030Z 08008KT 040V110 9999 FEW044 26/15 Q1017 NOSIG
YBBN,2015-12-19 01:00,153.1292,-27.3917,80.60,60.80,50.95,60.00,11.00,0.00,30.00,M,6.21,M,FEW,M,M,M,4500.00,M,M,M,M,YBBN 190100Z 06011KT 9999 FEW045 27/16 Q1016 NOSIG
YBBN,2015-12-19 01:30,153.1292,-27.3917,80.60,60.80,50.95,70.00,10.00,0.00,30.00,M,6.21,M,FEW,M,M,M,4800.00,M,M,M,M,YBBN 190130Z 07010KT 9999 FEW048 27/16 Q1016 NOSIG
YBBN,2015-12-19 02:00,153.1292,-27.3917,80.60,59.00,47.79,60.00,11.00,0.00,30.00,M,6.21,M,FEW,M,M,M,4800.00,M,M,M,M,YBBN 190200Z 06011KT 9999 FEW048 27/15 Q1016 NOSIG
YBBN,2015-12-19 02:30,153.1292,-27.3917,80.60,60.80,50.95,70.00,12.00,0.00,30.00,M,6.21,M,FEW,M,M,M,4500.00,M,M,M,M,YBBN 190230Z 07012KT 9999 FEW045 27/16 Q1016 NOSIG
YBBN,2015-12-19 03:00,153.1292,-27.3917,80.60,60.80,50.95,60.00,11.00,0.00,29.97,M,6.21,M,FEW,M,M,M,4200.00,M,M,M,M,YBBN 190300Z 06011KT 9999 FEW042 27/16 Q1015 NOSIG
YBBN,2015-12-19 03:30,153.1292,-27.3917,78.80,60.80,54.05,60.00,14.00,0.00,29.97,M,6.21,M,FEW,M,M,M,4200.00,M,M,M,M,YBBN 190330Z 06014KT 9999 FEW042 26/16 Q1015 NOSIG
YBBN,2015-12-19 04:00,153.1292,-27.3917,78.80,60.80,54.05,60.00,12.00,0.00,29.97,M,6.21,M,FEW,M,M,M,4200.00,M,M,M,M,YBBN 190400Z 06012KT 9999 FEW042 26/16 Q1015 NOSIG
YBBN,2015-12-19 04:30,153.1292,-27.3917,78.80,59.00,50.69,60.00,11.00,0.00,29.97,M,6.21,M,FEW,M,M,M,4200.00,M,M,M,M,YBBN 190430Z 06011KT 9999 FEW042 26/15 Q1015 NOSIG
YBBN,2015-12-19 05:00,153.1292,-27.3917,78.80,60.80,54.05,70.00,11.00,0.00,29.97,M,6.21,M,FEW,M,M,M,4000.00,M,M,M,M,YBBN 190500Z 07011KT 9999 FEW040 26/16 Q1015 NOSIG
YBBN,2015-12-19 05:30,153.1292,-27.3917,78.80,59.00,50.69,60.00,12.00,0.00,29.97,M,6.21,M,FEW,M,M,M,4000.00,M,M,M,M,YBBN 190530Z 06012KT 9999 FEW040 26/15 Q1015 NOSIG
YBBN,2015-12-19 06:00,153.1292,-27.3917,78.80,59.00,50.69,60.00,13.00,0.00,29.97,M,6.21,M,FEW,M,M,M,4000.00,M,M,M,M,YBBN 190600Z 06013KT 9999 FEW040 26/15 Q1015 NOSIG
YBBN,2015-12-19 06:30,153.1292,-27.3917,77.00,60.80,57.36,60.00,12.00,0.00,29.97,M,6.21,M,FEW,M,M,M,3600.00,M,M,M,M,YBBN 190630Z 06012KT 9999 FEW036 25/16 Q1015 NOSIG
YBBN,2015-12-19 07:00,153.1292,-27.3917,77.00,59.00,53.80,70.00,10.00,0.00,29.97,M,6.21,M,FEW,M,M,M,3600.00,M,M,M,M,YBBN 190700Z 07010KT 9999 FEW036 25/15 Q1015 NOSIG
YBBN,2015-12-19 07:30,153.1292,-27.3917,77.00,59.00,53.80,60.00,10.00,0.00,29.97,M,6.21,M,FEW,M,M,M,3500.00,M,M,M,M,YBBN 190730Z 06010KT 9999 FEW035 25/15 Q1015 NOSIG
YBBN,2015-12-19 08:00,153.1292,-27.3917,75.20,59.00,57.12,50.00,9.00,0.00,30.00,M,6.21,M,FEW,M,M,M,3500.00,M,M,M,M,YBBN 190800Z 05009KT 9999 FEW035 24/15 Q1016 NOSIG
YBBN,2015-12-19 08:30,153.1292,-27.3917,75.20,59.00,57.12,50.00,9.00,0.00,30.00,M,6.21,M,FEW,M,M,M,3500.00,M,M,M,M,YBBN 190830Z 05009KT 9999 FEW035 24/15 Q1016 NOSIG
YBBN,2015-12-19 09:00,153.1292,-27.3917,73.40,59.00,60.67,50.00,7.00,0.00,30.00,M,6.21,M,FEW,M,M,M,3000.00,M,M,M,M,YBBN 190900Z 05007KT 9999 FEW030 23/15 Q1016 NOSIG
YBBN,2015-12-19 09:30,153.1292,-27.3917,73.40,59.00,60.67,50.00,7.00,0.00,30.00,M,6.21,M,FEW,M,M,M,3000.00,M,M,M,M,YBBN 190930Z 05007KT 9999 FEW030 23/15 Q1016 NOSIG
YBBN,2015-12-19 10:00,153.1292,-27.3917,71.60,60.80,68.75,40.00,8.00,0.00,30.03,M,6.21,M,M,M,M,M,M,M,M,M,M,YBBN 191000Z 04008KT CAVOK 22/16 Q1017
YBBN,2015-12-19 10:30,153.1292,-27.3917,73.40,60.80,64.69,50.00,8.00,0.00,30.03,M,6.21,M,M,M,M,M,M,M,M,M,M,YBBN 191030Z 05008KT CAVOK 23/16 Q1017 NOSIG
YBBN,2015-12-19 11:00,153.1292,-27.3917,73.40,60.80,64.69,50.00,7.00,0.00,30.03,M,6.21,M,FEW,M,M,M,3000.00,M,M,M,M,YBBN 191100Z 05007KT 9999 FEW030 23/16 Q1017 NOSIG
YBBN,2015-12-19 11:30,153.1292,-27.3917,73.40,60.80,64.69,60.00,6.00,0.00,30.03,M,6.21,M,FEW,M,M,M,3000.00,M,M,M,M,YBBN 191130Z 06006KT 9999 FEW030 23/16 Q1017 NOSIG
YBBN,2015-12-19 12:00,153.1292,-27.3917,73.40,60.80,64.69,60.00,4.00,0.00,30.03,M,6.21,M,FEW,M,M,M,3000.00,M,M,M,M,YBBN 191200Z 06004KT 9999 FEW030 23/16 Q1017 NOSIG
YBBN,2015-12-19 12:30,153.1292,-27.3917,69.80,60.80,73.09,50.00,5.00,0.00,30.03,M,6.21,M,FEW,M,M,M,3400.00,M,M,M,M,YBBN 191230Z 05005KT 9999 FEW034 21/16 Q1017 NOSIG
YBBN,2015-12-19 13:00,153.1292,-27.3917,71.60,62.60,73.27,50.00,5.00,0.00,30.03,M,6.21,M,SCT,M,M,M,3200.00,M,M,M,M,YBBN 191300Z 05005KT 9999 SCT032 22/17 Q1017 NOSIG
YBBN,2015-12-19 13:30,153.1292,-27.3917,73.40,62.60,68.94,70.00,6.00,0.00,30.03,M,6.21,M,SCT,M,M,M,3200.00,M,M,M,M,YBBN 191330Z 07006KT 9999 SCT032 23/17 Q1017 NOSIG
YBBN,2015-12-19 14:00,153.1292,-27.3917,73.40,62.60,68.94,60.00,7.00,0.00,30.03,M,6.21,M,SCT,M,M,M,3400.00,M,M,M,M,YBBN 191400Z 06007KT 9999 SCT034 23/17 Q1017 NOSIG
YBBN,2015-12-19 14:30,153.1292,-27.3917,73.40,62.60,68.94,60.00,6.00,0.00,30.03,M,6.21,M,FEW,M,M,M,3200.00,M,M,M,M,YBBN 191430Z 06006KT 9999 FEW032 23/17 Q1017 NOSIG
YBBN,2015-12-19 15:00,153.1292,-27.3917,73.40,62.60,68.94,60.00,6.00,0.00,30.00,M,6.21,M,FEW,M,M,M,3000.00,M,M,M,M,YBBN 191500Z 06006KT 9999 FEW030 23/17 Q1016 NOSIG
YBBN,2015-12-19 15:30,153.1292,-27.3917,73.40,62.60,68.94,60.00,7.00,0.00,30.00,M,6.21,M,SCT,M,M,M,3000.00,M,M,M,M,YBBN 191530Z 06007KT 9999 SCT030 23/17 Q1016
YBBN,2015-12-19 16:00,153.1292,-27.3917,73.40,62.60,68.94,70.00,5.00,0.00,30.00,M,6.21,M,SCT,M,M,M,3000.00,M,M,M,M,YBBN 191600Z 07005KT 9999 SCT030 23/17 Q1016
YBBN,2015-12-19 17:00,153.1292,-27.3917,73.40,62.60,68.94,50.00,7.00,0.00,30.00,M,6.21,M,FEW,M,M,M,2800.00,M,M,M,M,YBBN 191700Z 05007KT 9999 FEW028 23/17 Q1016 NOSIG
YBBN,2015-12-19 17:30,153.1292,-27.3917,71.60,62.60,73.27,50.00,6.00,0.00,30.00,M,6.21,M,FEW,M,M,M,2800.00,M,M,M,M,YBBN 191730Z 05006KT 9999 FEW028 22/17 Q1016 NOSIG
YBBN,2015-12-19 18:00,153.1292,-27.3917,71.60,62.60,73.27,50.00,6.00,0.00,30.00,M,6.21,M,FEW,M,M,M,3000.00,M,M,M,M,YBBN 191800Z 05006KT 9999 FEW030 22/17 Q1016 NOSIG
YBBN,2015-12-19 18:30,153.1292,-27.3917,69.80,62.60,77.90,40.00,6.00,0.00,30.00,M,6.21,M,FEW,M,M,M,3000.00,M,M,M,M,YBBN 191830Z 04006KT 9999 FEW030 21/17 Q1016 NOSIG
YBBN,2015-12-19 19:00,153.1292,-27.3917,69.80,64.40,82.98,40.00,6.00,0.00,30.03,M,6.21,M,FEW,M,M,M,3000.00,M,M,M,M,YBBN 191900Z 04006KT 9999 FEW030 21/18 Q1017 NOSIG
YBBN,2015-12-19 19:30,153.1292,-27.3917,69.80,62.60,77.90,40.00,5.00,0.00,30.03,M,6.21,M,FEW,M,M,M,3000.00,M,M,M,M,YBBN 191930Z 04005KT 9999 FEW030 21/17 Q1017 NOSIG
YBBN,2015-12-19 20:00,153.1292,-27.3917,71.60,62.60,73.27,210.00,3.00,0.00,30.06,M,6.21,M,FEW,M,M,M,2600.00,M,M,M,M,YBBN 192000Z 21003KT 9999 FEW026 22/17 Q1018 NOSIG
YBBN,2015-12-19 20:30,153.1292,-27.3917,73.40,62.60,68.94,220.00,7.00,0.00,30.06,M,6.21,M,FEW,M,M,M,2600.00,M,M,M,M,YBBN 192030Z 22007KT 9999 FEW026 23/17 Q1018
YBBN,2015-12-19 21:00,153.1292,-27.3917,77.00,62.60,61.13,120.00,5.00,0.00,30.06,M,6.21,M,FEW,M,M,M,3000.00,M,M,M,M,YBBN 192100Z 12005KT 030V180 9999 FEW030 25/17 Q1018 NOSIG
YBBN,2015-12-19 21:30,153.1292,-27.3917,78.80,60.80,54.05,50.00,7.00,0.00,30.09,M,6.21,M,FEW,M,M,M,3000.00,M,M,M,M,YBBN 192130Z 05007KT 9999 FEW030 26/16 Q1019 NOSIG
YBBN,2015-12-19 22:00,153.1292,-27.3917,78.80,60.80,54.05,40.00,8.00,0.00,30.09,M,6.21,M,FEW,M,M,M,3200.00,M,M,M,M,YBBN 192200Z 04008KT 9999 FEW032 26/16 Q1019 NOSIG
YBBN,2015-12-19 22:30,153.1292,-27.3917,78.80,57.20,47.52,30.00,7.00,0.00,30.09,M,6.21,M,FEW,M,M,M,3500.00,M,M,M,M,YBBN 192230Z 03007KT 9999 FEW035 26/14 Q1019 NOSIG
YBBN,2015-12-19 23:00,153.1292,-27.3917,80.60,55.40,41.97,30.00,8.00,0.00,30.09,M,6.21,M,SCT,M,M,M,3500.00,M,M,M,M,YBBN 192300Z 03008KT 9999 SCT035 27/13 Q1019
YBBN,2015-12-19 23:30,153.1292,-27.3917,80.60,60.80,50.95,50.00,8.00,0.00,30.09,M,6.21,M,SCT,M,M,M,3500.00,M,M,M,M,YBBN 192330Z 05008KT 010V080 9999 SCT035 27/16 Q1019 NOSIG
