#DEBUG: Format Typ    -> comma
#DEBUG: Time Period   -> 2012-05-19 00:00:00+00:00 2012-05-20 00:00:00+00:00
#DEBUG: Time Zone     -> Etc/UTC
#DEBUG: Data Contact   -> daryl herzmann akrherz@iastate.edu 515-294-5978
#DEBUG: Entries Found -> -1
station,valid,lon,lat,tmpf, dwpf, relh, drct, sknt, p01i, alti, mslp, vsby, gust, skyc1, skyc2, skyc3, skyc4, skyl1, skyl2, skyl3, skyl4, presentwx, metar
YBBN,2012-05-19 00:00,153.1292,-27.3917,68.00,51.80,56.13,210.00,9.00,0.00,30.21,M,6.21,M,FEW,M,M,M,3000.00,M,M,M,M,YBBN 190000Z 21009KT 9999 FEW030 20/11 Q1023
YBBN,2012-05-19 00:30,153.1292,-27.3917,68.00,51.80,56.13,220.00,8.00,0.00,30.21,M,6.21,M,FEW,M,M,M,3000.00,M,M,M,M,YBBN 190030Z 22008KT 9999 FEW030 20/11 Q1023
YBBN,2012-05-19 01:00,153.1292,-27.3917,69.80,50.00,49.37,210.00,7.00,0.00,30.18,M,6.21,M,FEW,M,M,M,3000.00,M,M,M,M,YBBN 190100Z 21007KT 9999 FEW030 21/10 Q1022
YBBN,2012-05-19 01:30,153.1292,-27.3917,71.60,46.40,40.57,190.00,6.00,0.00,30.18,M,6.21,M,FEW,M,M,M,3000.00,M,M,M,M,YBBN 190130Z 19006KT 9999 FEW030 22/08 Q1022
YBBN,2012-05-19 02:00,153.1292,-27.3917,73.40,46.40,38.18,90.00,6.00,0.00,30.15,M,6.21,M,FEW,M,M,M,3000.00,M,M,M,M,YBBN 190200Z 09006KT 9999 FEW030 23/08 Q1021
YBBN,2012-05-19 02:30,153.1292,-27.3917,71.60,48.20,43.42,100.00,5.00,0.00,30.15,M,6.21,M,FEW,M,M,M,3000.00,M,M,M,M,YBBN 190230Z 10005KT 9999 FEW030 22/09 Q1021
YBBN,2012-05-19 03:00,153.1292,-27.3917,71.60,46.40,40.57,120.00,6.00,0.00,30.15,M,6.21,M,FEW,M,M,M,3000.00,M,M,M,M,YBBN 190300Z 12006KT 9999 FEW030 22/08 Q1021 NOSIG
YBBN,2012-05-19 03:30,153.1292,-27.3917,71.60,51.80,49.64,120.00,6.00,0.00,30.15,M,6.21,M,FEW,M,M,M,3000.00,M,M,M,M,YBBN 190330Z 12006KT 9999 FEW030 22/11 Q1021
YBBN,2012-05-19 04:00,153.1292,-27.3917,71.60,51.80,49.64,70.00,7.00,0.00,30.12,M,6.21,M,FEW,M,M,M,3000.00,M,M,M,M,YBBN 190400Z 07007KT 9999 FEW030 22/11 Q1020 NOSIG
YBBN,2012-05-19 04:30,153.1292,-27.3917,71.60,53.60,53.03,70.00,8.00,0.00,30.12,M,6.21,M,FEW,M,M,M,3000.00,M,M,M,M,YBBN 190430Z 07008KT 9999 FEW030 22/12 Q1020
YBBN,2012-05-19 05:00,153.1292,-27.3917,71.60,53.60,53.03,80.00,7.00,0.00,30.12,M,6.21,M,FEW,M,M,M,3000.00,M,M,M,M,YBBN 190500Z 08007KT 9999 FEW030 22/12 Q1020
YBBN,2012-05-19 05:30,153.1292,-27.3917,69.80,53.60,56.38,90.00,7.00,0.00,30.12,M,6.21,M,FEW,M,M,M,3000.00,M,M,M,M,YBBN 190530Z 09007KT 9999 FEW030 21/12 Q1020
YBBN,2012-05-19 06:00,153.1292,-27.3917,69.80,57.20,64.26,90.00,7.00,0.00,30.12,M,6.21,M,FEW,M,M,M,3000.00,M,M,M,M,YBBN 190600Z 09007KT 9999 FEW030 21/14 Q1020
YBBN,2012-05-19 06:30,153.1292,-27.3917,68.00,55.40,64.04,80.00,6.00,0.00,30.15,M,6.21,M,FEW,M,M,M,3000.00,M,M,M,M,YBBN 190630Z 08006KT 9999 FEW030 20/13 Q1021
YBBN,2012-05-19 07:00,153.1292,-27.3917,68.00,55.40,64.04,90.00,5.00,0.00,30.15,M,6.21,M,FEW,M,M,M,3000.00,M,M,M,M,YBBN 190700Z 09005KT 9999 FEW030 20/13 Q1021 NOSIG
YBBN,2012-05-19 07:30,153.1292,-27.3917,66.20,55.40,68.15,90.00,5.00,0.00,30.15,M,6.21,M,FEW,M,M,M,3000.00,M,M,M,M,YBBN 190730Z 09005KT 9999 FEW030 19/13 Q1021
YBBN,2012-05-19 08:00,153.1292,-27.3917,66.20,55.40,68.15,90.00,5.00,0.00,30.15,M,6.21,M,FEW,M,M,M,3000.00,M,M,M,M,YBBN 190800Z 09005KT 9999 FEW030 19/13 Q1021
YBBN,2012-05-19 08:30,153.1292,-27.3917,64.40,57.20,77.45,90.00,5.00,0.00,30.15,M,6.21,M,M,M,M,M,M,M,M,M,M,YBBN 190830Z 09005KT CAVOK 18/14 Q1021
YBBN,2012-05-19 09:00,153.1292,-27.3917,64.40,57.20,77.45,90.00,5.00,0.00,30.15,M,6.21,M,M,M,M,M,M,M,M,M,M,YBBN 190900Z 09005KT CAVOK 18/14 Q1021
YBBN,2012-05-19 09:30,153.1292,-27.3917,62.60,57.20,82.50,100.00,4.00,0.00,30.18,M,6.21,M,M,M,M,M,M,M,M,M,M,YBBN 190930Z 10004KT CAVOK 17/14 Q1022
YBBN,2012-05-19 10:00,153.1292,-27.3917,62.60,57.20,82.50,90.00,4.00,0.00,30.18,M,6.21,M,M,M,M,M,M,M,M,M,M,YBBN 191000Z 09004KT CAVOK 17/14 Q1022 FM1200 20007KT 9999 FEW025
YBBN,2012-05-19 10:30,153.1292,-27.3917,62.60,57.20,82.50,90.00,4.00,0.00,30.18,M,6.21,M,M,M,M,M,M,M,M,M,M,YBBN 191030Z 09004KT CAVOK 17/14 Q1022
YBBN,2012-05-19 11:00,153.1292,-27.3917,60.80,55.40,82.37,0.00,0.00,0.00,30.18,M,6.21,M,M,M,M,M,M,M,M,M,M,YBBN 191100Z 00000KT CAVOK 16/13 Q1022 FM1200 20007KT 9999 FEW025
YBBN,2012-05-19 11:30,153.1292,-27.3917,59.00,55.40,87.83,130.00,1.00,0.00,30.18,M,6.21,M,M,M,M,M,M,M,M,M,M,YBBN 191130Z 13001KT CAVOK 15/13 Q1022
YBBN,2012-05-19 12:00,153.1292,-27.3917,57.20,53.60,87.74,200.00,5.00,0.00,30.18,M,6.21,M,M,M,M,M,M,M,M,M,M,YBBN 191200Z 20005KT CAVOK 14/12 Q1022 NOSIG
YBBN,2012-05-19 12:30,153.1292,-27.3917,57.20,53.60,87.74,210.00,5.00,0.00,30.18,M,6.21,M,M,M,M,M,M,M,M,M,M,YBBN 191230Z 21005KT CAVOK 14/12 Q1022
YBBN,2012-05-19 13:00,153.1292,-27.3917,55.40,53.60,93.65,210.00,6.00,0.00,30.18,M,6.21,M,M,M,M,M,M,M,M,M,M,YBBN 191300Z 21006KT CAVOK 13/12 Q1022 NOSIG
YBBN,2012-05-19 13:30,153.1292,-27.3917,55.40,53.60,93.65,220.00,5.00,0.00,30.18,M,6.21,M,M,M,M,M,M,M,M,M,M,YBBN 191330Z 22005KT CAVOK 13/12 Q1022
YBBN,2012-05-19 14:00,153.1292,-27.3917,53.60,51.80,93.60,220.00,6.00,0.00,30.18,M,6.21,M,M,M,M,M,M,M,M,M,M,YBBN 191400Z 22006KT CAVOK 12/11 Q1022
YBBN,2012-05-19 14:30,153.1292,-27.3917,55.40,53.60,93.65,220.00,6.00,0.00,30.18,M,6.21,M,M,M,M,M,M,M,M,M,M,YBBN 191430Z 22006KT CAVOK 13/12 Q1022
YBBN,2012-05-19 15:00,153.1292,-27.3917,53.60,51.80,93.60,210.00,7.00,0.00,30.18,M,6.21,M,M,M,M,M,M,M,M,M,M,YBBN 191500Z 21007KT CAVOK 12/11 Q1022 NOSIG
YBBN,2012-05-19 15:30,153.1292,-27.3917,55.40,53.60,93.65,210.00,7.00,0.00,30.18,M,6.21,M,M,M,M,M,M,M,M,M,M,YBBN 191530Z 21007KT CAVOK 13/12 Q1022
YBBN,2012-05-19 16:00,153.1292,-27.3917,55.40,53.60,93.65,210.00,8.00,0.00,30.18,M,6.21,M,M,M,M,M,M,M,M,M,M,YBBN 191600Z 21008KT CAVOK 13/12 Q1022 NOSIG
YBBN,2012-05-19 16:30,153.1292,-27.3917,55.40,51.80,87.65,210.00,9.00,0.00,30.18,M,6.21,M,M,M,M,M,M,M,M,M,M,YBBN 191630Z 21009KT CAVOK 13/11 Q1022
YBBN,2012-05-19 17:00,153.1292,-27.3917,53.60,51.80,93.60,210.00,8.00,0.00,30.18,M,6.21,M,M,M,M,M,M,M,M,M,M,YBBN 191700Z 21008KT CAVOK 12/11 Q1022
YBBN,2012-05-19 17:30,153.1292,-27.3917,55.40,51.80,87.65,210.00,9.00,0.00,30.15,M,6.21,M,M,M,M,M,M,M,M,M,M,YBBN 191730Z 21009KT CAVOK 13/11 Q1021
YBBN,2012-05-19 18:00,153.1292,-27.3917,55.40,51.80,87.65,200.00,8.00,0.00,30.15,M,6.21,M,M,M,M,M,M,M,M,M,M,YBBN 191800Z 20008KT CAVOK 13/11 Q1021
YBBN,2012-05-19 18:30,153.1292,-27.3917,55.40,51.80,87.65,210.00,8.00,0.00,30.15,M,6.21,M,M,M,M,M,M,M,M,M,M,YBBN 191830Z 21008KT CAVOK 13/11 Q1021
YBBN,2012-05-19 19:00,153.1292,-27.3917,53.60,51.80,93.60,210.00,9.00,0.00,30.18,M,6.21,M,M,M,M,M,M,M,M,M,M,YBBN 191900Z 21009KT CAVOK 12/11 Q1022 NOSIG
YBBN,2012-05-19 19:30,153.1292,-27.3917,53.60,51.80,93.60,210.00,8.00,0.00,30.18,M,6.21,M,M,M,M,M,M,M,M,M,M,YBBN 191930Z 21008KT CAVOK 12/11 Q1022
YBBN,2012-05-19 20:00,153.1292,-27.3917,53.60,50.00,87.56,210.00,9.00,0.00,30.18,M,6.21,M,M,M,M,M,M,M,M,M,M,YBBN 192000Z 21009KT CAVOK 12/10 Q1022 NOSIG
YBBN,2012-05-19 20:30,153.1292,-27.3917,53.60,50.00,87.56,210.00,8.00,0.00,30.18,M,6.21,M,FEW,SCT,M,M,2500.00,8200.00,M,M,M,YBBN 192030Z 21008KT 9999 FEW025 SCT082 12/10 Q1022
YBBN,2012-05-19 21:00,153.1292,-27.3917,55.40,51.80,87.65,200.00,8.00,0.00,30.18,M,6.21,M,FEW,SCT,M,M,2500.00,8000.00,M,M,M,YBBN 192100Z 20008KT 9999 FEW025 SCT080 13/11 Q1022
YBBN,2012-05-19 21:30,153.1292,-27.3917,57.20,53.60,87.74,200.00,7.00,0.00,30.21,M,6.21,M,FEW,SCT,M,M,2500.00,8000.00,M,M,M,YBBN 192130Z 20007KT 9999 FEW025 SCT080 14/12 Q1023
YBBN,2012-05-19 22:00,153.1292,-27.3917,59.00,53.60,82.25,210.00,9.00,0.00,30.21,M,6.21,M,FEW,SCT,M,M,2500.00,8000.00,M,M,M,YBBN 192200Z 21009KT 9999 FEW025 SCT080 15/12 Q1023 NOSIG
YBBN,2012-05-19 22:30,153.1292,-27.3917,60.80,53.60,77.14,210.00,8.00,0.00,30.21,M,6.21,M,FEW,M,M,M,2500.00,M,M,M,M,YBBN 192230Z 21008KT 9999 FEW025 16/12 Q1023
YBBN,2012-05-19 23:00,153.1292,-27.3917,62.60,53.60,72.38,210.00,9.00,0.00,30.21,M,6.21,M,FEW,M,M,M,2500.00,M,M,M,M,YBBN 192300Z 21009KT 9999 FEW025 17/12 Q1023
YBBN,2012-05-19 23:30,153.1292,-27.3917,66.20,53.60,63.82,210.00,9.00,0.00,30.21,M,6.21,M,FEW,M,M,M,2500.00,M,M,M,M,YBBN 192330Z 21009KT 9999 FEW025 19/12 Q1023
