#DEBUG: Format Typ    -> comma
#DEBUG: Time Period   -> 2012-02-27 00:00:00+00:00 2012-02-28 00:00:00+00:00
#DEBUG: Time Zone     -> Etc/UTC
#DEBUG: Data Contact   -> daryl herzmann akrherz@iastate.edu 515-294-5978
#DEBUG: Entries Found -> -1
station,valid,lon,lat,tmpf, dwpf, relh, drct, sknt, p01i, alti, mslp, vsby, gust, skyc1, skyc2, skyc3, skyc4, skyl1, skyl2, skyl3, skyl4, presentwx, metar
YBBN,2012-02-27 00:00,153.1292,-27.3917,82.40,68.00,61.81,80.00,11.00,0.00,30.09,M,6.21,M,SCT,M,M,M,5500.00,M,M,M,//,YBBN 270000Z AUTO 08011KT 9999 // SCT055 28/20 Q1019
YBBN,2012-02-27 00:30,153.1292,-27.3917,80.60,68.00,65.54,70.00,13.00,0.00,30.09,M,6.21,M,FEW,BKN,M,M,3000.00,32000.00,M,M,M,YBBN 270030Z 07013KT 9999 FEW030 BKN320 27/20 Q1019
YBBN,2012-02-27 01:00,153.1292,-27.3917,80.60,68.00,65.54,80.00,11.00,0.00,30.06,M,6.21,M,FEW,BKN,M,M,2800.00,32000.00,M,M,M,YBBN 270100Z 08011KT 9999 FEW028 BKN320 27/20 Q1018
YBBN,2012-02-27 01:30,153.1292,-27.3917,82.40,68.00,61.81,70.00,11.00,0.00,30.06,M,6.21,M,FEW,BKN,M,M,3000.00,32000.00,M,M,M,YBBN 270130Z 07011KT 9999 FEW030 BKN320 28/20 Q1018
YBBN,2012-02-27 02:00,153.1292,-27.3917,82.40,66.20,58.08,70.00,11.00,0.00,30.06,M,6.21,M,FEW,BKN,M,M,3200.00,32000.00,M,M,M,YBBN 270200Z 07011KT 9999 FEW032 BKN320 28/19 Q1018
YBBN,2012-02-27 02:30,153.1292,-27.3917,80.60,68.00,65.54,70.00,11.00,0.00,30.06,M,6.21,M,FEW,BKN,M,M,3200.00,32000.00,M,M,M,YBBN 270230Z 07011KT 9999 FEW032 BKN320 27/20 Q1018
YBBN,2012-02-27 03:00,153.1292,-27.3917,82.40,68.00,61.81,70.00,11.00,0.00,30.03,M,6.21,M,FEW,BKN,M,M,3000.00,32000.00,M,M,M,YBBN 270300Z 07011KT 9999 FEW030 BKN320 28/20 Q1017 NOSIG
YBBN,2012-02-27 03:30,153.1292,-27.3917,80.60,68.00,65.54,70.00,10.00,0.00,30.03,M,6.21,M,FEW,BKN,M,M,3000.00,32000.00,M,M,M,YBBN 270330Z 07010KT 9999 FEW030 BKN320 27/20 Q1017
YBBN,2012-02-27 04:00,153.1292,-27.3917,82.40,68.00,61.81,70.00,13.00,0.00,30.03,M,6.21,M,FEW,BKN,M,M,3000.00,32000.00,M,M,M,YBBN 270400Z 07013KT 9999 FEW030 BKN320 28/20 Q1017
YBBN,2012-02-27 04:30,153.1292,-27.3917,82.40,68.00,61.81,70.00,11.00,0.00,30.03,M,6.21,M,FEW,SCT,M,M,3000.00,32000.00,M,M,M,YBBN 270430Z 07011KT 9999 FEW030 SCT320 28/20 Q1017
YBBN,2012-02-27 05:00,153.1292,-27.3917,80.60,66.20,61.58,80.00,9.00,0.00,30.03,M,6.21,M,FEW,SCT,M,M,3200.00,32000.00,M,M,M,YBBN 270500Z 08009KT 9999 FEW032 SCT320 27/19 Q1017
YBBN,2012-02-27 05:30,153.1292,-27.3917,78.80,68.00,69.52,80.00,9.00,0.00,30.03,M,6.21,M,FEW,SCT,M,M,3000.00,32000.00,M,M,M,YBBN 270530Z 08009KT 9999 FEW030 SCT320 26/20 Q1017
YBBN,2012-02-27 06:00,153.1292,-27.3917,78.80,66.20,65.33,80.00,8.00,0.00,30.03,M,6.21,M,FEW,SCT,M,M,3000.00,32000.00,M,M,M,YBBN 270600Z 08008KT 9999 FEW030 SCT320 26/19 Q1017
YBBN,2012-02-27 06:30,153.1292,-27.3917,78.80,66.20,65.33,80.00,10.00,0.00,30.03,M,6.21,M,FEW,BKN,M,M,3000.00,32000.00,M,M,M,YBBN 270630Z 08010KT 9999 FEW030 BKN320 26/19 Q1017
YBBN,2012-02-27 07:00,153.1292,-27.3917,78.80,68.00,69.52,80.00,8.00,0.00,30.03,M,6.21,M,FEW,BKN,M,M,2500.00,32000.00,M,M,M,YBBN 270700Z 08008KT 9999 FEW025 BKN320 26/20 Q1017
YBBN,2012-02-27 07:30,153.1292,-27.3917,77.00,66.20,69.33,80.00,7.00,0.00,30.03,M,6.21,M,FEW,BKN,M,M,2500.00,32000.00,M,M,M,YBBN 270730Z 08007KT 9999 FEW025 BKN320 25/19 Q1017
YBBN,2012-02-27 08:00,153.1292,-27.3917,77.00,68.00,73.78,80.00,8.00,0.00,30.03,M,6.21,M,FEW,BKN,M,M,2500.00,32000.00,M,M,M,YBBN 270800Z 08008KT 9999 FEW025 BKN320 25/20 Q1017
YBBN,2012-02-27 08:30,153.1292,-27.3917,77.00,68.00,73.78,80.00,7.00,0.00,30.03,M,6.21,M,FEW,BKN,M,M,2500.00,32000.00,M,M,M,YBBN 270830Z 08007KT 9999 FEW025 BKN320 25/20 Q1017
YBBN,2012-02-27 09:00,153.1292,-27.3917,77.00,68.00,73.78,80.00,7.00,0.00,30.03,M,6.21,M,FEW,BKN,M,M,2600.00,32000.00,M,M,M,YBBN 270900Z 08007KT 9999 FEW026 BKN320 25/20 Q1017
YBBN,2012-02-27 09:30,153.1292,-27.3917,77.00,68.00,73.78,80.00,7.00,0.00,30.03,M,6.21,M,FEW,BKN,M,M,2600.00,32000.00,M,M,M,YBBN 270930Z 08007KT 9999 FEW026 BKN320 25/20 Q1017
YBBN,2012-02-27 10:00,153.1292,-27.3917,77.00,68.00,73.78,80.00,7.00,0.00,30.03,M,6.21,M,FEW,BKN,M,M,2600.00,32000.00,M,M,M,YBBN 271000Z 08007KT 9999 FEW026 BKN320 25/20 Q1017
YBBN,2012-02-27 10:30,153.1292,-27.3917,77.00,68.00,73.78,80.00,6.00,0.00,30.06,M,6.21,M,FEW,BKN,M,M,2600.00,32000.00,M,M,M,YBBN 271030Z 08006KT 9999 FEW026 BKN320 25/20 Q1018
YBBN,2012-02-27 11:00,153.1292,-27.3917,77.00,68.00,73.78,80.00,6.00,0.00,30.06,M,6.21,M,FEW,SCT,M,M,1800.00,25000.00,M,M,M,YBBN 271100Z 08006KT 9999 FEW018 SCT250 25/20 Q1018
YBBN,2012-02-27 11:30,153.1292,-27.3917,77.00,68.00,73.78,90.00,6.00,0.00,30.03,M,6.21,M,FEW,SCT,M,M,1800.00,25000.00,M,M,M,YBBN 271130Z 09006KT 9999 FEW018 SCT250 25/20 Q1017
YBBN,2012-02-27 12:00,153.1292,-27.3917,77.00,68.00,73.78,70.00,7.00,0.00,30.03,M,6.21,M,FEW,SCT,M,M,1800.00,25000.00,M,M,M,YBBN 271200Z 07007KT 9999 FEW018 SCT250 25/20 Q1017
YBBN,2012-02-27 12:30,153.1292,-27.3917,77.00,69.80,78.48,80.00,6.00,0.00,30.03,M,6.21,M,FEW,BKN,M,M,1700.00,25000.00,M,M,M,YBBN 271230Z 08006KT 9999 FEW017 BKN250 25/21 Q1017
YBBN,2012-02-27 13:00,153.1292,-27.3917,77.00,68.00,73.78,80.00,5.00,0.00,30.03,M,6.21,M,FEW,SCT,M,M,1800.00,25000.00,M,M,M,YBBN 271300Z 08005KT 9999 FEW018 SCT250 25/20 Q1017
YBBN,2012-02-27 13:30,153.1292,-27.3917,75.20,68.00,78.34,90.00,6.00,0.00,30.03,M,6.21,M,FEW,SCT,M,M,2200.00,25000.00,M,M,M,YBBN 271330Z 09006KT 9999 FEW022 SCT250 24/20 Q1017
YBBN,2012-02-27 14:00,153.1292,-27.3917,75.20,68.00,78.34,80.00,6.00,0.00,30.00,M,6.21,M,FEW,SCT,BKN,M,1700.00,2200.00,25000.00,M,M,YBBN 271400Z 08006KT 9999 FEW017 SCT022 BKN250 24/20 Q1016
YBBN,2012-02-27 14:30,153.1292,-27.3917,75.20,69.80,83.32,90.00,6.00,0.00,30.00,M,6.21,M,FEW,SCT,BKN,M,1700.00,2000.00,25000.00,M,M,YBBN 271430Z 09006KT 9999 FEW017 SCT020 BKN250 24/21 Q1016
YBBN,2012-02-27 15:00,153.1292,-27.3917,75.20,69.80,83.32,80.00,6.00,0.00,30.00,M,6.21,M,FEW,SCT,M,M,1700.00,25000.00,M,M,M,YBBN 271500Z 08006KT 9999 FEW017 SCT250 24/21 Q1016
YBBN,2012-02-27 15:30,153.1292,-27.3917,75.20,69.80,83.32,80.00,5.00,0.00,30.00,M,6.21,M,FEW,SCT,BKN,M,1700.00,2300.00,25000.00,M,M,YBBN 271530Z 08005KT 9999 FEW017 SCT023 BKN250 24/21 Q1016
YBBN,2012-02-27 16:00,153.1292,-27.3917,77.00,69.80,78.48,80.00,7.00,0.00,29.97,M,6.21,M,FEW,SCT,BKN,M,1700.00,2300.00,25000.00,M,M,YBBN 271600Z 08007KT 9999 FEW017 SCT023 BKN250 25/21 Q1015
YBBN,2012-02-27 16:30,153.1292,-27.3917,75.20,68.00,78.34,70.00,7.00,0.00,29.97,M,6.21,M,FEW,SCT,M,M,2300.00,25000.00,M,M,M,YBBN 271630Z 07007KT 9999 FEW023 SCT250 24/20 Q1015
YBBN,2012-02-27 17:00,153.1292,-27.3917,75.20,68.00,78.34,70.00,6.00,0.00,29.97,M,6.21,M,FEW,SCT,BKN,M,1700.00,2300.00,25000.00,M,M,YBBN 271700Z 07006KT 9999 FEW017 SCT023 BKN250 24/20 Q1015 RMK HZ
YBBN,2012-02-27 17:30,153.1292,-27.3917,75.20,68.00,78.34,70.00,7.00,0.00,29.97,M,6.21,M,FEW,SCT,M,M,1800.00,25000.00,M,M,VCSH,YBBN 271730Z 07007KT 9999 VCSH FEW018 SCT250 24/20 Q1015
YBBN,2012-02-27 18:00,153.1292,-27.3917,75.20,68.00,78.34,70.00,6.00,0.00,29.97,M,6.21,M,FEW,SCT,M,M,1800.00,2300.00,M,M,M,YBBN 271800Z 07006KT 9999 FEW018 SCT023 24/20 Q1015 RMK HZ
YBBN,2012-02-27 18:30,153.1292,-27.3917,75.20,68.00,78.34,70.00,6.00,0.00,29.97,M,6.21,M,FEW,SCT,M,M,1800.00,2300.00,M,M,M,YBBN 271830Z 07006KT 9999 FEW018 SCT023 24/20 Q1015 RMK HZ
YBBN,2012-02-27 19:00,153.1292,-27.3917,75.20,68.00,78.34,70.00,7.00,0.00,29.97,M,6.21,M,FEW,M,M,M,1800.00,M,M,M,M,YBBN 271900Z 07007KT 9999 FEW018 24/20 Q1015
YBBN,2012-02-27 19:30,153.1292,-27.3917,75.20,68.00,78.34,70.00,7.00,0.00,29.97,M,6.21,M,FEW,SCT,M,M,1800.00,2300.00,M,M,M,YBBN 271930Z 07007KT 9999 FEW018 SCT023 24/20 Q1015 RMK HZ
YBBN,2012-02-27 20:00,153.1292,-27.3917,75.20,68.00,78.34,70.00,7.00,0.00,29.97,M,6.21,M,FEW,SCT,M,M,1800.00,2300.00,M,M,M,YBBN 272000Z 07007KT 9999 FEW018 SCT023 24/20 Q1015 RMK HZ
YBBN,2012-02-27 20:30,153.1292,-27.3917,77.00,68.00,73.78,70.00,9.00,0.00,29.97,M,6.21,M,FEW,M,M,M,2300.00,M,M,M,VCSH,YBBN 272030Z 07009KT 9999 VCSH FEW023 25/20 Q1015
YBBN,2012-02-27 21:00,153.1292,-27.3917,78.80,68.00,69.52,60.00,9.00,0.00,30.00,M,6.21,M,FEW,M,M,M,2300.00,M,M,M,VCSH,YBBN 272100Z 06009KT 9999 VCSH FEW023 26/20 Q1016
YBBN,2012-02-27 21:30,153.1292,-27.3917,78.80,68.00,69.52,70.00,9.00,0.00,30.00,M,6.21,M,FEW,M,M,M,2500.00,M,M,M,M,YBBN 272130Z 07009KT 9999 FEW025 26/20 Q1016 RMK HZ
YBBN,2012-02-27 22:00,153.1292,-27.3917,78.80,68.00,69.52,60.00,11.00,0.00,30.00,M,6.21,M,FEW,M,M,M,2500.00,M,M,M,M,YBBN 272200Z 06011KT 9999 FEW025 26/20 Q1016
YBBN,2012-02-27 22:30,153.1292,-27.3917,80.60,68.00,65.54,60.00,11.00,0.00,30.00,M,6.21,M,FEW,M,M,M,2800.00,M,M,M,M,YBBN 272230Z 06011KT 9999 FEW028 27/20 Q1016
YBBN,2012-02-27 23:00,153.1292,-27.3917,80.60,68.00,65.54,60.00,11.00,0.00,30.00,M,6.21,M,FEW,M,M,M,2500.00,M,M,M,M,YBBN 272300Z 06011KT 9999 FEW025 27/20 Q1016
YBBN,2012-02-27 23:30,153.1292,-27.3917,80.60,68.00,65.54,50.00,12.00,0.00,30.00,M,6.21,M,FEW,M,M,M,2900.00,M,M,M,M,YBBN 272330Z 05012KT 9999 FEW029 27/20 Q1016
