#DEBUG: Format Typ    -> comma
#DEBUG: Time Period   -> 2013-02-24 00:00:00+00:00 2013-02-25 00:00:00+00:00
#DEBUG: Time Zone     -> Etc/UTC
#DEBUG: Data Contact   -> daryl herzmann akrherz@iastate.edu 515-294-5978
#DEBUG: Entries Found -> -1
station,valid,lon,lat,tmpf, dwpf, relh, drct, sknt, p01i, alti, mslp, vsby, gust, skyc1, skyc2, skyc3, skyc4, skyl1, skyl2, skyl3, skyl4, presentwx, metar
YBBN,2013-02-24 00:00,153.1292,-27.3917,82.40,73.40,74.28,80.00,9.00,0.00,29.94,M,6.21,M,FEW,SCT,BKN,M,1000.00,2000.00,25000.00,M,M,YBBN 240000Z 08009KT 9999 FEW010 SCT020 BKN250 28/23 Q1014
YBBN,2013-02-24 00:30,153.1292,-27.3917,82.40,73.40,74.28,80.00,9.00,0.00,29.94,M,6.21,M,FEW,SCT,BKN,M,1600.00,2000.00,25000.00,M,M,YBBN 240030Z 08009KT 9999 FEW016 SCT020 BKN250 28/23 Q1014
YBBN,2013-02-24 01:00,153.1292,-27.3917,80.60,69.80,69.71,70.00,12.00,0.00,29.94,M,6.21,M,FEW,SCT,BKN,M,1200.00,2000.00,25000.00,M,VCSH,YBBN 240100Z 07012KT 9999 VCSH FEW012 SCT020 BKN250 27/21 Q1014
YBBN,2013-02-24 01:30,153.1292,-27.3917,82.40,69.80,65.74,70.00,10.00,0.00,29.94,M,6.21,M,FEW,SCT,BKN,FEW,1200.00,2200.00,25000.00,2200.00,M,YBBN 240130Z 07010KT 9999 FEW012 SCT022 BKN250 FEW022TCU 28/21 Q1014
YBBN,2013-02-24 02:00,153.1292,-27.3917,82.40,71.60,69.90,50.00,11.00,0.00,29.94,M,6.21,M,FEW,SCT,BKN,M,1200.00,2200.00,25000.00,M,M,YBBN 240200Z 05011KT 9999 FEW012 SCT022 BKN250 28/22 Q1014 TEMPO 0200/0500 2000 TSRA BKN010 SCT030CB
YBBN,2013-02-24 02:30,153.1292,-27.3917,82.40,73.40,74.28,80.00,9.00,0.00,29.91,M,6.21,M,FEW,SCT,BKN,FEW,1500.00,2200.00,25000.00,2200.00,M,YBBN 240230Z 08009KT 9999 FEW015 SCT022 BKN250 FEW022TCU 28/23 Q1013
YBBN,2013-02-24 03:00,153.1292,-27.3917,80.60,73.40,78.76,70.00,8.00,0.00,29.91,M,6.21,M,FEW,SCT,BKN,FEW,1800.00,2200.00,25000.00,2200.00,M,YBBN 240300Z 07008KT 9999 FEW018 SCT022 BKN250 FEW022TCU 27/23 Q1013 TEMPO 0300/0600 2000 TSRA BKN010 SCT030CB
YBBN,2013-02-24 03:30,153.1292,-27.3917,80.60,73.40,78.76,90.00,9.00,0.00,29.91,M,6.21,M,FEW,SCT,BKN,M,1800.00,2200.00,25000.00,M,M,YBBN 240330Z 09009KT 9999 FEW018 SCT022 BKN250 27/23 Q1013
YBBN,2013-02-24 04:00,153.1292,-27.3917,82.40,73.40,74.28,90.00,9.00,0.00,29.91,M,6.21,M,FEW,SCT,BKN,M,1800.00,2200.00,25000.00,M,M,YBBN 240400Z 09009KT 9999 FEW018 SCT022 BKN250 28/23 Q1013
YBBN,2013-02-24 04:30,153.1292,-27.3917,82.40,71.60,69.90,80.00,9.00,0.00,29.88,M,6.21,M,FEW,SCT,BKN,M,1800.00,2200.00,2500.00,M,M,YBBN 240430Z 08009KT 9999 FEW018 SCT022 BKN025 28/22 Q1012
YBBN,2013-02-24 05:00,153.1292,-27.3917,82.40,73.40,74.28,80.00,9.00,0.00,29.88,M,6.21,M,FEW,SCT,BKN,M,2000.00,2200.00,25000.00,M,M,YBBN 240500Z 08009KT 9999 FEW020 SCT022 BKN250 28/23 Q1012
YBBN,2013-02-24 05:30,153.1292,-27.3917,80.60,73.40,78.76,70.00,11.00,0.00,29.88,M,6.21,M,FEW,SCT,BKN,FEW,1200.00,2200.00,25000.00,2200.00,M,YBBN 240530Z 07011KT 9999 FEW012 SCT022 BKN250 FEW022TCU 27/23 Q1012
YBBN,2013-02-24 06:00,153.1292,-27.3917,80.60,73.40,78.76,70.00,11.00,0.00,29.88,M,4.97,M,FEW,SCT,BKN,FEW,1200.00,2000.00,25000.00,2000.00,-SHRA,YBBN 240600Z 07011KT 8000 -SHRA FEW012 SCT020 BKN250 FEW020TCU 27/23 Q1012
YBBN,2013-02-24 06:30,153.1292,-27.3917,77.00,69.80,78.48,40.00,11.00,0.00,29.88,M,6.21,M,FEW,SCT,BKN,FEW,1500.00,2000.00,25000.00,2000.00,-SHRA,YBBN 240630Z 04011KT 9999 -SHRA FEW015 SCT020 BKN250 FEW020TCU 25/21 Q1012
YBBN,2013-02-24 07:00,153.1292,-27.3917,77.00,71.60,83.44,60.00,8.00,0.00,29.88,M,6.21,M,FEW,SCT,BKN,FEW,1500.00,16000.00,25000.00,2000.00,M,YBBN 240700Z 06008KT 9999 FEW015 SCT160 BKN250 FEW020TCU 25/22 Q1012
YBBN,2013-02-24 07:30,153.1292,-27.3917,77.00,71.60,83.44,50.00,8.00,0.00,29.91,M,6.21,M,FEW,SCT,BKN,FEW,900.00,1800.00,16000.00,1800.00,-SHRA,YBBN 240730Z 05008KT 9999 -SHRA FEW009 SCT018 BKN160 FEW018TCU 25/22 Q1013
YBBN,2013-02-24 08:00,153.1292,-27.3917,77.00,71.60,83.44,40.00,7.00,0.00,29.91,M,6.21,M,FEW,SCT,BKN,M,900.00,1800.00,16000.00,M,VCSH,YBBN 240800Z 04007KT 9999 VCSH FEW009 SCT018 BKN160 25/22 Q1013
YBBN,2013-02-24 08:30,153.1292,-27.3917,75.20,73.40,94.14,20.00,5.00,0.00,29.91,M,6.21,M,FEW,BKN,BKN,M,1400.00,2100.00,5700.00,M,-SHRA,YBBN 240830Z 02005KT 9999 -SHRA FEW014 BKN021 BKN057 24/23 Q1013
YBBN,2013-02-24 09:00,153.1292,-27.3917,75.20,73.40,94.14,50.00,2.00,0.00,29.94,M,6.21,M,FEW,SCT,BKN,M,1400.00,2100.00,5800.00,M,VCSH,YBBN 240900Z 05002KT 9999 VCSH FEW014 SCT021 BKN058 24/23 Q1014
YBBN,2013-02-24 09:30,153.1292,-27.3917,75.20,73.40,94.14,0.00,0.00,0.00,29.94,M,6.21,M,FEW,SCT,BKN,M,1200.00,2100.00,15000.00,M,VCSH,YBBN 240930Z 00000KT 9999 VCSH FEW012 SCT021 BKN150 24/23 Q1014
YBBN,2013-02-24 10:00,153.1292,-27.3917,75.20,71.60,88.59,0.00,0.00,0.00,29.94,M,6.21,M,FEW,SCT,BKN,M,1100.00,2000.00,15000.00,M,VCSH,YBBN 241000Z 00000KT 9999 VCSH FEW011 SCT020 BKN150 24/22 Q1014
YBBN,2013-02-24 10:30,153.1292,-27.3917,75.20,73.40,94.14,100.00,4.00,0.00,29.94,M,5.59,M,FEW,SCT,BKN,M,1200.00,2000.00,4900.00,M,VCSH,YBBN 241030Z 10004KT 9000 VCSH FEW012 SCT020 BKN049 24/23 Q1014
YBBN,2013-02-24 11:00,153.1292,-27.3917,75.20,71.60,88.59,110.00,4.00,0.00,29.94,M,4.97,M,FEW,BKN,BKN,M,1300.00,2000.00,10000.00,M,-SHRA,YBBN 241100Z 11004KT 8000 -SHRA FEW013 BKN020 BKN100 24/22 Q1014
YBBN,2013-02-24 11:30,153.1292,-27.3917,75.20,73.40,94.14,120.00,4.00,0.00,29.94,M,6.21,M,SCT,BKN,M,M,2200.00,10000.00,M,M,M,YBBN 241130Z 12004KT 9999 SCT022 BKN100 24/23 Q1014
YBBN,2013-02-24 12:00,153.1292,-27.3917,75.20,73.40,94.14,110.00,4.00,0.00,29.94,M,6.21,M,FEW,BKN,BKN,M,1100.00,2800.00,24000.00,M,M,YBBN 241200Z 11004KT 9999 FEW011 BKN028 BKN240 24/23 Q1014
YBBN,2013-02-24 12:30,153.1292,-27.3917,75.20,73.40,94.14,80.00,5.00,0.00,29.94,M,6.21,M,BKN,M,M,M,1200.00,M,M,M,M,YBBN 241230Z 08005KT 9999 BKN012 24/23 Q1014
YBBN,2013-02-24 13:00,153.1292,-27.3917,77.00,73.40,88.67,90.00,5.00,0.00,29.94,M,3.11,M,SCT,BKN,M,M,1200.00,2300.00,M,M,SHRA,YBBN 241300Z 09005KT 5000 SHRA SCT012 BKN023 25/23 Q1014
YBBN,2013-02-24 13:09,153.1292,-27.3917,75.20,73.40,94.14,90.00,7.00,0.00,29.94,M,1.24,M,SCT,BKN,M,M,800.00,1500.00,M,M,+SHRA,YBBN 241309Z 09007KT 2000 +SHRA SCT008 BKN015 24/23 Q1014
YBBN,2013-02-24 13:30,153.1292,-27.3917,73.40,71.60,94.10,90.00,5.00,0.00,29.94,M,4.97,M,FEW,BKN,BKN,M,800.00,1300.00,3600.00,M,-SHRA VCSH,YBBN 241330Z 09005KT 8000 -SHRA VCSH FEW008 BKN013 BKN036 23/22 Q1014
YBBN,2013-02-24 14:00,153.1292,-27.3917,75.20,73.40,94.14,90.00,4.00,0.00,29.94,M,6.21,M,SCT,BKN,BKN,M,1500.00,2400.00,7400.00,M,VCSH,YBBN 241400Z 09004KT 9999 VCSH SCT015 BKN024 BKN074 24/23 Q1014 RESHRA
YBBN,2013-02-24 14:14,153.1292,-27.3917,75.20,73.40,94.14,50.00,3.00,0.00,29.91,M,3.11,M,BKN,BKN,M,M,1500.00,4000.00,M,M,SHRA,YBBN 241414Z 05003KT 5000 SHRA BKN015 BKN040 24/23 Q1013
YBBN,2013-02-24 14:30,153.1292,-27.3917,75.20,73.40,94.14,100.00,7.00,0.00,29.91,M,6.21,M,FEW,BKN,M,M,1200.00,1900.00,M,M,VCSH,YBBN 241430Z 10007KT 9999 VCSH FEW012 BKN019 24/23 Q1013
YBBN,2013-02-24 15:00,153.1292,-27.3917,73.40,73.40,100.00,90.00,8.00,0.00,29.91,M,6.21,M,SCT,BKN,M,M,900.00,3900.00,M,M,-SHRA,YBBN 241500Z 09008KT 9999 -SHRA SCT009 BKN039 23/23 Q1013
YBBN,2013-02-24 15:30,153.1292,-27.3917,73.40,73.40,100.00,110.00,6.00,0.00,29.91,M,5.59,M,FEW,SCT,BKN,M,700.00,1900.00,7600.00,M,-RA,YBBN 241530Z 11006KT 9000 -RA FEW007 SCT019 BKN076 23/23 Q1013
YBBN,2013-02-24 16:00,153.1292,-27.3917,73.40,71.60,94.10,110.00,6.00,0.00,29.88,M,6.21,M,FEW,BKN,M,M,700.00,8600.00,M,M,-RA,YBBN 241600Z 11006KT 9999 -RA FEW007 BKN086 23/22 Q1012
YBBN,2013-02-24 16:30,153.1292,-27.3917,73.40,71.60,94.10,120.00,5.00,0.00,29.88,M,6.21,M,FEW,SCT,BKN,M,1100.00,4500.00,15000.00,M,VCSH,YBBN 241630Z 12005KT 9999 VCSH FEW011 SCT045 BKN150 23/22 Q1012
YBBN,2013-02-24 17:00,153.1292,-27.3917,73.40,73.40,100.00,120.00,6.00,0.00,29.88,M,6.21,M,BKN,M,M,M,900.00,M,M,M,VCSH,YBBN 241700Z 12006KT 9999 VCSH BKN009 23/23 Q1012
YBBN,2013-02-24 17:30,153.1292,-27.3917,75.20,73.40,94.14,120.00,7.00,0.00,29.88,M,1.55,M,SCT,BKN,BKN,M,1300.00,2500.00,4300.00,M,+SHRA,YBBN 241730Z 12007KT 2500 +SHRA SCT013 BKN025 BKN043 24/23 Q1012
YBBN,2013-02-24 17:45,153.1292,-27.3917,73.40,73.40,100.00,80.00,7.00,0.00,29.88,M,6.21,M,SCT,BKN,M,M,800.00,1300.00,M,M,M,YBBN 241745Z 08007KT 9999 SCT008 BKN013 23/23 Q1012
YBBN,2013-02-24 18:00,153.1292,-27.3917,75.20,73.40,94.14,80.00,5.00,0.00,29.88,M,1.55,M,SCT,BKN,M,M,1000.00,2200.00,M,M,+SHRA VCSH,YBBN 241800Z 08005KT 2500 +SHRA VCSH SCT010 BKN022 24/23 Q1012
YBBN,2013-02-24 18:30,153.1292,-27.3917,73.40,71.60,94.10,50.00,14.00,0.00,29.88,M,1.86,M,SCT,BKN,M,M,800.00,1800.00,M,M,+SHRA,YBBN 241830Z 05014KT 3000 +SHRA SCT008 BKN018 23/22 Q1012 RESHRA
YBBN,2013-02-24 19:00,153.1292,-27.3917,73.40,71.60,94.10,80.00,7.00,0.00,29.88,M,3.11,M,BKN,M,M,M,900.00,M,M,M,RA,YBBN 241900Z 08007KT 5000 RA BKN009 23/22 Q1012 RESHRA
YBBN,2013-02-24 19:30,153.1292,-27.3917,73.40,71.60,94.10,80.00,9.00,0.00,29.88,M,3.73,M,SCT,BKN,BKN,M,900.00,3300.00,5500.00,M,-RA,YBBN 241930Z 08009KT 6000 -RA SCT009 BKN033 BKN055 23/22 Q1012 RESHRA
YBBN,2013-02-24 20:00,153.1292,-27.3917,73.40,71.60,94.10,60.00,13.00,0.00,29.91,M,1.24,M,FEW,SCT,BKN,M,1100.00,1600.00,5200.00,M,+RA,YBBN 242000Z 06013KT 2000 +RA FEW011 SCT016 BKN052 23/22 Q1013 RERA
YBBN,2013-02-24 20:16,153.1292,-27.3917,73.40,73.40,100.00,70.00,8.00,0.00,29.91,M,1.86,M,FEW,SCT,BKN,M,500.00,900.00,1200.00,M,RA,YBBN 242016Z 07008KT 3000 RA FEW005 SCT009 BKN012 23/23 Q1013 RERA
YBBN,2013-02-24 20:30,153.1292,-27.3917,75.20,73.40,94.14,70.00,10.00,0.00,29.91,M,2.49,M,FEW,SCT,BKN,M,500.00,900.00,3400.00,M,RA,YBBN 242030Z 07010KT 4000 RA FEW005 SCT009 BKN034 24/23 Q1013
YBBN,2013-02-24 20:44,153.1292,-27.3917,75.20,73.40,94.14,60.00,14.00,0.00,29.91,M,1.86,M,FEW,SCT,BKN,M,500.00,1200.00,3000.00,M,RA,YBBN 242044Z 06014KT 3000 RA FEW005 SCT012 BKN030 24/23 Q1013
YBBN,2013-02-24 21:00,153.1292,-27.3917,75.20,71.60,88.59,70.00,14.00,0.00,29.91,M,2.49,M,FEW,SCT,BKN,M,500.00,1200.00,3200.00,M,RA,YBBN 242100Z 07014KT 4000 RA FEW005 SCT012 BKN032 24/22 Q1013
YBBN,2013-02-24 21:13,153.1292,-27.3917,75.20,71.60,88.59,70.00,15.00,0.00,29.91,M,1.86,26.00,FEW,SCT,BKN,M,500.00,1200.00,3200.00,M,RA,YBBN 242113Z 07015G26KT 3000 RA FEW005 SCT012 BKN032 24/22 Q1013
YBBN,2013-02-24 21:30,153.1292,-27.3917,73.40,71.60,94.10,70.00,13.00,0.00,29.91,M,3.11,M,FEW,SCT,BKN,M,500.00,1200.00,4800.00,M,RA,YBBN 242130Z 07013KT 5000 RA FEW005 SCT012 BKN048 23/22 Q1013
YBBN,2013-02-24 22:00,153.1292,-27.3917,75.20,71.60,88.59,70.00,15.00,0.00,29.94,M,1.86,M,FEW,SCT,BKN,M,500.00,800.00,1400.00,M,RA,YBBN 242200Z 07015KT 3000 RA FEW005 SCT008 BKN014 24/22 Q1014
YBBN,2013-02-24 22:30,153.1292,-27.3917,75.20,73.40,94.14,60.00,12.00,0.00,29.94,M,1.86,M,FEW,SCT,BKN,M,600.00,1200.00,4800.00,M,RA,YBBN 242230Z 06012KT 3000 RA FEW006 SCT012 BKN048 24/23 Q1014
YBBN,2013-02-24 22:40,153.1292,-27.3917,75.20,73.40,94.14,60.00,10.00,0.00,29.94,M,1.55,M,FEW,SCT,BKN,M,600.00,900.00,4800.00,M,+RA,YBBN 242240Z 06010KT 2500 +RA FEW006 SCT009 BKN048 24/23 Q1014 RMK LIGHT U/SHOOT AND O/SHOOT WS RWY01 ON FINAL BELOW 500FT
YBBN,2013-02-24 23:00,153.1292,-27.3917,75.20,73.40,94.14,80.00,10.00,0.00,29.94,M,1.86,M,FEW,SCT,BKN,M,600.00,1100.00,4300.00,M,RA,YBBN 242300Z 08010KT 3000 5000E RA FEW006 SCT011 BKN043 24/23 Q1014 RERA
YBBN,2013-02-24 23:30,153.1292,-27.3917,75.20,71.60,88.59,80.00,11.00,0.00,29.94,M,3.73,M,FEW,SCT,BKN,M,600.00,3400.00,4700.00,M,-RA,YBBN 242330Z 08011KT 6000 -RA FEW006 SCT034 BKN047 24/22 Q1014
