#DEBUG: Format Typ    -> comma
#DEBUG: Time Period   -> 2011-04-01 00:00:00+00:00 2011-04-02 00:00:00+00:00
#DEBUG: Time Zone     -> Etc/UTC
#DEBUG: Data Contact   -> daryl herzmann akrherz@iastate.edu 515-294-5978
#DEBUG: Entries Found -> -1
station,valid,lon,lat,tmpf, dwpf, relh, drct, sknt, p01i, alti, mslp, vsby, gust, skyc1, skyc2, skyc3, skyc4, skyl1, skyl2, skyl3, skyl4, presentwx, metar
YBBN,2011-04-01 01:30,153.1292,-27.3917,78.80,66.20,65.33,130.00,11.00,M,30.12,M,6.21,M,SCT,SCT,M,M,2800.00,6100.00,M,M,M,YBBN 010130Z 13011KT 9999 SCT028 SCT061 26/19 Q1020 RMK DIST SHOWERS TO SE INTER 0130/0430 3000 SHRA BKN010
YBBN,2011-04-01 09:00,153.1292,-27.3917,71.60,66.20,83.09,0.00,0.00,M,30.12,M,5.59,M,FEW,SCT,BKN,M,900.00,2500.00,3500.00,M,-SHRA VCSH,YBBN 010900Z 00000KT 9000 -SHRA VCSH FEW009 SCT025 BKN035 22/19 Q1020 RMK SH N/NE INTER 0900/1200 3000 SHRA BKN010
YBBN,2011-04-01 09:30,153.1292,-27.3917,71.60,64.40,78.04,210.00,5.00,M,30.12,M,6.21,M,FEW,SCT,BKN,M,1000.00,2600.00,3800.00,M,VCSH,YBBN 010930Z 21005KT 9999 VCSH FEW010 SCT026 BKN038 22/18 Q1020 RMK SH NE INTER 0930/1230 3000 SHRA BKN010
YBBN,2011-04-01 10:00,153.1292,-27.3917,71.60,62.60,73.27,200.00,5.00,M,30.12,M,4.97,M,FEW,SCT,BKN,M,1000.00,2600.00,3800.00,M,-SHRA VCSH,YBBN 011000Z 20005KT 8000 -SHRA VCSH FEW010 SCT026 BKN038 22/17 Q1020 RMK SH NW FM1015 22006KT 9999 -SHRA SCT025 SCT040 INTER 1000/1300 3000 SHRA BKN010
YBBN,2011-04-01 10:30,153.1292,-27.3917,71.60,62.60,73.27,190.00,4.00,M,30.12,M,6.21,M,FEW,BKN,M,M,1000.00,4700.00,M,M,VCSH,YBBN 011030Z 19004KT 9999 VCSH FEW010 BKN047 22/17 Q1020 RMK SH NW INTER 1030/1330 3000 SHRA BKN010
YBBN,2011-04-01 11:00,153.1292,-27.3917,71.60,62.60,73.27,210.00,5.00,M,30.15,M,6.21,M,FEW,BKN,M,M,1500.00,5900.00,M,M,VCSH,YBBN 011100Z 21005KT 9999 VCSH FEW015 BKN059 22/17 Q1021 RMK SH NW INTER 1110/1400 3000 SHRA BKN010
YBBN,2011-04-01 11:30,153.1292,-27.3917,71.60,62.60,73.27,210.00,6.00,M,30.12,M,6.21,M,FEW,BKN,M,M,1500.00,6100.00,M,M,M,YBBN 011130Z 21006KT 9999 FEW015 BKN061 22/17 Q1020 RMK DIST SH NW INTER 1130/1430 3000 SHRA BKN010
YBBN,2011-04-01 13:00,153.1292,-27.3917,69.80,62.60,77.90,210.00,6.00,M,30.12,M,6.21,M,FEW,M,M,M,2000.00,M,M,M,M,YBBN 011300Z 21006KT 9999 FEW020 21/17 Q1020 NOSIG
YBBN,2011-04-01 13:30,153.1292,-27.3917,66.20,62.60,88.18,220.00,5.00,M,30.12,M,6.21,M,FEW,SCT,M,M,1800.00,12500.00,M,M,M,YBBN 011330Z 22005KT 9999 FEW018 SCT125 19/17 Q1020 NOSIG
YBBN,2011-04-01 14:00,153.1292,-27.3917,66.20,62.60,88.18,210.00,6.00,M,30.09,M,6.21,M,FEW,SCT,M,M,1800.00,12500.00,M,M,M,YBBN 011400Z 21006KT 9999 FEW018 SCT125 19/17 Q1019 NOSIG
YBBN,2011-04-01 14:30,153.1292,-27.3917,66.20,62.60,88.18,210.00,5.00,M,30.09,M,6.21,M,FEW,SCT,M,M,1800.00,15000.00,M,M,M,YBBN 011430Z 21005KT 9999 FEW018 SCT150 19/17 Q1019 NOSIG
YBBN,2011-04-01 15:00,153.1292,-27.3917,66.20,62.60,88.18,220.00,6.00,M,30.09,M,6.21,M,FEW,SCT,M,M,2000.00,15500.00,M,M,M,YBBN 011500Z 22006KT 9999 FEW020 SCT155 19/17 Q1019 NOSIG
YBBN,2011-04-01 15:30,153.1292,-27.3917,66.20,62.60,88.18,210.00,7.00,M,30.09,M,6.21,M,FEW,SCT,M,M,2000.00,3200.00,M,M,M,YBBN 011530Z 21007KT 9999 FEW020 SCT032 19/17 Q1019 RMK FU/HZ NOSIG
YBBN,2011-04-01 16:00,153.1292,-27.3917,66.20,62.60,88.18,210.00,7.00,M,30.06,M,6.21,M,FEW,BKN,M,M,2000.00,3200.00,M,M,M,YBBN 011600Z 21007KT 9999 FEW020 BKN032 19/17 Q1018 NOSIG
YBBN,2011-04-01 16:30,153.1292,-27.3917,66.20,62.60,88.18,210.00,6.00,M,30.06,M,6.21,M,FEW,SCT,M,M,3000.00,15500.00,M,M,M,YBBN 011630Z 21006KT 9999 FEW030 SCT155 19/17 Q1018 NOSIG
YBBN,2011-04-01 17:00,153.1292,-27.3917,66.20,62.60,88.18,220.00,6.00,M,30.06,M,6.21,M,FEW,SCT,M,M,2500.00,15500.00,M,M,M,YBBN 011700Z 22006KT 9999 FEW025 SCT155 19/17 Q1018 NOSIG
YBBN,2011-04-01 17:30,153.1292,-27.3917,66.20,62.60,88.18,210.00,7.00,M,30.06,M,6.21,M,FEW,BKN,M,M,2500.00,16000.00,M,M,M,YBBN 011730Z 21007KT 9999 FEW025 BKN160 19/17 Q1018 NOSIG
YBBN,2011-04-01 18:00,153.1292,-27.3917,66.20,62.60,88.18,210.00,8.00,M,30.06,M,6.21,M,FEW,SCT,M,M,2500.00,16000.00,M,M,M,YBBN 011800Z 21008KT 9999 FEW025 SCT160 19/17 Q1018 NOSIG
YBBN,2011-04-01 18:30,153.1292,-27.3917,66.20,62.60,88.18,210.00,8.00,M,30.06,M,6.21,M,FEW,SCT,M,M,2500.00,16000.00,M,M,M,YBBN 011830Z 21008KT 9999 FEW025 SCT160 19/17 Q1018 RMK FU/HZ NOSIG
YBBN,2011-04-01 19:00,153.1292,-27.3917,64.40,62.60,93.88,210.00,6.00,M,30.06,M,6.21,M,FEW,M,M,M,2500.00,M,M,M,M,YBBN 011900Z 21006KT 9999 FEW025 18/17 Q1018 RMK FU/HZ NOSIG
YBBN,2011-04-01 19:30,153.1292,-27.3917,64.40,62.60,93.88,210.00,7.00,M,30.06,M,6.21,M,FEW,SCT,M,M,2400.00,16000.00,M,M,M,YBBN 011930Z 21007KT 9999 FEW024 SCT160 18/17 Q1018 RMK FU/HZ NOSIG
YBBN,2011-04-01 20:00,153.1292,-27.3917,62.60,60.80,93.83,220.00,6.00,M,30.09,M,6.21,M,FEW,SCT,M,M,2400.00,16000.00,M,M,M,YBBN 012000Z 22006KT 9999 FEW024 SCT160 17/16 Q1019 NOSIG
YBBN,2011-04-01 20:30,153.1292,-27.3917,64.40,62.60,93.88,220.00,8.00,M,30.09,M,6.21,M,FEW,SCT,M,M,2400.00,16000.00,M,M,M,YBBN 012030Z 22008KT 9999 FEW024 SCT160 18/17 Q1019 NOSIG
YBBN,2011-04-01 21:00,153.1292,-27.3917,68.00,62.60,82.86,210.00,7.00,M,30.09,M,6.21,M,FEW,SCT,M,M,2400.00,16000.00,M,M,M,YBBN 012100Z 21007KT 9999 FEW024 SCT160 20/17 Q1019 NOSIG
YBBN,2011-04-01 21:30,153.1292,-27.3917,69.80,62.60,77.90,220.00,8.00,M,30.09,M,6.21,M,FEW,SCT,M,M,2400.00,16000.00,M,M,M,YBBN 012130Z 22008KT 9999 FEW024 SCT160 21/17 Q1019 NOSIG
YBBN,2011-04-01 22:00,153.1292,-27.3917,71.60,62.60,73.27,220.00,9.00,M,30.09,M,6.21,M,FEW,SCT,M,M,2400.00,16000.00,M,M,M,YBBN 012200Z 22009KT 9999 FEW024 SCT160 22/17 Q1019 NOSIG
YBBN,2011-04-01 22:30,153.1292,-27.3917,73.40,62.60,68.94,220.00,9.00,M,30.12,M,6.21,M,FEW,M,M,M,2500.00,M,M,M,M,YBBN 012230Z 22009KT 9999 FEW025 23/17 Q1020 NOSIG
YBBN,2011-04-01 23:00,153.1292,-27.3917,73.40,62.60,68.94,210.00,7.00,M,30.12,M,6.21,M,FEW,M,M,M,2500.00,M,M,M,M,YBBN 012300Z 21007KT 9999 FEW025 23/17 Q1020 NOSIG
