#DEBUG: Format Typ    -> comma
#DEBUG: Time Period   -> 2015-03-02 00:00:00+00:00 2015-03-03 00:00:00+00:00
#DEBUG: Time Zone     -> Etc/UTC
#DEBUG: Data Contact   -> daryl herzmann akrherz@iastate.edu 515-294-5978
#DEBUG: Entries Found -> -1
station,valid,lon,lat,tmpf, dwpf, relh, drct, sknt, p01i, alti, mslp, vsby, gust, skyc1, skyc2, skyc3, skyc4, skyl1, skyl2, skyl3, skyl4, presentwx, metar
YBBN,2015-03-02 00:00,153.1292,-27.3917,82.40,69.80,65.74,120.00,9.00,0.00,29.91,M,6.21,M,FEW,BKN,FEW,M,2300.00,2600.00,2700.00,M,M,YBBN 020000Z 12009KT 9999 FEW023 BKN026 FEW027TCU 28/21 Q1013
YBBN,2015-03-02 00:30,153.1292,-27.3917,82.40,71.60,69.90,110.00,11.00,0.00,29.91,M,6.21,M,FEW,BKN,M,M,2400.00,2700.00,M,M,M,YBBN 020030Z 11011KT 9999 FEW024 BKN027 28/22 Q1013
YBBN,2015-03-02 01:00,153.1292,-27.3917,82.40,69.80,65.74,110.00,12.00,0.00,29.88,M,6.21,M,FEW,BKN,FEW,M,2400.00,2800.00,2900.00,M,-SHRA,YBBN 020100Z 11012KT 9999 -SHRA FEW024 BKN028 FEW029TCU 28/21 Q1012 RMK -SHRA SOUTH
YBBN,2015-03-02 01:30,153.1292,-27.3917,82.40,69.80,65.74,120.00,11.00,0.00,29.88,M,6.21,M,FEW,SCT,M,M,2400.00,3000.00,M,M,SHRA,YBBN 020130Z 12011KT 9999 SHRA FEW024 SCT030 28/21 Q1012 RMK VIS RED TO 8KM NORTH IN SHRA
YBBN,2015-03-02 02:00,153.1292,-27.3917,84.20,69.80,62.03,110.00,12.00,0.00,29.88,M,6.21,M,FEW,SCT,FEW,M,2400.00,3000.00,3100.00,M,VCSH,YBBN 020200Z 11012KT 9999 VCSH FEW024 SCT030 FEW031TCU 29/21 Q1012 RMK SHRA NW
YBBN,2015-03-02 02:30,153.1292,-27.3917,84.20,71.60,65.95,110.00,12.00,0.00,29.88,M,6.21,M,FEW,SCT,M,M,2500.00,3200.00,M,M,M,YBBN 020230Z 11012KT 9999 FEW025 SCT032 29/22 Q1012 RMK DIST -SHRA NW
YBBN,2015-03-02 03:00,153.1292,-27.3917,84.20,69.80,62.03,110.00,12.00,0.00,29.85,M,6.21,M,FEW,SCT,M,M,2500.00,3200.00,M,M,M,YBBN 020300Z 11012KT 9999 FEW025 SCT032 29/21 Q1011 RMK DIST CB TOP E/SE
YBBN,2015-03-02 03:30,153.1292,-27.3917,84.20,71.60,65.95,110.00,11.00,0.00,29.85,M,6.21,M,FEW,SCT,FEW,M,2600.00,3300.00,3400.00,M,M,YBBN 020330Z 11011KT 9999 FEW026 SCT033 FEW034TCU 29/22 Q1011 RMK DIST CB TOP E/NE
YBBN,2015-03-02 04:00,153.1292,-27.3917,84.20,69.80,62.03,110.00,13.00,0.00,29.85,M,6.21,M,FEW,SCT,FEW,M,2600.00,3300.00,3400.00,M,VCSH,YBBN 020400Z 11013KT 9999 VCSH FEW026 SCT033 FEW034TCU 29/21 Q1011 RMK SHRA SW
YBBN,2015-03-02 04:30,153.1292,-27.3917,84.20,68.00,58.32,110.00,15.00,0.00,29.85,M,6.21,M,FEW,SCT,FEW,M,2500.00,3300.00,3400.00,M,VCSH,YBBN 020430Z 11015KT 9999 VCSH FEW025 SCT033 FEW034TCU 29/20 Q1011 RMK +SHRA W/SW
YBBN,2015-03-02 05:06,153.1292,-27.3917,84.20,66.20,54.80,120.00,15.00,0.00,29.85,M,6.21,25.00,FEW,SCT,FEW,M,2500.00,3300.00,3400.00,M,M,YBBN 020506Z 12015G25KT 9999 FEW025 SCT033 FEW034TCU 29/19 Q1011
YBBN,2015-03-02 05:30,153.1292,-27.3917,82.40,68.00,61.81,110.00,13.00,0.00,29.85,M,6.21,24.00,FEW,FEW,M,M,2500.00,3200.00,M,M,M,YBBN 020530Z 11013G24KT 9999 FEW025 FEW032TCU 28/20 Q1011 RMK DIST SHRA NW
YBBN,2015-03-02 06:00,153.1292,-27.3917,82.40,68.00,61.81,120.00,13.00,0.00,29.85,M,6.21,M,FEW,FEW,M,M,2200.00,3200.00,M,M,M,YBBN 020600Z 12013KT 9999 FEW022 FEW032TCU 28/20 Q1011 RMK DIST -SHRA WEST
YBBN,2015-03-02 06:30,153.1292,-27.3917,82.40,66.20,58.08,130.00,11.00,0.00,29.85,M,6.21,M,FEW,FEW,M,M,2300.00,3000.00,M,M,M,YBBN 020630Z 13011KT 9999 FEW023 FEW030TCU 28/19 Q1011
YBBN,2015-03-02 07:00,153.1292,-27.3917,80.60,69.80,69.71,120.00,13.00,0.00,29.85,M,6.21,M,FEW,M,M,M,2300.00,M,M,M,M,YBBN 020700Z 12013KT 9999 FEW023 27/21 Q1011 NOSIG
YBBN,2015-03-02 07:30,153.1292,-27.3917,80.60,66.20,61.58,120.00,12.00,0.00,29.88,M,6.21,M,FEW,M,M,M,1800.00,M,M,M,M,YBBN 020730Z 12012KT 9999 FEW018 27/19 Q1012 RMK DIST -SHRA NE
YBBN,2015-03-02 08:00,153.1292,-27.3917,78.80,68.00,69.52,120.00,12.00,0.00,29.88,M,6.21,M,FEW,M,M,M,1700.00,M,M,M,M,YBBN 020800Z 12012KT 9999 FEW017 26/20 Q1012
YBBN,2015-03-02 08:30,153.1292,-27.3917,78.80,66.20,65.33,130.00,11.00,0.00,29.91,M,6.21,M,FEW,M,M,M,1700.00,M,M,M,M,YBBN 020830Z 13011KT 9999 FEW017 26/19 Q1013
YBBN,2015-03-02 09:00,153.1292,-27.3917,78.80,68.00,69.52,140.00,11.00,0.00,29.91,M,6.21,M,FEW,M,M,M,1700.00,M,M,M,M,YBBN 020900Z 14011KT 9999 FEW017 26/20 Q1013
YBBN,2015-03-02 09:30,153.1292,-27.3917,78.80,68.00,69.52,140.00,10.00,0.00,29.94,M,6.21,M,FEW,SCT,M,M,1700.00,8000.00,M,M,M,YBBN 020930Z 14010KT 9999 FEW017 SCT080 26/20 Q1014
YBBN,2015-03-02 10:00,153.1292,-27.3917,77.00,68.00,73.78,140.00,9.00,0.00,29.94,M,6.21,M,FEW,SCT,M,M,1700.00,8000.00,M,M,M,YBBN 021000Z 14009KT 9999 FEW017 SCT080 25/20 Q1014 NOSIG
YBBN,2015-03-02 10:30,153.1292,-27.3917,77.00,68.00,73.78,160.00,7.00,0.00,29.94,M,6.21,M,FEW,BKN,M,M,1700.00,8000.00,M,M,M,YBBN 021030Z 16007KT 9999 FEW017 BKN080 25/20 Q1014
YBBN,2015-03-02 11:00,153.1292,-27.3917,77.00,68.00,73.78,150.00,7.00,0.00,29.97,M,6.21,M,FEW,BKN,M,M,1700.00,8000.00,M,M,M,YBBN 021100Z 15007KT 9999 FEW017 BKN080 25/20 Q1015
YBBN,2015-03-02 11:30,153.1292,-27.3917,75.20,68.00,78.34,170.00,6.00,0.00,29.97,M,6.21,M,FEW,M,M,M,1700.00,M,M,M,M,YBBN 021130Z 17006KT 9999 FEW017 24/20 Q1015
YBBN,2015-03-02 12:00,153.1292,-27.3917,77.00,64.40,65.12,150.00,9.00,0.00,29.97,M,6.21,M,FEW,SCT,BKN,M,1700.00,2000.00,7500.00,M,-SHRA,YBBN 021200Z 15009KT 9999 -SHRA FEW017 SCT020 BKN075 25/18 Q1015
YBBN,2015-03-02 12:30,153.1292,-27.3917,75.20,68.00,78.34,170.00,8.00,0.00,29.97,M,6.21,M,M,M,M,M,M,M,M,M,M,YBBN 021230Z 17008KT CAVOK 24/20 Q1015
YBBN,2015-03-02 13:00,153.1292,-27.3917,75.20,68.00,78.34,180.00,6.00,0.00,29.97,M,6.21,M,M,M,M,M,M,M,M,M,M,YBBN 021300Z 18006KT CAVOK 24/20 Q1015
YBBN,2015-03-02 13:30,153.1292,-27.3917,73.40,68.00,83.21,190.00,7.00,0.00,29.97,M,6.21,M,M,M,M,M,M,M,M,M,M,YBBN 021330Z 19007KT CAVOK 23/20 Q1015
YBBN,2015-03-02 14:00,153.1292,-27.3917,73.40,68.00,83.21,190.00,7.00,0.00,29.94,M,6.21,M,FEW,M,M,M,1700.00,M,M,M,M,YBBN 021400Z 19007KT 9999 FEW017 23/20 Q1014
YBBN,2015-03-02 14:30,153.1292,-27.3917,73.40,68.00,83.21,170.00,9.00,0.00,29.94,M,6.21,M,FEW,M,M,M,2000.00,M,M,M,M,YBBN 021430Z 17009KT 9999 FEW020 23/20 Q1014
YBBN,2015-03-02 15:00,153.1292,-27.3917,73.40,68.00,83.21,190.00,8.00,0.00,29.94,M,6.21,M,FEW,M,M,M,2000.00,M,M,M,M,YBBN 021500Z 19008KT 9999 FEW020 23/20 Q1014
YBBN,2015-03-02 15:30,153.1292,-27.3917,73.40,68.00,83.21,200.00,8.00,0.00,29.94,M,6.21,M,FEW,M,M,M,2000.00,M,M,M,M,YBBN 021530Z 20008KT 9999 FEW020 23/20 Q1014
YBBN,2015-03-02 16:00,153.1292,-27.3917,71.60,66.20,83.09,200.00,6.00,0.00,29.94,M,6.21,M,FEW,M,M,M,2000.00,M,M,M,M,YBBN 021600Z 20006KT 9999 FEW020 22/19 Q1014
YBBN,2015-03-02 16:30,153.1292,-27.3917,71.60,66.20,83.09,190.00,5.00,0.00,29.91,M,6.21,M,FEW,M,M,M,2000.00,M,M,M,M,YBBN 021630Z 19005KT 9999 FEW020 22/19 Q1013
YBBN,2015-03-02 17:00,153.1292,-27.3917,69.80,66.20,88.34,200.00,5.00,0.00,29.91,M,6.21,M,FEW,SCT,M,M,2000.00,25000.00,M,M,M,YBBN 021700Z 20005KT 9999 FEW020 SCT250 21/19 Q1013
YBBN,2015-03-02 17:30,153.1292,-27.3917,69.80,66.20,88.34,200.00,5.00,0.00,29.91,M,6.21,M,FEW,SCT,M,M,2000.00,25000.00,M,M,M,YBBN 021730Z 20005KT 9999 FEW020 SCT250 21/19 Q1013
YBBN,2015-03-02 18:00,153.1292,-27.3917,69.80,66.20,88.34,200.00,5.00,0.00,29.91,M,6.21,M,FEW,M,M,M,2000.00,M,M,M,M,YBBN 021800Z 20005KT 9999 FEW020 21/19 Q1013 NOSIG
YBBN,2015-03-02 18:30,153.1292,-27.3917,69.80,66.20,88.34,210.00,6.00,0.00,29.94,M,6.21,M,FEW,M,M,M,2000.00,M,M,M,M,YBBN 021830Z 21006KT 9999 FEW020 21/19 Q1014
YBBN,2015-03-02 19:00,153.1292,-27.3917,69.80,66.20,88.34,200.00,7.00,0.00,29.94,M,6.21,M,FEW,M,M,M,1800.00,M,M,M,M,YBBN 021900Z 20007KT 9999 FEW018 21/19 Q1014 NOSIG
YBBN,2015-03-02 19:30,153.1292,-27.3917,69.80,66.20,88.34,200.00,6.00,0.00,29.94,M,6.21,M,FEW,M,M,M,1500.00,M,M,M,M,YBBN 021930Z 20006KT 9999 FEW015 21/19 Q1014
YBBN,2015-03-02 20:00,153.1292,-27.3917,69.80,66.20,88.34,200.00,6.00,0.00,29.94,M,6.21,M,FEW,M,M,M,1500.00,M,M,M,M,YBBN 022000Z 20006KT 9999 FEW015 21/19 Q1014 NOSIG
YBBN,2015-03-02 20:30,153.1292,-27.3917,71.60,68.00,88.43,210.00,8.00,0.00,29.94,M,6.21,M,FEW,M,M,M,1700.00,M,M,M,VCSH,YBBN 022030Z 21008KT 9999 VCSH FEW017 22/20 Q1014 RMK -SHRA NE
YBBN,2015-03-02 21:00,153.1292,-27.3917,73.40,68.00,83.21,200.00,8.00,0.00,29.97,M,6.21,M,FEW,M,M,M,1800.00,M,M,M,M,YBBN 022100Z 20008KT 9999 FEW018 23/20 Q1015 NOSIG
YBBN,2015-03-02 21:30,153.1292,-27.3917,75.20,68.00,78.34,210.00,8.00,0.00,29.97,M,6.21,M,FEW,M,M,M,2500.00,M,M,M,M,YBBN 022130Z 21008KT 9999 FEW025 24/20 Q1015
YBBN,2015-03-02 22:00,153.1292,-27.3917,77.00,68.00,73.78,170.00,6.00,0.00,29.97,M,6.21,M,FEW,M,M,M,2700.00,M,M,M,M,YBBN 022200Z 17006KT 9999 FEW027 25/20 Q1015 NOSIG
YBBN,2015-03-02 22:30,153.1292,-27.3917,78.80,68.00,69.52,180.00,6.00,0.00,29.97,M,6.21,M,FEW,M,M,M,2000.00,M,M,M,M,YBBN 022230Z 18006KT 9999 FEW020 26/20 Q1015
YBBN,2015-03-02 23:00,153.1292,-27.3917,80.60,68.00,65.54,150.00,7.00,0.00,29.97,M,6.21,M,FEW,SCT,M,M,2000.00,2700.00,M,M,M,YBBN 022300Z 15007KT 9999 FEW020 SCT027 27/20 Q1015 NOSIG
YBBN,2015-03-02 23:30,153.1292,-27.3917,80.60,68.00,65.54,130.00,7.00,0.00,29.97,M,6.21,M,FEW,SCT,M,M,2200.00,2700.00,M,M,M,YBBN 022330Z 13007KT 9999 FEW022 SCT027 27/20 Q1015
