#DEBUG: Format Typ    -> comma
#DEBUG: Time Period   -> 2014-12-24 00:00:00+00:00 2014-12-25 00:00:00+00:00
#DEBUG: Time Zone     -> Etc/UTC
#DEBUG: Data Contact   -> daryl herzmann akrherz@iastate.edu 515-294-5978
#DEBUG: Entries Found -> -1
station,valid,lon,lat,tmpf, dwpf, relh, drct, sknt, p01i, alti, mslp, vsby, gust, skyc1, skyc2, skyc3, skyc4, skyl1, skyl2, skyl3, skyl4, presentwx, metar
YBBN,2014-12-24 00:00,153.1292,-27.3917,82.40,60.80,48.05,10.00,7.00,0.00,29.94,M,6.21,M,FEW,M,M,M,2600.00,M,M,M,M,YBBN 240000Z 01007KT 9999 FEW026 28/16 Q1014 NOSIG
YBBN,2014-12-24 00:30,153.1292,-27.3917,80.60,60.80,50.95,20.00,9.00,0.00,29.94,M,6.21,M,FEW,SCT,M,M,3000.00,28000.00,M,M,M,YBBN 240030Z 02009KT 9999 FEW030 SCT280 27/16 Q1014
YBBN,2014-12-24 01:00,153.1292,-27.3917,80.60,62.60,54.30,20.00,10.00,0.00,29.91,M,6.21,M,FEW,M,M,M,3000.00,M,M,M,M,YBBN 240100Z 02010KT 9999 FEW030 27/17 Q1013 NOSIG
YBBN,2014-12-24 01:30,153.1292,-27.3917,80.60,62.60,54.30,30.00,10.00,0.00,29.91,M,6.21,M,FEW,M,M,M,3000.00,M,M,M,M,YBBN 240130Z 03010KT 9999 FEW030 27/17 Q1013
YBBN,2014-12-24 02:00,153.1292,-27.3917,82.40,64.40,54.55,40.00,10.00,0.00,29.91,M,6.21,M,FEW,M,M,M,3200.00,M,M,M,M,YBBN 240200Z 04010KT 9999 FEW032 28/18 Q1013 NOSIG
YBBN,2014-12-24 02:30,153.1292,-27.3917,82.40,64.40,54.55,40.00,12.00,0.00,29.88,M,6.21,M,FEW,M,M,M,3200.00,M,M,M,M,YBBN 240230Z 04012KT 9999 FEW032 28/18 Q1012
YBBN,2014-12-24 03:00,153.1292,-27.3917,84.20,66.20,54.80,40.00,13.00,0.00,29.88,M,6.21,M,FEW,M,M,M,3200.00,M,M,M,M,YBBN 240300Z 04013KT 9999 FEW032 29/19 Q1012 NOSIG
YBBN,2014-12-24 03:30,153.1292,-27.3917,82.40,66.20,58.08,40.00,13.00,0.00,29.88,M,6.21,M,FEW,M,M,M,3400.00,M,M,M,M,YBBN 240330Z 04013KT 9999 FEW034 28/19 Q1012
YBBN,2014-12-24 04:00,153.1292,-27.3917,82.40,66.20,58.08,40.00,13.00,0.00,29.88,M,6.21,M,FEW,M,M,M,3400.00,M,M,M,M,YBBN 240400Z 04013KT 9999 FEW034 28/19 Q1012 NOSIG
YBBN,2014-12-24 04:30,153.1292,-27.3917,80.60,66.20,61.58,30.00,13.00,0.00,29.88,M,6.21,M,FEW,M,M,M,3400.00,M,M,M,M,YBBN 240430Z 03013KT 9999 FEW034 27/19 Q1012
YBBN,2014-12-24 05:00,153.1292,-27.3917,82.40,68.00,61.81,20.00,14.00,0.00,29.85,M,6.21,M,FEW,M,M,M,3400.00,M,M,M,M,YBBN 240500Z 02014KT 9999 FEW034 28/20 Q1011 NOSIG
YBBN,2014-12-24 05:30,153.1292,-27.3917,82.40,68.00,61.81,10.00,15.00,0.00,29.85,M,6.21,M,FEW,SCT,M,M,3400.00,28000.00,M,M,M,YBBN 240530Z 01015KT 9999 FEW034 SCT280 28/20 Q1011 RMK DISTANT CB TO SOUTH
YBBN,2014-12-24 06:00,153.1292,-27.3917,80.60,66.20,61.58,20.00,15.00,0.00,29.85,M,6.21,M,FEW,BKN,M,M,3200.00,15000.00,M,M,M,YBBN 240600Z 02015KT 9999 FEW032 BKN150 27/19 Q1011 NOSIG
YBBN,2014-12-24 06:30,153.1292,-27.3917,80.60,66.20,61.58,10.00,14.00,0.00,29.85,M,6.21,M,FEW,SCT,M,M,3200.00,16000.00,M,M,M,YBBN 240630Z 01014KT 9999 FEW032 SCT160 27/19 Q1011
YBBN,2014-12-24 07:00,153.1292,-27.3917,80.60,66.20,61.58,10.00,14.00,0.00,29.85,M,6.21,M,FEW,M,M,M,3200.00,M,M,M,M,YBBN 240700Z 01014KT 9999 FEW032 27/19 Q1011 NOSIG
YBBN,2014-12-24 07:30,153.1292,-27.3917,78.80,66.20,65.33,10.00,13.00,0.00,29.88,M,6.21,M,FEW,M,M,M,3200.00,M,M,M,M,YBBN 240730Z 01013KT 9999 FEW032 26/19 Q1012 RMK DISTANT CB TO SOUTH
YBBN,2014-12-24 08:00,153.1292,-27.3917,78.80,62.60,57.60,40.00,11.00,0.00,29.88,M,6.21,M,FEW,M,M,M,2800.00,M,M,M,M,YBBN 240800Z 04011KT 9999 FEW028 26/17 Q1012 NOSIG
YBBN,2014-12-24 08:30,153.1292,-27.3917,77.00,64.40,65.12,40.00,8.00,0.00,29.91,M,6.21,M,FEW,SCT,M,M,2800.00,23000.00,M,M,M,YBBN 240830Z 04008KT 9999 FEW028 SCT230 25/18 Q1013 RMK DIST CB TOP SW
YBBN,2014-12-24 09:00,153.1292,-27.3917,75.20,64.40,69.14,40.00,6.00,0.00,29.91,M,6.21,M,FEW,SCT,M,M,2800.00,25000.00,M,M,M,YBBN 240900Z 04006KT 9999 FEW028 SCT250 24/18 Q1013 NOSIG
YBBN,2014-12-24 09:30,153.1292,-27.3917,75.20,64.40,69.14,40.00,5.00,0.00,29.91,M,6.21,M,FEW,SCT,BKN,M,2800.00,10500.00,25000.00,M,M,YBBN 240930Z 04005KT 9999 FEW028 SCT105 BKN250 24/18 Q1013 RMK DIST CB TOP AND SHRA SW
YBBN,2014-12-24 10:00,153.1292,-27.3917,75.20,66.20,73.61,30.00,7.00,0.00,29.91,M,6.21,M,FEW,SCT,BKN,M,2700.00,20000.00,25000.00,M,M,YBBN 241000Z 03007KT 9999 FEW027 SCT200 BKN250 24/19 Q1013
YBBN,2014-12-24 10:30,153.1292,-27.3917,75.20,66.20,73.61,20.00,9.00,0.00,29.94,M,6.21,M,FEW,SCT,BKN,M,2500.00,13500.00,25000.00,M,M,YBBN 241030Z 02009KT 9999 FEW025 SCT135 BKN250 24/19 Q1014 RMK DIST -SHRA WEST
YBBN,2014-12-24 11:00,153.1292,-27.3917,75.20,66.20,73.61,10.00,8.00,0.00,29.94,M,6.21,M,FEW,SCT,BKN,M,2200.00,17000.00,25000.00,M,M,YBBN 241100Z 01008KT 9999 FEW022 SCT170 BKN250 24/19 Q1014 NOSIG
YBBN,2014-12-24 11:30,153.1292,-27.3917,75.20,68.00,78.34,20.00,9.00,0.00,29.94,M,6.21,M,FEW,SCT,BKN,M,2200.00,2500.00,25000.00,M,M,YBBN 241130Z 02009KT 9999 FEW022 SCT025 BKN250 24/20 Q1014 RMK DIST -SHRA WEST
YBBN,2014-12-24 12:00,153.1292,-27.3917,75.20,68.00,78.34,40.00,7.00,0.00,29.94,M,6.21,M,FEW,SCT,BKN,M,2200.00,2500.00,25000.00,M,M,YBBN 241200Z 04007KT 9999 FEW022 SCT025 BKN250 24/20 Q1014 NOSIG
YBBN,2014-12-24 12:30,153.1292,-27.3917,75.20,68.00,78.34,30.00,9.00,0.00,29.94,M,6.21,M,FEW,SCT,M,M,2100.00,24000.00,M,M,M,YBBN 241230Z 03009KT 9999 FEW021 SCT240 24/20 Q1014
YBBN,2014-12-24 13:00,153.1292,-27.3917,75.20,66.20,73.61,30.00,7.00,0.00,29.94,M,6.21,M,FEW,SCT,M,M,2000.00,16000.00,M,M,M,YBBN 241300Z 03007KT 9999 FEW020 SCT160 24/19 Q1014 NOSIG
YBBN,2014-12-24 13:30,153.1292,-27.3917,75.20,66.20,73.61,30.00,9.00,0.00,29.94,M,6.21,M,FEW,SCT,M,M,2000.00,2500.00,M,M,M,YBBN 241330Z 03009KT 9999 FEW020 SCT025 24/19 Q1014
YBBN,2014-12-24 14:00,153.1292,-27.3917,75.20,66.20,73.61,40.00,6.00,0.00,29.94,M,6.21,M,FEW,SCT,M,M,2200.00,2500.00,M,M,M,YBBN 241400Z 04006KT 9999 FEW022 SCT025 24/19 Q1014 NOSIG
YBBN,2014-12-24 14:30,153.1292,-27.3917,73.40,66.20,78.19,40.00,6.00,0.00,29.91,M,6.21,M,FEW,SCT,M,M,2200.00,2500.00,M,M,M,YBBN 241430Z 04006KT 9999 FEW022 SCT025 23/19 Q1013
YBBN,2014-12-24 15:00,153.1292,-27.3917,71.60,66.20,83.09,40.00,6.00,0.00,29.91,M,6.21,M,FEW,M,M,M,1900.00,M,M,M,M,YBBN 241500Z 04006KT 9999 FEW019 22/19 Q1013 NOSIG
YBBN,2014-12-24 15:30,153.1292,-27.3917,71.60,66.20,83.09,30.00,5.00,0.00,29.91,M,6.21,M,FEW,M,M,M,1900.00,M,M,M,M,YBBN 241530Z 03005KT 9999 FEW019 22/19 Q1013
YBBN,2014-12-24 16:00,153.1292,-27.3917,71.60,66.20,83.09,30.00,6.00,0.00,29.91,M,6.21,M,FEW,M,M,M,1800.00,M,M,M,M,YBBN 241600Z 03006KT 9999 FEW018 22/19 Q1013 NOSIG
YBBN,2014-12-24 16:30,153.1292,-27.3917,71.60,66.20,83.09,50.00,5.00,0.00,29.88,M,6.21,M,FEW,M,M,M,1900.00,M,M,M,M,YBBN 241630Z 05005KT 9999 FEW019 22/19 Q1012
YBBN,2014-12-24 17:00,153.1292,-27.3917,71.60,66.20,83.09,50.00,4.00,0.00,29.88,M,6.21,M,FEW,M,M,M,1900.00,M,M,M,M,YBBN 241700Z 05004KT 9999 FEW019 22/19 Q1012
YBBN,2014-12-24 17:30,153.1292,-27.3917,71.60,66.20,83.09,50.00,4.00,0.00,29.88,M,6.21,M,FEW,M,M,M,1700.00,M,M,M,M,YBBN 241730Z 05004KT 9999 FEW017 22/19 Q1012
YBBN,2014-12-24 18:00,153.1292,-27.3917,71.60,66.20,83.09,50.00,4.00,0.00,29.88,M,6.21,M,FEW,M,M,M,1600.00,M,M,M,M,YBBN 241800Z 05004KT 9999 FEW016 22/19 Q1012 NOSIG
YBBN,2014-12-24 18:30,153.1292,-27.3917,71.60,66.20,83.09,50.00,4.00,0.00,29.88,M,6.21,M,FEW,M,M,M,1900.00,M,M,M,M,YBBN 241830Z 05004KT 9999 FEW019 22/19 Q1012
YBBN,2014-12-24 19:00,153.1292,-27.3917,71.60,66.20,83.09,0.00,0.00,0.00,29.88,M,6.21,M,FEW,M,M,M,1900.00,M,M,M,M,YBBN 241900Z 00000KT 9999 FEW019 22/19 Q1012 NOSIG
YBBN,2014-12-24 19:30,153.1292,-27.3917,71.60,66.20,83.09,0.00,0.00,0.00,29.91,M,6.21,M,FEW,M,M,M,2200.00,M,M,M,M,YBBN 241930Z 00000KT 9999 FEW022 22/19 Q1013
YBBN,2014-12-24 20:00,153.1292,-27.3917,75.20,68.00,78.34,0.00,0.00,0.00,29.91,M,6.21,M,FEW,M,M,M,2200.00,M,M,M,M,YBBN 242000Z 00000KT 9999 FEW022 24/20 Q1013 NOSIG
YBBN,2014-12-24 20:30,153.1292,-27.3917,77.00,66.20,69.33,50.00,6.00,0.00,29.91,M,6.21,M,FEW,M,M,M,2200.00,M,M,M,M,YBBN 242030Z 05006KT 9999 FEW022 25/19 Q1013
YBBN,2014-12-24 21:00,153.1292,-27.3917,77.00,66.20,69.33,30.00,6.00,0.00,29.94,M,6.21,M,SCT,M,M,M,2500.00,M,M,M,M,YBBN 242100Z 03006KT 9999 SCT025 25/19 Q1014 NOSIG
YBBN,2014-12-24 21:30,153.1292,-27.3917,77.00,66.20,69.33,60.00,5.00,0.00,29.94,M,6.21,M,SCT,M,M,M,2800.00,M,M,M,M,YBBN 242130Z 06005KT 9999 SCT028 25/19 Q1014
YBBN,2014-12-24 22:00,153.1292,-27.3917,77.00,66.20,69.33,30.00,7.00,0.00,29.94,M,6.21,M,SCT,M,M,M,3000.00,M,M,M,M,YBBN 242200Z 03007KT 9999 SCT030 25/19 Q1014
YBBN,2014-12-24 22:30,153.1292,-27.3917,78.80,66.20,65.33,40.00,8.00,0.00,29.91,M,6.21,M,FEW,M,M,M,3300.00,M,M,M,M,YBBN 242230Z 04008KT 9999 FEW033 26/19 Q1013
YBBN,2014-12-24 23:00,153.1292,-27.3917,78.80,64.40,61.36,40.00,8.00,0.00,29.91,M,6.21,M,FEW,M,M,M,3500.00,M,M,M,M,YBBN 242300Z 04008KT 9999 FEW035 26/18 Q1013 NOSIG
YBBN,2014-12-24 23:30,153.1292,-27.3917,80.60,64.40,57.84,30.00,9.00,0.00,29.91,M,6.21,M,FEW,M,M,M,3500.00,M,M,M,M,YBBN 242330Z 03009KT 9999 FEW035 27/18 Q1013
