#DEBUG: Format Typ    -> comma
#DEBUG: Time Period   -> 2013-03-22 00:00:00+00:00 2013-03-23 00:00:00+00:00
#DEBUG: Time Zone     -> Etc/UTC
#DEBUG: Data Contact   -> daryl herzmann akrherz@iastate.edu 515-294-5978
#DEBUG: Entries Found -> -1
station,valid,lon,lat,tmpf, dwpf, relh, drct, sknt, p01i, alti, mslp, vsby, gust, skyc1, skyc2, skyc3, skyc4, skyl1, skyl2, skyl3, skyl4, presentwx, metar
YBBN,2013-03-22 00:00,153.1292,-27.3917,77.00,69.80,78.48,160.00,4.00,0.00,30.12,M,6.21,M,FEW,SCT,M,M,1500.00,2000.00,M,M,M,YBBN 220000Z 16004KT 9999 FEW015 SCT020 25/21 Q1020
YBBN,2013-03-22 00:30,153.1292,-27.3917,77.00,69.80,78.48,330.00,3.00,0.00,30.12,M,6.21,M,BKN,SCT,M,M,1800.00,3000.00,M,M,M,YBBN 220030Z 33003KT 9999 BKN018 SCT030 25/21 Q1020
YBBN,2013-03-22 01:00,153.1292,-27.3917,78.80,69.80,73.95,190.00,4.00,0.00,30.09,M,6.21,M,SCT,SCT,M,M,2000.00,3000.00,M,M,M,YBBN 220100Z 19004KT 9999 SCT020 SCT030 26/21 Q1019
YBBN,2013-03-22 01:30,153.1292,-27.3917,80.60,69.80,69.71,30.00,8.00,0.00,30.09,M,6.21,M,SCT,BKN,M,M,2200.00,11000.00,M,M,M,YBBN 220130Z 03008KT 9999 SCT022 BKN110 27/21 Q1019
YBBN,2013-03-22 02:00,153.1292,-27.3917,80.60,69.80,69.71,50.00,9.00,0.00,30.09,M,6.21,M,FEW,SCT,BKN,M,2500.00,4000.00,11000.00,M,M,YBBN 220200Z 05009KT 9999 FEW025 SCT040 BKN110 27/21 Q1019
YBBN,2013-03-22 02:30,153.1292,-27.3917,80.60,69.80,69.71,40.00,8.00,0.00,30.06,M,6.21,M,FEW,SCT,BKN,M,2500.00,4000.00,11000.00,M,M,YBBN 220230Z 04008KT 9999 FEW025 SCT040 BKN110 27/21 Q1018
YBBN,2013-03-22 03:00,153.1292,-27.3917,80.60,69.80,69.71,50.00,8.00,0.00,30.06,M,6.21,M,FEW,SCT,BKN,M,2800.00,4000.00,27000.00,M,M,YBBN 220300Z 05008KT 9999 FEW028 SCT040 BKN270 27/21 Q1018 NOSIG
YBBN,2013-03-22 03:30,153.1292,-27.3917,80.60,69.80,69.71,50.00,9.00,0.00,30.06,M,6.21,M,FEW,SCT,M,M,3000.00,5000.00,M,M,M,YBBN 220330Z 05009KT 9999 FEW030 SCT050 27/21 Q1018
YBBN,2013-03-22 04:00,153.1292,-27.3917,80.60,69.80,69.71,40.00,10.00,0.00,30.03,M,6.21,M,FEW,SCT,M,M,3000.00,5000.00,M,M,M,YBBN 220400Z 04010KT 9999 FEW030 SCT050 27/21 Q1017 NOSIG
YBBN,2013-03-22 04:30,153.1292,-27.3917,78.80,71.60,78.62,30.00,12.00,0.00,30.03,M,6.21,M,FEW,M,M,M,2300.00,M,M,M,M,YBBN 220430Z 03012KT 9999 FEW023 26/22 Q1017
YBBN,2013-03-22 05:00,153.1292,-27.3917,77.00,69.80,78.48,40.00,11.00,0.00,30.03,M,6.21,M,FEW,SCT,BKN,M,1700.00,6500.00,27000.00,M,M,YBBN 220500Z 04011KT 9999 FEW017 SCT065 BKN270 25/21 Q1017 NOSIG
YBBN,2013-03-22 05:30,153.1292,-27.3917,77.00,71.60,83.44,40.00,12.00,0.00,30.03,M,6.21,M,FEW,BKN,M,M,800.00,6000.00,M,M,M,YBBN 220530Z 04012KT 9999 FEW008 BKN060 25/22 Q1017
YBBN,2013-03-22 06:00,153.1292,-27.3917,77.00,71.60,83.44,50.00,11.00,0.00,30.03,M,6.21,M,FEW,BKN,M,M,1000.00,6000.00,M,M,M,YBBN 220600Z 05011KT 9999 FEW010 BKN060 25/22 Q1017
YBBN,2013-03-22 06:30,153.1292,-27.3917,77.00,69.80,78.48,50.00,10.00,0.00,30.03,M,6.21,M,FEW,SCT,M,M,1500.00,6000.00,M,M,M,YBBN 220630Z 05010KT 9999 FEW015 SCT060 25/21 Q1017
YBBN,2013-03-22 07:00,153.1292,-27.3917,75.20,69.80,83.32,40.00,8.00,0.00,30.03,M,6.21,M,FEW,SCT,BKN,M,1500.00,3000.00,6000.00,M,M,YBBN 220700Z 04008KT 9999 FEW015 SCT030 BKN060 24/21 Q1017
YBBN,2013-03-22 07:30,153.1292,-27.3917,75.20,69.80,83.32,60.00,8.00,0.00,30.06,M,6.21,M,FEW,BKN,M,M,900.00,2800.00,M,M,M,YBBN 220730Z 06008KT 9999 FEW009 BKN028 24/21 Q1018
YBBN,2013-03-22 08:00,153.1292,-27.3917,75.20,71.60,88.59,50.00,9.00,0.00,30.06,M,6.21,M,FEW,BKN,M,M,900.00,3000.00,M,M,M,YBBN 220800Z 05009KT 9999 FEW009 BKN030 24/22 Q1018
YBBN,2013-03-22 08:30,153.1292,-27.3917,73.40,69.80,88.51,40.00,11.00,0.00,30.06,M,6.21,M,FEW,BKN,M,M,800.00,3300.00,M,M,M,YBBN 220830Z 04011KT 9999 FEW008 BKN033 23/21 Q1018
YBBN,2013-03-22 09:00,153.1292,-27.3917,75.20,69.80,83.32,30.00,12.00,0.00,30.09,M,6.21,M,FEW,BKN,M,M,1000.00,3700.00,M,M,M,YBBN 220900Z 03012KT 9999 FEW010 BKN037 24/21 Q1019 NOSIG
YBBN,2013-03-22 09:30,153.1292,-27.3917,75.20,69.80,83.32,30.00,9.00,0.00,30.09,M,6.21,M,FEW,BKN,M,M,2500.00,3700.00,M,M,M,YBBN 220930Z 03009KT 9999 FEW025 BKN037 24/21 Q1019
YBBN,2013-03-22 10:00,153.1292,-27.3917,75.20,69.80,83.32,40.00,9.00,0.00,30.09,M,6.21,M,M,M,M,M,M,M,M,M,M,YBBN 221000Z 04009KT 9999 24/21 Q1019 NOSIG
YBBN,2013-03-22 10:30,153.1292,-27.3917,73.40,69.80,88.51,50.00,7.00,0.00,30.09,M,6.21,M,FEW,BKN,M,M,2500.00,4200.00,M,M,M,YBBN 221030Z 05007KT 9999 FEW025 BKN042 23/21 Q1019
YBBN,2013-03-22 11:00,153.1292,-27.3917,75.20,69.80,83.32,60.00,6.00,0.00,30.12,M,6.21,M,FEW,SCT,BKN,M,2500.00,3700.00,4200.00,M,M,YBBN 221100Z 06006KT 9999 FEW025 SCT037 BKN042 24/21 Q1020
YBBN,2013-03-22 11:30,153.1292,-27.3917,75.20,71.60,88.59,50.00,6.00,0.00,30.12,M,6.21,M,SCT,BKN,M,M,2200.00,4200.00,M,M,M,YBBN 221130Z 05006KT 9999 SCT022 BKN042 24/22 Q1020
YBBN,2013-03-22 12:00,153.1292,-27.3917,73.40,71.60,94.10,40.00,6.00,0.00,30.12,M,6.21,M,FEW,BKN,M,M,1800.00,4000.00,M,M,M,YBBN 221200Z 04006KT 9999 FEW018 BKN040 23/22 Q1020 NOSIG
YBBN,2013-03-22 12:30,153.1292,-27.3917,73.40,69.80,88.51,40.00,6.00,0.00,30.12,M,6.21,M,FEW,SCT,BKN,M,1500.00,2000.00,4500.00,M,M,YBBN 221230Z 04006KT 9999 FEW015 SCT020 BKN045 23/21 Q1020
YBBN,2013-03-22 13:00,153.1292,-27.3917,73.40,71.60,94.10,10.00,4.00,0.00,30.09,M,6.21,M,FEW,SCT,BKN,M,1500.00,2000.00,4800.00,M,M,YBBN 221300Z 01004KT 9999 FEW015 SCT020 BKN048 23/22 Q1019 NOSIG
YBBN,2013-03-22 13:30,153.1292,-27.3917,73.40,71.60,94.10,20.00,3.00,0.00,30.09,M,6.21,M,FEW,SCT,BKN,M,1200.00,1800.00,4800.00,M,M,YBBN 221330Z 02003KT 9999 FEW012 SCT018 BKN048 23/22 Q1019
YBBN,2013-03-22 14:00,153.1292,-27.3917,75.20,71.60,88.59,0.00,0.00,0.00,30.09,M,6.21,M,FEW,SCT,BKN,M,1200.00,1700.00,5500.00,M,VCSH,YBBN 221400Z 00000KT 9999 VCSH FEW012 SCT017 BKN055 24/22 Q1019 RMK RASH TO NE
YBBN,2013-03-22 14:30,153.1292,-27.3917,73.40,71.60,94.10,0.00,0.00,0.00,30.09,M,6.21,M,FEW,SCT,BKN,M,1500.00,5500.00,6500.00,M,VCSH,YBBN 221430Z 00000KT 9999 VCSH FEW015 SCT055 BKN065 23/22 Q1019
YBBN,2013-03-22 15:00,153.1292,-27.3917,73.40,71.60,94.10,0.00,0.00,0.00,30.09,M,6.21,M,FEW,SCT,BKN,M,1000.00,1500.00,5000.00,M,M,YBBN 221500Z 00000KT 9999 FEW010 SCT015 BKN050 23/22 Q1019 NOSIG
YBBN,2013-03-22 15:30,153.1292,-27.3917,73.40,71.60,94.10,0.00,0.00,0.00,30.06,M,6.21,M,FEW,BKN,M,M,1400.00,5000.00,M,M,M,YBBN 221530Z 00000KT 9999 FEW014 BKN050 23/22 Q1018
YBBN,2013-03-22 16:00,153.1292,-27.3917,71.60,69.80,94.06,0.00,0.00,0.00,30.06,M,6.21,M,FEW,SCT,M,M,1500.00,5000.00,M,M,M,YBBN 221600Z 00000KT 9999 FEW015 SCT050 22/21 Q1018 NOSIG
YBBN,2013-03-22 16:30,153.1292,-27.3917,71.60,69.80,94.06,0.00,0.00,0.00,30.06,M,6.21,M,FEW,BKN,M,M,1500.00,6000.00,M,M,M,YBBN 221630Z 00000KT 9999 FEW015 BKN060 22/21 Q1018
YBBN,2013-03-22 17:00,153.1292,-27.3917,73.40,69.80,88.51,270.00,3.00,0.00,30.06,M,6.21,M,SCT,SCT,M,M,1400.00,6000.00,M,M,M,YBBN 221700Z 27003KT 9999 SCT014 SCT060 23/21 Q1018
YBBN,2013-03-22 17:33,153.1292,-27.3917,71.60,69.80,94.06,250.00,1.00,0.00,30.06,M,6.21,M,SCT,SCT,M,M,1400.00,1800.00,M,M,M,YBBN 221733Z 25001KT 9999 SCT014 SCT018 22/21 Q1018
YBBN,2013-03-22 17:37,153.1292,-27.3917,71.60,69.80,94.06,230.00,3.00,0.00,30.06,M,6.21,M,BKN,SCT,M,M,1400.00,1800.00,M,M,M,YBBN 221737Z 23003KT 9999 BKN014 SCT018 22/21 Q1018
YBBN,2013-03-22 18:00,153.1292,-27.3917,71.60,69.80,94.06,0.00,0.00,0.00,30.06,M,6.21,M,SCT,M,M,M,1400.00,M,M,M,M,YBBN 221800Z 00000KT 9999 SCT014 22/21 Q1018
YBBN,2013-03-22 18:30,153.1292,-27.3917,69.80,64.40,82.98,0.00,0.00,0.00,30.06,M,6.21,M,FEW,BKN,M,M,1400.00,27000.00,M,M,M,YBBN 221830Z 00000KT 9999 FEW014 BKN270 21/18 Q1018
YBBN,2013-03-22 19:00,153.1292,-27.3917,69.80,69.80,100.00,0.00,0.00,0.00,30.06,M,6.21,M,FEW,BKN,M,M,1400.00,27000.00,M,M,M,YBBN 221900Z 00000KT 9999 FEW014 BKN270 21/21 Q1018 NOSIG
YBBN,2013-03-22 19:30,153.1292,-27.3917,71.60,69.80,94.06,260.00,4.00,0.00,30.06,M,6.21,M,FEW,BKN,M,M,1500.00,27000.00,M,M,M,YBBN 221930Z 26004KT 9999 FEW015 BKN270 22/21 Q1018
YBBN,2013-03-22 20:00,153.1292,-27.3917,69.80,69.80,100.00,250.00,6.00,0.00,30.09,M,6.21,M,FEW,SCT,BKN,M,1500.00,8000.00,27000.00,M,M,YBBN 222000Z 25006KT 9999 FEW015 SCT080 BKN270 21/21 Q1019 NOSIG
YBBN,2013-03-22 20:30,153.1292,-27.3917,71.60,69.80,94.06,240.00,5.00,0.00,30.09,M,6.21,M,FEW,SCT,BKN,M,1200.00,8000.00,27000.00,M,M,YBBN 222030Z 24005KT 9999 FEW012 SCT080 BKN270 22/21 Q1019
YBBN,2013-03-22 21:00,153.1292,-27.3917,73.40,71.60,94.10,200.00,3.00,0.00,30.09,M,6.21,M,FEW,SCT,BKN,M,500.00,7500.00,27000.00,M,M,YBBN 222100Z 20003KT 9999 FEW005 SCT075 BKN270 23/22 Q1019 NOSIG
YBBN,2013-03-22 21:30,153.1292,-27.3917,75.20,71.60,88.59,210.00,6.00,0.00,30.09,M,6.21,M,FEW,BKN,M,M,500.00,27000.00,M,M,M,YBBN 222130Z 21006KT 9999 FEW005 BKN270 24/22 Q1019
YBBN,2013-03-22 22:00,153.1292,-27.3917,75.20,69.80,83.32,290.00,3.00,0.00,30.06,M,6.21,M,FEW,BKN,M,M,1500.00,27000.00,M,M,M,YBBN 222200Z 29003KT 9999 FEW015 BKN270 24/21 Q1018 NOSIG
YBBN,2013-03-22 22:30,153.1292,-27.3917,77.00,69.80,78.48,360.00,5.00,0.00,30.06,M,6.21,M,FEW,SCT,BKN,M,1000.00,22000.00,27000.00,M,M,YBBN 222230Z 36005KT 9999 FEW010 SCT220 BKN270 25/21 Q1018
YBBN,2013-03-22 23:00,153.1292,-27.3917,78.80,68.00,69.52,320.00,6.00,0.00,30.09,M,6.21,M,FEW,SCT,BKN,M,1500.00,21000.00,27000.00,M,M,YBBN 222300Z 32006KT 9999 FEW015 SCT210 BKN270 26/20 Q1019
YBBN,2013-03-22 23:30,153.1292,-27.3917,78.80,68.00,69.52,330.00,5.00,0.00,30.09,M,6.21,M,FEW,SCT,BKN,M,1800.00,21000.00,27000.00,M,M,YBBN 222330Z 33005KT 9999 FEW018 SCT210 BKN270 26/20 Q1019
