#DEBUG: Format Typ    -> comma
#DEBUG: Time Period   -> 2012-11-24 00:00:00+00:00 2012-11-25 00:00:00+00:00
#DEBUG: Time Zone     -> Etc/UTC
#DEBUG: Data Contact   -> daryl herzmann akrherz@iastate.edu 515-294-5978
#DEBUG: Entries Found -> -1
station,valid,lon,lat,tmpf, dwpf, relh, drct, sknt, p01i, alti, mslp, vsby, gust, skyc1, skyc2, skyc3, skyc4, skyl1, skyl2, skyl3, skyl4, presentwx, metar
YBBN,2012-11-24 00:00,153.1292,-27.3917,78.80,59.00,50.69,30.00,11.00,0.00,30.09,M,6.21,M,FEW,SCT,BKN,M,2500.00,4200.00,28000.00,M,M,YBBN 240000Z 03011KT 9999 FEW025 SCT042 BKN280 26/15 Q1019 NOSIG
YBBN,2012-11-24 00:30,153.1292,-27.3917,77.00,60.80,57.36,60.00,9.00,0.00,30.09,M,6.21,M,FEW,BKN,BKN,M,2500.00,4400.00,28000.00,M,M,YBBN 240030Z 06009KT 9999 FEW025 BKN044 BKN280 25/16 Q1019
YBBN,2012-11-24 01:00,153.1292,-27.3917,75.20,60.80,60.90,10.00,9.00,0.00,30.09,M,6.21,M,SCT,BKN,BKN,M,3100.00,4200.00,28000.00,M,M,YBBN 240100Z 01009KT 9999 SCT031 BKN042 BKN280 24/16 Q1019 NOSIG
YBBN,2012-11-24 01:30,153.1292,-27.3917,77.00,62.60,61.13,10.00,9.00,0.00,30.06,M,6.21,M,FEW,BKN,BKN,M,3100.00,4000.00,28000.00,M,M,YBBN 240130Z 01009KT 9999 FEW031 BKN040 BKN280 25/17 Q1018
YBBN,2012-11-24 02:00,153.1292,-27.3917,78.80,60.80,54.05,360.00,10.00,0.00,30.06,M,6.21,M,FEW,BKN,BKN,M,3100.00,4400.00,28000.00,M,M,YBBN 240200Z 36010KT 9999 FEW031 BKN044 BKN280 26/16 Q1018
YBBN,2012-11-24 02:30,153.1292,-27.3917,78.80,60.80,54.05,10.00,11.00,0.00,30.06,M,6.21,M,FEW,BKN,M,M,3600.00,27000.00,M,M,M,YBBN 240230Z 01011KT 9999 FEW036 BKN270 26/16 Q1018
YBBN,2012-11-24 03:00,153.1292,-27.3917,77.00,60.80,57.36,10.00,12.00,0.00,30.06,M,6.21,M,FEW,SCT,BKN,M,3600.00,4500.00,27000.00,M,M,YBBN 240300Z 01012KT 9999 FEW036 SCT045 BKN270 25/16 Q1018 NOSIG
YBBN,2012-11-24 03:30,153.1292,-27.3917,77.00,62.60,61.13,20.00,12.00,0.00,30.06,M,6.21,M,FEW,SCT,BKN,M,3600.00,11000.00,27000.00,M,M,YBBN 240330Z 02012KT 9999 FEW036 SCT110 BKN270 25/17 Q1018 RMK CASTELLANUS
YBBN,2012-11-24 04:00,153.1292,-27.3917,77.00,62.60,61.13,20.00,13.00,0.00,30.03,M,6.21,M,FEW,BKN,M,M,3600.00,27000.00,M,M,M,YBBN 240400Z 02013KT 9999 FEW036 BKN270 25/17 Q1017
YBBN,2012-11-24 04:30,153.1292,-27.3917,77.00,60.80,57.36,20.00,11.00,0.00,30.03,M,6.21,M,FEW,SCT,BKN,M,3600.00,11000.00,27000.00,M,M,YBBN 240430Z 02011KT 9999 FEW036 SCT110 BKN270 25/16 Q1017 RMK CASTELLANUS
YBBN,2012-11-24 05:00,153.1292,-27.3917,77.00,59.00,53.80,30.00,11.00,0.00,30.00,M,6.21,M,FEW,SCT,BKN,M,3600.00,11000.00,27000.00,M,M,YBBN 240500Z 03011KT 9999 FEW036 SCT110 BKN270 25/15 Q1016
YBBN,2012-11-24 05:30,153.1292,-27.3917,78.80,60.80,54.05,20.00,13.00,0.00,30.00,M,6.21,M,FEW,SCT,BKN,M,3500.00,11000.00,27000.00,M,M,YBBN 240530Z 02013KT 9999 FEW035 SCT110 BKN270 26/16 Q1016 RMK CASTELLANUS CLOUD
YBBN,2012-11-24 06:00,153.1292,-27.3917,77.00,59.00,53.80,30.00,13.00,0.00,30.00,M,6.21,M,FEW,SCT,M,M,3000.00,11000.00,M,M,M,YBBN 240600Z 03013KT 9999 FEW030 SCT110 25/15 Q1016 RMK CASTELLANUS
YBBN,2012-11-24 06:30,153.1292,-27.3917,77.00,60.80,57.36,30.00,14.00,0.00,30.00,M,6.21,M,FEW,SCT,M,M,3000.00,27000.00,M,M,M,YBBN 240630Z 03014KT 9999 FEW030 SCT270 25/16 Q1016 RMK CASTELLANUS
YBBN,2012-11-24 07:00,153.1292,-27.3917,77.00,60.80,57.36,30.00,14.00,0.00,30.00,M,6.21,M,FEW,SCT,M,M,3300.00,27000.00,M,M,M,YBBN 240700Z 03014KT 9999 FEW033 SCT270 25/16 Q1016 NOSIG
YBBN,2012-11-24 07:30,153.1292,-27.3917,75.20,62.60,64.91,40.00,11.00,0.00,30.03,M,6.21,M,FEW,SCT,M,M,2700.00,27000.00,M,M,M,YBBN 240730Z 04011KT 9999 FEW027 SCT270 24/17 Q1017
YBBN,2012-11-24 08:00,153.1292,-27.3917,75.20,62.60,64.91,50.00,11.00,0.00,30.03,M,6.21,M,FEW,SCT,M,M,2500.00,27000.00,M,M,M,YBBN 240800Z 05011KT 9999 FEW025 SCT270 24/17 Q1017 RMK CASTELLANUS
YBBN,2012-11-24 08:30,153.1292,-27.3917,73.40,62.60,68.94,40.00,11.00,0.00,30.03,M,6.21,M,SCT,BKN,M,M,2900.00,27000.00,M,M,M,YBBN 240830Z 04011KT 9999 SCT029 BKN270 23/17 Q1017
YBBN,2012-11-24 09:00,153.1292,-27.3917,73.40,62.60,68.94,50.00,10.00,0.00,30.06,M,6.21,M,BKN,BKN,M,M,2900.00,27000.00,M,M,M,YBBN 240900Z 05010KT 9999 BKN029 BKN270 23/17 Q1018 NOSIG
YBBN,2012-11-24 09:30,153.1292,-27.3917,73.40,62.60,68.94,40.00,12.00,0.00,30.06,M,6.21,M,BKN,SCT,M,M,2700.00,27000.00,M,M,M,YBBN 240930Z 04012KT 9999 BKN027 SCT270 23/17 Q1018
YBBN,2012-11-24 10:00,153.1292,-27.3917,73.40,62.60,68.94,40.00,10.00,0.00,30.06,M,6.21,M,BKN,SCT,M,M,2700.00,27000.00,M,M,M,YBBN 241000Z 04010KT 9999 BKN027 SCT270 23/17 Q1018
YBBN,2012-11-24 10:30,153.1292,-27.3917,71.60,62.60,73.27,40.00,9.00,0.00,30.06,M,6.21,M,BKN,M,M,M,2700.00,M,M,M,M,YBBN 241030Z 04009KT 9999 BKN027 22/17 Q1018
YBBN,2012-11-24 11:00,153.1292,-27.3917,71.60,60.80,68.75,30.00,10.00,0.00,30.06,M,6.21,M,BKN,M,M,M,2700.00,M,M,M,M,YBBN 241100Z 03010KT 9999 BKN027 22/16 Q1018 NOSIG
YBBN,2012-11-24 11:30,153.1292,-27.3917,71.60,62.60,73.27,50.00,10.00,0.00,30.06,M,6.21,M,BKN,M,M,M,2700.00,M,M,M,M,YBBN 241130Z 05010KT 9999 BKN027 22/17 Q1018
YBBN,2012-11-24 12:00,153.1292,-27.3917,73.40,62.60,68.94,40.00,10.00,0.00,30.06,M,6.21,M,BKN,M,M,M,2700.00,M,M,M,M,YBBN 241200Z 04010KT 9999 BKN027 23/17 Q1018 NOSIG
YBBN,2012-11-24 12:30,153.1292,-27.3917,73.40,62.60,68.94,40.00,10.00,0.00,30.06,M,6.21,M,BKN,BKN,M,M,2700.00,4000.00,M,M,M,YBBN 241230Z 04010KT 9999 BKN027 BKN040 23/17 Q1018
YBBN,2012-11-24 13:00,153.1292,-27.3917,73.40,60.80,64.69,40.00,9.00,0.00,30.09,M,6.21,M,SCT,BKN,M,M,2700.00,4000.00,M,M,M,YBBN 241300Z 04009KT 9999 SCT027 BKN040 23/16 Q1019 NOSIG
YBBN,2012-11-24 13:30,153.1292,-27.3917,71.60,60.80,68.75,50.00,8.00,0.00,30.06,M,6.21,M,FEW,SCT,BKN,M,2900.00,4000.00,9100.00,M,M,YBBN 241330Z 05008KT 9999 FEW029 SCT040 BKN091 22/16 Q1018
YBBN,2012-11-24 14:00,153.1292,-27.3917,71.60,60.80,68.75,50.00,10.00,0.00,30.06,M,6.21,M,FEW,SCT,M,M,3000.00,4300.00,M,M,M,YBBN 241400Z 05010KT 9999 FEW030 SCT043 22/16 Q1018 NOSIG
YBBN,2012-11-24 14:30,153.1292,-27.3917,71.60,62.60,73.27,50.00,10.00,0.00,30.06,M,6.21,M,FEW,M,M,M,3000.00,M,M,M,M,YBBN 241430Z 05010KT 9999 FEW030 22/17 Q1018
YBBN,2012-11-24 15:00,153.1292,-27.3917,71.60,60.80,68.75,40.00,9.00,0.00,30.06,M,6.21,M,FEW,M,M,M,2500.00,M,M,M,M,YBBN 241500Z 04009KT 9999 FEW025 22/16 Q1018 NOSIG
YBBN,2012-11-24 15:30,153.1292,-27.3917,71.60,60.80,68.75,40.00,9.00,0.00,30.06,M,6.21,M,FEW,M,M,M,2500.00,M,M,M,M,YBBN 241530Z 04009KT 9999 FEW025 22/16 Q1018
YBBN,2012-11-24 16:00,153.1292,-27.3917,71.60,60.80,68.75,50.00,8.00,0.00,30.03,M,6.21,M,FEW,M,M,M,2500.00,M,M,M,M,YBBN 241600Z 05008KT 9999 FEW025 22/16 Q1017
YBBN,2012-11-24 16:30,153.1292,-27.3917,71.60,60.80,68.75,50.00,8.00,0.00,30.03,M,6.21,M,FEW,M,M,M,2500.00,M,M,M,M,YBBN 241630Z 05008KT 9999 FEW025 22/16 Q1017
YBBN,2012-11-24 17:00,153.1292,-27.3917,68.00,60.80,77.75,40.00,9.00,0.00,30.03,M,6.21,M,FEW,M,M,M,2500.00,M,M,M,M,YBBN 241700Z 04009KT 9999 FEW025 20/16 Q1017
YBBN,2012-11-24 17:30,153.1292,-27.3917,69.80,60.80,73.09,30.00,9.00,0.00,30.03,M,6.21,M,FEW,M,M,M,2500.00,M,M,M,M,YBBN 241730Z 03009KT 9999 FEW025 21/16 Q1017
YBBN,2012-11-24 18:00,153.1292,-27.3917,69.80,60.80,73.09,30.00,9.00,0.00,30.03,M,6.21,M,FEW,M,M,M,2500.00,M,M,M,M,YBBN 241800Z 03009KT 9999 FEW025 21/16 Q1017
YBBN,2012-11-24 18:30,153.1292,-27.3917,69.80,60.80,73.09,40.00,7.00,0.00,30.03,M,6.21,M,FEW,M,M,M,2500.00,M,M,M,M,YBBN 241830Z 04007KT 9999 FEW025 21/16 Q1017
YBBN,2012-11-24 19:00,153.1292,-27.3917,69.80,60.80,73.09,40.00,7.00,0.00,30.06,M,6.21,M,FEW,M,M,M,2500.00,M,M,M,M,YBBN 241900Z 04007KT 9999 FEW025 21/16 Q1018
YBBN,2012-11-24 19:30,153.1292,-27.3917,71.60,60.80,68.75,40.00,7.00,0.00,30.06,M,6.21,M,FEW,M,M,M,2500.00,M,M,M,M,YBBN 241930Z 04007KT 9999 FEW025 22/16 Q1018
YBBN,2012-11-24 20:00,153.1292,-27.3917,73.40,60.80,64.69,40.00,7.00,0.00,30.06,M,6.21,M,FEW,M,M,M,2500.00,M,M,M,M,YBBN 242000Z 04007KT 9999 FEW025 23/16 Q1018
YBBN,2012-11-24 20:30,153.1292,-27.3917,73.40,62.60,68.94,30.00,7.00,0.00,30.06,M,6.21,M,FEW,M,M,M,2800.00,M,M,M,M,YBBN 242030Z 03007KT 9999 FEW028 23/17 Q1018
YBBN,2012-11-24 21:00,153.1292,-27.3917,75.20,62.60,64.91,40.00,9.00,0.00,30.09,M,6.21,M,FEW,M,M,M,2800.00,M,M,M,M,YBBN 242100Z 04009KT 9999 FEW028 24/17 Q1019
YBBN,2012-11-24 21:30,153.1292,-27.3917,75.20,62.60,64.91,30.00,9.00,0.00,30.09,M,6.21,M,FEW,M,M,M,2800.00,M,M,M,M,YBBN 242130Z 03009KT 9999 FEW028 24/17 Q1019
YBBN,2012-11-24 22:00,153.1292,-27.3917,75.20,60.80,60.90,10.00,8.00,0.00,30.09,M,6.21,M,SCT,M,M,M,2800.00,M,M,M,M,YBBN 242200Z 01008KT 9999 SCT028 24/16 Q1019
YBBN,2012-11-24 22:30,153.1292,-27.3917,77.00,60.80,57.36,10.00,9.00,0.00,30.09,M,6.21,M,SCT,M,M,M,3000.00,M,M,M,M,YBBN 242230Z 01009KT 9999 SCT030 25/16 Q1019
YBBN,2012-11-24 23:00,153.1292,-27.3917,77.00,60.80,57.36,20.00,10.00,0.00,30.09,M,6.21,M,FEW,SCT,M,M,3000.00,22000.00,M,M,M,YBBN 242300Z 02010KT 9999 FEW030 SCT220 25/16 Q1019
YBBN,2012-11-24 23:30,153.1292,-27.3917,77.00,59.00,53.80,20.00,8.00,0.00,30.09,M,6.21,M,FEW,SCT,M,M,3000.00,22000.00,M,M,M,YBBN 242330Z 02008KT 9999 FEW030 SCT220 25/15 Q1019
