#DEBUG: Format Typ    -> comma
#DEBUG: Time Period   -> 2012-01-24 00:00:00+00:00 2012-01-25 00:00:00+00:00
#DEBUG: Time Zone     -> Etc/UTC
#DEBUG: Data Contact   -> daryl herzmann akrherz@iastate.edu 515-294-5978
#DEBUG: Entries Found -> -1
station,valid,lon,lat,tmpf, dwpf, relh, drct, sknt, p01i, alti, mslp, vsby, gust, skyc1, skyc2, skyc3, skyc4, skyl1, skyl2, skyl3, skyl4, presentwx, metar
YBBN,2012-01-24 00:00,153.1292,-27.3917,71.60,69.80,94.06,110.00,6.00,0.00,29.88,M,0.93,M,FEW,SCT,BKN,   ,600.00,1400.00,2300.00,M,SHRA,YBBN 240000Z 11006KT 1500 SHRA FEW006 SCT014 BKN023 22/21 Q1012
YBBN,2012-01-24 00:22,153.1292,-27.3917,71.60,71.60,100.00,90.00,8.00,0.00,29.88,M,0.50,20.00,SCT,BKN,   ,   ,500.00,1500.00,M,M,SHRA,YBBN 240022Z 09008G20KT 0800 SHRA SCT005 BKN015 22/22 Q1012
YBBN,2012-01-24 00:30,153.1292,-27.3917,71.60,69.80,94.06,80.00,13.00,0.00,29.88,M,0.93,M,FEW,BKN,BKN,   ,500.00,900.00,1500.00,M,SHRA,YBBN 240030Z 08013KT 1500 0800S SHRA FEW005 BKN009 BKN015 22/21 Q1012
YBBN,2012-01-24 00:56,153.1292,-27.3917,71.60,69.80,94.06,90.00,9.00,0.00,29.88,M,2.49,M,FEW,SCT,BKN,   ,800.00,2500.00,3400.00,M,-RA,YBBN 240056Z 09009KT 4000 -RA FEW008 SCT025 BKN034 22/21 Q1012
YBBN,2012-01-24 01:00,153.1292,-27.3917,71.60,69.80,94.06,90.00,8.00,0.00,29.88,M,2.49,M,SCT,SCT,BKN,   ,800.00,2500.00,3400.00,M,-RA,YBBN 240100Z 09008KT 4000 -RA SCT008 SCT025 BKN034 22/21 Q1012
YBBN,2012-01-24 01:30,153.1292,-27.3917,71.60,69.80,94.06,90.00,8.00,0.00,29.85,M,3.73,M,FEW,BKN,BKN,   ,800.00,1100.00,3500.00,M,-RA,YBBN 240130Z 09008KT 6000 -RA FEW008 BKN011 BKN035 22/21 Q1011
YBBN,2012-01-24 02:00,153.1292,-27.3917,71.60,69.80,94.06,100.00,9.00,0.00,29.85,M,3.73,M,FEW,BKN,BKN,   ,1000.00,2400.00,3200.00,M,-RA,YBBN 240200Z 10009KT 6000 3000E -RA FEW010 BKN024 BKN032 22/21 Q1011
YBBN,2012-01-24 02:30,153.1292,-27.3917,71.60,69.80,94.06,100.00,12.00,0.00,29.85,M,1.86,M,FEW,BKN,BKN,   ,800.00,2400.00,3700.00,M,-RA,YBBN 240230Z 10012KT 3000 -RA FEW008 BKN024 BKN037 22/21 Q1011
YBBN,2012-01-24 02:53,153.1292,-27.3917,71.60,69.80,94.06,110.00,10.00,0.00,29.85,M,1.55,M,FEW,BKN,BKN,   ,800.00,2400.00,4000.00,M,RA,YBBN 240253Z 11010KT 2500 RA FEW008 BKN024 BKN040 22/21 Q1011
YBBN,2012-01-24 03:00,153.1292,-27.3917,71.60,69.80,94.06,110.00,11.00,0.00,29.85,M,0.93,M,FEW,SCT,BKN,   ,800.00,1700.00,4000.00,M,RA,YBBN 240300Z 11011KT 1500 RA FEW008 SCT017 BKN040 22/21 Q1011
YBBN,2012-01-24 03:16,153.1292,-27.3917,69.80,69.80,100.00,120.00,9.00,0.00,29.83,M,1.86,M,FEW,BKN,BKN,   ,1400.00,3400.00,5000.00,M,-RA,YBBN 240316Z 12009KT 3000 -RA FEW014 BKN034 BKN050 21/21 Q1010
YBBN,2012-01-24 03:30,153.1292,-27.3917,69.80,69.80,100.00,120.00,8.00,0.00,29.83,M,3.73,M,FEW,SCT,BKN,   ,800.00,3400.00,5500.00,M,-RA,YBBN 240330Z 12008KT 6000 3000N -RA FEW008 SCT034 BKN055 21/21 Q1010
YBBN,2012-01-24 04:00,153.1292,-27.3917,71.60,71.60,100.00,130.00,9.00,0.00,29.80,M,3.73,M,FEW,SCT,BKN,   ,1500.00,3800.00,6800.00,M,-RA,YBBN 240400Z 13009KT 6000 -RA FEW015 SCT038 BKN068 22/22 Q1009
YBBN,2012-01-24 04:30,153.1292,-27.3917,73.40,71.60,94.10,100.00,11.00,0.00,29.80,M,3.73,M,BKN,SCT,BKN,   ,800.00,3000.00,6000.00,M,-RA,YBBN 240430Z 10011KT 6000 -RA BKN008 SCT030 BKN060 23/22 Q1009
YBBN,2012-01-24 05:00,153.1292,-27.3917,71.60,69.80,94.06,120.00,11.00,0.00,29.80,M,2.49,M,SCT,SCT,BKN,   ,800.00,2500.00,5500.00,M,RA,YBBN 240500Z 12011KT 4000 RA SCT008 SCT025 BKN055 22/21 Q1009
YBBN,2012-01-24 05:30,153.1292,-27.3917,71.60,71.60,100.00,100.00,8.00,0.00,29.80,M,3.11,M,SCT,BKN,BKN,   ,1000.00,2300.00,4500.00,M,-RA,YBBN 240530Z 10008KT 5000 -RA SCT010 BKN023 BKN045 22/22 Q1009
YBBN,2012-01-24 06:00,153.1292,-27.3917,71.60,69.80,94.06,100.00,11.00,0.00,29.80,M,2.49,M,SCT,BKN,BKN,   ,1200.00,2500.00,3400.00,M,M,YBBN 240600Z 10011KT 4000 SCT012 BKN025 BKN034 22/21 Q1009
YBBN,2012-01-24 06:30,153.1292,-27.3917,71.60,69.80,94.06,100.00,7.00,0.00,29.80,M,2.49,M,SCT,BKN,BKN,   ,1200.00,2500.00,4500.00,M,-RA,YBBN 240630Z 10007KT 4000 -RA SCT012 BKN025 BKN045 22/21 Q1009
YBBN,2012-01-24 07:00,153.1292,-27.3917,71.60,71.60,100.00,110.00,5.00,0.00,29.80,M,2.49,M,SCT,BKN,BKN,   ,800.00,1100.00,3000.00,M,RA,YBBN 240700Z 11005KT 4000 RA SCT008 BKN011 BKN030 22/22 Q1009
YBBN,2012-01-24 07:11,153.1292,-27.3917,71.60,69.80,94.06,80.00,8.00,0.00,29.83,M,1.55,M,FEW,BKN,BKN,   ,500.00,800.00,3000.00,M,RA,YBBN 240711Z 08008KT 2500 RA FEW005 BKN008 BKN030 22/21 Q1010
YBBN,2012-01-24 07:16,153.1292,-27.3917,71.60,69.80,94.06,80.00,8.00,0.00,29.83,M,0.93,M,FEW,BKN,BKN,   ,500.00,800.00,3000.00,M,RA,YBBN 240716Z 08008KT 1500 1400S RA FEW005 BKN008 BKN030 22/21 Q1010
YBBN,2012-01-24 07:30,153.1292,-27.3917,71.60,69.80,94.06,80.00,7.00,0.00,29.80,M,2.49,M,FEW,SCT,OVC,   ,500.00,1500.00,4000.00,M,-RA,YBBN 240730Z 08007KT 4000 -RA FEW005 SCT015 OVC040 22/21 Q1009
YBBN,2012-01-24 08:00,153.1292,-27.3917,71.60,71.60,100.00,70.00,12.00,0.00,29.83,M,1.86,M,FEW,BKN,OVC,   ,800.00,1500.00,4300.00,M,RA,YBBN 240800Z 07012KT 3000 RA FEW008 BKN015 OVC043 22/22 Q1010
YBBN,2012-01-24 08:30,153.1292,-27.3917,71.60,69.80,94.06,70.00,18.00,0.00,29.83,M,1.86,M,FEW,SCT,OVC,   ,700.00,1500.00,4000.00,M,RA,YBBN 240830Z 07018KT 3000 RA FEW007 SCT015 OVC040 22/21 Q1010 RERA
YBBN,2012-01-24 09:00,153.1292,-27.3917,71.60,71.60,100.00,80.00,12.00,0.00,29.83,M,2.49,M,SCT,SCT,OVC,   ,700.00,1500.00,3500.00,M,-RA,YBBN 240900Z 08012KT 4000 -RA SCT007 SCT015 OVC035 22/22 Q1010 RERA
YBBN,2012-01-24 09:30,153.1292,-27.3917,71.60,69.80,94.06,80.00,8.00,0.00,29.83,M,3.11,M,FEW,SCT,BKN,   ,800.00,1500.00,4500.00,M,-RA,YBBN 240930Z 08008KT 5000 -RA FEW008 SCT015 BKN045 22/21 Q1010
YBBN,2012-01-24 09:53,153.1292,-27.3917,73.40,71.60,94.10,90.00,11.00,0.00,29.83,M,1.55,M,SCT,BKN,OVC,   ,800.00,1500.00,3000.00,M,+RA,YBBN 240953Z 09011KT 2500 +RA SCT008 BKN015 OVC030 23/22 Q1010
YBBN,2012-01-24 10:00,153.1292,-27.3917,71.60,71.60,100.00,70.00,14.00,0.00,29.83,M,0.75,M,SCT,OVC,   ,   ,500.00,3000.00,M,M,+RA,YBBN 241000Z 07014KT 1200 1200N +RA SCT005 OVC030 22/22 Q1010 RERA
YBBN,2012-01-24 10:30,153.1292,-27.3917,71.60,71.60,100.00,80.00,13.00,0.00,29.83,M,1.24,M,FEW,SCT,BKN,   ,500.00,1500.00,3000.00,M,RA,YBBN 241030Z 08013KT 2000 RA FEW005 SCT015 BKN030 22/22 Q1010 RERA
YBBN,2012-01-24 10:41,153.1292,-27.3917,71.60,69.80,94.06,80.00,14.00,0.00,29.83,M,2.17,M,SCT,BKN,OVC,   ,500.00,1500.00,7000.00,M,-RA,YBBN 241041Z 08014KT 3500 -RA SCT005 BKN015 OVC070 22/21 Q1010 RERA
YBBN,2012-01-24 11:00,153.1292,-27.3917,73.40,71.60,94.10,80.00,14.00,0.00,29.83,M,2.49,24.00,FEW,SCT,OVC,   ,700.00,1500.00,7000.00,M,-RA,YBBN 241100Z 08014G24KT 4000 -RA FEW007 SCT015 OVC070 23/22 Q1010
YBBN,2012-01-24 11:30,153.1292,-27.3917,71.60,71.60,100.00,80.00,12.00,0.00,29.83,M,3.11,M,SCT,SCT,OVC,   ,600.00,1500.00,6000.00,M,RA,YBBN 241130Z 08012KT 5000 RA SCT006 SCT015 OVC060 22/22 Q1010
YBBN,2012-01-24 12:00,153.1292,-27.3917,71.60,71.60,100.00,80.00,10.00,0.00,29.85,M,0.93,M,SCT,SCT,OVC,   ,500.00,1500.00,5000.00,M,+RA,YBBN 241200Z 08010KT 1500 +RA SCT005 SCT015 OVC050 22/22 Q1011
YBBN,2012-01-24 12:29,153.1292,-27.3917,71.60,69.80,94.06,60.00,15.00,0.00,29.83,M,3.11,25.00,BKN,BKN,OVC,   ,700.00,1500.00,5500.00,M,-RA,YBBN 241229Z 06015G25KT 5000 -RA BKN007 BKN015 OVC055 22/21 Q1010 RERA
YBBN,2012-01-24 12:45,153.1292,-27.3917,73.40,71.60,94.10,60.00,9.00,0.00,29.83,M,3.11,M,SCT,BKN,OVC,   ,700.00,3900.00,5900.00,M,//,YBBN 241245Z AUTO 06009KT 5000 // SCT007 BKN039 OVC059 23/22 Q1010
YBBN,2012-01-24 13:00,153.1292,-27.3917,73.40,71.60,94.10,80.00,6.00,0.00,29.83,M,3.73,M,SCT,SCT,OVC,   ,500.00,2200.00,4500.00,M,-RA,YBBN 241300Z 08006KT 6000 -RA SCT005 SCT022 OVC045 23/22 Q1010
YBBN,2012-01-24 13:11,153.1292,-27.3917,73.40,71.60,94.10,70.00,7.00,0.00,29.83,M,1.24,M,SCT,SCT,OVC,   ,500.00,1700.00,4500.00,M,RA,YBBN 241311Z 07007KT 2000 RA SCT005 SCT017 OVC045 23/22 Q1010
YBBN,2012-01-24 13:15,153.1292,-27.3917,73.40,71.60,94.10,70.00,10.00,0.00,29.83,M,0.56,M,SCT,BKN,OVC,   ,500.00,1100.00,2500.00,M,+SHRA,YBBN 241315Z 07010KT 0900 0900N +SHRA SCT005 BKN011 OVC025 23/22 Q1010 RERA
YBBN,2012-01-24 13:30,153.1292,-27.3917,71.60,71.60,100.00,70.00,11.00,0.00,29.80,M,1.55,M,SCT,SCT,OVC,   ,600.00,1400.00,3500.00,M,SHRA VCSH,YBBN 241330Z 07011KT 2500 SHRA VCSH SCT006 SCT014 OVC035 22/22 Q1009 RESHRA
YBBN,2012-01-24 14:00,153.1292,-27.3917,71.60,71.60,100.00,70.00,13.00,0.00,29.80,M,1.55,M,SCT,SCT,BKN,   ,800.00,1700.00,4000.00,M,SHRA,YBBN 241400Z 07013KT 2500 SHRA SCT008 SCT017 BKN040 22/22 Q1009
YBBN,2012-01-24 14:14,153.1292,-27.3917,71.60,71.60,100.00,70.00,11.00,0.00,29.80,M,4.97,M,SCT,SCT,OVC,   ,500.00,1800.00,7000.00,M,-SHRA VCSH,YBBN 241414Z 07011KT 8000 4000SW -SHRA VCSH SCT005 SCT018 OVC070 22/22 Q1009 RESHRA
YBBN,2012-01-24 14:30,153.1292,-27.3917,71.60,69.80,94.06,80.00,9.00,0.00,29.80,M,3.73,M,FEW,SCT,BKN,   ,500.00,1800.00,7000.00,M,-SHRA VCSH,YBBN 241430Z 08009KT 6000 -SHRA VCSH FEW005 SCT018 BKN070 22/21 Q1009
YBBN,2012-01-24 15:00,153.1292,-27.3917,73.40,71.60,94.10,90.00,6.00,0.00,29.80,M,5.59,M,FEW,SCT,BKN,   ,800.00,2000.00,4500.00,M,-RA VCSH,YBBN 241500Z 09006KT 9000 -RA VCSH FEW008 SCT020 BKN045 23/22 Q1009 RMK SHRA TO EAST
YBBN,2012-01-24 15:09,153.1292,-27.3917,73.40,71.60,94.10,90.00,6.00,0.00,29.80,M,4.97,M,FEW,BKN,BKN,   ,600.00,2200.00,4500.00,M,SHRA VCSH,YBBN 241509Z 09006KT 8000 4000NE SHRA VCSH FEW006 BKN022 BKN045 23/22 Q1009
YBBN,2012-01-24 15:16,153.1292,-27.3917,71.60,69.80,94.06,90.00,8.00,0.00,29.80,M,1.24,M,FEW,BKN,BKN,   ,600.00,1900.00,3000.00,M,SHRA VCSH,YBBN 241516Z 09008KT 2000 SHRA VCSH FEW006 BKN019 BKN030 22/21 Q1009 RESHRA
YBBN,2012-01-24 15:30,153.1292,-27.3917,71.60,69.80,94.06,50.00,13.00,0.00,29.77,M,1.55,M,FEW,SCT,BKN,   ,800.00,1900.00,3000.00,M,RA,YBBN 241530Z 05013KT 2500 RA FEW008 SCT019 BKN030 22/21 Q1008 RESHRA
YBBN,2012-01-24 16:00,153.1292,-27.3917,71.60,69.80,94.06,50.00,10.00,0.00,29.77,M,1.55,M,FEW,SCT,OVC,   ,500.00,2000.00,3000.00,M,RA,YBBN 241600Z 05010KT 2500 RA FEW005 SCT020 OVC030 22/21 Q1008 RERA
YBBN,2012-01-24 16:07,153.1292,-27.3917,71.60,69.80,94.06,50.00,8.00,0.00,29.77,M,1.55,M,SCT,BKN,OVC,   ,500.00,1200.00,2500.00,M,RA,YBBN 241607Z 05008KT 2500 RA SCT005 BKN012 OVC025 22/21 Q1008 RERA
YBBN,2012-01-24 16:30,153.1292,-27.3917,71.60,71.60,100.00,60.00,5.00,0.00,29.77,M,1.86,M,SCT,BKN,OVC,   ,500.00,1200.00,2500.00,M,-RA,YBBN 241630Z 06005KT 3000 -RA SCT005 BKN012 OVC025 22/22 Q1008 RERA
YBBN,2012-01-24 17:00,153.1292,-27.3917,71.60,71.60,100.00,90.00,1.00,0.00,29.74,M,2.49,M,FEW,SCT,OVC,   ,600.00,1500.00,4500.00,M,RA,YBBN 241700Z 09001KT 4000 RA FEW006 SCT015 OVC045 22/22 Q1007
YBBN,2012-01-24 17:30,153.1292,-27.3917,71.60,71.60,100.00,200.00,4.00,0.00,29.74,M,2.17,M,SCT,SCT,OVC,   ,400.00,1200.00,3500.00,M,RA,YBBN 241730Z 20004KT 3500 RA SCT004 SCT012 OVC035 22/22 Q1007
YBBN,2012-01-24 17:42,153.1292,-27.3917,71.60,71.60,100.00,10.00,3.00,0.00,29.74,M,1.86,M,FEW,BKN,OVC,   ,200.00,1500.00,3000.00,M,-RA,YBBN 241742Z 01003KT 3000 -RA FEW002 BKN015 OVC030 22/22 Q1007 RERA
YBBN,2012-01-24 18:00,153.1292,-27.3917,71.60,71.60,100.00,80.00,4.00,0.00,29.74,M,1.55,M,SCT,BKN,OVC,   ,300.00,1000.00,1700.00,M,RA,YBBN 241800Z 08004KT 2500 RA SCT003 BKN010 OVC017 22/22 Q1007
YBBN,2012-01-24 18:30,153.1292,-27.3917,71.60,71.60,100.00,50.00,13.00,0.00,29.74,M,0.93,M,SCT,BKN,OVC,   ,400.00,1000.00,2500.00,M,RA,YBBN 241830Z 05013KT 1500 RA SCT004 BKN010 OVC025 22/22 Q1007 RERA
YBBN,2012-01-24 18:50,153.1292,-27.3917,71.60,71.60,100.00,70.00,8.00,0.00,29.74,M,0.43,M,SCT,BKN,OVC,   ,300.00,1000.00,3000.00,M,+RA,YBBN 241850Z 07008KT 0700 0700N +RA SCT003 BKN010 OVC030 22/22 Q1007 RERA
YBBN,2012-01-24 19:00,153.1292,-27.3917,71.60,71.60,100.00,10.00,5.00,0.00,29.74,M,0.62,M,BKN,BKN,OVC,   ,300.00,1000.00,1500.00,M,+RA,YBBN 241900Z 01005KT 1000 1000N +RA BKN003 BKN010 OVC015 22/22 Q1007 RERA
YBBN,2012-01-24 19:22,153.1292,-27.3917,71.60,71.60,100.00,70.00,7.00,0.00,29.74,M,1.24,M,SCT,BKN,OVC,   ,400.00,1200.00,2000.00,M,RA,YBBN 241922Z 07007KT 2000 1500SW RA SCT004 BKN012 OVC020 22/22 Q1007 RERA
YBBN,2012-01-24 19:30,153.1292,-27.3917,73.40,71.60,94.10,70.00,6.00,0.00,29.74,M,1.86,M,SCT,SCT,OVC,   ,600.00,1500.00,5000.00,M,-RA,YBBN 241930Z 07006KT 3000 2000SW -RA SCT006 SCT015 OVC050 23/22 Q1007
YBBN,2012-01-24 19:48,153.1292,-27.3917,73.40,71.60,94.10,60.00,6.00,0.00,29.74,M,0.62,M,SCT,BKN,OVC,   ,700.00,2200.00,4000.00,M,RA,YBBN 241948Z 06006KT 1000 1000N RA SCT007 BKN022 OVC040 23/22 Q1007
YBBN,2012-01-24 19:52,153.1292,-27.3917,73.40,71.60,94.10,330.00,10.00,0.00,29.74,M,0.62,M,SCT,BKN,OVC,   ,300.00,1400.00,4000.00,M,RA,YBBN 241952Z 33010KT 1000 0500S RA SCT003 BKN014 OVC040 23/22 Q1007 RERA
YBBN,2012-01-24 20:00,153.1292,-27.3917,71.60,71.60,100.00,330.00,6.00,0.00,29.77,M,1.86,M,SCT,BKN,OVC,   ,400.00,1600.00,4500.00,M,-RA,YBBN 242000Z 33006KT 3000 1500S -RA SCT004 BKN016 OVC045 22/22 Q1008 RERA
YBBN,2012-01-24 20:30,153.1292,-27.3917,71.60,71.60,100.00,250.00,6.00,0.00,29.77,M,5.59,M,FEW,BKN,BKN,   ,500.00,1000.00,1600.00,M,-RA,YBBN 242030Z 25006KT 9000 -RA FEW005 BKN010 BKN016 22/22 Q1008
YBBN,2012-01-24 20:49,153.1292,-27.3917,71.60,71.60,100.00,220.00,5.00,0.00,29.77,M,3.11,M,FEW,SCT,BKN,   ,500.00,1300.00,1800.00,M,-RA,YBBN 242049Z 22005KT 5000 -RA FEW005 SCT013 BKN018 22/22 Q1008
YBBN,2012-01-24 21:00,153.1292,-27.3917,71.60,71.60,100.00,220.00,6.00,0.00,29.77,M,3.11,M,FEW,BKN,BKN,   ,500.00,1300.00,2600.00,M,-RA,YBBN 242100Z 22006KT 5000 -RA FEW005 BKN013 BKN026 22/22 Q1008
YBBN,2012-01-24 21:30,153.1292,-27.3917,71.60,71.60,100.00,200.00,5.00,0.00,29.77,M,1.55,M,FEW,SCT,OVC,   ,500.00,1500.00,4000.00,M,-RA,YBBN 242130Z 20005KT 2500 -RA FEW005 SCT015 OVC040 22/22 Q1008
YBBN,2012-01-24 22:00,153.1292,-27.3917,71.60,71.60,100.00,170.00,4.00,0.00,29.77,M,2.49,M,FEW,SCT,BKN,   ,500.00,1300.00,3100.00,M,-RA,YBBN 242200Z 17004KT 4000 -RA FEW005 SCT013 BKN031 22/22 Q1008
YBBN,2012-01-24 22:15,153.1292,-27.3917,73.40,71.60,94.10,190.00,1.00,0.00,29.77,M,4.97,M,FEW,BKN,BKN,   ,200.00,1100.00,3300.00,M,-RA,YBBN 242215Z 19001KT 8000 -RA FEW002 BKN011 BKN033 23/22 Q1008
YBBN,2012-01-24 22:30,153.1292,-27.3917,73.40,71.60,94.10,220.00,5.00,0.00,29.77,M,2.49,M,FEW,SCT,BKN,   ,300.00,1100.00,1600.00,M,-RA,YBBN 242230Z 22005KT 4000 -RA FEW003 SCT011 BKN016 23/22 Q1008
YBBN,2012-01-24 23:00,153.1292,-27.3917,73.40,71.60,94.10,210.00,3.00,0.00,29.77,M,5.59,M,FEW,OVC,   ,   ,200.00,2400.00,M,M,-RA,YBBN 242300Z 21003KT 9000 -RA FEW002 OVC024 23/22 Q1008
YBBN,2012-01-24 23:30,153.1292,-27.3917,75.20,73.40,94.14,150.00,2.00,0.00,29.77,M,4.97,M,FEW,BKN,BKN,   ,300.00,1100.00,2400.00,M,-RA,YBBN 242330Z 15002KT 8000 -RA FEW003 BKN011 BKN024 24/23 Q1008
