#DEBUG: Format Typ    -> comma
#DEBUG: Time Period   -> 2014-12-03 00:00:00+00:00 2014-12-04 00:00:00+00:00
#DEBUG: Time Zone     -> Etc/UTC
#DEBUG: Data Contact   -> daryl herzmann akrherz@iastate.edu 515-294-5978
#DEBUG: Entries Found -> -1
station,valid,lon,lat,tmpf, dwpf, relh, drct, sknt, p01i, alti, mslp, vsby, gust, skyc1, skyc2, skyc3, skyc4, skyl1, skyl2, skyl3, skyl4, presentwx, metar
YBBN,2014-12-03 00:00,153.1292,-27.3917,80.60,66.20,61.58,10.00,8.00,0.00,30.03,M,6.21,M,SCT,M,M,M,3000.00,M,M,M,M,YBBN 030000Z 01008KT 9999 SCT030 27/19 Q1017 NOSIG
YBBN,2014-12-03 00:30,153.1292,-27.3917,80.60,68.00,65.54,10.00,8.00,0.00,30.03,M,6.21,M,SCT,M,M,M,3200.00,M,M,M,M,YBBN 030030Z 01008KT 9999 SCT032 27/20 Q1017
YBBN,2014-12-03 01:00,153.1292,-27.3917,80.60,66.20,61.58,40.00,8.00,0.00,30.03,M,6.21,M,SCT,M,M,M,2800.00,M,M,M,M,YBBN 030100Z 04008KT 9999 SCT028 27/19 Q1017 NOSIG
YBBN,2014-12-03 01:30,153.1292,-27.3917,82.40,66.20,58.08,20.00,8.00,0.00,30.00,M,6.21,M,SCT,M,M,M,3000.00,M,M,M,M,YBBN 030130Z 02008KT 9999 SCT030 28/19 Q1016
YBBN,2014-12-03 02:00,153.1292,-27.3917,82.40,66.20,58.08,50.00,11.00,0.00,30.00,M,6.21,M,SCT,M,M,M,3000.00,M,M,M,M,YBBN 030200Z 05011KT 9999 SCT030 28/19 Q1016 NOSIG
YBBN,2014-12-03 02:30,153.1292,-27.3917,82.40,66.20,58.08,30.00,12.00,0.00,30.00,M,6.21,M,SCT,M,M,M,3000.00,M,M,M,M,YBBN 030230Z 03012KT 9999 SCT030 28/19 Q1016
YBBN,2014-12-03 03:00,153.1292,-27.3917,82.40,68.00,61.81,30.00,12.00,0.00,29.97,M,6.21,M,SCT,M,M,M,3000.00,M,M,M,M,YBBN 030300Z 03012KT 9999 SCT030 28/20 Q1015 NOSIG
YBBN,2014-12-03 03:30,153.1292,-27.3917,84.20,68.00,58.32,30.00,12.00,0.00,29.97,M,6.21,M,SCT,M,M,M,3200.00,M,M,M,M,YBBN 030330Z 03012KT 9999 SCT032 29/20 Q1015
YBBN,2014-12-03 04:00,153.1292,-27.3917,80.60,69.80,69.71,40.00,12.00,0.00,29.97,M,6.21,M,SCT,M,M,M,3200.00,M,M,M,M,YBBN 030400Z 04012KT 9999 SCT032 27/21 Q1015 NOSIG
YBBN,2014-12-03 04:30,153.1292,-27.3917,80.60,68.00,65.54,10.00,16.00,0.00,29.97,M,6.21,M,SCT,M,M,M,3200.00,M,M,M,M,YBBN 030430Z 01016KT 9999 SCT032 27/20 Q1015
YBBN,2014-12-03 05:00,153.1292,-27.3917,80.60,71.60,74.11,30.00,17.00,0.00,29.94,M,6.21,M,SCT,M,M,M,3200.00,M,M,M,M,YBBN 030500Z 03017KT 9999 SCT032 27/22 Q1014 NOSIG
YBBN,2014-12-03 05:30,153.1292,-27.3917,80.60,69.80,69.71,20.00,16.00,0.00,29.94,M,6.21,M,SCT,M,M,M,3000.00,M,M,M,M,YBBN 030530Z 02016KT 9999 SCT030 27/21 Q1014
YBBN,2014-12-03 06:00,153.1292,-27.3917,80.60,69.80,69.71,20.00,15.00,0.00,29.94,M,6.21,M,SCT,SCT,M,M,3000.00,30000.00,M,M,M,YBBN 030600Z 02015KT 9999 SCT030 SCT300 27/21 Q1014 NOSIG
YBBN,2014-12-03 06:30,153.1292,-27.3917,78.80,69.80,73.95,20.00,15.00,0.00,29.94,M,6.21,M,FEW,BKN,M,M,1900.00,30000.00,M,M,M,YBBN 030630Z 02015KT 9999 FEW019 BKN300 26/21 Q1014
YBBN,2014-12-03 07:00,153.1292,-27.3917,78.80,69.80,73.95,10.00,17.00,0.00,29.94,M,6.21,M,FEW,BKN,M,M,1700.00,30000.00,M,M,M,YBBN 030700Z 01017KT 9999 FEW017 BKN300 26/21 Q1014 NOSIG
YBBN,2014-12-03 07:30,153.1292,-27.3917,78.80,68.00,69.52,10.00,17.00,0.00,29.97,M,6.21,M,FEW,SCT,BKN,M,1700.00,2000.00,30000.00,M,M,YBBN 030730Z 01017KT 9999 FEW017 SCT020 BKN300 26/20 Q1015
YBBN,2014-12-03 08:00,153.1292,-27.3917,77.00,68.00,73.78,10.00,16.00,0.00,29.97,M,6.21,M,FEW,SCT,BKN,M,1700.00,2000.00,30000.00,M,M,YBBN 030800Z 01016KT 9999 FEW017 SCT020 BKN300 25/20 Q1015 NOSIG
YBBN,2014-12-03 08:30,153.1292,-27.3917,77.00,69.80,78.48,20.00,16.00,0.00,29.97,M,6.21,M,SCT,SCT,BKN,M,1500.00,2000.00,30000.00,M,M,YBBN 030830Z 02016KT 9999 SCT015 SCT020 BKN300 25/21 Q1015
YBBN,2014-12-03 09:00,153.1292,-27.3917,77.00,69.80,78.48,10.00,15.00,0.00,29.97,M,6.21,M,FEW,SCT,BKN,M,1600.00,2000.00,30000.00,M,M,YBBN 030900Z 01015KT 9999 FEW016 SCT020 BKN300 25/21 Q1015 NOSIG
YBBN,2014-12-03 09:30,153.1292,-27.3917,77.00,69.80,78.48,10.00,15.00,0.00,30.00,M,6.21,M,FEW,SCT,BKN,M,1600.00,4000.00,30000.00,M,M,YBBN 030930Z 01015KT 9999 FEW016 SCT040 BKN300 25/21 Q1016
YBBN,2014-12-03 10:00,153.1292,-27.3917,77.00,68.00,73.78,10.00,15.00,0.00,30.00,M,6.21,M,FEW,SCT,BKN,M,1700.00,2200.00,30000.00,M,M,YBBN 031000Z 01015KT 9999 FEW017 SCT022 BKN300 25/20 Q1016 NOSIG
YBBN,2014-12-03 10:30,153.1292,-27.3917,77.00,68.00,73.78,360.00,16.00,0.00,30.00,M,6.21,M,FEW,SCT,BKN,M,1600.00,2000.00,4300.00,M,M,YBBN 031030Z 36016KT 9999 FEW016 SCT020 BKN043 25/20 Q1016
YBBN,2014-12-03 11:00,153.1292,-27.3917,77.00,68.00,73.78,10.00,15.00,0.00,30.00,M,6.21,M,FEW,SCT,M,M,1700.00,2200.00,M,M,-SHRA,YBBN 031100Z 01015KT 9999 -SHRA FEW017 SCT022 25/20 Q1016 NOSIG
YBBN,2014-12-03 11:30,153.1292,-27.3917,77.00,68.00,73.78,360.00,14.00,0.00,30.00,M,6.21,M,SCT,SCT,M,M,2200.00,4200.00,M,M,VCSH,YBBN 031130Z 36014KT 9999 VCSH SCT022 SCT042 25/20 Q1016
YBBN,2014-12-03 12:00,153.1292,-27.3917,77.00,68.00,73.78,360.00,15.00,0.00,30.00,M,6.21,M,SCT,SCT,M,M,2000.00,4300.00,M,M,VCSH,YBBN 031200Z 36015KT 9999 VCSH SCT020 SCT043 25/20 Q1016 NOSIG
YBBN,2014-12-03 12:30,153.1292,-27.3917,77.00,68.00,73.78,360.00,14.00,0.00,30.00,M,6.21,M,FEW,SCT,BKN,M,1800.00,2200.00,3500.00,M,M,YBBN 031230Z 36014KT 9999 FEW018 SCT022 BKN035 25/20 Q1016
YBBN,2014-12-03 13:00,153.1292,-27.3917,75.20,68.00,78.34,360.00,13.00,0.00,30.00,M,6.21,M,FEW,SCT,M,M,1700.00,2000.00,M,M,M,YBBN 031300Z 36013KT 9999 FEW017 SCT020 24/20 Q1016 NOSIG
YBBN,2014-12-03 13:30,153.1292,-27.3917,75.20,68.00,78.34,360.00,13.00,0.00,30.00,M,6.21,M,FEW,SCT,M,M,1700.00,2000.00,M,M,M,YBBN 031330Z 36013KT 9999 FEW017 SCT020 24/20 Q1016
YBBN,2014-12-03 14:00,153.1292,-27.3917,75.20,68.00,78.34,360.00,13.00,0.00,29.97,M,6.21,M,FEW,SCT,M,M,1800.00,2100.00,M,M,M,YBBN 031400Z 36013KT 9999 FEW018 SCT021 24/20 Q1015
YBBN,2014-12-03 14:30,153.1292,-27.3917,75.20,68.00,78.34,360.00,11.00,0.00,29.97,M,6.21,M,FEW,SCT,M,M,1800.00,2200.00,M,M,M,YBBN 031430Z 36011KT 9999 FEW018 SCT022 24/20 Q1015
YBBN,2014-12-03 15:00,153.1292,-27.3917,75.20,68.00,78.34,360.00,11.00,0.00,29.97,M,6.21,M,FEW,SCT,M,M,2200.00,4500.00,M,M,M,YBBN 031500Z 36011KT 9999 FEW022 SCT045 24/20 Q1015 NOSIG
YBBN,2014-12-03 15:30,153.1292,-27.3917,75.20,68.00,78.34,360.00,12.00,0.00,29.97,M,6.21,M,FEW,SCT,M,M,1800.00,2200.00,M,M,M,YBBN 031530Z 36012KT 9999 FEW018 SCT022 24/20 Q1015
YBBN,2014-12-03 16:00,153.1292,-27.3917,75.20,68.00,78.34,350.00,9.00,0.00,29.97,M,6.21,M,FEW,SCT,M,M,1700.00,2200.00,M,M,M,YBBN 031600Z 35009KT 9999 FEW017 SCT022 24/20 Q1015 INTER 1800/1900 4000 SHRA BKN013
YBBN,2014-12-03 16:30,153.1292,-27.3917,73.40,68.00,83.21,330.00,8.00,0.00,29.97,M,6.21,M,FEW,SCT,M,M,1600.00,2000.00,M,M,VCSH,YBBN 031630Z 33008KT 9999 VCSH FEW016 SCT020 23/20 Q1015
YBBN,2014-12-03 17:00,153.1292,-27.3917,73.40,68.00,83.21,350.00,9.00,0.00,29.94,M,6.21,M,FEW,BKN,M,M,1600.00,4300.00,M,M,VCSH,YBBN 031700Z 35009KT 9999 VCSH FEW016 BKN043 23/20 Q1014
YBBN,2014-12-03 17:30,153.1292,-27.3917,73.40,68.00,83.21,300.00,7.00,0.00,29.97,M,6.21,M,FEW,SCT,M,M,2200.00,5300.00,M,M,VCSH,YBBN 031730Z 30007KT 9999 VCSH FEW022 SCT053 23/20 Q1015
YBBN,2014-12-03 18:00,153.1292,-27.3917,71.60,68.00,88.43,300.00,7.00,0.00,29.97,M,6.21,M,FEW,SCT,M,M,2200.00,5500.00,M,M,VCSH,YBBN 031800Z 30007KT 9999 VCSH FEW022 SCT055 22/20 Q1015 INTER 1800/2100 4000 SHRA BKN013
YBBN,2014-12-03 18:30,153.1292,-27.3917,71.60,68.00,88.43,300.00,7.00,0.00,29.97,M,6.21,M,FEW,SCT,BKN,M,1600.00,2200.00,5000.00,M,VCSH,YBBN 031830Z 30007KT 9999 VCSH FEW016 SCT022 BKN050 22/20 Q1015
YBBN,2014-12-03 19:00,153.1292,-27.3917,73.40,68.00,83.21,290.00,6.00,0.00,30.00,M,6.21,M,SCT,BKN,M,M,2000.00,5700.00,M,M,VCSH,YBBN 031900Z 29006KT 9999 VCSH SCT020 BKN057 23/20 Q1016 INTER 1900/2200 4000 SHRA BKN013
YBBN,2014-12-03 19:30,153.1292,-27.3917,73.40,68.00,83.21,310.00,5.00,0.00,30.00,M,6.21,M,FEW,BKN,M,M,2000.00,5900.00,M,M,VCSH,YBBN 031930Z 31005KT 9999 VCSH FEW020 BKN059 23/20 Q1016
YBBN,2014-12-03 20:00,153.1292,-27.3917,73.40,69.80,88.51,340.00,8.00,0.00,30.00,M,6.21,M,SCT,BKN,M,M,2200.00,6100.00,M,M,VCSH,YBBN 032000Z 34008KT 9999 VCSH SCT022 BKN061 23/21 Q1016 INTER 2000/2300 4000 SHRA BKN013
YBBN,2014-12-03 20:30,153.1292,-27.3917,75.20,68.00,78.34,340.00,10.00,0.00,30.00,M,6.21,M,FEW,SCT,BKN,M,1800.00,2200.00,6000.00,M,M,YBBN 032030Z 34010KT 9999 FEW018 SCT022 BKN060 24/20 Q1016
YBBN,2014-12-03 21:00,153.1292,-27.3917,75.20,68.00,78.34,350.00,9.00,0.00,30.00,M,6.21,M,FEW,BKN,M,M,2200.00,6000.00,M,M,M,YBBN 032100Z 35009KT 9999 FEW022 BKN060 24/20 Q1016 NOSIG
YBBN,2014-12-03 21:30,153.1292,-27.3917,78.80,69.80,73.95,350.00,11.00,0.00,30.00,M,6.21,M,FEW,SCT,BKN,M,1500.00,2200.00,35000.00,M,M,YBBN 032130Z 35011KT 9999 FEW015 SCT022 BKN350 26/21 Q1016
YBBN,2014-12-03 22:00,153.1292,-27.3917,78.80,68.00,69.52,350.00,13.00,0.00,30.03,M,6.21,M,FEW,SCT,BKN,M,1500.00,2200.00,35000.00,M,M,YBBN 032200Z 35013KT 9999 FEW015 SCT022 BKN350 26/20 Q1017 NOSIG
YBBN,2014-12-03 22:30,153.1292,-27.3917,80.60,68.00,65.54,360.00,12.00,0.00,30.03,M,6.21,M,SCT,BKN,M,M,2400.00,35000.00,M,M,M,YBBN 032230Z 36012KT 9999 SCT024 BKN350 27/20 Q1017
YBBN,2014-12-03 23:00,153.1292,-27.3917,80.60,68.00,65.54,360.00,12.00,0.00,30.03,M,6.21,M,FEW,SCT,BKN,M,1800.00,2400.00,35000.00,M,M,YBBN 032300Z 36012KT 9999 FEW018 SCT024 BKN350 27/20 Q1017 NOSIG
YBBN,2014-12-03 23:30,153.1292,-27.3917,80.60,68.00,65.54,10.00,13.00,0.00,30.00,M,6.21,M,FEW,SCT,BKN,M,1500.00,2400.00,35000.00,M,M,YBBN 032330Z 01013KT 9999 FEW015 SCT024 BKN350 27/20 Q1016
