#DEBUG: Format Typ    -> comma
#DEBUG: Time Period   -> 2010-02-25 00:00:00+00:00 2010-02-26 00:00:00+00:00
#DEBUG: Time Zone     -> Etc/UTC
#DEBUG: Data Contact   -> daryl herzmann akrherz@iastate.edu 515-294-5978
#DEBUG: Entries Found -> -1
station,valid,lon,lat,tmpf, dwpf, relh, drct, sknt, p01i, alti, mslp, vsby, gust, skyc1, skyc2, skyc3, skyc4, skyl1, skyl2, skyl3, skyl4, presentwx, metar
YBBN,2010-02-25 00:00,153.1292,-27.3917,80.60,68.00,65.54,140.00,9.00,M,30.15,M,6.21,M,FEW,SCT,BKN,M,1500.00,2600.00,5600.00,M,M,YBBN 250000Z 14009KT 9999 FEW015 SCT026 BKN056 27/20 Q1021 NOSIG
YBBN,2010-02-25 00:30,153.1292,-27.3917,80.60,68.00,65.54,140.00,11.00,M,30.15,M,6.21,M,FEW,SCT,BKN,M,1500.00,2800.00,30000.00,M,M,YBBN 250030Z 14011KT 9999 FEW015 SCT028 BKN300 27/20 Q1021 NOSIG
YBBN,2010-02-25 01:00,153.1292,-27.3917,84.20,68.00,58.32,130.00,13.00,M,30.12,M,6.21,M,FEW,SCT,BKN,M,1500.00,3000.00,30000.00,M,VCSH,YBBN 250100Z 13013KT 9999 VCSH FEW015 SCT030 BKN300 29/20 Q1020 NOSIG
YBBN,2010-02-25 01:30,153.1292,-27.3917,80.60,68.00,65.54,130.00,13.00,M,30.12,M,6.21,M,FEW,SCT,BKN,M,1500.00,3000.00,11000.00,M,M,YBBN 250130Z 13013KT 9999 FEW015 SCT030 BKN110 27/20 Q1020 RMK DIST SHOWERS TO W NOSIG
YBBN,2010-02-25 03:00,153.1292,-27.3917,80.60,66.20,61.58,140.00,12.00,M,30.12,M,6.21,M,FEW,SCT,BKN,M,1500.00,3500.00,5600.00,M,VCSH,YBBN 250300Z 14012KT 9999 VCSH FEW015 SCT035 BKN056 27/19 Q1020 RMK SHOWERS TO E INTER 0300/0400 3000 SHRA BKN012
YBBN,2010-02-25 03:30,153.1292,-27.3917,77.00,69.80,78.48,140.00,14.00,M,30.12,M,6.21,M,FEW,SCT,BKN,M,1500.00,3500.00,5500.00,M,VCSH,YBBN 250330Z 14014KT 9999 VCSH FEW015 SCT035 BKN055 25/21 Q1020 RMK SHOWERS TO E INTER 0330/0400 3000 SHRA BKN012
YBBN,2010-02-25 04:44,153.1292,-27.3917,75.20,68.00,78.34,150.00,11.00,M,30.12,M,6.21,M,FEW,BKN,M,M,1000.00,4400.00,M,M,M,YBBN 250444Z 15011KT 9999 FEW010 BKN044 24/20 Q1020 RMK DIST. SHOWERS TEMPO 0444/0800 5000 SHRA BKN015
YBBN,2010-02-25 06:30,153.1292,-27.3917,77.00,64.40,65.12,140.00,8.00,M,30.12,M,6.21,M,FEW,BKN,M,M,1500.00,4500.00,M,M,M,YBBN 250630Z 14008KT 9999 FEW015 BKN045 25/18 Q1020 NOSIG
YBBN,2010-02-25 07:00,153.1292,-27.3917,77.00,64.40,65.12,160.00,8.00,M,30.12,M,6.21,M,FEW,SCT,BKN,M,2000.00,5700.00,7200.00,M,M,YBBN 250700Z 16008KT 9999 FEW020 SCT057 BKN072 25/18 Q1020 NOSIG
YBBN,2010-02-25 07:30,153.1292,-27.3917,78.80,62.60,57.60,140.00,10.00,M,30.12,M,6.21,M,FEW,BKN,M,M,2000.00,7000.00,M,M,M,YBBN 250730Z 14010KT 9999 FEW020 BKN070 26/17 Q1020 NOSIG
YBBN,2010-02-25 08:00,153.1292,-27.3917,77.00,62.60,61.13,130.00,13.00,M,30.12,M,6.21,M,FEW,BKN,M,M,2000.00,4000.00,M,M,M,YBBN 250800Z 13013KT 9999 FEW020 BKN040 25/17 Q1020 NOSIG
YBBN,2010-02-25 08:30,153.1292,-27.3917,77.00,60.80,57.36,160.00,10.00,M,30.15,M,6.21,M,FEW,M,M,M,2000.00,M,M,M,M,YBBN 250830Z 16010KT 9999 FEW020 25/16 Q1021 NOSIG
YBBN,2010-02-25 09:00,153.1292,-27.3917,75.20,62.60,64.91,160.00,9.00,M,30.15,M,6.21,M,FEW,BKN,M,M,2000.00,5000.00,M,M,M,YBBN 250900Z 16009KT 9999 FEW020 BKN050 24/17 Q1021 NOSIG
YBBN,2010-02-25 09:30,153.1292,-27.3917,75.20,62.60,64.91,170.00,7.00,M,30.15,M,6.21,M,FEW,SCT,BKN,M,2000.00,4000.00,7000.00,M,M,YBBN 250930Z 17007KT 9999 FEW020 SCT040 BKN070 24/17 Q1021 NOSIG
YBBN,2010-02-25 10:00,153.1292,-27.3917,75.20,62.60,64.91,160.00,8.00,M,30.18,M,6.21,M,FEW,SCT,M,M,2000.00,5000.00,M,M,M,YBBN 251000Z 16008KT 9999 FEW020 SCT050 24/17 Q1022 NOSIG
YBBN,2010-02-25 10:30,153.1292,-27.3917,73.40,62.60,68.94,140.00,10.00,M,30.18,M,6.21,M,FEW,BKN,M,M,2500.00,7000.00,M,M,M,YBBN 251030Z 14010KT 9999 FEW025 BKN070 23/17 Q1022 NOSIG
YBBN,2010-02-25 11:00,153.1292,-27.3917,77.00,60.80,57.36,130.00,12.00,M,30.18,M,6.21,M,FEW,BKN,M,M,2500.00,7000.00,M,M,M,YBBN 251100Z 13012KT 9999 FEW025 BKN070 25/16 Q1022 NOSIG
YBBN,2010-02-25 11:30,153.1292,-27.3917,77.00,59.00,53.80,140.00,11.00,M,30.18,M,6.21,M,FEW,M,M,M,2500.00,M,M,M,M,YBBN 251130Z 14011KT 9999 FEW025 25/15 Q1022 NOSIG
YBBN,2010-02-25 12:00,153.1292,-27.3917,77.00,57.20,50.43,150.00,12.00,M,30.18,M,6.21,22.00,FEW,M,M,M,2500.00,M,M,M,M,YBBN 251200Z 15012G22KT 9999 FEW025 25/14 Q1022 NOSIG
YBBN,2010-02-25 12:30,153.1292,-27.3917,75.20,57.20,53.55,150.00,10.00,M,30.18,M,6.21,M,FEW,M,M,M,2500.00,M,M,M,M,YBBN 251230Z 15010KT 9999 FEW025 24/14 Q1022 NOSIG
YBBN,2010-02-25 13:00,153.1292,-27.3917,75.20,57.20,53.55,160.00,8.00,M,30.18,M,6.21,M,FEW,M,M,M,2500.00,M,M,M,M,YBBN 251300Z 16008KT 9999 FEW025 24/14 Q1022 NOSIG
YBBN,2010-02-25 13:30,153.1292,-27.3917,73.40,59.00,60.67,160.00,7.00,M,30.15,M,6.21,M,FEW,M,M,M,3000.00,M,M,M,M,YBBN 251330Z 16007KT 9999 FEW030 23/15 Q1021 NOSIG
YBBN,2010-02-25 14:00,153.1292,-27.3917,71.60,59.00,64.48,170.00,7.00,M,30.15,M,6.21,M,FEW,M,M,M,3000.00,M,M,M,M,YBBN 251400Z 17007KT 9999 FEW030 22/15 Q1021 NOSIG
YBBN,2010-02-25 14:30,153.1292,-27.3917,71.60,59.00,64.48,190.00,6.00,M,30.15,M,6.21,M,FEW,SCT,M,M,3000.00,7000.00,M,M,M,YBBN 251430Z 19006KT 9999 FEW030 SCT070 22/15 Q1021 NOSIG
