#DEBUG: Format Typ    -> comma
#DEBUG: Time Period   -> 2013-04-29 00:00:00+00:00 2013-04-30 00:00:00+00:00
#DEBUG: Time Zone     -> Etc/UTC
#DEBUG: Data Contact   -> daryl herzmann akrherz@iastate.edu 515-294-5978
#DEBUG: Entries Found -> -1
station,valid,lon,lat,tmpf, dwpf, relh, drct, sknt, p01i, alti, mslp, vsby, gust, skyc1, skyc2, skyc3, skyc4, skyl1, skyl2, skyl3, skyl4, presentwx, metar
YBBN,2013-04-29 00:00,153.1292,-27.3917,75.20,62.60,64.91,200.00,8.00,0.00,30.21,M,6.21,M,FEW,M,M,M,3800.00,M,M,M,M,YBBN 290000Z 20008KT 9999 FEW038 24/17 Q1023 NOSIG
YBBN,2013-04-29 00:30,153.1292,-27.3917,77.00,62.60,61.13,220.00,8.00,0.00,30.21,M,6.21,M,FEW,M,M,M,3800.00,M,M,M,M,YBBN 290030Z 22008KT 9999 FEW038 25/17 Q1023
YBBN,2013-04-29 01:00,153.1292,-27.3917,78.80,64.40,61.36,120.00,5.00,0.00,30.18,M,6.21,M,SCT,M,M,M,3000.00,M,M,M,M,YBBN 290100Z 12005KT 9999 SCT030 26/18 Q1022
YBBN,2013-04-29 01:30,153.1292,-27.3917,77.00,62.60,61.13,110.00,5.00,0.00,30.18,M,6.21,M,FEW,M,M,M,3200.00,M,M,M,M,YBBN 290130Z 11005KT 9999 FEW032 25/17 Q1022
YBBN,2013-04-29 02:00,153.1292,-27.3917,77.00,60.80,57.36,90.00,5.00,0.00,30.15,M,6.21,M,FEW,M,M,M,3500.00,M,M,M,M,YBBN 290200Z 09005KT 9999 FEW035 25/16 Q1021
YBBN,2013-04-29 02:30,153.1292,-27.3917,77.00,62.60,61.13,110.00,5.00,0.00,30.15,M,6.21,M,FEW,SCT,M,M,3000.00,5500.00,M,M,M,YBBN 290230Z 11005KT 9999 FEW030 SCT055 25/17 Q1021
YBBN,2013-04-29 03:00,153.1292,-27.3917,78.80,62.60,57.60,60.00,7.00,0.00,30.15,M,6.21,M,FEW,M,M,M,3500.00,M,M,M,M,YBBN 290300Z 06007KT 9999 FEW035 26/17 Q1021
YBBN,2013-04-29 03:30,153.1292,-27.3917,77.00,60.80,57.36,60.00,8.00,0.00,30.15,M,6.21,M,FEW,M,M,M,3500.00,M,M,M,M,YBBN 290330Z 06008KT 9999 FEW035 25/16 Q1021
YBBN,2013-04-29 04:00,153.1292,-27.3917,78.80,62.60,57.60,80.00,7.00,0.00,30.15,M,6.21,M,FEW,M,M,M,3500.00,M,M,M,M,YBBN 290400Z 08007KT 9999 FEW035 26/17 Q1021 NOSIG
YBBN,2013-04-29 04:30,153.1292,-27.3917,78.80,60.80,54.05,50.00,9.00,0.00,30.15,M,6.21,M,FEW,M,M,M,3500.00,M,M,M,M,YBBN 290430Z 05009KT 9999 FEW035 26/16 Q1021
YBBN,2013-04-29 05:00,153.1292,-27.3917,77.00,59.00,53.80,50.00,8.00,0.00,30.15,M,6.21,M,FEW,M,M,M,4000.00,M,M,M,M,YBBN 290500Z 05008KT 9999 FEW040 25/15 Q1021 NOSIG
YBBN,2013-04-29 05:30,153.1292,-27.3917,77.00,60.80,57.36,60.00,7.00,0.00,30.15,M,6.21,M,FEW,M,M,M,3800.00,M,M,M,M,YBBN 290530Z 06007KT 9999 FEW038 25/16 Q1021
YBBN,2013-04-29 06:00,153.1292,-27.3917,77.00,59.00,53.80,60.00,7.00,0.00,30.15,M,6.21,M,FEW,M,M,M,3800.00,M,M,M,M,YBBN 290600Z 06007KT 9999 FEW038 25/15 Q1021
YBBN,2013-04-29 06:30,153.1292,-27.3917,75.20,62.60,64.91,70.00,6.00,0.00,30.15,M,6.21,M,FEW,M,M,M,3000.00,M,M,M,M,YBBN 290630Z 07006KT 9999 FEW030 24/17 Q1021
YBBN,2013-04-29 07:00,153.1292,-27.3917,73.40,62.60,68.94,80.00,5.00,0.00,30.15,M,6.21,M,FEW,M,M,M,2800.00,M,M,M,M,YBBN 290700Z 08005KT 9999 FEW028 23/17 Q1021 NOSIG
YBBN,2013-04-29 07:30,153.1292,-27.3917,71.60,62.60,73.27,90.00,5.00,0.00,30.15,M,6.21,M,FEW,M,M,M,2500.00,M,M,M,M,YBBN 290730Z 09005KT 9999 FEW025 22/17 Q1021
YBBN,2013-04-29 08:00,153.1292,-27.3917,71.60,64.40,78.04,110.00,5.00,0.00,30.18,M,6.21,M,FEW,M,M,M,2500.00,M,M,M,M,YBBN 290800Z 11005KT 9999 FEW025 22/18 Q1022 NOSIG
YBBN,2013-04-29 08:30,153.1292,-27.3917,71.60,64.40,78.04,100.00,4.00,0.00,30.18,M,6.21,M,M,M,M,M,M,M,M,M,M,YBBN 290830Z 10004KT CAVOK 22/18 Q1022
YBBN,2013-04-29 09:00,153.1292,-27.3917,71.60,64.40,78.04,110.00,5.00,0.00,30.18,M,6.21,M,M,M,M,M,M,M,M,M,M,YBBN 290900Z 11005KT CAVOK 22/18 Q1022
YBBN,2013-04-29 09:30,153.1292,-27.3917,71.60,64.40,78.04,100.00,4.00,0.00,30.21,M,6.21,M,M,M,M,M,M,M,M,M,M,YBBN 290930Z 10004KT CAVOK 22/18 Q1023
YBBN,2013-04-29 10:00,153.1292,-27.3917,71.60,64.40,78.04,110.00,4.00,0.00,30.21,M,6.21,M,FEW,M,M,M,4000.00,M,M,M,M,YBBN 291000Z 11004KT 9999 FEW040 22/18 Q1023 NOSIG
YBBN,2013-04-29 10:30,153.1292,-27.3917,71.60,64.40,78.04,120.00,4.00,0.00,30.21,M,6.21,M,M,M,M,M,M,M,M,M,M,YBBN 291030Z 12004KT CAVOK 22/18 Q1023 RMK 5SC060
YBBN,2013-04-29 11:00,153.1292,-27.3917,73.40,64.40,73.44,110.00,5.00,0.00,30.21,M,6.21,M,FEW,SCT,M,M,2000.00,6000.00,M,M,M,YBBN 291100Z 11005KT 9999 FEW020 SCT060 23/18 Q1023
YBBN,2013-04-29 11:30,153.1292,-27.3917,71.60,64.40,78.04,120.00,5.00,0.00,30.21,M,6.21,M,FEW,M,M,M,2000.00,M,M,M,M,YBBN 291130Z 12005KT 9999 FEW020 22/18 Q1023
YBBN,2013-04-29 12:00,153.1292,-27.3917,71.60,64.40,78.04,130.00,3.00,0.00,30.21,M,6.21,M,FEW,M,M,M,2000.00,M,M,M,M,YBBN 291200Z 13003KT 9999 FEW020 22/18 Q1023 NOSIG
YBBN,2013-04-29 12:30,153.1292,-27.3917,71.60,64.40,78.04,120.00,4.00,0.00,30.21,M,6.21,M,FEW,M,M,M,2500.00,M,M,M,M,YBBN 291230Z 12004KT 9999 FEW025 22/18 Q1023
YBBN,2013-04-29 13:00,153.1292,-27.3917,69.80,66.20,88.34,130.00,4.00,0.00,30.21,M,6.21,M,M,M,M,M,M,M,M,M,M,YBBN 291300Z 13004KT CAVOK 21/19 Q1023 NOSIG
YBBN,2013-04-29 13:30,153.1292,-27.3917,66.20,62.60,88.18,210.00,6.00,0.00,30.21,M,6.21,M,M,M,M,M,M,M,M,M,M,YBBN 291330Z 21006KT CAVOK 19/17 Q1023
YBBN,2013-04-29 14:00,153.1292,-27.3917,64.40,62.60,93.88,200.00,5.00,0.00,30.21,M,6.21,M,FEW,M,M,M,2500.00,M,M,M,M,YBBN 291400Z 20005KT 9999 FEW025 18/17 Q1023 NOSIG
YBBN,2013-04-29 14:30,153.1292,-27.3917,64.40,62.60,93.88,200.00,5.00,0.00,30.18,M,6.21,M,M,M,M,M,M,M,M,M,M,YBBN 291430Z 20005KT CAVOK 18/17 Q1022
YBBN,2013-04-29 15:00,153.1292,-27.3917,64.40,62.60,93.88,200.00,5.00,0.00,30.18,M,6.21,M,M,M,M,M,M,M,M,M,M,YBBN 291500Z 20005KT CAVOK 18/17 Q1022 NOSIG
YBBN,2013-04-29 15:30,153.1292,-27.3917,64.40,62.60,93.88,200.00,7.00,0.00,30.18,M,6.21,M,M,M,M,M,M,M,M,M,M,YBBN 291530Z 20007KT CAVOK 18/17 Q1022
YBBN,2013-04-29 16:00,153.1292,-27.3917,62.60,60.80,93.83,200.00,7.00,0.00,30.18,M,6.21,M,M,M,M,M,M,M,M,M,M,YBBN 291600Z 20007KT CAVOK 17/16 Q1022 NOSIG
YBBN,2013-04-29 16:30,153.1292,-27.3917,62.60,60.80,93.83,200.00,7.00,0.00,30.18,M,6.21,M,M,M,M,M,M,M,M,M,M,YBBN 291630Z 20007KT CAVOK 17/16 Q1022
YBBN,2013-04-29 17:00,153.1292,-27.3917,62.60,60.80,93.83,200.00,7.00,0.00,30.15,M,6.21,M,M,M,M,M,M,M,M,M,M,YBBN 291700Z 20007KT CAVOK 17/16 Q1021 NOSIG
YBBN,2013-04-29 17:30,153.1292,-27.3917,62.60,60.80,93.83,210.00,8.00,0.00,30.15,M,6.21,M,FEW,M,M,M,4300.00,M,M,M,M,YBBN 291730Z 21008KT 9999 FEW043 17/16 Q1021
YBBN,2013-04-29 18:00,153.1292,-27.3917,64.40,62.60,93.88,200.00,8.00,0.00,30.15,M,6.21,M,BKN,M,M,M,2500.00,M,M,M,VCSH,YBBN 291800Z 20008KT 9999 VCSH BKN025 18/17 Q1021 NOSIG
YBBN,2013-04-29 18:30,153.1292,-27.3917,64.40,62.60,93.88,190.00,5.00,0.00,30.18,M,3.11,M,BKN,M,M,M,2500.00,M,M,M,SHRA,YBBN 291830Z 19005KT 5000 SHRA BKN025 18/17 Q1022
YBBN,2013-04-29 18:45,153.1292,-27.3917,64.40,62.60,93.88,210.00,6.00,0.00,30.15,M,6.21,M,FEW,BKN,M,M,1000.00,2500.00,M,M,VCSH,YBBN 291845Z 21006KT 9999 VCSH FEW010 BKN025 18/17 Q1021 RESHRA
YBBN,2013-04-29 19:00,153.1292,-27.3917,64.40,62.60,93.88,200.00,7.00,0.00,30.15,M,6.21,M,FEW,SCT,M,M,1000.00,2500.00,M,M,M,YBBN 291900Z 20007KT 9999 FEW010 SCT025 18/17 Q1021
YBBN,2013-04-29 19:30,153.1292,-27.3917,62.60,60.80,93.83,210.00,8.00,0.00,30.15,M,6.21,M,FEW,SCT,M,M,2500.00,4000.00,M,M,VCSH,YBBN 291930Z 21008KT 9999 VCSH FEW025 SCT040 17/16 Q1021 RESHRA
YBBN,2013-04-29 20:00,153.1292,-27.3917,62.60,60.80,93.83,210.00,9.00,0.00,30.18,M,5.59,M,SCT,M,M,M,2500.00,M,M,M,VCSH,YBBN 292000Z 21009KT 9000 VCSH SCT025 17/16 Q1022
YBBN,2013-04-29 20:30,153.1292,-27.3917,62.60,60.80,93.83,200.00,9.00,0.00,30.18,M,6.21,M,FEW,M,M,M,2700.00,M,M,M,VCSH,YBBN 292030Z 20009KT 9999 VCSH FEW027 17/16 Q1022
YBBN,2013-04-29 21:00,153.1292,-27.3917,62.60,60.80,93.83,200.00,8.00,0.00,30.18,M,6.21,M,FEW,M,M,M,2600.00,M,M,M,VCSH,YBBN 292100Z 20008KT 9999 VCSH FEW026 17/16 Q1022
YBBN,2013-04-29 21:30,153.1292,-27.3917,64.40,62.60,93.88,210.00,8.00,0.00,30.18,M,6.21,M,FEW,SCT,M,M,2900.00,4000.00,M,M,-SHRA,YBBN 292130Z 21008KT 9999 -SHRA FEW029 SCT040 18/17 Q1022
YBBN,2013-04-29 22:00,153.1292,-27.3917,66.20,62.60,88.18,200.00,7.00,0.00,30.21,M,6.21,M,FEW,SCT,M,M,2500.00,4500.00,M,M,VCSH,YBBN 292200Z 20007KT 9999 VCSH FEW025 SCT045 19/17 Q1023 NOSIG
YBBN,2013-04-29 22:30,153.1292,-27.3917,68.00,62.60,82.86,190.00,6.00,0.00,30.21,M,4.97,M,FEW,SCT,M,M,2000.00,3500.00,M,M,-SHRA,YBBN 292230Z 19006KT 8000 -SHRA FEW020 SCT035 20/17 Q1023
YBBN,2013-04-29 22:54,153.1292,-27.3917,66.20,64.40,93.92,190.00,6.00,0.00,30.21,M,3.11,M,FEW,SCT,BKN,M,1200.00,2100.00,3500.00,M,-SHRA,YBBN 292254Z 19006KT 5000 -SHRA FEW012 SCT021 BKN035 19/18 Q1023
YBBN,2013-04-29 23:00,153.1292,-27.3917,66.20,64.40,93.92,190.00,6.00,0.00,30.21,M,3.11,M,FEW,SCT,BKN,M,1200.00,2100.00,3500.00,M,-SHRA,YBBN 292300Z 19006KT 5000 -SHRA FEW012 SCT021 BKN035 19/18 Q1023
YBBN,2013-04-29 23:30,153.1292,-27.3917,68.00,66.20,93.97,200.00,6.00,0.00,30.21,M,4.97,M,FEW,SCT,M,M,2500.00,6000.00,M,M,VCSH,YBBN 292330Z 20006KT 8000 VCSH FEW025 SCT060 20/19 Q1023
