#DEBUG: Format Typ    -> comma
#DEBUG: Time Period   -> 2014-08-07 00:00:00+00:00 2014-08-08 00:00:00+00:00
#DEBUG: Time Zone     -> Etc/UTC
#DEBUG: Data Contact   -> daryl herzmann akrherz@iastate.edu 515-294-5978
#DEBUG: Entries Found -> -1
station,valid,lon,lat,tmpf, dwpf, relh, drct, sknt, p01i, alti, mslp, vsby, gust, skyc1, skyc2, skyc3, skyc4, skyl1, skyl2, skyl3, skyl4, presentwx, metar
YBBN,2014-08-07 00:00,153.1292,-27.3917,66.20,48.20,52.25,220.00,10.00,0.00,30.36,M,6.21,M,FEW,M,M,M,3000.00,M,M,M,M,YBBN 070000Z 22010KT 9999 FEW030 19/09 Q1028 NOSIG
YBBN,2014-08-07 00:30,153.1292,-27.3917,66.20,44.60,45.60,230.00,6.00,0.00,30.36,M,6.21,M,FEW,M,M,M,3500.00,M,M,M,M,YBBN 070030Z 23006KT 9999 FEW035 19/07 Q1028
YBBN,2014-08-07 01:00,153.1292,-27.3917,69.80,41.00,35.09,220.00,7.00,0.00,30.36,M,6.21,M,M,M,M,M,M,M,M,M,M,YBBN 070100Z 22007KT CAVOK 21/05 Q1028
YBBN,2014-08-07 01:30,153.1292,-27.3917,69.80,39.20,32.72,190.00,6.00,0.00,30.33,M,6.21,M,M,M,M,M,M,M,M,M,M,YBBN 070130Z 19006KT CAVOK 21/04 Q1027
YBBN,2014-08-07 02:00,153.1292,-27.3917,69.80,37.40,30.49,220.00,4.00,0.00,30.30,M,6.21,M,M,M,M,M,M,M,M,M,M,YBBN 070200Z 22004KT CAVOK 21/03 Q1026
YBBN,2014-08-07 02:30,153.1292,-27.3917,69.80,37.40,30.49,50.00,8.00,0.00,30.30,M,6.21,M,M,M,M,M,M,M,M,M,M,YBBN 070230Z 05008KT CAVOK 21/03 Q1026
YBBN,2014-08-07 03:00,153.1292,-27.3917,71.60,44.60,37.89,30.00,10.00,0.00,30.27,M,6.21,M,NCD,M,M,M,M,M,M,M,//,YBBN 070300Z AUTO 03010KT 9999 // NCD 22/07 Q1025
YBBN,2014-08-07 03:30,153.1292,-27.3917,71.60,42.80,35.37,40.00,10.00,0.00,30.27,M,6.21,M,M,M,M,M,M,M,M,M,M,YBBN 070330Z 04010KT CAVOK 22/06 Q1025
YBBN,2014-08-07 04:00,153.1292,-27.3917,71.60,42.80,35.37,30.00,10.00,0.00,30.24,M,6.21,M,M,M,M,M,M,M,M,M,M,YBBN 070400Z 03010KT CAVOK 22/06 Q1024 NOSIG
YBBN,2014-08-07 04:30,153.1292,-27.3917,69.80,46.40,43.13,40.00,10.00,0.00,30.24,M,6.21,M,M,M,M,M,M,M,M,M,M,YBBN 070430Z 04010KT CAVOK 21/08 Q1024
YBBN,2014-08-07 05:00,153.1292,-27.3917,69.80,44.60,40.29,40.00,10.00,0.00,30.24,M,6.21,M,M,M,M,M,M,M,M,M,M,YBBN 070500Z 04010KT CAVOK 21/07 Q1024 NOSIG
YBBN,2014-08-07 05:30,153.1292,-27.3917,69.80,39.20,32.72,50.00,9.00,0.00,30.24,M,6.21,M,M,M,M,M,M,M,M,M,M,YBBN 070530Z 05009KT CAVOK 21/04 Q1024
YBBN,2014-08-07 06:00,153.1292,-27.3917,68.00,46.40,45.88,30.00,9.00,0.00,30.24,M,6.21,M,M,M,M,M,M,M,M,M,M,YBBN 070600Z 03009KT CAVOK 20/08 Q1024 NOSIG
YBBN,2014-08-07 06:30,153.1292,-27.3917,68.00,42.80,40.00,40.00,7.00,0.00,30.24,M,6.21,M,M,M,M,M,M,M,M,M,M,YBBN 070630Z 04007KT CAVOK 20/06 Q1024
YBBN,2014-08-07 07:00,153.1292,-27.3917,64.40,41.00,42.28,30.00,6.00,0.00,30.27,M,6.21,M,M,M,M,M,M,M,M,M,M,YBBN 070700Z 03006KT CAVOK 18/05 Q1025
YBBN,2014-08-07 07:30,153.1292,-27.3917,64.40,46.40,51.98,70.00,5.00,0.00,30.27,M,6.21,M,M,M,M,M,M,M,M,M,M,YBBN 070730Z 07005KT CAVOK 18/08 Q1025
YBBN,2014-08-07 08:00,153.1292,-27.3917,64.40,50.00,59.50,70.00,5.00,0.00,30.30,M,6.21,M,M,M,M,M,M,M,M,M,M,YBBN 070800Z 07005KT CAVOK 18/10 Q1026 NOSIG
YBBN,2014-08-07 08:30,153.1292,-27.3917,62.60,51.80,67.75,80.00,5.00,0.00,30.30,M,6.21,M,M,M,M,M,M,M,M,M,M,YBBN 070830Z 08005KT CAVOK 17/11 Q1026
YBBN,2014-08-07 09:00,153.1292,-27.3917,62.60,51.80,67.75,70.00,4.00,0.00,30.30,M,6.21,M,M,M,M,M,M,M,M,M,M,YBBN 070900Z 07004KT CAVOK 17/11 Q1026
YBBN,2014-08-07 09:30,153.1292,-27.3917,59.00,51.80,76.98,70.00,2.00,0.00,30.30,M,6.21,M,M,M,M,M,M,M,M,M,M,YBBN 070930Z 07002KT CAVOK 15/11 Q1026
YBBN,2014-08-07 10:00,153.1292,-27.3917,59.00,51.80,76.98,0.00,0.00,0.00,30.33,M,6.21,M,M,M,M,M,M,M,M,M,M,YBBN 071000Z 00000KT CAVOK 15/11 Q1027 NOSIG
YBBN,2014-08-07 10:30,153.1292,-27.3917,57.20,51.80,82.12,0.00,0.00,0.00,30.33,M,6.21,M,M,M,M,M,M,M,M,M,M,YBBN 071030Z 00000KT CAVOK 14/11 Q1027
YBBN,2014-08-07 11:00,153.1292,-27.3917,55.40,50.00,81.99,310.00,1.00,0.00,30.33,M,6.21,M,M,M,M,M,M,M,M,M,M,YBBN 071100Z 31001KT CAVOK 13/10 Q1027
YBBN,2014-08-07 11:30,153.1292,-27.3917,53.60,50.00,87.56,0.00,0.00,0.00,30.33,M,6.21,M,M,M,M,M,M,M,M,M,M,YBBN 071130Z 00000KT CAVOK 12/10 Q1027
YBBN,2014-08-07 12:00,153.1292,-27.3917,53.60,50.00,87.56,240.00,3.00,0.00,30.33,M,6.21,M,M,M,M,M,M,M,M,M,M,YBBN 071200Z 24003KT CAVOK 12/10 Q1027 NOSIG
YBBN,2014-08-07 12:30,153.1292,-27.3917,53.60,48.20,81.87,220.00,3.00,0.00,30.33,M,6.21,M,M,M,M,M,M,M,M,M,M,YBBN 071230Z 22003KT CAVOK 12/09 Q1027
YBBN,2014-08-07 13:00,153.1292,-27.3917,51.80,48.20,87.47,200.00,5.00,0.00,30.33,M,6.21,M,M,M,M,M,M,M,M,M,M,YBBN 071300Z 20005KT CAVOK 11/09 Q1027
YBBN,2014-08-07 13:30,153.1292,-27.3917,51.80,48.20,87.47,200.00,4.00,0.00,30.33,M,6.21,M,M,M,M,M,M,M,M,M,M,YBBN 071330Z 20004KT CAVOK 11/09 Q1027
YBBN,2014-08-07 14:00,153.1292,-27.3917,53.60,48.20,81.87,190.00,7.00,0.00,30.33,M,6.21,M,M,M,M,M,M,M,M,M,M,YBBN 071400Z 19007KT CAVOK 12/09 Q1027 NOSIG
YBBN,2014-08-07 14:30,153.1292,-27.3917,51.80,48.20,87.47,200.00,6.00,0.00,30.33,M,6.21,M,M,M,M,M,M,M,M,M,M,YBBN 071430Z 20006KT CAVOK 11/09 Q1027
YBBN,2014-08-07 15:00,153.1292,-27.3917,50.00,46.40,87.37,200.00,7.00,0.00,30.33,M,6.21,M,M,M,M,M,M,M,M,M,M,YBBN 071500Z 20007KT CAVOK 10/08 Q1027 NOSIG
YBBN,2014-08-07 15:30,153.1292,-27.3917,51.80,46.40,81.74,200.00,7.00,0.00,30.33,M,6.21,M,M,M,M,M,M,M,M,M,M,YBBN 071530Z 20007KT CAVOK 11/08 Q1027
YBBN,2014-08-07 16:00,153.1292,-27.3917,51.80,46.40,81.74,210.00,7.00,0.00,30.33,M,6.21,M,M,M,M,M,M,M,M,M,M,YBBN 071600Z 21007KT CAVOK 11/08 Q1027 NOSIG
YBBN,2014-08-07 16:30,153.1292,-27.3917,51.80,44.60,76.34,200.00,7.00,0.00,30.33,M,6.21,M,M,M,M,M,M,M,M,M,M,YBBN 071630Z 20007KT CAVOK 11/07 Q1027
YBBN,2014-08-07 17:00,153.1292,-27.3917,51.80,42.80,71.26,210.00,7.00,0.00,30.33,M,6.21,M,M,M,M,M,M,M,M,M,M,YBBN 071700Z 21007KT CAVOK 11/06 Q1027 NOSIG
YBBN,2014-08-07 17:30,153.1292,-27.3917,51.80,42.80,71.26,210.00,8.00,0.00,30.33,M,6.21,M,M,M,M,M,M,M,M,M,M,YBBN 071730Z 21008KT CAVOK 11/06 Q1027
YBBN,2014-08-07 18:00,153.1292,-27.3917,50.00,42.80,76.18,210.00,8.00,0.00,30.33,M,6.21,M,M,M,M,M,M,M,M,M,M,YBBN 071800Z 21008KT CAVOK 10/06 Q1027 NOSIG
YBBN,2014-08-07 18:30,153.1292,-27.3917,48.20,42.80,81.47,210.00,8.00,0.00,30.33,M,6.21,M,M,M,M,M,M,M,M,M,M,YBBN 071830Z 21008KT CAVOK 09/06 Q1027
YBBN,2014-08-07 19:00,153.1292,-27.3917,48.20,42.80,81.47,210.00,9.00,0.00,30.33,M,6.21,M,M,M,M,M,M,M,M,M,M,YBBN 071900Z 21009KT CAVOK 09/06 Q1027
YBBN,2014-08-07 19:20,153.1292,-27.3917,48.20,42.80,81.47,210.00,9.00,0.00,30.33,M,6.21,M,CLR,M,M,M,M,M,M,M,MIFG,YBBN 071920Z 21009KT 9999 MIFG SKC 09/06 Q1027
YBBN,2014-08-07 19:30,153.1292,-27.3917,50.00,44.60,81.61,210.00,9.00,0.00,30.33,M,6.21,M,FEW,M,M,M,2500.00,M,M,M,MIFG,YBBN 071930Z 21009KT 9999 MIFG FEW025 10/07 Q1027
YBBN,2014-08-07 20:00,153.1292,-27.3917,48.20,42.80,81.47,210.00,9.00,0.00,30.36,M,6.21,M,FEW,M,M,M,2500.00,M,M,M,M,YBBN 072000Z 21009KT 9999 FEW025 09/06 Q1028
YBBN,2014-08-07 20:30,153.1292,-27.3917,48.20,42.80,81.47,210.00,9.00,0.00,30.36,M,6.21,M,FEW,M,M,M,2500.00,M,M,M,M,YBBN 072030Z 21009KT 9999 FEW025 09/06 Q1028
YBBN,2014-08-07 21:00,153.1292,-27.3917,50.00,44.60,81.61,210.00,9.00,0.00,30.39,M,6.21,M,FEW,M,M,M,2500.00,M,M,M,M,YBBN 072100Z 21009KT 9999 FEW025 10/07 Q1029 NOSIG
YBBN,2014-08-07 21:30,153.1292,-27.3917,53.60,46.40,76.50,210.00,9.00,0.00,30.39,M,6.21,M,FEW,M,M,M,2500.00,M,M,M,M,YBBN 072130Z 21009KT 9999 FEW025 12/08 Q1029
YBBN,2014-08-07 22:00,153.1292,-27.3917,57.20,44.60,62.69,210.00,10.00,0.00,30.39,M,6.21,M,FEW,M,M,M,2800.00,M,M,M,M,YBBN 072200Z 21010KT 9999 FEW028 14/07 Q1029 NOSIG
YBBN,2014-08-07 22:30,153.1292,-27.3917,59.00,46.40,62.92,210.00,11.00,0.00,30.39,M,6.21,M,FEW,M,M,M,3000.00,M,M,M,M,YBBN 072230Z 21011KT 9999 FEW030 15/08 Q1029
YBBN,2014-08-07 23:00,153.1292,-27.3917,62.60,44.60,51.72,210.00,11.00,0.00,30.42,M,6.21,M,M,M,M,M,M,M,M,M,M,YBBN 072300Z 21011KT CAVOK 17/07 Q1030 NOSIG
YBBN,2014-08-07 23:30,153.1292,-27.3917,64.40,44.60,48.55,210.00,10.00,0.00,30.42,M,6.21,M,FEW,M,M,M,3000.00,M,M,M,M,YBBN 072330Z 21010KT 9999 FEW030 18/07 Q1030
