#DEBUG: Format Typ    -> comma
#DEBUG: Time Period   -> 2014-10-12 00:00:00+00:00 2014-10-13 00:00:00+00:00
#DEBUG: Time Zone     -> Etc/UTC
#DEBUG: Data Contact   -> daryl herzmann akrherz@iastate.edu 515-294-5978
#DEBUG: Entries Found -> -1
station,valid,lon,lat,tmpf, dwpf, relh, drct, sknt, p01i, alti, mslp, vsby, gust, skyc1, skyc2, skyc3, skyc4, skyl1, skyl2, skyl3, skyl4, presentwx, metar
YBBN,2014-10-12 00:00,153.1292,-27.3917,71.60,59.00,64.48,30.00,9.00,0.00,30.09,M,6.21,M,SCT,M,M,M,2900.00,M,M,M,M,YBBN 120000Z 03009KT 9999 SCT029 22/15 Q1019 NOSIG
YBBN,2014-10-12 00:30,153.1292,-27.3917,75.20,57.20,53.55,30.00,10.00,0.00,30.09,M,6.21,M,SCT,M,M,M,3000.00,M,M,M,M,YBBN 120030Z 03010KT 9999 SCT030 24/14 Q1019
YBBN,2014-10-12 01:00,153.1292,-27.3917,75.20,57.20,53.55,30.00,11.00,0.00,30.09,M,6.21,M,SCT,M,M,M,3000.00,M,M,M,M,YBBN 120100Z 03011KT 9999 SCT030 24/14 Q1019
YBBN,2014-10-12 01:30,153.1292,-27.3917,77.00,57.20,50.43,30.00,11.00,0.00,30.06,M,6.21,M,SCT,M,M,M,3500.00,M,M,M,M,YBBN 120130Z 03011KT 9999 SCT035 25/14 Q1018
YBBN,2014-10-12 02:00,153.1292,-27.3917,75.20,59.00,57.12,30.00,13.00,0.00,30.06,M,6.21,M,SCT,M,M,M,3500.00,M,M,M,M,YBBN 120200Z 03013KT 9999 SCT035 24/15 Q1018 NOSIG
YBBN,2014-10-12 02:30,153.1292,-27.3917,75.20,59.00,57.12,50.00,13.00,0.00,30.06,M,6.21,M,SCT,M,M,M,3500.00,M,M,M,M,YBBN 120230Z 05013KT 9999 SCT035 24/15 Q1018
YBBN,2014-10-12 03:00,153.1292,-27.3917,75.20,59.00,57.12,40.00,13.00,0.00,30.06,M,6.21,M,FEW,M,M,M,3800.00,M,M,M,M,YBBN 120300Z 04013KT 9999 FEW038 24/15 Q1018 NOSIG
YBBN,2014-10-12 03:30,153.1292,-27.3917,75.20,59.00,57.12,50.00,13.00,0.00,30.03,M,6.21,M,FEW,M,M,M,3800.00,M,M,M,M,YBBN 120330Z 05013KT 9999 FEW038 24/15 Q1017
YBBN,2014-10-12 04:00,153.1292,-27.3917,75.20,59.00,57.12,40.00,13.00,0.00,30.03,M,6.21,M,FEW,M,M,M,4000.00,M,M,M,M,YBBN 120400Z 04013KT 9999 FEW040 24/15 Q1017 NOSIG
YBBN,2014-10-12 04:30,153.1292,-27.3917,73.40,57.20,56.88,50.00,13.00,0.00,30.03,M,6.21,M,FEW,M,M,M,4000.00,M,M,M,M,YBBN 120430Z 05013KT 9999 FEW040 23/14 Q1017
YBBN,2014-10-12 05:00,153.1292,-27.3917,75.20,57.20,53.55,50.00,13.00,0.00,30.00,M,6.21,M,FEW,M,M,M,2500.00,M,M,M,M,YBBN 120500Z 05013KT 9999 FEW025 24/14 Q1016
YBBN,2014-10-12 05:30,153.1292,-27.3917,73.40,57.20,56.88,50.00,13.00,0.00,30.00,M,6.21,M,FEW,M,M,M,2500.00,M,M,M,M,YBBN 120530Z 05013KT 9999 FEW025 23/14 Q1016
YBBN,2014-10-12 06:00,153.1292,-27.3917,73.40,57.20,56.88,50.00,11.00,0.00,30.00,M,6.21,M,FEW,M,M,M,2500.00,M,M,M,M,YBBN 120600Z 05011KT 9999 FEW025 23/14 Q1016 NOSIG
YBBN,2014-10-12 06:30,153.1292,-27.3917,73.40,57.20,56.88,50.00,11.00,0.00,30.00,M,6.21,M,FEW,M,M,M,2500.00,M,M,M,M,YBBN 120630Z 05011KT 9999 FEW025 23/14 Q1016
YBBN,2014-10-12 07:00,153.1292,-27.3917,71.60,57.20,60.44,50.00,10.00,0.00,30.00,M,6.21,M,M,M,M,M,M,M,M,M,M,YBBN 120700Z 05010KT CAVOK 22/14 Q1016 NOSIG
YBBN,2014-10-12 07:30,153.1292,-27.3917,69.80,57.20,64.26,50.00,9.00,0.00,30.03,M,6.21,M,M,M,M,M,M,M,M,M,M,YBBN 120730Z 05009KT CAVOK 21/14 Q1017
YBBN,2014-10-12 08:00,153.1292,-27.3917,69.80,57.20,64.26,50.00,9.00,0.00,30.03,M,6.21,M,M,M,M,M,M,M,M,M,M,YBBN 120800Z 05009KT CAVOK 21/14 Q1017 NOSIG
YBBN,2014-10-12 08:30,153.1292,-27.3917,68.00,57.20,68.35,40.00,9.00,0.00,30.03,M,6.21,M,M,M,M,M,M,M,M,M,M,YBBN 120830Z 04009KT CAVOK 20/14 Q1017
YBBN,2014-10-12 09:00,153.1292,-27.3917,68.00,57.20,68.35,30.00,9.00,0.00,30.03,M,6.21,M,M,M,M,M,M,M,M,M,M,YBBN 120900Z 03009KT CAVOK 20/14 Q1017 NOSIG
YBBN,2014-10-12 09:30,153.1292,-27.3917,66.20,57.20,72.74,30.00,7.00,0.00,30.03,M,6.21,M,M,M,M,M,M,M,M,M,M,YBBN 120930Z 03007KT CAVOK 19/14 Q1017
YBBN,2014-10-12 10:00,153.1292,-27.3917,66.20,59.00,77.60,10.00,8.00,0.00,30.06,M,6.21,M,FEW,M,M,M,2200.00,M,M,M,M,YBBN 121000Z 01008KT 9999 FEW022 19/15 Q1018
YBBN,2014-10-12 10:30,153.1292,-27.3917,66.20,57.20,72.74,20.00,9.00,0.00,30.06,M,6.21,M,FEW,M,M,M,2200.00,M,M,M,M,YBBN 121030Z 02009KT 9999 FEW022 19/14 Q1018
YBBN,2014-10-12 11:00,153.1292,-27.3917,66.20,57.20,72.74,30.00,10.00,0.00,30.06,M,6.21,M,FEW,M,M,M,4500.00,M,M,M,M,YBBN 121100Z 03010KT 9999 FEW045 19/14 Q1018 NOSIG
YBBN,2014-10-12 11:30,153.1292,-27.3917,68.00,57.20,68.35,30.00,9.00,0.00,30.06,M,6.21,M,FEW,M,M,M,2200.00,M,M,M,M,YBBN 121130Z 03009KT 9999 FEW022 20/14 Q1018
YBBN,2014-10-12 12:00,153.1292,-27.3917,66.20,57.20,72.74,20.00,9.00,0.00,30.06,M,6.21,M,FEW,M,M,M,4500.00,M,M,M,M,YBBN 121200Z 02009KT 9999 FEW045 19/14 Q1018 NOSIG
YBBN,2014-10-12 12:30,153.1292,-27.3917,66.20,57.20,72.74,20.00,9.00,0.00,30.06,M,6.21,M,FEW,M,M,M,4500.00,M,M,M,M,YBBN 121230Z 02009KT 9999 FEW045 19/14 Q1018
YBBN,2014-10-12 13:00,153.1292,-27.3917,66.20,57.20,72.74,10.00,9.00,0.00,30.03,M,6.21,M,FEW,M,M,M,3000.00,M,M,M,M,YBBN 121300Z 01009KT 9999 FEW030 19/14 Q1017 NOSIG
YBBN,2014-10-12 13:30,153.1292,-27.3917,66.20,55.40,68.15,10.00,9.00,0.00,30.03,M,6.21,M,FEW,M,M,M,2800.00,M,M,M,M,YBBN 121330Z 01009KT 9999 FEW028 19/13 Q1017
YBBN,2014-10-12 14:00,153.1292,-27.3917,68.00,55.40,64.04,10.00,11.00,0.00,30.03,M,6.21,M,FEW,M,M,M,3200.00,M,M,M,M,YBBN 121400Z 01011KT 9999 FEW032 20/13 Q1017
YBBN,2014-10-12 14:30,153.1292,-27.3917,68.00,57.20,68.35,10.00,11.00,0.00,30.03,M,6.21,M,FEW,M,M,M,3200.00,M,M,M,M,YBBN 121430Z 01011KT 9999 FEW032 20/14 Q1017
YBBN,2014-10-12 15:00,153.1292,-27.3917,66.20,59.00,77.60,310.00,7.00,0.00,30.03,M,6.21,M,FEW,M,M,M,2900.00,M,M,M,M,YBBN 121500Z 31007KT 9999 FEW029 19/15 Q1017
YBBN,2014-10-12 15:30,153.1292,-27.3917,64.40,59.00,82.62,300.00,5.00,0.00,30.03,M,6.21,M,FEW,M,M,M,2900.00,M,M,M,M,YBBN 121530Z 30005KT 9999 FEW029 18/15 Q1017
YBBN,2014-10-12 16:00,153.1292,-27.3917,62.60,59.00,88.00,290.00,6.00,0.00,30.00,M,6.21,M,FEW,M,M,M,2800.00,M,M,M,M,YBBN 121600Z 29006KT 9999 FEW028 17/15 Q1016 NOSIG
YBBN,2014-10-12 16:30,153.1292,-27.3917,62.60,57.20,82.50,0.00,0.00,0.00,30.00,M,6.21,M,FEW,M,M,M,2800.00,M,M,M,M,YBBN 121630Z 00000KT 9999 FEW028 17/14 Q1016
YBBN,2014-10-12 17:00,153.1292,-27.3917,62.60,59.00,88.00,280.00,5.00,0.00,30.00,M,6.21,M,FEW,M,M,M,2800.00,M,M,M,M,YBBN 121700Z 28005KT 9999 FEW028 17/15 Q1016
YBBN,2014-10-12 17:30,153.1292,-27.3917,62.60,57.20,82.50,290.00,4.00,0.00,30.00,M,6.21,M,FEW,M,M,M,2500.00,M,M,M,M,YBBN 121730Z 29004KT 9999 FEW025 17/14 Q1016
YBBN,2014-10-12 18:00,153.1292,-27.3917,60.80,57.20,87.92,0.00,0.00,0.00,30.00,M,6.21,M,FEW,M,M,M,2300.00,M,M,M,M,YBBN 121800Z 00000KT 9999 FEW023 16/14 Q1016
YBBN,2014-10-12 18:30,153.1292,-27.3917,60.80,57.20,87.92,0.00,0.00,0.00,30.00,M,6.21,M,FEW,M,M,M,2300.00,M,M,M,M,YBBN 121830Z 00000KT 9999 FEW023 16/14 Q1016
YBBN,2014-10-12 19:00,153.1292,-27.3917,62.60,57.20,82.50,0.00,0.00,0.00,30.00,M,6.21,M,FEW,SCT,M,M,2500.00,4200.00,M,M,M,YBBN 121900Z 00000KT 9999 FEW025 SCT042 17/14 Q1016
YBBN,2014-10-12 19:30,153.1292,-27.3917,60.80,57.20,87.92,0.00,0.00,0.00,30.00,M,6.21,M,FEW,M,M,M,2500.00,M,M,M,M,YBBN 121930Z 00000KT 9999 FEW025 16/14 Q1016
YBBN,2014-10-12 20:00,153.1292,-27.3917,62.60,59.00,88.00,0.00,0.00,0.00,30.00,M,6.21,M,FEW,M,M,M,2600.00,M,M,M,M,YBBN 122000Z 00000KT 9999 FEW026 17/15 Q1016 NOSIG
YBBN,2014-10-12 20:30,153.1292,-27.3917,66.20,59.00,77.60,270.00,4.00,0.00,30.03,M,6.21,M,FEW,M,M,M,2700.00,M,M,M,M,YBBN 122030Z 27004KT 9999 FEW027 19/15 Q1017
YBBN,2014-10-12 21:00,153.1292,-27.3917,68.00,57.20,68.35,310.00,4.00,0.00,30.03,M,6.21,M,FEW,M,M,M,2800.00,M,M,M,M,YBBN 122100Z 31004KT 9999 FEW028 20/14 Q1017 NOSIG
YBBN,2014-10-12 21:30,153.1292,-27.3917,71.60,57.20,60.44,340.00,7.00,0.00,30.03,M,6.21,M,FEW,M,M,M,3000.00,M,M,M,M,YBBN 122130Z 34007KT 9999 FEW030 22/14 Q1017
YBBN,2014-10-12 22:00,153.1292,-27.3917,71.60,57.20,60.44,330.00,7.00,0.00,30.03,M,6.21,M,FEW,M,M,M,3200.00,M,M,M,M,YBBN 122200Z 33007KT 9999 FEW032 22/14 Q1017 NOSIG
YBBN,2014-10-12 22:30,153.1292,-27.3917,73.40,57.20,56.88,350.00,7.00,0.00,30.03,M,6.21,M,FEW,M,M,M,3200.00,M,M,M,M,YBBN 122230Z 35007KT 9999 FEW032 23/14 Q1017
YBBN,2014-10-12 22:44,153.1292,-27.3917,73.40,59.00,60.67,360.00,8.00,0.00,30.00,M,6.21,M,NCD,M,M,M,M,M,M,M,//,YBBN 122244Z AUTO 36008KT 9999 // NCD 23/15 Q1016
YBBN,2014-10-12 23:00,153.1292,-27.3917,73.40,59.00,60.67,360.00,9.00,0.00,30.00,M,6.21,M,SCT,M,M,M,3200.00,M,M,M,M,YBBN 122300Z 36009KT 9999 SCT032 23/15 Q1016
YBBN,2014-10-12 23:30,153.1292,-27.3917,75.20,59.00,57.12,360.00,11.00,0.00,30.00,M,6.21,M,FEW,M,M,M,3400.00,M,M,M,M,YBBN 122330Z 36011KT 9999 FEW034 24/15 Q1016
