#DEBUG: Format Typ    -> comma
#DEBUG: Time Period   -> 2012-06-13 00:00:00+00:00 2012-06-14 00:00:00+00:00
#DEBUG: Time Zone     -> Etc/UTC
#DEBUG: Data Contact   -> daryl herzmann akrherz@iastate.edu 515-294-5978
#DEBUG: Entries Found -> -1
station,valid,lon,lat,tmpf, dwpf, relh, drct, sknt, p01i, alti, mslp, vsby, gust, skyc1, skyc2, skyc3, skyc4, skyl1, skyl2, skyl3, skyl4, presentwx, metar
YBBN,2012-06-13 00:00,153.1292,-27.3917,66.20,51.80,59.74,210.00,13.00,0.00,29.94,M,6.21,M,M,M,M,M,M,M,M,M,M,YBBN 130000Z 21013KT CAVOK 19/11 Q1014
YBBN,2012-06-13 00:30,153.1292,-27.3917,68.00,51.80,56.13,210.00,13.00,0.00,29.94,M,6.21,M,M,M,M,M,M,M,M,M,M,YBBN 130030Z 21013KT CAVOK 20/11 Q1014
YBBN,2012-06-13 01:00,153.1292,-27.3917,68.00,51.80,56.13,190.00,10.00,0.00,29.94,M,6.21,M,FEW,M,M,M,3000.00,M,M,M,M,YBBN 130100Z 19010KT 9999 FEW030 20/11 Q1014
YBBN,2012-06-13 01:30,153.1292,-27.3917,69.80,50.00,49.37,190.00,10.00,0.00,29.94,M,6.21,M,FEW,M,M,M,3000.00,M,M,M,M,YBBN 130130Z 19010KT 9999 FEW030 21/10 Q1014
YBBN,2012-06-13 02:00,153.1292,-27.3917,69.80,51.80,52.77,180.00,11.00,0.00,29.91,M,6.21,M,FEW,M,M,M,3000.00,M,M,M,M,YBBN 130200Z 18011KT 9999 FEW030 21/11 Q1013 NOSIG
YBBN,2012-06-13 02:30,153.1292,-27.3917,69.80,50.00,49.37,210.00,11.00,0.00,29.91,M,6.21,M,SCT,M,M,M,3000.00,M,M,M,M,YBBN 130230Z 21011KT 9999 SCT030 21/10 Q1013
YBBN,2012-06-13 03:00,153.1292,-27.3917,71.60,50.00,46.43,180.00,9.00,0.00,29.91,M,6.21,M,SCT,M,M,M,3000.00,M,M,M,M,YBBN 130300Z 18009KT 9999 SCT030 22/10 Q1013
YBBN,2012-06-13 03:30,153.1292,-27.3917,71.60,46.40,40.57,190.00,9.00,0.00,29.91,M,6.21,M,SCT,M,M,M,3000.00,M,M,M,M,YBBN 130330Z 19009KT 9999 SCT030 22/08 Q1013
YBBN,2012-06-13 04:00,153.1292,-27.3917,69.80,50.00,49.37,190.00,11.00,0.00,29.91,M,6.21,M,FEW,BKN,M,M,3000.00,5800.00,M,M,M,YBBN 130400Z 19011KT 9999 FEW030 BKN058 21/10 Q1013
YBBN,2012-06-13 04:30,153.1292,-27.3917,69.80,50.00,49.37,190.00,10.00,0.00,29.91,M,6.21,M,SCT,M,M,M,3500.00,M,M,M,M,YBBN 130430Z 19010KT 9999 SCT035 21/10 Q1013
YBBN,2012-06-13 05:00,153.1292,-27.3917,69.80,50.00,49.37,190.00,10.00,0.00,29.91,M,6.21,M,FEW,M,M,M,3500.00,M,M,M,M,YBBN 130500Z 19010KT 9999 FEW035 21/10 Q1013 NOSIG
YBBN,2012-06-13 05:30,153.1292,-27.3917,68.00,48.20,49.10,160.00,10.00,0.00,29.91,M,6.21,M,FEW,SCT,M,M,3500.00,5000.00,M,M,M,YBBN 130530Z 16010KT 9999 FEW035 SCT050 20/09 Q1013
YBBN,2012-06-13 06:00,153.1292,-27.3917,68.00,48.20,49.10,150.00,7.00,0.00,29.91,M,6.21,M,FEW,SCT,M,M,3500.00,5300.00,M,M,M,YBBN 130600Z 15007KT 9999 FEW035 SCT053 20/09 Q1013
YBBN,2012-06-13 06:30,153.1292,-27.3917,66.20,50.00,55.88,160.00,7.00,0.00,29.91,M,6.21,M,FEW,SCT,M,M,3000.00,5500.00,M,M,M,YBBN 130630Z 16007KT 9999 FEW030 SCT055 19/10 Q1013
YBBN,2012-06-13 07:00,153.1292,-27.3917,66.20,48.20,52.25,190.00,8.00,0.00,29.94,M,6.21,M,M,M,M,M,M,M,M,M,M,YBBN 130700Z 19008KT CAVOK 19/09 Q1014 NOSIG
YBBN,2012-06-13 07:30,153.1292,-27.3917,64.40,48.20,55.63,190.00,6.00,0.00,29.94,M,6.21,M,M,M,M,M,M,M,M,M,M,YBBN 130730Z 19006KT CAVOK 18/09 Q1014
YBBN,2012-06-13 08:00,153.1292,-27.3917,60.80,51.80,72.20,200.00,6.00,0.00,29.94,M,6.21,M,M,M,M,M,M,M,M,M,M,YBBN 130800Z 20006KT CAVOK 16/11 Q1014
YBBN,2012-06-13 08:30,153.1292,-27.3917,60.80,51.80,72.20,210.00,5.00,0.00,29.97,M,6.21,M,M,M,M,M,M,M,M,M,M,YBBN 130830Z 21005KT CAVOK 16/11 Q1015
YBBN,2012-06-13 09:00,153.1292,-27.3917,57.20,51.80,82.12,210.00,7.00,0.00,29.97,M,6.21,M,M,M,M,M,M,M,M,M,M,YBBN 130900Z 21007KT CAVOK 14/11 Q1015 NOSIG
YBBN,2012-06-13 09:30,153.1292,-27.3917,59.00,51.80,76.98,210.00,8.00,0.00,29.97,M,6.21,M,M,M,M,M,M,M,M,M,M,YBBN 130930Z 21008KT CAVOK 15/11 Q1015
YBBN,2012-06-13 10:00,153.1292,-27.3917,60.80,51.80,72.20,200.00,7.00,0.00,29.97,M,6.21,M,M,M,M,M,M,M,M,M,M,YBBN 131000Z 20007KT CAVOK 16/11 Q1015
YBBN,2012-06-13 10:30,153.1292,-27.3917,60.80,51.80,72.20,200.00,7.00,0.00,30.00,M,6.21,M,M,M,M,M,M,M,M,M,M,YBBN 131030Z 20007KT CAVOK 16/11 Q1016
YBBN,2012-06-13 11:00,153.1292,-27.3917,59.00,51.80,76.98,200.00,8.00,0.00,30.00,M,6.21,M,FEW,M,M,M,3500.00,M,M,M,M,YBBN 131100Z 20008KT 9999 FEW035 15/11 Q1016
YBBN,2012-06-13 11:30,153.1292,-27.3917,59.00,51.80,76.98,200.00,8.00,0.00,29.97,M,6.21,M,M,M,M,M,M,M,M,M,M,YBBN 131130Z 20008KT CAVOK 15/11 Q1015
YBBN,2012-06-13 12:00,153.1292,-27.3917,57.20,51.80,82.12,200.00,8.00,0.00,29.97,M,6.21,M,M,M,M,M,M,M,M,M,M,YBBN 131200Z 20008KT CAVOK 14/11 Q1015
YBBN,2012-06-13 12:30,153.1292,-27.3917,55.40,51.80,87.65,200.00,8.00,0.00,29.97,M,6.21,M,M,M,M,M,M,M,M,M,M,YBBN 131230Z 20008KT CAVOK 13/11 Q1015
YBBN,2012-06-13 13:00,153.1292,-27.3917,57.20,51.80,82.12,190.00,7.00,0.00,29.97,M,6.21,M,M,M,M,M,M,M,M,M,M,YBBN 131300Z 19007KT CAVOK 14/11 Q1015
YBBN,2012-06-13 13:30,153.1292,-27.3917,57.20,51.80,82.12,200.00,6.00,0.00,29.97,M,6.21,M,M,M,M,M,M,M,M,M,M,YBBN 131330Z 20006KT CAVOK 14/11 Q1015
YBBN,2012-06-13 14:00,153.1292,-27.3917,55.40,50.00,81.99,210.00,7.00,0.00,29.97,M,6.21,M,M,M,M,M,M,M,M,M,M,YBBN 131400Z 21007KT CAVOK 13/10 Q1015
YBBN,2012-06-13 14:30,153.1292,-27.3917,55.40,51.80,87.65,200.00,8.00,0.00,29.97,M,6.21,M,M,M,M,M,M,M,M,M,M,YBBN 131430Z 20008KT CAVOK 13/11 Q1015
YBBN,2012-06-13 15:00,153.1292,-27.3917,53.60,50.00,87.56,220.00,8.00,0.00,29.97,M,6.21,M,M,M,M,M,M,M,M,M,M,YBBN 131500Z 22008KT CAVOK 12/10 Q1015 NOSIG
YBBN,2012-06-13 15:30,153.1292,-27.3917,57.20,50.00,76.82,200.00,8.00,0.00,29.97,M,6.21,M,M,M,M,M,M,M,M,M,M,YBBN 131530Z 20008KT CAVOK 14/10 Q1015
YBBN,2012-06-13 16:00,153.1292,-27.3917,55.40,50.00,81.99,210.00,8.00,0.00,29.97,M,6.21,M,M,M,M,M,M,M,M,M,M,YBBN 131600Z 21008KT CAVOK 13/10 Q1015
YBBN,2012-06-13 16:30,153.1292,-27.3917,53.60,50.00,87.56,210.00,8.00,0.00,29.94,M,6.21,M,M,M,M,M,M,M,M,M,M,YBBN 131630Z 21008KT CAVOK 12/10 Q1014
YBBN,2012-06-13 17:00,153.1292,-27.3917,53.60,50.00,87.56,210.00,7.00,0.00,29.97,M,6.21,M,M,M,M,M,M,M,M,M,M,YBBN 131700Z 21007KT CAVOK 12/10 Q1015
YBBN,2012-06-13 17:30,153.1292,-27.3917,55.40,50.00,81.99,210.00,7.00,0.00,29.97,M,6.21,M,M,M,M,M,M,M,M,M,M,YBBN 131730Z 21007KT CAVOK 13/10 Q1015
YBBN,2012-06-13 18:00,153.1292,-27.3917,55.40,50.00,81.99,200.00,9.00,0.00,29.97,M,6.21,M,M,M,M,M,M,M,M,M,M,YBBN 131800Z 20009KT CAVOK 13/10 Q1015 NOSIG
YBBN,2012-06-13 18:30,153.1292,-27.3917,55.40,50.00,81.99,210.00,9.00,0.00,29.94,M,6.21,M,M,M,M,M,M,M,M,M,M,YBBN 131830Z 21009KT CAVOK 13/10 Q1014
YBBN,2012-06-13 19:00,153.1292,-27.3917,55.40,50.00,81.99,210.00,8.00,0.00,29.97,M,6.21,M,M,M,M,M,M,M,M,M,M,YBBN 131900Z 21008KT CAVOK 13/10 Q1015 NOSIG
YBBN,2012-06-13 19:30,153.1292,-27.3917,53.60,50.00,87.56,210.00,7.00,0.00,29.97,M,6.21,M,M,M,M,M,M,M,M,M,M,YBBN 131930Z 21007KT CAVOK 12/10 Q1015
YBBN,2012-06-13 20:00,153.1292,-27.3917,55.40,50.00,81.99,210.00,7.00,0.00,29.97,M,6.21,M,M,M,M,M,M,M,M,M,M,YBBN 132000Z 21007KT CAVOK 13/10 Q1015 NOSIG
YBBN,2012-06-13 20:30,153.1292,-27.3917,55.40,50.00,81.99,210.00,8.00,0.00,29.97,M,6.21,M,M,M,M,M,M,M,M,M,M,YBBN 132030Z 21008KT CAVOK 13/10 Q1015
YBBN,2012-06-13 21:00,153.1292,-27.3917,55.40,50.00,81.99,210.00,9.00,0.00,30.00,M,6.21,M,FEW,M,M,M,2000.00,M,M,M,M,YBBN 132100Z 21009KT 9999 FEW020 13/10 Q1016 NOSIG
YBBN,2012-06-13 21:30,153.1292,-27.3917,55.40,50.00,81.99,200.00,8.00,0.00,30.00,M,6.21,M,M,M,M,M,M,M,M,M,M,YBBN 132130Z 20008KT CAVOK 13/10 Q1016
YBBN,2012-06-13 22:00,153.1292,-27.3917,59.00,51.80,76.98,210.00,9.00,0.00,30.00,M,6.21,M,M,M,M,M,M,M,M,M,M,YBBN 132200Z 21009KT CAVOK 15/11 Q1016
YBBN,2012-06-13 22:30,153.1292,-27.3917,60.80,51.80,72.20,210.00,12.00,0.00,30.00,M,6.21,M,FEW,M,M,M,2000.00,M,M,M,M,YBBN 132230Z 21012KT 9999 FEW020 16/11 Q1016
YBBN,2012-06-13 23:00,153.1292,-27.3917,62.60,51.80,67.75,200.00,11.00,0.00,30.03,M,6.21,M,M,M,M,M,M,M,M,M,M,YBBN 132300Z 20011KT CAVOK 17/11 Q1017 NOSIG
YBBN,2012-06-13 23:30,153.1292,-27.3917,64.40,51.80,63.60,210.00,11.00,0.00,30.03,M,6.21,M,FEW,M,M,M,2500.00,M,M,M,M,YBBN 132330Z 21011KT 9999 FEW025 18/11 Q1017
