#DEBUG: Format Typ    -> comma
#DEBUG: Time Period   -> 2016-01-10 00:00:00+00:00 2016-01-11 00:00:00+00:00
#DEBUG: Time Zone     -> Etc/UTC
#DEBUG: Data Contact   -> daryl herzmann akrherz@iastate.edu 515-294-5978
#DEBUG: Entries Found -> -1
station,valid,lon,lat,tmpf, dwpf, relh, drct, sknt, p01i, alti, mslp, vsby, gust, skyc1, skyc2, skyc3, skyc4, skyl1, skyl2, skyl3, skyl4, presentwx, metar
YBBN,2016-01-10 00:00,153.1292,-27.3917,78.80,64.40,61.36,50.00,8.00,0.00,30.09,M,6.21,M,SCT,M,M,M,3100.00,M,M,M,M,YBBN 100000Z 05008KT 9999 SCT031 26/18 Q1019 NOSIG
YBBN,2016-01-10 00:30,153.1292,-27.3917,80.60,66.20,61.58,20.00,7.00,0.00,30.09,M,6.21,M,SCT,M,M,M,3300.00,M,M,M,M,YBBN 100030Z 02007KT 9999 SCT033 27/19 Q1019 NOSIG
YBBN,2016-01-10 01:00,153.1292,-27.3917,80.60,66.20,61.58,30.00,9.00,0.00,30.06,M,6.21,M,SCT,M,M,M,3500.00,M,M,M,M,YBBN 100100Z 03009KT 9999 SCT035 27/19 Q1018 NOSIG
YBBN,2016-01-10 01:30,153.1292,-27.3917,80.60,66.20,61.58,30.00,9.00,0.00,30.06,M,6.21,M,SCT,M,M,M,3500.00,M,M,M,M,YBBN 100130Z 03009KT 9999 SCT035 27/19 Q1018 NOSIG
YBBN,2016-01-10 02:00,153.1292,-27.3917,82.40,66.20,58.08,30.00,10.00,0.00,30.06,M,6.21,M,SCT,M,M,M,4000.00,M,M,M,M,YBBN 100200Z 03010KT 9999 SCT040 28/19 Q1018 NOSIG
YBBN,2016-01-10 02:30,153.1292,-27.3917,78.80,64.40,61.36,40.00,9.00,0.00,30.03,M,6.21,M,SCT,M,M,M,4000.00,M,M,M,M,YBBN 100230Z 04009KT 9999 SCT040 26/18 Q1017 NOSIG
YBBN,2016-01-10 03:00,153.1292,-27.3917,82.40,64.40,54.55,40.00,9.00,0.00,30.03,M,6.21,M,SCT,M,M,M,4000.00,M,M,M,M,YBBN 100300Z 04009KT 9999 SCT040 28/18 Q1017
YBBN,2016-01-10 03:30,153.1292,-27.3917,78.80,62.60,57.60,60.00,10.00,0.00,30.03,M,6.21,M,FEW,SCT,M,M,4000.00,7500.00,M,M,M,YBBN 100330Z 06010KT 9999 FEW040 SCT075 26/17 Q1017 NOSIG
YBBN,2016-01-10 04:00,153.1292,-27.3917,80.60,66.20,61.58,70.00,10.00,0.00,30.00,M,6.21,M,FEW,SCT,M,M,3500.00,9000.00,M,M,M,YBBN 100400Z 07010KT 9999 FEW035 SCT090 27/19 Q1016 NOSIG
YBBN,2016-01-10 04:30,153.1292,-27.3917,80.60,64.40,57.84,70.00,10.00,0.00,30.00,M,6.21,M,FEW,M,M,M,3500.00,M,M,M,M,YBBN 100430Z 07010KT 9999 FEW035 27/18 Q1016 NOSIG
YBBN,2016-01-10 05:00,153.1292,-27.3917,80.60,66.20,61.58,70.00,11.00,0.00,30.00,M,6.21,M,FEW,M,M,M,3500.00,M,M,M,M,YBBN 100500Z 07011KT 9999 FEW035 27/19 Q1016
YBBN,2016-01-10 05:30,153.1292,-27.3917,82.40,66.20,58.08,60.00,12.00,0.00,29.97,M,6.21,M,FEW,M,M,M,3200.00,M,M,M,M,YBBN 100530Z 06012KT 9999 FEW032 28/19 Q1015 NOSIG
YBBN,2016-01-10 06:00,153.1292,-27.3917,80.60,64.40,57.84,60.00,11.00,0.00,29.97,M,6.21,M,FEW,M,M,M,3200.00,M,M,M,M,YBBN 100600Z 06011KT 9999 FEW032 27/18 Q1015
YBBN,2016-01-10 06:30,153.1292,-27.3917,80.60,64.40,57.84,70.00,7.00,0.00,30.00,M,6.21,M,FEW,M,M,M,3500.00,M,M,M,M,YBBN 100630Z 07007KT 9999 FEW035 27/18 Q1016 NOSIG
YBBN,2016-01-10 07:00,153.1292,-27.3917,80.60,62.60,54.30,80.00,7.00,0.00,30.00,M,6.21,M,FEW,M,M,M,3500.00,M,M,M,M,YBBN 100700Z 08007KT 9999 FEW035 27/17 Q1016 NOSIG
YBBN,2016-01-10 07:30,153.1292,-27.3917,78.80,64.40,61.36,90.00,7.00,0.00,30.00,M,6.21,M,FEW,M,M,M,3000.00,M,M,M,M,YBBN 100730Z 09007KT 9999 FEW030 26/18 Q1016 NOSIG
YBBN,2016-01-10 08:00,153.1292,-27.3917,78.80,62.60,57.60,90.00,7.00,0.00,30.03,M,6.21,M,FEW,M,M,M,3000.00,M,M,M,M,YBBN 100800Z 09007KT 9999 FEW030 26/17 Q1017 NOSIG
YBBN,2016-01-10 08:30,153.1292,-27.3917,77.00,62.60,61.13,90.00,8.00,0.00,30.03,M,6.21,M,FEW,BKN,M,M,3000.00,4800.00,M,M,M,YBBN 100830Z 09008KT 9999 FEW030 BKN048 25/17 Q1017 NOSIG
YBBN,2016-01-10 09:00,153.1292,-27.3917,77.00,64.40,65.12,80.00,7.00,0.00,30.03,M,6.21,M,FEW,BKN,M,M,3000.00,5000.00,M,M,M,YBBN 100900Z 08007KT 9999 FEW030 BKN050 25/18 Q1017
YBBN,2016-01-10 09:30,153.1292,-27.3917,77.00,64.40,65.12,90.00,7.00,0.00,30.06,M,6.21,M,FEW,SCT,BKN,M,3000.00,4400.00,5200.00,M,M,YBBN 100930Z 09007KT 9999 FEW030 SCT044 BKN052 25/18 Q1018 NOSIG
YBBN,2016-01-10 10:00,153.1292,-27.3917,77.00,64.40,65.12,80.00,7.00,0.00,30.06,M,6.21,M,FEW,BKN,BKN,M,3000.00,3900.00,5100.00,M,M,YBBN 101000Z 08007KT 9999 FEW030 BKN039 BKN051 25/18 Q1018
YBBN,2016-01-10 10:30,153.1292,-27.3917,77.00,64.40,65.12,90.00,5.00,0.00,30.06,M,6.21,M,SCT,BKN,M,M,2900.00,3700.00,M,M,M,YBBN 101030Z 09005KT 9999 SCT029 BKN037 25/18 Q1018 NOSIG
YBBN,2016-01-10 11:00,153.1292,-27.3917,77.00,64.40,65.12,90.00,5.00,0.00,30.06,M,6.21,M,FEW,BKN,BKN,M,2900.00,4100.00,5100.00,M,M,YBBN 101100Z 09005KT 9999 FEW029 BKN041 BKN051 25/18 Q1018 NOSIG
YBBN,2016-01-10 11:30,153.1292,-27.3917,75.20,64.40,69.14,80.00,5.00,0.00,30.06,M,6.21,M,FEW,SCT,BKN,M,2900.00,3700.00,5900.00,M,M,YBBN 101130Z 08005KT 9999 FEW029 SCT037 BKN059 24/18 Q1018
YBBN,2016-01-10 12:00,153.1292,-27.3917,75.20,64.40,69.14,90.00,4.00,0.00,30.06,M,6.21,M,SCT,BKN,BKN,M,3000.00,3700.00,5900.00,M,M,YBBN 101200Z 09004KT 9999 SCT030 BKN037 BKN059 24/18 Q1018
YBBN,2016-01-10 12:30,153.1292,-27.3917,75.20,66.20,73.61,90.00,5.00,0.00,30.06,M,6.21,M,SCT,SCT,BKN,M,2600.00,3200.00,4100.00,M,M,YBBN 101230Z 09005KT 9999 SCT026 SCT032 BKN041 24/19 Q1018 NOSIG
YBBN,2016-01-10 13:00,153.1292,-27.3917,75.20,64.40,69.14,90.00,5.00,0.00,30.06,M,6.21,M,SCT,SCT,M,M,2400.00,3300.00,M,M,M,YBBN 101300Z 09005KT 9999 SCT024 SCT033 24/18 Q1018
YBBN,2016-01-10 13:30,153.1292,-27.3917,75.20,64.40,69.14,110.00,5.00,0.00,30.03,M,6.21,M,FEW,SCT,M,M,2400.00,3500.00,M,M,M,YBBN 101330Z 11005KT 9999 FEW024 SCT035 24/18 Q1017 NOSIG
YBBN,2016-01-10 14:00,153.1292,-27.3917,75.20,64.40,69.14,100.00,3.00,0.00,30.03,M,6.21,M,FEW,SCT,M,M,2700.00,4100.00,M,M,M,YBBN 101400Z 10003KT 9999 FEW027 SCT041 24/18 Q1017
YBBN,2016-01-10 14:30,153.1292,-27.3917,75.20,64.40,69.14,110.00,5.00,0.00,30.03,M,6.21,M,SCT,BKN,M,M,2500.00,4100.00,M,M,M,YBBN 101430Z 11005KT 9999 SCT025 BKN041 24/18 Q1017
YBBN,2016-01-10 15:00,153.1292,-27.3917,75.20,64.40,69.14,90.00,2.00,0.00,30.00,M,6.21,M,FEW,SCT,M,M,2500.00,4100.00,M,M,M,YBBN 101500Z 09002KT 9999 FEW025 SCT041 24/18 Q1016
YBBN,2016-01-10 15:30,153.1292,-27.3917,73.40,64.40,73.44,110.00,3.00,0.00,30.00,M,6.21,M,FEW,BKN,BKN,M,2500.00,3500.00,4200.00,M,M,YBBN 101530Z 11003KT 9999 FEW025 BKN035 BKN042 23/18 Q1016 NOSIG
YBBN,2016-01-10 16:00,153.1292,-27.3917,71.60,66.20,83.09,200.00,4.00,0.00,30.00,M,6.21,M,FEW,SCT,M,M,2500.00,5100.00,M,M,M,YBBN 101600Z 20004KT 9999 FEW025 SCT051 22/19 Q1016
YBBN,2016-01-10 16:30,153.1292,-27.3917,71.60,66.20,83.09,190.00,4.00,0.00,30.00,M,6.21,M,SCT,SCT,M,M,2500.00,4500.00,M,M,M,YBBN 101630Z 19004KT 9999 SCT025 SCT045 22/19 Q1016 NOSIG
YBBN,2016-01-10 17:00,153.1292,-27.3917,71.60,66.20,83.09,200.00,5.00,0.00,30.00,M,6.21,M,FEW,M,M,M,2500.00,M,M,M,M,YBBN 101700Z 20005KT 9999 FEW025 22/19 Q1016 NOSIG
YBBN,2016-01-10 17:30,153.1292,-27.3917,71.60,66.20,83.09,0.00,0.00,0.00,30.00,M,6.21,M,FEW,M,M,M,2000.00,M,M,M,M,YBBN 101730Z 00000KT 9999 FEW020 22/19 Q1016 NOSIG
YBBN,2016-01-10 18:00,153.1292,-27.3917,69.80,64.40,82.98,200.00,1.00,0.00,30.00,M,6.21,M,FEW,M,M,M,2000.00,M,M,M,M,YBBN 101800Z 20001KT 9999 FEW020 21/18 Q1016
YBBN,2016-01-10 18:30,153.1292,-27.3917,68.00,64.40,88.26,200.00,5.00,0.00,30.00,M,6.21,M,FEW,M,M,M,2000.00,M,M,M,M,YBBN 101830Z 20005KT 9999 FEW020 20/18 Q1016 NOSIG
YBBN,2016-01-10 19:00,153.1292,-27.3917,68.00,64.40,88.26,190.00,5.00,0.00,30.00,M,6.21,M,FEW,M,M,M,2000.00,M,M,M,M,YBBN 101900Z 19005KT 9999 FEW020 20/18 Q1016
YBBN,2016-01-10 19:30,153.1292,-27.3917,69.80,66.20,88.34,190.00,3.00,0.00,30.00,M,6.21,M,FEW,M,M,M,2000.00,M,M,M,M,YBBN 101930Z 19003KT 9999 FEW020 21/19 Q1016 NOSIG
YBBN,2016-01-10 20:00,153.1292,-27.3917,71.60,66.20,83.09,200.00,3.00,0.00,30.03,M,6.21,M,FEW,M,M,M,2000.00,M,M,M,M,YBBN 102000Z 20003KT 9999 FEW020 22/19 Q1017
YBBN,2016-01-10 20:30,153.1292,-27.3917,73.40,66.20,78.19,190.00,5.00,0.00,30.03,M,6.21,M,FEW,M,M,M,2000.00,M,M,M,M,YBBN 102030Z 19005KT 9999 FEW020 23/19 Q1017 NOSIG
YBBN,2016-01-10 21:00,153.1292,-27.3917,75.20,64.40,69.14,210.00,5.00,0.00,30.03,M,6.21,M,FEW,M,M,M,2000.00,M,M,M,M,YBBN 102100Z 21005KT 9999 FEW020 24/18 Q1017 NOSIG
YBBN,2016-01-10 23:30,153.1292,-27.3917,78.80,62.60,57.60,50.00,7.00,0.00,30.03,M,6.21,M,SCT,M,M,M,3500.00,M,M,M,M,YBBN 102330Z 05007KT 9999 SCT035 26/17 Q1017
