#DEBUG: Format Typ    -> comma
#DEBUG: Time Period   -> 2016-05-10 00:00:00+00:00 2016-05-11 00:00:00+00:00
#DEBUG: Time Zone     -> Etc/UTC
#DEBUG: Data Contact   -> daryl herzmann akrherz@iastate.edu 515-294-5978
#DEBUG: Entries Found -> -1
station,valid,lon,lat,tmpf, dwpf, relh, drct, sknt, p01i, alti, mslp, vsby, gust, skyc1, skyc2, skyc3, skyc4, skyl1, skyl2, skyl3, skyl4, presentwx, metar
YBBN,2016-05-10 00:00,153.1292,-27.3917,77.00,66.20,69.33,10.00,6.00,0.00,29.88,M,6.21,M,FEW,SCT,BKN,M,2000.00,7200.00,8700.00,M,M,YBBN 100000Z 01006KT 9999 FEW020 SCT072 BKN087 25/19 Q1012 NOSIG
YBBN,2016-05-10 00:30,153.1292,-27.3917,78.80,64.40,61.36,360.00,7.00,0.00,29.88,M,6.21,M,FEW,SCT,BKN,M,2000.00,7500.00,8800.00,M,M,YBBN 100030Z 36007KT 9999 FEW020 SCT075 BKN088 26/18 Q1012 NOSIG
YBBN,2016-05-10 01:00,153.1292,-27.3917,80.60,66.20,61.58,10.00,6.00,0.00,29.85,M,6.21,M,FEW,BKN,M,M,2000.00,7600.00,M,M,M,YBBN 100100Z 01006KT 9999 FEW020 BKN076 27/19 Q1011 NOSIG
YBBN,2016-05-10 01:30,153.1292,-27.3917,80.60,64.40,57.84,360.00,6.00,0.00,29.85,M,6.21,M,FEW,SCT,BKN,M,2000.00,6000.00,8000.00,M,M,YBBN 100130Z 36006KT 9999 FEW020 SCT060 BKN080 27/18 Q1011 NOSIG
YBBN,2016-05-10 02:00,153.1292,-27.3917,82.40,64.40,54.55,270.00,13.00,0.00,29.83,M,6.21,M,M,M,M,M,M,M,M,M,M,YBBN 100200Z 27013KT CAVOK 28/18 Q1010 NOSIG
YBBN,2016-05-10 02:30,153.1292,-27.3917,80.60,64.40,57.84,250.00,14.00,0.00,29.83,M,6.21,M,M,M,M,M,M,M,M,M,M,YBBN 100230Z 25014KT CAVOK 27/18 Q1010 NOSIG
YBBN,2016-05-10 03:00,153.1292,-27.3917,82.40,64.40,54.55,240.00,13.00,0.00,29.83,M,6.21,M,FEW,BKN,M,M,4500.00,30000.00,M,M,M,YBBN 100300Z 24013KT 9999 FEW045 BKN300 28/18 Q1010 NOSIG
YBBN,2016-05-10 03:30,153.1292,-27.3917,82.40,64.40,54.55,240.00,14.00,0.00,29.83,M,6.21,M,FEW,BKN,M,M,4000.00,30000.00,M,M,M,YBBN 100330Z 24014KT 9999 FEW040 BKN300 28/18 Q1010 NOSIG
YBBN,2016-05-10 04:00,153.1292,-27.3917,82.40,64.40,54.55,240.00,15.00,0.00,29.80,M,6.21,M,FEW,BKN,M,M,4000.00,30000.00,M,M,M,YBBN 100400Z 24015KT 9999 FEW040 BKN300 28/18 Q1009 NOSIG
YBBN,2016-05-10 04:30,153.1292,-27.3917,82.40,62.60,51.21,270.00,13.00,0.00,29.80,M,6.21,M,FEW,BKN,M,M,4500.00,30000.00,M,M,M,YBBN 100430Z 27013KT 9999 FEW045 BKN300 28/17 Q1009 NOSIG
YBBN,2016-05-10 05:00,153.1292,-27.3917,80.60,60.80,50.95,270.00,10.00,0.00,29.83,M,6.21,M,M,M,M,M,M,M,M,M,M,YBBN 100500Z 27010KT CAVOK 27/16 Q1010 NOSIG
YBBN,2016-05-10 05:30,153.1292,-27.3917,78.80,60.80,54.05,260.00,14.00,0.00,29.83,M,6.21,M,FEW,BKN,M,M,4000.00,30000.00,M,M,M,YBBN 100530Z 26014KT 9999 FEW040 BKN300 26/16 Q1010 NOSIG
YBBN,2016-05-10 06:00,153.1292,-27.3917,78.80,59.00,50.69,250.00,15.00,0.00,29.83,M,6.21,M,M,M,M,M,M,M,M,M,M,YBBN 100600Z 25015KT CAVOK 26/15 Q1010 NOSIG
YBBN,2016-05-10 06:30,153.1292,-27.3917,77.00,59.00,53.80,260.00,13.00,0.00,29.83,M,6.21,M,M,M,M,M,M,M,M,M,M,YBBN 100630Z 26013KT CAVOK 25/15 Q1010 NOSIG
YBBN,2016-05-10 07:00,153.1292,-27.3917,77.00,59.00,53.80,280.00,11.00,0.00,29.85,M,6.21,M,M,M,M,M,M,M,M,M,M,YBBN 100700Z 28011KT CAVOK 25/15 Q1011 NOSIG
YBBN,2016-05-10 07:30,153.1292,-27.3917,75.20,59.00,57.12,280.00,7.00,0.00,29.85,M,6.21,M,M,M,M,M,M,M,M,M,M,YBBN 100730Z 28007KT CAVOK 24/15 Q1011 NOSIG
YBBN,2016-05-10 08:00,153.1292,-27.3917,75.20,59.00,57.12,280.00,7.00,0.00,29.88,M,6.21,M,M,M,M,M,M,M,M,M,M,YBBN 100800Z 28007KT CAVOK 24/15 Q1012
YBBN,2016-05-10 08:30,153.1292,-27.3917,73.40,60.80,64.69,310.00,6.00,0.00,29.88,M,6.21,M,M,M,M,M,M,M,M,M,M,YBBN 100830Z 31006KT CAVOK 23/16 Q1012 NOSIG
YBBN,2016-05-10 09:00,153.1292,-27.3917,73.40,59.00,60.67,280.00,7.00,0.00,29.91,M,6.21,M,M,M,M,M,M,M,M,M,M,YBBN 100900Z 28007KT CAVOK 23/15 Q1013
YBBN,2016-05-10 09:30,153.1292,-27.3917,73.40,55.40,53.29,250.00,13.00,0.00,29.91,M,6.21,M,M,M,M,M,M,M,M,M,M,YBBN 100930Z 25013KT CAVOK 23/13 Q1013 NOSIG
YBBN,2016-05-10 10:00,153.1292,-27.3917,73.40,50.00,43.69,260.00,17.00,0.00,29.91,M,6.21,M,M,M,M,M,M,M,M,M,M,YBBN 101000Z 26017KT CAVOK 23/10 Q1013 NOSIG
YBBN,2016-05-10 10:30,153.1292,-27.3917,71.60,48.20,43.42,260.00,14.00,0.00,29.91,M,6.21,M,M,M,M,M,M,M,M,M,M,YBBN 101030Z 26014KT CAVOK 22/09 Q1013 NOSIG
YBBN,2016-05-10 11:00,153.1292,-27.3917,71.60,46.40,40.57,250.00,14.00,0.00,29.94,M,6.21,M,M,M,M,M,M,M,M,M,M,YBBN 101100Z 25014KT CAVOK 22/08 Q1014 NOSIG
YBBN,2016-05-10 11:30,153.1292,-27.3917,71.60,48.20,43.42,250.00,13.00,0.00,29.94,M,6.21,M,M,M,M,M,M,M,M,M,M,YBBN 101130Z 25013KT CAVOK 22/09 Q1014 NOSIG
YBBN,2016-05-10 12:00,153.1292,-27.3917,69.80,48.20,46.16,250.00,13.00,0.00,29.94,M,6.21,M,M,M,M,M,M,M,M,M,M,YBBN 101200Z 25013KT CAVOK 21/09 Q1014 NOSIG
YBBN,2016-05-10 12:30,153.1292,-27.3917,69.80,48.20,46.16,250.00,10.00,0.00,29.94,M,6.21,M,M,M,M,M,M,M,M,M,M,YBBN 101230Z 25010KT CAVOK 21/09 Q1014 NOSIG
YBBN,2016-05-10 13:00,153.1292,-27.3917,69.80,50.00,49.37,250.00,9.00,0.00,29.94,M,6.21,M,M,M,M,M,M,M,M,M,M,YBBN 101300Z 25009KT CAVOK 21/10 Q1014 NOSIG
YBBN,2016-05-10 13:30,153.1292,-27.3917,68.00,50.00,52.51,250.00,8.00,0.00,29.94,M,6.21,M,M,M,M,M,M,M,M,M,M,YBBN 101330Z 25008KT CAVOK 20/10 Q1014 NOSIG
YBBN,2016-05-10 14:00,153.1292,-27.3917,66.20,50.00,55.88,240.00,8.00,0.00,29.94,M,6.21,M,M,M,M,M,M,M,M,M,M,YBBN 101400Z 24008KT CAVOK 19/10 Q1014 NOSIG
YBBN,2016-05-10 14:30,153.1292,-27.3917,66.20,50.00,55.88,230.00,7.00,0.00,29.94,M,6.21,M,M,M,M,M,M,M,M,M,M,YBBN 101430Z 23007KT CAVOK 19/10 Q1014 NOSIG
YBBN,2016-05-10 15:00,153.1292,-27.3917,66.20,50.00,55.88,230.00,8.00,0.00,29.91,M,6.21,M,M,M,M,M,M,M,M,M,M,YBBN 101500Z 23008KT CAVOK 19/10 Q1013
YBBN,2016-05-10 15:30,153.1292,-27.3917,66.20,50.00,55.88,240.00,10.00,0.00,29.91,M,6.21,M,M,M,M,M,M,M,M,M,M,YBBN 101530Z 24010KT CAVOK 19/10 Q1013 NOSIG
YBBN,2016-05-10 16:00,153.1292,-27.3917,66.20,50.00,55.88,230.00,9.00,0.00,29.91,M,6.21,M,M,M,M,M,M,M,M,M,M,YBBN 101600Z 23009KT CAVOK 19/10 Q1013 NOSIG
YBBN,2016-05-10 16:30,153.1292,-27.3917,66.20,48.20,52.25,230.00,7.00,0.00,29.91,M,6.21,M,M,M,M,M,M,M,M,M,M,YBBN 101630Z 23007KT CAVOK 19/09 Q1013 NOSIG
YBBN,2016-05-10 17:00,153.1292,-27.3917,66.20,48.20,52.25,250.00,8.00,0.00,29.91,M,6.21,M,M,M,M,M,M,M,M,M,M,YBBN 101700Z 25008KT CAVOK 19/09 Q1013 NOSIG
YBBN,2016-05-10 17:30,153.1292,-27.3917,66.20,50.00,55.88,240.00,7.00,0.00,29.91,M,6.21,M,M,M,M,M,M,M,M,M,M,YBBN 101730Z 24007KT CAVOK 19/10 Q1013 NOSIG
YBBN,2016-05-10 18:00,153.1292,-27.3917,64.40,50.00,59.50,260.00,8.00,0.00,29.91,M,6.21,M,M,M,M,M,M,M,M,M,M,YBBN 101800Z 26008KT CAVOK 18/10 Q1013 NOSIG
YBBN,2016-05-10 18:30,153.1292,-27.3917,66.20,48.20,52.25,250.00,8.00,0.00,29.91,M,6.21,M,M,M,M,M,M,M,M,M,M,YBBN 101830Z 25008KT CAVOK 19/09 Q1013 NOSIG
YBBN,2016-05-10 19:00,153.1292,-27.3917,66.20,50.00,55.88,260.00,6.00,0.00,29.94,M,6.21,M,M,M,M,M,M,M,M,M,M,YBBN 101900Z 26006KT CAVOK 19/10 Q1014 NOSIG
YBBN,2016-05-10 19:30,153.1292,-27.3917,64.40,50.00,59.50,240.00,7.00,0.00,29.94,M,6.21,M,M,M,M,M,M,M,M,M,M,YBBN 101930Z 24007KT CAVOK 18/10 Q1014 NOSIG
YBBN,2016-05-10 20:00,153.1292,-27.3917,64.40,50.00,59.50,300.00,5.00,0.00,29.94,M,6.21,M,M,M,M,M,M,M,M,M,M,YBBN 102000Z 30005KT CAVOK 18/10 Q1014
YBBN,2016-05-10 20:30,153.1292,-27.3917,66.20,48.20,52.25,220.00,3.00,0.00,29.94,M,6.21,M,M,M,M,M,M,M,M,M,M,YBBN 102030Z 22003KT CAVOK 19/09 Q1014 NOSIG
YBBN,2016-05-10 21:00,153.1292,-27.3917,66.20,50.00,55.88,240.00,10.00,0.00,29.97,M,6.21,M,M,M,M,M,M,M,M,M,M,YBBN 102100Z 24010KT CAVOK 19/10 Q1015 NOSIG
YBBN,2016-05-10 21:30,153.1292,-27.3917,66.20,50.00,55.88,240.00,10.00,0.00,29.97,M,6.21,M,M,M,M,M,M,M,M,M,M,YBBN 102130Z 24010KT CAVOK 19/10 Q1015
YBBN,2016-05-10 22:00,153.1292,-27.3917,66.20,50.00,55.88,240.00,11.00,0.00,30.00,M,6.21,M,M,M,M,M,M,M,M,M,M,YBBN 102200Z 24011KT CAVOK 19/10 Q1016 NOSIG
YBBN,2016-05-10 22:30,153.1292,-27.3917,68.00,50.00,52.51,240.00,13.00,0.00,30.00,M,6.21,M,M,M,M,M,M,M,M,M,M,YBBN 102230Z 24013KT CAVOK 20/10 Q1016 NOSIG
YBBN,2016-05-10 23:00,153.1292,-27.3917,69.80,50.00,49.37,230.00,13.00,0.00,30.00,M,6.21,M,M,M,M,M,M,M,M,M,M,YBBN 102300Z 23013KT CAVOK 21/10 Q1016 NOSIG
YBBN,2016-05-10 23:30,153.1292,-27.3917,69.80,50.00,49.37,210.00,13.00,0.00,30.00,M,6.21,M,M,M,M,M,M,M,M,M,M,YBBN 102330Z 21013KT CAVOK 21/10 Q1016 NOSIG
