#DEBUG: Format Typ    -> comma
#DEBUG: Time Period   -> 2014-07-07 00:00:00+00:00 2014-07-08 00:00:00+00:00
#DEBUG: Time Zone     -> Etc/UTC
#DEBUG: Data Contact   -> daryl herzmann akrherz@iastate.edu 515-294-5978
#DEBUG: Entries Found -> -1
station,valid,lon,lat,tmpf, dwpf, relh, drct, sknt, p01i, alti, mslp, vsby, gust, skyc1, skyc2, skyc3, skyc4, skyl1, skyl2, skyl3, skyl4, presentwx, metar
YBBN,2014-07-07 00:00,153.1292,-27.3917,59.00,28.40,30.98,240.00,15.00,0.00,29.97,M,6.21,M,M,M,M,M,M,M,M,M,M,YBBN 070000Z 24015KT CAVOK 15/M02 Q1015 NOSIG
YBBN,2014-07-07 00:30,153.1292,-27.3917,60.80,26.60,26.98,220.00,14.00,0.00,29.97,M,6.21,M,M,M,M,M,M,M,M,M,M,YBBN 070030Z 22014KT CAVOK 16/M03 Q1015
YBBN,2014-07-07 01:00,153.1292,-27.3917,60.80,28.40,29.06,220.00,15.00,0.00,29.97,M,6.21,M,M,M,M,M,M,M,M,M,M,YBBN 070100Z 22015KT CAVOK 16/M02 Q1015 NOSIG
YBBN,2014-07-07 01:30,153.1292,-27.3917,62.60,26.60,25.32,210.00,13.00,0.00,29.97,M,6.21,M,M,M,M,M,M,M,M,M,M,YBBN 070130Z 21013KT CAVOK 17/M03 Q1015
YBBN,2014-07-07 02:00,153.1292,-27.3917,62.60,26.60,25.32,210.00,13.00,0.00,29.97,M,6.21,M,M,M,M,M,M,M,M,M,M,YBBN 070200Z 21013KT CAVOK 17/M03 Q1015 NOSIG
YBBN,2014-07-07 02:30,153.1292,-27.3917,62.60,26.60,25.32,230.00,9.00,0.00,29.94,M,6.21,M,M,M,M,M,M,M,M,M,M,YBBN 070230Z 23009KT CAVOK 17/M03 Q1014
YBBN,2014-07-07 03:00,153.1292,-27.3917,64.40,26.60,23.77,300.00,5.00,0.00,29.94,M,6.21,M,M,M,M,M,M,M,M,M,M,YBBN 070300Z 30005KT CAVOK 18/M03 Q1014 NOSIG
YBBN,2014-07-07 03:30,153.1292,-27.3917,66.20,26.60,22.33,250.00,10.00,0.00,29.91,M,6.21,M,M,M,M,M,M,M,M,M,M,YBBN 070330Z 25010KT CAVOK 19/M03 Q1013
YBBN,2014-07-07 04:00,153.1292,-27.3917,66.20,23.00,19.22,210.00,9.00,0.00,29.91,M,6.21,M,M,M,M,M,M,M,M,M,M,YBBN 070400Z 21009KT CAVOK 19/M05 Q1013 NOSIG
YBBN,2014-07-07 04:30,153.1292,-27.3917,66.20,24.80,20.72,270.00,11.00,0.00,29.91,M,6.21,M,M,M,M,M,M,M,M,M,M,YBBN 070430Z 27011KT CAVOK 19/M04 Q1013
YBBN,2014-07-07 05:00,153.1292,-27.3917,66.20,26.60,22.33,240.00,8.00,0.00,29.91,M,6.21,M,M,M,M,M,M,M,M,M,M,YBBN 070500Z 24008KT CAVOK 19/M03 Q1013 NOSIG
YBBN,2014-07-07 05:30,153.1292,-27.3917,66.20,28.40,24.04,240.00,9.00,0.00,29.91,M,6.21,M,M,M,M,M,M,M,M,M,M,YBBN 070530Z 24009KT CAVOK 19/M02 Q1013
YBBN,2014-07-07 06:00,153.1292,-27.3917,66.20,28.40,24.04,230.00,8.00,0.00,29.91,M,6.21,M,M,M,M,M,M,M,M,M,M,YBBN 070600Z 23008KT CAVOK 19/M02 Q1013 NOSIG
YBBN,2014-07-07 06:30,153.1292,-27.3917,64.40,28.40,25.60,240.00,9.00,0.00,29.91,M,6.21,M,M,M,M,M,M,M,M,M,M,YBBN 070630Z 24009KT CAVOK 18/M02 Q1013
YBBN,2014-07-07 07:00,153.1292,-27.3917,60.80,32.00,33.64,240.00,6.00,0.00,29.91,M,6.21,M,M,M,M,M,M,M,M,M,M,YBBN 070700Z 24006KT CAVOK 16/M00 Q1013 NOSIG
YBBN,2014-07-07 07:30,153.1292,-27.3917,59.00,33.80,38.56,260.00,5.00,0.00,29.94,M,6.21,M,M,M,M,M,M,M,M,M,M,YBBN 070730Z 26005KT CAVOK 15/01 Q1014
YBBN,2014-07-07 08:00,153.1292,-27.3917,59.00,35.60,41.42,260.00,5.00,0.00,29.94,M,6.21,M,M,M,M,M,M,M,M,M,M,YBBN 070800Z 26005KT CAVOK 15/02 Q1014 NOSIG
YBBN,2014-07-07 08:30,153.1292,-27.3917,57.20,35.60,44.19,260.00,6.00,0.00,29.97,M,6.21,M,M,M,M,M,M,M,M,M,M,YBBN 070830Z 26006KT CAVOK 14/02 Q1015
YBBN,2014-07-07 09:00,153.1292,-27.3917,55.40,33.80,43.90,250.00,7.00,0.00,29.97,M,6.21,M,M,M,M,M,M,M,M,M,M,YBBN 070900Z 25007KT CAVOK 13/01 Q1015 NOSIG
YBBN,2014-07-07 09:30,153.1292,-27.3917,55.40,32.00,40.84,260.00,6.00,0.00,29.97,M,6.21,M,M,M,M,M,M,M,M,M,M,YBBN 070930Z 26006KT CAVOK 13/00 Q1015
YBBN,2014-07-07 10:00,153.1292,-27.3917,53.60,33.80,46.88,250.00,5.00,0.00,29.97,M,6.21,M,M,M,M,M,M,M,M,M,M,YBBN 071000Z 25005KT CAVOK 12/01 Q1015 NOSIG
YBBN,2014-07-07 10:30,153.1292,-27.3917,51.80,35.60,53.81,240.00,1.00,0.00,30.00,M,6.21,M,M,M,M,M,M,M,M,M,M,YBBN 071030Z 24001KT CAVOK 11/02 Q1016
YBBN,2014-07-07 11:00,153.1292,-27.3917,51.80,33.80,50.08,230.00,4.00,0.00,30.00,M,6.21,M,M,M,M,M,M,M,M,M,M,YBBN 071100Z 23004KT CAVOK 11/01 Q1016
YBBN,2014-07-07 11:30,153.1292,-27.3917,51.80,33.80,50.08,250.00,5.00,0.00,30.00,M,6.21,M,M,M,M,M,M,M,M,M,M,YBBN 071130Z 25005KT CAVOK 11/01 Q1016
YBBN,2014-07-07 12:00,153.1292,-27.3917,50.00,33.80,53.54,230.00,5.00,0.00,30.00,M,6.21,M,M,M,M,M,M,M,M,M,M,YBBN 071200Z 23005KT CAVOK 10/01 Q1016
YBBN,2014-07-07 12:30,153.1292,-27.3917,48.20,33.80,57.26,270.00,2.00,0.00,30.00,M,6.21,M,M,M,M,M,M,M,M,M,M,YBBN 071230Z 27002KT CAVOK 09/01 Q1016
YBBN,2014-07-07 13:00,153.1292,-27.3917,46.40,37.40,70.68,290.00,3.00,0.00,30.00,M,6.21,M,M,M,M,M,M,M,M,M,M,YBBN 071300Z 29003KT CAVOK 08/03 Q1016
YBBN,2014-07-07 13:30,153.1292,-27.3917,46.40,35.60,65.83,270.00,5.00,0.00,30.00,M,6.21,M,M,M,M,M,M,M,M,M,M,YBBN 071330Z 27005KT CAVOK 08/02 Q1016
YBBN,2014-07-07 14:00,153.1292,-27.3917,48.20,33.80,57.26,220.00,5.00,0.00,30.00,M,6.21,M,M,M,M,M,M,M,M,M,M,YBBN 071400Z 22005KT CAVOK 09/01 Q1016
YBBN,2014-07-07 14:30,153.1292,-27.3917,46.40,33.80,61.28,240.00,5.00,0.00,29.97,M,6.21,M,M,M,M,M,M,M,M,M,M,YBBN 071430Z 24005KT CAVOK 08/01 Q1015
YBBN,2014-07-07 15:00,153.1292,-27.3917,44.60,33.80,65.61,280.00,3.00,0.00,30.00,M,6.21,M,M,M,M,M,M,M,M,M,M,YBBN 071500Z 28003KT CAVOK 07/01 Q1016
YBBN,2014-07-07 15:30,153.1292,-27.3917,44.60,35.60,70.48,260.00,4.00,0.00,30.00,M,6.21,M,M,M,M,M,M,M,M,M,M,YBBN 071530Z 26004KT CAVOK 07/02 Q1016
YBBN,2014-07-07 16:00,153.1292,-27.3917,44.60,33.80,65.61,210.00,4.00,0.00,30.00,M,6.21,M,M,M,M,M,M,M,M,M,M,YBBN 071600Z 21004KT CAVOK 07/01 Q1016 NOSIG
YBBN,2014-07-07 16:30,153.1292,-27.3917,41.00,33.80,75.33,250.00,5.00,0.00,30.00,M,6.21,M,M,M,M,M,M,M,M,M,M,YBBN 071630Z 25005KT CAVOK 05/01 Q1016
YBBN,2014-07-07 17:00,153.1292,-27.3917,42.80,35.60,75.50,210.00,6.00,0.00,30.00,M,6.21,M,M,M,M,M,M,M,M,M,M,YBBN 071700Z 21006KT CAVOK 06/02 Q1016 NOSIG
YBBN,2014-07-07 17:30,153.1292,-27.3917,42.80,35.60,75.50,270.00,3.00,0.00,30.00,M,6.21,M,M,M,M,M,M,M,M,M,M,YBBN 071730Z 27003KT CAVOK 06/02 Q1016
YBBN,2014-07-07 18:00,153.1292,-27.3917,41.00,35.60,80.93,0.00,0.00,0.00,29.97,M,6.21,M,M,M,M,M,M,M,M,M,M,YBBN 071800Z 00000KT CAVOK 05/02 Q1015 NOSIG
YBBN,2014-07-07 18:30,153.1292,-27.3917,41.00,35.60,80.93,0.00,0.00,0.00,29.97,M,6.21,M,M,M,M,M,M,M,M,M,M,YBBN 071830Z 00000KT CAVOK 05/02 Q1015
YBBN,2014-07-07 19:00,153.1292,-27.3917,41.00,33.80,75.33,200.00,5.00,0.00,29.97,M,6.21,M,M,M,M,M,M,M,M,M,M,YBBN 071900Z 20005KT CAVOK 05/01 Q1015 NOSIG
YBBN,2014-07-07 19:30,153.1292,-27.3917,42.80,35.60,75.50,190.00,5.00,0.00,30.00,M,6.21,M,M,M,M,M,M,M,M,M,M,YBBN 071930Z 19005KT CAVOK 06/02 Q1016
YBBN,2014-07-07 20:00,153.1292,-27.3917,41.00,35.60,80.93,230.00,5.00,0.00,30.00,M,6.21,M,M,M,M,M,M,M,M,M,M,YBBN 072000Z 23005KT CAVOK 05/02 Q1016 NOSIG
YBBN,2014-07-07 20:30,153.1292,-27.3917,41.00,35.60,80.93,290.00,4.00,0.00,30.00,M,6.21,M,M,M,M,M,M,M,M,M,M,YBBN 072030Z 29004KT CAVOK 05/02 Q1016
YBBN,2014-07-07 21:00,153.1292,-27.3917,41.00,35.60,80.93,190.00,4.00,0.00,30.03,M,6.21,M,M,M,M,M,M,M,M,M,M,YBBN 072100Z 19004KT CAVOK 05/02 Q1017 NOSIG
YBBN,2014-07-07 21:30,153.1292,-27.3917,44.60,37.40,75.68,200.00,5.00,0.00,30.03,M,6.21,M,M,M,M,M,M,M,M,M,M,YBBN 072130Z 20005KT CAVOK 07/03 Q1017
YBBN,2014-07-07 22:00,153.1292,-27.3917,48.20,39.20,70.88,210.00,5.00,0.00,30.03,M,6.21,M,M,M,M,M,M,M,M,M,M,YBBN 072200Z 21005KT CAVOK 09/04 Q1017
YBBN,2014-07-07 22:30,153.1292,-27.3917,51.80,39.20,61.99,200.00,6.00,0.00,30.06,M,6.21,M,M,M,M,M,M,M,M,M,M,YBBN 072230Z 20006KT CAVOK 11/04 Q1018
YBBN,2014-07-07 23:00,153.1292,-27.3917,55.40,37.40,50.64,200.00,6.00,0.00,30.06,M,6.21,M,M,M,M,M,M,M,M,M,M,YBBN 072300Z 20006KT CAVOK 13/03 Q1018
YBBN,2014-07-07 23:30,153.1292,-27.3917,57.20,35.60,44.19,200.00,5.00,0.00,30.06,M,6.21,M,M,M,M,M,M,M,M,M,M,YBBN 072330Z 20005KT CAVOK 14/02 Q1018
