#DEBUG: Format Typ    -> comma
#DEBUG: Time Period   -> 2015-10-21 00:00:00+00:00 2015-10-22 00:00:00+00:00
#DEBUG: Time Zone     -> Etc/UTC
#DEBUG: Data Contact   -> daryl herzmann akrherz@iastate.edu 515-294-5978
#DEBUG: Entries Found -> -1
station,valid,lon,lat,tmpf, dwpf, relh, drct, sknt, p01i, alti, mslp, vsby, gust, skyc1, skyc2, skyc3, skyc4, skyl1, skyl2, skyl3, skyl4, presentwx, metar
YBBN,2015-10-21 00:00,153.1292,-27.3917,75.20,57.20,53.55,360.00,10.00,0.00,30.12,M,6.21,M,FEW,M,M,M,3600.00,M,M,M,M,YBBN 210000Z 36010KT 9999 FEW036 24/14 Q1020 NOSIG
YBBN,2015-10-21 00:30,153.1292,-27.3917,75.20,57.20,53.55,20.00,9.00,0.00,30.09,M,6.21,M,FEW,M,M,M,3800.00,M,M,M,M,YBBN 210030Z 02009KT 9999 FEW038 24/14 Q1019
YBBN,2015-10-21 01:00,153.1292,-27.3917,77.00,59.00,53.80,20.00,12.00,0.00,30.09,M,6.21,M,FEW,M,M,M,3800.00,M,M,M,M,YBBN 210100Z 02012KT 9999 FEW038 25/15 Q1019
YBBN,2015-10-21 01:30,153.1292,-27.3917,75.20,57.20,53.55,20.00,13.00,0.00,30.09,M,6.21,M,FEW,M,M,M,3800.00,M,M,M,M,YBBN 210130Z 02013KT 9999 FEW038 24/14 Q1019
YBBN,2015-10-21 02:00,153.1292,-27.3917,77.00,60.80,57.36,10.00,15.00,0.00,30.06,M,6.21,M,FEW,M,M,M,3800.00,M,M,M,M,YBBN 210200Z 01015KT 9999 FEW038 25/16 Q1018 NOSIG
YBBN,2015-10-21 02:30,153.1292,-27.3917,77.00,59.00,53.80,20.00,16.00,0.00,30.06,M,6.21,M,FEW,M,M,M,3800.00,M,M,M,M,YBBN 210230Z 02016KT 9999 FEW038 25/15 Q1018
YBBN,2015-10-21 03:00,153.1292,-27.3917,77.00,60.80,57.36,20.00,16.00,0.00,30.03,M,6.21,M,FEW,M,M,M,3800.00,M,M,M,M,YBBN 210300Z 02016KT 9999 FEW038 25/16 Q1017 NOSIG
YBBN,2015-10-21 03:30,153.1292,-27.3917,77.00,60.80,57.36,20.00,17.00,0.00,30.03,M,6.21,M,FEW,M,M,M,3800.00,M,M,M,M,YBBN 210330Z 02017KT 9999 FEW038 25/16 Q1017
YBBN,2015-10-21 04:00,153.1292,-27.3917,75.20,60.80,60.90,20.00,17.00,0.00,30.00,M,6.21,M,FEW,M,M,M,3800.00,M,M,M,M,YBBN 210400Z 02017KT 9999 FEW038 24/16 Q1016 NOSIG
YBBN,2015-10-21 04:30,153.1292,-27.3917,75.20,60.80,60.90,20.00,17.00,0.00,30.00,M,6.21,M,FEW,M,M,M,3800.00,M,M,M,M,YBBN 210430Z 02017KT 9999 FEW038 24/16 Q1016
YBBN,2015-10-21 05:00,153.1292,-27.3917,75.20,60.80,60.90,10.00,17.00,0.00,30.00,M,6.21,M,FEW,M,M,M,3800.00,M,M,M,M,YBBN 210500Z 01017KT 9999 FEW038 24/16 Q1016 NOSIG
YBBN,2015-10-21 05:30,153.1292,-27.3917,75.20,60.80,60.90,10.00,15.00,0.00,30.00,M,6.21,M,FEW,M,M,M,3800.00,M,M,M,M,YBBN 210530Z 01015KT 9999 FEW038 24/16 Q1016
YBBN,2015-10-21 06:00,153.1292,-27.3917,75.20,60.80,60.90,10.00,16.00,0.00,29.97,M,6.21,M,FEW,M,M,M,3800.00,M,M,M,M,YBBN 210600Z 01016KT 9999 FEW038 24/16 Q1015
YBBN,2015-10-21 06:30,153.1292,-27.3917,73.40,59.00,60.67,10.00,16.00,0.00,30.00,M,6.21,M,FEW,M,M,M,4000.00,M,M,M,M,YBBN 210630Z 01016KT 9999 FEW040 23/15 Q1016
YBBN,2015-10-21 07:00,153.1292,-27.3917,73.40,60.80,64.69,10.00,15.00,0.00,30.00,M,6.21,M,M,M,M,M,M,M,M,M,M,YBBN 210700Z 01015KT CAVOK 23/16 Q1016 NOSIG
YBBN,2015-10-21 07:30,153.1292,-27.3917,71.60,59.00,64.48,20.00,15.00,0.00,30.00,M,6.21,M,M,M,M,M,M,M,M,M,M,YBBN 210730Z 02015KT CAVOK 22/15 Q1016
YBBN,2015-10-21 08:00,153.1292,-27.3917,71.60,57.20,60.44,20.00,15.00,0.00,30.00,M,6.21,M,M,M,M,M,M,M,M,M,M,YBBN 210800Z 02015KT CAVOK 22/14 Q1016 NOSIG
YBBN,2015-10-21 08:30,153.1292,-27.3917,71.60,59.00,64.48,20.00,15.00,0.00,30.00,M,6.21,M,M,M,M,M,M,M,M,M,M,YBBN 210830Z 02015KT CAVOK 22/15 Q1016
YBBN,2015-10-21 09:00,153.1292,-27.3917,69.80,60.80,73.09,10.00,15.00,0.00,30.00,M,6.21,M,M,M,M,M,M,M,M,M,M,YBBN 210900Z 01015KT CAVOK 21/16 Q1016
YBBN,2015-10-21 09:30,153.1292,-27.3917,69.80,59.00,68.55,10.00,15.00,0.00,30.00,M,6.21,M,M,M,M,M,M,M,M,M,M,YBBN 210930Z 01015KT CAVOK 21/15 Q1016
YBBN,2015-10-21 10:00,153.1292,-27.3917,69.80,59.00,68.55,360.00,16.00,0.00,30.03,M,6.21,M,M,M,M,M,M,M,M,M,M,YBBN 211000Z 36016KT CAVOK 21/15 Q1017
YBBN,2015-10-21 10:30,153.1292,-27.3917,69.80,59.00,68.55,360.00,14.00,0.00,30.03,M,6.21,M,M,M,M,M,M,M,M,M,M,YBBN 211030Z 36014KT CAVOK 21/15 Q1017
YBBN,2015-10-21 11:00,153.1292,-27.3917,69.80,59.00,68.55,360.00,16.00,0.00,30.00,M,6.21,M,M,M,M,M,M,M,M,M,M,YBBN 211100Z 36016KT CAVOK 21/15 Q1016
YBBN,2015-10-21 11:30,153.1292,-27.3917,69.80,60.80,73.09,360.00,15.00,0.00,30.00,M,6.21,M,M,M,M,M,M,M,M,M,M,YBBN 211130Z 36015KT CAVOK 21/16 Q1016
YBBN,2015-10-21 12:00,153.1292,-27.3917,69.80,62.60,77.90,360.00,13.00,0.00,30.00,M,6.21,M,M,M,M,M,M,M,M,M,M,YBBN 211200Z 36013KT CAVOK 21/17 Q1016 NOSIG
YBBN,2015-10-21 12:30,153.1292,-27.3917,69.80,62.60,77.90,360.00,14.00,0.00,30.00,M,6.21,M,M,M,M,M,M,M,M,M,M,YBBN 211230Z 36014KT CAVOK 21/17 Q1016
YBBN,2015-10-21 13:00,153.1292,-27.3917,69.80,62.60,77.90,360.00,15.00,0.00,30.00,M,6.21,M,M,M,M,M,M,M,M,M,M,YBBN 211300Z 36015KT CAVOK 21/17 Q1016 NOSIG
YBBN,2015-10-21 13:30,153.1292,-27.3917,69.80,62.60,77.90,360.00,16.00,0.00,29.97,M,6.21,M,FEW,M,M,M,3500.00,M,M,M,M,YBBN 211330Z 36016KT 9999 FEW035 21/17 Q1015
YBBN,2015-10-21 14:00,153.1292,-27.3917,69.80,62.60,77.90,360.00,18.00,0.00,29.97,M,6.21,M,M,M,M,M,M,M,M,M,M,YBBN 211400Z 36018KT CAVOK 21/17 Q1015
YBBN,2015-10-21 14:30,153.1292,-27.3917,68.00,60.80,77.75,350.00,15.00,0.00,29.97,M,6.21,M,M,M,M,M,M,M,M,M,M,YBBN 211430Z 35015KT CAVOK 20/16 Q1015
YBBN,2015-10-21 15:00,153.1292,-27.3917,68.00,60.80,77.75,340.00,15.00,0.00,29.97,M,6.21,M,M,M,M,M,M,M,M,M,M,YBBN 211500Z 34015KT CAVOK 20/16 Q1015
YBBN,2015-10-21 15:30,153.1292,-27.3917,64.40,60.80,88.09,290.00,6.00,0.00,29.97,M,6.21,M,M,M,M,M,M,M,M,M,M,YBBN 211530Z 29006KT CAVOK 18/16 Q1015
YBBN,2015-10-21 16:00,153.1292,-27.3917,64.40,60.80,88.09,310.00,5.00,0.00,29.97,M,6.21,M,M,M,M,M,M,M,M,M,M,YBBN 211600Z 31005KT CAVOK 18/16 Q1015
YBBN,2015-10-21 16:30,153.1292,-27.3917,64.40,59.00,82.62,320.00,6.00,0.00,29.97,M,6.21,M,M,M,M,M,M,M,M,M,M,YBBN 211630Z 32006KT CAVOK 18/15 Q1015
YBBN,2015-10-21 17:00,153.1292,-27.3917,62.60,59.00,88.00,340.00,7.00,0.00,29.94,M,6.21,M,M,M,M,M,M,M,M,M,M,YBBN 211700Z 34007KT CAVOK 17/15 Q1014
YBBN,2015-10-21 17:30,153.1292,-27.3917,64.40,60.80,88.09,340.00,7.00,0.00,29.94,M,6.21,M,M,M,M,M,M,M,M,M,M,YBBN 211730Z 34007KT CAVOK 18/16 Q1014
YBBN,2015-10-21 18:00,153.1292,-27.3917,62.60,59.00,88.00,330.00,7.00,0.00,29.94,M,6.21,M,M,M,M,M,M,M,M,M,M,YBBN 211800Z 33007KT CAVOK 17/15 Q1014
YBBN,2015-10-21 18:30,153.1292,-27.3917,64.40,59.00,82.62,290.00,6.00,0.00,29.97,M,6.21,M,FEW,M,M,M,30000.00,M,M,M,M,YBBN 211830Z 29006KT 9999 FEW300 18/15 Q1015
YBBN,2015-10-21 19:00,153.1292,-27.3917,62.60,59.00,88.00,340.00,4.00,0.00,29.97,M,6.21,M,M,M,M,M,M,M,M,M,M,YBBN 211900Z 34004KT CAVOK 17/15 Q1015
YBBN,2015-10-21 19:30,153.1292,-27.3917,62.60,59.00,88.00,310.00,5.00,0.00,29.97,M,6.21,M,M,M,M,M,M,M,M,M,M,YBBN 211930Z 31005KT CAVOK 17/15 Q1015
YBBN,2015-10-21 20:00,153.1292,-27.3917,66.20,60.80,82.74,300.00,5.00,0.00,29.97,M,6.21,M,M,M,M,M,M,M,M,M,M,YBBN 212000Z 30005KT CAVOK 19/16 Q1015
YBBN,2015-10-21 20:30,153.1292,-27.3917,68.00,60.80,77.75,360.00,6.00,0.00,29.97,M,6.21,M,M,M,M,M,M,M,M,M,M,YBBN 212030Z 36006KT CAVOK 20/16 Q1015
YBBN,2015-10-21 21:00,153.1292,-27.3917,69.80,62.60,77.90,360.00,7.00,0.00,29.97,M,6.21,M,FEW,M,M,M,2000.00,M,M,M,M,YBBN 212100Z 36007KT 9999 FEW020 21/17 Q1015
YBBN,2015-10-21 21:30,153.1292,-27.3917,71.60,62.60,73.27,360.00,8.00,0.00,29.97,M,6.21,M,FEW,M,M,M,2500.00,M,M,M,M,YBBN 212130Z 36008KT 9999 FEW025 22/17 Q1015
YBBN,2015-10-21 22:00,153.1292,-27.3917,71.60,62.60,73.27,20.00,10.00,0.00,29.97,M,6.21,M,FEW,M,M,M,2500.00,M,M,M,M,YBBN 212200Z 02010KT 9999 FEW025 22/17 Q1015 NOSIG
YBBN,2015-10-21 22:30,153.1292,-27.3917,73.40,62.60,68.94,10.00,9.00,0.00,29.97,M,6.21,M,M,M,M,M,M,M,M,M,M,YBBN 212230Z 01009KT CAVOK 23/17 Q1015
YBBN,2015-10-21 23:00,153.1292,-27.3917,75.20,62.60,64.91,360.00,11.00,0.00,29.97,M,6.21,M,FEW,M,M,M,2500.00,M,M,M,M,YBBN 212300Z 36011KT 9999 FEW025 24/17 Q1015 NOSIG
YBBN,2015-10-21 23:30,153.1292,-27.3917,75.20,62.60,64.91,10.00,11.00,0.00,29.94,M,6.21,M,FEW,M,M,M,2500.00,M,M,M,M,YBBN 212330Z 01011KT 9999 FEW025 24/17 Q1014
