#DEBUG: Format Typ    -> comma
#DEBUG: Time Period   -> 2014-06-20 00:00:00+00:00 2014-06-21 00:00:00+00:00
#DEBUG: Time Zone     -> Etc/UTC
#DEBUG: Data Contact   -> daryl herzmann akrherz@iastate.edu 515-294-5978
#DEBUG: Entries Found -> -1
station,valid,lon,lat,tmpf, dwpf, relh, drct, sknt, p01i, alti, mslp, vsby, gust, skyc1, skyc2, skyc3, skyc4, skyl1, skyl2, skyl3, skyl4, presentwx, metar
YBBN,2014-06-20 00:00,153.1292,-27.3917,64.40,60.80,88.09,210.00,6.00,0.00,30.24,M,6.21,M,FEW,SCT,BKN,M,800.00,4000.00,5500.00,M,M,YBBN 200000Z 21006KT 9999 FEW008 SCT040 BKN055 18/16 Q1024
YBBN,2014-06-20 00:30,153.1292,-27.3917,66.20,60.80,82.74,200.00,7.00,0.00,30.21,M,6.21,M,FEW,BKN,M,M,1200.00,5500.00,M,M,M,YBBN 200030Z 20007KT 9999 FEW012 BKN055 19/16 Q1023
YBBN,2014-06-20 01:00,153.1292,-27.3917,64.40,60.80,88.09,220.00,7.00,0.00,30.21,M,6.21,M,FEW,SCT,BKN,M,1300.00,3000.00,4000.00,M,-SHRA,YBBN 200100Z 22007KT 9999 -SHRA FEW013 SCT030 BKN040 18/16 Q1023
YBBN,2014-06-20 01:30,153.1292,-27.3917,64.40,60.80,88.09,200.00,7.00,0.00,30.21,M,6.21,M,FEW,SCT,BKN,M,1100.00,2500.00,4000.00,M,-SHRA,YBBN 200130Z 20007KT 9999 -SHRA FEW011 SCT025 BKN040 18/16 Q1023
YBBN,2014-06-20 01:43,153.1292,-27.3917,64.40,60.80,88.09,210.00,7.00,0.00,30.21,M,3.73,M,FEW,SCT,BKN,M,1100.00,1800.00,4000.00,M,-SHRA,YBBN 200143Z 21007KT 6000 -SHRA FEW011 SCT018 BKN040 18/16 Q1023
YBBN,2014-06-20 02:00,153.1292,-27.3917,64.40,60.80,88.09,210.00,7.00,0.00,30.18,M,5.59,M,FEW,SCT,BKN,M,1100.00,1800.00,3900.00,M,-SHRA,YBBN 200200Z 21007KT 9000 -SHRA FEW011 SCT018 BKN039 18/16 Q1022 INTER 0200/0500 4000 SHRA SCT010
YBBN,2014-06-20 02:30,153.1292,-27.3917,64.40,60.80,88.09,220.00,6.00,0.00,30.18,M,6.21,M,FEW,SCT,BKN,M,1800.00,4000.00,6000.00,M,M,YBBN 200230Z 22006KT 9999 FEW018 SCT040 BKN060 18/16 Q1022 RMK PLUME SMOKE TO N
YBBN,2014-06-20 03:00,153.1292,-27.3917,66.20,60.80,82.74,220.00,6.00,0.00,30.15,M,6.21,M,FEW,SCT,M,M,1800.00,4000.00,M,M,M,YBBN 200300Z 22006KT 9999 FEW018 SCT040 19/16 Q1021 INTER 0330/0600 4000 SHRA SCT010
YBBN,2014-06-20 03:30,153.1292,-27.3917,68.00,59.00,72.92,150.00,4.00,0.00,30.12,M,6.21,M,FEW,SCT,M,M,2200.00,10000.00,M,M,M,YBBN 200330Z 15004KT 9999 FEW022 SCT100 20/15 Q1020
YBBN,2014-06-20 04:00,153.1292,-27.3917,68.00,59.00,72.92,240.00,1.00,0.00,30.12,M,6.21,M,FEW,SCT,M,M,2200.00,9600.00,M,M,M,YBBN 200400Z 24001KT 9999 FEW022 SCT096 20/15 Q1020 NOSIG
YBBN,2014-06-20 04:30,153.1292,-27.3917,69.80,59.00,68.55,140.00,1.00,0.00,30.12,M,6.21,M,FEW,M,M,M,2200.00,M,M,M,M,YBBN 200430Z 14001KT 9999 FEW022 21/15 Q1020
YBBN,2014-06-20 05:00,153.1292,-27.3917,69.80,59.00,68.55,40.00,8.00,0.00,30.12,M,6.21,M,FEW,M,M,M,2200.00,M,M,M,M,YBBN 200500Z 04008KT 9999 FEW022 21/15 Q1020 NOSIG
YBBN,2014-06-20 05:30,153.1292,-27.3917,68.00,59.00,72.92,20.00,7.00,0.00,30.12,M,6.21,M,FEW,M,M,M,2200.00,M,M,M,M,YBBN 200530Z 02007KT 9999 FEW022 20/15 Q1020
YBBN,2014-06-20 06:00,153.1292,-27.3917,68.00,59.00,72.92,30.00,8.00,0.00,30.12,M,6.21,M,FEW,M,M,M,2200.00,M,M,M,M,YBBN 200600Z 03008KT 9999 FEW022 20/15 Q1020 NOSIG
YBBN,2014-06-20 06:30,153.1292,-27.3917,66.20,60.80,82.74,30.00,7.00,0.00,30.12,M,6.21,M,FEW,SCT,M,M,2200.00,9800.00,M,M,M,YBBN 200630Z 03007KT 9999 FEW022 SCT098 19/16 Q1020
YBBN,2014-06-20 07:00,153.1292,-27.3917,62.60,59.00,88.00,20.00,6.00,0.00,30.12,M,6.21,M,FEW,SCT,M,M,2200.00,7600.00,M,M,M,YBBN 200700Z 02006KT 9999 FEW022 SCT076 17/15 Q1020 NOSIG
YBBN,2014-06-20 07:30,153.1292,-27.3917,60.80,59.00,93.79,30.00,6.00,0.00,30.12,M,6.21,M,FEW,SCT,M,M,2200.00,7600.00,M,M,M,YBBN 200730Z 03006KT 9999 FEW022 SCT076 16/15 Q1020
YBBN,2014-06-20 08:00,153.1292,-27.3917,60.80,59.00,93.79,40.00,6.00,0.00,30.12,M,6.21,M,M,M,M,M,M,M,M,M,M,YBBN 200800Z 04006KT CAVOK 16/15 Q1020 NOSIG
YBBN,2014-06-20 08:30,153.1292,-27.3917,62.60,59.00,88.00,30.00,5.00,0.00,30.12,M,6.21,M,FEW,SCT,M,M,2400.00,7200.00,M,M,M,YBBN 200830Z 03005KT 9999 FEW024 SCT072 17/15 Q1020
YBBN,2014-06-20 09:00,153.1292,-27.3917,62.60,59.00,88.00,10.00,4.00,0.00,30.15,M,6.21,M,FEW,SCT,BKN,M,2400.00,7400.00,9800.00,M,M,YBBN 200900Z 01004KT 9999 FEW024 SCT074 BKN098 17/15 Q1021
YBBN,2014-06-20 09:30,153.1292,-27.3917,62.60,60.80,93.83,10.00,5.00,0.00,30.15,M,6.21,M,FEW,SCT,BKN,M,2400.00,7500.00,9500.00,M,M,YBBN 200930Z 01005KT 9999 FEW024 SCT075 BKN095 17/16 Q1021
YBBN,2014-06-20 10:00,153.1292,-27.3917,62.60,60.80,93.83,320.00,5.00,0.00,30.15,M,6.21,M,FEW,SCT,BKN,M,1800.00,7400.00,9500.00,M,M,YBBN 201000Z 32005KT 9999 FEW018 SCT074 BKN095 17/16 Q1021 NOSIG
YBBN,2014-06-20 10:30,153.1292,-27.3917,62.60,60.80,93.83,320.00,4.00,0.00,30.15,M,6.21,M,FEW,SCT,BKN,M,1200.00,7400.00,9800.00,M,M,YBBN 201030Z 32004KT 9999 FEW012 SCT074 BKN098 17/16 Q1021
YBBN,2014-06-20 11:00,153.1292,-27.3917,62.60,59.00,88.00,350.00,1.00,0.00,30.15,M,6.21,M,FEW,SCT,M,M,1200.00,9800.00,M,M,M,YBBN 201100Z 35001KT 9999 FEW012 SCT098 17/15 Q1021
YBBN,2014-06-20 11:30,153.1292,-27.3917,60.80,59.00,93.79,310.00,4.00,0.00,30.15,M,6.21,M,FEW,SCT,M,M,1200.00,9800.00,M,M,M,YBBN 201130Z 31004KT 9999 FEW012 SCT098 16/15 Q1021
YBBN,2014-06-20 12:00,153.1292,-27.3917,59.00,57.20,93.74,250.00,6.00,0.00,30.15,M,6.21,M,FEW,M,M,M,1200.00,M,M,M,M,YBBN 201200Z 25006KT 9999 FEW012 15/14 Q1021 NOSIG
YBBN,2014-06-20 12:24,153.1292,-27.3917,59.00,59.00,100.00,270.00,3.00,0.00,30.15,M,6.21,M,FEW,SCT,M,M,1200.00,9800.00,M,M,MIFG,YBBN 201224Z 27003KT 9999 MIFG FEW012 SCT098 15/15 Q1021
YBBN,2014-06-20 12:30,153.1292,-27.3917,59.00,59.00,100.00,0.00,0.00,0.00,30.15,M,6.21,M,FEW,SCT,M,M,1200.00,9800.00,M,M,MIFG,YBBN 201230Z 00000KT 9999 MIFG FEW012 SCT098 15/15 Q1021 RMK WET BULB DEPRESSION 0.3 DEG
YBBN,2014-06-20 13:00,153.1292,-27.3917,57.20,57.20,100.00,270.00,1.00,0.00,30.15,M,6.21,M,FEW,BKN,M,M,1200.00,10000.00,M,M,BCFG MIFG,YBBN 201300Z 27001KT 9999 BCFG MIFG FEW012 BKN100 14/14 Q1021
YBBN,2014-06-20 13:12,153.1292,-27.3917,57.20,57.20,100.00,250.00,5.00,0.00,30.15,M,6.21,M,FEW,BKN,M,M,1500.00,10000.00,M,M,M,YBBN 201312Z 25005KT 9999 FEW015 BKN100 14/14 Q1021
YBBN,2014-06-20 13:30,153.1292,-27.3917,59.00,59.00,100.00,230.00,5.00,0.00,30.15,M,6.21,M,FEW,BKN,M,M,1400.00,10500.00,M,M,M,YBBN 201330Z 23005KT 9999 FEW014 BKN105 15/15 Q1021 RMK WET BULB DEPRESSION 0.2 DEG
YBBN,2014-06-20 14:00,153.1292,-27.3917,59.00,59.00,100.00,280.00,1.00,0.00,30.15,M,6.21,M,FEW,BKN,M,M,1800.00,10500.00,M,M,VCSH,YBBN 201400Z 28001KT 9999 VCSH FEW018 BKN105 15/15 Q1021 NOSIG
YBBN,2014-06-20 14:30,153.1292,-27.3917,59.00,59.00,100.00,0.00,0.00,0.00,30.12,M,6.21,M,FEW,SCT,M,M,1800.00,11000.00,M,M,VCSH,YBBN 201430Z 00000KT 9999 VCSH FEW018 SCT110 15/15 Q1020
YBBN,2014-06-20 14:50,153.1292,-27.3917,59.00,59.00,100.00,280.00,2.00,0.00,30.12,M,6.21,M,FEW,BKN,M,M,1800.00,10000.00,M,M,MIFG,YBBN 201450Z 28002KT 9999 MIFG FEW018 BKN100 15/15 Q1020
YBBN,2014-06-20 15:00,153.1292,-27.3917,59.00,59.00,100.00,0.00,0.00,0.00,30.12,M,6.21,M,FEW,BKN,M,M,2000.00,10000.00,M,M,VCSH,YBBN 201500Z 00000KT 9999 VCSH FEW020 BKN100 15/15 Q1020
YBBN,2014-06-20 15:30,153.1292,-27.3917,59.00,59.00,100.00,350.00,3.00,0.00,30.12,M,6.21,M,FEW,SCT,BKN,M,2000.00,8500.00,11000.00,M,VCSH,YBBN 201530Z 35003KT 9999 VCSH FEW020 SCT085 BKN110 15/15 Q1020
YBBN,2014-06-20 16:00,153.1292,-27.3917,59.00,59.00,100.00,240.00,4.00,0.00,30.12,M,6.21,M,FEW,SCT,BKN,M,4200.00,9800.00,11000.00,M,M,YBBN 201600Z 24004KT 9999 FEW042 SCT098 BKN110 15/15 Q1020 NOSIG
YBBN,2014-06-20 16:30,153.1292,-27.3917,59.00,59.00,100.00,200.00,3.00,0.00,30.12,M,6.21,M,FEW,SCT,BKN,M,4200.00,9800.00,11500.00,M,M,YBBN 201630Z 20003KT 9999 FEW042 SCT098 BKN115 15/15 Q1020
YBBN,2014-06-20 17:00,153.1292,-27.3917,59.00,59.00,100.00,250.00,2.00,0.00,30.09,M,6.21,M,FEW,SCT,BKN,M,4700.00,9500.00,10000.00,M,VCSH,YBBN 201700Z 25002KT 9999 VCSH FEW047 SCT095 BKN100 15/15 Q1019 NOSIG
YBBN,2014-06-20 17:30,153.1292,-27.3917,59.00,57.20,93.74,360.00,1.00,0.00,30.09,M,6.21,M,FEW,BKN,M,M,1600.00,10000.00,M,M,VCSH,YBBN 201730Z 36001KT 9999 VCSH FEW016 BKN100 15/14 Q1019
YBBN,2014-06-20 18:00,153.1292,-27.3917,59.00,59.00,100.00,220.00,4.00,0.00,30.09,M,6.21,M,FEW,SCT,BKN,M,1200.00,9000.00,11000.00,M,M,YBBN 201800Z 22004KT 9999 FEW012 SCT090 BKN110 15/15 Q1019 NOSIG
YBBN,2014-06-20 18:30,153.1292,-27.3917,59.00,57.20,93.74,210.00,7.00,0.00,30.09,M,3.73,M,FEW,BKN,M,M,300.00,11000.00,M,M,MIFG,YBBN 201830Z 21007KT 6000 MIFG FEW003 BKN110 15/14 Q1019
YBBN,2014-06-20 19:00,153.1292,-27.3917,59.00,59.00,100.00,210.00,6.00,0.00,30.09,M,3.73,M,FEW,SCT,BKN,M,300.00,9600.00,11000.00,M,MIFG,YBBN 201900Z 21006KT 6000 MIFG FEW003 SCT096 BKN110 15/15 Q1019
YBBN,2014-06-20 19:30,153.1292,-27.3917,59.00,59.00,100.00,210.00,6.00,0.00,30.12,M,4.97,M,FEW,SCT,BKN,M,3000.00,9800.00,11000.00,M,MIFG,YBBN 201930Z 21006KT 8000 MIFG FEW030 SCT098 BKN110 15/15 Q1020
YBBN,2014-06-20 20:00,153.1292,-27.3917,59.00,59.00,100.00,200.00,6.00,0.00,30.12,M,5.59,M,FEW,BKN,M,M,1200.00,11000.00,M,M,MIFG,YBBN 202000Z 20006KT 9000 MIFG FEW012 BKN110 15/15 Q1020
YBBN,2014-06-20 20:30,153.1292,-27.3917,59.00,57.20,93.74,200.00,5.00,0.00,30.12,M,4.97,M,FEW,BKN,M,M,1200.00,11000.00,M,M,MIFG,YBBN 202030Z 20005KT 8000 MIFG FEW012 BKN110 15/14 Q1020
YBBN,2014-06-20 20:36,153.1292,-27.3917,57.20,57.20,100.00,210.00,7.00,0.00,30.12,M,3.73,M,FEW,BKN,M,M,1200.00,11000.00,M,M,MIFG,YBBN 202036Z 21007KT 6000 MIFG FEW012 BKN110 14/14 Q1020 RMK MIST
YBBN,2014-06-20 21:00,153.1292,-27.3917,57.20,57.20,100.00,200.00,6.00,0.00,30.12,M,3.73,M,FEW,BKN,M,M,1200.00,11000.00,M,M,MIFG,YBBN 202100Z 20006KT 6000 MIFG FEW012 BKN110 14/14 Q1020
YBBN,2014-06-20 21:30,153.1292,-27.3917,59.00,57.20,93.74,190.00,5.00,0.00,30.15,M,5.59,M,FEW,SCT,M,M,1500.00,11000.00,M,M,M,YBBN 202130Z 19005KT 9000 FEW015 SCT110 15/14 Q1021
YBBN,2014-06-20 22:00,153.1292,-27.3917,60.80,59.00,93.79,210.00,5.00,0.00,30.15,M,5.59,M,FEW,BKN,M,M,1500.00,10500.00,M,M,M,YBBN 202200Z 21005KT 9000 FEW015 BKN105 16/15 Q1021
YBBN,2014-06-20 22:30,153.1292,-27.3917,62.60,60.80,93.83,200.00,5.00,0.00,30.15,M,6.21,M,M,M,M,M,M,M,M,M,M,YBBN 202230Z 20005KT CAVOK 17/16 Q1021 RMK HZ 7AC105
YBBN,2014-06-20 23:00,153.1292,-27.3917,64.40,59.00,82.62,210.00,6.00,0.00,30.15,M,6.21,M,FEW,BKN,M,M,2200.00,11000.00,M,M,M,YBBN 202300Z 21006KT 9999 FEW022 BKN110 18/15 Q1021 NOSIG
YBBN,2014-06-20 23:30,153.1292,-27.3917,64.40,59.00,82.62,200.00,5.00,0.00,30.15,M,6.21,M,FEW,BKN,M,M,2200.00,11000.00,M,M,M,YBBN 202330Z 20005KT 9999 FEW022 BKN110 18/15 Q1021
