#DEBUG: Format Typ    -> comma
#DEBUG: Time Period   -> 2012-07-31 00:00:00+00:00 2012-08-01 00:00:00+00:00
#DEBUG: Time Zone     -> Etc/UTC
#DEBUG: Data Contact   -> daryl herzmann akrherz@iastate.edu 515-294-5978
#DEBUG: Entries Found -> -1
station,valid,lon,lat,tmpf, dwpf, relh, drct, sknt, p01i, alti, mslp, vsby, gust, skyc1, skyc2, skyc3, skyc4, skyl1, skyl2, skyl3, skyl4, presentwx, metar
YBBN,2012-07-31 00:00,153.1292,-27.3917,60.80,37.40,41.71,200.00,10.00,0.00,30.18,M,6.21,M,M,M,M,M,M,M,M,M,M,YBBN 310000Z 20010KT CAVOK 16/03 Q1022 NOSIG
YBBN,2012-07-31 00:30,153.1292,-27.3917,62.60,37.40,39.14,190.00,9.00,0.00,30.18,M,6.21,M,M,M,M,M,M,M,M,M,M,YBBN 310030Z 19009KT CAVOK 17/03 Q1022
YBBN,2012-07-31 01:00,153.1292,-27.3917,62.60,39.20,42.00,190.00,8.00,0.00,30.18,M,6.21,M,M,M,M,M,M,M,M,M,M,YBBN 310100Z 19008KT CAVOK 17/04 Q1022 NOSIG
YBBN,2012-07-31 01:30,153.1292,-27.3917,64.40,39.20,39.43,180.00,7.00,0.00,30.15,M,6.21,M,M,M,M,M,M,M,M,M,M,YBBN 310130Z 18007KT CAVOK 18/04 Q1021
YBBN,2012-07-31 02:00,153.1292,-27.3917,64.40,39.20,39.43,200.00,7.00,0.00,30.15,M,6.21,M,M,M,M,M,M,M,M,M,M,YBBN 310200Z 20007KT CAVOK 18/04 Q1021
YBBN,2012-07-31 02:30,153.1292,-27.3917,64.40,39.20,39.43,210.00,7.00,0.00,30.12,M,6.21,M,M,M,M,M,M,M,M,M,M,YBBN 310230Z 21007KT CAVOK 18/04 Q1020
YBBN,2012-07-31 03:00,153.1292,-27.3917,66.20,39.20,37.03,220.00,6.00,0.00,30.12,M,6.21,M,M,M,M,M,M,M,M,M,M,YBBN 310300Z 22006KT CAVOK 19/04 Q1020 NOSIG
YBBN,2012-07-31 03:30,153.1292,-27.3917,66.20,42.80,42.57,80.00,5.00,0.00,30.12,M,6.21,M,M,M,M,M,M,M,M,M,M,YBBN 310330Z 08005KT CAVOK 19/06 Q1020 RMK FU
YBBN,2012-07-31 04:00,153.1292,-27.3917,66.20,42.80,42.57,90.00,7.00,0.00,30.09,M,6.21,M,M,M,M,M,M,M,M,M,M,YBBN 310400Z 09007KT CAVOK 19/06 Q1019
YBBN,2012-07-31 04:30,153.1292,-27.3917,64.40,42.80,45.32,70.00,7.00,0.00,30.09,M,6.21,M,M,M,M,M,M,M,M,M,M,YBBN 310430Z 07007KT CAVOK 18/06 Q1019
YBBN,2012-07-31 05:00,153.1292,-27.3917,64.40,42.80,45.32,60.00,8.00,0.00,30.09,M,6.21,M,M,M,M,M,M,M,M,M,M,YBBN 310500Z 06008KT CAVOK 18/06 Q1019 NOSIG
YBBN,2012-07-31 05:30,153.1292,-27.3917,64.40,42.80,45.32,30.00,8.00,0.00,30.09,M,6.21,M,M,M,M,M,M,M,M,M,M,YBBN 310530Z 03008KT CAVOK 18/06 Q1019
YBBN,2012-07-31 06:00,153.1292,-27.3917,64.40,42.80,45.32,50.00,7.00,0.00,30.09,M,6.21,M,M,M,M,M,M,M,M,M,M,YBBN 310600Z 05007KT CAVOK 18/06 Q1019
YBBN,2012-07-31 06:30,153.1292,-27.3917,62.60,44.60,51.72,60.00,7.00,0.00,30.09,M,6.21,M,FEW,M,M,M,4500.00,M,M,M,M,YBBN 310630Z 06007KT 9999 FEW045 17/07 Q1019
YBBN,2012-07-31 07:00,153.1292,-27.3917,62.60,46.40,55.37,60.00,6.00,0.00,30.12,M,6.21,M,FEW,M,M,M,4500.00,M,M,M,M,YBBN 310700Z 06006KT 9999 FEW045 17/08 Q1020
YBBN,2012-07-31 07:30,153.1292,-27.3917,60.80,48.20,63.15,90.00,5.00,0.00,30.12,M,6.21,M,FEW,M,M,M,4200.00,M,M,M,M,YBBN 310730Z 09005KT 9999 FEW042 16/09 Q1020
YBBN,2012-07-31 08:00,153.1292,-27.3917,60.80,48.20,63.15,110.00,5.00,0.00,30.12,M,6.21,M,FEW,SCT,M,M,3800.00,20000.00,M,M,M,YBBN 310800Z 11005KT 9999 FEW038 SCT200 16/09 Q1020 NOSIG
YBBN,2012-07-31 08:30,153.1292,-27.3917,59.00,48.20,67.33,100.00,5.00,0.00,30.12,M,6.21,M,FEW,BKN,M,M,3800.00,21000.00,M,M,M,YBBN 310830Z 10005KT 9999 FEW038 BKN210 15/09 Q1020
YBBN,2012-07-31 09:00,153.1292,-27.3917,60.80,48.20,63.15,110.00,5.00,0.00,30.12,M,6.21,M,FEW,BKN,M,M,3800.00,21500.00,M,M,M,YBBN 310900Z 11005KT 9999 FEW038 BKN215 16/09 Q1020 NOSIG
YBBN,2012-07-31 09:30,153.1292,-27.3917,59.00,50.00,72.01,120.00,4.00,0.00,30.15,M,6.21,M,FEW,SCT,M,M,3800.00,19000.00,M,M,M,YBBN 310930Z 12004KT 9999 FEW038 SCT190 15/10 Q1021
YBBN,2012-07-31 10:00,153.1292,-27.3917,59.00,50.00,72.01,110.00,4.00,0.00,30.15,M,6.21,M,FEW,SCT,M,M,3500.00,19000.00,M,M,M,YBBN 311000Z 11004KT 9999 FEW035 SCT190 15/10 Q1021
YBBN,2012-07-31 10:30,153.1292,-27.3917,59.00,50.00,72.01,110.00,3.00,0.00,30.15,M,6.21,M,FEW,SCT,M,M,3500.00,19000.00,M,M,M,YBBN 311030Z 11003KT 9999 FEW035 SCT190 15/10 Q1021
YBBN,2012-07-31 11:00,153.1292,-27.3917,55.40,48.20,76.66,220.00,4.00,0.00,30.15,M,6.21,M,FEW,SCT,BKN,M,3500.00,18000.00,21000.00,M,M,YBBN 311100Z 22004KT 9999 FEW035 SCT180 BKN210 13/09 Q1021 NOSIG
YBBN,2012-07-31 11:30,153.1292,-27.3917,53.60,48.20,81.87,240.00,4.00,0.00,30.15,M,6.21,M,FEW,SCT,M,M,3500.00,19000.00,M,M,M,YBBN 311130Z 24004KT 9999 FEW035 SCT190 12/09 Q1021
YBBN,2012-07-31 12:00,153.1292,-27.3917,55.40,46.40,71.64,190.00,5.00,0.00,30.15,M,6.21,M,FEW,SCT,M,M,3500.00,19000.00,M,M,M,YBBN 311200Z 19005KT 9999 FEW035 SCT190 13/08 Q1021 NOSIG
YBBN,2012-07-31 12:30,153.1292,-27.3917,53.60,46.40,76.50,200.00,4.00,0.00,30.15,M,6.21,M,FEW,SCT,M,M,3500.00,18000.00,M,M,M,YBBN 311230Z 20004KT 9999 FEW035 SCT180 12/08 Q1021
YBBN,2012-07-31 13:00,153.1292,-27.3917,51.80,44.60,76.34,210.00,6.00,0.00,30.15,M,6.21,M,FEW,M,M,M,3500.00,M,M,M,M,YBBN 311300Z 21006KT 9999 FEW035 11/07 Q1021 NOSIG
YBBN,2012-07-31 13:30,153.1292,-27.3917,51.80,44.60,76.34,200.00,5.00,0.00,30.15,M,6.21,M,FEW,M,M,M,3500.00,M,M,M,M,YBBN 311330Z 20005KT 9999 FEW035 11/07 Q1021
YBBN,2012-07-31 14:00,153.1292,-27.3917,50.00,44.60,81.61,210.00,5.00,0.00,30.15,M,6.21,M,FEW,M,M,M,3500.00,M,M,M,M,YBBN 311400Z 21005KT 9999 FEW035 10/07 Q1021 NOSIG
YBBN,2012-07-31 14:30,153.1292,-27.3917,48.20,44.60,87.28,210.00,6.00,0.00,30.15,M,6.21,M,FEW,M,M,M,3500.00,M,M,M,M,YBBN 311430Z 21006KT 9999 FEW035 09/07 Q1021
YBBN,2012-07-31 15:00,153.1292,-27.3917,50.00,44.60,81.61,200.00,7.00,0.00,30.15,M,6.21,M,FEW,M,M,M,3500.00,M,M,M,M,YBBN 311500Z 20007KT 9999 FEW035 10/07 Q1021 NOSIG
YBBN,2012-07-31 15:30,153.1292,-27.3917,48.20,44.60,87.28,210.00,7.00,0.00,30.15,M,6.21,M,FEW,M,M,M,3500.00,M,M,M,M,YBBN 311530Z 21007KT 9999 FEW035 09/07 Q1021
YBBN,2012-07-31 16:00,153.1292,-27.3917,48.20,44.60,87.28,210.00,8.00,0.00,30.15,M,6.21,M,FEW,M,M,M,3500.00,M,M,M,M,YBBN 311600Z 21008KT 9999 FEW035 09/07 Q1021
YBBN,2012-07-31 16:30,153.1292,-27.3917,48.20,42.80,81.47,200.00,7.00,0.00,30.12,M,6.21,M,FEW,M,M,M,3500.00,M,M,M,M,YBBN 311630Z 20007KT 9999 FEW035 09/06 Q1020
YBBN,2012-07-31 17:00,153.1292,-27.3917,48.20,42.80,81.47,200.00,6.00,0.00,30.12,M,6.21,M,FEW,M,M,M,3500.00,M,M,M,M,YBBN 311700Z 20006KT 9999 FEW035 09/06 Q1020 NOSIG
YBBN,2012-07-31 17:30,153.1292,-27.3917,46.40,42.80,87.19,210.00,8.00,0.00,30.12,M,6.21,M,FEW,M,M,M,3500.00,M,M,M,M,YBBN 311730Z 21008KT 9999 FEW035 08/06 Q1020
YBBN,2012-07-31 18:00,153.1292,-27.3917,46.40,42.80,87.19,210.00,7.00,0.00,30.12,M,6.21,M,FEW,M,M,M,3500.00,M,M,M,M,YBBN 311800Z 21007KT 9999 FEW035 08/06 Q1020 NOSIG
YBBN,2012-07-31 18:30,153.1292,-27.3917,46.40,42.80,87.19,200.00,6.00,0.00,30.12,M,6.21,M,FEW,M,M,M,3500.00,M,M,M,M,YBBN 311830Z 20006KT 9999 FEW035 08/06 Q1020
YBBN,2012-07-31 19:00,153.1292,-27.3917,46.40,42.80,87.19,200.00,5.00,0.00,30.12,M,6.21,M,FEW,M,M,M,3500.00,M,M,M,M,YBBN 311900Z 20005KT 9999 FEW035 08/06 Q1020
YBBN,2012-07-31 19:30,153.1292,-27.3917,44.60,42.80,93.35,210.00,7.00,0.00,30.12,M,6.21,M,FEW,M,M,M,3500.00,M,M,M,M,YBBN 311930Z 21007KT 9999 FEW035 07/06 Q1020
YBBN,2012-07-31 20:00,153.1292,-27.3917,44.60,41.00,87.09,210.00,7.00,0.00,30.15,M,6.21,M,FEW,M,M,M,3500.00,M,M,M,M,YBBN 312000Z 21007KT 9999 FEW035 07/05 Q1021
YBBN,2012-07-31 20:30,153.1292,-27.3917,44.60,42.80,93.35,210.00,7.00,0.00,30.15,M,6.21,M,FEW,M,M,M,3500.00,M,M,M,M,YBBN 312030Z 21007KT 9999 FEW035 07/06 Q1021
YBBN,2012-07-31 21:00,153.1292,-27.3917,44.60,42.80,93.35,210.00,8.00,0.00,30.18,M,6.21,M,FEW,M,M,M,3500.00,M,M,M,M,YBBN 312100Z 21008KT 9999 FEW035 07/06 Q1022
YBBN,2012-07-31 21:30,153.1292,-27.3917,48.20,44.60,87.28,210.00,6.00,0.00,30.18,M,6.21,M,M,M,M,M,M,M,M,M,M,YBBN 312130Z 21006KT CAVOK 09/07 Q1022
YBBN,2012-07-31 22:00,153.1292,-27.3917,51.80,46.40,81.74,200.00,5.00,0.00,30.18,M,6.21,M,M,M,M,M,M,M,M,M,M,YBBN 312200Z 20005KT CAVOK 11/08 Q1022
YBBN,2012-07-31 22:30,153.1292,-27.3917,53.60,46.40,76.50,200.00,6.00,0.00,30.18,M,6.21,M,M,M,M,M,M,M,M,M,M,YBBN 312230Z 20006KT CAVOK 12/08 Q1022
YBBN,2012-07-31 23:00,153.1292,-27.3917,57.20,46.40,67.12,210.00,7.00,0.00,30.18,M,6.21,M,M,M,M,M,M,M,M,M,M,YBBN 312300Z 21007KT CAVOK 14/08 Q1022 NOSIG
YBBN,2012-07-31 23:30,153.1292,-27.3917,59.00,44.60,58.77,200.00,5.00,0.00,30.18,M,6.21,M,FEW,M,M,M,3500.00,M,M,M,M,YBBN 312330Z 20005KT 9999 FEW035 15/07 Q1022
