#DEBUG: Format Typ    -> comma
#DEBUG: Time Period   -> 2011-10-31 00:00:00+00:00 2011-11-01 00:00:00+00:00
#DEBUG: Time Zone     -> Etc/UTC
#DEBUG: Data Contact   -> daryl herzmann akrherz@iastate.edu 515-294-5978
#DEBUG: Entries Found -> -1
station,valid,lon,lat,tmpf, dwpf, relh, drct, sknt, p01i, alti, mslp, vsby, gust, skyc1, skyc2, skyc3, skyc4, skyl1, skyl2, skyl3, skyl4, presentwx, metar
YBBN,2011-10-31 00:30,153.1292,-27.3917,73.40,60.80,64.69,130.00,13.00,M,29.97,M,6.21,24.00,FEW,SCT,BKN,M,2000.00,3000.00,6000.00,M,M,YBBN 310030Z 13013G24KT 9999 FEW020 SCT030 BKN060 23/16 Q1015
YBBN,2011-10-31 01:30,153.1292,-27.3917,75.20,59.00,57.12,130.00,13.00,M,29.97,M,6.21,M,SCT,BKN,M,M,3000.00,4500.00,M,M,M,YBBN 310130Z 13013KT 9999 SCT030 BKN045 24/15 Q1015
YBBN,2011-10-31 02:30,153.1292,-27.3917,73.40,59.00,60.67,130.00,14.00,M,29.97,M,6.21,M,FEW,BKN,M,M,3200.00,4500.00,M,M,M,YBBN 310230Z 13014KT 9999 FEW032 BKN045 23/15 Q1015
YBBN,2011-10-31 03:30,153.1292,-27.3917,71.60,57.20,60.44,130.00,15.00,M,29.97,M,6.21,M,FEW,BKN,M,M,3000.00,4000.00,M,M,M,YBBN 310330Z 13015KT 9999 FEW030 BKN040 22/14 Q1015
YBBN,2011-10-31 04:30,153.1292,-27.3917,73.40,57.20,56.88,120.00,13.00,M,29.97,M,6.21,M,FEW,BKN,M,M,3000.00,4500.00,M,M,M,YBBN 310430Z 12013KT 9999 FEW030 BKN045 23/14 Q1015
YBBN,2011-10-31 05:30,153.1292,-27.3917,71.60,59.00,64.48,130.00,13.00,M,29.97,M,6.21,M,FEW,BKN,M,M,1700.00,5000.00,M,M,M,YBBN 310530Z 13013KT 9999 FEW017 BKN050 22/15 Q1015
YBBN,2011-10-31 06:30,153.1292,-27.3917,71.60,59.00,64.48,120.00,12.00,M,29.97,M,6.21,M,FEW,BKN,M,M,2000.00,4700.00,M,M,M,YBBN 310630Z 12012KT 9999 FEW020 BKN047 22/15 Q1015
YBBN,2011-10-31 07:30,153.1292,-27.3917,69.80,57.20,64.26,120.00,11.00,M,30.00,M,6.21,M,FEW,BKN,M,M,2000.00,4700.00,M,M,M,YBBN 310730Z 12011KT 9999 FEW020 BKN047 21/14 Q1016
YBBN,2011-10-31 08:30,153.1292,-27.3917,69.80,59.00,68.55,120.00,12.00,M,30.00,M,6.21,M,FEW,BKN,M,M,2000.00,5000.00,M,M,M,YBBN 310830Z 12012KT 9999 FEW020 BKN050 21/15 Q1016
YBBN,2011-10-31 09:00,153.1292,-27.3917,69.80,57.20,64.26,130.00,9.00,M,30.03,M,6.21,M,FEW,BKN,M,M,2000.00,5000.00,M,M,M,YBBN 310900Z 13009KT 9999 FEW020 BKN050 21/14 Q1017 NOSIG
YBBN,2011-10-31 09:30,153.1292,-27.3917,69.80,55.40,60.21,140.00,10.00,M,30.03,M,6.21,M,FEW,OVC,M,M,2500.00,5000.00,M,M,M,YBBN 310930Z 14010KT 9999 FEW025 OVC050 21/13 Q1017
YBBN,2011-10-31 10:00,153.1292,-27.3917,69.80,55.40,60.21,140.00,8.00,M,30.03,M,6.21,M,FEW,OVC,M,M,2500.00,5500.00,M,M,M,YBBN 311000Z 14008KT 9999 FEW025 OVC055 21/13 Q1017 NOSIG
YBBN,2011-10-31 10:30,153.1292,-27.3917,69.80,55.40,60.21,150.00,7.00,M,30.06,M,6.21,M,FEW,OVC,M,M,2500.00,5900.00,M,M,M,YBBN 311030Z 15007KT 9999 FEW025 OVC059 21/13 Q1018
YBBN,2011-10-31 11:00,153.1292,-27.3917,69.80,55.40,60.21,160.00,7.00,M,30.06,M,6.21,M,FEW,BKN,M,M,2500.00,5900.00,M,M,M,YBBN 311100Z 16007KT 9999 FEW025 BKN059 21/13 Q1018 NOSIG
YBBN,2011-10-31 11:30,153.1292,-27.3917,68.00,55.40,64.04,160.00,6.00,M,30.06,M,6.21,M,FEW,SCT,BKN,M,2500.00,3500.00,5900.00,M,M,YBBN 311130Z 16006KT 9999 FEW025 SCT035 BKN059 20/13 Q1018
YBBN,2011-10-31 12:00,153.1292,-27.3917,68.00,57.20,68.35,170.00,7.00,M,30.06,M,6.21,M,SCT,BKN,M,M,3000.00,5900.00,M,M,M,YBBN 311200Z 17007KT 9999 SCT030 BKN059 20/14 Q1018 NOSIG
YBBN,2011-10-31 12:30,153.1292,-27.3917,68.00,57.20,68.35,160.00,8.00,M,30.06,M,6.21,M,FEW,BKN,M,M,2000.00,3200.00,M,M,M,YBBN 311230Z 16008KT 9999 FEW020 BKN032 20/14 Q1018
YBBN,2011-10-31 13:00,153.1292,-27.3917,68.00,59.00,72.92,160.00,7.00,M,30.06,M,6.21,M,FEW,BKN,M,M,2000.00,3300.00,M,M,M,YBBN 311300Z 16007KT 9999 FEW020 BKN033 20/15 Q1018 NOSIG
YBBN,2011-10-31 13:30,153.1292,-27.3917,68.00,57.20,68.35,180.00,7.00,M,30.06,M,6.21,M,FEW,BKN,M,M,2000.00,2900.00,M,M,-DZ,YBBN 311330Z 18007KT 9999 -DZ FEW020 BKN029 20/14 Q1018
YBBN,2011-10-31 14:00,153.1292,-27.3917,68.00,57.20,68.35,150.00,7.00,M,30.06,M,6.21,M,FEW,BKN,M,M,2000.00,2500.00,M,M,M,YBBN 311400Z 15007KT 9999 FEW020 BKN025 20/14 Q1018 NOSIG
YBBN,2011-10-31 14:30,153.1292,-27.3917,66.20,57.20,72.74,130.00,7.00,M,30.06,M,6.21,M,FEW,BKN,M,M,2000.00,2500.00,M,M,M,YBBN 311430Z 13007KT 9999 FEW020 BKN025 19/14 Q1018
YBBN,2011-10-31 15:00,153.1292,-27.3917,66.20,59.00,77.60,160.00,6.00,M,30.03,M,6.21,M,FEW,SCT,BKN,M,2000.00,2500.00,3600.00,M,M,YBBN 311500Z 16006KT 9999 FEW020 SCT025 BKN036 19/15 Q1017 NOSIG
YBBN,2011-10-31 15:30,153.1292,-27.3917,64.40,60.80,88.09,160.00,7.00,M,30.03,M,6.21,M,FEW,SCT,BKN,M,1500.00,2500.00,3600.00,M,VCSH,YBBN 311530Z 16007KT 9999 VCSH FEW015 SCT025 BKN036 18/16 Q1017
YBBN,2011-10-31 16:00,153.1292,-27.3917,64.40,60.80,88.09,160.00,5.00,M,30.03,M,6.21,M,FEW,BKN,M,M,2000.00,3000.00,M,M,M,YBBN 311600Z 16005KT 9999 FEW020 BKN030 18/16 Q1017 NOSIG
YBBN,2011-10-31 16:30,153.1292,-27.3917,66.20,59.00,77.60,170.00,5.00,M,30.03,M,6.21,M,FEW,SCT,BKN,M,2000.00,3000.00,6900.00,M,M,YBBN 311630Z 17005KT 9999 FEW020 SCT030 BKN069 19/15 Q1017
YBBN,2011-10-31 17:00,153.1292,-27.3917,64.40,59.00,82.62,160.00,5.00,M,30.03,M,6.21,M,FEW,BKN,M,M,2000.00,6900.00,M,M,M,YBBN 311700Z 16005KT 9999 FEW020 BKN069 18/15 Q1017 NOSIG
YBBN,2011-10-31 17:30,153.1292,-27.3917,64.40,57.20,77.45,180.00,7.00,M,30.03,M,6.21,M,FEW,BKN,M,M,3000.00,6900.00,M,M,M,YBBN 311730Z 18007KT 9999 FEW030 BKN069 18/14 Q1017
YBBN,2011-10-31 18:00,153.1292,-27.3917,64.40,59.00,82.62,170.00,7.00,M,30.03,M,6.21,M,FEW,BKN,M,M,2500.00,6900.00,M,M,M,YBBN 311800Z 17007KT 9999 FEW025 BKN069 18/15 Q1017 NOSIG
YBBN,2011-10-31 18:30,153.1292,-27.3917,64.40,57.20,77.45,180.00,5.00,M,30.03,M,6.21,M,FEW,BKN,M,M,2500.00,6700.00,M,M,M,YBBN 311830Z 18005KT 9999 FEW025 BKN067 18/14 Q1017
YBBN,2011-10-31 19:00,153.1292,-27.3917,64.40,57.20,77.45,190.00,6.00,M,30.03,M,6.21,M,BKN,BKN,M,M,2500.00,6700.00,M,M,M,YBBN 311900Z 19006KT 9999 BKN025 BKN067 18/14 Q1017 NOSIG
YBBN,2011-10-31 19:30,153.1292,-27.3917,64.40,57.20,77.45,200.00,5.00,M,30.06,M,6.21,M,FEW,SCT,M,M,2500.00,6400.00,M,M,M,YBBN 311930Z 20005KT 9999 FEW025 SCT064 18/14 Q1018
YBBN,2011-10-31 20:00,153.1292,-27.3917,64.40,57.20,77.45,200.00,6.00,M,30.06,M,6.21,M,FEW,SCT,BKN,M,2200.00,6300.00,22000.00,M,M,YBBN 312000Z 20006KT 9999 FEW022 SCT063 BKN220 18/14 Q1018 NOSIG
YBBN,2011-10-31 20:30,153.1292,-27.3917,66.20,59.00,77.60,200.00,7.00,M,30.06,M,6.21,M,FEW,SCT,M,M,2500.00,22000.00,M,M,M,YBBN 312030Z 20007KT 9999 FEW025 SCT220 19/15 Q1018
YBBN,2011-10-31 21:00,153.1292,-27.3917,68.00,57.20,68.35,190.00,8.00,M,30.06,M,6.21,M,FEW,SCT,M,M,2000.00,22000.00,M,M,M,YBBN 312100Z 19008KT 9999 FEW020 SCT220 20/14 Q1018 NOSIG
YBBN,2011-10-31 21:30,153.1292,-27.3917,69.80,57.20,64.26,170.00,9.00,M,30.06,M,6.21,M,FEW,SCT,M,M,2000.00,22000.00,M,M,M,YBBN 312130Z 17009KT 9999 FEW020 SCT220 21/14 Q1018
YBBN,2011-10-31 22:00,153.1292,-27.3917,69.80,57.20,64.26,170.00,7.00,M,30.06,M,6.21,M,FEW,SCT,M,M,2500.00,22000.00,M,M,M,YBBN 312200Z 17007KT 9999 FEW025 SCT220 21/14 Q1018 NOSIG
YBBN,2011-10-31 22:30,153.1292,-27.3917,71.60,55.40,56.63,130.00,9.00,M,30.06,M,6.21,M,FEW,BKN,M,M,2500.00,22000.00,M,M,M,YBBN 312230Z 13009KT 9999 FEW025 BKN220 22/13 Q1018
YBBN,2011-10-31 23:00,153.1292,-27.3917,71.60,53.60,53.03,140.00,8.00,M,30.06,M,6.21,M,FEW,BKN,M,M,3000.00,22000.00,M,M,M,YBBN 312300Z 14008KT 9999 FEW030 BKN220 22/12 Q1018 NOSIG
YBBN,2011-10-31 23:30,153.1292,-27.3917,71.60,53.60,53.03,130.00,8.00,M,30.06,M,6.21,M,FEW,SCT,M,M,3500.00,22000.00,M,M,M,YBBN 312330Z 13008KT 9999 FEW035 SCT220 22/12 Q1018
