#DEBUG: Format Typ    -> comma
#DEBUG: Time Period   -> 2016-11-11 00:00:00+00:00 2016-11-12 00:00:00+00:00
#DEBUG: Time Zone     -> Etc/UTC
#DEBUG: Data Contact   -> daryl herzmann akrherz@iastate.edu 515-294-5978
#DEBUG: Entries Found -> -1
station,valid,lon,lat,tmpf, dwpf, relh, drct, sknt, p01i, alti, mslp, vsby, gust, skyc1, skyc2, skyc3, skyc4, skyl1, skyl2, skyl3, skyl4, presentwx, metar
YBBN,2016-11-11 00:00,153.1292,-27.3917,80.60,68.00,65.54,50.00,7.00,0.00,29.88,M,6.21,M,FEW,M,M,M,2500.00,M,M,M,M,YBBN 110000Z 05007KT 030V090 9999 FEW025 27/20 Q1012 NOSIG
YBBN,2016-11-11 00:30,153.1292,-27.3917,80.60,68.00,65.54,50.00,9.00,0.00,29.85,M,6.21,M,FEW,M,M,M,2000.00,M,M,M,M,YBBN 110030Z 05009KT 9999 FEW020 27/20 Q1011 NOSIG
YBBN,2016-11-11 01:00,153.1292,-27.3917,80.60,68.00,65.54,40.00,10.00,0.00,29.85,M,6.21,M,FEW,M,M,M,2800.00,M,M,M,M,YBBN 110100Z 04010KT 9999 FEW028 27/20 Q1011 NOSIG
YBBN,2016-11-11 01:30,153.1292,-27.3917,82.40,66.20,58.08,50.00,9.00,0.00,29.85,M,6.21,M,FEW,M,M,M,3000.00,M,M,M,M,YBBN 110130Z 05009KT 9999 FEW030 28/19 Q1011 NOSIG
YBBN,2016-11-11 02:00,153.1292,-27.3917,82.40,68.00,61.81,40.00,9.00,0.00,29.83,M,6.21,M,FEW,M,M,M,3200.00,M,M,M,M,YBBN 110200Z 04009KT 9999 FEW032 28/20 Q1010 NOSIG
YBBN,2016-11-11 02:30,153.1292,-27.3917,82.40,68.00,61.81,30.00,13.00,0.00,29.83,M,6.21,M,FEW,M,M,M,3500.00,M,M,M,M,YBBN 110230Z 03013KT 9999 FEW035 28/20 Q1010 NOSIG
YBBN,2016-11-11 03:00,153.1292,-27.3917,82.40,68.00,61.81,50.00,12.00,0.00,29.80,M,6.21,M,FEW,M,M,M,3500.00,M,M,M,M,YBBN 110300Z 05012KT 9999 FEW035 28/20 Q1009 NOSIG
YBBN,2016-11-11 03:30,153.1292,-27.3917,80.60,68.00,65.54,60.00,13.00,0.00,29.80,M,6.21,M,FEW,BKN,M,M,3500.00,27000.00,M,M,M,YBBN 110330Z 06013KT 9999 FEW035 BKN270 27/20 Q1009 NOSIG
YBBN,2016-11-11 04:00,153.1292,-27.3917,80.60,69.80,69.71,50.00,15.00,0.00,29.80,M,6.21,M,FEW,BKN,M,M,3000.00,27000.00,M,M,M,YBBN 110400Z 05015KT 9999 FEW030 BKN270 27/21 Q1009
YBBN,2016-11-11 04:30,153.1292,-27.3917,80.60,68.00,65.54,50.00,14.00,0.00,29.80,M,6.21,M,FEW,BKN,M,M,3000.00,27000.00,M,M,M,YBBN 110430Z 05014KT 9999 FEW030 BKN270 27/20 Q1009 NOSIG
YBBN,2016-11-11 05:00,153.1292,-27.3917,80.60,68.00,65.54,60.00,13.00,0.00,29.77,M,6.21,M,FEW,M,M,M,3000.00,M,M,M,M,YBBN 110500Z 06013KT 9999 FEW030 27/20 Q1008 NOSIG
YBBN,2016-11-11 05:30,153.1292,-27.3917,78.80,68.00,69.52,50.00,13.00,0.00,29.80,M,6.21,M,FEW,BKN,M,M,3000.00,19000.00,M,M,M,YBBN 110530Z 05013KT 9999 FEW030 BKN190 26/20 Q1009 NOSIG
YBBN,2016-11-11 06:00,153.1292,-27.3917,78.80,68.00,69.52,50.00,11.00,0.00,29.77,M,6.21,M,FEW,BKN,M,M,3000.00,19000.00,M,M,M,YBBN 110600Z 05011KT 9999 FEW030 BKN190 26/20 Q1008
YBBN,2016-11-11 06:30,153.1292,-27.3917,77.00,68.00,73.78,50.00,8.00,0.00,29.80,M,6.21,M,FEW,BKN,M,M,2000.00,13000.00,M,M,M,YBBN 110630Z 05008KT 9999 FEW020 BKN130 25/20 Q1009 NOSIG
YBBN,2016-11-11 07:00,153.1292,-27.3917,77.00,66.20,69.33,50.00,8.00,0.00,29.80,M,6.21,M,FEW,BKN,M,M,1000.00,13000.00,M,M,M,YBBN 110700Z 05008KT 9999 FEW010 BKN130 25/19 Q1009 NOSIG
YBBN,2016-11-11 07:30,153.1292,-27.3917,77.00,68.00,73.78,50.00,7.00,0.00,29.80,M,6.21,M,FEW,BKN,M,M,500.00,13000.00,M,M,M,YBBN 110730Z 05007KT 9999 FEW005 BKN130 25/20 Q1009 NOSIG
YBBN,2016-11-11 08:00,153.1292,-27.3917,77.00,68.00,73.78,50.00,7.00,0.00,29.83,M,6.21,M,FEW,BKN,M,M,1500.00,13000.00,M,M,M,YBBN 110800Z 05007KT 9999 FEW015 BKN130 25/20 Q1010 NOSIG
YBBN,2016-11-11 08:30,153.1292,-27.3917,75.20,68.00,78.34,40.00,7.00,0.00,29.83,M,6.21,M,FEW,BKN,M,M,1500.00,13000.00,M,M,M,YBBN 110830Z 04007KT 9999 FEW015 BKN130 24/20 Q1010 NOSIG
YBBN,2016-11-11 09:00,153.1292,-27.3917,75.20,68.00,78.34,40.00,7.00,0.00,29.83,M,6.21,M,FEW,BKN,M,M,1500.00,13000.00,M,M,M,YBBN 110900Z 04007KT 9999 FEW015 BKN130 24/20 Q1010
YBBN,2016-11-11 09:30,153.1292,-27.3917,75.20,68.00,78.34,40.00,7.00,0.00,29.85,M,6.21,M,FEW,BKN,M,M,1600.00,13000.00,M,M,M,YBBN 110930Z 04007KT 9999 FEW016 BKN130 24/20 Q1011
YBBN,2016-11-11 10:00,153.1292,-27.3917,73.40,68.00,83.21,20.00,6.00,0.00,29.85,M,6.21,M,FEW,SCT,M,M,1800.00,13000.00,M,M,M,YBBN 111000Z 02006KT 9999 FEW018 SCT130 23/20 Q1011 NOSIG
YBBN,2016-11-11 10:30,153.1292,-27.3917,73.40,68.00,83.21,40.00,6.00,0.00,29.85,M,6.21,M,FEW,M,M,M,1800.00,M,M,M,M,YBBN 111030Z 04006KT 9999 FEW018 23/20 Q1011 NOSIG
YBBN,2016-11-11 11:00,153.1292,-27.3917,73.40,68.00,83.21,50.00,5.00,0.00,29.88,M,6.21,M,FEW,M,M,M,1800.00,M,M,M,M,YBBN 111100Z 05005KT 9999 FEW018 23/20 Q1012 NOSIG
YBBN,2016-11-11 11:30,153.1292,-27.3917,71.60,68.00,88.43,50.00,5.00,0.00,29.88,M,6.21,M,FEW,M,M,M,1800.00,M,M,M,M,YBBN 111130Z 05005KT 9999 FEW018 22/20 Q1012 NOSIG
YBBN,2016-11-11 12:00,153.1292,-27.3917,71.60,68.00,88.43,40.00,5.00,0.00,29.88,M,6.21,M,FEW,M,M,M,1800.00,M,M,M,M,YBBN 111200Z 04005KT 9999 FEW018 22/20 Q1012 NOSIG
YBBN,2016-11-11 12:30,153.1292,-27.3917,71.60,68.00,88.43,40.00,5.00,0.00,29.88,M,6.21,M,SCT,M,M,M,1800.00,M,M,M,M,YBBN 111230Z 04005KT 9999 SCT018 22/20 Q1012 NOSIG
YBBN,2016-11-11 13:00,153.1292,-27.3917,73.40,69.80,88.51,30.00,6.00,0.00,29.85,M,6.21,M,FEW,BKN,M,M,1500.00,1900.00,M,M,M,YBBN 111300Z 03006KT 9999 FEW015 BKN019 23/21 Q1011
YBBN,2016-11-11 13:30,153.1292,-27.3917,73.40,69.80,88.51,20.00,8.00,0.00,29.85,M,6.21,M,FEW,BKN,M,M,1600.00,2000.00,M,M,M,YBBN 111330Z 02008KT 9999 FEW016 BKN020 23/21 Q1011 NOSIG
YBBN,2016-11-11 14:00,153.1292,-27.3917,73.40,69.80,88.51,30.00,7.00,0.00,29.85,M,6.21,M,FEW,SCT,M,M,1700.00,2000.00,M,M,M,YBBN 111400Z 03007KT 9999 FEW017 SCT020 23/21 Q1011
YBBN,2016-11-11 14:30,153.1292,-27.3917,73.40,69.80,88.51,20.00,7.00,0.00,29.85,M,6.21,M,FEW,M,M,M,1200.00,M,M,M,M,YBBN 111430Z 02007KT 9999 FEW012 23/21 Q1011 NOSIG
YBBN,2016-11-11 15:00,153.1292,-27.3917,73.40,71.60,94.10,30.00,7.00,0.00,29.83,M,6.21,M,FEW,M,M,M,1200.00,M,M,M,M,YBBN 111500Z 03007KT 9999 FEW012 23/22 Q1010
YBBN,2016-11-11 15:30,153.1292,-27.3917,75.20,71.60,88.59,40.00,7.00,0.00,29.83,M,6.21,M,FEW,SCT,M,M,1400.00,2000.00,M,M,M,YBBN 111530Z 04007KT 9999 FEW014 SCT020 24/22 Q1010 NOSIG
YBBN,2016-11-11 16:00,153.1292,-27.3917,73.40,71.60,94.10,10.00,8.00,0.00,29.80,M,6.21,M,FEW,M,M,M,1200.00,M,M,M,M,YBBN 111600Z 01008KT 9999 FEW012 23/22 Q1009
YBBN,2016-11-11 16:30,153.1292,-27.3917,73.40,71.60,94.10,10.00,8.00,0.00,29.80,M,6.21,M,FEW,M,M,M,1200.00,M,M,M,M,YBBN 111630Z 01008KT 9999 FEW012 23/22 Q1009 NOSIG
YBBN,2016-11-11 17:00,153.1292,-27.3917,73.40,71.60,94.10,10.00,7.00,0.00,29.80,M,6.21,M,FEW,SCT,M,M,1200.00,1800.00,M,M,M,YBBN 111700Z 01007KT 9999 FEW012 SCT018 23/22 Q1009
YBBN,2016-11-11 17:30,153.1292,-27.3917,73.40,71.60,94.10,350.00,6.00,0.00,29.80,M,6.21,M,SCT,M,M,M,1200.00,M,M,M,M,YBBN 111730Z 35006KT 270V010 9999 SCT012 23/22 Q1009 NOSIG
YBBN,2016-11-11 18:00,153.1292,-27.3917,73.40,71.60,94.10,300.00,4.00,0.00,29.80,M,6.21,M,SCT,M,M,M,1200.00,M,M,M,M,YBBN 111800Z 30004KT 9999 SCT012 23/22 Q1009
YBBN,2016-11-11 18:30,153.1292,-27.3917,73.40,71.60,94.10,360.00,11.00,0.00,29.80,M,6.21,M,FEW,SCT,BKN,M,1000.00,1400.00,20000.00,M,M,YBBN 111830Z 36011KT 9999 FEW010 SCT014 BKN200 23/22 Q1009 NOSIG
YBBN,2016-11-11 19:00,153.1292,-27.3917,75.20,71.60,88.59,360.00,11.00,0.00,29.80,M,6.21,M,FEW,SCT,BKN,M,1000.00,1400.00,20000.00,M,M,YBBN 111900Z 36011KT 9999 FEW010 SCT014 BKN200 24/22 Q1009
YBBN,2016-11-11 19:30,153.1292,-27.3917,75.20,71.60,88.59,350.00,9.00,0.00,29.80,M,6.21,M,FEW,SCT,BKN,M,1000.00,2200.00,20000.00,M,M,YBBN 111930Z 35009KT 9999 FEW010 SCT022 BKN200 24/22 Q1009
YBBN,2016-11-11 20:00,153.1292,-27.3917,77.00,71.60,83.44,360.00,13.00,0.00,29.80,M,6.21,M,FEW,SCT,BKN,M,1000.00,2000.00,20000.00,M,M,YBBN 112000Z 36013KT 9999 FEW010 SCT020 BKN200 25/22 Q1009
YBBN,2016-11-11 20:30,153.1292,-27.3917,77.00,71.60,83.44,360.00,12.00,0.00,29.83,M,6.21,M,BKN,BKN,M,M,1100.00,1500.00,M,M,VCSH,YBBN 112030Z 36012KT 9999 VCSH BKN011 BKN015 25/22 Q1010
YBBN,2016-11-11 21:00,153.1292,-27.3917,77.00,71.60,83.44,360.00,13.00,0.00,29.83,M,6.21,M,BKN,BKN,M,M,1100.00,1700.00,M,M,VCSH,YBBN 112100Z 36013KT 9999 VCSH BKN011 BKN017 25/22 Q1010
YBBN,2016-11-11 21:30,153.1292,-27.3917,77.00,71.60,83.44,360.00,13.00,0.00,29.83,M,6.21,M,BKN,BKN,M,M,1100.00,2600.00,M,M,M,YBBN 112130Z 36013KT 9999 BKN011 BKN026 25/22 Q1010
YBBN,2016-11-11 22:00,153.1292,-27.3917,78.80,71.60,78.62,360.00,13.00,0.00,29.83,M,6.21,M,SCT,BKN,M,M,1100.00,19000.00,M,M,M,YBBN 112200Z 36013KT 9999 SCT011 BKN190 26/22 Q1010
YBBN,2016-11-11 22:30,153.1292,-27.3917,78.80,71.60,78.62,360.00,12.00,0.00,29.83,M,6.21,M,FEW,BKN,M,M,1500.00,25000.00,M,M,M,YBBN 112230Z 36012KT 9999 FEW015 BKN250 26/22 Q1010 NOSIG
YBBN,2016-11-11 23:00,153.1292,-27.3917,80.60,71.60,74.11,10.00,12.00,0.00,29.80,M,6.21,M,FEW,SCT,BKN,M,1400.00,2200.00,25000.00,M,M,YBBN 112300Z 01012KT 9999 FEW014 SCT022 BKN250 27/22 Q1009 NOSIG
YBBN,2016-11-11 23:30,153.1292,-27.3917,80.60,71.60,74.11,20.00,11.00,0.00,29.80,M,6.21,M,FEW,BKN,M,M,1400.00,25000.00,M,M,M,YBBN 112330Z 02011KT 9999 FEW014 BKN250 27/22 Q1009
