#DEBUG: Format Typ    -> comma
#DEBUG: Time Period   -> 2014-05-07 00:00:00+00:00 2014-05-08 00:00:00+00:00
#DEBUG: Time Zone     -> Etc/UTC
#DEBUG: Data Contact   -> daryl herzmann akrherz@iastate.edu 515-294-5978
#DEBUG: Entries Found -> -1
station,valid,lon,lat,tmpf, dwpf, relh, drct, sknt, p01i, alti, mslp, vsby, gust, skyc1, skyc2, skyc3, skyc4, skyl1, skyl2, skyl3, skyl4, presentwx, metar
YBBN,2014-05-07 00:00,153.1292,-27.3917,66.20,46.40,48.83,210.00,10.00,0.00,30.09,M,6.21,M,FEW,SCT,BKN,M,4500.00,18000.00,23000.00,M,M,YBBN 070000Z 21010KT 9999 FEW045 SCT180 BKN230 19/08 Q1019 NOSIG
YBBN,2014-05-07 00:30,153.1292,-27.3917,69.80,48.20,46.16,200.00,8.00,0.00,30.09,M,6.21,M,FEW,SCT,BKN,M,4500.00,7100.00,17000.00,M,M,YBBN 070030Z 20008KT 9999 FEW045 SCT071 BKN170 21/09 Q1019
YBBN,2014-05-07 01:00,153.1292,-27.3917,69.80,50.00,49.37,180.00,8.00,0.00,30.09,M,6.21,M,FEW,BKN,M,M,4200.00,7300.00,M,M,M,YBBN 070100Z 18008KT 9999 FEW042 BKN073 21/10 Q1019 NOSIG
YBBN,2014-05-07 01:30,153.1292,-27.3917,71.60,50.00,46.43,170.00,5.00,0.00,30.09,M,6.21,M,SCT,SCT,M,M,4500.00,19000.00,M,M,M,YBBN 070130Z 17005KT 9999 SCT045 SCT190 22/10 Q1019
YBBN,2014-05-07 02:00,153.1292,-27.3917,71.60,51.80,49.64,130.00,7.00,0.00,30.06,M,6.21,M,FEW,SCT,BKN,M,4500.00,7700.00,20000.00,M,M,YBBN 070200Z 13007KT 9999 FEW045 SCT077 BKN200 22/11 Q1018
YBBN,2014-05-07 02:30,153.1292,-27.3917,73.40,53.60,49.90,110.00,8.00,0.00,30.03,M,6.21,M,SCT,BKN,M,M,4500.00,20000.00,M,M,M,YBBN 070230Z 11008KT 9999 SCT045 BKN200 23/12 Q1017
YBBN,2014-05-07 03:00,153.1292,-27.3917,71.60,55.40,56.63,110.00,11.00,0.00,30.03,M,6.21,M,SCT,SCT,M,M,4500.00,21000.00,M,M,M,YBBN 070300Z 11011KT 9999 SCT045 SCT210 22/13 Q1017 NOSIG
YBBN,2014-05-07 03:30,153.1292,-27.3917,73.40,53.60,49.90,110.00,10.00,0.00,30.03,M,6.21,M,FEW,BKN,M,M,4000.00,21000.00,M,M,M,YBBN 070330Z 11010KT 9999 FEW040 BKN210 23/12 Q1017
YBBN,2014-05-07 04:00,153.1292,-27.3917,71.60,55.40,56.63,110.00,9.00,0.00,30.03,M,6.21,M,FEW,BKN,M,M,3800.00,21000.00,M,M,M,YBBN 070400Z 11009KT 9999 FEW038 BKN210 22/13 Q1017
YBBN,2014-05-07 04:30,153.1292,-27.3917,71.60,53.60,53.03,110.00,10.00,0.00,30.03,M,6.21,M,FEW,BKN,M,M,3800.00,21000.00,M,M,M,YBBN 070430Z 11010KT 9999 FEW038 BKN210 22/12 Q1017
YBBN,2014-05-07 05:00,153.1292,-27.3917,71.60,55.40,56.63,120.00,9.00,0.00,30.03,M,6.21,M,FEW,BKN,M,M,2500.00,20000.00,M,M,M,YBBN 070500Z 12009KT 9999 FEW025TCU BKN200 22/13 Q1017
YBBN,2014-05-07 05:30,153.1292,-27.3917,71.60,55.40,56.63,110.00,10.00,0.00,30.03,M,6.21,M,FEW,SCT,M,M,2500.00,23000.00,M,M,M,YBBN 070530Z 11010KT 9999 FEW025TCU SCT230 22/13 Q1017
YBBN,2014-05-07 06:00,153.1292,-27.3917,69.80,55.40,60.21,110.00,9.00,0.00,30.03,M,6.21,M,FEW,SCT,M,M,2500.00,23000.00,M,M,M,YBBN 070600Z 11009KT 9999 FEW025TCU SCT230 21/13 Q1017 NOSIG
YBBN,2014-05-07 06:30,153.1292,-27.3917,69.80,57.20,64.26,110.00,9.00,0.00,30.03,M,6.21,M,FEW,SCT,M,M,2500.00,23000.00,M,M,M,YBBN 070630Z 11009KT 9999 FEW025TCU SCT230 21/14 Q1017
YBBN,2014-05-07 07:00,153.1292,-27.3917,68.00,57.20,68.35,110.00,7.00,0.00,30.06,M,6.21,M,FEW,BKN,M,M,2500.00,21000.00,M,M,M,YBBN 070700Z 11007KT 9999 FEW025TCU BKN210 20/14 Q1018
YBBN,2014-05-07 07:30,153.1292,-27.3917,68.00,57.20,68.35,120.00,7.00,0.00,30.06,M,6.21,M,FEW,SCT,BKN,M,2500.00,21000.00,24000.00,M,M,YBBN 070730Z 12007KT 9999 FEW025TCU SCT210 BKN240 20/14 Q1018
YBBN,2014-05-07 08:00,153.1292,-27.3917,68.00,57.20,68.35,120.00,8.00,0.00,30.06,M,6.21,M,FEW,SCT,BKN,M,2500.00,21000.00,24000.00,M,M,YBBN 070800Z 12008KT 9999 FEW025TCU SCT210 BKN240 20/14 Q1018 NOSIG
YBBN,2014-05-07 08:30,153.1292,-27.3917,68.00,55.40,64.04,120.00,7.00,0.00,30.09,M,6.21,M,M,M,M,M,M,M,M,M,M,YBBN 070830Z 12007KT CAVOK 20/13 Q1019
YBBN,2014-05-07 09:00,153.1292,-27.3917,68.00,55.40,64.04,130.00,6.00,0.00,30.09,M,6.21,M,M,M,M,M,M,M,M,M,M,YBBN 070900Z 13006KT CAVOK 20/13 Q1019 NOSIG
YBBN,2014-05-07 09:30,153.1292,-27.3917,66.20,53.60,63.82,150.00,6.00,0.00,30.12,M,6.21,M,M,M,M,M,M,M,M,M,M,YBBN 070930Z 15006KT CAVOK 19/12 Q1020
YBBN,2014-05-07 10:00,153.1292,-27.3917,64.40,53.60,67.95,160.00,5.00,0.00,30.12,M,6.21,M,M,M,M,M,M,M,M,M,M,YBBN 071000Z 16005KT CAVOK 18/12 Q1020
YBBN,2014-05-07 10:30,153.1292,-27.3917,64.40,53.60,67.95,170.00,7.00,0.00,30.12,M,6.21,M,M,M,M,M,M,M,M,M,M,YBBN 071030Z 17007KT CAVOK 18/12 Q1020
YBBN,2014-05-07 11:00,153.1292,-27.3917,64.40,53.60,67.95,160.00,6.00,0.00,30.12,M,6.21,M,M,M,M,M,M,M,M,M,M,YBBN 071100Z 16006KT CAVOK 18/12 Q1020
YBBN,2014-05-07 11:30,153.1292,-27.3917,62.60,53.60,72.38,170.00,7.00,0.00,30.12,M,6.21,M,M,M,M,M,M,M,M,M,M,YBBN 071130Z 17007KT CAVOK 17/12 Q1020
YBBN,2014-05-07 12:00,153.1292,-27.3917,62.60,53.60,72.38,200.00,6.00,0.00,30.12,M,6.21,M,M,M,M,M,M,M,M,M,M,YBBN 071200Z 20006KT CAVOK 17/12 Q1020
YBBN,2014-05-07 12:30,153.1292,-27.3917,60.80,53.60,77.14,190.00,4.00,0.00,30.12,M,6.21,M,M,M,M,M,M,M,M,M,M,YBBN 071230Z 19004KT CAVOK 16/12 Q1020
YBBN,2014-05-07 13:00,153.1292,-27.3917,59.00,51.80,76.98,200.00,4.00,0.00,30.12,M,6.21,M,M,M,M,M,M,M,M,M,M,YBBN 071300Z 20004KT CAVOK 15/11 Q1020
YBBN,2014-05-07 13:30,153.1292,-27.3917,60.80,53.60,77.14,210.00,6.00,0.00,30.12,M,6.21,M,M,M,M,M,M,M,M,M,M,YBBN 071330Z 21006KT CAVOK 16/12 Q1020
YBBN,2014-05-07 14:00,153.1292,-27.3917,60.80,51.80,72.20,210.00,7.00,0.00,30.12,M,6.21,M,M,M,M,M,M,M,M,M,M,YBBN 071400Z 21007KT CAVOK 16/11 Q1020 NOSIG
YBBN,2014-05-07 14:30,153.1292,-27.3917,60.80,53.60,77.14,210.00,7.00,0.00,30.09,M,6.21,M,M,M,M,M,M,M,M,M,M,YBBN 071430Z 21007KT CAVOK 16/12 Q1019
YBBN,2014-05-07 15:00,153.1292,-27.3917,60.80,53.60,77.14,200.00,6.00,0.00,30.09,M,6.21,M,M,M,M,M,M,M,M,M,M,YBBN 071500Z 20006KT CAVOK 16/12 Q1019
YBBN,2014-05-07 15:30,153.1292,-27.3917,60.80,53.60,77.14,200.00,7.00,0.00,30.09,M,6.21,M,M,M,M,M,M,M,M,M,M,YBBN 071530Z 20007KT CAVOK 16/12 Q1019
YBBN,2014-05-07 16:00,153.1292,-27.3917,62.60,53.60,72.38,200.00,7.00,0.00,30.09,M,6.21,M,M,M,M,M,M,M,M,M,M,YBBN 071600Z 20007KT CAVOK 17/12 Q1019
YBBN,2014-05-07 16:30,153.1292,-27.3917,62.60,53.60,72.38,200.00,8.00,0.00,30.09,M,6.21,M,M,M,M,M,M,M,M,M,M,YBBN 071630Z 20008KT CAVOK 17/12 Q1019
YBBN,2014-05-07 17:00,153.1292,-27.3917,60.80,53.60,77.14,200.00,7.00,0.00,30.09,M,6.21,M,M,M,M,M,M,M,M,M,M,YBBN 071700Z 20007KT CAVOK 16/12 Q1019
YBBN,2014-05-07 17:30,153.1292,-27.3917,59.00,53.60,82.25,210.00,7.00,0.00,30.09,M,6.21,M,M,M,M,M,M,M,M,M,M,YBBN 071730Z 21007KT CAVOK 15/12 Q1019
YBBN,2014-05-07 18:00,153.1292,-27.3917,60.80,53.60,77.14,200.00,7.00,0.00,30.09,M,6.21,M,M,M,M,M,M,M,M,M,M,YBBN 071800Z 20007KT CAVOK 16/12 Q1019 NOSIG
YBBN,2014-05-07 18:30,153.1292,-27.3917,60.80,53.60,77.14,200.00,8.00,0.00,30.09,M,6.21,M,FEW,SCT,M,M,4500.00,8500.00,M,M,M,YBBN 071830Z 20008KT 9999 FEW045 SCT085 16/12 Q1019
YBBN,2014-05-07 19:00,153.1292,-27.3917,59.00,53.60,82.25,200.00,7.00,0.00,30.12,M,6.21,M,M,M,M,M,M,M,M,M,M,YBBN 071900Z 20007KT CAVOK 15/12 Q1020
YBBN,2014-05-07 19:30,153.1292,-27.3917,59.00,53.60,82.25,210.00,8.00,0.00,30.12,M,6.21,M,M,M,M,M,M,M,M,M,M,YBBN 071930Z 21008KT CAVOK 15/12 Q1020
YBBN,2014-05-07 20:00,153.1292,-27.3917,59.00,53.60,82.25,200.00,8.00,0.00,30.12,M,6.21,M,M,M,M,M,M,M,M,M,M,YBBN 072000Z 20008KT CAVOK 15/12 Q1020 NOSIG
YBBN,2014-05-07 20:30,153.1292,-27.3917,59.00,53.60,82.25,200.00,7.00,0.00,30.12,M,6.21,M,FEW,SCT,BKN,M,2700.00,5800.00,10000.00,M,M,YBBN 072030Z 20007KT 9999 FEW027 SCT058 BKN100 15/12 Q1020 RMK DIST SHRA E/NE
YBBN,2014-05-07 21:00,153.1292,-27.3917,60.80,55.40,82.37,210.00,9.00,0.00,30.15,M,6.21,M,FEW,BKN,M,M,2700.00,10000.00,M,M,M,YBBN 072100Z 21009KT 9999 FEW027 BKN100 16/13 Q1021 NOSIG
YBBN,2014-05-07 21:30,153.1292,-27.3917,62.60,53.60,72.38,200.00,10.00,0.00,30.15,M,6.21,M,FEW,SCT,M,M,2800.00,10000.00,M,M,M,YBBN 072130Z 20010KT 9999 FEW028 SCT100 17/12 Q1021 RMK DIST SHRA E/NE
YBBN,2014-05-07 22:00,153.1292,-27.3917,64.40,53.60,67.95,210.00,9.00,0.00,30.15,M,6.21,M,FEW,SCT,M,M,2800.00,10000.00,M,M,M,YBBN 072200Z 21009KT 9999 FEW028 SCT100 18/12 Q1021
YBBN,2014-05-07 22:30,153.1292,-27.3917,64.40,53.60,67.95,200.00,8.00,0.00,30.15,M,6.21,M,FEW,SCT,M,M,2800.00,10000.00,M,M,M,YBBN 072230Z 20008KT 9999 FEW028 SCT100 18/12 Q1021 RMK DIST SHRA E/NE
YBBN,2014-05-07 23:00,153.1292,-27.3917,66.20,53.60,63.82,190.00,9.00,0.00,30.15,M,6.21,M,FEW,SCT,BKN,M,2800.00,8600.00,10000.00,M,M,YBBN 072300Z 19009KT 9999 FEW028 SCT086 BKN100 19/12 Q1021
YBBN,2014-05-07 23:30,153.1292,-27.3917,68.00,53.60,59.97,190.00,8.00,0.00,30.15,M,6.21,M,FEW,SCT,BKN,M,2800.00,5800.00,9500.00,M,M,YBBN 072330Z 19008KT 9999 FEW028 SCT058 BKN095 20/12 Q1021 RMK DIST SHRA NE
