#DEBUG: Format Typ    -> comma
#DEBUG: Time Period   -> 2012-12-08 00:00:00+00:00 2012-12-09 00:00:00+00:00
#DEBUG: Time Zone     -> Etc/UTC
#DEBUG: Data Contact   -> daryl herzmann akrherz@iastate.edu 515-294-5978
#DEBUG: Entries Found -> -1
station,valid,lon,lat,tmpf, dwpf, relh, drct, sknt, p01i, alti, mslp, vsby, gust, skyc1, skyc2, skyc3, skyc4, skyl1, skyl2, skyl3, skyl4, presentwx, metar
YBBN,2012-12-08 00:00,153.1292,-27.3917,80.60,60.80,50.95,20.00,10.00,0.00,30.12,M,6.21,M,SCT,SCT,M,M,3800.00,6800.00,M,M,M,YBBN 080000Z 02010KT 9999 SCT038 SCT068 27/16 Q1020 NOSIG
YBBN,2012-12-08 00:30,153.1292,-27.3917,80.60,62.60,54.30,10.00,10.00,0.00,30.12,M,6.21,M,SCT,M,M,M,3800.00,M,M,M,M,YBBN 080030Z 01010KT 9999 SCT038 27/17 Q1020
YBBN,2012-12-08 01:00,153.1292,-27.3917,78.80,62.60,57.60,20.00,10.00,0.00,30.12,M,6.21,M,FEW,SCT,M,M,2300.00,3800.00,M,M,M,YBBN 080100Z 02010KT 9999 FEW023 SCT038 26/17 Q1020 RMK DIST SH EAST
YBBN,2012-12-08 01:30,153.1292,-27.3917,80.60,64.40,57.84,20.00,11.00,0.00,30.09,M,6.21,M,FEW,SCT,FEW,M,3800.00,14000.00,3900.00,M,M,YBBN 080130Z 02011KT 9999 FEW038 SCT140 FEW039TCU 27/18 Q1019
YBBN,2012-12-08 02:00,153.1292,-27.3917,80.60,60.80,50.95,30.00,13.00,0.00,30.09,M,6.21,M,FEW,SCT,M,M,4000.00,23000.00,M,M,M,YBBN 080200Z 03013KT 9999 FEW040 SCT230 27/16 Q1019 NOSIG
YBBN,2012-12-08 02:30,153.1292,-27.3917,82.40,60.80,48.05,20.00,13.00,0.00,30.09,M,6.21,M,FEW,BKN,M,M,4000.00,25000.00,M,M,M,YBBN 080230Z 02013KT 9999 FEW040 BKN250 28/16 Q1019
YBBN,2012-12-08 03:00,153.1292,-27.3917,82.40,59.00,45.07,30.00,14.00,0.00,30.06,M,6.21,M,FEW,BKN,M,M,4000.00,25000.00,M,M,M,YBBN 080300Z 03014KT 9999 FEW040 BKN250 28/15 Q1018 NOSIG
YBBN,2012-12-08 03:30,153.1292,-27.3917,80.60,62.60,54.30,20.00,15.00,0.00,30.06,M,6.21,M,FEW,SCT,M,M,4200.00,25000.00,M,M,M,YBBN 080330Z 02015KT 9999 FEW042 SCT250 27/17 Q1018 RMK VIRGA
YBBN,2012-12-08 04:00,153.1292,-27.3917,80.60,62.60,54.30,30.00,14.00,0.00,30.03,M,6.21,M,FEW,M,M,M,4200.00,M,M,M,M,YBBN 080400Z 03014KT 9999 FEW042 27/17 Q1017 NOSIG
YBBN,2012-12-08 04:30,153.1292,-27.3917,80.60,62.60,54.30,30.00,14.00,0.00,30.03,M,6.21,M,FEW,M,M,M,4200.00,M,M,M,M,YBBN 080430Z 03014KT 9999 FEW042 27/17 Q1017
YBBN,2012-12-08 05:00,153.1292,-27.3917,80.60,62.60,54.30,10.00,14.00,0.00,30.03,M,6.21,M,FEW,M,M,M,4000.00,M,M,M,M,YBBN 080500Z 01014KT 9999 FEW040 27/17 Q1017
YBBN,2012-12-08 05:30,153.1292,-27.3917,78.80,64.40,61.36,10.00,14.00,0.00,30.03,M,6.21,M,FEW,SCT,M,M,2500.00,25000.00,M,M,M,YBBN 080530Z 01014KT 9999 FEW025 SCT250 26/18 Q1017 RMK VIRGA
YBBN,2012-12-08 06:00,153.1292,-27.3917,78.80,64.40,61.36,10.00,15.00,0.00,30.03,M,6.21,M,FEW,SCT,M,M,2500.00,25000.00,M,M,M,YBBN 080600Z 01015KT 9999 FEW025 SCT250 26/18 Q1017 RMK FU
YBBN,2012-12-08 06:30,153.1292,-27.3917,77.00,64.40,65.12,20.00,15.00,0.00,30.03,M,6.21,M,FEW,SCT,BKN,M,2300.00,14000.00,25000.00,M,M,YBBN 080630Z 02015KT 9999 FEW023 SCT140 BKN250 25/18 Q1017 RMK FU
YBBN,2012-12-08 07:00,153.1292,-27.3917,77.00,62.60,61.13,10.00,13.00,0.00,30.03,M,6.21,M,FEW,BKN,M,M,2300.00,14000.00,M,M,M,YBBN 080700Z 01013KT 9999 FEW023 BKN140 25/17 Q1017
YBBN,2012-12-08 07:30,153.1292,-27.3917,77.00,62.60,61.13,30.00,12.00,0.00,30.03,M,6.21,M,FEW,BKN,M,M,2500.00,14000.00,M,M,M,YBBN 080730Z 03012KT 9999 FEW025 BKN140 25/17 Q1017
YBBN,2012-12-08 08:00,153.1292,-27.3917,77.00,62.60,61.13,50.00,11.00,0.00,30.06,M,6.21,M,FEW,SCT,BKN,M,2500.00,3100.00,13000.00,M,M,YBBN 080800Z 05011KT 9999 FEW025 SCT031 BKN130 25/17 Q1018
YBBN,2012-12-08 08:30,153.1292,-27.3917,75.20,62.60,64.91,40.00,11.00,0.00,30.06,M,6.21,M,FEW,SCT,BKN,M,2500.00,3300.00,13000.00,M,M,YBBN 080830Z 04011KT 9999 FEW025 SCT033 BKN130 24/17 Q1018
YBBN,2012-12-08 09:00,153.1292,-27.3917,75.20,62.60,64.91,30.00,11.00,0.00,30.06,M,6.21,M,FEW,BKN,M,M,2500.00,12500.00,M,M,M,YBBN 080900Z 03011KT 9999 FEW025 BKN125 24/17 Q1018
YBBN,2012-12-08 09:30,153.1292,-27.3917,75.20,62.60,64.91,40.00,11.00,0.00,30.06,M,6.21,M,FEW,BKN,M,M,2300.00,12000.00,M,M,M,YBBN 080930Z 04011KT 9999 FEW023 BKN120 24/17 Q1018
YBBN,2012-12-08 10:00,153.1292,-27.3917,75.20,62.60,64.91,40.00,9.00,0.00,30.06,M,6.21,M,SCT,BKN,M,M,2800.00,12000.00,M,M,M,YBBN 081000Z 04009KT 9999 SCT028 BKN120 24/17 Q1018 NOSIG
YBBN,2012-12-08 10:30,153.1292,-27.3917,75.20,64.40,69.14,30.00,11.00,0.00,30.06,M,6.21,M,FEW,SCT,M,M,2300.00,12000.00,M,M,M,YBBN 081030Z 03011KT 9999 FEW023 SCT120 24/18 Q1018
YBBN,2012-12-08 11:00,153.1292,-27.3917,75.20,64.40,69.14,40.00,10.00,0.00,30.06,M,6.21,M,FEW,SCT,M,M,2500.00,12000.00,M,M,M,YBBN 081100Z 04010KT 9999 FEW025 SCT120 24/18 Q1018 NOSIG
YBBN,2012-12-08 11:30,153.1292,-27.3917,75.20,64.40,69.14,30.00,8.00,0.00,30.09,M,6.21,M,FEW,SCT,M,M,2500.00,3500.00,M,M,M,YBBN 081130Z 03008KT 9999 FEW025 SCT035 24/18 Q1019
YBBN,2012-12-08 12:00,153.1292,-27.3917,73.40,62.60,68.94,40.00,9.00,0.00,30.06,M,6.21,M,SCT,M,M,M,2700.00,M,M,M,M,YBBN 081200Z 04009KT 9999 SCT027 23/17 Q1018
YBBN,2012-12-08 12:30,153.1292,-27.3917,73.40,62.60,68.94,40.00,9.00,0.00,30.06,M,6.21,M,SCT,M,M,M,2600.00,M,M,M,M,YBBN 081230Z 04009KT 9999 SCT026 23/17 Q1018
YBBN,2012-12-08 13:00,153.1292,-27.3917,73.40,62.60,68.94,40.00,10.00,0.00,30.06,M,6.21,M,FEW,SCT,M,M,2600.00,11000.00,M,M,M,YBBN 081300Z 04010KT 9999 FEW026 SCT110 23/17 Q1018
YBBN,2012-12-08 13:30,153.1292,-27.3917,73.40,62.60,68.94,30.00,9.00,0.00,30.06,M,6.21,M,FEW,SCT,M,M,2600.00,3700.00,M,M,M,YBBN 081330Z 03009KT 9999 FEW026 SCT037 23/17 Q1018
YBBN,2012-12-08 14:00,153.1292,-27.3917,73.40,62.60,68.94,30.00,8.00,0.00,30.06,M,6.21,M,FEW,BKN,M,M,2600.00,4600.00,M,M,M,YBBN 081400Z 03008KT 9999 FEW026 BKN046 23/17 Q1018
YBBN,2012-12-08 14:30,153.1292,-27.3917,73.40,62.60,68.94,40.00,8.00,0.00,30.03,M,6.21,M,FEW,SCT,M,M,2600.00,4600.00,M,M,M,YBBN 081430Z 04008KT 9999 FEW026 SCT046 23/17 Q1017
YBBN,2012-12-08 15:00,153.1292,-27.3917,71.60,62.60,73.27,30.00,8.00,0.00,30.03,M,6.21,M,BKN,M,M,M,4800.00,M,M,M,M,YBBN 081500Z 03008KT 9999 BKN048 22/17 Q1017 NOSIG
YBBN,2012-12-08 15:30,153.1292,-27.3917,73.40,62.60,68.94,30.00,7.00,0.00,30.03,M,6.21,M,M,M,M,M,M,M,M,M,M,YBBN 081530Z 03007KT CAVOK 23/17 Q1017 RMK 7SC052
YBBN,2012-12-08 16:00,153.1292,-27.3917,73.40,62.60,68.94,20.00,7.00,0.00,30.00,M,6.21,M,FEW,BKN,M,M,2500.00,5000.00,M,M,M,YBBN 081600Z 02007KT 9999 FEW025 BKN050 23/17 Q1016 NOSIG
YBBN,2012-12-08 16:30,153.1292,-27.3917,73.40,64.40,73.44,40.00,9.00,0.00,30.00,M,6.21,M,FEW,BKN,M,M,2500.00,5300.00,M,M,M,YBBN 081630Z 04009KT 9999 FEW025 BKN053 23/18 Q1016
YBBN,2012-12-08 17:00,153.1292,-27.3917,73.40,62.60,68.94,40.00,8.00,0.00,30.00,M,6.21,M,M,M,M,M,M,M,M,M,M,YBBN 081700Z 04008KT CAVOK 23/17 Q1016
YBBN,2012-12-08 17:30,153.1292,-27.3917,71.60,62.60,73.27,30.00,7.00,0.00,30.00,M,6.21,M,FEW,SCT,BKN,M,2700.00,5100.00,23000.00,M,M,YBBN 081730Z 03007KT 9999 FEW027 SCT051 BKN230 22/17 Q1016
YBBN,2012-12-08 18:00,153.1292,-27.3917,71.60,62.60,73.27,30.00,6.00,0.00,30.00,M,6.21,M,FEW,BKN,M,M,2300.00,22000.00,M,M,M,YBBN 081800Z 03006KT 9999 FEW023 BKN220 22/17 Q1016 NOSIG
YBBN,2012-12-08 18:30,153.1292,-27.3917,71.60,62.60,73.27,40.00,7.00,0.00,30.00,M,6.21,M,FEW,BKN,M,M,2500.00,22000.00,M,M,M,YBBN 081830Z 04007KT 9999 FEW025 BKN220 22/17 Q1016
YBBN,2012-12-08 19:00,153.1292,-27.3917,71.60,62.60,73.27,40.00,6.00,0.00,30.00,M,6.21,M,SCT,BKN,M,M,2500.00,22000.00,M,M,M,YBBN 081900Z 04006KT 9999 SCT025 BKN220 22/17 Q1016 NOSIG
YBBN,2012-12-08 19:30,153.1292,-27.3917,75.20,62.60,64.91,40.00,7.00,0.00,30.03,M,6.21,M,FEW,BKN,M,M,2700.00,3700.00,M,M,M,YBBN 081930Z 04007KT 9999 FEW027 BKN037 24/17 Q1017
YBBN,2012-12-08 20:00,153.1292,-27.3917,75.20,62.60,64.91,30.00,8.00,0.00,30.03,M,6.21,M,SCT,BKN,M,M,2800.00,4600.00,M,M,M,YBBN 082000Z 03008KT 9999 SCT028 BKN046 24/17 Q1017 NOSIG
YBBN,2012-12-08 20:30,153.1292,-27.3917,75.20,60.80,60.90,50.00,8.00,0.00,30.03,M,6.21,M,FEW,SCT,BKN,M,2000.00,2600.00,4700.00,M,M,YBBN 082030Z 05008KT 9999 FEW020 SCT026 BKN047 24/16 Q1017
YBBN,2012-12-08 21:00,153.1292,-27.3917,77.00,60.80,57.36,40.00,10.00,0.00,30.06,M,6.21,M,FEW,BKN,M,M,2200.00,5000.00,M,M,M,YBBN 082100Z 04010KT 9999 FEW022 BKN050 25/16 Q1018
YBBN,2012-12-08 21:30,153.1292,-27.3917,77.00,60.80,57.36,40.00,9.00,0.00,30.06,M,6.21,M,FEW,BKN,M,M,2300.00,5000.00,M,M,M,YBBN 082130Z 04009KT 9999 FEW023 BKN050 25/16 Q1018
YBBN,2012-12-08 22:00,153.1292,-27.3917,77.00,60.80,57.36,40.00,9.00,0.00,30.06,M,6.21,M,FEW,SCT,BKN,M,2300.00,2800.00,5300.00,M,M,YBBN 082200Z 04009KT 9999 FEW023 SCT028 BKN053 25/16 Q1018 NOSIG
YBBN,2012-12-08 22:30,153.1292,-27.3917,77.00,60.80,57.36,20.00,8.00,0.00,30.06,M,6.21,M,FEW,SCT,BKN,M,2400.00,3000.00,5300.00,M,M,YBBN 082230Z 02008KT 9999 FEW024 SCT030 BKN053 25/16 Q1018
YBBN,2012-12-08 23:00,153.1292,-27.3917,77.00,60.80,57.36,40.00,8.00,0.00,30.06,M,6.21,M,FEW,SCT,BKN,M,2400.00,3000.00,5500.00,M,M,YBBN 082300Z 04008KT 9999 FEW024 SCT030 BKN055 25/16 Q1018 NOSIG
YBBN,2012-12-08 23:30,153.1292,-27.3917,78.80,60.80,54.05,30.00,8.00,0.00,30.06,M,6.21,M,FEW,BKN,M,M,3000.00,5600.00,M,M,M,YBBN 082330Z 03008KT 9999 FEW030 BKN056 26/16 Q1018
