#DEBUG: Format Typ    -> comma
#DEBUG: Time Period   -> 2015-07-24 00:00:00+00:00 2015-07-25 00:00:00+00:00
#DEBUG: Time Zone     -> Etc/UTC
#DEBUG: Data Contact   -> daryl herzmann akrherz@iastate.edu 515-294-5978
#DEBUG: Entries Found -> -1
station,valid,lon,lat,tmpf, dwpf, relh, drct, sknt, p01i, alti, mslp, vsby, gust, skyc1, skyc2, skyc3, skyc4, skyl1, skyl2, skyl3, skyl4, presentwx, metar
YBBN,2015-07-24 00:00,153.1292,-27.3917,68.00,62.60,82.86,270.00,3.00,0.00,30.18,M,6.21,M,FEW,SCT,BKN,M,1200.00,11000.00,25000.00,M,M,YBBN 240000Z 27003KT 9999 FEW012 SCT110 BKN250 20/17 Q1022 NOSIG
YBBN,2015-07-24 00:30,153.1292,-27.3917,69.80,62.60,77.90,330.00,4.00,0.00,30.18,M,6.21,M,FEW,BKN,M,M,1800.00,11000.00,M,M,M,YBBN 240030Z 33004KT 9999 FEW018 BKN110 21/17 Q1022
YBBN,2015-07-24 01:00,153.1292,-27.3917,69.80,62.60,77.90,360.00,5.00,0.00,30.15,M,6.21,M,FEW,SCT,BKN,M,1800.00,11000.00,25000.00,M,M,YBBN 240100Z 36005KT 9999 FEW018 SCT110 BKN250 21/17 Q1021
YBBN,2015-07-24 01:30,153.1292,-27.3917,71.60,62.60,73.27,330.00,4.00,0.00,30.15,M,6.21,M,FEW,BKN,BKN,M,1800.00,11000.00,25000.00,M,M,YBBN 240130Z 33004KT 9999 FEW018 BKN110 BKN250 22/17 Q1021
YBBN,2015-07-24 02:00,153.1292,-27.3917,71.60,62.60,73.27,10.00,8.00,0.00,30.12,M,6.21,M,FEW,SCT,BKN,M,1900.00,11000.00,26000.00,M,M,YBBN 240200Z 01008KT 9999 FEW019 SCT110 BKN260 22/17 Q1020
YBBN,2015-07-24 02:30,153.1292,-27.3917,69.80,62.60,77.90,30.00,7.00,0.00,30.12,M,6.21,M,FEW,BKN,M,M,1900.00,12000.00,M,M,M,YBBN 240230Z 03007KT 9999 FEW019 BKN120 21/17 Q1020
YBBN,2015-07-24 03:00,153.1292,-27.3917,71.60,62.60,73.27,50.00,6.00,0.00,30.09,M,6.21,M,FEW,BKN,M,M,2000.00,12000.00,M,M,M,YBBN 240300Z 05006KT 9999 FEW020 BKN120 22/17 Q1019
YBBN,2015-07-24 03:30,153.1292,-27.3917,73.40,64.40,73.44,30.00,7.00,0.00,30.09,M,6.21,M,FEW,BKN,M,M,2500.00,12000.00,M,M,M,YBBN 240330Z 03007KT 9999 FEW025 BKN120 23/18 Q1019
YBBN,2015-07-24 04:00,153.1292,-27.3917,71.60,62.60,73.27,20.00,7.00,0.00,30.06,M,6.21,M,FEW,BKN,M,M,2000.00,12000.00,M,M,M,YBBN 240400Z 02007KT 9999 FEW020 BKN120 22/17 Q1018 NOSIG
YBBN,2015-07-24 04:30,153.1292,-27.3917,71.60,62.60,73.27,60.00,7.00,0.00,30.06,M,6.21,M,FEW,BKN,M,M,2500.00,12000.00,M,M,M,YBBN 240430Z 06007KT 9999 FEW025 BKN120 22/17 Q1018
YBBN,2015-07-24 05:00,153.1292,-27.3917,71.60,62.60,73.27,50.00,9.00,0.00,30.03,M,6.21,M,FEW,SCT,M,M,2500.00,26000.00,M,M,M,YBBN 240500Z 05009KT 9999 FEW025 SCT260 22/17 Q1017 NOSIG
YBBN,2015-07-24 05:30,153.1292,-27.3917,71.60,62.60,73.27,40.00,9.00,0.00,30.06,M,6.21,M,FEW,M,M,M,2000.00,M,M,M,M,YBBN 240530Z 04009KT 9999 FEW020 22/17 Q1018
YBBN,2015-07-24 06:00,153.1292,-27.3917,69.80,62.60,77.90,40.00,9.00,0.00,30.06,M,6.21,M,FEW,M,M,M,2200.00,M,M,M,M,YBBN 240600Z 04009KT 9999 FEW022 21/17 Q1018 NOSIG
YBBN,2015-07-24 06:30,153.1292,-27.3917,68.00,64.40,88.26,30.00,8.00,0.00,30.06,M,6.21,M,FEW,M,M,M,2200.00,M,M,M,M,YBBN 240630Z 03008KT 9999 FEW022 20/18 Q1018
YBBN,2015-07-24 07:00,153.1292,-27.3917,66.20,64.40,93.92,20.00,6.00,0.00,30.06,M,6.21,M,FEW,M,M,M,2000.00,M,M,M,M,YBBN 240700Z 02006KT 9999 FEW020 19/18 Q1018 NOSIG
YBBN,2015-07-24 07:30,153.1292,-27.3917,66.20,64.40,93.92,40.00,6.00,0.00,30.06,M,6.21,M,FEW,M,M,M,2000.00,M,M,M,M,YBBN 240730Z 04006KT 9999 FEW020 19/18 Q1018
YBBN,2015-07-24 08:00,153.1292,-27.3917,64.40,62.60,93.88,40.00,6.00,0.00,30.06,M,6.21,M,FEW,M,M,M,2000.00,M,M,M,M,YBBN 240800Z 04006KT 9999 FEW020 18/17 Q1018
YBBN,2015-07-24 08:30,153.1292,-27.3917,64.40,62.60,93.88,30.00,5.00,0.00,30.06,M,6.21,M,FEW,M,M,M,2000.00,M,M,M,M,YBBN 240830Z 03005KT 9999 FEW020 18/17 Q1018
YBBN,2015-07-24 09:00,153.1292,-27.3917,62.60,62.60,100.00,40.00,4.00,0.00,30.06,M,6.21,M,FEW,SCT,M,M,2000.00,8200.00,M,M,M,YBBN 240900Z 04004KT 9999 FEW020 SCT082 17/17 Q1018 NOSIG
YBBN,2015-07-24 09:26,153.1292,-27.3917,64.40,62.60,93.88,10.00,5.00,0.00,30.06,M,6.21,M,BKN,M,M,M,1100.00,M,M,M,M,YBBN 240926Z 01005KT 9999 BKN011 18/17 Q1018
YBBN,2015-07-24 09:30,153.1292,-27.3917,64.40,62.60,93.88,20.00,4.00,0.00,30.06,M,6.21,M,BKN,M,M,M,1100.00,M,M,M,M,YBBN 240930Z 02004KT 9999 BKN011 18/17 Q1018
YBBN,2015-07-24 10:00,153.1292,-27.3917,64.40,64.40,100.00,290.00,4.00,0.00,30.09,M,6.21,M,FEW,BKN,M,M,1100.00,11000.00,M,M,M,YBBN 241000Z 29004KT 9999 FEW011 BKN110 18/18 Q1019
YBBN,2015-07-24 10:30,153.1292,-27.3917,64.40,64.40,100.00,30.00,4.00,0.00,30.09,M,6.21,M,FEW,SCT,BKN,M,2000.00,11000.00,14000.00,M,M,YBBN 241030Z 03004KT 9999 FEW020 SCT110 BKN140 18/18 Q1019
YBBN,2015-07-24 11:00,153.1292,-27.3917,66.20,64.40,93.92,40.00,4.00,0.00,30.09,M,6.21,M,SCT,BKN,M,M,900.00,14000.00,M,M,M,YBBN 241100Z 04004KT 9999 SCT009 BKN140 19/18 Q1019
YBBN,2015-07-24 11:30,153.1292,-27.3917,66.20,64.40,93.92,350.00,5.00,0.00,30.09,M,6.21,M,FEW,BKN,M,M,700.00,1200.00,M,M,M,YBBN 241130Z 35005KT 9999 FEW007 BKN012 19/18 Q1019
YBBN,2015-07-24 12:00,153.1292,-27.3917,66.20,66.20,100.00,340.00,7.00,0.00,30.09,M,6.21,M,FEW,BKN,M,M,600.00,1400.00,M,M,M,YBBN 241200Z 34007KT 9999 FEW006 BKN014 19/19 Q1019
YBBN,2015-07-24 12:29,153.1292,-27.3917,66.20,64.40,93.92,360.00,7.00,0.00,30.09,M,6.21,M,SCT,BKN,M,M,900.00,9000.00,M,M,M,YBBN 241229Z 36007KT 9999 SCT009 BKN090 19/18 Q1019
YBBN,2015-07-24 13:00,153.1292,-27.3917,66.20,64.40,93.92,360.00,7.00,0.00,30.09,M,6.21,M,FEW,BKN,M,M,900.00,9000.00,M,M,VCSH,YBBN 241300Z 36007KT 9999 VCSH FEW009 BKN090 19/18 Q1019
YBBN,2015-07-24 13:10,153.1292,-27.3917,66.20,64.40,93.92,340.00,6.00,0.00,30.09,M,6.21,M,BKN,BKN,M,M,900.00,9000.00,M,M,VCSH,YBBN 241310Z 34006KT 9999 VCSH BKN009 BKN090 19/18 Q1019
YBBN,2015-07-24 13:30,153.1292,-27.3917,66.20,64.40,93.92,250.00,8.00,0.00,30.09,M,6.21,M,BKN,BKN,M,M,700.00,9000.00,M,M,VCSH,YBBN 241330Z 25008KT 9999 VCSH BKN007 BKN090 19/18 Q1019
YBBN,2015-07-24 14:00,153.1292,-27.3917,66.20,62.60,88.18,260.00,9.00,0.00,30.09,M,6.21,M,BKN,BKN,M,M,1400.00,7000.00,M,M,VCSH,YBBN 241400Z 26009KT 9999 VCSH BKN014 BKN070 19/17 Q1019
YBBN,2015-07-24 14:30,153.1292,-27.3917,66.20,57.20,72.74,200.00,12.00,0.00,30.12,M,6.21,M,FEW,BKN,M,M,1400.00,7200.00,M,M,M,YBBN 241430Z 20012KT 9999 FEW014 BKN072 19/14 Q1020
YBBN,2015-07-24 15:00,153.1292,-27.3917,64.40,59.00,82.62,200.00,6.00,0.00,30.12,M,6.21,M,FEW,BKN,M,M,1400.00,7500.00,M,M,VCSH,YBBN 241500Z 20006KT 9999 VCSH FEW014 BKN075 18/15 Q1020
YBBN,2015-07-24 15:30,153.1292,-27.3917,64.40,60.80,88.09,240.00,8.00,0.00,30.12,M,6.21,M,FEW,BKN,M,M,3800.00,6500.00,M,M,-SHRA,YBBN 241530Z 24008KT 9999 -SHRA FEW038 BKN065 18/16 Q1020
YBBN,2015-07-24 16:00,153.1292,-27.3917,64.40,60.80,88.09,270.00,7.00,0.00,30.12,M,6.21,M,BKN,M,M,M,7500.00,M,M,M,VCSH,YBBN 241600Z 27007KT 9999 VCSH BKN075 18/16 Q1020
YBBN,2015-07-24 16:30,153.1292,-27.3917,64.40,59.00,82.62,300.00,4.00,0.00,30.12,M,6.21,M,FEW,BKN,M,M,6000.00,7500.00,M,M,-RA,YBBN 241630Z 30004KT 9999 -RA FEW060 BKN075 18/15 Q1020
YBBN,2015-07-24 17:00,153.1292,-27.3917,62.60,59.00,88.00,330.00,7.00,0.00,30.09,M,6.21,M,BKN,M,M,M,7500.00,M,M,M,-RA,YBBN 241700Z 33007KT 9999 -RA BKN075 17/15 Q1019
YBBN,2015-07-24 17:30,153.1292,-27.3917,62.60,57.20,82.50,290.00,5.00,0.00,30.09,M,6.21,M,BKN,M,M,M,7800.00,M,M,M,-RA,YBBN 241730Z 29005KT 9999 -RA BKN078 17/14 Q1019
YBBN,2015-07-24 18:00,153.1292,-27.3917,62.60,55.40,77.29,290.00,6.00,0.00,30.09,M,6.21,M,BKN,M,M,M,8500.00,M,M,M,-RA,YBBN 241800Z 29006KT 9999 -RA BKN085 17/13 Q1019
YBBN,2015-07-24 18:30,153.1292,-27.3917,62.60,57.20,82.50,320.00,6.00,0.00,30.09,M,6.21,M,BKN,M,M,M,8500.00,M,M,M,-RA,YBBN 241830Z 32006KT 9999 -RA BKN085 17/14 Q1019
YBBN,2015-07-24 19:00,153.1292,-27.3917,60.80,57.20,87.92,310.00,2.00,0.00,30.09,M,6.21,M,M,M,M,M,M,M,M,M,M,YBBN 241900Z 31002KT CAVOK 16/14 Q1019 NOSIG
YBBN,2015-07-24 19:30,153.1292,-27.3917,62.60,57.20,82.50,270.00,4.00,0.00,30.12,M,6.21,M,M,M,M,M,M,M,M,M,M,YBBN 241930Z 27004KT CAVOK 17/14 Q1020 RMK 7AS085
YBBN,2015-07-24 20:00,153.1292,-27.3917,60.80,55.40,82.37,0.00,0.00,0.00,30.12,M,6.21,M,FEW,BKN,M,M,7500.00,11000.00,M,M,VCSH,YBBN 242000Z 00000KT 9999 VCSH FEW075 BKN110 16/13 Q1020 NOSIG
YBBN,2015-07-24 20:30,153.1292,-27.3917,60.80,57.20,87.92,200.00,1.00,0.00,30.12,M,6.21,M,M,M,M,M,M,M,M,M,M,YBBN 242030Z 20001KT CAVOK 16/14 Q1020 RMK 8AS090
YBBN,2015-07-24 21:00,153.1292,-27.3917,60.80,57.20,87.92,0.00,0.00,0.00,30.12,M,6.21,M,M,M,M,M,M,M,M,M,M,YBBN 242100Z 00000KT CAVOK 16/14 Q1020
YBBN,2015-07-24 21:30,153.1292,-27.3917,62.60,55.40,77.29,230.00,4.00,0.00,30.15,M,6.21,M,M,M,M,M,M,M,M,M,M,YBBN 242130Z 23004KT CAVOK 17/13 Q1021 RMK 8AS090
YBBN,2015-07-24 22:00,153.1292,-27.3917,62.60,57.20,82.50,0.00,0.00,0.00,30.12,M,6.21,M,FEW,OVC,M,M,3500.00,8800.00,M,M,VCSH,YBBN 242200Z 00000KT 9999 VCSH FEW035 OVC088 17/14 Q1020
YBBN,2015-07-24 22:30,153.1292,-27.3917,64.40,55.40,72.56,320.00,5.00,0.00,30.15,M,6.21,M,FEW,OVC,M,M,3500.00,8600.00,M,M,M,YBBN 242230Z 32005KT 9999 FEW035 OVC086 18/13 Q1021 RMK VIRGA
YBBN,2015-07-24 23:00,153.1292,-27.3917,64.40,55.40,72.56,310.00,4.00,0.00,30.15,M,6.21,M,FEW,BKN,M,M,2500.00,9500.00,M,M,M,YBBN 242300Z 31004KT 9999 FEW025 BKN095 18/13 Q1021
YBBN,2015-07-24 23:30,153.1292,-27.3917,66.20,55.40,68.15,220.00,9.00,0.00,30.15,M,6.21,M,FEW,BKN,M,M,2500.00,9200.00,M,M,VCSH,YBBN 242330Z 22009KT 9999 VCSH FEW025 BKN092 19/13 Q1021
