#DEBUG: Format Typ    -> comma
#DEBUG: Time Period   -> 2016-03-19 00:00:00+00:00 2016-03-20 00:00:00+00:00
#DEBUG: Time Zone     -> Etc/UTC
#DEBUG: Data Contact   -> daryl herzmann akrherz@iastate.edu 515-294-5978
#DEBUG: Entries Found -> -1
station,valid,lon,lat,tmpf, dwpf, relh, drct, sknt, p01i, alti, mslp, vsby, gust, skyc1, skyc2, skyc3, skyc4, skyl1, skyl2, skyl3, skyl4, presentwx, metar
YBBN,2016-03-19 00:00,153.1292,-27.3917,80.60,73.40,78.76,350.00,7.00,0.00,29.74,M,6.21,M,FEW,M,M,M,2000.00,M,M,M,M,YBBN 190000Z 35007KT 9999 FEW020 27/23 Q1007 NOSIG
YBBN,2016-03-19 00:30,153.1292,-27.3917,82.40,71.60,69.90,10.00,8.00,0.00,29.74,M,6.21,M,SCT,M,M,M,2000.00,M,M,M,M,YBBN 190030Z 01008KT 9999 SCT020 28/22 Q1007 NOSIG
YBBN,2016-03-19 01:00,153.1292,-27.3917,82.40,73.40,74.28,20.00,9.00,0.00,29.74,M,6.21,M,SCT,M,M,M,2200.00,M,M,M,M,YBBN 190100Z 02009KT 9999 SCT022 28/23 Q1007
YBBN,2016-03-19 04:00,153.1292,-27.3917,86.00,71.60,62.25,50.00,9.00,0.00,29.68,M,6.21,M,SCT,FEW,M,M,2500.00,2700.00,M,M,M,YBBN 190400Z 05009KT 9999 SCT025 FEW027TCU 30/22 Q1005
YBBN,2016-03-19 05:00,153.1292,-27.3917,84.20,71.60,65.95,120.00,11.00,0.00,29.71,M,6.21,M,SCT,FEW,M,M,3500.00,3700.00,M,M,M,YBBN 190500Z 12011KT 9999 SCT035 FEW037TCU 29/22 Q1006
YBBN,2016-03-19 07:00,153.1292,-27.3917,78.80,73.40,83.55,120.00,11.00,0.00,29.74,M,6.21,M,FEW,SCT,FEW,M,2100.00,2600.00,3000.00,M,-SHRA,YBBN 190700Z 12011KT 9999 -SHRA FEW021 SCT026 FEW030CB 26/23 Q1007
YBBN,2016-03-19 07:30,153.1292,-27.3917,78.80,73.40,83.55,130.00,9.00,0.00,29.74,M,6.21,M,FEW,SCT,M,M,2000.00,2500.00,M,M,M,YBBN 190730Z 13009KT 9999 FEW020 SCT025 26/23 Q1007 NOSIG
YBBN,2016-03-19 08:00,153.1292,-27.3917,78.80,73.40,83.55,130.00,10.00,0.00,29.77,M,6.21,M,SCT,SCT,FEW,M,1600.00,2000.00,2500.00,M,VCSH,YBBN 190800Z 13010KT 9999 VCSH SCT016 SCT020 FEW025CB 26/23 Q1008 NOSIG
YBBN,2016-03-19 08:30,153.1292,-27.3917,78.80,73.40,83.55,130.00,9.00,0.00,29.77,M,6.21,M,FEW,BKN,M,M,1200.00,1600.00,M,M,M,YBBN 190830Z 13009KT 9999 FEW012 BKN016 26/23 Q1008 NOSIG
YBBN,2016-03-19 09:00,153.1292,-27.3917,78.80,73.40,83.55,140.00,9.00,0.00,29.80,M,6.21,M,FEW,SCT,BKN,M,1200.00,1600.00,4300.00,M,SHRA,YBBN 190900Z 14009KT 9999 SHRA FEW012 SCT016 BKN043 26/23 Q1009
YBBN,2016-03-19 09:30,153.1292,-27.3917,78.80,71.60,78.62,130.00,8.00,0.00,29.80,M,5.59,M,FEW,SCT,BKN,M,1300.00,1700.00,3500.00,M,-SHRA,YBBN 190930Z 13008KT 9000 -SHRA FEW013 SCT017 BKN035 26/22 Q1009 NOSIG
YBBN,2016-03-19 10:00,153.1292,-27.3917,78.80,71.60,78.62,130.00,8.00,0.00,29.83,M,6.21,M,FEW,SCT,BKN,M,1300.00,1800.00,3500.00,M,-SHRA,YBBN 191000Z 13008KT 9999 -SHRA FEW013 SCT018 BKN035 26/22 Q1010
YBBN,2016-03-19 10:30,153.1292,-27.3917,78.80,71.60,78.62,140.00,8.00,0.00,29.83,M,6.21,M,FEW,SCT,BKN,M,1000.00,1800.00,4200.00,M,VCSH,YBBN 191030Z 14008KT 9999 VCSH FEW010 SCT018 BKN042 26/22 Q1010 NOSIG
YBBN,2016-03-19 11:00,153.1292,-27.3917,78.80,71.60,78.62,140.00,8.00,0.00,29.83,M,6.21,M,FEW,SCT,BKN,M,1200.00,1800.00,4000.00,M,VCSH,YBBN 191100Z 14008KT 9999 VCSH FEW012 SCT018 BKN040 26/22 Q1010
YBBN,2016-03-19 11:30,153.1292,-27.3917,78.80,71.60,78.62,140.00,9.00,0.00,29.83,M,6.21,M,FEW,SCT,BKN,FEW,1200.00,1800.00,4800.00,2000.00,VCSH,YBBN 191130Z 14009KT 9999 VCSH FEW012 SCT018 BKN048 FEW020TCU 26/22 Q1010 NOSIG
YBBN,2016-03-19 12:00,153.1292,-27.3917,78.80,71.60,78.62,140.00,7.00,0.00,29.83,M,6.21,M,FEW,SCT,BKN,M,1200.00,1800.00,4800.00,M,M,YBBN 191200Z 14007KT 9999 FEW012 SCT018 BKN048 26/22 Q1010
YBBN,2016-03-19 12:30,153.1292,-27.3917,77.00,69.80,78.48,170.00,7.00,0.00,29.83,M,6.21,M,FEW,SCT,BKN,M,1000.00,1900.00,5800.00,M,VCSH,YBBN 191230Z 17007KT 9999 VCSH FEW010 SCT019 BKN058 25/21 Q1010 NOSIG
YBBN,2016-03-19 13:00,153.1292,-27.3917,77.00,69.80,78.48,170.00,5.00,0.00,29.83,M,6.21,M,FEW,SCT,BKN,FEW,1000.00,1900.00,5800.00,2000.00,VCSH,YBBN 191300Z 17005KT 9999 VCSH FEW010 SCT019 BKN058 FEW020TCU 25/21 Q1010
YBBN,2016-03-19 13:30,153.1292,-27.3917,75.20,69.80,83.32,170.00,7.00,0.00,29.83,M,6.21,M,FEW,SCT,BKN,M,1000.00,1900.00,5400.00,M,VCSH,YBBN 191330Z 17007KT 9999 VCSH FEW010 SCT019 BKN054 24/21 Q1010 NOSIG
YBBN,2016-03-19 14:00,153.1292,-27.3917,75.20,69.80,83.32,170.00,7.00,0.00,29.83,M,6.21,M,FEW,SCT,BKN,M,1600.00,2000.00,5200.00,M,M,YBBN 191400Z 17007KT 9999 FEW016 SCT020 BKN052 24/21 Q1010 NOSIG
YBBN,2016-03-19 14:30,153.1292,-27.3917,75.20,68.00,78.34,180.00,7.00,0.00,29.83,M,6.21,M,FEW,SCT,BKN,M,1600.00,2000.00,5000.00,M,VCSH,YBBN 191430Z 18007KT 9999 VCSH FEW016 SCT020 BKN050 24/20 Q1010 NOSIG
YBBN,2016-03-19 15:00,153.1292,-27.3917,73.40,68.00,83.21,210.00,8.00,0.00,29.83,M,6.21,M,FEW,SCT,BKN,M,1700.00,2000.00,5200.00,M,-SHRA,YBBN 191500Z 21008KT 9999 -SHRA FEW017 SCT020 BKN052 23/20 Q1010
YBBN,2016-03-19 15:30,153.1292,-27.3917,73.40,68.00,83.21,200.00,5.00,0.00,29.80,M,6.21,M,FEW,SCT,BKN,M,1800.00,2000.00,5200.00,M,M,YBBN 191530Z 20005KT 9999 FEW018 SCT020 BKN052 23/20 Q1009 NOSIG
YBBN,2016-03-19 16:00,153.1292,-27.3917,73.40,68.00,83.21,200.00,8.00,0.00,29.80,M,6.21,M,FEW,SCT,BKN,M,1800.00,3400.00,5200.00,M,M,YBBN 191600Z 20008KT 9999 FEW018 SCT034 BKN052 23/20 Q1009 NOSIG
YBBN,2016-03-19 16:30,153.1292,-27.3917,71.60,66.20,83.09,190.00,6.00,0.00,29.80,M,6.21,M,FEW,SCT,BKN,M,2000.00,4800.00,22000.00,M,M,YBBN 191630Z 19006KT 9999 FEW020 SCT048 BKN220 22/19 Q1009 NOSIG
YBBN,2016-03-19 17:00,153.1292,-27.3917,71.60,66.20,83.09,210.00,9.00,0.00,29.80,M,6.21,M,FEW,SCT,BKN,M,1800.00,4200.00,5500.00,M,M,YBBN 191700Z 21009KT 9999 FEW018 SCT042 BKN055 22/19 Q1009
YBBN,2016-03-19 17:30,153.1292,-27.3917,71.60,64.40,78.04,200.00,7.00,0.00,29.80,M,6.21,M,FEW,SCT,BKN,M,1800.00,3800.00,7800.00,M,M,YBBN 191730Z 20007KT 9999 FEW018 SCT038 BKN078 22/18 Q1009 NOSIG
YBBN,2016-03-19 18:00,153.1292,-27.3917,69.80,64.40,82.98,200.00,7.00,0.00,29.80,M,6.21,M,FEW,SCT,BKN,M,2000.00,8000.00,22000.00,M,M,YBBN 191800Z 20007KT 9999 FEW020 SCT080 BKN220 21/18 Q1009
YBBN,2016-03-19 18:30,153.1292,-27.3917,69.80,64.40,82.98,200.00,7.00,0.00,29.80,M,6.21,M,FEW,SCT,M,M,3200.00,22000.00,M,M,M,YBBN 191830Z 20007KT 9999 FEW032 SCT220 21/18 Q1009 NOSIG
YBBN,2016-03-19 19:00,153.1292,-27.3917,69.80,62.60,77.90,200.00,6.00,0.00,29.83,M,6.21,M,FEW,SCT,BKN,M,3200.00,7800.00,22000.00,M,M,YBBN 191900Z 20006KT 9999 FEW032 SCT078 BKN220 21/17 Q1010 NOSIG
YBBN,2016-03-19 19:30,153.1292,-27.3917,69.80,62.60,77.90,200.00,5.00,0.00,29.83,M,6.21,M,FEW,SCT,BKN,M,2400.00,7800.00,22000.00,M,M,YBBN 191930Z 20005KT 9999 FEW024 SCT078 BKN220 21/17 Q1010 NOSIG
YBBN,2016-03-19 20:00,153.1292,-27.3917,69.80,62.60,77.90,200.00,6.00,0.00,29.83,M,6.21,M,FEW,SCT,BKN,M,1800.00,3200.00,5200.00,M,M,YBBN 192000Z 20006KT 9999 FEW018 SCT032 BKN052 21/17 Q1010
YBBN,2016-03-19 20:30,153.1292,-27.3917,69.80,60.80,73.09,200.00,8.00,0.00,29.85,M,6.21,M,FEW,SCT,BKN,M,1800.00,5500.00,9500.00,M,M,YBBN 192030Z 20008KT 9999 FEW018 SCT055 BKN095 21/16 Q1011 NOSIG
YBBN,2016-03-19 21:00,153.1292,-27.3917,71.60,62.60,73.27,210.00,7.00,0.00,29.85,M,6.21,M,FEW,SCT,M,M,2000.00,5500.00,M,M,M,YBBN 192100Z 21007KT 9999 FEW020 SCT055 22/17 Q1011 NOSIG
YBBN,2016-03-19 22:00,153.1292,-27.3917,75.20,62.60,64.91,190.00,8.00,0.00,29.88,M,6.21,M,BKN,M,M,M,4800.00,M,M,M,M,YBBN 192200Z 19008KT 9999 BKN048 24/17 Q1012
