#DEBUG: Format Typ    -> comma
#DEBUG: Time Period   -> 2013-10-27 00:00:00+00:00 2013-10-28 00:00:00+00:00
#DEBUG: Time Zone     -> Etc/UTC
#DEBUG: Data Contact   -> daryl herzmann akrherz@iastate.edu 515-294-5978
#DEBUG: Entries Found -> -1
station,valid,lon,lat,tmpf, dwpf, relh, drct, sknt, p01i, alti, mslp, vsby, gust, skyc1, skyc2, skyc3, skyc4, skyl1, skyl2, skyl3, skyl4, presentwx, metar
YBBN,2013-10-27 00:00,153.1292,-27.3917,77.00,59.00,53.80,120.00,11.00,0.00,30.15,M,6.21,M,SCT,M,M,M,4000.00,M,M,M,M,YBBN 270000Z 12011KT 9999 SCT040 25/15 Q1021
YBBN,2013-10-27 00:30,153.1292,-27.3917,77.00,59.00,53.80,120.00,12.00,0.00,30.15,M,6.21,M,SCT,M,M,M,4000.00,M,M,M,M,YBBN 270030Z 12012KT 9999 SCT040 25/15 Q1021
YBBN,2013-10-27 01:00,153.1292,-27.3917,78.80,57.20,47.52,110.00,10.00,0.00,30.15,M,6.21,M,SCT,M,M,M,4200.00,M,M,M,M,YBBN 270100Z 11010KT 9999 SCT042 26/14 Q1021 NOSIG
YBBN,2013-10-27 03:00,153.1292,-27.3917,77.00,55.40,47.25,90.00,11.00,0.00,30.12,M,6.21,M,SCT,M,M,M,4700.00,M,M,M,M,YBBN 270300Z 09011KT 9999 SCT047 25/13 Q1020 NOSIG
YBBN,2013-10-27 03:30,153.1292,-27.3917,77.00,57.20,50.43,100.00,10.00,0.00,30.09,M,6.21,M,SCT,M,M,M,4700.00,M,M,M,M,YBBN 270330Z 10010KT 9999 SCT047 25/14 Q1019
YBBN,2013-10-27 04:00,153.1292,-27.3917,77.00,55.40,47.25,100.00,10.00,0.00,30.09,M,6.21,M,FEW,M,M,M,4300.00,M,M,M,M,YBBN 270400Z 10010KT 9999 FEW043 25/13 Q1019 NOSIG
YBBN,2013-10-27 04:30,153.1292,-27.3917,77.00,57.20,50.43,60.00,14.00,0.00,30.09,M,6.21,M,FEW,M,M,M,4000.00,M,M,M,M,YBBN 270430Z 06014KT 9999 FEW040 25/14 Q1019
YBBN,2013-10-27 05:00,153.1292,-27.3917,77.00,57.20,50.43,70.00,12.00,0.00,30.09,M,6.21,M,FEW,M,M,M,3900.00,M,M,M,M,YBBN 270500Z 07012KT 9999 FEW039 25/14 Q1019 NOSIG
YBBN,2013-10-27 05:30,153.1292,-27.3917,75.20,57.20,53.55,70.00,12.00,0.00,30.09,M,6.21,M,FEW,M,M,M,3900.00,M,M,M,M,YBBN 270530Z 07012KT 9999 FEW039 24/14 Q1019
YBBN,2013-10-27 06:00,153.1292,-27.3917,75.20,55.40,50.17,70.00,12.00,0.00,30.09,M,6.21,M,FEW,M,M,M,3700.00,M,M,M,M,YBBN 270600Z 07012KT 9999 FEW037 24/13 Q1019 NOSIG
YBBN,2013-10-27 06:30,153.1292,-27.3917,73.40,55.40,53.29,70.00,10.00,0.00,30.09,M,6.21,M,FEW,M,M,M,3500.00,M,M,M,M,YBBN 270630Z 07010KT 9999 FEW035 23/13 Q1019
YBBN,2013-10-27 07:00,153.1292,-27.3917,73.40,55.40,53.29,60.00,11.00,0.00,30.09,M,6.21,M,FEW,M,M,M,3500.00,M,M,M,M,YBBN 270700Z 06011KT 9999 FEW035 23/13 Q1019 NOSIG
YBBN,2013-10-27 07:30,153.1292,-27.3917,71.60,55.40,56.63,70.00,10.00,0.00,30.09,M,6.21,M,FEW,M,M,M,4800.00,M,M,M,M,YBBN 270730Z 07010KT 9999 FEW048 22/13 Q1019
YBBN,2013-10-27 08:00,153.1292,-27.3917,71.60,55.40,56.63,80.00,9.00,0.00,30.12,M,6.21,M,FEW,M,M,M,2000.00,M,M,M,M,YBBN 270800Z 08009KT 9999 FEW020 22/13 Q1020
YBBN,2013-10-27 08:30,153.1292,-27.3917,71.60,55.40,56.63,80.00,8.00,0.00,30.12,M,6.21,M,FEW,M,M,M,2000.00,M,M,M,M,YBBN 270830Z 08008KT 9999 FEW020 22/13 Q1020
YBBN,2013-10-27 09:00,153.1292,-27.3917,71.60,57.20,60.44,70.00,8.00,0.00,30.12,M,6.21,M,FEW,M,M,M,2000.00,M,M,M,M,YBBN 270900Z 07008KT 9999 FEW020 22/14 Q1020
YBBN,2013-10-27 09:30,153.1292,-27.3917,69.80,57.20,64.26,70.00,9.00,0.00,30.12,M,6.21,M,FEW,M,M,M,2000.00,M,M,M,M,YBBN 270930Z 07009KT 9999 FEW020 21/14 Q1020
YBBN,2013-10-27 10:00,153.1292,-27.3917,69.80,55.40,60.21,60.00,9.00,0.00,30.12,M,6.21,M,FEW,M,M,M,2000.00,M,M,M,M,YBBN 271000Z 06009KT 9999 FEW020 21/13 Q1020
YBBN,2013-10-27 10:30,153.1292,-27.3917,69.80,57.20,64.26,50.00,8.00,0.00,30.15,M,6.21,M,FEW,M,M,M,2000.00,M,M,M,M,YBBN 271030Z 05008KT 9999 FEW020 21/14 Q1021
YBBN,2013-10-27 11:00,153.1292,-27.3917,69.80,57.20,64.26,60.00,9.00,0.00,30.15,M,6.21,M,FEW,M,M,M,2000.00,M,M,M,M,YBBN 271100Z 06009KT 9999 FEW020 21/14 Q1021 NOSIG
YBBN,2013-10-27 11:30,153.1292,-27.3917,69.80,57.20,64.26,50.00,8.00,0.00,30.15,M,6.21,M,FEW,M,M,M,2000.00,M,M,M,M,YBBN 271130Z 05008KT 9999 FEW020 21/14 Q1021
YBBN,2013-10-27 12:00,153.1292,-27.3917,68.00,57.20,68.35,40.00,8.00,0.00,30.15,M,6.21,M,FEW,SCT,M,M,2000.00,3000.00,M,M,M,YBBN 271200Z 04008KT 9999 FEW020 SCT030 20/14 Q1021 NOSIG
YBBN,2013-10-27 12:30,153.1292,-27.3917,68.00,57.20,68.35,30.00,7.00,0.00,30.15,M,6.21,M,FEW,M,M,M,3000.00,M,M,M,M,YBBN 271230Z 03007KT 9999 FEW030 20/14 Q1021
YBBN,2013-10-27 13:00,153.1292,-27.3917,68.00,57.20,68.35,40.00,7.00,0.00,30.15,M,6.21,M,FEW,M,M,M,3000.00,M,M,M,M,YBBN 271300Z 04007KT 9999 FEW030 20/14 Q1021 NOSIG
YBBN,2013-10-27 13:30,153.1292,-27.3917,66.20,57.20,72.74,40.00,6.00,0.00,30.15,M,6.21,M,FEW,M,M,M,3000.00,M,M,M,M,YBBN 271330Z 04006KT 9999 FEW030 19/14 Q1021
YBBN,2013-10-27 14:00,153.1292,-27.3917,66.20,57.20,72.74,40.00,7.00,0.00,30.12,M,6.21,M,FEW,M,M,M,3000.00,M,M,M,M,YBBN 271400Z 04007KT 9999 FEW030 19/14 Q1020 NOSIG
YBBN,2013-10-27 14:30,153.1292,-27.3917,66.20,59.00,77.60,40.00,6.00,0.00,30.12,M,6.21,M,FEW,M,M,M,3000.00,M,M,M,M,YBBN 271430Z 04006KT 9999 FEW030 19/15 Q1020
YBBN,2013-10-27 15:00,153.1292,-27.3917,68.00,59.00,72.92,50.00,6.00,0.00,30.12,M,6.21,M,FEW,M,M,M,3000.00,M,M,M,M,YBBN 271500Z 05006KT 9999 FEW030 20/15 Q1020 NOSIG
YBBN,2013-10-27 15:30,153.1292,-27.3917,68.00,59.00,72.92,50.00,5.00,0.00,30.12,M,6.21,M,FEW,M,M,M,3000.00,M,M,M,M,YBBN 271530Z 05005KT 9999 FEW030 20/15 Q1020
YBBN,2013-10-27 16:00,153.1292,-27.3917,66.20,59.00,77.60,50.00,5.00,0.00,30.09,M,6.21,M,FEW,SCT,M,M,3000.00,3800.00,M,M,M,YBBN 271600Z 05005KT 9999 FEW030 SCT038 19/15 Q1019 NOSIG
YBBN,2013-10-27 16:30,153.1292,-27.3917,68.00,59.00,72.92,50.00,6.00,0.00,30.09,M,6.21,M,FEW,M,M,M,2800.00,M,M,M,M,YBBN 271630Z 05006KT 9999 FEW028 20/15 Q1019
YBBN,2013-10-27 17:00,153.1292,-27.3917,68.00,59.00,72.92,60.00,6.00,0.00,30.09,M,6.21,M,FEW,M,M,M,2800.00,M,M,M,M,YBBN 271700Z 06006KT 9999 FEW028 20/15 Q1019 NOSIG
YBBN,2013-10-27 17:30,153.1292,-27.3917,68.00,59.00,72.92,70.00,5.00,0.00,30.09,M,6.21,M,FEW,M,M,M,2800.00,M,M,M,M,YBBN 271730Z 07005KT 9999 FEW028 20/15 Q1019
YBBN,2013-10-27 18:00,153.1292,-27.3917,68.00,59.00,72.92,70.00,5.00,0.00,30.09,M,6.21,M,FEW,M,M,M,2800.00,M,M,M,M,YBBN 271800Z 07005KT 9999 FEW028 20/15 Q1019 NOSIG
YBBN,2013-10-27 18:30,153.1292,-27.3917,68.00,59.00,72.92,60.00,5.00,0.00,30.12,M,6.21,M,FEW,M,M,M,2800.00,M,M,M,M,YBBN 271830Z 06005KT 9999 FEW028 20/15 Q1020
YBBN,2013-10-27 19:00,153.1292,-27.3917,66.20,59.00,77.60,50.00,5.00,0.00,30.12,M,6.21,M,FEW,M,M,M,2800.00,M,M,M,M,YBBN 271900Z 05005KT 9999 FEW028 19/15 Q1020 NOSIG
YBBN,2013-10-27 19:30,153.1292,-27.3917,66.20,59.00,77.60,40.00,7.00,0.00,30.12,M,6.21,M,FEW,SCT,M,M,2600.00,30000.00,M,M,M,YBBN 271930Z 04007KT 9999 FEW026 SCT300 19/15 Q1020
YBBN,2013-10-27 20:00,153.1292,-27.3917,69.80,59.00,68.55,40.00,8.00,0.00,30.12,M,6.21,M,FEW,BKN,M,M,1700.00,30000.00,M,M,M,YBBN 272000Z 04008KT 9999 FEW017 BKN300 21/15 Q1020 NOSIG
YBBN,2013-10-27 20:30,153.1292,-27.3917,71.60,59.00,64.48,30.00,9.00,0.00,30.15,M,6.21,M,FEW,SCT,BKN,M,1800.00,4800.00,30000.00,M,M,YBBN 272030Z 03009KT 9999 FEW018 SCT048 BKN300 22/15 Q1021 RMK HZ
YBBN,2013-10-27 21:00,153.1292,-27.3917,73.40,59.00,60.67,30.00,11.00,0.00,30.15,M,6.21,M,FEW,BKN,M,M,2000.00,30000.00,M,M,M,YBBN 272100Z 03011KT 9999 FEW020 BKN300 23/15 Q1021 NOSIG
YBBN,2013-10-27 21:30,153.1292,-27.3917,73.40,57.20,56.88,30.00,13.00,0.00,30.15,M,6.21,M,FEW,BKN,M,M,2000.00,2600.00,M,M,VCSH,YBBN 272130Z 03013KT 9999 VCSH FEW020 BKN026 23/14 Q1021 RMK -SHRA NW
YBBN,2013-10-27 22:00,153.1292,-27.3917,73.40,57.20,56.88,30.00,11.00,0.00,30.18,M,6.21,M,FEW,SCT,BKN,M,2200.00,2600.00,4800.00,M,VCSH,YBBN 272200Z 03011KT 9999 VCSH FEW022 SCT026 BKN048 23/14 Q1022 NOSIG
YBBN,2013-10-27 22:30,153.1292,-27.3917,75.20,59.00,57.12,20.00,12.00,0.00,30.18,M,6.21,M,FEW,SCT,BKN,M,2200.00,2700.00,30000.00,M,M,YBBN 272230Z 02012KT 9999 FEW022 SCT027 BKN300 24/15 Q1022 RMK HZ
YBBN,2013-10-27 23:00,153.1292,-27.3917,75.20,57.20,53.55,10.00,12.00,0.00,30.18,M,6.21,M,FEW,SCT,BKN,M,2200.00,2800.00,7800.00,M,VCSH,YBBN 272300Z 01012KT 9999 VCSH FEW022 SCT028 BKN078 24/14 Q1022 FM0300 02016KT 9999 SCT035 SCT045
YBBN,2013-10-27 23:30,153.1292,-27.3917,75.20,59.00,57.12,20.00,12.00,0.00,30.18,M,6.21,M,FEW,SCT,BKN,M,2300.00,2900.00,7800.00,M,M,YBBN 272330Z 02012KT 9999 FEW023 SCT029 BKN078 24/15 Q1022 RMK HZ
