#DEBUG: Format Typ    -> comma
#DEBUG: Time Period   -> 2014-02-17 00:00:00+00:00 2014-02-18 00:00:00+00:00
#DEBUG: Time Zone     -> Etc/UTC
#DEBUG: Data Contact   -> daryl herzmann akrherz@iastate.edu 515-294-5978
#DEBUG: Entries Found -> -1
station,valid,lon,lat,tmpf, dwpf, relh, drct, sknt, p01i, alti, mslp, vsby, gust, skyc1, skyc2, skyc3, skyc4, skyl1, skyl2, skyl3, skyl4, presentwx, metar
YBBN,2014-02-17 00:00,153.1292,-27.3917,86.00,68.00,55.04,20.00,9.00,0.00,29.80,M,6.21,M,FEW,M,M,M,3500.00,M,M,M,M,YBBN 170000Z 02009KT 9999 FEW035 30/20 Q1009
YBBN,2014-02-17 00:30,153.1292,-27.3917,87.80,66.20,48.84,30.00,8.00,0.00,29.80,M,6.21,M,FEW,M,M,M,3500.00,M,M,M,M,YBBN 170030Z 03008KT 9999 FEW035 31/19 Q1009
YBBN,2014-02-17 01:00,153.1292,-27.3917,89.60,66.20,46.14,30.00,8.00,0.00,29.80,M,6.21,M,FEW,M,M,M,3500.00,M,M,M,M,YBBN 170100Z 03008KT 9999 FEW035 32/19 Q1009 NOSIG
YBBN,2014-02-17 01:30,153.1292,-27.3917,87.80,66.20,48.84,40.00,10.00,0.00,29.80,M,6.21,M,FEW,M,M,M,3500.00,M,M,M,M,YBBN 170130Z 04010KT 9999 FEW035 31/19 Q1009
YBBN,2014-02-17 02:00,153.1292,-27.3917,87.80,68.00,51.98,40.00,13.00,0.00,29.80,M,6.21,M,FEW,M,M,M,3500.00,M,M,M,M,YBBN 170200Z 04013KT 9999 FEW035 31/20 Q1009 NOSIG
YBBN,2014-02-17 02:30,153.1292,-27.3917,86.00,69.80,58.55,70.00,12.00,0.00,29.80,M,6.21,M,FEW,M,M,M,3500.00,M,M,M,M,YBBN 170230Z 07012KT 9999 FEW035 30/21 Q1009
YBBN,2014-02-17 03:00,153.1292,-27.3917,84.20,71.60,65.95,100.00,12.00,0.00,29.77,M,6.21,M,FEW,FEW,M,M,3500.00,3700.00,M,M,M,YBBN 170300Z 10012KT 9999 FEW035 FEW037TCU 29/22 Q1008 NOSIG
YBBN,2014-02-17 03:30,153.1292,-27.3917,84.20,71.60,65.95,110.00,14.00,0.00,29.77,M,6.21,M,FEW,M,M,M,3500.00,M,M,M,M,YBBN 170330Z 11014KT 9999 FEW035 29/22 Q1008
YBBN,2014-02-17 04:00,153.1292,-27.3917,84.20,71.60,65.95,100.00,13.00,0.00,29.77,M,6.21,M,FEW,SCT,M,M,1800.00,3500.00,M,M,M,YBBN 170400Z 10013KT 9999 FEW018 SCT035 29/22 Q1008 NOSIG
YBBN,2014-02-17 04:30,153.1292,-27.3917,82.40,71.60,69.90,110.00,13.00,0.00,29.77,M,6.21,M,FEW,SCT,M,M,1500.00,3500.00,M,M,M,YBBN 170430Z 11013KT 9999 FEW015 SCT035 28/22 Q1008
YBBN,2014-02-17 05:00,153.1292,-27.3917,82.40,71.60,69.90,110.00,13.00,0.00,29.77,M,6.21,M,FEW,SCT,M,M,1600.00,3300.00,M,M,M,YBBN 170500Z 11013KT 9999 FEW016 SCT033 28/22 Q1008
YBBN,2014-02-17 05:30,153.1292,-27.3917,80.60,71.60,74.11,100.00,11.00,0.00,29.80,M,6.21,M,SCT,BKN,M,M,1600.00,2200.00,M,M,M,YBBN 170530Z 10011KT 9999 SCT016 BKN022 27/22 Q1009
YBBN,2014-02-17 06:00,153.1292,-27.3917,80.60,71.60,74.11,110.00,11.00,0.00,29.80,M,6.21,M,SCT,BKN,M,M,1600.00,2200.00,M,M,M,YBBN 170600Z 11011KT 9999 SCT016 BKN022 27/22 Q1009 NOSIG
YBBN,2014-02-17 06:30,153.1292,-27.3917,78.80,71.60,78.62,120.00,11.00,0.00,29.80,M,6.21,M,FEW,BKN,M,M,1600.00,2600.00,M,M,M,YBBN 170630Z 12011KT 9999 FEW016 BKN026 26/22 Q1009
YBBN,2014-02-17 07:00,153.1292,-27.3917,78.80,71.60,78.62,120.00,12.00,0.00,29.80,M,6.21,M,FEW,SCT,BKN,M,1400.00,2500.00,3800.00,M,M,YBBN 170700Z 12012KT 9999 FEW014 SCT025 BKN038 26/22 Q1009 NOSIG
YBBN,2014-02-17 07:30,153.1292,-27.3917,78.80,71.60,78.62,120.00,11.00,0.00,29.80,M,6.21,M,FEW,SCT,M,M,1400.00,3700.00,M,M,M,YBBN 170730Z 12011KT 9999 FEW014 SCT037 26/22 Q1009
YBBN,2014-02-17 08:00,153.1292,-27.3917,78.80,71.60,78.62,120.00,10.00,0.00,29.80,M,6.21,M,FEW,SCT,M,M,1600.00,16000.00,M,M,M,YBBN 170800Z 12010KT 9999 FEW016 SCT160 26/22 Q1009 NOSIG
YBBN,2014-02-17 08:30,153.1292,-27.3917,77.00,71.60,83.44,120.00,9.00,0.00,29.80,M,6.21,M,FEW,SCT,M,M,1500.00,16000.00,M,M,M,YBBN 170830Z 12009KT 9999 FEW015 SCT160 25/22 Q1009
YBBN,2014-02-17 09:00,153.1292,-27.3917,77.00,71.60,83.44,120.00,9.00,0.00,29.83,M,6.21,M,FEW,M,M,M,1500.00,M,M,M,M,YBBN 170900Z 12009KT 9999 FEW015 25/22 Q1010 NOSIG
YBBN,2014-02-17 09:30,153.1292,-27.3917,77.00,71.60,83.44,110.00,9.00,0.00,29.83,M,6.21,M,FEW,M,M,M,1300.00,M,M,M,M,YBBN 170930Z 11009KT 9999 FEW013 25/22 Q1010 RMK HZ
YBBN,2014-02-17 10:00,153.1292,-27.3917,77.00,71.60,83.44,120.00,9.00,0.00,29.85,M,6.21,M,SCT,M,M,M,1200.00,M,M,M,M,YBBN 171000Z 12009KT 9999 SCT012 25/22 Q1011
YBBN,2014-02-17 10:06,153.1292,-27.3917,77.00,71.60,83.44,120.00,9.00,0.00,29.85,M,6.21,M,BKN,M,M,M,1200.00,M,M,M,M,YBBN 171006Z 12009KT 9999 BKN012 25/22 Q1011
YBBN,2014-02-17 10:30,153.1292,-27.3917,77.00,71.60,83.44,120.00,8.00,0.00,29.85,M,6.21,M,BKN,SCT,M,M,1200.00,4000.00,M,M,M,YBBN 171030Z 12008KT 9999 BKN012 SCT040 25/22 Q1011
YBBN,2014-02-17 10:45,153.1292,-27.3917,77.00,71.60,83.44,130.00,9.00,0.00,29.85,M,6.21,M,FEW,SCT,M,M,1200.00,1900.00,M,M,M,YBBN 171045Z 13009KT 9999 FEW012 SCT019 25/22 Q1011 RMK HZ
YBBN,2014-02-17 11:00,153.1292,-27.3917,77.00,71.60,83.44,130.00,9.00,0.00,29.85,M,6.21,M,FEW,BKN,M,M,1300.00,4500.00,M,M,M,YBBN 171100Z 13009KT 9999 FEW013 BKN045 25/22 Q1011
YBBN,2014-02-17 11:30,153.1292,-27.3917,77.00,71.60,83.44,130.00,8.00,0.00,29.85,M,6.21,M,SCT,SCT,BKN,M,1200.00,2000.00,5000.00,M,M,YBBN 171130Z 13008KT 9999 SCT012 SCT020 BKN050 25/22 Q1011 RMK HZ
YBBN,2014-02-17 12:00,153.1292,-27.3917,77.00,73.40,88.67,130.00,9.00,0.00,29.85,M,6.21,M,FEW,SCT,BKN,M,1400.00,2000.00,4700.00,M,M,YBBN 171200Z 13009KT 9999 FEW014 SCT020 BKN047 25/23 Q1011 RMK HZ
YBBN,2014-02-17 12:30,153.1292,-27.3917,77.00,71.60,83.44,130.00,8.00,0.00,29.85,M,6.21,M,FEW,SCT,BKN,M,1400.00,2000.00,4000.00,M,VCSH,YBBN 171230Z 13008KT 9999 VCSH FEW014 SCT020 BKN040 25/22 Q1011
YBBN,2014-02-17 13:00,153.1292,-27.3917,77.00,71.60,83.44,120.00,9.00,0.00,29.85,M,6.21,M,FEW,SCT,BKN,M,1200.00,4000.00,5800.00,M,-SHRA,YBBN 171300Z 12009KT 9999 -SHRA FEW012 SCT040 BKN058 25/22 Q1011
YBBN,2014-02-17 13:30,153.1292,-27.3917,77.00,71.60,83.44,120.00,8.00,0.00,29.85,M,6.21,M,FEW,SCT,BKN,M,1200.00,1500.00,5000.00,M,VCSH,YBBN 171330Z 12008KT 9999 VCSH FEW012 SCT015 BKN050 25/22 Q1011
YBBN,2014-02-17 14:00,153.1292,-27.3917,77.00,71.60,83.44,120.00,7.00,0.00,29.85,M,6.21,M,FEW,SCT,BKN,M,1300.00,4000.00,15000.00,M,VCSH,YBBN 171400Z 12007KT 9999 VCSH FEW013 SCT040 BKN150 25/22 Q1011
YBBN,2014-02-17 14:30,153.1292,-27.3917,77.00,71.60,83.44,120.00,9.00,0.00,29.83,M,6.21,M,FEW,SCT,BKN,M,1500.00,10500.00,18000.00,M,M,YBBN 171430Z 12009KT 9999 FEW015 SCT105 BKN180 25/22 Q1010
YBBN,2014-02-17 15:00,153.1292,-27.3917,77.00,71.60,83.44,120.00,7.00,0.00,29.83,M,6.21,M,FEW,SCT,BKN,M,1000.00,1300.00,16000.00,M,VCSH,YBBN 171500Z 12007KT 9999 VCSH FEW010 SCT013 BKN160 25/22 Q1010
YBBN,2014-02-17 15:30,153.1292,-27.3917,77.00,71.60,83.44,120.00,7.00,0.00,29.83,M,6.21,M,FEW,SCT,BKN,M,1300.00,4000.00,14000.00,M,-SHRA,YBBN 171530Z 12007KT 9999 -SHRA FEW013 SCT040 BKN140 25/22 Q1010
YBBN,2014-02-17 16:00,153.1292,-27.3917,77.00,71.60,83.44,110.00,7.00,0.00,29.83,M,6.21,M,BKN,SCT,M,M,1400.00,2200.00,M,M,-SHRA,YBBN 171600Z 11007KT 9999 -SHRA BKN014 SCT022 25/22 Q1010
YBBN,2014-02-17 16:30,153.1292,-27.3917,77.00,73.40,88.67,110.00,7.00,0.00,29.83,M,6.21,M,BKN,SCT,M,M,1600.00,3000.00,M,M,-TSRA,YBBN 171630Z 11007KT 9999 -TSRA BKN016 SCT030CB 25/23 Q1010
YBBN,2014-02-17 17:00,153.1292,-27.3917,77.00,73.40,88.67,110.00,7.00,0.00,29.83,M,6.21,M,FEW,BKN,OVC,M,1200.00,1600.00,4700.00,M,VCTS,YBBN 171700Z 11007KT 9999 VCTS FEW012 BKN016 OVC047 25/23 Q1010 RETS
YBBN,2014-02-17 17:30,153.1292,-27.3917,75.20,73.40,94.14,120.00,6.00,0.00,29.83,M,6.21,M,FEW,SCT,BKN,M,1200.00,1600.00,3000.00,M,-SHRA,YBBN 171730Z 12006KT 9999 -SHRA FEW012 SCT016 BKN030 24/23 Q1010
YBBN,2014-02-17 17:58,153.1292,-27.3917,75.20,73.40,94.14,130.00,4.00,0.00,29.83,M,6.21,M,BKN,BKN,OVC,M,1200.00,3000.00,6000.00,M,RA,YBBN 171758Z 13004KT 9999 RA BKN012 BKN030 OVC060 24/23 Q1010
YBBN,2014-02-17 18:00,153.1292,-27.3917,75.20,73.40,94.14,130.00,4.00,0.00,29.83,M,6.21,M,BKN,BKN,OVC,M,1200.00,3000.00,6000.00,M,RA,YBBN 171800Z 13004KT 9999 RA BKN012 BKN030 OVC060 24/23 Q1010
YBBN,2014-02-17 18:30,153.1292,-27.3917,75.20,73.40,94.14,110.00,4.00,0.00,29.83,M,6.21,M,BKN,OVC,M,M,1000.00,1500.00,M,M,-RA,YBBN 171830Z 11004KT 9999 -RA BKN010 OVC015 24/23 Q1010
YBBN,2014-02-17 19:00,153.1292,-27.3917,75.20,73.40,94.14,120.00,5.00,0.00,29.83,M,4.04,M,BKN,BKN,M,M,900.00,1700.00,M,M,RA,YBBN 171900Z 12005KT 6500 RA BKN009 BKN017 24/23 Q1010
YBBN,2014-02-17 19:30,153.1292,-27.3917,75.20,73.40,94.14,90.00,4.00,0.00,29.85,M,6.21,M,SCT,BKN,M,M,500.00,900.00,M,M,-RA,YBBN 171930Z 09004KT 9999 4500SW -RA SCT005 BKN009 24/23 Q1011
YBBN,2014-02-17 19:48,153.1292,-27.3917,75.20,73.40,94.14,160.00,4.00,0.00,29.85,M,6.21,M,FEW,BKN,BKN,M,500.00,2700.00,10000.00,M,-RA,YBBN 171948Z 16004KT 9999 -RA FEW005 BKN027 BKN100 24/23 Q1011
YBBN,2014-02-17 20:00,153.1292,-27.3917,75.20,73.40,94.14,180.00,4.00,0.00,29.85,M,6.21,M,BKN,SCT,BKN,M,600.00,1200.00,2600.00,M,VCSH,YBBN 172000Z 18004KT 9999 VCSH BKN006 SCT012 BKN026 24/23 Q1011
YBBN,2014-02-17 20:14,153.1292,-27.3917,75.20,73.40,94.14,130.00,3.00,0.00,29.85,M,6.21,M,FEW,SCT,BKN,M,600.00,1200.00,2600.00,M,-RA,YBBN 172014Z 13003KT 9999 -RA FEW006 SCT012 BKN026 24/23 Q1011
YBBN,2014-02-17 20:30,153.1292,-27.3917,75.20,73.40,94.14,160.00,4.00,0.00,29.85,M,6.21,M,FEW,SCT,BKN,M,700.00,1500.00,14000.00,M,-RA,YBBN 172030Z 16004KT 9999 -RA FEW007 SCT015 BKN140 24/23 Q1011
YBBN,2014-02-17 21:00,153.1292,-27.3917,75.20,73.40,94.14,170.00,4.00,0.00,29.88,M,6.21,M,FEW,SCT,BKN,M,500.00,700.00,3000.00,M,VCSH,YBBN 172100Z 17004KT 9999 VCSH FEW005 SCT007 BKN030 24/23 Q1012
YBBN,2014-02-17 21:30,153.1292,-27.3917,75.20,73.40,94.14,180.00,5.00,0.00,29.85,M,6.21,M,FEW,SCT,M,M,600.00,900.00,M,M,M,YBBN 172130Z 18005KT 9999 FEW006 SCT009 24/23 Q1011
YBBN,2014-02-17 22:00,153.1292,-27.3917,75.20,73.40,94.14,160.00,4.00,0.00,29.88,M,6.21,M,FEW,SCT,M,M,600.00,1200.00,M,M,VCSH,YBBN 172200Z 16004KT 9999 VCSH FEW006 SCT012 24/23 Q1012
YBBN,2014-02-17 22:30,153.1292,-27.3917,77.00,73.40,88.67,150.00,5.00,0.00,29.85,M,6.21,M,FEW,SCT,M,M,800.00,7500.00,M,M,VCSH,YBBN 172230Z 15005KT 9999 VCSH FEW008 SCT075 25/23 Q1011
YBBN,2014-02-17 23:00,153.1292,-27.3917,78.80,73.40,83.55,140.00,5.00,0.00,29.88,M,6.21,M,FEW,SCT,M,M,800.00,1200.00,M,M,VCSH,YBBN 172300Z 14005KT 9999 VCSH FEW008 SCT012 26/23 Q1012
YBBN,2014-02-17 23:30,153.1292,-27.3917,80.60,73.40,78.76,120.00,7.00,0.00,29.88,M,6.21,M,FEW,SCT,FEW,M,800.00,2100.00,2300.00,M,VCSH,YBBN 172330Z 12007KT 9999 VCSH FEW008 SCT021 FEW023TCU 27/23 Q1012
