#DEBUG: Format Typ    -> comma
#DEBUG: Time Period   -> 2015-10-12 00:00:00+00:00 2015-10-13 00:00:00+00:00
#DEBUG: Time Zone     -> Etc/UTC
#DEBUG: Data Contact   -> daryl herzmann akrherz@iastate.edu 515-294-5978
#DEBUG: Entries Found -> -1
station,valid,lon,lat,tmpf, dwpf, relh, drct, sknt, p01i, alti, mslp, vsby, gust, skyc1, skyc2, skyc3, skyc4, skyl1, skyl2, skyl3, skyl4, presentwx, metar
YBBN,2015-10-12 00:00,153.1292,-27.3917,73.40,59.00,60.67,10.00,11.00,0.00,30.21,M,6.21,M,FEW,M,M,M,3000.00,M,M,M,M,YBBN 120000Z 01011KT 9999 FEW030 23/15 Q1023 NOSIG
YBBN,2015-10-12 00:30,153.1292,-27.3917,75.20,57.20,53.55,360.00,11.00,0.00,30.18,M,6.21,M,FEW,M,M,M,3500.00,M,M,M,M,YBBN 120030Z 36011KT 9999 FEW035 24/14 Q1022
YBBN,2015-10-12 01:00,153.1292,-27.3917,75.20,57.20,53.55,10.00,11.00,0.00,30.18,M,6.21,M,FEW,M,M,M,3500.00,M,M,M,M,YBBN 120100Z 01011KT 9999 FEW035 24/14 Q1022 NOSIG
YBBN,2015-10-12 01:30,153.1292,-27.3917,77.00,60.80,57.36,10.00,12.00,0.00,30.15,M,6.21,M,FEW,M,M,M,3500.00,M,M,M,M,YBBN 120130Z 01012KT 9999 FEW035 25/16 Q1021
YBBN,2015-10-12 02:00,153.1292,-27.3917,75.20,59.00,57.12,30.00,14.00,0.00,30.15,M,6.21,M,FEW,M,M,M,3500.00,M,M,M,M,YBBN 120200Z 03014KT 9999 FEW035 24/15 Q1021
YBBN,2015-10-12 02:30,153.1292,-27.3917,77.00,59.00,53.80,30.00,15.00,0.00,30.12,M,6.21,M,FEW,M,M,M,3500.00,M,M,M,M,YBBN 120230Z 03015KT 9999 FEW035 25/15 Q1020
YBBN,2015-10-12 03:00,153.1292,-27.3917,77.00,60.80,57.36,30.00,17.00,0.00,30.12,M,6.21,M,FEW,M,M,M,3500.00,M,M,M,M,YBBN 120300Z 03017KT 9999 FEW035 25/16 Q1020
YBBN,2015-10-12 03:30,153.1292,-27.3917,77.00,60.80,57.36,30.00,16.00,0.00,30.09,M,6.21,M,FEW,M,M,M,3000.00,M,M,M,M,YBBN 120330Z 03016KT 9999 FEW030 25/16 Q1019
YBBN,2015-10-12 04:00,153.1292,-27.3917,77.00,60.80,57.36,20.00,18.00,0.00,30.09,M,6.21,M,FEW,M,M,M,3000.00,M,M,M,M,YBBN 120400Z 02018KT 9999 FEW030 25/16 Q1019
YBBN,2015-10-12 04:30,153.1292,-27.3917,75.20,59.00,57.12,20.00,18.00,0.00,30.06,M,6.21,M,FEW,M,M,M,3000.00,M,M,M,M,YBBN 120430Z 02018KT 9999 FEW030 24/15 Q1018
YBBN,2015-10-12 05:00,153.1292,-27.3917,75.20,60.80,60.90,20.00,17.00,0.00,30.06,M,6.21,M,FEW,M,M,M,3000.00,M,M,M,M,YBBN 120500Z 02017KT 9999 FEW030 24/16 Q1018 NOSIG
YBBN,2015-10-12 05:30,153.1292,-27.3917,73.40,60.80,64.69,20.00,19.00,0.00,30.06,M,6.21,M,FEW,M,M,M,3000.00,M,M,M,M,YBBN 120530Z 02019KT 9999 FEW030 23/16 Q1018
YBBN,2015-10-12 06:00,153.1292,-27.3917,73.40,62.60,68.94,20.00,19.00,0.00,30.06,M,6.21,M,FEW,M,M,M,3000.00,M,M,M,M,YBBN 120600Z 02019KT 9999 FEW030 23/17 Q1018 NOSIG
YBBN,2015-10-12 06:30,153.1292,-27.3917,73.40,60.80,64.69,10.00,19.00,0.00,30.06,M,6.21,M,FEW,M,M,M,3000.00,M,M,M,M,YBBN 120630Z 01019KT 9999 FEW030 23/16 Q1018
YBBN,2015-10-12 07:00,153.1292,-27.3917,71.60,62.60,73.27,10.00,16.00,0.00,30.06,M,6.21,M,FEW,M,M,M,2500.00,M,M,M,M,YBBN 120700Z 01016KT 9999 FEW025 22/17 Q1018
YBBN,2015-10-12 07:30,153.1292,-27.3917,71.60,60.80,68.75,10.00,17.00,0.00,30.06,M,6.21,M,FEW,M,M,M,3000.00,M,M,M,M,YBBN 120730Z 01017KT 9999 FEW030 22/16 Q1018
YBBN,2015-10-12 08:00,153.1292,-27.3917,69.80,60.80,73.09,10.00,18.00,0.00,30.06,M,6.21,M,FEW,M,M,M,3000.00,M,M,M,M,YBBN 120800Z 01018KT 9999 FEW030 21/16 Q1018
YBBN,2015-10-12 08:30,153.1292,-27.3917,69.80,60.80,73.09,10.00,16.00,0.00,30.09,M,6.21,M,FEW,M,M,M,2800.00,M,M,M,M,YBBN 120830Z 01016KT 9999 FEW028 21/16 Q1019
YBBN,2015-10-12 09:00,153.1292,-27.3917,69.80,60.80,73.09,10.00,16.00,0.00,30.09,M,6.21,M,FEW,M,M,M,2500.00,M,M,M,M,YBBN 120900Z 01016KT 9999 FEW025 21/16 Q1019 NOSIG
YBBN,2015-10-12 09:30,153.1292,-27.3917,69.80,60.80,73.09,360.00,15.00,0.00,30.12,M,6.21,M,FEW,M,M,M,2800.00,M,M,M,M,YBBN 120930Z 36015KT 9999 FEW028 21/16 Q1020 RMK DIST LIGHTNING TO S
YBBN,2015-10-12 10:00,153.1292,-27.3917,69.80,62.60,77.90,10.00,15.00,0.00,30.12,M,6.21,M,FEW,FEW,M,M,2800.00,3000.00,M,M,VCTS,YBBN 121000Z 01015KT 9999 VCTS FEW028 FEW030CB 21/17 Q1020
YBBN,2015-10-12 10:30,153.1292,-27.3917,69.80,62.60,77.90,10.00,13.00,0.00,30.15,M,6.21,M,FEW,SCT,M,M,3000.00,11000.00,M,M,M,YBBN 121030Z 01013KT 9999 FEW030 SCT110 21/17 Q1021
YBBN,2015-10-12 11:00,153.1292,-27.3917,69.80,62.60,77.90,360.00,8.00,0.00,30.15,M,6.21,M,SCT,SCT,M,M,2200.00,11000.00,M,M,VCSH,YBBN 121100Z 36008KT 9999 VCSH SCT022 SCT110 21/17 Q1021
YBBN,2015-10-12 11:30,153.1292,-27.3917,69.80,62.60,77.90,350.00,6.00,0.00,30.15,M,6.21,M,FEW,SCT,M,M,2200.00,11500.00,M,M,VCSH,YBBN 121130Z 35006KT 9999 VCSH FEW022 SCT115 21/17 Q1021
YBBN,2015-10-12 12:00,153.1292,-27.3917,69.80,60.80,73.09,360.00,12.00,0.00,30.15,M,6.21,M,M,M,M,M,M,M,M,M,M,YBBN 121200Z 36012KT CAVOK 21/16 Q1021
YBBN,2015-10-12 12:30,153.1292,-27.3917,69.80,62.60,77.90,10.00,20.00,0.00,30.12,M,6.21,M,M,M,M,M,M,M,M,M,M,YBBN 121230Z 01020KT CAVOK 21/17 Q1020
YBBN,2015-10-12 13:00,153.1292,-27.3917,69.80,60.80,73.09,350.00,18.00,0.00,30.12,M,6.21,M,M,M,M,M,M,M,M,M,M,YBBN 121300Z 35018KT CAVOK 21/16 Q1020
YBBN,2015-10-12 13:30,153.1292,-27.3917,69.80,60.80,73.09,350.00,18.00,0.00,30.12,M,6.21,M,M,M,M,M,M,M,M,M,M,YBBN 121330Z 35018KT CAVOK 21/16 Q1020
YBBN,2015-10-12 14:00,153.1292,-27.3917,68.00,60.80,77.75,350.00,13.00,0.00,30.12,M,6.21,M,M,M,M,M,M,M,M,M,M,YBBN 121400Z 35013KT CAVOK 20/16 Q1020 NOSIG
YBBN,2015-10-12 14:30,153.1292,-27.3917,68.00,60.80,77.75,340.00,13.00,0.00,30.12,M,6.21,M,M,M,M,M,M,M,M,M,M,YBBN 121430Z 34013KT CAVOK 20/16 Q1020
YBBN,2015-10-12 15:00,153.1292,-27.3917,68.00,60.80,77.75,350.00,9.00,0.00,30.12,M,6.21,M,M,M,M,M,M,M,M,M,M,YBBN 121500Z 35009KT CAVOK 20/16 Q1020
YBBN,2015-10-12 15:30,153.1292,-27.3917,66.20,60.80,82.74,340.00,7.00,0.00,30.09,M,6.21,M,M,M,M,M,M,M,M,M,M,YBBN 121530Z 34007KT CAVOK 19/16 Q1019
YBBN,2015-10-12 16:00,153.1292,-27.3917,66.20,60.80,82.74,350.00,8.00,0.00,30.09,M,6.21,M,M,M,M,M,M,M,M,M,M,YBBN 121600Z 35008KT CAVOK 19/16 Q1019
YBBN,2015-10-12 16:30,153.1292,-27.3917,66.20,60.80,82.74,350.00,8.00,0.00,30.09,M,6.21,M,M,M,M,M,M,M,M,M,M,YBBN 121630Z 35008KT CAVOK 19/16 Q1019
YBBN,2015-10-12 17:00,153.1292,-27.3917,66.20,60.80,82.74,340.00,7.00,0.00,30.09,M,6.21,M,M,M,M,M,M,M,M,M,M,YBBN 121700Z 34007KT CAVOK 19/16 Q1019
YBBN,2015-10-12 17:30,153.1292,-27.3917,64.40,60.80,88.09,310.00,6.00,0.00,30.09,M,6.21,M,M,M,M,M,M,M,M,M,M,YBBN 121730Z 31006KT CAVOK 18/16 Q1019
YBBN,2015-10-12 18:00,153.1292,-27.3917,64.40,60.80,88.09,290.00,6.00,0.00,30.09,M,6.21,M,M,M,M,M,M,M,M,M,M,YBBN 121800Z 29006KT CAVOK 18/16 Q1019 NOSIG
YBBN,2015-10-12 18:30,153.1292,-27.3917,64.40,59.00,82.62,290.00,6.00,0.00,30.09,M,6.21,M,M,M,M,M,M,M,M,M,M,YBBN 121830Z 29006KT CAVOK 18/15 Q1019
YBBN,2015-10-12 19:00,153.1292,-27.3917,64.40,60.80,88.09,290.00,6.00,0.00,30.09,M,6.21,M,M,M,M,M,M,M,M,M,M,YBBN 121900Z 29006KT CAVOK 18/16 Q1019
YBBN,2015-10-12 19:30,153.1292,-27.3917,62.60,60.80,93.83,280.00,5.00,0.00,30.12,M,6.21,M,M,M,M,M,M,M,M,M,M,YBBN 121930Z 28005KT CAVOK 17/16 Q1020
YBBN,2015-10-12 20:00,153.1292,-27.3917,64.40,60.80,88.09,310.00,5.00,0.00,30.12,M,6.21,M,M,M,M,M,M,M,M,M,M,YBBN 122000Z 31005KT CAVOK 18/16 Q1020 NOSIG
YBBN,2015-10-12 20:30,153.1292,-27.3917,66.20,60.80,82.74,320.00,5.00,0.00,30.12,M,6.21,M,M,M,M,M,M,M,M,M,M,YBBN 122030Z 32005KT CAVOK 19/16 Q1020
YBBN,2015-10-12 21:00,153.1292,-27.3917,68.00,60.80,77.75,290.00,5.00,0.00,30.15,M,6.21,M,M,M,M,M,M,M,M,M,M,YBBN 122100Z 29005KT 260V320 CAVOK 20/16 Q1021 NOSIG
YBBN,2015-10-12 21:30,153.1292,-27.3917,69.80,60.80,73.09,310.00,5.00,0.00,30.15,M,6.21,M,M,M,M,M,M,M,M,M,M,YBBN 122130Z 31005KT CAVOK 21/16 Q1021
YBBN,2015-10-12 22:00,153.1292,-27.3917,71.60,60.80,68.75,10.00,8.00,0.00,30.15,M,6.21,M,FEW,M,M,M,2300.00,M,M,M,M,YBBN 122200Z 01008KT 9999 FEW023 22/16 Q1021 NOSIG
YBBN,2015-10-12 22:30,153.1292,-27.3917,73.40,60.80,64.69,10.00,9.00,0.00,30.15,M,6.21,M,FEW,M,M,M,2300.00,M,M,M,M,YBBN 122230Z 01009KT 9999 FEW023 23/16 Q1021
YBBN,2015-10-12 23:00,153.1292,-27.3917,73.40,59.00,60.67,10.00,11.00,0.00,30.15,M,6.21,M,M,M,M,M,M,M,M,M,M,YBBN 122300Z 01011KT CAVOK 23/15 Q1021 NOSIG
YBBN,2015-10-12 23:30,153.1292,-27.3917,73.40,60.80,64.69,10.00,10.00,0.00,30.12,M,6.21,M,M,M,M,M,M,M,M,M,M,YBBN 122330Z 01010KT CAVOK 23/16 Q1020
