#DEBUG: Format Typ    -> comma
#DEBUG: Time Period   -> 2012-08-25 00:00:00+00:00 2012-08-26 00:00:00+00:00
#DEBUG: Time Zone     -> Etc/UTC
#DEBUG: Data Contact   -> daryl herzmann akrherz@iastate.edu 515-294-5978
#DEBUG: Entries Found -> -1
station,valid,lon,lat,tmpf, dwpf, relh, drct, sknt, p01i, alti, mslp, vsby, gust, skyc1, skyc2, skyc3, skyc4, skyl1, skyl2, skyl3, skyl4, presentwx, metar
YBBN,2012-08-25 00:00,153.1292,-27.3917,69.80,26.60,19.72,210.00,8.00,0.00,30.12,M,6.21,M,M,M,M,M,M,M,M,M,M,YBBN 250000Z 21008KT CAVOK 21/M03 Q1020 NOSIG
YBBN,2012-08-25 00:30,153.1292,-27.3917,69.80,24.80,18.30,200.00,9.00,0.00,30.12,M,6.21,M,M,M,M,M,M,M,M,M,M,YBBN 250030Z 20009KT CAVOK 21/M04 Q1020
YBBN,2012-08-25 01:00,153.1292,-27.3917,71.60,28.40,19.98,220.00,7.00,0.00,30.09,M,6.21,M,M,M,M,M,M,M,M,M,M,YBBN 250100Z 22007KT CAVOK 22/M02 Q1019
YBBN,2012-08-25 01:30,153.1292,-27.3917,71.60,23.00,15.97,230.00,8.00,0.00,30.09,M,6.21,M,M,M,M,M,M,M,M,M,M,YBBN 250130Z 23008KT CAVOK 22/M05 Q1019
YBBN,2012-08-25 02:00,153.1292,-27.3917,71.60,23.00,15.97,200.00,10.00,0.00,30.06,M,6.21,M,M,M,M,M,M,M,M,M,M,YBBN 250200Z 20010KT CAVOK 22/M05 Q1018 NOSIG
YBBN,2012-08-25 02:30,153.1292,-27.3917,73.40,24.80,16.20,220.00,7.00,0.00,30.06,M,6.21,M,M,M,M,M,M,M,M,M,M,YBBN 250230Z 22007KT CAVOK 23/M04 Q1018
YBBN,2012-08-25 03:00,153.1292,-27.3917,73.40,26.60,17.46,240.00,8.00,0.00,30.03,M,6.21,M,M,M,M,M,M,M,M,M,M,YBBN 250300Z 24008KT CAVOK 23/M03 Q1017 NOSIG
YBBN,2012-08-25 03:30,153.1292,-27.3917,75.20,19.40,12.14,240.00,8.00,0.00,30.03,M,6.21,M,M,M,M,M,M,M,M,M,M,YBBN 250330Z 24008KT CAVOK 24/M07 Q1017
YBBN,2012-08-25 04:00,153.1292,-27.3917,75.20,23.00,14.15,40.00,8.00,0.00,30.00,M,6.21,M,M,M,M,M,M,M,M,M,M,YBBN 250400Z 04008KT CAVOK 24/M05 Q1016 NOSIG
YBBN,2012-08-25 04:30,153.1292,-27.3917,71.60,33.80,24.86,50.00,9.00,0.00,30.00,M,6.21,M,M,M,M,M,M,M,M,M,M,YBBN 250430Z 05009KT CAVOK 22/01 Q1016
YBBN,2012-08-25 05:00,153.1292,-27.3917,71.60,33.80,24.86,60.00,7.00,0.00,30.00,M,6.21,M,M,M,M,M,M,M,M,M,M,YBBN 250500Z 06007KT CAVOK 22/01 Q1016
YBBN,2012-08-25 05:30,153.1292,-27.3917,73.40,33.80,23.39,50.00,9.00,0.00,30.00,M,6.21,M,M,M,M,M,M,M,M,M,M,YBBN 250530Z 05009KT CAVOK 23/01 Q1016
YBBN,2012-08-25 06:00,153.1292,-27.3917,71.60,35.60,26.71,50.00,9.00,0.00,30.00,M,6.21,M,M,M,M,M,M,M,M,M,M,YBBN 250600Z 05009KT CAVOK 22/02 Q1016
YBBN,2012-08-25 06:30,153.1292,-27.3917,69.80,44.60,40.29,50.00,9.00,0.00,30.00,M,6.21,M,M,M,M,M,M,M,M,M,M,YBBN 250630Z 05009KT CAVOK 21/07 Q1016
YBBN,2012-08-25 07:00,153.1292,-27.3917,68.00,44.60,42.85,70.00,6.00,0.00,30.00,M,6.21,M,M,M,M,M,M,M,M,M,M,YBBN 250700Z 07006KT CAVOK 20/07 Q1016 NOSIG
YBBN,2012-08-25 07:30,153.1292,-27.3917,66.20,44.60,45.60,70.00,6.00,0.00,30.03,M,6.21,M,M,M,M,M,M,M,M,M,M,YBBN 250730Z 07006KT CAVOK 19/07 Q1017
YBBN,2012-08-25 08:00,153.1292,-27.3917,66.20,44.60,45.60,80.00,6.00,0.00,30.03,M,6.21,M,M,M,M,M,M,M,M,M,M,YBBN 250800Z 08006KT CAVOK 19/07 Q1017 NOSIG
YBBN,2012-08-25 08:30,153.1292,-27.3917,64.40,46.40,51.98,80.00,5.00,0.00,30.03,M,6.21,M,M,M,M,M,M,M,M,M,M,YBBN 250830Z 08005KT CAVOK 18/08 Q1017
YBBN,2012-08-25 09:00,153.1292,-27.3917,64.40,48.20,55.63,80.00,5.00,0.00,30.06,M,6.21,M,M,M,M,M,M,M,M,M,M,YBBN 250900Z 08005KT CAVOK 18/09 Q1018
YBBN,2012-08-25 09:30,153.1292,-27.3917,59.00,48.20,67.33,330.00,1.00,0.00,30.06,M,6.21,M,M,M,M,M,M,M,M,M,M,YBBN 250930Z 33001KT CAVOK 15/09 Q1018
YBBN,2012-08-25 10:00,153.1292,-27.3917,57.20,48.20,71.83,270.00,2.00,0.00,30.09,M,6.21,M,M,M,M,M,M,M,M,M,M,YBBN 251000Z 27002KT CAVOK 14/09 Q1019 NOSIG
YBBN,2012-08-25 10:30,153.1292,-27.3917,57.20,46.40,67.12,0.00,0.00,0.00,30.09,M,6.21,M,M,M,M,M,M,M,M,M,M,YBBN 251030Z 00000KT CAVOK 14/08 Q1019
YBBN,2012-08-25 11:00,153.1292,-27.3917,57.20,46.40,67.12,0.00,0.00,0.00,30.09,M,6.21,M,M,M,M,M,M,M,M,M,M,YBBN 251100Z 00000KT CAVOK 14/08 Q1019
YBBN,2012-08-25 11:30,153.1292,-27.3917,53.60,48.20,81.87,0.00,0.00,0.00,30.09,M,6.21,M,M,M,M,M,M,M,M,M,M,YBBN 251130Z 00000KT CAVOK 12/09 Q1019
YBBN,2012-08-25 12:00,153.1292,-27.3917,55.40,48.20,76.66,210.00,2.00,0.00,30.09,M,6.21,M,M,M,M,M,M,M,M,M,M,YBBN 251200Z 21002KT CAVOK 13/09 Q1019 NOSIG
YBBN,2012-08-25 12:30,153.1292,-27.3917,53.60,48.20,81.87,210.00,1.00,0.00,30.09,M,6.21,M,M,M,M,M,M,M,M,M,M,YBBN 251230Z 21001KT CAVOK 12/09 Q1019
YBBN,2012-08-25 13:00,153.1292,-27.3917,51.80,48.20,87.47,200.00,2.00,0.00,30.09,M,6.21,M,M,M,M,M,M,M,M,M,M,YBBN 251300Z 20002KT CAVOK 11/09 Q1019
YBBN,2012-08-25 13:30,153.1292,-27.3917,53.60,46.40,76.50,210.00,4.00,0.00,30.09,M,6.21,M,M,M,M,M,M,M,M,M,M,YBBN 251330Z 21004KT CAVOK 12/08 Q1019
YBBN,2012-08-25 14:00,153.1292,-27.3917,51.80,46.40,81.74,210.00,4.00,0.00,30.09,M,6.21,M,M,M,M,M,M,M,M,M,M,YBBN 251400Z 21004KT CAVOK 11/08 Q1019 NOSIG
YBBN,2012-08-25 14:30,153.1292,-27.3917,50.00,46.40,87.37,220.00,4.00,0.00,30.09,M,6.21,M,M,M,M,M,M,M,M,M,M,YBBN 251430Z 22004KT CAVOK 10/08 Q1019
YBBN,2012-08-25 15:00,153.1292,-27.3917,51.80,46.40,81.74,240.00,3.00,0.00,30.09,M,6.21,M,M,M,M,M,M,M,M,M,M,YBBN 251500Z 24003KT CAVOK 11/08 Q1019 NOSIG
YBBN,2012-08-25 15:30,153.1292,-27.3917,51.80,46.40,81.74,220.00,4.00,0.00,30.06,M,6.21,M,M,M,M,M,M,M,M,M,M,YBBN 251530Z 22004KT CAVOK 11/08 Q1018
YBBN,2012-08-25 16:00,153.1292,-27.3917,50.00,46.40,87.37,210.00,4.00,0.00,30.06,M,6.21,M,M,M,M,M,M,M,M,M,M,YBBN 251600Z 21004KT CAVOK 10/08 Q1018 NOSIG
YBBN,2012-08-25 16:30,153.1292,-27.3917,50.00,46.40,87.37,210.00,5.00,0.00,30.06,M,6.21,M,M,M,M,M,M,M,M,M,M,YBBN 251630Z 21005KT CAVOK 10/08 Q1018 RMK FU
YBBN,2012-08-25 17:00,153.1292,-27.3917,50.00,44.60,81.61,210.00,6.00,0.00,30.06,M,6.21,M,M,M,M,M,M,M,M,M,M,YBBN 251700Z 21006KT CAVOK 10/07 Q1018
YBBN,2012-08-25 17:30,153.1292,-27.3917,51.80,42.80,71.26,210.00,7.00,0.00,30.06,M,6.21,M,M,M,M,M,M,M,M,M,M,YBBN 251730Z 21007KT CAVOK 11/06 Q1018
YBBN,2012-08-25 18:00,153.1292,-27.3917,50.00,42.80,76.18,200.00,8.00,0.00,30.06,M,6.21,M,M,M,M,M,M,M,M,M,M,YBBN 251800Z 20008KT CAVOK 10/06 Q1018 NOSIG
YBBN,2012-08-25 18:30,153.1292,-27.3917,48.20,42.80,81.47,200.00,7.00,0.00,30.06,M,6.21,M,M,M,M,M,M,M,M,M,M,YBBN 251830Z 20007KT CAVOK 09/06 Q1018
YBBN,2012-08-25 19:00,153.1292,-27.3917,50.00,42.80,76.18,210.00,8.00,0.00,30.06,M,6.21,M,M,M,M,M,M,M,M,M,M,YBBN 251900Z 21008KT CAVOK 10/06 Q1018 NOSIG
YBBN,2012-08-25 19:30,153.1292,-27.3917,50.00,42.80,76.18,200.00,9.00,0.00,30.06,M,6.21,M,M,M,M,M,M,M,M,M,M,YBBN 251930Z 20009KT CAVOK 10/06 Q1018
YBBN,2012-08-25 20:00,153.1292,-27.3917,48.20,42.80,81.47,210.00,8.00,0.00,30.06,M,6.21,M,M,M,M,M,M,M,M,M,M,YBBN 252000Z 21008KT CAVOK 09/06 Q1018 NOSIG
YBBN,2012-08-25 20:30,153.1292,-27.3917,50.00,42.80,76.18,210.00,9.00,0.00,30.09,M,6.21,M,M,M,M,M,M,M,M,M,M,YBBN 252030Z 21009KT CAVOK 10/06 Q1019
YBBN,2012-08-25 21:00,153.1292,-27.3917,51.80,44.60,76.34,210.00,8.00,0.00,30.09,M,6.21,M,M,M,M,M,M,M,M,M,M,YBBN 252100Z 21008KT CAVOK 11/07 Q1019
YBBN,2012-08-25 21:30,153.1292,-27.3917,55.40,44.60,66.91,210.00,7.00,0.00,30.09,M,6.21,M,M,M,M,M,M,M,M,M,M,YBBN 252130Z 21007KT CAVOK 13/07 Q1019
YBBN,2012-08-25 22:00,153.1292,-27.3917,57.20,42.80,58.52,230.00,7.00,0.00,30.09,M,6.21,M,M,M,M,M,M,M,M,M,M,YBBN 252200Z 23007KT CAVOK 14/06 Q1019 NOSIG
YBBN,2012-08-25 22:30,153.1292,-27.3917,60.80,41.00,48.00,220.00,6.00,0.00,30.09,M,6.21,M,M,M,M,M,M,M,M,M,M,YBBN 252230Z 22006KT CAVOK 16/05 Q1019
YBBN,2012-08-25 23:00,153.1292,-27.3917,64.40,41.00,42.28,210.00,8.00,0.00,30.09,M,6.21,M,M,M,M,M,M,M,M,M,M,YBBN 252300Z 21008KT CAVOK 18/05 Q1019 NOSIG
YBBN,2012-08-25 23:30,153.1292,-27.3917,66.20,41.00,39.72,220.00,7.00,0.00,30.09,M,6.21,M,M,M,M,M,M,M,M,M,M,YBBN 252330Z 22007KT CAVOK 19/05 Q1019
