#DEBUG: Format Typ    -> comma
#DEBUG: Time Period   -> 2014-12-01 00:00:00+00:00 2014-12-02 00:00:00+00:00
#DEBUG: Time Zone     -> Etc/UTC
#DEBUG: Data Contact   -> daryl herzmann akrherz@iastate.edu 515-294-5978
#DEBUG: Entries Found -> -1
station,valid,lon,lat,tmpf, dwpf, relh, drct, sknt, p01i, alti, mslp, vsby, gust, skyc1, skyc2, skyc3, skyc4, skyl1, skyl2, skyl3, skyl4, presentwx, metar
YBBN,2014-12-01 00:00,153.1292,-27.3917,78.80,59.00,50.69,10.00,10.00,0.00,29.97,M,6.21,M,FEW,M,M,M,3500.00,M,M,M,M,YBBN 010000Z 01010KT 9999 FEW035 26/15 Q1015 NOSIG
YBBN,2014-12-01 00:30,153.1292,-27.3917,78.80,57.20,47.52,10.00,10.00,0.00,29.97,M,6.21,M,FEW,M,M,M,3500.00,M,M,M,M,YBBN 010030Z 01010KT 9999 FEW035 26/14 Q1015
YBBN,2014-12-01 01:00,153.1292,-27.3917,78.80,59.00,50.69,360.00,10.00,0.00,29.97,M,6.21,M,FEW,M,M,M,3800.00,M,M,M,M,YBBN 010100Z 36010KT 9999 FEW038 26/15 Q1015 NOSIG
YBBN,2014-12-01 01:30,153.1292,-27.3917,78.80,57.20,47.52,20.00,10.00,0.00,29.94,M,6.21,M,FEW,M,M,M,4000.00,M,M,M,M,YBBN 010130Z 02010KT 9999 FEW040 26/14 Q1014
YBBN,2014-12-01 02:00,153.1292,-27.3917,78.80,59.00,50.69,10.00,11.00,0.00,29.94,M,6.21,M,FEW,M,M,M,4000.00,M,M,M,M,YBBN 010200Z 01011KT 9999 FEW040 26/15 Q1014 NOSIG
YBBN,2014-12-01 02:30,153.1292,-27.3917,80.60,59.00,47.79,10.00,12.00,0.00,29.91,M,6.21,M,FEW,M,M,M,4000.00,M,M,M,M,YBBN 010230Z 01012KT 9999 FEW040 27/15 Q1013
YBBN,2014-12-01 03:00,153.1292,-27.3917,80.60,60.80,50.95,10.00,14.00,0.00,29.91,M,6.21,M,FEW,M,M,M,4000.00,M,M,M,M,YBBN 010300Z 01014KT 9999 FEW040 27/16 Q1013 NOSIG
YBBN,2014-12-01 03:30,153.1292,-27.3917,80.60,59.00,47.79,30.00,14.00,0.00,29.91,M,6.21,M,FEW,M,M,M,4000.00,M,M,M,M,YBBN 010330Z 03014KT 9999 FEW040 27/15 Q1013
YBBN,2014-12-01 04:00,153.1292,-27.3917,78.80,59.00,50.69,20.00,15.00,0.00,29.91,M,6.21,M,FEW,M,M,M,4000.00,M,M,M,M,YBBN 010400Z 02015KT 9999 FEW040 26/15 Q1013 NOSIG
YBBN,2014-12-01 04:30,153.1292,-27.3917,78.80,55.40,44.52,10.00,15.00,0.00,29.88,M,6.21,M,FEW,M,M,M,4200.00,M,M,M,M,YBBN 010430Z 01015KT 9999 FEW042 26/13 Q1012
YBBN,2014-12-01 05:00,153.1292,-27.3917,78.80,55.40,44.52,20.00,14.00,0.00,29.88,M,6.21,M,FEW,M,M,M,4200.00,M,M,M,M,YBBN 010500Z 02014KT 9999 FEW042 26/13 Q1012 NOSIG
YBBN,2014-12-01 05:30,153.1292,-27.3917,78.80,57.20,47.52,10.00,14.00,0.00,29.88,M,6.21,M,FEW,M,M,M,4200.00,M,M,M,M,YBBN 010530Z 01014KT 9999 FEW042 26/14 Q1012
YBBN,2014-12-01 06:00,153.1292,-27.3917,78.80,57.20,47.52,10.00,14.00,0.00,29.88,M,6.21,M,FEW,M,M,M,4200.00,M,M,M,M,YBBN 010600Z 01014KT 9999 FEW042 26/14 Q1012 NOSIG
YBBN,2014-12-01 06:30,153.1292,-27.3917,77.00,57.20,50.43,20.00,14.00,0.00,29.88,M,6.21,M,FEW,M,M,M,3800.00,M,M,M,M,YBBN 010630Z 02014KT 9999 FEW038 25/14 Q1012
YBBN,2014-12-01 07:00,153.1292,-27.3917,77.00,55.40,47.25,20.00,13.00,0.00,29.88,M,6.21,M,FEW,M,M,M,3800.00,M,M,M,M,YBBN 010700Z 02013KT 9999 FEW038 25/13 Q1012 NOSIG
YBBN,2014-12-01 07:30,153.1292,-27.3917,77.00,57.20,50.43,20.00,14.00,0.00,29.88,M,6.21,M,FEW,M,M,M,3800.00,M,M,M,M,YBBN 010730Z 02014KT 9999 FEW038 25/14 Q1012
YBBN,2014-12-01 08:00,153.1292,-27.3917,75.20,57.20,53.55,30.00,11.00,0.00,29.91,M,6.21,M,FEW,M,M,M,3500.00,M,M,M,M,YBBN 010800Z 03011KT 9999 FEW035 24/14 Q1013 NOSIG
YBBN,2014-12-01 08:30,153.1292,-27.3917,73.40,57.20,56.88,40.00,10.00,0.00,29.91,M,6.21,M,M,M,M,M,M,M,M,M,M,YBBN 010830Z 04010KT CAVOK 23/14 Q1013
YBBN,2014-12-01 09:00,153.1292,-27.3917,73.40,59.00,60.67,30.00,11.00,0.00,29.91,M,6.21,M,M,M,M,M,M,M,M,M,M,YBBN 010900Z 03011KT CAVOK 23/15 Q1013 NOSIG
YBBN,2014-12-01 09:30,153.1292,-27.3917,73.40,59.00,60.67,50.00,10.00,0.00,29.91,M,6.21,M,M,M,M,M,M,M,M,M,M,YBBN 010930Z 05010KT CAVOK 23/15 Q1013
YBBN,2014-12-01 10:00,153.1292,-27.3917,73.40,60.80,64.69,40.00,10.00,0.00,29.94,M,6.21,M,FEW,M,M,M,3000.00,M,M,M,M,YBBN 011000Z 04010KT 9999 FEW030 23/16 Q1014
YBBN,2014-12-01 10:30,153.1292,-27.3917,73.40,62.60,68.94,40.00,10.00,0.00,29.94,M,6.21,M,BKN,M,M,M,2900.00,M,M,M,M,YBBN 011030Z 04010KT 9999 BKN029 23/17 Q1014
YBBN,2014-12-01 11:00,153.1292,-27.3917,73.40,62.60,68.94,40.00,10.00,0.00,29.94,M,6.21,M,SCT,M,M,M,2800.00,M,M,M,M,YBBN 011100Z 04010KT 9999 SCT028 23/17 Q1014 NOSIG
YBBN,2014-12-01 11:30,153.1292,-27.3917,73.40,62.60,68.94,30.00,11.00,0.00,29.94,M,6.21,M,SCT,M,M,M,2800.00,M,M,M,M,YBBN 011130Z 03011KT 9999 SCT028 23/17 Q1014
YBBN,2014-12-01 12:00,153.1292,-27.3917,73.40,62.60,68.94,30.00,11.00,0.00,29.94,M,6.21,M,SCT,M,M,M,2700.00,M,M,M,M,YBBN 011200Z 03011KT 9999 SCT027 23/17 Q1014
YBBN,2014-12-01 12:30,153.1292,-27.3917,73.40,62.60,68.94,30.00,13.00,0.00,29.94,M,6.21,M,SCT,M,M,M,2700.00,M,M,M,M,YBBN 011230Z 03013KT 9999 SCT027 23/17 Q1014
YBBN,2014-12-01 13:00,153.1292,-27.3917,73.40,62.60,68.94,30.00,12.00,0.00,29.94,M,6.21,M,SCT,M,M,M,2800.00,M,M,M,M,YBBN 011300Z 03012KT 9999 SCT028 23/17 Q1014 NOSIG
YBBN,2014-12-01 13:30,153.1292,-27.3917,73.40,62.60,68.94,40.00,8.00,0.00,29.94,M,6.21,M,FEW,M,M,M,2800.00,M,M,M,M,YBBN 011330Z 04008KT 9999 FEW028 23/17 Q1014
YBBN,2014-12-01 14:00,153.1292,-27.3917,73.40,62.60,68.94,20.00,9.00,0.00,29.94,M,6.21,M,FEW,M,M,M,2800.00,M,M,M,M,YBBN 011400Z 02009KT 9999 FEW028 23/17 Q1014 NOSIG
YBBN,2014-12-01 14:30,153.1292,-27.3917,73.40,62.60,68.94,50.00,9.00,0.00,29.91,M,6.21,M,FEW,M,M,M,3000.00,M,M,M,M,YBBN 011430Z 05009KT 9999 FEW030 23/17 Q1013
YBBN,2014-12-01 15:00,153.1292,-27.3917,73.40,62.60,68.94,40.00,7.00,0.00,29.91,M,6.21,M,FEW,M,M,M,3200.00,M,M,M,M,YBBN 011500Z 04007KT 9999 FEW032 23/17 Q1013
YBBN,2014-12-01 15:30,153.1292,-27.3917,71.60,62.60,73.27,30.00,8.00,0.00,29.91,M,6.21,M,SCT,M,M,M,3200.00,M,M,M,M,YBBN 011530Z 03008KT 9999 SCT032 22/17 Q1013
YBBN,2014-12-01 16:00,153.1292,-27.3917,73.40,62.60,68.94,30.00,9.00,0.00,29.91,M,6.21,M,FEW,BKN,M,M,2500.00,19000.00,M,M,M,YBBN 011600Z 03009KT 9999 FEW025 BKN190 23/17 Q1013 NOSIG
YBBN,2014-12-01 16:30,153.1292,-27.3917,73.40,62.60,68.94,30.00,11.00,0.00,29.91,M,6.21,M,SCT,M,M,M,2800.00,M,M,M,M,YBBN 011630Z 03011KT 9999 SCT028 23/17 Q1013
YBBN,2014-12-01 17:00,153.1292,-27.3917,73.40,62.60,68.94,30.00,11.00,0.00,29.91,M,6.21,M,FEW,SCT,M,M,2800.00,3200.00,M,M,VCSH,YBBN 011700Z 03011KT 9999 VCSH FEW028 SCT032 23/17 Q1013
YBBN,2014-12-01 17:30,153.1292,-27.3917,73.40,62.60,68.94,40.00,12.00,0.00,29.91,M,6.21,M,FEW,SCT,M,M,2500.00,3200.00,M,M,M,YBBN 011730Z 04012KT 9999 FEW025 SCT032 23/17 Q1013
YBBN,2014-12-01 18:00,153.1292,-27.3917,73.40,62.60,68.94,40.00,11.00,0.00,29.91,M,5.59,M,SCT,BKN,M,M,2800.00,3500.00,M,M,-SHRA,YBBN 011800Z 04011KT 9000 -SHRA SCT028 BKN035 23/17 Q1013
YBBN,2014-12-01 18:30,153.1292,-27.3917,71.60,64.40,78.04,320.00,7.00,0.00,29.94,M,4.97,M,BKN,M,M,M,2900.00,M,M,M,-SHRA,YBBN 011830Z 32007KT 8000 -SHRA BKN029 22/18 Q1014
YBBN,2014-12-01 19:00,153.1292,-27.3917,71.60,64.40,78.04,260.00,6.00,0.00,29.97,M,4.97,M,FEW,BKN,M,M,2200.00,2700.00,M,M,-SHRA,YBBN 011900Z 26006KT 8000 -SHRA FEW022 BKN027 22/18 Q1015 FM1900 VRB07KT 9999 -SHRA SCT025 BKN030
YBBN,2014-12-01 19:30,153.1292,-27.3917,69.80,66.20,88.34,280.00,2.00,0.00,29.97,M,5.59,M,SCT,BKN,M,M,2700.00,4500.00,M,M,VCSH,YBBN 011930Z 28002KT 9000 VCSH SCT027 BKN045 21/19 Q1015
YBBN,2014-12-01 20:00,153.1292,-27.3917,71.60,66.20,83.09,0.00,0.00,0.00,29.97,M,6.21,M,SCT,BKN,M,M,2800.00,4800.00,M,M,-SHRA,YBBN 012000Z 00000KT 9999 -SHRA SCT028 BKN048 22/19 Q1015
YBBN,2014-12-01 20:30,153.1292,-27.3917,71.60,66.20,83.09,320.00,4.00,0.00,30.00,M,6.21,M,FEW,BKN,M,M,2800.00,3500.00,M,M,-SHRA,YBBN 012030Z 32004KT 9999 -SHRA FEW028 BKN035 22/19 Q1016
YBBN,2014-12-01 21:00,153.1292,-27.3917,73.40,66.20,78.19,310.00,1.00,0.00,30.00,M,6.21,M,SCT,BKN,M,M,2800.00,3500.00,M,M,-SHRA,YBBN 012100Z 31001KT 9999 -SHRA SCT028 BKN035 23/19 Q1016
YBBN,2014-12-01 21:30,153.1292,-27.3917,71.60,66.20,83.09,280.00,5.00,0.00,30.00,M,6.21,M,FEW,SCT,BKN,M,2200.00,2800.00,3500.00,M,-SHRA,YBBN 012130Z 28005KT 9999 -SHRA FEW022 SCT028 BKN035 22/19 Q1016
YBBN,2014-12-01 22:00,153.1292,-27.3917,73.40,66.20,78.19,300.00,1.00,0.00,30.00,M,6.21,M,FEW,SCT,BKN,M,2200.00,2800.00,3500.00,M,-SHRA,YBBN 012200Z 30001KT 9999 -SHRA FEW022 SCT028 BKN035 23/19 Q1016 NOSIG
YBBN,2014-12-01 22:30,153.1292,-27.3917,77.00,64.40,65.12,20.00,10.00,0.00,30.00,M,6.21,M,SCT,SCT,M,M,2800.00,3500.00,M,M,M,YBBN 012230Z 02010KT 9999 SCT028 SCT035 25/18 Q1016
YBBN,2014-12-01 23:00,153.1292,-27.3917,77.00,64.40,65.12,350.00,7.00,0.00,30.00,M,6.21,M,SCT,SCT,M,M,2800.00,3500.00,M,M,M,YBBN 012300Z 35007KT 9999 SCT028 SCT035 25/18 Q1016 NOSIG
YBBN,2014-12-01 23:30,153.1292,-27.3917,77.00,64.40,65.12,350.00,7.00,0.00,30.00,M,6.21,M,SCT,SCT,M,M,2800.00,14000.00,M,M,M,YBBN 012330Z 35007KT 9999 SCT028 SCT140 25/18 Q1016
