#DEBUG: Format Typ    -> comma
#DEBUG: Time Period   -> 2015-02-01 00:00:00+00:00 2015-02-02 00:00:00+00:00
#DEBUG: Time Zone     -> Etc/UTC
#DEBUG: Data Contact   -> daryl herzmann akrherz@iastate.edu 515-294-5978
#DEBUG: Entries Found -> -1
station,valid,lon,lat,tmpf, dwpf, relh, drct, sknt, p01i, alti, mslp, vsby, gust, skyc1, skyc2, skyc3, skyc4, skyl1, skyl2, skyl3, skyl4, presentwx, metar
YBBN,2015-02-01 00:00,153.1292,-27.3917,82.40,66.20,58.08,130.00,4.00,0.00,29.74,M,6.21,M,FEW,M,M,M,2600.00,M,M,M,M,YBBN 010000Z 13004KT 9999 FEW026 28/19 Q1007 RMK WIND ESTIMATED FROM CTRL TOWER
YBBN,2015-02-01 00:30,153.1292,-27.3917,84.20,68.00,58.32,310.00,5.00,0.00,29.74,M,6.21,M,FEW,M,M,M,2700.00,M,M,M,M,YBBN 010030Z 31005KT 9999 FEW027 29/20 Q1007 RMK WIND ESTIMATED FROM CTRL TOWER
YBBN,2015-02-01 01:00,153.1292,-27.3917,84.20,69.80,62.03,50.00,9.00,0.00,29.71,M,6.21,M,FEW,M,M,M,2800.00,M,M,M,M,YBBN 010100Z 05009KT 9999 FEW028 29/21 Q1006 NOSIG
YBBN,2015-02-01 01:30,153.1292,-27.3917,84.20,69.80,62.03,20.00,11.00,0.00,29.71,M,6.21,M,FEW,M,M,M,3000.00,M,M,M,M,YBBN 010130Z 02011KT 9999 FEW030 29/21 Q1006
YBBN,2015-02-01 02:00,153.1292,-27.3917,84.20,71.60,65.95,30.00,7.00,0.00,29.71,M,6.21,M,FEW,M,M,M,3200.00,M,M,M,M,YBBN 010200Z 03007KT 9999 FEW032 29/22 Q1006
YBBN,2015-02-01 02:30,153.1292,-27.3917,84.20,69.80,62.03,40.00,9.00,0.00,29.68,M,6.21,M,FEW,M,M,M,3500.00,M,M,M,M,YBBN 010230Z 04009KT 9999 FEW035 29/21 Q1005
YBBN,2015-02-01 03:00,153.1292,-27.3917,84.20,68.00,58.32,40.00,11.00,0.00,29.68,M,6.21,M,FEW,M,M,M,3500.00,M,M,M,M,YBBN 010300Z 04011KT 9999 FEW035 29/20 Q1005 NOSIG
YBBN,2015-02-01 03:30,153.1292,-27.3917,86.00,68.00,55.04,40.00,12.00,0.00,29.65,M,6.21,M,FEW,M,M,M,3600.00,M,M,M,M,YBBN 010330Z 04012KT 9999 FEW036 30/20 Q1004
YBBN,2015-02-01 04:00,153.1292,-27.3917,86.00,68.00,55.04,70.00,9.00,0.00,29.65,M,6.21,M,FEW,M,M,M,3500.00,M,M,M,M,YBBN 010400Z 07009KT 9999 FEW035 30/20 Q1004 NOSIG
YBBN,2015-02-01 04:30,153.1292,-27.3917,86.00,68.00,55.04,60.00,9.00,0.00,29.65,M,6.21,M,FEW,M,M,M,3300.00,M,M,M,M,YBBN 010430Z 06009KT 9999 FEW033 30/20 Q1004
YBBN,2015-02-01 05:00,153.1292,-27.3917,87.80,68.00,51.98,50.00,9.00,0.00,29.62,M,6.21,M,FEW,M,M,M,3200.00,M,M,M,M,YBBN 010500Z 05009KT 9999 FEW032 31/20 Q1003 NOSIG
YBBN,2015-02-01 05:30,153.1292,-27.3917,84.20,71.60,65.95,60.00,12.00,0.00,29.62,M,6.21,M,FEW,M,M,M,3000.00,M,M,M,M,YBBN 010530Z 06012KT 9999 FEW030 29/22 Q1003
YBBN,2015-02-01 06:00,153.1292,-27.3917,84.20,69.80,62.03,50.00,11.00,0.00,29.62,M,6.21,M,FEW,M,M,M,3000.00,M,M,M,M,YBBN 010600Z 05011KT 9999 FEW030 29/21 Q1003 NOSIG
YBBN,2015-02-01 06:30,153.1292,-27.3917,84.20,71.60,65.95,20.00,11.00,0.00,29.65,M,6.21,M,FEW,M,M,M,2900.00,M,M,M,M,YBBN 010630Z 02011KT 9999 FEW029 29/22 Q1004
YBBN,2015-02-01 07:00,153.1292,-27.3917,84.20,69.80,62.03,40.00,9.00,0.00,29.65,M,6.21,M,FEW,M,M,M,2800.00,M,M,M,M,YBBN 010700Z 04009KT 9999 FEW028 29/21 Q1004 NOSIG
YBBN,2015-02-01 07:30,153.1292,-27.3917,82.40,69.80,65.74,70.00,9.00,0.00,29.68,M,6.21,M,FEW,M,M,M,2800.00,M,M,M,M,YBBN 010730Z 07009KT 9999 FEW028 28/21 Q1005
YBBN,2015-02-01 08:00,153.1292,-27.3917,80.60,69.80,69.71,70.00,8.00,0.00,29.68,M,6.21,M,FEW,M,M,M,2800.00,M,M,M,M,YBBN 010800Z 07008KT 9999 FEW028 27/21 Q1005
YBBN,2015-02-01 08:30,153.1292,-27.3917,80.60,69.80,69.71,80.00,7.00,0.00,29.68,M,6.21,M,FEW,M,M,M,2800.00,M,M,M,M,YBBN 010830Z 08007KT 9999 FEW028 27/21 Q1005
YBBN,2015-02-01 09:00,153.1292,-27.3917,80.60,69.80,69.71,60.00,7.00,0.00,29.71,M,6.21,M,FEW,M,M,M,2800.00,M,M,M,M,YBBN 010900Z 06007KT 9999 FEW028 27/21 Q1006
YBBN,2015-02-01 09:30,153.1292,-27.3917,78.80,69.80,73.95,60.00,8.00,0.00,29.71,M,6.21,M,SCT,M,M,M,2800.00,M,M,M,M,YBBN 010930Z 06008KT 9999 SCT028 26/21 Q1006
YBBN,2015-02-01 10:00,153.1292,-27.3917,78.80,71.60,78.62,50.00,8.00,0.00,29.74,M,6.21,M,BKN,M,M,M,2400.00,M,M,M,M,YBBN 011000Z 05008KT 9999 BKN024 26/22 Q1007
YBBN,2015-02-01 10:30,153.1292,-27.3917,78.80,71.60,78.62,40.00,8.00,0.00,29.74,M,6.21,M,BKN,M,M,M,2200.00,M,M,M,M,YBBN 011030Z 04008KT 9999 BKN022 26/22 Q1007
YBBN,2015-02-01 11:00,153.1292,-27.3917,78.80,69.80,73.95,40.00,9.00,0.00,29.74,M,6.21,M,SCT,M,M,M,2400.00,M,M,M,M,YBBN 011100Z 04009KT 9999 SCT024 26/21 Q1007
YBBN,2015-02-01 11:30,153.1292,-27.3917,78.80,71.60,78.62,30.00,9.00,0.00,29.74,M,6.21,M,BKN,M,M,M,2400.00,M,M,M,M,YBBN 011130Z 03009KT 9999 BKN024 26/22 Q1007
YBBN,2015-02-01 12:00,153.1292,-27.3917,78.80,71.60,78.62,30.00,10.00,0.00,29.74,M,6.21,M,BKN,SCT,M,M,2200.00,3400.00,M,M,M,YBBN 011200Z 03010KT 9999 BKN022 SCT034 26/22 Q1007
YBBN,2015-02-01 12:30,153.1292,-27.3917,78.80,69.80,73.95,40.00,12.00,0.00,29.74,M,6.21,M,BKN,M,M,M,2400.00,M,M,M,M,YBBN 011230Z 04012KT 9999 BKN024 26/21 Q1007
YBBN,2015-02-01 13:00,153.1292,-27.3917,77.00,69.80,78.48,30.00,10.00,0.00,29.74,M,6.21,M,FEW,M,M,M,2400.00,M,M,M,M,YBBN 011300Z 03010KT 9999 FEW024 25/21 Q1007
YBBN,2015-02-01 13:30,153.1292,-27.3917,77.00,69.80,78.48,20.00,11.00,0.00,29.74,M,6.21,M,BKN,M,M,M,2600.00,M,M,M,M,YBBN 011330Z 02011KT 9999 BKN026 25/21 Q1007
YBBN,2015-02-01 14:00,153.1292,-27.3917,78.80,69.80,73.95,20.00,12.00,0.00,29.74,M,6.21,M,BKN,M,M,M,2400.00,M,M,M,M,YBBN 011400Z 02012KT 9999 BKN024 26/21 Q1007
YBBN,2015-02-01 14:30,153.1292,-27.3917,77.00,69.80,78.48,20.00,11.00,0.00,29.74,M,6.21,M,FEW,M,M,M,2400.00,M,M,M,M,YBBN 011430Z 02011KT 9999 FEW024 25/21 Q1007
YBBN,2015-02-01 15:00,153.1292,-27.3917,77.00,68.00,73.78,30.00,8.00,0.00,29.74,M,6.21,M,FEW,M,M,M,2400.00,M,M,M,M,YBBN 011500Z 03008KT 9999 FEW024 25/20 Q1007
YBBN,2015-02-01 15:30,153.1292,-27.3917,75.20,68.00,78.34,20.00,8.00,0.00,29.74,M,6.21,M,FEW,M,M,M,2400.00,M,M,M,M,YBBN 011530Z 02008KT 9999 FEW024 24/20 Q1007
YBBN,2015-02-01 16:00,153.1292,-27.3917,75.20,68.00,78.34,30.00,7.00,0.00,29.71,M,6.21,M,FEW,M,M,M,2400.00,M,M,M,M,YBBN 011600Z 03007KT 9999 FEW024 24/20 Q1006
YBBN,2015-02-01 16:30,153.1292,-27.3917,75.20,68.00,78.34,20.00,7.00,0.00,29.71,M,6.21,M,FEW,M,M,M,2500.00,M,M,M,M,YBBN 011630Z 02007KT 9999 FEW025 24/20 Q1006
YBBN,2015-02-01 17:00,153.1292,-27.3917,75.20,68.00,78.34,360.00,8.00,0.00,29.71,M,6.21,M,FEW,M,M,M,2700.00,M,M,M,M,YBBN 011700Z 36008KT 9999 FEW027 24/20 Q1006 NOSIG
YBBN,2015-02-01 17:30,153.1292,-27.3917,75.20,68.00,78.34,10.00,5.00,0.00,29.71,M,6.21,M,SCT,M,M,M,2700.00,M,M,M,M,YBBN 011730Z 01005KT 9999 SCT027 24/20 Q1006
YBBN,2015-02-01 18:00,153.1292,-27.3917,75.20,69.80,83.32,240.00,5.00,0.00,29.71,M,6.21,M,SCT,M,M,M,2700.00,M,M,M,M,YBBN 011800Z 24005KT 9999 SCT027 24/21 Q1006
YBBN,2015-02-01 18:30,153.1292,-27.3917,73.40,69.80,88.51,210.00,4.00,0.00,29.71,M,6.21,M,SCT,M,M,M,2900.00,M,M,M,M,YBBN 011830Z 21004KT 9999 SCT029 23/21 Q1006
YBBN,2015-02-01 19:00,153.1292,-27.3917,75.20,69.80,83.32,150.00,2.00,0.00,29.71,M,6.21,M,FEW,M,M,M,2400.00,M,M,M,M,YBBN 011900Z 15002KT 9999 FEW024 24/21 Q1006
YBBN,2015-02-01 19:30,153.1292,-27.3917,73.40,69.80,88.51,0.00,0.00,0.00,29.74,M,6.21,M,FEW,M,M,M,2400.00,M,M,M,M,YBBN 011930Z 00000KT 9999 FEW024 23/21 Q1007
YBBN,2015-02-01 20:00,153.1292,-27.3917,75.20,71.60,88.59,210.00,5.00,0.00,29.74,M,6.21,M,FEW,SCT,M,M,1900.00,2900.00,M,M,M,YBBN 012000Z 21005KT 9999 FEW019 SCT029 24/22 Q1007
YBBN,2015-02-01 20:30,153.1292,-27.3917,77.00,71.60,83.44,190.00,5.00,0.00,29.77,M,6.21,M,FEW,SCT,M,M,1200.00,2300.00,M,M,M,YBBN 012030Z 19005KT 9999 FEW012 SCT023 25/22 Q1008 RMK DISTANT TCU TOPS TO SOUTH.
YBBN,2015-02-01 21:00,153.1292,-27.3917,78.80,71.60,78.62,230.00,3.00,0.00,29.77,M,6.21,M,FEW,SCT,M,M,1400.00,2300.00,M,M,M,YBBN 012100Z 23003KT 9999 FEW014 SCT023 26/22 Q1008 RMK DISTANT TCU TOPS TO SW.
YBBN,2015-02-01 21:30,153.1292,-27.3917,80.60,71.60,74.11,240.00,5.00,0.00,29.77,M,6.21,M,SCT,M,M,M,2300.00,M,M,M,M,YBBN 012130Z 24005KT 9999 SCT023 27/22 Q1008 RMK DISTANT TCU TOPS TO SW.
YBBN,2015-02-01 22:00,153.1292,-27.3917,78.80,69.80,73.95,200.00,6.00,0.00,29.80,M,6.21,M,FEW,SCT,FEW,M,1500.00,2200.00,2000.00,M,M,YBBN 012200Z 20006KT 9999 FEW015 SCT022 FEW020TCU 26/21 Q1009 RMK DISTANT SHOWERS TO SOUTH.
YBBN,2015-02-01 22:30,153.1292,-27.3917,78.80,69.80,73.95,200.00,6.00,0.00,29.80,M,6.21,M,FEW,SCT,FEW,M,1600.00,2200.00,2000.00,M,-SHRA,YBBN 012230Z 20006KT 9999 -SHRA FEW016 SCT022 FEW020TCU 26/21 Q1009
YBBN,2015-02-01 23:00,153.1292,-27.3917,80.60,69.80,69.71,150.00,5.00,0.00,29.80,M,6.21,M,FEW,SCT,FEW,M,1700.00,2300.00,1900.00,M,-SHRA,YBBN 012300Z 15005KT 9999 5000E -SHRA FEW017 SCT023 FEW019TCU 27/21 Q1009
YBBN,2015-02-01 23:20,153.1292,-27.3917,75.20,66.20,73.61,170.00,15.00,0.00,29.83,M,6.21,M,FEW,SCT,FEW,M,1500.00,2400.00,1900.00,M,-SHRA,YBBN 012320Z 17015KT 9999 7000NE -SHRA FEW015 SCT024 FEW019TCU 24/19 Q1010
YBBN,2015-02-01 23:30,153.1292,-27.3917,77.00,66.20,69.33,150.00,11.00,0.00,29.83,M,6.21,M,FEW,SCT,FEW,M,1400.00,2300.00,1800.00,M,SHRA,YBBN 012330Z 15011KT 9999 3000NE SHRA FEW014 SCT023 FEW018TCU 25/19 Q1010
