#DEBUG: Format Typ    -> comma
#DEBUG: Time Period   -> 2013-10-12 00:00:00+00:00 2013-10-13 00:00:00+00:00
#DEBUG: Time Zone     -> Etc/UTC
#DEBUG: Data Contact   -> daryl herzmann akrherz@iastate.edu 515-294-5978
#DEBUG: Entries Found -> -1
station,valid,lon,lat,tmpf, dwpf, relh, drct, sknt, p01i, alti, mslp, vsby, gust, skyc1, skyc2, skyc3, skyc4, skyl1, skyl2, skyl3, skyl4, presentwx, metar
YBBN,2013-10-12 00:00,153.1292,-27.3917,77.00,68.00,73.78,70.00,12.00,0.00,30.03,M,6.21,M,FEW,BKN,M,M,1200.00,4500.00,M,M,M,YBBN 120000Z 07012KT 9999 FEW012 BKN045 25/20 Q1017 RMK HZ
YBBN,2013-10-12 00:30,153.1292,-27.3917,78.80,66.20,65.33,70.00,9.00,0.00,30.03,M,6.21,M,FEW,SCT,M,M,1300.00,4500.00,M,M,M,YBBN 120030Z 07009KT 9999 FEW013 SCT045 26/19 Q1017 RMK HZ
YBBN,2013-10-12 01:00,153.1292,-27.3917,77.00,66.20,69.33,50.00,12.00,0.00,30.03,M,6.21,M,SCT,SCT,M,M,1700.00,4700.00,M,M,M,YBBN 120100Z 05012KT 9999 SCT017 SCT047 25/19 Q1017 NOSIG
YBBN,2013-10-12 01:30,153.1292,-27.3917,78.80,64.40,61.36,30.00,10.00,0.00,30.00,M,6.21,M,FEW,M,M,M,2000.00,M,M,M,M,YBBN 120130Z 03010KT 9999 FEW020 26/18 Q1016 RMK HZ
YBBN,2013-10-12 02:00,153.1292,-27.3917,78.80,68.00,69.52,30.00,13.00,0.00,30.00,M,6.21,M,FEW,M,M,M,2000.00,M,M,M,M,YBBN 120200Z 03013KT 9999 FEW020 26/20 Q1016 NOSIG
YBBN,2013-10-12 02:30,153.1292,-27.3917,78.80,64.40,61.36,30.00,15.00,0.00,29.97,M,6.21,M,FEW,M,M,M,1600.00,M,M,M,M,YBBN 120230Z 03015KT 9999 FEW016 26/18 Q1015 RMK HZ
YBBN,2013-10-12 03:00,153.1292,-27.3917,77.00,68.00,73.78,30.00,14.00,0.00,29.97,M,6.21,M,FEW,SCT,M,M,1400.00,3000.00,M,M,M,YBBN 120300Z 03014KT 9999 FEW014 SCT030 25/20 Q1015 RMK HZ
YBBN,2013-10-12 03:30,153.1292,-27.3917,78.80,68.00,69.52,30.00,14.00,0.00,29.97,M,6.21,M,FEW,M,M,M,1400.00,M,M,M,M,YBBN 120330Z 03014KT 9999 FEW014 26/20 Q1015 RMK HZ
YBBN,2013-10-12 04:00,153.1292,-27.3917,77.00,68.00,73.78,20.00,16.00,0.00,29.94,M,6.21,M,FEW,M,M,M,1400.00,M,M,M,M,YBBN 120400Z 02016KT 9999 FEW014 25/20 Q1014 RMK HZ
YBBN,2013-10-12 04:30,153.1292,-27.3917,77.00,66.20,69.33,30.00,15.00,0.00,29.94,M,6.21,M,FEW,M,M,M,1400.00,M,M,M,M,YBBN 120430Z 03015KT 9999 FEW014 25/19 Q1014 RMK HZ
YBBN,2013-10-12 05:00,153.1292,-27.3917,77.00,66.20,69.33,20.00,17.00,0.00,29.94,M,6.21,M,FEW,SCT,M,M,1500.00,4700.00,M,M,M,YBBN 120500Z 02017KT 9999 FEW015 SCT047 25/19 Q1014 NOSIG
YBBN,2013-10-12 05:30,153.1292,-27.3917,77.00,66.20,69.33,10.00,18.00,0.00,29.94,M,6.21,M,FEW,SCT,M,M,1600.00,4700.00,M,M,M,YBBN 120530Z 01018KT 9999 FEW016 SCT047 25/19 Q1014 RMK HZ
YBBN,2013-10-12 06:00,153.1292,-27.3917,75.20,66.20,73.61,10.00,18.00,0.00,29.94,M,6.21,M,FEW,M,M,M,2000.00,M,M,M,M,YBBN 120600Z 01018KT 9999 FEW020 24/19 Q1014 NOSIG
YBBN,2013-10-12 06:30,153.1292,-27.3917,75.20,64.40,69.14,20.00,17.00,0.00,29.94,M,6.21,M,FEW,SCT,M,M,2000.00,4200.00,M,M,M,YBBN 120630Z 02017KT 9999 FEW020 SCT042 24/18 Q1014 RMK HZ
YBBN,2013-10-12 07:00,153.1292,-27.3917,73.40,64.40,73.44,20.00,16.00,0.00,29.94,M,6.21,M,FEW,M,M,M,2000.00,M,M,M,M,YBBN 120700Z 02016KT 9999 FEW020 23/18 Q1014 NOSIG
YBBN,2013-10-12 07:30,153.1292,-27.3917,73.40,64.40,73.44,20.00,14.00,0.00,29.94,M,6.21,M,FEW,M,M,M,2000.00,M,M,M,M,YBBN 120730Z 02014KT 9999 FEW020 23/18 Q1014
YBBN,2013-10-12 08:00,153.1292,-27.3917,71.60,66.20,83.09,10.00,15.00,0.00,29.94,M,6.21,M,FEW,M,M,M,2000.00,M,M,M,M,YBBN 120800Z 01015KT 9999 FEW020 22/19 Q1014
YBBN,2013-10-12 08:30,153.1292,-27.3917,71.60,66.20,83.09,20.00,14.00,0.00,29.94,M,6.21,M,FEW,M,M,M,1500.00,M,M,M,M,YBBN 120830Z 02014KT 9999 FEW015 22/19 Q1014 RMK HAZE
YBBN,2013-10-12 09:00,153.1292,-27.3917,71.60,64.40,78.04,10.00,16.00,0.00,29.97,M,6.21,M,FEW,M,M,M,1500.00,M,M,M,M,YBBN 120900Z 01016KT 9999 FEW015 22/18 Q1015 NOSIG
YBBN,2013-10-12 09:30,153.1292,-27.3917,71.60,64.40,78.04,10.00,15.00,0.00,29.97,M,6.21,M,FEW,M,M,M,1500.00,M,M,M,M,YBBN 120930Z 01015KT 9999 FEW015 22/18 Q1015 RMK HAZE
YBBN,2013-10-12 10:00,153.1292,-27.3917,73.40,64.40,73.44,10.00,18.00,0.00,29.97,M,6.21,M,M,M,M,M,M,M,M,M,M,YBBN 121000Z 01018KT CAVOK 23/18 Q1015 FM1200 34010KT 9999 SCT020
YBBN,2013-10-12 10:30,153.1292,-27.3917,71.60,64.40,78.04,10.00,19.00,0.00,29.97,M,6.21,M,M,M,M,M,M,M,M,M,M,YBBN 121030Z 01019KT CAVOK 22/18 Q1015
YBBN,2013-10-12 11:00,153.1292,-27.3917,71.60,66.20,83.09,10.00,16.00,0.00,29.97,M,6.21,M,M,M,M,M,M,M,M,M,M,YBBN 121100Z 01016KT CAVOK 22/19 Q1015 FM1200 34010KT 9999 SCT020
YBBN,2013-10-12 11:09,153.1292,-27.3917,71.60,66.20,83.09,360.00,17.00,0.00,29.97,M,6.21,27.00,M,M,M,M,M,M,M,M,M,YBBN 121109Z 36017G27KT CAVOK 22/19 Q1015
YBBN,2013-10-12 11:30,153.1292,-27.3917,71.60,64.40,78.04,360.00,19.00,0.00,29.97,M,6.21,M,M,M,M,M,M,M,M,M,M,YBBN 121130Z 36019KT CAVOK 22/18 Q1015
YBBN,2013-10-12 12:00,153.1292,-27.3917,71.60,64.40,78.04,360.00,20.00,0.00,29.97,M,6.21,M,M,M,M,M,M,M,M,M,M,YBBN 121200Z 36020KT CAVOK 22/18 Q1015
YBBN,2013-10-12 12:30,153.1292,-27.3917,71.60,60.80,68.75,360.00,18.00,0.00,29.97,M,6.21,M,M,M,M,M,M,M,M,M,M,YBBN 121230Z 36018KT CAVOK 22/16 Q1015
YBBN,2013-10-12 13:00,153.1292,-27.3917,71.60,59.00,64.48,360.00,19.00,0.00,29.97,M,6.21,M,M,M,M,M,M,M,M,M,M,YBBN 121300Z 36019KT CAVOK 22/15 Q1015 FM1330 35014KT 9999 SCT020
YBBN,2013-10-12 13:30,153.1292,-27.3917,71.60,60.80,68.75,360.00,18.00,0.00,29.97,M,6.21,M,M,M,M,M,M,M,M,M,M,YBBN 121330Z 36018KT CAVOK 22/16 Q1015
YBBN,2013-10-12 14:00,153.1292,-27.3917,71.60,59.00,64.48,360.00,18.00,0.00,30.00,M,6.21,M,M,M,M,M,M,M,M,M,M,YBBN 121400Z 36018KT CAVOK 22/15 Q1016 FM1400 35014KT 9999 SCT020
YBBN,2013-10-12 14:30,153.1292,-27.3917,69.80,60.80,73.09,360.00,15.00,0.00,30.00,M,6.21,M,M,M,M,M,M,M,M,M,M,YBBN 121430Z 36015KT CAVOK 21/16 Q1016
YBBN,2013-10-12 15:00,153.1292,-27.3917,69.80,60.80,73.09,360.00,13.00,0.00,29.97,M,6.21,M,M,M,M,M,M,M,M,M,M,YBBN 121500Z 36013KT CAVOK 21/16 Q1015
YBBN,2013-10-12 15:30,153.1292,-27.3917,69.80,60.80,73.09,350.00,12.00,0.00,29.97,M,6.21,M,M,M,M,M,M,M,M,M,M,YBBN 121530Z 35012KT CAVOK 21/16 Q1015 RMK 5AC180
YBBN,2013-10-12 16:00,153.1292,-27.3917,68.00,60.80,77.75,350.00,9.00,0.00,29.97,M,6.21,M,M,M,M,M,M,M,M,M,M,YBBN 121600Z 35009KT CAVOK 20/16 Q1015 RMK 7AC200
YBBN,2013-10-12 16:30,153.1292,-27.3917,68.00,60.80,77.75,350.00,11.00,0.00,29.97,M,6.21,M,M,M,M,M,M,M,M,M,M,YBBN 121630Z 35011KT CAVOK 20/16 Q1015 RMK 7AC200
YBBN,2013-10-12 17:00,153.1292,-27.3917,69.80,60.80,73.09,360.00,15.00,0.00,29.94,M,6.21,M,M,M,M,M,M,M,M,M,M,YBBN 121700Z 36015KT CAVOK 21/16 Q1014 NOSIG
YBBN,2013-10-12 17:30,153.1292,-27.3917,68.00,60.80,77.75,360.00,11.00,0.00,29.94,M,6.21,M,M,M,M,M,M,M,M,M,M,YBBN 121730Z 36011KT CAVOK 20/16 Q1014 RMK 5AC190
YBBN,2013-10-12 18:00,153.1292,-27.3917,68.00,59.00,72.92,350.00,12.00,0.00,29.94,M,6.21,M,M,M,M,M,M,M,M,M,M,YBBN 121800Z 35012KT CAVOK 20/15 Q1014 NOSIG
YBBN,2013-10-12 18:30,153.1292,-27.3917,68.00,60.80,77.75,350.00,12.00,0.00,29.94,M,6.21,M,M,M,M,M,M,M,M,M,M,YBBN 121830Z 35012KT CAVOK 20/16 Q1014
YBBN,2013-10-12 19:00,153.1292,-27.3917,69.80,59.00,68.55,350.00,14.00,0.00,29.94,M,6.21,M,M,M,M,M,M,M,M,M,M,YBBN 121900Z 35014KT CAVOK 21/15 Q1014 NOSIG
YBBN,2013-10-12 19:30,153.1292,-27.3917,66.20,60.80,82.74,320.00,8.00,0.00,29.97,M,6.21,M,FEW,M,M,M,4000.00,M,M,M,M,YBBN 121930Z 32008KT 9999 FEW040 19/16 Q1015
YBBN,2013-10-12 20:00,153.1292,-27.3917,66.20,60.80,82.74,330.00,6.00,0.00,29.97,M,6.21,M,FEW,M,M,M,1500.00,M,M,M,M,YBBN 122000Z 33006KT 9999 FEW015 19/16 Q1015
YBBN,2013-10-12 20:30,153.1292,-27.3917,69.80,60.80,73.09,330.00,9.00,0.00,29.97,M,6.21,M,FEW,M,M,M,1500.00,M,M,M,M,YBBN 122030Z 33009KT 9999 FEW015 21/16 Q1015
YBBN,2013-10-12 21:00,153.1292,-27.3917,71.60,60.80,68.75,340.00,12.00,0.00,29.97,M,6.21,M,FEW,M,M,M,1500.00,M,M,M,M,YBBN 122100Z 34012KT 9999 FEW015 22/16 Q1015 NOSIG
YBBN,2013-10-12 21:30,153.1292,-27.3917,73.40,60.80,64.69,340.00,12.00,0.00,29.97,M,6.21,M,FEW,M,M,M,1500.00,M,M,M,M,YBBN 122130Z 34012KT 9999 FEW015 23/16 Q1015
YBBN,2013-10-12 22:00,153.1292,-27.3917,73.40,59.00,60.67,330.00,11.00,0.00,29.97,M,6.21,M,FEW,M,M,M,1500.00,M,M,M,M,YBBN 122200Z 33011KT 9999 FEW015 23/15 Q1015 FM0000 01018G28KT 9999 FEW030 FM2300 MOD TURB BLW 5000FT
YBBN,2013-10-12 22:30,153.1292,-27.3917,75.20,59.00,57.12,340.00,10.00,0.00,29.97,M,6.21,M,FEW,M,M,M,3200.00,M,M,M,M,YBBN 122230Z 34010KT 9999 FEW032 24/15 Q1015
YBBN,2013-10-12 23:00,153.1292,-27.3917,78.80,59.00,50.69,330.00,11.00,0.00,29.97,M,6.21,M,FEW,M,M,M,3200.00,M,M,M,M,YBBN 122300Z 33011KT 9999 FEW032 26/15 Q1015 FM0000 01018G28KT 9999 FEW030 FM2300 MOD TURB BLW 5000FT
YBBN,2013-10-12 23:30,153.1292,-27.3917,78.80,57.20,47.52,360.00,11.00,0.00,29.94,M,6.21,M,FEW,M,M,M,3200.00,M,M,M,M,YBBN 122330Z 36011KT 9999 FEW032 26/14 Q1014
