#DEBUG: Format Typ    -> comma
#DEBUG: Time Period   -> 2012-01-31 00:00:00+00:00 2012-02-01 00:00:00+00:00
#DEBUG: Time Zone     -> Etc/UTC
#DEBUG: Data Contact   -> daryl herzmann akrherz@iastate.edu 515-294-5978
#DEBUG: Entries Found -> -1
station,valid,lon,lat,tmpf, dwpf, relh, drct, sknt, p01i, alti, mslp, vsby, gust, skyc1, skyc2, skyc3, skyc4, skyl1, skyl2, skyl3, skyl4, presentwx, metar
YBBN,2012-01-31 00:00,153.1292,-27.3917,80.60,73.40,78.76,30.00,9.00,0.00,29.77,M,6.21,M,FEW,SCT,M,M,1600.00,2200.00,M,M,M,YBBN 310000Z 03009KT 9999 FEW016 SCT022 27/23 Q1008 NOSIG
YBBN,2012-01-31 00:30,153.1292,-27.3917,82.40,71.60,69.90,30.00,9.00,0.00,29.77,M,6.21,M,FEW,SCT,M,M,1700.00,2300.00,M,M,M,YBBN 310030Z 03009KT 9999 FEW017 SCT023 28/22 Q1008 RMK HZ
YBBN,2012-01-31 01:00,153.1292,-27.3917,82.40,71.60,69.90,10.00,9.00,0.00,29.77,M,6.21,M,FEW,SCT,M,M,1800.00,2500.00,M,M,M,YBBN 310100Z 01009KT 9999 FEW018 SCT025 28/22 Q1008
YBBN,2012-01-31 01:30,153.1292,-27.3917,82.40,69.80,65.74,40.00,11.00,0.00,29.77,M,6.21,M,FEW,SCT,M,M,1900.00,2700.00,M,M,VCSH,YBBN 310130Z 04011KT 9999 VCSH FEW019 SCT027 28/21 Q1008 RMK SH EAST
YBBN,2012-01-31 02:00,153.1292,-27.3917,82.40,69.80,65.74,30.00,11.00,0.00,29.74,M,6.21,M,FEW,SCT,M,M,2000.00,2800.00,M,M,M,YBBN 310200Z 03011KT 9999 FEW020 SCT028 28/21 Q1007 NOSIG
YBBN,2012-01-31 02:30,153.1292,-27.3917,82.40,68.00,61.81,30.00,10.00,0.00,29.74,M,6.21,M,FEW,SCT,M,M,2200.00,3200.00,M,M,M,YBBN 310230Z 03010KT 9999 FEW022 SCT032 28/20 Q1007
YBBN,2012-01-31 03:00,153.1292,-27.3917,84.20,68.00,58.32,40.00,10.00,0.00,29.74,M,6.21,M,FEW,M,M,M,3200.00,M,M,M,M,YBBN 310300Z 04010KT 9999 FEW032 29/20 Q1007 RMK DIST SH SW
YBBN,2012-01-31 03:30,153.1292,-27.3917,84.20,68.00,58.32,30.00,10.00,0.00,29.71,M,6.21,M,FEW,M,M,M,3300.00,M,M,M,M,YBBN 310330Z 03010KT 9999 FEW033 29/20 Q1006
YBBN,2012-01-31 04:00,153.1292,-27.3917,82.40,69.80,65.74,20.00,12.00,0.00,29.71,M,6.21,M,FEW,M,M,M,3400.00,M,M,M,M,YBBN 310400Z 02012KT 9999 FEW034 28/21 Q1006 NOSIG
YBBN,2012-01-31 04:30,153.1292,-27.3917,82.40,68.00,61.81,20.00,11.00,0.00,29.71,M,6.21,M,FEW,SCT,M,M,3200.00,5400.00,M,M,M,YBBN 310430Z 02011KT 9999 FEW032 SCT054 28/20 Q1006 RMK DIST SH WEST
YBBN,2012-01-31 05:00,153.1292,-27.3917,82.40,69.80,65.74,30.00,10.00,0.00,29.71,M,6.21,M,FEW,SCT,M,M,3200.00,5400.00,M,M,M,YBBN 310500Z 03010KT 9999 FEW032 SCT054 28/21 Q1006 RMK DIST SH WEST
YBBN,2012-01-31 05:30,153.1292,-27.3917,82.40,69.80,65.74,30.00,11.00,0.00,29.71,M,6.21,M,FEW,SCT,M,M,3000.00,5800.00,M,M,M,YBBN 310530Z 03011KT 9999 FEW030 SCT058 28/21 Q1006 RMK DIST SH WEST
YBBN,2012-01-31 06:00,153.1292,-27.3917,82.40,69.80,65.74,20.00,11.00,0.00,29.68,M,6.21,M,FEW,SCT,M,M,2300.00,6200.00,M,M,M,YBBN 310600Z 02011KT 9999 FEW023 SCT062 28/21 Q1005
YBBN,2012-01-31 06:30,153.1292,-27.3917,80.60,71.60,74.11,20.00,12.00,0.00,29.68,M,6.21,M,FEW,BKN,M,M,2300.00,6000.00,M,M,M,YBBN 310630Z 02012KT 9999 FEW023 BKN060 27/22 Q1005
YBBN,2012-01-31 07:00,153.1292,-27.3917,80.60,71.60,74.11,10.00,10.00,0.00,29.68,M,6.21,M,FEW,BKN,M,M,2200.00,6000.00,M,M,M,YBBN 310700Z 01010KT 9999 FEW022 BKN060 27/22 Q1005 NOSIG
YBBN,2012-01-31 07:30,153.1292,-27.3917,78.80,71.60,78.62,20.00,11.00,0.00,29.71,M,6.21,M,FEW,BKN,M,M,2000.00,6000.00,M,M,M,YBBN 310730Z 02011KT 9999 FEW020 BKN060 26/22 Q1006 RMK HZ
YBBN,2012-01-31 08:00,153.1292,-27.3917,78.80,73.40,83.55,10.00,11.00,0.00,29.71,M,6.21,M,FEW,SCT,M,M,2500.00,6000.00,M,M,M,YBBN 310800Z 01011KT 9999 FEW025 SCT060 26/23 Q1006 NOSIG
YBBN,2012-01-31 08:30,153.1292,-27.3917,78.80,71.60,78.62,10.00,12.00,0.00,29.71,M,6.21,M,FEW,M,M,M,2500.00,M,M,M,M,YBBN 310830Z 01012KT 9999 FEW025 26/22 Q1006
YBBN,2012-01-31 09:00,153.1292,-27.3917,78.80,71.60,78.62,10.00,12.00,0.00,29.71,M,6.21,M,FEW,M,M,M,2500.00,M,M,M,M,YBBN 310900Z 01012KT 9999 FEW025 26/22 Q1006 NOSIG
YBBN,2012-01-31 09:30,153.1292,-27.3917,77.00,71.60,83.44,10.00,11.00,0.00,29.74,M,6.21,M,FEW,M,M,M,2500.00,M,M,M,M,YBBN 310930Z 01011KT 9999 FEW025 25/22 Q1007
YBBN,2012-01-31 10:00,153.1292,-27.3917,77.00,73.40,88.67,20.00,12.00,0.00,29.74,M,6.21,M,SCT,M,M,M,1600.00,M,M,M,M,YBBN 311000Z 02012KT 9999 SCT016 25/23 Q1007
YBBN,2012-01-31 10:30,153.1292,-27.3917,77.00,73.40,88.67,20.00,11.00,0.00,29.74,M,6.21,M,SCT,M,M,M,1600.00,M,M,M,M,YBBN 311030Z 02011KT 9999 SCT016 25/23 Q1007
YBBN,2012-01-31 11:00,153.1292,-27.3917,77.00,73.40,88.67,20.00,12.00,0.00,29.74,M,6.21,M,FEW,SCT,M,M,1600.00,2000.00,M,M,M,YBBN 311100Z 02012KT 9999 FEW016 SCT020 25/23 Q1007 NOSIG
YBBN,2012-01-31 11:30,153.1292,-27.3917,77.00,73.40,88.67,20.00,11.00,0.00,29.74,M,6.21,M,SCT,SCT,M,M,1600.00,2000.00,M,M,M,YBBN 311130Z 02011KT 9999 SCT016 SCT020 25/23 Q1007
YBBN,2012-01-31 12:00,153.1292,-27.3917,77.00,73.40,88.67,20.00,11.00,0.00,29.74,M,6.21,M,SCT,SCT,M,M,1600.00,2000.00,M,M,M,YBBN 311200Z 02011KT 9999 SCT016 SCT020 25/23 Q1007
YBBN,2012-01-31 12:30,153.1292,-27.3917,77.00,73.40,88.67,10.00,11.00,0.00,29.74,M,6.21,M,SCT,BKN,M,M,1600.00,2100.00,M,M,M,YBBN 311230Z 01011KT 9999 SCT016 BKN021 25/23 Q1007
YBBN,2012-01-31 13:00,153.1292,-27.3917,77.00,73.40,88.67,20.00,11.00,0.00,29.74,M,6.21,M,FEW,SCT,M,M,1400.00,1900.00,M,M,M,YBBN 311300Z 02011KT 9999 FEW014 SCT019 25/23 Q1007 NOSIG
YBBN,2012-01-31 13:30,153.1292,-27.3917,77.00,73.40,88.67,30.00,12.00,0.00,29.74,M,6.21,M,SCT,BKN,M,M,1400.00,1900.00,M,M,M,YBBN 311330Z 03012KT 9999 SCT014 BKN019 25/23 Q1007
YBBN,2012-01-31 14:00,153.1292,-27.3917,77.00,73.40,88.67,20.00,12.00,0.00,29.74,M,6.21,M,FEW,BKN,M,M,1400.00,1900.00,M,M,M,YBBN 311400Z 02012KT 9999 FEW014 BKN019 25/23 Q1007 NOSIG
YBBN,2012-01-31 14:30,153.1292,-27.3917,77.00,73.40,88.67,30.00,13.00,0.00,29.74,M,6.21,M,FEW,BKN,M,M,1400.00,1900.00,M,M,M,YBBN 311430Z 03013KT 9999 FEW014 BKN019 25/23 Q1007
YBBN,2012-01-31 15:00,153.1292,-27.3917,77.00,73.40,88.67,20.00,14.00,0.00,29.71,M,6.21,M,FEW,SCT,BKN,M,1400.00,2000.00,5900.00,M,M,YBBN 311500Z 02014KT 9999 FEW014 SCT020 BKN059 25/23 Q1006
YBBN,2012-01-31 15:30,153.1292,-27.3917,77.00,71.60,83.44,30.00,14.00,0.00,29.71,M,6.21,M,FEW,BKN,M,M,1600.00,2500.00,M,M,M,YBBN 311530Z 03014KT 9999 FEW016 BKN025 25/22 Q1006
YBBN,2012-01-31 16:00,153.1292,-27.3917,77.00,73.40,88.67,40.00,13.00,0.00,29.71,M,6.21,M,FEW,BKN,M,M,1400.00,2500.00,M,M,M,YBBN 311600Z 04013KT 9999 FEW014 BKN025 25/23 Q1006
YBBN,2012-01-31 16:30,153.1292,-27.3917,77.00,71.60,83.44,30.00,13.00,0.00,29.71,M,6.21,M,FEW,BKN,M,M,1600.00,2500.00,M,M,M,YBBN 311630Z 03013KT 9999 FEW016 BKN025 25/22 Q1006
YBBN,2012-01-31 17:00,153.1292,-27.3917,77.00,71.60,83.44,30.00,13.00,0.00,29.71,M,6.21,M,SCT,BKN,M,M,1400.00,2500.00,M,M,M,YBBN 311700Z 03013KT 9999 SCT014 BKN025 25/22 Q1006
YBBN,2012-01-31 17:30,153.1292,-27.3917,77.00,71.60,83.44,20.00,12.00,0.00,29.71,M,6.21,M,FEW,BKN,M,M,1600.00,2500.00,M,M,M,YBBN 311730Z 02012KT 9999 FEW016 BKN025 25/22 Q1006
YBBN,2012-01-31 18:00,153.1292,-27.3917,77.00,71.60,83.44,20.00,11.00,0.00,29.71,M,6.21,M,FEW,BKN,M,M,1600.00,2500.00,M,M,M,YBBN 311800Z 02011KT 9999 FEW016 BKN025 25/22 Q1006
YBBN,2012-01-31 18:30,153.1292,-27.3917,77.00,71.60,83.44,50.00,10.00,0.00,29.71,M,6.21,M,FEW,SCT,M,M,1400.00,1900.00,M,M,M,YBBN 311830Z 05010KT 9999 FEW014 SCT019 25/22 Q1006
YBBN,2012-01-31 19:00,153.1292,-27.3917,77.00,71.60,83.44,40.00,10.00,0.00,29.71,M,6.21,M,FEW,SCT,M,M,1400.00,2100.00,M,M,M,YBBN 311900Z 04010KT 9999 FEW014 SCT021 25/22 Q1006
YBBN,2012-01-31 19:30,153.1292,-27.3917,75.20,71.60,88.59,40.00,10.00,0.00,29.74,M,6.21,M,FEW,SCT,M,M,1600.00,2100.00,M,M,M,YBBN 311930Z 04010KT 9999 FEW016 SCT021 24/22 Q1007
YBBN,2012-01-31 20:00,153.1292,-27.3917,75.20,71.60,88.59,40.00,8.00,0.00,29.74,M,6.21,M,FEW,M,M,M,1700.00,M,M,M,M,YBBN 312000Z 04008KT 9999 FEW017 24/22 Q1007
YBBN,2012-01-31 20:30,153.1292,-27.3917,77.00,71.60,83.44,50.00,8.00,0.00,29.74,M,6.21,M,FEW,SCT,M,M,1600.00,1800.00,M,M,M,YBBN 312030Z 05008KT 9999 FEW016 SCT018 25/22 Q1007
YBBN,2012-01-31 21:00,153.1292,-27.3917,78.80,71.60,78.62,30.00,9.00,0.00,29.74,M,6.21,M,SCT,M,M,M,1800.00,M,M,M,M,YBBN 312100Z 03009KT 9999 SCT018 26/22 Q1007
YBBN,2012-01-31 21:30,153.1292,-27.3917,78.80,71.60,78.62,40.00,9.00,0.00,29.74,M,6.21,M,FEW,M,M,M,2000.00,M,M,M,M,YBBN 312130Z 04009KT 9999 FEW020 26/22 Q1007
YBBN,2012-01-31 22:00,153.1292,-27.3917,78.80,71.60,78.62,60.00,9.00,0.00,29.74,M,6.21,M,FEW,M,M,M,2300.00,M,M,M,M,YBBN 312200Z 06009KT 9999 FEW023 26/22 Q1007
YBBN,2012-01-31 22:30,153.1292,-27.3917,80.60,71.60,74.11,30.00,8.00,0.00,29.74,M,6.21,M,FEW,M,M,M,1900.00,M,M,M,M,YBBN 312230Z 03008KT 9999 FEW019 27/22 Q1007
YBBN,2012-01-31 23:00,153.1292,-27.3917,80.60,71.60,74.11,50.00,8.00,0.00,29.74,M,6.21,M,SCT,M,M,M,2000.00,M,M,M,M,YBBN 312300Z 05008KT 9999 SCT020 27/22 Q1007
YBBN,2012-01-31 23:30,153.1292,-27.3917,80.60,69.80,69.71,30.00,8.00,0.00,29.74,M,6.21,M,FEW,M,M,M,2500.00,M,M,M,M,YBBN 312330Z 03008KT 9999 FEW025 27/21 Q1007
