#DEBUG: Format Typ    -> comma
#DEBUG: Time Period   -> 2012-12-07 00:00:00+00:00 2012-12-08 00:00:00+00:00
#DEBUG: Time Zone     -> Etc/UTC
#DEBUG: Data Contact   -> daryl herzmann akrherz@iastate.edu 515-294-5978
#DEBUG: Entries Found -> -1
station,valid,lon,lat,tmpf, dwpf, relh, drct, sknt, p01i, alti, mslp, vsby, gust, skyc1, skyc2, skyc3, skyc4, skyl1, skyl2, skyl3, skyl4, presentwx, metar
YBBN,2012-12-07 00:00,153.1292,-27.3917,77.00,64.40,65.12,360.00,15.00,0.00,30.15,M,5.59,M,FEW,SCT,BKN,FEW,1500.00,2500.00,9800.00,2700.00,-SHRA VCSH,YBBN 070000Z 36015KT 9000 -SHRA VCSH FEW015 SCT025 BKN098 FEW027TCU 25/18 Q1021
YBBN,2012-12-07 00:30,153.1292,-27.3917,77.00,68.00,73.78,10.00,15.00,0.00,30.15,M,6.21,M,FEW,SCT,BKN,M,1800.00,2600.00,5400.00,M,-SHRA VCSH,YBBN 070030Z 01015KT 9999 -SHRA VCSH FEW018 SCT026 BKN054 25/20 Q1021
YBBN,2012-12-07 01:00,153.1292,-27.3917,75.20,64.40,69.14,10.00,15.00,0.00,30.15,M,6.21,M,FEW,BKN,BKN,FEW,1800.00,5200.00,9800.00,2600.00,-SHRA VCSH,YBBN 070100Z 01015KT 9999 -SHRA VCSH FEW018 BKN052 BKN098 FEW026TCU 24/18 Q1021
YBBN,2012-12-07 01:30,153.1292,-27.3917,75.20,64.40,69.14,10.00,13.00,0.00,30.15,M,6.21,M,FEW,BKN,FEW,M,1800.00,5600.00,2800.00,M,-SHRA VCSH,YBBN 070130Z 01013KT 9999 -SHRA VCSH FEW018 BKN056 FEW028TCU 24/18 Q1021
YBBN,2012-12-07 02:00,153.1292,-27.3917,77.00,66.20,69.33,20.00,11.00,0.00,30.12,M,6.21,M,FEW,BKN,M,M,1900.00,5800.00,M,M,VCSH,YBBN 070200Z 02011KT 9999 VCSH FEW019 BKN058 25/19 Q1020
YBBN,2012-12-07 02:30,153.1292,-27.3917,78.80,64.40,61.36,20.00,15.00,0.00,30.12,M,6.21,M,FEW,SCT,BKN,M,2000.00,5800.00,8800.00,M,M,YBBN 070230Z 02015KT 9999 FEW020 SCT058 BKN088 26/18 Q1020 RMK DIST SH S/SE
YBBN,2012-12-07 03:00,153.1292,-27.3917,78.80,64.40,61.36,20.00,17.00,0.00,30.12,M,6.21,M,FEW,SCT,M,M,2200.00,8800.00,M,M,VCSH,YBBN 070300Z 02017KT 9999 VCSH FEW022 SCT088 26/18 Q1020 INTER 0300/0600 3000 SHRA BKN015
YBBN,2012-12-07 03:30,153.1292,-27.3917,80.60,62.60,54.30,20.00,17.00,0.00,30.09,M,6.21,M,FEW,M,M,M,2700.00,M,M,M,M,YBBN 070330Z 02017KT 9999 FEW027 27/17 Q1019
YBBN,2012-12-07 04:00,153.1292,-27.3917,78.80,62.60,57.60,20.00,14.00,0.00,30.09,M,6.21,M,FEW,BKN,M,M,2700.00,30000.00,M,M,M,YBBN 070400Z 02014KT 9999 FEW027 BKN300 26/17 Q1019 NOSIG
YBBN,2012-12-07 04:30,153.1292,-27.3917,80.60,64.40,57.84,20.00,14.00,0.00,30.09,M,6.21,M,FEW,SCT,M,M,2800.00,23000.00,M,M,M,YBBN 070430Z 02014KT 9999 FEW028 SCT230 27/18 Q1019
YBBN,2012-12-07 05:00,153.1292,-27.3917,80.60,60.80,50.95,20.00,13.00,0.00,30.09,M,6.21,M,FEW,SCT,M,M,2800.00,24000.00,M,M,M,YBBN 070500Z 02013KT 9999 FEW028 SCT240 27/16 Q1019
YBBN,2012-12-07 05:30,153.1292,-27.3917,82.40,59.00,45.07,30.00,11.00,0.00,30.09,M,6.21,M,FEW,SCT,M,M,3000.00,24000.00,M,M,M,YBBN 070530Z 03011KT 9999 FEW030 SCT240 28/15 Q1019
YBBN,2012-12-07 06:00,153.1292,-27.3917,78.80,62.60,57.60,30.00,12.00,0.00,30.09,M,6.21,M,FEW,BKN,M,M,2700.00,28000.00,M,M,M,YBBN 070600Z 03012KT 9999 FEW027 BKN280 26/17 Q1019 NOSIG
YBBN,2012-12-07 06:30,153.1292,-27.3917,78.80,64.40,61.36,20.00,13.00,0.00,30.09,M,6.21,M,FEW,BKN,M,M,2500.00,28000.00,M,M,M,YBBN 070630Z 02013KT 9999 FEW025 BKN280 26/18 Q1019
YBBN,2012-12-07 07:00,153.1292,-27.3917,77.00,64.40,65.12,20.00,12.00,0.00,30.09,M,6.21,M,FEW,BKN,M,M,2500.00,28000.00,M,M,M,YBBN 070700Z 02012KT 9999 FEW025 BKN280 25/18 Q1019 NOSIG
YBBN,2012-12-07 07:30,153.1292,-27.3917,78.80,64.40,61.36,50.00,9.00,0.00,30.09,M,6.21,M,FEW,SCT,BKN,M,2200.00,2500.00,28000.00,M,M,YBBN 070730Z 05009KT 9999 FEW022 SCT025 BKN280 26/18 Q1019 RMK DIST SH SE
YBBN,2012-12-07 08:00,153.1292,-27.3917,77.00,64.40,65.12,50.00,11.00,0.00,30.12,M,6.21,M,FEW,SCT,BKN,M,2200.00,2500.00,28000.00,M,M,YBBN 070800Z 05011KT 9999 FEW022 SCT025 BKN280 25/18 Q1020 NOSIG
YBBN,2012-12-07 08:30,153.1292,-27.3917,77.00,62.60,61.13,50.00,10.00,0.00,30.12,M,6.21,M,FEW,SCT,BKN,M,2200.00,2500.00,28000.00,M,VCSH,YBBN 070830Z 05010KT 9999 VCSH FEW022 SCT025 BKN280 25/17 Q1020
YBBN,2012-12-07 09:00,153.1292,-27.3917,77.00,62.60,61.13,50.00,8.00,0.00,30.12,M,6.21,M,FEW,SCT,M,M,2200.00,2500.00,M,M,M,YBBN 070900Z 05008KT 9999 FEW022 SCT025 25/17 Q1020
YBBN,2012-12-07 09:30,153.1292,-27.3917,77.00,62.60,61.13,50.00,9.00,0.00,30.15,M,6.21,M,SCT,BKN,M,M,2500.00,8000.00,M,M,M,YBBN 070930Z 05009KT 9999 SCT025 BKN080 25/17 Q1021
YBBN,2012-12-07 10:00,153.1292,-27.3917,77.00,62.60,61.13,50.00,7.00,0.00,30.15,M,6.21,M,SCT,BKN,M,M,3000.00,7500.00,M,M,M,YBBN 071000Z 05007KT 9999 SCT030 BKN075 25/17 Q1021
YBBN,2012-12-07 10:30,153.1292,-27.3917,75.20,62.60,64.91,40.00,9.00,0.00,30.15,M,6.21,M,FEW,SCT,BKN,M,3000.00,5500.00,8000.00,M,M,YBBN 071030Z 04009KT 9999 FEW030 SCT055 BKN080 24/17 Q1021
YBBN,2012-12-07 11:00,153.1292,-27.3917,77.00,62.60,61.13,50.00,8.00,0.00,30.15,M,6.21,M,FEW,SCT,BKN,M,2500.00,8000.00,10500.00,M,M,YBBN 071100Z 05008KT 9999 FEW025 SCT080 BKN105 25/17 Q1021 NOSIG
YBBN,2012-12-07 11:30,153.1292,-27.3917,75.20,62.60,64.91,40.00,9.00,0.00,30.15,M,6.21,M,FEW,SCT,BKN,M,2500.00,3300.00,8000.00,M,M,YBBN 071130Z 04009KT 9999 FEW025 SCT033 BKN080 24/17 Q1021
YBBN,2012-12-07 12:00,153.1292,-27.3917,75.20,62.60,64.91,30.00,8.00,0.00,30.15,M,6.21,M,FEW,BKN,M,M,2500.00,7500.00,M,M,M,YBBN 071200Z 03008KT 9999 FEW025 BKN075 24/17 Q1021 NOSIG
YBBN,2012-12-07 12:30,153.1292,-27.3917,75.20,62.60,64.91,40.00,6.00,0.00,30.15,M,6.21,M,SCT,BKN,M,M,2800.00,4300.00,M,M,M,YBBN 071230Z 04006KT 9999 SCT028 BKN043 24/17 Q1021
YBBN,2012-12-07 13:00,153.1292,-27.3917,75.20,64.40,69.14,40.00,8.00,0.00,30.15,M,6.21,M,FEW,SCT,M,M,2800.00,4300.00,M,M,M,YBBN 071300Z 04008KT 9999 FEW028 SCT043 24/18 Q1021
YBBN,2012-12-07 13:30,153.1292,-27.3917,75.20,62.60,64.91,40.00,10.00,0.00,30.15,M,6.21,M,FEW,SCT,M,M,2700.00,4200.00,M,M,M,YBBN 071330Z 04010KT 9999 FEW027 SCT042 24/17 Q1021
YBBN,2012-12-07 14:00,153.1292,-27.3917,75.20,62.60,64.91,40.00,9.00,0.00,30.12,M,6.21,M,FEW,SCT,M,M,2800.00,4000.00,M,M,M,YBBN 071400Z 04009KT 9999 FEW028 SCT040 24/17 Q1020
YBBN,2012-12-07 14:30,153.1292,-27.3917,75.20,62.60,64.91,40.00,11.00,0.00,30.12,M,6.21,M,SCT,BKN,M,M,2900.00,3900.00,M,M,M,YBBN 071430Z 04011KT 9999 SCT029 BKN039 24/17 Q1020
YBBN,2012-12-07 15:00,153.1292,-27.3917,75.20,60.80,60.90,40.00,10.00,0.00,30.09,M,6.21,M,FEW,BKN,M,M,2800.00,4200.00,M,M,M,YBBN 071500Z 04010KT 9999 FEW028 BKN042 24/16 Q1019 NOSIG
YBBN,2012-12-07 15:30,153.1292,-27.3917,75.20,60.80,60.90,30.00,11.00,0.00,30.09,M,6.21,M,FEW,BKN,M,M,2800.00,4000.00,M,M,M,YBBN 071530Z 03011KT 9999 FEW028 BKN040 24/16 Q1019
YBBN,2012-12-07 16:00,153.1292,-27.3917,75.20,60.80,60.90,30.00,13.00,0.00,30.09,M,6.21,M,BKN,BKN,M,M,4000.00,5400.00,M,M,M,YBBN 071600Z 03013KT 9999 BKN040 BKN054 24/16 Q1019 NOSIG
YBBN,2012-12-07 16:30,153.1292,-27.3917,73.40,60.80,64.69,30.00,13.00,0.00,30.09,M,6.21,M,SCT,BKN,M,M,4000.00,5700.00,M,M,M,YBBN 071630Z 03013KT 9999 SCT040 BKN057 23/16 Q1019
YBBN,2012-12-07 17:00,153.1292,-27.3917,75.20,60.80,60.90,30.00,10.00,0.00,30.09,M,6.21,M,FEW,BKN,M,M,2800.00,4500.00,M,M,M,YBBN 071700Z 03010KT 9999 FEW028 BKN045 24/16 Q1019
YBBN,2012-12-07 17:30,153.1292,-27.3917,75.20,60.80,60.90,20.00,12.00,0.00,30.09,M,6.21,M,FEW,BKN,M,M,3000.00,5200.00,M,M,M,YBBN 071730Z 02012KT 9999 FEW030 BKN052 24/16 Q1019
YBBN,2012-12-07 18:00,153.1292,-27.3917,75.20,59.00,57.12,30.00,10.00,0.00,30.09,M,6.21,M,FEW,BKN,M,M,3000.00,5500.00,M,M,M,YBBN 071800Z 03010KT 9999 FEW030 BKN055 24/15 Q1019
YBBN,2012-12-07 18:30,153.1292,-27.3917,75.20,60.80,60.90,40.00,9.00,0.00,30.12,M,6.21,M,FEW,BKN,M,M,3200.00,5500.00,M,M,M,YBBN 071830Z 04009KT 9999 FEW032 BKN055 24/16 Q1020
YBBN,2012-12-07 19:00,153.1292,-27.3917,75.20,60.80,60.90,20.00,10.00,0.00,30.12,M,6.21,M,FEW,BKN,M,M,3000.00,5300.00,M,M,M,YBBN 071900Z 02010KT 9999 FEW030 BKN053 24/16 Q1020 NOSIG
YBBN,2012-12-07 19:30,153.1292,-27.3917,75.20,60.80,60.90,30.00,10.00,0.00,30.12,M,6.21,M,FEW,BKN,M,M,3000.00,5500.00,M,M,M,YBBN 071930Z 03010KT 9999 FEW030 BKN055 24/16 Q1020
YBBN,2012-12-07 20:00,153.1292,-27.3917,77.00,60.80,57.36,30.00,11.00,0.00,30.12,M,6.21,M,FEW,BKN,M,M,3000.00,4900.00,M,M,M,YBBN 072000Z 03011KT 9999 FEW030 BKN049 25/16 Q1020 NOSIG
YBBN,2012-12-07 20:30,153.1292,-27.3917,77.00,60.80,57.36,20.00,11.00,0.00,30.12,M,6.21,M,FEW,SCT,M,M,2400.00,5900.00,M,M,M,YBBN 072030Z 02011KT 9999 FEW024 SCT059 25/16 Q1020 RMK DIST SH EAST
YBBN,2012-12-07 21:00,153.1292,-27.3917,77.00,60.80,57.36,20.00,10.00,0.00,30.12,M,6.21,M,FEW,SCT,M,M,2400.00,3000.00,M,M,M,YBBN 072100Z 02010KT 9999 FEW024 SCT030 25/16 Q1020
YBBN,2012-12-07 21:30,153.1292,-27.3917,77.00,60.80,57.36,10.00,11.00,0.00,30.15,M,6.21,M,FEW,SCT,BKN,M,2400.00,3200.00,5700.00,M,M,YBBN 072130Z 01011KT 9999 FEW024 SCT032 BKN057 25/16 Q1021
YBBN,2012-12-07 22:00,153.1292,-27.3917,77.00,60.80,57.36,10.00,9.00,0.00,30.15,M,6.21,M,FEW,SCT,BKN,M,2500.00,3200.00,6000.00,M,M,YBBN 072200Z 01009KT 9999 FEW025 SCT032 BKN060 25/16 Q1021 NOSIG
YBBN,2012-12-07 22:30,153.1292,-27.3917,78.80,60.80,54.05,10.00,9.00,0.00,30.15,M,6.21,M,FEW,SCT,BKN,M,2500.00,3300.00,6200.00,M,M,YBBN 072230Z 01009KT 9999 FEW025 SCT033 BKN062 26/16 Q1021
YBBN,2012-12-07 23:00,153.1292,-27.3917,78.80,60.80,54.05,20.00,10.00,0.00,30.15,M,6.21,M,FEW,SCT,BKN,M,2500.00,3500.00,6400.00,M,M,YBBN 072300Z 02010KT 9999 FEW025 SCT035 BKN064 26/16 Q1021 NOSIG
YBBN,2012-12-07 23:30,153.1292,-27.3917,80.60,60.80,50.95,10.00,9.00,0.00,30.12,M,6.21,M,FEW,BKN,M,M,3700.00,6600.00,M,M,M,YBBN 072330Z 01009KT 9999 FEW037 BKN066 27/16 Q1020
