#DEBUG: Format Typ    -> comma
#DEBUG: Time Period   -> 2015-01-17 00:00:00+00:00 2015-01-18 00:00:00+00:00
#DEBUG: Time Zone     -> Etc/UTC
#DEBUG: Data Contact   -> daryl herzmann akrherz@iastate.edu 515-294-5978
#DEBUG: Entries Found -> -1
station,valid,lon,lat,tmpf, dwpf, relh, drct, sknt, p01i, alti, mslp, vsby, gust, skyc1, skyc2, skyc3, skyc4, skyl1, skyl2, skyl3, skyl4, presentwx, metar
YBBN,2015-01-17 00:00,153.1292,-27.3917,86.00,71.60,62.25,30.00,7.00,0.00,29.80,M,6.21,M,FEW,M,M,M,1700.00,M,M,M,M,YBBN 170000Z 03007KT 9999 FEW017 30/22 Q1009
YBBN,2015-01-17 00:30,153.1292,-27.3917,86.00,71.60,62.25,30.00,8.00,0.00,29.80,M,6.21,M,FEW,M,M,M,2000.00,M,M,M,M,YBBN 170030Z 03008KT 9999 FEW020 30/22 Q1009
YBBN,2015-01-17 01:00,153.1292,-27.3917,87.80,73.40,62.47,20.00,9.00,0.00,29.77,M,6.21,M,FEW,M,M,M,2500.00,M,M,M,M,YBBN 170100Z 02009KT 9999 FEW025 31/23 Q1008 NOSIG
YBBN,2015-01-17 01:30,153.1292,-27.3917,89.60,73.40,59.01,20.00,9.00,0.00,29.77,M,6.21,M,FEW,M,M,M,2800.00,M,M,M,M,YBBN 170130Z 02009KT 9999 FEW028 32/23 Q1008
YBBN,2015-01-17 02:00,153.1292,-27.3917,89.60,73.40,59.01,30.00,10.00,0.00,29.74,M,6.21,M,FEW,M,M,M,3500.00,M,M,M,M,YBBN 170200Z 03010KT 9999 FEW035 32/23 Q1007 NOSIG
YBBN,2015-01-17 02:30,153.1292,-27.3917,89.60,73.40,59.01,30.00,9.00,0.00,29.74,M,6.21,M,FEW,M,M,M,3800.00,M,M,M,M,YBBN 170230Z 03009KT 9999 FEW038 32/23 Q1007
YBBN,2015-01-17 03:00,153.1292,-27.3917,91.40,73.40,55.77,30.00,10.00,0.00,29.74,M,6.21,M,FEW,M,M,M,4000.00,M,M,M,M,YBBN 170300Z 03010KT 9999 FEW040 33/23 Q1007 NOSIG
YBBN,2015-01-17 03:30,153.1292,-27.3917,89.60,73.40,59.01,20.00,12.00,0.00,29.71,M,6.21,M,FEW,M,M,M,4000.00,M,M,M,M,YBBN 170330Z 02012KT 9999 FEW040 32/23 Q1006
YBBN,2015-01-17 04:00,153.1292,-27.3917,91.40,77.00,62.90,10.00,14.00,0.00,29.71,M,6.21,M,FEW,M,M,M,4000.00,M,M,M,M,YBBN 170400Z 01014KT 9999 FEW040 33/25 Q1006 NOSIG
YBBN,2015-01-17 04:30,153.1292,-27.3917,87.80,75.20,66.35,10.00,14.00,0.00,29.71,M,6.21,M,FEW,M,M,M,4500.00,M,M,M,M,YBBN 170430Z 01014KT 9999 FEW045 31/24 Q1006
YBBN,2015-01-17 05:00,153.1292,-27.3917,86.00,75.20,70.27,360.00,15.00,0.00,29.68,M,6.21,M,M,M,M,M,M,M,M,M,M,YBBN 170500Z 36015KT CAVOK 30/24 Q1005
YBBN,2015-01-17 05:30,153.1292,-27.3917,86.00,75.20,70.27,10.00,14.00,0.00,29.68,M,6.21,M,M,M,M,M,M,M,M,M,M,YBBN 170530Z 01014KT CAVOK 30/24 Q1005
YBBN,2015-01-17 06:00,153.1292,-27.3917,86.00,75.20,70.27,360.00,16.00,0.00,29.68,M,6.21,M,M,M,M,M,M,M,M,M,M,YBBN 170600Z 36016KT CAVOK 30/24 Q1005 NOSIG
YBBN,2015-01-17 06:30,153.1292,-27.3917,84.20,77.00,79.04,360.00,14.00,0.00,29.68,M,6.21,M,M,M,M,M,M,M,M,M,M,YBBN 170630Z 36014KT CAVOK 29/25 Q1005 RMK HZ
YBBN,2015-01-17 07:00,153.1292,-27.3917,84.20,77.00,79.04,10.00,13.00,0.00,29.68,M,6.21,M,FEW,M,M,M,2500.00,M,M,M,M,YBBN 170700Z 01013KT 9999 FEW025 29/25 Q1005 NOSIG
YBBN,2015-01-17 07:30,153.1292,-27.3917,84.20,77.00,79.04,10.00,14.00,0.00,29.71,M,6.21,M,FEW,M,M,M,1200.00,M,M,M,M,YBBN 170730Z 01014KT 9999 FEW012 29/25 Q1006
YBBN,2015-01-17 08:00,153.1292,-27.3917,82.40,77.00,83.77,20.00,12.00,0.00,29.71,M,6.21,M,FEW,M,M,M,1200.00,M,M,M,M,YBBN 170800Z 02012KT 9999 FEW012 28/25 Q1006 NOSIG
YBBN,2015-01-17 08:30,153.1292,-27.3917,82.40,77.00,83.77,50.00,11.00,0.00,29.74,M,6.21,M,FEW,M,M,M,1500.00,M,M,M,M,YBBN 170830Z 05011KT 9999 FEW015 28/25 Q1007
YBBN,2015-01-17 09:00,153.1292,-27.3917,82.40,77.00,83.77,40.00,10.00,0.00,29.74,M,6.21,M,FEW,M,M,M,1500.00,M,M,M,M,YBBN 170900Z 04010KT 9999 FEW015 28/25 Q1007
YBBN,2015-01-17 09:30,153.1292,-27.3917,82.40,78.80,88.90,40.00,10.00,0.00,29.74,M,6.21,M,FEW,M,M,M,1500.00,M,M,M,M,YBBN 170930Z 04010KT 9999 FEW015 28/26 Q1007
YBBN,2015-01-17 10:00,153.1292,-27.3917,80.60,78.80,94.27,20.00,12.00,0.00,29.77,M,6.21,M,FEW,M,M,M,1000.00,M,M,M,M,YBBN 171000Z 02012KT 9999 FEW010 27/26 Q1008
YBBN,2015-01-17 10:30,153.1292,-27.3917,80.60,77.00,88.83,10.00,14.00,0.00,29.77,M,6.21,M,FEW,M,M,M,800.00,M,M,M,M,YBBN 171030Z 01014KT 9999 FEW008 27/25 Q1008
YBBN,2015-01-17 11:00,153.1292,-27.3917,82.40,77.00,83.77,20.00,11.00,0.00,29.80,M,6.21,M,FEW,SCT,M,M,800.00,1200.00,M,M,M,YBBN 171100Z 02011KT 9999 FEW008 SCT012 28/25 Q1009
YBBN,2015-01-17 11:30,153.1292,-27.3917,82.40,78.80,88.90,10.00,12.00,0.00,29.80,M,6.21,M,FEW,SCT,M,M,800.00,1400.00,M,M,M,YBBN 171130Z 01012KT 9999 FEW008 SCT014 28/26 Q1009
YBBN,2015-01-17 12:00,153.1292,-27.3917,82.40,78.80,88.90,20.00,11.00,0.00,29.80,M,6.21,M,FEW,SCT,M,M,800.00,1400.00,M,M,M,YBBN 171200Z 02011KT 9999 FEW008 SCT014 28/26 Q1009 NOSIG
YBBN,2015-01-17 12:30,153.1292,-27.3917,80.60,78.80,94.27,30.00,12.00,0.00,29.80,M,6.21,M,FEW,SCT,M,M,800.00,1200.00,M,M,M,YBBN 171230Z 03012KT 9999 FEW008 SCT012 27/26 Q1009
YBBN,2015-01-17 13:00,153.1292,-27.3917,80.60,78.80,94.27,20.00,13.00,0.00,29.80,M,6.21,M,FEW,M,M,M,1000.00,M,M,M,M,YBBN 171300Z 02013KT 9999 FEW010 27/26 Q1009
YBBN,2015-01-17 13:30,153.1292,-27.3917,80.60,78.80,94.27,20.00,13.00,0.00,29.77,M,6.21,M,FEW,SCT,M,M,800.00,1200.00,M,M,M,YBBN 171330Z 02013KT 9999 FEW008 SCT012 27/26 Q1008
YBBN,2015-01-17 14:00,153.1292,-27.3917,80.60,78.80,94.27,10.00,15.00,0.00,29.77,M,6.21,M,FEW,SCT,M,M,700.00,1000.00,M,M,M,YBBN 171400Z 01015KT 9999 FEW007 SCT010 27/26 Q1008
YBBN,2015-01-17 14:30,153.1292,-27.3917,82.40,78.80,88.90,10.00,13.00,0.00,29.77,M,1.24,M,FEW,SCT,M,M,700.00,1000.00,M,M,M,YBBN 171430Z 01013KT 2000 FEW007 SCT010 28/26 Q1008
YBBN,2015-01-17 15:00,153.1292,-27.3917,82.40,78.80,88.90,360.00,9.00,0.00,29.77,M,6.21,M,SCT,BKN,M,M,700.00,1200.00,M,M,M,YBBN 171500Z 36009KT 9999 SCT007 BKN012 28/26 Q1008
YBBN,2015-01-17 15:30,153.1292,-27.3917,82.40,78.80,88.90,350.00,7.00,0.00,29.77,M,6.21,M,FEW,SCT,M,M,800.00,1400.00,M,M,M,YBBN 171530Z 35007KT 9999 FEW008 SCT014 28/26 Q1008
YBBN,2015-01-17 15:54,153.1292,-27.3917,80.60,77.00,88.83,270.00,5.00,0.00,29.77,M,6.21,M,FEW,SCT,M,M,800.00,1500.00,M,M,M,YBBN 171554Z 27005KT 9999 FEW008 SCT015 27/25 Q1008
YBBN,2015-01-17 16:00,153.1292,-27.3917,80.60,77.00,88.83,280.00,5.00,0.00,29.74,M,6.21,M,FEW,SCT,M,M,800.00,1600.00,M,M,M,YBBN 171600Z 28005KT 9999 FEW008 SCT016 27/25 Q1007
YBBN,2015-01-17 16:30,153.1292,-27.3917,80.60,77.00,88.83,310.00,5.00,0.00,29.74,M,6.21,M,FEW,M,M,M,900.00,M,M,M,M,YBBN 171630Z 31005KT 9999 FEW009 27/25 Q1007
YBBN,2015-01-17 17:00,153.1292,-27.3917,78.80,77.00,94.23,310.00,6.00,0.00,29.74,M,6.21,M,FEW,M,M,M,900.00,M,M,M,M,YBBN 171700Z 31006KT 9999 FEW009 26/25 Q1007
YBBN,2015-01-17 17:30,153.1292,-27.3917,78.80,77.00,94.23,300.00,5.00,0.00,29.74,M,6.21,M,FEW,M,M,M,900.00,M,M,M,M,YBBN 171730Z 30005KT 9999 FEW009 26/25 Q1007
YBBN,2015-01-17 18:00,153.1292,-27.3917,78.80,77.00,94.23,280.00,4.00,0.00,29.74,M,6.21,M,FEW,M,M,M,900.00,M,M,M,M,YBBN 171800Z 28004KT 9999 FEW009 26/25 Q1007
YBBN,2015-01-17 18:30,153.1292,-27.3917,78.80,77.00,94.23,310.00,5.00,0.00,29.77,M,6.21,M,FEW,SCT,M,M,900.00,1500.00,M,M,M,YBBN 171830Z 31005KT 9999 FEW009 SCT015 26/25 Q1008
YBBN,2015-01-17 19:00,153.1292,-27.3917,78.80,77.00,94.23,280.00,6.00,0.00,29.77,M,6.21,M,FEW,M,M,M,900.00,M,M,M,M,YBBN 171900Z 28006KT 9999 FEW009 26/25 Q1008
YBBN,2015-01-17 19:30,153.1292,-27.3917,78.80,75.20,88.75,270.00,4.00,0.00,29.77,M,6.21,M,FEW,M,M,M,900.00,M,M,M,M,YBBN 171930Z 27004KT 9999 FEW009 26/24 Q1008
YBBN,2015-01-17 20:00,153.1292,-27.3917,78.80,75.20,88.75,290.00,5.00,0.00,29.77,M,6.21,M,FEW,M,M,M,900.00,M,M,M,M,YBBN 172000Z 29005KT 9999 FEW009 26/24 Q1008
YBBN,2015-01-17 20:30,153.1292,-27.3917,78.80,75.20,88.75,290.00,5.00,0.00,29.80,M,6.21,M,FEW,M,M,M,900.00,M,M,M,M,YBBN 172030Z 29005KT 9999 FEW009 26/24 Q1009
YBBN,2015-01-17 21:00,153.1292,-27.3917,80.60,77.00,88.83,230.00,7.00,0.00,29.80,M,6.21,M,SCT,M,M,M,1100.00,M,M,M,M,YBBN 172100Z 23007KT 9999 SCT011 27/25 Q1009 NOSIG
YBBN,2015-01-17 21:30,153.1292,-27.3917,82.40,75.20,78.90,230.00,5.00,0.00,29.80,M,6.21,M,SCT,M,M,M,1300.00,M,M,M,M,YBBN 172130Z 23005KT 9999 SCT013 28/24 Q1009
YBBN,2015-01-17 22:00,153.1292,-27.3917,84.20,75.20,74.44,230.00,6.00,0.00,29.80,M,6.21,M,SCT,M,M,M,1600.00,M,M,M,M,YBBN 172200Z 23006KT 9999 SCT016 29/24 Q1009 NOSIG
YBBN,2015-01-17 22:30,153.1292,-27.3917,86.00,73.40,66.15,270.00,7.00,0.00,29.80,M,6.21,M,SCT,M,M,M,1800.00,M,M,M,M,YBBN 172230Z 27007KT 9999 SCT018 30/23 Q1009
YBBN,2015-01-17 23:00,153.1292,-27.3917,87.80,73.40,62.47,240.00,4.00,0.00,29.80,M,6.21,M,SCT,M,M,M,2000.00,M,M,M,M,YBBN 172300Z 24004KT 9999 SCT020 31/23 Q1009 NOSIG
YBBN,2015-01-17 23:30,153.1292,-27.3917,87.80,73.40,62.47,230.00,5.00,0.00,29.80,M,6.21,M,FEW,M,M,M,2500.00,M,M,M,M,YBBN 172330Z 23005KT 9999 FEW025 31/23 Q1009
