#DEBUG: Format Typ    -> comma
#DEBUG: Time Period   -> 2014-08-11 00:00:00+00:00 2014-08-12 00:00:00+00:00
#DEBUG: Time Zone     -> Etc/UTC
#DEBUG: Data Contact   -> daryl herzmann akrherz@iastate.edu 515-294-5978
#DEBUG: Entries Found -> -1
station,valid,lon,lat,tmpf, dwpf, relh, drct, sknt, p01i, alti, mslp, vsby, gust, skyc1, skyc2, skyc3, skyc4, skyl1, skyl2, skyl3, skyl4, presentwx, metar
YBBN,2014-08-11 00:00,153.1292,-27.3917,68.00,48.20,49.10,240.00,5.00,0.00,30.15,M,6.21,M,M,M,M,M,M,M,M,M,M,YBBN 110000Z 24005KT CAVOK 20/09 Q1021
YBBN,2014-08-11 00:30,153.1292,-27.3917,71.60,48.20,43.42,220.00,6.00,0.00,30.15,M,6.21,M,M,M,M,M,M,M,M,M,M,YBBN 110030Z 22006KT CAVOK 22/09 Q1021
YBBN,2014-08-11 01:00,153.1292,-27.3917,73.40,44.60,35.66,300.00,5.00,0.00,30.15,M,6.21,M,M,M,M,M,M,M,M,M,M,YBBN 110100Z 30005KT CAVOK 23/07 Q1021 NOSIG
YBBN,2014-08-11 01:30,153.1292,-27.3917,73.40,42.80,33.29,30.00,7.00,0.00,30.12,M,6.21,M,M,M,M,M,M,M,M,M,M,YBBN 110130Z 03007KT CAVOK 23/06 Q1020
YBBN,2014-08-11 02:00,153.1292,-27.3917,75.20,39.20,27.26,40.00,8.00,0.00,30.12,M,6.21,M,M,M,M,M,M,M,M,M,M,YBBN 110200Z 04008KT CAVOK 24/04 Q1020
YBBN,2014-08-11 02:30,153.1292,-27.3917,75.20,39.20,27.26,40.00,9.00,0.00,30.09,M,6.21,M,M,M,M,M,M,M,M,M,M,YBBN 110230Z 04009KT CAVOK 24/04 Q1019
YBBN,2014-08-11 03:00,153.1292,-27.3917,73.40,46.40,38.18,30.00,11.00,0.00,30.06,M,6.21,M,M,M,M,M,M,M,M,M,M,YBBN 110300Z 03011KT CAVOK 23/08 Q1018
YBBN,2014-08-11 03:30,153.1292,-27.3917,73.40,44.60,35.66,40.00,9.00,0.00,30.06,M,6.21,M,M,M,M,M,M,M,M,M,M,YBBN 110330Z 04009KT CAVOK 23/07 Q1018 RMK 5AC090
YBBN,2014-08-11 04:00,153.1292,-27.3917,69.80,50.00,49.37,40.00,7.00,0.00,30.06,M,6.21,M,M,M,M,M,M,M,M,M,M,YBBN 110400Z 04007KT CAVOK 21/10 Q1018 FM0430 15012KT CAVOK
YBBN,2014-08-11 04:30,153.1292,-27.3917,69.80,46.40,43.13,100.00,8.00,0.00,30.06,M,6.21,M,M,M,M,M,M,M,M,M,M,YBBN 110430Z 10008KT CAVOK 21/08 Q1018
YBBN,2014-08-11 05:00,153.1292,-27.3917,71.60,44.60,37.89,110.00,10.00,0.00,30.06,M,6.21,M,M,M,M,M,M,M,M,M,M,YBBN 110500Z 11010KT CAVOK 22/07 Q1018
YBBN,2014-08-11 05:30,153.1292,-27.3917,69.80,42.80,37.61,120.00,10.00,0.00,30.06,M,6.21,M,M,M,M,M,M,M,M,M,M,YBBN 110530Z 12010KT CAVOK 21/06 Q1018
YBBN,2014-08-11 06:00,153.1292,-27.3917,68.00,48.20,49.10,120.00,11.00,0.00,30.06,M,6.21,M,M,M,M,M,M,M,M,M,M,YBBN 110600Z 12011KT CAVOK 20/09 Q1018
YBBN,2014-08-11 06:30,153.1292,-27.3917,68.00,50.00,52.51,120.00,12.00,0.00,30.06,M,6.21,M,M,M,M,M,M,M,M,M,M,YBBN 110630Z 12012KT CAVOK 20/10 Q1018
YBBN,2014-08-11 07:00,153.1292,-27.3917,66.20,51.80,59.74,120.00,9.00,0.00,30.09,M,6.21,M,M,M,M,M,M,M,M,M,M,YBBN 110700Z 12009KT CAVOK 19/11 Q1019 NOSIG
YBBN,2014-08-11 07:30,153.1292,-27.3917,66.20,51.80,59.74,110.00,7.00,0.00,30.09,M,6.21,M,M,M,M,M,M,M,M,M,M,YBBN 110730Z 11007KT CAVOK 19/11 Q1019
YBBN,2014-08-11 08:00,153.1292,-27.3917,66.20,51.80,59.74,110.00,6.00,0.00,30.12,M,6.21,M,M,M,M,M,M,M,M,M,M,YBBN 110800Z 11006KT CAVOK 19/11 Q1020 NOSIG
YBBN,2014-08-11 08:30,153.1292,-27.3917,64.40,51.80,63.60,120.00,5.00,0.00,30.12,M,6.21,M,M,M,M,M,M,M,M,M,M,YBBN 110830Z 12005KT CAVOK 18/11 Q1020
YBBN,2014-08-11 09:00,153.1292,-27.3917,64.40,51.80,63.60,130.00,5.00,0.00,30.12,M,6.21,M,M,M,M,M,M,M,M,M,M,YBBN 110900Z 13005KT CAVOK 18/11 Q1020 NOSIG
YBBN,2014-08-11 09:30,153.1292,-27.3917,64.40,51.80,63.60,150.00,4.00,0.00,30.15,M,6.21,M,M,M,M,M,M,M,M,M,M,YBBN 110930Z 15004KT CAVOK 18/11 Q1021
YBBN,2014-08-11 10:00,153.1292,-27.3917,64.40,51.80,63.60,0.00,0.00,0.00,30.15,M,6.21,M,M,M,M,M,M,M,M,M,M,YBBN 111000Z 00000KT CAVOK 18/11 Q1021 NOSIG
YBBN,2014-08-11 10:30,153.1292,-27.3917,62.60,51.80,67.75,0.00,0.00,0.00,30.15,M,6.21,M,M,M,M,M,M,M,M,M,M,YBBN 111030Z 00000KT CAVOK 17/11 Q1021
YBBN,2014-08-11 11:00,153.1292,-27.3917,62.60,51.80,67.75,160.00,4.00,0.00,30.18,M,6.21,M,FEW,M,M,M,2200.00,M,M,M,M,YBBN 111100Z 16004KT 9999 FEW022 17/11 Q1022 NOSIG
YBBN,2014-08-11 11:30,153.1292,-27.3917,60.80,51.80,72.20,170.00,2.00,0.00,30.18,M,6.21,M,FEW,M,M,M,2200.00,M,M,M,M,YBBN 111130Z 17002KT 9999 FEW022 16/11 Q1022
YBBN,2014-08-11 12:00,153.1292,-27.3917,57.20,51.80,82.12,200.00,5.00,0.00,30.18,M,6.21,M,M,M,M,M,M,M,M,M,M,YBBN 111200Z 20005KT CAVOK 14/11 Q1022 NOSIG
YBBN,2014-08-11 12:30,153.1292,-27.3917,59.00,50.00,72.01,190.00,4.00,0.00,30.18,M,6.21,M,FEW,M,M,M,2500.00,M,M,M,M,YBBN 111230Z 19004KT 9999 FEW025 15/10 Q1022
YBBN,2014-08-11 13:00,153.1292,-27.3917,55.40,50.00,81.99,200.00,6.00,0.00,30.18,M,6.21,M,FEW,M,M,M,2500.00,M,M,M,M,YBBN 111300Z 20006KT 9999 FEW025 13/10 Q1022 NOSIG
YBBN,2014-08-11 13:30,153.1292,-27.3917,57.20,50.00,76.82,200.00,6.00,0.00,30.18,M,6.21,M,FEW,SCT,M,M,2500.00,4000.00,M,M,M,YBBN 111330Z 20006KT 9999 FEW025 SCT040 14/10 Q1022 RMK SMOKE
YBBN,2014-08-11 14:00,153.1292,-27.3917,57.20,50.00,76.82,190.00,6.00,0.00,30.18,M,6.21,M,FEW,M,M,M,4000.00,M,M,M,M,YBBN 111400Z 19006KT 9999 FEW040 14/10 Q1022 NOSIG
YBBN,2014-08-11 14:30,153.1292,-27.3917,57.20,50.00,76.82,190.00,7.00,0.00,30.18,M,6.21,M,FEW,M,M,M,4000.00,M,M,M,M,YBBN 111430Z 19007KT 9999 FEW040 14/10 Q1022
YBBN,2014-08-11 15:00,153.1292,-27.3917,55.40,50.00,81.99,190.00,7.00,0.00,30.18,M,6.21,M,FEW,M,M,M,4000.00,M,M,M,M,YBBN 111500Z 19007KT 9999 FEW040 13/10 Q1022 NOSIG
YBBN,2014-08-11 15:30,153.1292,-27.3917,59.00,50.00,72.01,200.00,6.00,0.00,30.18,M,6.21,M,FEW,M,M,M,4000.00,M,M,M,M,YBBN 111530Z 20006KT 9999 FEW040 15/10 Q1022
YBBN,2014-08-11 16:00,153.1292,-27.3917,57.20,50.00,76.82,180.00,6.00,0.00,30.18,M,6.21,M,FEW,M,M,M,4000.00,M,M,M,M,YBBN 111600Z 18006KT 9999 FEW040 14/10 Q1022 NOSIG
YBBN,2014-08-11 16:30,153.1292,-27.3917,57.20,50.00,76.82,190.00,7.00,0.00,30.18,M,6.21,M,FEW,M,M,M,4000.00,M,M,M,M,YBBN 111630Z 19007KT 9999 FEW040 14/10 Q1022
YBBN,2014-08-11 17:00,153.1292,-27.3917,57.20,50.00,76.82,170.00,8.00,0.00,30.18,M,6.21,M,M,M,M,M,M,M,M,M,M,YBBN 111700Z 17008KT CAVOK 14/10 Q1022 NOSIG
YBBN,2014-08-11 17:30,153.1292,-27.3917,53.60,48.20,81.87,200.00,6.00,0.00,30.18,M,6.21,M,M,M,M,M,M,M,M,M,M,YBBN 111730Z 20006KT CAVOK 12/09 Q1022
YBBN,2014-08-11 18:00,153.1292,-27.3917,53.60,48.20,81.87,190.00,6.00,0.00,30.18,M,6.21,M,M,M,M,M,M,M,M,M,M,YBBN 111800Z 19006KT CAVOK 12/09 Q1022 NOSIG
YBBN,2014-08-11 18:30,153.1292,-27.3917,53.60,48.20,81.87,200.00,6.00,0.00,30.18,M,6.21,M,M,M,M,M,M,M,M,M,M,YBBN 111830Z 20006KT CAVOK 12/09 Q1022
YBBN,2014-08-11 19:00,153.1292,-27.3917,53.60,48.20,81.87,190.00,6.00,0.00,30.18,M,6.21,M,M,M,M,M,M,M,M,M,M,YBBN 111900Z 19006KT CAVOK 12/09 Q1022 NOSIG
YBBN,2014-08-11 19:30,153.1292,-27.3917,51.80,48.20,87.47,200.00,6.00,0.00,30.18,M,6.21,M,M,M,M,M,M,M,M,M,M,YBBN 111930Z 20006KT CAVOK 11/09 Q1022
YBBN,2014-08-11 20:00,153.1292,-27.3917,51.80,48.20,87.47,190.00,6.00,0.00,30.21,M,6.21,M,M,M,M,M,M,M,M,M,M,YBBN 112000Z 19006KT CAVOK 11/09 Q1023 NOSIG
YBBN,2014-08-11 20:30,153.1292,-27.3917,51.80,48.20,87.47,200.00,7.00,0.00,30.21,M,6.21,M,M,M,M,M,M,M,M,M,M,YBBN 112030Z 20007KT CAVOK 11/09 Q1023
YBBN,2014-08-11 21:00,153.1292,-27.3917,53.60,48.20,81.87,200.00,7.00,0.00,30.21,M,6.21,M,M,M,M,M,M,M,M,M,M,YBBN 112100Z 20007KT CAVOK 12/09 Q1023 NOSIG
YBBN,2014-08-11 21:30,153.1292,-27.3917,55.40,50.00,81.99,200.00,7.00,0.00,30.24,M,6.21,M,M,M,M,M,M,M,M,M,M,YBBN 112130Z 20007KT CAVOK 13/10 Q1024 RMK FU
YBBN,2014-08-11 22:00,153.1292,-27.3917,59.00,48.20,67.33,190.00,7.00,0.00,30.24,M,6.21,M,FEW,M,M,M,4000.00,M,M,M,M,YBBN 112200Z 19007KT 9999 FEW040 15/09 Q1024
YBBN,2014-08-11 22:30,153.1292,-27.3917,60.80,50.00,67.54,160.00,7.00,0.00,30.24,M,6.21,M,FEW,M,M,M,4000.00,M,M,M,M,YBBN 112230Z 16007KT 9999 FEW040 16/10 Q1024 RMK FU
YBBN,2014-08-11 23:00,153.1292,-27.3917,64.40,50.00,59.50,160.00,8.00,0.00,30.27,M,6.21,M,FEW,M,M,M,3000.00,M,M,M,M,YBBN 112300Z 16008KT 9999 FEW030 18/10 Q1025 NOSIG
YBBN,2014-08-11 23:30,153.1292,-27.3917,66.20,50.00,55.88,130.00,9.00,0.00,30.27,M,6.21,M,FEW,M,M,M,3000.00,M,M,M,M,YBBN 112330Z 13009KT 9999 FEW030 19/10 Q1025
