#DEBUG: Format Typ    -> comma
#DEBUG: Time Period   -> 2013-06-11 00:00:00+00:00 2013-06-12 00:00:00+00:00
#DEBUG: Time Zone     -> Etc/UTC
#DEBUG: Data Contact   -> daryl herzmann akrherz@iastate.edu 515-294-5978
#DEBUG: Entries Found -> -1
station,valid,lon,lat,tmpf, dwpf, relh, drct, sknt, p01i, alti, mslp, vsby, gust, skyc1, skyc2, skyc3, skyc4, skyl1, skyl2, skyl3, skyl4, presentwx, metar
YBBN,2013-06-11 00:00,153.1292,-27.3917,66.20,62.60,88.18,250.00,7.00,0.00,30.12,M,6.21,M,FEW,BKN,M,M,2000.00,2800.00,M,M,M,YBBN 110000Z 25007KT 9999 FEW020 BKN028 19/17 Q1020 INTER 0000/0300 3000 SHRA BKN010
YBBN,2013-06-11 00:30,153.1292,-27.3917,68.00,62.60,82.86,240.00,5.00,0.00,30.12,M,6.21,M,SCT,BKN,M,M,1600.00,3200.00,M,M,M,YBBN 110030Z 24005KT 9999 SCT016 BKN032 20/17 Q1020
YBBN,2013-06-11 00:49,153.1292,-27.3917,66.20,62.60,88.18,210.00,2.00,0.00,30.12,M,3.11,M,BKN,M,M,M,1400.00,M,M,M,-SHRA,YBBN 110049Z 21002KT 5000 -SHRA BKN014 19/17 Q1020
YBBN,2013-06-11 01:00,153.1292,-27.3917,66.20,64.40,93.92,180.00,5.00,0.00,30.09,M,3.73,M,SCT,BKN,M,M,1400.00,2100.00,M,M,-SHRA,YBBN 110100Z 18005KT 6000 -SHRA SCT014 BKN021 19/18 Q1019
YBBN,2013-06-11 01:12,153.1292,-27.3917,68.00,64.40,88.26,190.00,4.00,0.00,30.09,M,6.21,M,FEW,SCT,BKN,M,900.00,1800.00,3600.00,M,VCSH,YBBN 110112Z 19004KT 9999 VCSH FEW009 SCT018 BKN036 20/18 Q1019
YBBN,2013-06-11 01:30,153.1292,-27.3917,68.00,62.60,82.86,0.00,0.00,0.00,30.09,M,6.21,M,FEW,SCT,BKN,M,1300.00,2500.00,3700.00,M,M,YBBN 110130Z 00000KT 9999 FEW013 SCT025 BKN037 20/17 Q1019
YBBN,2013-06-11 02:00,153.1292,-27.3917,68.00,64.40,88.26,0.00,0.00,0.00,30.09,M,6.21,M,SCT,M,M,M,2200.00,M,M,M,M,YBBN 110200Z 00000KT 9999 SCT022 20/18 Q1019 INTER 0200/0500 3000 SHRA BKN010
YBBN,2013-06-11 02:30,153.1292,-27.3917,71.60,62.60,73.27,0.00,0.00,0.00,30.06,M,6.21,M,SCT,M,M,M,2500.00,M,M,M,M,YBBN 110230Z 00000KT 9999 SCT025 22/17 Q1018
YBBN,2013-06-11 03:00,153.1292,-27.3917,71.60,64.40,78.04,60.00,2.00,0.00,30.06,M,6.21,M,SCT,M,M,M,2500.00,M,M,M,M,YBBN 110300Z 06002KT 9999 SCT025 22/18 Q1018 INTER 0300/0600 3000 SHRA BKN010
YBBN,2013-06-11 03:30,153.1292,-27.3917,71.60,62.60,73.27,M,M,0.00,30.03,M,6.21,M,FEW,SCT,M,M,2300.00,4300.00,M,M,M,YBBN 110330Z /////KT 9999 FEW023 SCT043 22/17 Q1017 RMK WIND DATA UNAVAILABLE
YBBN,2013-06-11 04:00,153.1292,-27.3917,71.60,62.60,73.27,40.00,3.00,0.00,30.03,M,6.21,M,SCT,M,M,M,2000.00,M,M,M,M,YBBN 110400Z 04003KT 9999 SCT020 22/17 Q1017 INTER 0400/0700 3000 SHRA BKN010
YBBN,2013-06-11 04:30,153.1292,-27.3917,71.60,62.60,73.27,50.00,5.00,0.00,30.03,M,6.21,M,FEW,SCT,M,M,2000.00,4500.00,M,M,M,YBBN 110430Z 05005KT 9999 FEW020 SCT045 22/17 Q1017
YBBN,2013-06-11 05:00,153.1292,-27.3917,71.60,60.80,68.75,60.00,5.00,0.00,30.03,M,6.21,M,FEW,SCT,M,M,2000.00,4700.00,M,M,M,YBBN 110500Z 06005KT 9999 FEW020 SCT047 22/16 Q1017
YBBN,2013-06-11 05:30,153.1292,-27.3917,69.80,62.60,77.90,60.00,5.00,0.00,30.03,M,6.21,M,FEW,SCT,M,M,2000.00,4900.00,M,M,M,YBBN 110530Z 06005KT 9999 FEW020 SCT049 21/17 Q1017
YBBN,2013-06-11 06:00,153.1292,-27.3917,68.00,62.60,82.86,60.00,6.00,0.00,30.03,M,6.21,M,FEW,SCT,M,M,2200.00,5100.00,M,M,M,YBBN 110600Z 06006KT 9999 FEW022 SCT051 20/17 Q1017 INTER 0600/0900 3000 SHRA BKN010
YBBN,2013-06-11 06:30,153.1292,-27.3917,68.00,62.60,82.86,60.00,6.00,0.00,30.03,M,6.21,M,FEW,BKN,M,M,2200.00,5500.00,M,M,M,YBBN 110630Z 06006KT 9999 FEW022 BKN055 20/17 Q1017
YBBN,2013-06-11 07:00,153.1292,-27.3917,68.00,62.60,82.86,60.00,5.00,0.00,30.03,M,6.21,M,FEW,BKN,M,M,2200.00,5500.00,M,M,VCSH,YBBN 110700Z 06005KT 9999 VCSH FEW022 BKN055 20/17 Q1017
YBBN,2013-06-11 07:30,153.1292,-27.3917,66.20,62.60,88.18,60.00,4.00,0.00,30.06,M,6.21,M,FEW,SCT,M,M,2200.00,5300.00,M,M,M,YBBN 110730Z 06004KT 9999 FEW022 SCT053 19/17 Q1018
YBBN,2013-06-11 08:00,153.1292,-27.3917,66.20,62.60,88.18,80.00,4.00,0.00,30.06,M,6.21,M,FEW,BKN,M,M,4300.00,5300.00,M,M,M,YBBN 110800Z 08004KT 9999 FEW043 BKN053 19/17 Q1018
YBBN,2013-06-11 08:30,153.1292,-27.3917,66.20,62.60,88.18,60.00,3.00,0.00,30.06,M,6.21,M,SCT,BKN,M,M,4500.00,5500.00,M,M,M,YBBN 110830Z 06003KT 9999 SCT045 BKN055 19/17 Q1018
YBBN,2013-06-11 09:00,153.1292,-27.3917,66.20,62.60,88.18,80.00,3.00,0.00,30.06,M,6.21,M,FEW,BKN,M,M,4500.00,8500.00,M,M,M,YBBN 110900Z 08003KT 9999 FEW045 BKN085 19/17 Q1018
YBBN,2013-06-11 09:30,153.1292,-27.3917,66.20,64.40,93.92,90.00,4.00,0.00,30.09,M,6.21,M,FEW,BKN,M,M,4500.00,5000.00,M,M,M,YBBN 110930Z 09004KT 9999 FEW045 BKN050 19/18 Q1019
YBBN,2013-06-11 10:00,153.1292,-27.3917,66.20,64.40,93.92,90.00,3.00,0.00,30.09,M,6.21,M,FEW,BKN,M,M,3000.00,5000.00,M,M,M,YBBN 111000Z 09003KT 9999 FEW030 BKN050 19/18 Q1019
YBBN,2013-06-11 10:30,153.1292,-27.3917,66.20,64.40,93.92,90.00,3.00,0.00,30.09,M,6.21,M,FEW,BKN,M,M,3500.00,5500.00,M,M,M,YBBN 111030Z 09003KT 9999 FEW035 BKN055 19/18 Q1019
YBBN,2013-06-11 11:00,153.1292,-27.3917,66.20,64.40,93.92,100.00,4.00,0.00,30.09,M,6.21,M,FEW,SCT,BKN,M,2300.00,2800.00,5000.00,M,M,YBBN 111100Z 10004KT 9999 FEW023 SCT028 BKN050 19/18 Q1019
YBBN,2013-06-11 11:30,153.1292,-27.3917,64.40,64.40,100.00,100.00,1.00,0.00,30.09,M,6.21,M,FEW,SCT,M,M,2700.00,4500.00,M,M,M,YBBN 111130Z 10001KT 9999 FEW027 SCT045 18/18 Q1019
YBBN,2013-06-11 12:00,153.1292,-27.3917,64.40,64.40,100.00,0.00,0.00,0.00,30.09,M,6.21,M,FEW,SCT,M,M,1400.00,1900.00,M,M,M,YBBN 111200Z 00000KT 9999 FEW014 SCT019 18/18 Q1019
YBBN,2013-06-11 12:30,153.1292,-27.3917,64.40,64.40,100.00,30.00,3.00,0.00,30.06,M,6.21,M,FEW,SCT,M,M,2000.00,4500.00,M,M,M,YBBN 111230Z 03003KT 9999 FEW020 SCT045 18/18 Q1018
YBBN,2013-06-11 13:00,153.1292,-27.3917,64.40,62.60,93.88,20.00,1.00,0.00,30.06,M,6.21,M,FEW,M,M,M,2000.00,M,M,M,M,YBBN 111300Z 02001KT 9999 FEW020 18/17 Q1018
YBBN,2013-06-11 13:30,153.1292,-27.3917,64.40,62.60,93.88,0.00,0.00,0.00,30.06,M,6.21,M,FEW,M,M,M,2300.00,M,M,M,M,YBBN 111330Z 00000KT 9999 FEW023 18/17 Q1018
YBBN,2013-06-11 14:00,153.1292,-27.3917,62.60,62.60,100.00,60.00,2.00,0.00,30.03,M,6.21,M,FEW,M,M,M,2500.00,M,M,M,M,YBBN 111400Z 06002KT 9999 FEW025 17/17 Q1017
YBBN,2013-06-11 14:30,153.1292,-27.3917,62.60,60.80,93.83,0.00,0.00,0.00,30.03,M,6.21,M,SCT,M,M,M,2500.00,M,M,M,M,YBBN 111430Z 00000KT 9999 SCT025 17/16 Q1017
YBBN,2013-06-11 15:00,153.1292,-27.3917,60.80,60.80,100.00,220.00,4.00,0.00,30.03,M,6.21,M,SCT,M,M,M,2500.00,M,M,M,M,YBBN 111500Z 22004KT 9999 SCT025 16/16 Q1017 TEMPO 1500/1800 3000 SHRA BKN008
YBBN,2013-06-11 15:30,153.1292,-27.3917,60.80,60.80,100.00,210.00,5.00,0.00,30.03,M,6.21,M,FEW,M,M,M,2500.00,M,M,M,M,YBBN 111530Z 21005KT 9999 FEW025 16/16 Q1017
YBBN,2013-06-11 16:00,153.1292,-27.3917,60.80,60.80,100.00,220.00,5.00,0.00,30.03,M,6.21,M,FEW,BKN,M,M,2500.00,4000.00,M,M,M,YBBN 111600Z 22005KT 9999 FEW025 BKN040 16/16 Q1017
YBBN,2013-06-11 16:30,153.1292,-27.3917,62.60,62.60,100.00,150.00,5.00,0.00,30.00,M,6.21,M,FEW,M,M,M,2500.00,M,M,M,M,YBBN 111630Z 15005KT 9999 FEW025 17/17 Q1016
YBBN,2013-06-11 16:57,153.1292,-27.3917,62.60,60.80,93.83,230.00,5.00,0.00,30.03,M,3.11,M,SCT,M,M,M,2200.00,M,M,M,BCFG,YBBN 111657Z AUTO 23005KT 5000 BCFG SCT022 17/16 Q1017
YBBN,2013-06-11 17:02,153.1292,-27.3917,62.60,62.60,100.00,230.00,4.00,0.00,30.03,M,6.21,M,FEW,SCT,M,M,2200.00,4500.00,M,M,VCFG,YBBN 111702Z 23004KT 9999 8000SW VCFG FEW022 SCT045 17/17 Q1017
YBBN,2013-06-11 17:30,153.1292,-27.3917,62.60,62.60,100.00,230.00,5.00,0.00,30.03,M,4.97,M,FEW,SCT,M,M,1800.00,2100.00,M,M,M,YBBN 111730Z 23005KT 8000 FEW018 SCT021 17/17 Q1017 RMK MIST
YBBN,2013-06-11 18:00,153.1292,-27.3917,62.60,62.60,100.00,180.00,4.00,0.00,30.00,M,5.59,M,FEW,M,M,M,2000.00,M,M,M,M,YBBN 111800Z 18004KT 9000 FEW020 17/17 Q1016
YBBN,2013-06-11 18:30,153.1292,-27.3917,62.60,62.60,100.00,210.00,5.00,0.00,30.00,M,4.97,M,FEW,BKN,M,M,2300.00,5500.00,M,M,M,YBBN 111830Z 21005KT 8000 FEW023 BKN055 17/17 Q1016 RMK MIST
YBBN,2013-06-11 19:00,153.1292,-27.3917,62.60,60.80,93.83,200.00,5.00,0.00,30.00,M,3.11,M,SCT,SCT,M,M,2300.00,6000.00,M,M,BR,YBBN 111900Z 20005KT 5000 BR SCT023 SCT060 17/16 Q1016
YBBN,2013-06-11 19:30,153.1292,-27.3917,62.60,60.80,93.83,190.00,5.00,0.00,30.00,M,3.11,M,FEW,SCT,M,M,2000.00,5500.00,M,M,BR,YBBN 111930Z 19005KT 5000 BR FEW020 SCT055 17/16 Q1016
YBBN,2013-06-11 20:00,153.1292,-27.3917,60.80,60.80,100.00,190.00,4.00,0.00,30.03,M,3.11,M,FEW,BKN,M,M,2500.00,6000.00,M,M,PRFG BR,YBBN 112000Z 19004KT 5000 2500SW PRFG BR FEW025 BKN060 16/16 Q1017
YBBN,2013-06-11 20:06,153.1292,-27.3917,60.80,60.80,100.00,190.00,4.00,0.00,30.03,M,3.11,M,SCT,BKN,M,M,2500.00,6000.00,M,M,PRFG BR,YBBN 112006Z 19004KT 5000 1500S PRFG BR SCT025 BKN060 16/16 Q1017
YBBN,2013-06-11 20:30,153.1292,-27.3917,62.60,62.60,100.00,210.00,5.00,0.00,30.03,M,2.49,M,SCT,BKN,M,M,2500.00,6000.00,M,M,PRFG BR,YBBN 112030Z 21005KT 4000 1500S PRFG BR SCT025 BKN060 17/17 Q1017
YBBN,2013-06-11 21:00,153.1292,-27.3917,62.60,62.60,100.00,190.00,5.00,0.00,30.03,M,0.50,M,SCT,SCT,M,M,2500.00,6000.00,M,M,FG,YBBN 112100Z 19005KT 0800 FG SCT025 SCT060 17/17 Q1017
YBBN,2013-06-11 21:30,153.1292,-27.3917,62.60,62.60,100.00,190.00,5.00,0.00,30.03,M,3.11,M,FEW,SCT,M,M,2500.00,6000.00,M,M,BR,YBBN 112130Z 19005KT 5000 BR FEW025 SCT060 17/17 Q1017
YBBN,2013-06-11 22:00,153.1292,-27.3917,64.40,62.60,93.88,200.00,4.00,0.00,30.03,M,4.97,M,FEW,BKN,M,M,3000.00,6000.00,M,M,M,YBBN 112200Z 20004KT 8000 FEW030 BKN060 18/17 Q1017
YBBN,2013-06-11 22:30,153.1292,-27.3917,64.40,62.60,93.88,200.00,5.00,0.00,30.03,M,2.49,M,SCT,BKN,M,M,2500.00,6000.00,M,M,DZ BR,YBBN 112230Z 20005KT 4000 DZ BR SCT025 BKN060 18/17 Q1017
YBBN,2013-06-11 23:00,153.1292,-27.3917,64.40,64.40,100.00,210.00,5.00,0.00,30.06,M,3.11,M,FEW,SCT,OVC,M,1500.00,1700.00,6000.00,M,-DZ,YBBN 112300Z 21005KT 5000 -DZ FEW015 SCT017 OVC060 18/18 Q1018
YBBN,2013-06-11 23:21,153.1292,-27.3917,64.40,64.40,100.00,210.00,6.00,0.00,30.06,M,4.97,M,FEW,BKN,BKN,M,1500.00,3000.00,6000.00,M,-DZ,YBBN 112321Z 21006KT 8000 -DZ FEW015 BKN030 BKN060 18/18 Q1018
YBBN,2013-06-11 23:30,153.1292,-27.3917,64.40,64.40,100.00,200.00,5.00,0.00,30.06,M,4.97,M,FEW,SCT,BKN,M,1500.00,2500.00,7000.00,M,-RA,YBBN 112330Z 20005KT 8000 -RA FEW015 SCT025 BKN070 18/18 Q1018
