#DEBUG: Format Typ    -> comma
#DEBUG: Time Period   -> 2012-02-07 00:00:00+00:00 2012-02-08 00:00:00+00:00
#DEBUG: Time Zone     -> Etc/UTC
#DEBUG: Data Contact   -> daryl herzmann akrherz@iastate.edu 515-294-5978
#DEBUG: Entries Found -> -1
station,valid,lon,lat,tmpf, dwpf, relh, drct, sknt, p01i, alti, mslp, vsby, gust, skyc1, skyc2, skyc3, skyc4, skyl1, skyl2, skyl3, skyl4, presentwx, metar
YBBN,2012-02-07 00:00,153.1292,-27.3917,82.40,69.80,65.74,90.00,7.00,0.00,29.68,M,6.21,M,FEW,M,M,M,2400.00,M,M,M,M,YBBN 070000Z 09007KT 9999 FEW024 28/21 Q1005 NOSIG
YBBN,2012-02-07 00:30,153.1292,-27.3917,82.40,69.80,65.74,100.00,8.00,0.00,29.68,M,6.21,M,SCT,M,M,M,2500.00,M,M,M,M,YBBN 070030Z 10008KT 9999 SCT025 28/21 Q1005
YBBN,2012-02-07 01:00,153.1292,-27.3917,82.40,68.00,61.81,100.00,9.00,0.00,29.65,M,6.21,M,FEW,SCT,M,M,2800.00,4000.00,M,M,M,YBBN 070100Z 10009KT 9999 FEW028 SCT040 28/20 Q1004
YBBN,2012-02-07 01:30,153.1292,-27.3917,84.20,68.00,58.32,100.00,9.00,0.00,29.65,M,6.21,M,FEW,SCT,M,M,2800.00,4000.00,M,M,M,YBBN 070130Z 10009KT 9999 FEW028 SCT040 29/20 Q1004
YBBN,2012-02-07 02:00,153.1292,-27.3917,82.40,68.00,61.81,90.00,9.00,0.00,29.65,M,6.21,M,FEW,M,M,M,2800.00,M,M,M,M,YBBN 070200Z 09009KT 9999 FEW028 28/20 Q1004 NOSIG
YBBN,2012-02-07 02:30,153.1292,-27.3917,82.40,68.00,61.81,90.00,10.00,0.00,29.65,M,6.21,M,FEW,M,M,M,3000.00,M,M,M,M,YBBN 070230Z 09010KT 9999 FEW030 28/20 Q1004
YBBN,2012-02-07 03:00,153.1292,-27.3917,82.40,68.00,61.81,90.00,9.00,0.00,29.62,M,6.21,M,FEW,M,M,M,3000.00,M,M,M,M,YBBN 070300Z 09009KT 9999 FEW030 28/20 Q1003 NOSIG
YBBN,2012-02-07 03:30,153.1292,-27.3917,82.40,69.80,65.74,90.00,9.00,0.00,29.62,M,6.21,M,FEW,M,M,M,3000.00,M,M,M,M,YBBN 070330Z 09009KT 9999 FEW030 28/21 Q1003
YBBN,2012-02-07 04:00,153.1292,-27.3917,84.20,68.00,58.32,80.00,11.00,0.00,29.59,M,6.21,M,FEW,M,M,M,3000.00,M,M,M,M,YBBN 070400Z 08011KT 9999 FEW030 29/20 Q1002
YBBN,2012-02-07 04:30,153.1292,-27.3917,84.20,69.80,62.03,90.00,9.00,0.00,29.59,M,6.21,M,FEW,M,M,M,3000.00,M,M,M,M,YBBN 070430Z 09009KT 9999 FEW030 29/21 Q1002
YBBN,2012-02-07 05:00,153.1292,-27.3917,84.20,71.60,65.95,60.00,10.00,0.00,29.59,M,6.21,M,FEW,M,M,M,3000.00,M,M,M,M,YBBN 070500Z 06010KT 9999 FEW030 29/22 Q1002
YBBN,2012-02-07 05:30,153.1292,-27.3917,82.40,68.00,61.81,70.00,9.00,0.00,29.59,M,6.21,M,FEW,M,M,M,3000.00,M,M,M,M,YBBN 070530Z 07009KT 9999 FEW030 28/20 Q1002
YBBN,2012-02-07 06:00,153.1292,-27.3917,82.40,68.00,61.81,70.00,8.00,0.00,29.59,M,6.21,M,FEW,M,M,M,3000.00,M,M,M,M,YBBN 070600Z 07008KT 9999 FEW030 28/20 Q1002 NOSIG
YBBN,2012-02-07 06:30,153.1292,-27.3917,80.60,68.00,65.54,100.00,5.00,0.00,29.62,M,6.21,M,FEW,SCT,M,M,3000.00,4000.00,M,M,M,YBBN 070630Z 10005KT 9999 FEW030 SCT040 27/20 Q1003
YBBN,2012-02-07 07:00,153.1292,-27.3917,82.40,68.00,61.81,100.00,6.00,0.00,29.62,M,6.21,M,FEW,BKN,M,M,3000.00,4000.00,M,M,M,YBBN 070700Z 10006KT 9999 FEW030 BKN040 28/20 Q1003 INTER 0800/1000 3000 SHRA BKN012
YBBN,2012-02-07 07:30,153.1292,-27.3917,80.60,69.80,69.71,100.00,5.00,0.00,29.62,M,6.21,M,FEW,SCT,M,M,3000.00,26000.00,M,M,M,YBBN 070730Z 10005KT 9999 FEW030 SCT260 27/21 Q1003
YBBN,2012-02-07 08:00,153.1292,-27.3917,78.80,64.40,61.36,10.00,4.00,0.00,29.65,M,5.59,18.00,FEW,SCT,M,M,1800.00,3400.00,M,M,-SHRA,YBBN 070800Z 01004G18KT 9000 -SHRA FEW018 SCT034 26/18 Q1004
YBBN,2012-02-07 08:30,153.1292,-27.3917,73.40,64.40,73.44,260.00,7.00,0.00,29.68,M,6.21,M,FEW,SCT,BKN,M,2000.00,5000.00,26000.00,M,VCSH,YBBN 070830Z 26007KT 9999 VCSH FEW020 SCT050 BKN260 23/18 Q1005
YBBN,2012-02-07 09:00,153.1292,-27.3917,71.60,64.40,78.04,260.00,5.00,0.00,29.68,M,6.21,M,FEW,BKN,M,M,2000.00,15000.00,M,M,M,YBBN 070900Z 26005KT 9999 FEW020 BKN150 22/18 Q1005 NOSIG
YBBN,2012-02-07 09:30,153.1292,-27.3917,73.40,64.40,73.44,170.00,4.00,0.00,29.65,M,6.21,M,FEW,BKN,M,M,2000.00,14000.00,M,M,M,YBBN 070930Z 17004KT 9999 FEW020 BKN140 23/18 Q1004
YBBN,2012-02-07 10:00,153.1292,-27.3917,73.40,66.20,78.19,170.00,4.00,0.00,29.68,M,6.21,M,FEW,BKN,M,M,2000.00,14000.00,M,M,M,YBBN 071000Z 17004KT 9999 FEW020 BKN140 23/19 Q1005
YBBN,2012-02-07 10:30,153.1292,-27.3917,75.20,68.00,78.34,200.00,3.00,0.00,29.68,M,6.21,M,FEW,BKN,M,M,2000.00,13000.00,M,M,-RA,YBBN 071030Z 20003KT 9999 -RA FEW020 BKN130 24/20 Q1005
YBBN,2012-02-07 11:00,153.1292,-27.3917,75.20,68.00,78.34,80.00,3.00,0.00,29.68,M,6.21,M,FEW,SCT,BKN,M,2000.00,2500.00,13000.00,M,M,YBBN 071100Z 08003KT 9999 FEW020 SCT025 BKN130 24/20 Q1005
YBBN,2012-02-07 11:30,153.1292,-27.3917,77.00,69.80,78.48,70.00,4.00,0.00,29.68,M,6.21,M,FEW,BKN,M,M,2000.00,13000.00,M,M,M,YBBN 071130Z 07004KT 9999 FEW020 BKN130 25/21 Q1005
YBBN,2012-02-07 12:00,153.1292,-27.3917,77.00,69.80,78.48,90.00,9.00,0.00,29.68,M,6.21,M,FEW,BKN,M,M,1800.00,2400.00,M,M,M,YBBN 071200Z 09009KT 9999 FEW018 BKN024 25/21 Q1005 NOSIG
YBBN,2012-02-07 12:30,153.1292,-27.3917,77.00,69.80,78.48,100.00,6.00,0.00,29.68,M,6.21,M,FEW,BKN,M,M,1700.00,2000.00,M,M,M,YBBN 071230Z 10006KT 9999 FEW017 BKN020 25/21 Q1005
YBBN,2012-02-07 13:00,153.1292,-27.3917,77.00,69.80,78.48,130.00,6.00,0.00,29.68,M,6.21,M,FEW,BKN,M,M,1700.00,2000.00,M,M,M,YBBN 071300Z 13006KT 9999 FEW017 BKN020 25/21 Q1005
YBBN,2012-02-07 13:30,153.1292,-27.3917,73.40,68.00,83.21,300.00,5.00,0.00,29.68,M,6.21,M,FEW,BKN,M,M,1700.00,2000.00,M,M,M,YBBN 071330Z 30005KT 9999 FEW017 BKN020 23/20 Q1005
YBBN,2012-02-07 14:00,153.1292,-27.3917,73.40,69.80,88.51,300.00,5.00,0.00,29.68,M,6.21,M,FEW,BKN,M,M,1600.00,2000.00,M,M,M,YBBN 071400Z 30005KT 9999 FEW016 BKN020 23/21 Q1005
YBBN,2012-02-07 14:30,153.1292,-27.3917,73.40,69.80,88.51,300.00,5.00,0.00,29.68,M,6.21,M,FEW,BKN,M,M,2000.00,18000.00,M,M,M,YBBN 071430Z 30005KT 9999 FEW020 BKN180 23/21 Q1005
YBBN,2012-02-07 15:00,153.1292,-27.3917,73.40,69.80,88.51,0.00,0.00,0.00,29.65,M,6.21,M,FEW,BKN,M,M,1600.00,18000.00,M,M,M,YBBN 071500Z 00000KT 9999 FEW016 BKN180 23/21 Q1004 NOSIG
YBBN,2012-02-07 15:30,153.1292,-27.3917,73.40,69.80,88.51,220.00,6.00,0.00,29.65,M,6.21,M,FEW,BKN,M,M,1600.00,18000.00,M,M,M,YBBN 071530Z 22006KT 9999 FEW016 BKN180 23/21 Q1004
YBBN,2012-02-07 16:00,153.1292,-27.3917,73.40,69.80,88.51,230.00,5.00,0.00,29.65,M,6.21,M,FEW,BKN,M,M,2000.00,18000.00,M,M,M,YBBN 071600Z 23005KT 9999 FEW020 BKN180 23/21 Q1004 NOSIG
YBBN,2012-02-07 16:30,153.1292,-27.3917,71.60,69.80,94.06,220.00,7.00,0.00,29.65,M,6.21,M,FEW,BKN,M,M,2000.00,18000.00,M,M,M,YBBN 071630Z 22007KT 9999 FEW020 BKN180 22/21 Q1004
YBBN,2012-02-07 17:00,153.1292,-27.3917,71.60,69.80,94.06,210.00,8.00,0.00,29.65,M,6.21,M,BKN,BKN,M,M,2300.00,18000.00,M,M,M,YBBN 071700Z 21008KT 9999 BKN023 BKN180 22/21 Q1004
YBBN,2012-02-07 17:30,153.1292,-27.3917,71.60,69.80,94.06,210.00,6.00,0.00,29.65,M,6.21,M,FEW,BKN,M,M,2000.00,17000.00,M,M,M,YBBN 071730Z 21006KT 9999 FEW020 BKN170 22/21 Q1004
YBBN,2012-02-07 18:00,153.1292,-27.3917,71.60,68.00,88.43,200.00,5.00,0.00,29.65,M,6.21,M,FEW,BKN,M,M,2000.00,18000.00,M,M,M,YBBN 071800Z 20005KT 9999 FEW020 BKN180 22/20 Q1004 NOSIG
YBBN,2012-02-07 18:30,153.1292,-27.3917,71.60,68.00,88.43,210.00,6.00,0.00,29.65,M,6.21,M,FEW,BKN,M,M,2000.00,18000.00,M,M,M,YBBN 071830Z 21006KT 9999 FEW020 BKN180 22/20 Q1004
YBBN,2012-02-07 19:00,153.1292,-27.3917,71.60,68.00,88.43,210.00,6.00,0.00,29.68,M,6.21,M,FEW,BKN,M,M,2000.00,18000.00,M,M,M,YBBN 071900Z 21006KT 9999 FEW020 BKN180 22/20 Q1005 NOSIG
YBBN,2012-02-07 19:30,153.1292,-27.3917,71.60,68.00,88.43,200.00,5.00,0.00,29.68,M,6.21,M,FEW,BKN,M,M,2000.00,18000.00,M,M,M,YBBN 071930Z 20005KT 9999 FEW020 BKN180 22/20 Q1005
YBBN,2012-02-07 20:00,153.1292,-27.3917,71.60,68.00,88.43,210.00,7.00,0.00,29.68,M,6.21,M,FEW,BKN,M,M,2000.00,20000.00,M,M,M,YBBN 072000Z 21007KT 9999 FEW020 BKN200 22/20 Q1005
YBBN,2012-02-07 20:30,153.1292,-27.3917,73.40,68.00,83.21,210.00,7.00,0.00,29.68,M,6.21,M,FEW,BKN,M,M,2000.00,21000.00,M,M,M,YBBN 072030Z 21007KT 9999 FEW020 BKN210 23/20 Q1005
YBBN,2012-02-07 21:00,153.1292,-27.3917,73.40,69.80,88.51,210.00,8.00,0.00,29.68,M,6.21,M,FEW,BKN,M,M,2000.00,22000.00,M,M,M,YBBN 072100Z 21008KT 9999 FEW020 BKN220 23/21 Q1005
YBBN,2012-02-07 21:30,153.1292,-27.3917,75.20,68.00,78.34,210.00,9.00,0.00,29.71,M,6.21,M,FEW,BKN,M,M,2000.00,22000.00,M,M,M,YBBN 072130Z 21009KT 9999 FEW020 BKN220 24/20 Q1006
YBBN,2012-02-07 22:00,153.1292,-27.3917,77.00,69.80,78.48,220.00,9.00,0.00,29.71,M,6.21,M,FEW,SCT,M,M,2000.00,22000.00,M,M,M,YBBN 072200Z 22009KT 9999 FEW020 SCT220 25/21 Q1006 NOSIG
YBBN,2012-02-07 22:30,153.1292,-27.3917,78.80,68.00,69.52,210.00,8.00,0.00,29.71,M,6.21,M,FEW,SCT,M,M,2000.00,22000.00,M,M,M,YBBN 072230Z 21008KT 9999 FEW020 SCT220 26/20 Q1006
YBBN,2012-02-07 23:00,153.1292,-27.3917,78.80,66.20,65.33,210.00,7.00,0.00,29.74,M,6.21,M,FEW,SCT,M,M,2600.00,22000.00,M,M,M,YBBN 072300Z 21007KT 9999 FEW026 SCT220 26/19 Q1007 NOSIG
YBBN,2012-02-07 23:30,153.1292,-27.3917,80.60,66.20,61.58,190.00,6.00,0.00,29.74,M,6.21,M,SCT,SCT,M,M,2500.00,5500.00,M,M,M,YBBN 072330Z 19006KT 9999 SCT025 SCT055 27/19 Q1007
