#DEBUG: Format Typ    -> comma
#DEBUG: Time Period   -> 2014-03-22 00:00:00+00:00 2014-03-23 00:00:00+00:00
#DEBUG: Time Zone     -> Etc/UTC
#DEBUG: Data Contact   -> daryl herzmann akrherz@iastate.edu 515-294-5978
#DEBUG: Entries Found -> -1
station,valid,lon,lat,tmpf, dwpf, relh, drct, sknt, p01i, alti, mslp, vsby, gust, skyc1, skyc2, skyc3, skyc4, skyl1, skyl2, skyl3, skyl4, presentwx, metar
YBBN,2014-03-22 00:00,153.1292,-27.3917,78.80,66.20,65.33,110.00,7.00,0.00,30.06,M,6.21,M,SCT,M,M,M,2500.00,M,M,M,VCSH,YBBN 220000Z 11007KT 9999 VCSH SCT025TCU 26/19 Q1018
YBBN,2014-03-22 00:30,153.1292,-27.3917,78.80,64.40,61.36,110.00,7.00,0.00,30.06,M,6.21,M,FEW,SCT,M,M,2800.00,7000.00,M,M,VCSH,YBBN 220030Z 11007KT 9999 VCSH FEW028 SCT070 26/18 Q1018
YBBN,2014-03-22 01:00,153.1292,-27.3917,78.80,64.40,61.36,70.00,8.00,0.00,30.03,M,6.21,M,FEW,SCT,BKN,M,2800.00,5000.00,7000.00,M,VCSH,YBBN 220100Z 07008KT 9999 VCSH FEW028 SCT050 BKN070 26/18 Q1017
YBBN,2014-03-22 01:30,153.1292,-27.3917,77.00,64.40,65.12,70.00,9.00,0.00,30.03,M,6.21,M,FEW,SCT,BKN,M,2800.00,6000.00,9000.00,M,VCSH,YBBN 220130Z 07009KT 9999 VCSH FEW028 SCT060 BKN090 25/18 Q1017
YBBN,2014-03-22 02:00,153.1292,-27.3917,78.80,62.60,57.60,60.00,7.00,0.00,30.03,M,6.21,M,FEW,BKN,M,M,1500.00,8000.00,M,M,VCSH,YBBN 220200Z 06007KT 9999 VCSH FEW015 BKN080 26/17 Q1017
YBBN,2014-03-22 02:30,153.1292,-27.3917,78.80,64.40,61.36,80.00,8.00,0.00,30.00,M,6.21,M,FEW,SCT,BKN,M,2800.00,6500.00,10500.00,M,VCSH,YBBN 220230Z 08008KT 9999 VCSH FEW028 SCT065 BKN105 26/18 Q1016
YBBN,2014-03-22 03:00,153.1292,-27.3917,80.60,64.40,57.84,90.00,8.00,0.00,30.00,M,6.21,M,FEW,M,M,M,2800.00,M,M,M,M,YBBN 220300Z 09008KT 9999 FEW028 27/18 Q1016
YBBN,2014-03-22 03:30,153.1292,-27.3917,80.60,62.60,54.30,80.00,9.00,0.00,30.00,M,6.21,M,FEW,SCT,M,M,2800.00,8500.00,M,M,M,YBBN 220330Z 08009KT 9999 FEW028 SCT085 27/17 Q1016
YBBN,2014-03-22 04:00,153.1292,-27.3917,80.60,64.40,57.84,90.00,8.00,0.00,29.97,M,6.21,M,FEW,M,M,M,3000.00,M,M,M,M,YBBN 220400Z 09008KT 9999 FEW030 27/18 Q1015
YBBN,2014-03-22 04:30,153.1292,-27.3917,80.60,66.20,61.58,80.00,9.00,0.00,29.97,M,6.21,M,FEW,M,M,M,3000.00,M,M,M,M,YBBN 220430Z 08009KT 9999 FEW030 27/19 Q1015
YBBN,2014-03-22 05:00,153.1292,-27.3917,80.60,66.20,61.58,50.00,11.00,0.00,29.97,M,6.21,M,FEW,M,M,M,3000.00,M,M,M,M,YBBN 220500Z 05011KT 9999 FEW030 27/19 Q1015 NOSIG
YBBN,2014-03-22 05:30,153.1292,-27.3917,78.80,66.20,65.33,70.00,9.00,0.00,29.97,M,6.21,M,FEW,M,M,M,3000.00,M,M,M,M,YBBN 220530Z 07009KT 9999 FEW030 26/19 Q1015
YBBN,2014-03-22 06:00,153.1292,-27.3917,78.80,66.20,65.33,60.00,11.00,0.00,29.97,M,6.21,M,FEW,M,M,M,2800.00,M,M,M,M,YBBN 220600Z 06011KT 9999 FEW028 26/19 Q1015
YBBN,2014-03-22 06:30,153.1292,-27.3917,78.80,64.40,61.36,60.00,9.00,0.00,29.97,M,6.21,M,FEW,M,M,M,2600.00,M,M,M,M,YBBN 220630Z 06009KT 9999 FEW026 26/18 Q1015
YBBN,2014-03-22 07:00,153.1292,-27.3917,77.00,64.40,65.12,60.00,10.00,0.00,30.00,M,6.21,M,FEW,M,M,M,2600.00,M,M,M,M,YBBN 220700Z 06010KT 9999 FEW026 25/18 Q1016
YBBN,2014-03-22 07:30,153.1292,-27.3917,77.00,64.40,65.12,60.00,9.00,0.00,30.00,M,6.21,M,FEW,M,M,M,2600.00,M,M,M,M,YBBN 220730Z 06009KT 9999 FEW026 25/18 Q1016
YBBN,2014-03-22 08:00,153.1292,-27.3917,75.20,64.40,69.14,60.00,9.00,0.00,30.00,M,6.21,M,FEW,M,M,M,2500.00,M,M,M,M,YBBN 220800Z 06009KT 9999 FEW025 24/18 Q1016 NOSIG
YBBN,2014-03-22 08:30,153.1292,-27.3917,75.20,64.40,69.14,80.00,6.00,0.00,30.00,M,6.21,M,FEW,M,M,M,2800.00,M,M,M,M,YBBN 220830Z 08006KT 9999 FEW028 24/18 Q1016
YBBN,2014-03-22 09:00,153.1292,-27.3917,75.20,64.40,69.14,90.00,6.00,0.00,30.00,M,6.21,M,FEW,M,M,M,2800.00,M,M,M,M,YBBN 220900Z 09006KT 9999 FEW028 24/18 Q1016 NOSIG
YBBN,2014-03-22 09:30,153.1292,-27.3917,75.20,64.40,69.14,90.00,5.00,0.00,30.03,M,6.21,M,FEW,M,M,M,2800.00,M,M,M,M,YBBN 220930Z 09005KT 9999 FEW028 24/18 Q1017
YBBN,2014-03-22 10:00,153.1292,-27.3917,75.20,66.20,73.61,90.00,5.00,0.00,30.03,M,6.21,M,FEW,M,M,M,2400.00,M,M,M,M,YBBN 221000Z 09005KT 9999 FEW024 24/19 Q1017 NOSIG
YBBN,2014-03-22 10:30,153.1292,-27.3917,75.20,66.20,73.61,90.00,4.00,0.00,30.03,M,6.21,M,FEW,M,M,M,2400.00,M,M,M,M,YBBN 221030Z 09004KT 9999 FEW024 24/19 Q1017
YBBN,2014-03-22 11:00,153.1292,-27.3917,75.20,66.20,73.61,100.00,5.00,0.00,30.03,M,6.21,M,FEW,M,M,M,2500.00,M,M,M,M,YBBN 221100Z 10005KT 9999 FEW025 24/19 Q1017
YBBN,2014-03-22 11:30,153.1292,-27.3917,73.40,64.40,73.44,110.00,4.00,0.00,30.03,M,6.21,M,FEW,M,M,M,2500.00,M,M,M,M,YBBN 221130Z 11004KT 9999 FEW025 23/18 Q1017
YBBN,2014-03-22 12:00,153.1292,-27.3917,73.40,64.40,73.44,100.00,4.00,0.00,30.03,M,6.21,M,FEW,M,M,M,2400.00,M,M,M,M,YBBN 221200Z 10004KT 9999 FEW024 23/18 Q1017 NOSIG
YBBN,2014-03-22 12:30,153.1292,-27.3917,73.40,66.20,78.19,100.00,4.00,0.00,30.03,M,6.21,M,FEW,M,M,M,1400.00,M,M,M,M,YBBN 221230Z 10004KT 9999 FEW014 23/19 Q1017
YBBN,2014-03-22 13:00,153.1292,-27.3917,73.40,66.20,78.19,100.00,4.00,0.00,30.03,M,6.21,M,FEW,M,M,M,2400.00,M,M,M,M,YBBN 221300Z 10004KT 9999 FEW024 23/19 Q1017 NOSIG
YBBN,2014-03-22 13:30,153.1292,-27.3917,73.40,66.20,78.19,90.00,4.00,0.00,30.03,M,6.21,M,SCT,M,M,M,2400.00,M,M,M,M,YBBN 221330Z 09004KT 9999 SCT024 23/19 Q1017
YBBN,2014-03-22 14:00,153.1292,-27.3917,73.40,66.20,78.19,110.00,5.00,0.00,30.03,M,6.21,M,FEW,M,M,M,2200.00,M,M,M,M,YBBN 221400Z 11005KT 9999 FEW022 23/19 Q1017
YBBN,2014-03-22 14:30,153.1292,-27.3917,71.60,66.20,83.09,120.00,3.00,0.00,30.03,M,6.21,M,FEW,M,M,M,2400.00,M,M,M,M,YBBN 221430Z 12003KT 9999 FEW024 22/19 Q1017
YBBN,2014-03-22 15:00,153.1292,-27.3917,69.80,66.20,88.34,120.00,1.00,0.00,30.00,M,6.21,M,SCT,M,M,M,2500.00,M,M,M,M,YBBN 221500Z 12001KT 9999 SCT025 21/19 Q1016 NOSIG
YBBN,2014-03-22 15:30,153.1292,-27.3917,69.80,66.20,88.34,170.00,4.00,0.00,30.00,M,6.21,M,FEW,M,M,M,2500.00,M,M,M,M,YBBN 221530Z 17004KT 9999 FEW025 21/19 Q1016
YBBN,2014-03-22 16:00,153.1292,-27.3917,69.80,66.20,88.34,210.00,4.00,0.00,30.00,M,6.21,M,FEW,M,M,M,1800.00,M,M,M,M,YBBN 221600Z 21004KT 9999 FEW018 21/19 Q1016 NOSIG
YBBN,2014-03-22 16:30,153.1292,-27.3917,68.00,66.20,93.97,200.00,5.00,0.00,29.97,M,6.21,M,FEW,M,M,M,2000.00,M,M,M,M,YBBN 221630Z 20005KT 9999 FEW020 20/19 Q1015
YBBN,2014-03-22 17:00,153.1292,-27.3917,68.00,64.40,88.26,210.00,5.00,0.00,29.97,M,6.21,M,FEW,M,M,M,2000.00,M,M,M,M,YBBN 221700Z 21005KT 9999 FEW020 20/18 Q1015 NOSIG
YBBN,2014-03-22 17:30,153.1292,-27.3917,68.00,64.40,88.26,200.00,5.00,0.00,29.97,M,6.21,M,FEW,M,M,M,2200.00,M,M,M,M,YBBN 221730Z 20005KT 9999 FEW022 20/18 Q1015
YBBN,2014-03-22 18:00,153.1292,-27.3917,66.20,64.40,93.92,200.00,5.00,0.00,29.97,M,6.21,M,FEW,M,M,M,2200.00,M,M,M,M,YBBN 221800Z 20005KT 9999 FEW022 19/18 Q1015
YBBN,2014-03-22 18:30,153.1292,-27.3917,66.20,64.40,93.92,190.00,5.00,0.00,29.97,M,6.21,M,FEW,M,M,M,2500.00,M,M,M,M,YBBN 221830Z 19005KT 9999 FEW025 19/18 Q1015
YBBN,2014-03-22 19:00,153.1292,-27.3917,66.20,64.40,93.92,200.00,5.00,0.00,30.00,M,6.21,M,FEW,M,M,M,2400.00,M,M,M,M,YBBN 221900Z 20005KT 9999 FEW024 19/18 Q1016 NOSIG
YBBN,2014-03-22 19:30,153.1292,-27.3917,66.20,64.40,93.92,190.00,5.00,0.00,30.00,M,6.21,M,FEW,M,M,M,2600.00,M,M,M,M,YBBN 221930Z 19005KT 9999 FEW026 19/18 Q1016
YBBN,2014-03-22 20:00,153.1292,-27.3917,66.20,64.40,93.92,200.00,6.00,0.00,30.00,M,6.21,M,FEW,SCT,M,M,2500.00,24000.00,M,M,M,YBBN 222000Z 20006KT 9999 FEW025 SCT240 19/18 Q1016 NOSIG
YBBN,2014-03-22 20:30,153.1292,-27.3917,66.20,64.40,93.92,200.00,7.00,0.00,30.00,M,6.21,M,FEW,SCT,M,M,2500.00,27000.00,M,M,M,YBBN 222030Z 20007KT 9999 FEW025 SCT270 19/18 Q1016
YBBN,2014-03-22 21:00,153.1292,-27.3917,69.80,64.40,82.98,200.00,8.00,0.00,30.03,M,6.21,M,FEW,SCT,M,M,2500.00,27000.00,M,M,M,YBBN 222100Z 20008KT 9999 FEW025 SCT270 21/18 Q1017
YBBN,2014-03-22 21:30,153.1292,-27.3917,71.60,64.40,78.04,200.00,8.00,0.00,30.03,M,6.21,M,FEW,BKN,M,M,2500.00,27000.00,M,M,M,YBBN 222130Z 20008KT 9999 FEW025 BKN270 22/18 Q1017
YBBN,2014-03-22 22:00,153.1292,-27.3917,73.40,64.40,73.44,200.00,8.00,0.00,30.03,M,6.21,M,FEW,BKN,M,M,2500.00,27000.00,M,M,M,YBBN 222200Z 20008KT 9999 FEW025 BKN270 23/18 Q1017
YBBN,2014-03-22 22:30,153.1292,-27.3917,75.20,64.40,69.14,210.00,8.00,0.00,30.06,M,6.21,M,SCT,BKN,M,M,2900.00,27000.00,M,M,M,YBBN 222230Z 21008KT 9999 SCT029 BKN270 24/18 Q1018
YBBN,2014-03-22 23:00,153.1292,-27.3917,77.00,66.20,69.33,170.00,5.00,0.00,30.06,M,6.21,M,SCT,BKN,M,M,2300.00,27000.00,M,M,M,YBBN 222300Z 17005KT 9999 SCT023 BKN270 25/19 Q1018 NOSIG
YBBN,2014-03-22 23:30,153.1292,-27.3917,78.80,64.40,61.36,110.00,5.00,0.00,30.06,M,6.21,M,SCT,BKN,M,M,2300.00,27000.00,M,M,M,YBBN 222330Z 11005KT 9999 SCT023 BKN270 26/18 Q1018
