#DEBUG: Format Typ    -> comma
#DEBUG: Time Period   -> 2012-03-19 00:00:00+00:00 2012-03-20 00:00:00+00:00
#DEBUG: Time Zone     -> Etc/UTC
#DEBUG: Data Contact   -> daryl herzmann akrherz@iastate.edu 515-294-5978
#DEBUG: Entries Found -> -1
station,valid,lon,lat,tmpf, dwpf, relh, drct, sknt, p01i, alti, mslp, vsby, gust, skyc1, skyc2, skyc3, skyc4, skyl1, skyl2, skyl3, skyl4, presentwx, metar
YBBN,2012-03-19 00:00,153.1292,-27.3917,77.00,64.40,65.12,170.00,12.00,0.00,29.97,M,6.21,M,FEW,SCT,M,M,2000.00,2600.00,M,M,VCSH,YBBN 190000Z 17012KT 9999 VCSH FEW020 SCT026 25/18 Q1015 NOSIG
YBBN,2012-03-19 00:30,153.1292,-27.3917,77.00,64.40,65.12,170.00,12.00,0.00,29.97,M,5.59,M,FEW,SCT,BKN,M,2200.00,2600.00,5400.00,M,-SHRA VCSH,YBBN 190030Z 17012KT 9000 -SHRA VCSH FEW022 SCT026 BKN054 25/18 Q1015 RMK SH S/SE
YBBN,2012-03-19 00:49,153.1292,-27.3917,75.20,62.60,64.91,180.00,15.00,0.00,29.97,M,6.21,27.00,FEW,SCT,BKN,M,1800.00,2700.00,5600.00,M,VCSH,YBBN 190049Z 18015G27KT 9999 VCSH FEW018 SCT027 BKN056 24/17 Q1015
YBBN,2012-03-19 01:00,153.1292,-27.3917,77.00,64.40,65.12,180.00,12.00,0.00,29.97,M,6.21,M,FEW,SCT,BKN,M,1800.00,2800.00,6300.00,M,VCSH,YBBN 190100Z 18012KT 9999 VCSH FEW018 SCT028 BKN063 25/18 Q1015
YBBN,2012-03-19 01:30,153.1292,-27.3917,77.00,62.60,61.13,120.00,11.00,0.00,29.94,M,6.21,M,FEW,SCT,M,M,2000.00,2800.00,M,M,VCSH,YBBN 190130Z 12011KT 9999 VCSH FEW020 SCT028 25/17 Q1014
YBBN,2012-03-19 02:00,153.1292,-27.3917,78.80,62.60,57.60,160.00,9.00,0.00,29.94,M,6.21,M,FEW,BKN,M,M,2200.00,2900.00,M,M,VCSH,YBBN 190200Z 16009KT 9999 VCSH FEW022 BKN029 26/17 Q1014
YBBN,2012-03-19 02:30,153.1292,-27.3917,80.60,62.60,54.30,120.00,9.00,0.00,29.91,M,6.21,M,FEW,SCT,M,M,2300.00,3000.00,M,M,VCSH,YBBN 190230Z 12009KT 9999 VCSH FEW023 SCT030 27/17 Q1013
YBBN,2012-03-19 03:00,153.1292,-27.3917,78.80,62.60,57.60,170.00,12.00,0.00,29.91,M,6.21,M,FEW,SCT,M,M,2300.00,3000.00,M,M,VCSH,YBBN 190300Z 17012KT 9999 VCSH FEW023 SCT030 26/17 Q1013 NOSIG
YBBN,2012-03-19 03:30,153.1292,-27.3917,77.00,62.60,61.13,90.00,13.00,0.00,29.91,M,4.97,24.00,FEW,SCT,BKN,M,2300.00,3200.00,5400.00,M,-SHRA VCSH,YBBN 190330Z 09013G24KT 8000 -SHRA VCSH FEW023 SCT032 BKN054 25/17 Q1013
YBBN,2012-03-19 03:44,153.1292,-27.3917,78.80,62.60,57.60,80.00,11.00,0.00,29.91,M,3.73,M,FEW,SCT,BKN,M,2200.00,3200.00,6000.00,M,-SHRA VCSH,YBBN 190344Z 08011KT 6000 -SHRA VCSH FEW022 SCT032 BKN060 26/17 Q1013
YBBN,2012-03-19 04:00,153.1292,-27.3917,75.20,64.40,69.14,160.00,12.00,0.00,29.91,M,3.73,M,FEW,SCT,BKN,M,2200.00,3200.00,5400.00,M,-SHRA VCSH,YBBN 190400Z 16012KT 6000 -SHRA VCSH FEW022 SCT032 BKN054 24/18 Q1013
YBBN,2012-03-19 04:17,153.1292,-27.3917,75.20,62.60,64.91,170.00,9.00,0.00,29.88,M,4.97,M,FEW,SCT,BKN,M,2200.00,5200.00,6800.00,M,-SHRA VCSH,YBBN 190417Z 17009KT 8000 -SHRA VCSH FEW022 SCT052 BKN068 24/17 Q1012
YBBN,2012-03-19 04:30,153.1292,-27.3917,77.00,64.40,65.12,160.00,6.00,0.00,29.88,M,5.59,M,FEW,SCT,BKN,M,2200.00,4300.00,5400.00,M,-SHRA VCSH,YBBN 190430Z 16006KT 9000 -SHRA VCSH FEW022 SCT043 BKN054 25/18 Q1012
YBBN,2012-03-19 05:00,153.1292,-27.3917,77.00,62.60,61.13,130.00,7.00,0.00,29.88,M,3.73,M,FEW,SCT,BKN,M,2100.00,3000.00,4800.00,M,SHRA VCSH,YBBN 190500Z 13007KT 6000 SHRA VCSH FEW021 SCT030 BKN048 25/17 Q1012
YBBN,2012-03-19 05:30,153.1292,-27.3917,75.20,66.20,73.61,90.00,5.00,0.00,29.88,M,4.97,M,FEW,SCT,BKN,M,2200.00,3000.00,5800.00,M,-SHRA VCSH,YBBN 190530Z 09005KT 8000 -SHRA VCSH FEW022 SCT030 BKN058 24/19 Q1012 RESHRA
YBBN,2012-03-19 06:00,153.1292,-27.3917,75.20,66.20,73.61,90.00,7.00,0.00,29.88,M,5.59,M,FEW,SCT,BKN,M,1600.00,4800.00,7700.00,M,-SHRA VCSH,YBBN 190600Z 09007KT 9000 -SHRA VCSH FEW016 SCT048 BKN077 24/19 Q1012
YBBN,2012-03-19 06:30,153.1292,-27.3917,75.20,68.00,78.34,90.00,7.00,0.00,29.88,M,6.21,M,FEW,SCT,BKN,M,1800.00,4000.00,7800.00,M,VCSH,YBBN 190630Z 09007KT 9999 VCSH FEW018 SCT040 BKN078 24/20 Q1012
YBBN,2012-03-19 07:00,153.1292,-27.3917,75.20,68.00,78.34,70.00,7.00,0.00,29.88,M,3.73,M,FEW,SCT,BKN,M,1800.00,4900.00,7900.00,M,SHRA VCSH,YBBN 190700Z 07007KT 6000 SHRA VCSH FEW018 SCT049 BKN079 24/20 Q1012
YBBN,2012-03-19 07:15,153.1292,-27.3917,73.40,68.00,83.21,150.00,10.00,0.00,29.88,M,3.11,M,FEW,SCT,BKN,M,1500.00,3000.00,5300.00,M,SHRA VCSH,YBBN 190715Z 15010KT 5000 SHRA VCSH FEW015 SCT030 BKN053 23/20 Q1012
YBBN,2012-03-19 07:30,153.1292,-27.3917,71.60,68.00,88.43,180.00,10.00,0.00,29.88,M,3.73,M,FEW,SCT,BKN,M,1400.00,2800.00,5300.00,M,-SHRA VCSH,YBBN 190730Z 18010KT 6000 -SHRA VCSH FEW014 SCT028 BKN053 22/20 Q1012
YBBN,2012-03-19 07:49,153.1292,-27.3917,71.60,68.00,88.43,180.00,6.00,0.00,29.88,M,6.21,M,FEW,SCT,BKN,M,1400.00,3500.00,7300.00,M,-SHRA VCSH,YBBN 190749Z 18006KT 9999 -SHRA VCSH FEW014 SCT035 BKN073 22/20 Q1012 RESHRA
YBBN,2012-03-19 08:00,153.1292,-27.3917,71.60,69.80,94.06,180.00,6.00,0.00,29.88,M,6.21,M,FEW,SCT,BKN,M,1400.00,6300.00,11000.00,M,-SHRA VCSH,YBBN 190800Z 18006KT 9999 -SHRA VCSH FEW014 SCT063 BKN110 22/21 Q1012
YBBN,2012-03-19 08:30,153.1292,-27.3917,71.60,68.00,88.43,180.00,10.00,0.00,29.91,M,6.21,M,FEW,SCT,BKN,M,1400.00,7000.00,11000.00,M,VCSH,YBBN 190830Z 18010KT 9999 VCSH FEW014 SCT070 BKN110 22/20 Q1013
YBBN,2012-03-19 09:00,153.1292,-27.3917,71.60,66.20,83.09,190.00,7.00,0.00,29.91,M,6.21,M,M,M,M,M,M,M,M,M,M,YBBN 190900Z 19007KT CAVOK 22/19 Q1013 FM0900 15012KT 9999 -SHRA SCT030 BKN040 INTER 0900/1200 3000 SHRA BKN010
YBBN,2012-03-19 09:30,153.1292,-27.3917,69.80,66.20,88.34,180.00,7.00,0.00,29.91,M,6.21,M,M,M,M,M,M,M,M,M,M,YBBN 190930Z 18007KT CAVOK 21/19 Q1013
YBBN,2012-03-19 10:00,153.1292,-27.3917,69.80,66.20,88.34,160.00,7.00,0.00,29.91,M,6.21,M,FEW,SCT,M,M,3000.00,7000.00,M,M,VCSH,YBBN 191000Z 16007KT 9999 VCSH FEW030 SCT070 21/19 Q1013
YBBN,2012-03-19 10:30,153.1292,-27.3917,69.80,66.20,88.34,200.00,5.00,0.00,29.91,M,6.21,M,M,M,M,M,M,M,M,M,M,YBBN 191030Z 20005KT CAVOK 21/19 Q1013
YBBN,2012-03-19 11:00,153.1292,-27.3917,71.60,68.00,88.43,200.00,7.00,0.00,29.94,M,6.21,M,FEW,SCT,M,M,3000.00,5500.00,M,M,VCSH,YBBN 191100Z 20007KT 9999 VCSH FEW030 SCT055 22/20 Q1014
YBBN,2012-03-19 11:30,153.1292,-27.3917,69.80,68.00,94.01,190.00,6.00,0.00,29.94,M,6.21,M,FEW,M,M,M,2500.00,M,M,M,M,YBBN 191130Z 19006KT 9999 FEW025 21/20 Q1014
YBBN,2012-03-19 12:00,153.1292,-27.3917,68.00,66.20,93.97,210.00,7.00,0.00,29.94,M,6.21,M,FEW,M,M,M,2500.00,M,M,M,M,YBBN 191200Z 21007KT 9999 FEW025 20/19 Q1014
YBBN,2012-03-19 12:30,153.1292,-27.3917,69.80,68.00,94.01,200.00,7.00,0.00,29.94,M,4.97,M,FEW,BKN,M,M,2500.00,7000.00,M,M,VCSH,YBBN 191230Z 20007KT 8000 VCSH FEW025 BKN070 21/20 Q1014
YBBN,2012-03-19 13:00,153.1292,-27.3917,69.80,68.00,94.01,180.00,7.00,0.00,29.91,M,6.21,M,FEW,SCT,M,M,2500.00,7000.00,M,M,VCSH,YBBN 191300Z 18007KT 9999 VCSH FEW025 SCT070 21/20 Q1013
YBBN,2012-03-19 13:30,153.1292,-27.3917,69.80,68.00,94.01,200.00,7.00,0.00,29.91,M,6.21,M,FEW,SCT,M,M,2500.00,6000.00,M,M,VCSH,YBBN 191330Z 20007KT 9999 VCSH FEW025 SCT060 21/20 Q1013
YBBN,2012-03-19 14:00,153.1292,-27.3917,69.80,68.00,94.01,210.00,7.00,0.00,29.91,M,6.21,M,FEW,SCT,M,M,2000.00,6000.00,M,M,VCSH,YBBN 191400Z 21007KT 9999 VCSH FEW020 SCT060 21/20 Q1013 INTER 1400/1700 3000 SHRA BKN010
YBBN,2012-03-19 14:30,153.1292,-27.3917,69.80,69.80,100.00,170.00,5.00,0.00,29.91,M,6.21,M,SCT,SCT,M,M,2000.00,5000.00,M,M,VCSH,YBBN 191430Z 17005KT 9999 VCSH SCT020 SCT050 21/21 Q1013
YBBN,2012-03-19 15:00,153.1292,-27.3917,69.80,68.00,94.01,200.00,6.00,0.00,29.88,M,2.49,M,FEW,SCT,BKN,M,1000.00,2000.00,5000.00,M,-SHRA,YBBN 191500Z 20006KT 4000 -SHRA FEW010 SCT020 BKN050 21/20 Q1012
YBBN,2012-03-19 15:30,153.1292,-27.3917,69.80,68.00,94.01,200.00,6.00,0.00,29.88,M,6.21,M,FEW,SCT,M,M,1000.00,2000.00,M,M,VCSH,YBBN 191530Z 20006KT 9999 VCSH FEW010 SCT020 21/20 Q1012
YBBN,2012-03-19 16:00,153.1292,-27.3917,69.80,68.00,94.01,230.00,6.00,0.00,29.88,M,4.97,M,FEW,BKN,M,M,800.00,2000.00,M,M,VCSH,YBBN 191600Z 23006KT 8000 VCSH FEW008 BKN020 21/20 Q1012
YBBN,2012-03-19 16:30,153.1292,-27.3917,69.80,69.80,100.00,230.00,7.00,0.00,29.85,M,1.86,M,FEW,BKN,M,M,800.00,2000.00,M,M,SHRA,YBBN 191630Z 23007KT 3000 SHRA FEW008 BKN020 21/21 Q1011
YBBN,2012-03-19 17:00,153.1292,-27.3917,69.80,68.00,94.01,180.00,7.00,0.00,29.85,M,6.21,M,FEW,SCT,M,M,800.00,2000.00,M,M,VCSH,YBBN 191700Z 18007KT 9999 VCSH FEW008 SCT020 21/20 Q1011 RESHRA INTER 1700/2000 3000 SHRA BKN010
YBBN,2012-03-19 17:30,153.1292,-27.3917,69.80,68.00,94.01,210.00,6.00,0.00,29.85,M,1.86,M,FEW,BKN,M,M,800.00,2000.00,M,M,-SHRA,YBBN 191730Z 21006KT 3000 -SHRA FEW008 BKN020 21/20 Q1011
YBBN,2012-03-19 18:00,153.1292,-27.3917,69.80,68.00,94.01,170.00,5.00,0.00,29.85,M,6.21,M,FEW,SCT,M,M,800.00,2000.00,M,M,VCSH,YBBN 191800Z 17005KT 9999 VCSH FEW008 SCT020 21/20 Q1011 FM1800 19010KT 9999 -SHRA SCT020 BKN040 INTER 1800/2100 3000 SHRA BKN010
YBBN,2012-03-19 18:30,153.1292,-27.3917,71.60,68.00,88.43,170.00,5.00,0.00,29.88,M,6.21,M,FEW,SCT,BKN,M,500.00,2000.00,5500.00,M,VCSH,YBBN 191830Z 17005KT 9999 VCSH FEW005 SCT020 BKN055 22/20 Q1012
YBBN,2012-03-19 19:00,153.1292,-27.3917,69.80,68.00,94.01,180.00,6.00,0.00,29.88,M,6.21,M,FEW,SCT,BKN,M,800.00,2000.00,5500.00,M,VCSH,YBBN 191900Z 18006KT 9999 VCSH FEW008 SCT020 BKN055 21/20 Q1012
YBBN,2012-03-19 19:30,153.1292,-27.3917,71.60,68.00,88.43,160.00,7.00,0.00,29.88,M,6.21,M,SCT,M,M,M,2000.00,M,M,M,VCSH,YBBN 191930Z 16007KT 9999 VCSH SCT020 22/20 Q1012
YBBN,2012-03-19 20:00,153.1292,-27.3917,69.80,68.00,94.01,170.00,6.00,0.00,29.88,M,6.21,M,FEW,SCT,M,M,1000.00,2000.00,M,M,VCSH,YBBN 192000Z 17006KT 9999 VCSH FEW010 SCT020 21/20 Q1012 INTER 2000/2300 3000 SHRA BKN010
YBBN,2012-03-19 20:30,153.1292,-27.3917,69.80,68.00,94.01,190.00,6.00,0.00,29.88,M,4.97,M,FEW,SCT,M,M,1200.00,2300.00,M,M,-SHRA VCSH,YBBN 192030Z 19006KT 8000 -SHRA VCSH FEW012 SCT023 21/20 Q1012 RMK SH S/SW
YBBN,2012-03-19 20:47,153.1292,-27.3917,69.80,68.00,94.01,180.00,7.00,0.00,29.88,M,3.73,M,FEW,SCT,M,M,900.00,2300.00,M,M,SHRA VCSH,YBBN 192047Z 18007KT 6000 SHRA VCSH FEW009 SCT023 21/20 Q1012 RMK SH N/NE
YBBN,2012-03-19 21:00,153.1292,-27.3917,71.60,69.80,94.06,170.00,6.00,0.00,29.88,M,3.73,M,FEW,SCT,BKN,M,900.00,2300.00,5600.00,M,SHRA VCSH,YBBN 192100Z 17006KT 6000 SHRA VCSH FEW009 SCT023 BKN056 22/21 Q1012
YBBN,2012-03-19 21:30,153.1292,-27.3917,71.60,69.80,94.06,160.00,5.00,0.00,29.91,M,3.73,M,FEW,SCT,BKN,M,800.00,1700.00,5200.00,M,SHRA VCSH,YBBN 192130Z 16005KT 6000 SHRA VCSH FEW008 SCT017 BKN052 22/21 Q1013
YBBN,2012-03-19 22:00,153.1292,-27.3917,73.40,69.80,88.51,160.00,6.00,0.00,29.91,M,3.11,M,FEW,SCT,M,M,900.00,2000.00,M,M,SHRA VCSH,YBBN 192200Z 16006KT 5000 SHRA VCSH FEW009 SCT020 23/21 Q1013 RMK SH E/SE FM2200 19010KT 9999 -SHRA SCT025 BKN040 INTER 2200/0100 3000 SHRA BKN010
YBBN,2012-03-19 22:09,153.1292,-27.3917,73.40,69.80,88.51,130.00,6.00,0.00,29.91,M,1.86,M,FEW,SCT,BKN,M,900.00,1200.00,4200.00,M,+SHRA VCSH,YBBN 192209Z 13006KT 3000 +SHRA VCSH FEW009 SCT012 BKN042 23/21 Q1013
YBBN,2012-03-19 22:18,153.1292,-27.3917,71.60,69.80,94.06,70.00,8.00,0.00,29.91,M,1.24,M,FEW,SCT,BKN,M,200.00,900.00,1400.00,M,+SHRA VCSH,YBBN 192218Z 07008KT 2000 0800N +SHRA VCSH FEW002 SCT009 BKN014 22/21 Q1013
YBBN,2012-03-19 22:30,153.1292,-27.3917,71.60,69.80,94.06,120.00,8.00,0.00,29.91,M,1.86,M,FEW,SCT,BKN,FEW,300.00,800.00,3600.00,1900.00,+SHRA VCSH,YBBN 192230Z 12008KT 3000 +SHRA VCSH FEW003 SCT008 BKN036 FEW019TCU 22/21 Q1013
YBBN,2012-03-19 22:52,153.1292,-27.3917,73.40,69.80,88.51,110.00,9.00,0.00,29.91,M,3.11,M,FEW,SCT,FEW,M,700.00,2200.00,2300.00,M,SHRA VCSH,YBBN 192252Z 11009KT 5000 SHRA VCSH FEW007 SCT022 FEW023TCU 23/21 Q1013 RESHRA
YBBN,2012-03-19 23:00,153.1292,-27.3917,73.40,69.80,88.51,130.00,9.00,0.00,29.91,M,3.11,M,FEW,SCT,BKN,FEW,700.00,2200.00,3900.00,2300.00,SHRA VCSH,YBBN 192300Z 13009KT 5000 SHRA VCSH FEW007 SCT022 BKN039 FEW023TCU 23/21 Q1013
YBBN,2012-03-19 23:19,153.1292,-27.3917,75.20,69.80,83.32,90.00,9.00,0.00,29.91,M,1.24,M,FEW,SCT,BKN,M,600.00,1200.00,3500.00,M,+SHRA VCSH,YBBN 192319Z 09009KT 2000 0800E +SHRA VCSH FEW006 SCT012 BKN035 24/21 Q1013
YBBN,2012-03-19 23:30,153.1292,-27.3917,71.60,69.80,94.06,80.00,12.00,0.00,29.94,M,1.86,25.00,FEW,SCT,BKN,FEW,700.00,1200.00,3000.00,2300.00,+SHRA VCSH,YBBN 192330Z 08012G25KT 3000 +SHRA VCSH FEW007 SCT012 BKN030 FEW023TCU 22/21 Q1014
YBBN,2012-03-19 23:43,153.1292,-27.3917,73.40,71.60,94.10,50.00,6.00,0.00,29.94,M,3.11,M,FEW,SCT,BKN,FEW,700.00,1300.00,4000.00,2300.00,SHRA VCSH,YBBN 192343Z 05006KT 5000 SHRA VCSH FEW007 SCT013 BKN040 FEW023TCU 23/22 Q1014 RESHRA
