#DEBUG: Format Typ    -> comma
#DEBUG: Time Period   -> 2010-08-19 00:00:00+00:00 2010-08-20 00:00:00+00:00
#DEBUG: Time Zone     -> Etc/UTC
#DEBUG: Data Contact   -> daryl herzmann akrherz@iastate.edu 515-294-5978
#DEBUG: Entries Found -> -1
station,valid,lon,lat,tmpf, dwpf, relh, drct, sknt, p01i, alti, mslp, vsby, gust, skyc1, skyc2, skyc3, skyc4, skyl1, skyl2, skyl3, skyl4, presentwx, metar
YBBN,2010-08-19 00:00,153.1292,-27.3917,69.80,57.20,64.26,230.00,8.00,M,30.06,M,6.21,M,FEW,M,M,M,3200.00,M,M,M,M,YBBN 190000Z 23008KT 9999 FEW032 21/14 Q1018 NOSIG
YBBN,2010-08-19 00:30,153.1292,-27.3917,69.80,57.20,64.26,230.00,7.00,M,30.03,M,6.21,M,FEW,SCT,M,M,3500.00,3800.00,M,M,M,YBBN 190030Z 23007KT 9999 FEW035 SCT038 21/14 Q1017 NOSIG
YBBN,2010-08-19 01:00,153.1292,-27.3917,73.40,59.00,60.67,240.00,5.00,M,30.03,M,6.21,M,FEW,SCT,M,M,3500.00,3800.00,M,M,M,YBBN 190100Z 24005KT 9999 FEW035 SCT038 23/15 Q1017 NOSIG
YBBN,2010-08-19 01:30,153.1292,-27.3917,75.20,59.00,57.12,300.00,3.00,M,30.00,M,6.21,M,FEW,M,M,M,3800.00,M,M,M,M,YBBN 190130Z 30003KT 9999 FEW038 24/15 Q1016 NOSIG
YBBN,2010-08-19 02:00,153.1292,-27.3917,75.20,59.00,57.12,30.00,7.00,M,29.97,M,6.21,M,FEW,M,M,M,3800.00,M,M,M,M,YBBN 190200Z 03007KT 9999 FEW038 24/15 Q1015 NOSIG
YBBN,2010-08-19 02:30,153.1292,-27.3917,75.20,59.00,57.12,20.00,7.00,M,29.97,M,6.21,M,FEW,M,M,M,3600.00,M,M,M,M,YBBN 190230Z 02007KT 9999 FEW036 24/15 Q1015 NOSIG
YBBN,2010-08-19 03:00,153.1292,-27.3917,75.20,59.00,57.12,40.00,8.00,M,29.94,M,6.21,M,FEW,M,M,M,3600.00,M,M,M,M,YBBN 190300Z 04008KT 9999 FEW036 24/15 Q1014 NOSIG
YBBN,2010-08-19 03:30,153.1292,-27.3917,75.20,59.00,57.12,30.00,9.00,M,29.94,M,6.21,M,FEW,M,M,M,3800.00,M,M,M,M,YBBN 190330Z 03009KT 9999 FEW038 24/15 Q1014 NOSIG
YBBN,2010-08-19 04:00,153.1292,-27.3917,73.40,60.80,64.69,30.00,12.00,M,29.94,M,6.21,M,FEW,M,M,M,3800.00,M,M,M,M,YBBN 190400Z 03012KT 9999 FEW038 23/16 Q1014 NOSIG
YBBN,2010-08-19 04:30,153.1292,-27.3917,73.40,60.80,64.69,30.00,13.00,M,29.91,M,6.21,M,FEW,M,M,M,3800.00,M,M,M,M,YBBN 190430Z 03013KT 9999 FEW038 23/16 Q1013 NOSIG
YBBN,2010-08-19 05:00,153.1292,-27.3917,73.40,62.60,68.94,20.00,11.00,M,29.91,M,6.21,M,FEW,M,M,M,3800.00,M,M,M,M,YBBN 190500Z 02011KT 9999 FEW038 23/17 Q1013 NOSIG
YBBN,2010-08-19 05:30,153.1292,-27.3917,71.60,64.40,78.04,20.00,13.00,M,29.91,M,6.21,M,FEW,M,M,M,3800.00,M,M,M,M,YBBN 190530Z 02013KT 9999 FEW038 22/18 Q1013 NOSIG
YBBN,2010-08-19 06:00,153.1292,-27.3917,71.60,64.40,78.04,20.00,13.00,M,29.91,M,6.21,M,FEW,M,M,M,4000.00,M,M,M,M,YBBN 190600Z 02013KT 9999 FEW040 22/18 Q1013 NOSIG
YBBN,2010-08-19 06:30,153.1292,-27.3917,71.60,64.40,78.04,20.00,12.00,M,29.91,M,6.21,M,FEW,M,M,M,4000.00,M,M,M,M,YBBN 190630Z 02012KT 9999 FEW040 22/18 Q1013 NOSIG
YBBN,2010-08-19 07:00,153.1292,-27.3917,69.80,64.40,82.98,30.00,12.00,M,29.91,M,6.21,M,FEW,M,M,M,4500.00,M,M,M,M,YBBN 190700Z 03012KT 9999 FEW045 21/18 Q1013 NOSIG
YBBN,2010-08-19 07:30,153.1292,-27.3917,69.80,64.40,82.98,20.00,10.00,M,29.94,M,6.21,M,FEW,M,M,M,4500.00,M,M,M,M,YBBN 190730Z 02010KT 9999 FEW045 21/18 Q1014 NOSIG
YBBN,2010-08-19 08:00,153.1292,-27.3917,68.00,64.40,88.26,30.00,9.00,M,29.94,M,6.21,M,FEW,M,M,M,4800.00,M,M,M,M,YBBN 190800Z 03009KT 9999 FEW048 20/18 Q1014 NOSIG
YBBN,2010-08-19 08:30,153.1292,-27.3917,66.20,64.40,93.92,10.00,6.00,M,29.94,M,6.21,M,M,M,M,M,M,M,M,M,M,YBBN 190830Z 01006KT CAVOK 19/18 Q1014 NOSIG
YBBN,2010-08-19 09:00,153.1292,-27.3917,66.20,64.40,93.92,360.00,5.00,M,29.97,M,6.21,M,M,M,M,M,M,M,M,M,M,YBBN 190900Z 36005KT CAVOK 19/18 Q1015 NOSIG
YBBN,2010-08-19 09:30,153.1292,-27.3917,66.20,64.40,93.92,30.00,5.00,M,29.97,M,6.21,M,M,M,M,M,M,M,M,M,M,YBBN 190930Z 03005KT CAVOK 19/18 Q1015 NOSIG
YBBN,2010-08-19 10:00,153.1292,-27.3917,66.20,64.40,93.92,40.00,6.00,M,29.94,M,6.21,M,M,M,M,M,M,M,M,M,M,YBBN 191000Z 04006KT CAVOK 19/18 Q1014 NOSIG
YBBN,2010-08-19 10:30,153.1292,-27.3917,66.20,64.40,93.92,30.00,8.00,M,29.94,M,6.21,M,M,M,M,M,M,M,M,M,M,YBBN 191030Z 03008KT CAVOK 19/18 Q1014 NOSIG
YBBN,2010-08-19 11:00,153.1292,-27.3917,66.20,64.40,93.92,20.00,7.00,M,29.94,M,6.21,M,M,M,M,M,M,M,M,M,M,YBBN 191100Z 02007KT CAVOK 19/18 Q1014 NOSIG
YBBN,2010-08-19 11:30,153.1292,-27.3917,66.20,64.40,93.92,10.00,8.00,M,29.94,M,6.21,M,M,M,M,M,M,M,M,M,M,YBBN 191130Z 01008KT CAVOK 19/18 Q1014 NOSIG
YBBN,2010-08-19 12:00,153.1292,-27.3917,64.40,62.60,93.88,360.00,3.00,M,29.97,M,6.21,M,M,M,M,M,M,M,M,M,M,YBBN 191200Z 36003KT CAVOK 18/17 Q1015 RMK 5AC105 NOSIG
YBBN,2010-08-19 12:30,153.1292,-27.3917,64.40,62.60,93.88,0.00,0.00,M,29.94,M,5.59,M,SCT,BKN,M,M,10500.00,17000.00,M,M,M,YBBN 191230Z 00000KT 9000 SCT105 BKN170 18/17 Q1014 NOSIG
YBBN,2010-08-19 13:00,153.1292,-27.3917,64.40,64.40,100.00,0.00,0.00,M,29.97,M,6.21,M,M,M,M,M,M,M,M,M,M,YBBN 191300Z 00000KT CAVOK 18/18 Q1015 RMK 7AC160 NOSIG
YBBN,2010-08-19 13:30,153.1292,-27.3917,64.40,64.40,100.00,60.00,4.00,M,29.94,M,6.21,M,M,M,M,M,M,M,M,M,M,YBBN 191330Z 06004KT CAVOK 18/18 Q1014 RMK 6AC170 NOSIG
YBBN,2010-08-19 14:00,153.1292,-27.3917,66.20,64.40,93.92,0.00,0.00,M,29.97,M,6.21,M,FEW,SCT,BKN,M,2500.00,6000.00,16000.00,M,M,YBBN 191400Z 00000KT 9999 FEW025 SCT060 BKN160 19/18 Q1015 RMK DIST SHRA NOSIG
YBBN,2010-08-19 14:30,153.1292,-27.3917,66.20,64.40,93.92,230.00,11.00,M,29.97,M,6.21,M,SCT,BKN,M,M,6000.00,12000.00,M,M,-RA,YBBN 191430Z 23011KT 9999 -RA SCT060 BKN120 19/18 Q1015 NOSIG
YBBN,2010-08-19 15:30,153.1292,-27.3917,66.20,62.60,88.18,200.00,8.00,M,29.97,M,6.21,M,SCT,BKN,M,M,7500.00,12000.00,M,M,-RA,YBBN 191530Z 20008KT 9999 -RA SCT075 BKN120 19/17 Q1015 NOSIG
YBBN,2010-08-19 18:00,153.1292,-27.3917,64.40,62.60,93.88,10.00,7.00,M,29.94,M,6.21,M,M,M,M,M,M,M,M,M,M,YBBN 191800Z 01007KT CAVOK 18/17 Q1014 RMK 7SC070 TEMPO 1830/2100 3000 RA BKN015
YBBN,2010-08-19 18:30,153.1292,-27.3917,64.40,62.60,93.88,360.00,7.00,M,29.94,M,6.21,M,M,M,M,M,M,M,M,M,M,YBBN 191830Z 36007KT CAVOK 18/17 Q1014 RMK 7SC070 TEMPO 1830/2130 3000 RA BKN015
