#DEBUG: Format Typ    -> comma
#DEBUG: Time Period   -> 2015-11-08 00:00:00+00:00 2015-11-09 00:00:00+00:00
#DEBUG: Time Zone     -> Etc/UTC
#DEBUG: Data Contact   -> daryl herzmann akrherz@iastate.edu 515-294-5978
#DEBUG: Entries Found -> -1
station,valid,lon,lat,tmpf, dwpf, relh, drct, sknt, p01i, alti, mslp, vsby, gust, skyc1, skyc2, skyc3, skyc4, skyl1, skyl2, skyl3, skyl4, presentwx, metar
YBBN,2015-11-08 00:00,153.1292,-27.3917,75.20,64.40,69.14,90.00,6.00,0.00,29.94,M,6.21,M,FEW,BKN,BKN,M,1700.00,2700.00,7000.00,M,M,YBBN 080000Z 09006KT 060V120 9999 FEW017 BKN027 BKN070 24/18 Q1014
YBBN,2015-11-08 00:30,153.1292,-27.3917,75.20,66.20,73.61,70.00,7.00,0.00,29.94,M,6.21,M,FEW,SCT,BKN,M,1700.00,2300.00,6400.00,M,M,YBBN 080030Z 07007KT 9999 FEW017 SCT023 BKN064 24/19 Q1014
YBBN,2015-11-08 01:00,153.1292,-27.3917,75.20,64.40,69.14,40.00,9.00,0.00,29.94,M,6.21,M,FEW,BKN,BKN,M,2200.00,2700.00,3100.00,M,VCSH,YBBN 080100Z 04009KT 9999 VCSH FEW022 BKN027 BKN031 24/18 Q1014
YBBN,2015-11-08 01:37,153.1292,-27.3917,71.60,64.40,78.04,50.00,9.00,0.00,29.94,M,1.55,M,FEW,BKN,BKN,M,2400.00,3000.00,4000.00,M,-SHRA,YBBN 080137Z 05009KT 2500 -SHRA FEW024 BKN030 BKN040 22/18 Q1014
YBBN,2015-11-08 02:00,153.1292,-27.3917,71.60,66.20,83.09,40.00,9.00,0.00,29.94,M,6.21,M,SCT,SCT,BKN,M,2500.00,4000.00,6000.00,M,-SHRA,YBBN 080200Z 04009KT 9999 -SHRA SCT025 SCT040 BKN060 22/19 Q1014
YBBN,2015-11-08 02:30,153.1292,-27.3917,71.60,66.20,83.09,360.00,9.00,0.00,29.94,M,4.97,M,FEW,SCT,BKN,M,1500.00,2000.00,3200.00,M,-SHRA,YBBN 080230Z 36009KT 8000 -SHRA FEW015 SCT020 BKN032 22/19 Q1014
YBBN,2015-11-08 03:00,153.1292,-27.3917,71.60,66.20,83.09,20.00,12.00,0.00,29.91,M,6.21,M,FEW,SCT,BKN,M,1500.00,5400.00,10000.00,M,-SHRA,YBBN 080300Z 02012KT 9999 -SHRA FEW015 SCT054 BKN100 22/19 Q1013
YBBN,2015-11-08 03:30,153.1292,-27.3917,73.40,66.20,78.19,30.00,9.00,0.00,29.91,M,6.21,M,SCT,SCT,BKN,M,2200.00,10000.00,12000.00,M,M,YBBN 080330Z 03009KT 9999 SCT022 SCT100 BKN120 23/19 Q1013
YBBN,2015-11-08 04:00,153.1292,-27.3917,75.20,68.00,78.34,20.00,11.00,0.00,29.88,M,6.21,M,SCT,SCT,BKN,M,2200.00,12000.00,27000.00,M,M,YBBN 080400Z 02011KT 9999 SCT022 SCT120 BKN270 24/20 Q1012
YBBN,2015-11-08 04:30,153.1292,-27.3917,73.40,66.20,78.19,10.00,9.00,0.00,29.88,M,6.21,M,SCT,BKN,M,M,1800.00,27000.00,M,M,M,YBBN 080430Z 01009KT 9999 SCT018 BKN270 23/19 Q1012
YBBN,2015-11-08 05:00,153.1292,-27.3917,73.40,66.20,78.19,360.00,7.00,0.00,29.88,M,6.21,M,SCT,BKN,M,M,1800.00,26000.00,M,M,M,YBBN 080500Z 36007KT 9999 SCT018 BKN260 23/19 Q1012
YBBN,2015-11-08 05:30,153.1292,-27.3917,73.40,64.40,73.44,360.00,7.00,0.00,29.88,M,6.21,M,FEW,BKN,BKN,M,1700.00,13000.00,26000.00,M,M,YBBN 080530Z 36007KT 9999 FEW017 BKN130 BKN260 23/18 Q1012
YBBN,2015-11-08 06:00,153.1292,-27.3917,73.40,66.20,78.19,360.00,6.00,0.00,29.88,M,6.21,M,FEW,BKN,BKN,M,1900.00,12000.00,26000.00,M,M,YBBN 080600Z 36006KT 9999 FEW019 BKN120 BKN260 23/19 Q1012 RMK DIST SHOWERS TO S
YBBN,2015-11-08 06:30,153.1292,-27.3917,73.40,66.20,78.19,360.00,6.00,0.00,29.91,M,6.21,M,FEW,SCT,BKN,M,1700.00,2000.00,13000.00,M,VCSH,YBBN 080630Z 36006KT 9999 VCSH FEW017 SCT020 BKN130 23/19 Q1013
YBBN,2015-11-08 07:00,153.1292,-27.3917,71.60,64.40,78.04,360.00,6.00,0.00,29.91,M,6.21,M,SCT,SCT,BKN,M,2000.00,3800.00,5200.00,M,M,YBBN 080700Z 36006KT 9999 SCT020 SCT038 BKN052 22/18 Q1013
YBBN,2015-11-08 07:30,153.1292,-27.3917,71.60,66.20,83.09,350.00,1.00,0.00,29.91,M,6.21,M,SCT,BKN,BKN,M,2000.00,3200.00,11000.00,M,VCSH,YBBN 080730Z 35001KT 9999 VCSH SCT020 BKN032 BKN110 22/19 Q1013
YBBN,2015-11-08 08:00,153.1292,-27.3917,71.60,66.20,83.09,180.00,4.00,0.00,29.91,M,6.21,M,FEW,BKN,BKN,M,1800.00,3000.00,11000.00,M,VCSH,YBBN 080800Z 18004KT 9999 VCSH FEW018 BKN030 BKN110 22/19 Q1013
YBBN,2015-11-08 08:30,153.1292,-27.3917,71.60,64.40,78.04,170.00,6.00,0.00,29.94,M,6.21,M,SCT,BKN,BKN,M,1700.00,3000.00,11000.00,M,-SHRA,YBBN 080830Z 17006KT 9999 -SHRA SCT017 BKN030 BKN110 22/18 Q1014
YBBN,2015-11-08 09:00,153.1292,-27.3917,69.80,66.20,88.34,170.00,6.00,0.00,29.94,M,6.21,M,FEW,BKN,BKN,M,1500.00,3200.00,12000.00,M,-SHRA,YBBN 080900Z 17006KT 9999 -SHRA FEW015 BKN032 BKN120 21/19 Q1014
YBBN,2015-11-08 09:30,153.1292,-27.3917,69.80,66.20,88.34,170.00,9.00,0.00,29.97,M,6.21,M,FEW,BKN,BKN,M,1700.00,3500.00,12000.00,M,-SHRA,YBBN 080930Z 17009KT 9999 -SHRA FEW017 BKN035 BKN120 21/19 Q1015 RMK DISTANT LIGHTNING TO SE.
YBBN,2015-11-08 09:49,153.1292,-27.3917,68.00,66.20,93.97,170.00,7.00,0.00,29.97,M,3.73,M,SCT,SCT,BKN,M,1800.00,3400.00,8500.00,M,-SHRA,YBBN 080949Z 17007KT 6000 -SHRA SCT018 SCT034 BKN085 20/19 Q1015 RMK DISTANT LIGHTNING TO SE.
YBBN,2015-11-08 10:00,153.1292,-27.3917,68.00,66.20,93.97,170.00,8.00,0.00,29.97,M,3.11,M,FEW,SCT,BKN,FEW,1700.00,3500.00,8200.00,1800.00,VCTS,YBBN 081000Z 17008KT 5000 VCTS FEW017 SCT035 BKN082 FEW018CB 20/19 Q1015
YBBN,2015-11-08 10:30,153.1292,-27.3917,66.20,64.40,93.92,160.00,9.00,0.00,29.97,M,4.97,M,FEW,BKN,BKN,M,1500.00,4000.00,11000.00,M,-RA,YBBN 081030Z 16009KT 8000 -RA FEW015 BKN040 BKN110 19/18 Q1015
YBBN,2015-11-08 11:00,153.1292,-27.3917,66.20,64.40,93.92,140.00,10.00,0.00,29.97,M,5.59,M,FEW,BKN,OVC,M,1500.00,8500.00,11000.00,M,-RA,YBBN 081100Z 14010KT 9000 -RA FEW015 BKN085 OVC110 19/18 Q1015
YBBN,2015-11-08 11:30,153.1292,-27.3917,68.00,64.40,88.26,130.00,8.00,0.00,30.00,M,6.21,M,FEW,BKN,OVC,M,1500.00,9500.00,12000.00,M,-RA,YBBN 081130Z 13008KT 9999 -RA FEW015 BKN095 OVC120 20/18 Q1016
YBBN,2015-11-08 12:00,153.1292,-27.3917,68.00,64.40,88.26,120.00,9.00,0.00,30.00,M,4.97,19.00,FEW,SCT,BKN,M,3000.00,8000.00,9200.00,M,-RA,YBBN 081200Z 12009G19KT 8000 -RA FEW030 SCT080 BKN092 20/18 Q1016
YBBN,2015-11-08 12:30,153.1292,-27.3917,68.00,66.20,93.97,150.00,7.00,0.00,30.00,M,6.21,M,SCT,BKN,BKN,M,2700.00,7800.00,9500.00,M,-RA,YBBN 081230Z 15007KT 9999 -RA SCT027 BKN078 BKN095 20/19 Q1016
YBBN,2015-11-08 13:00,153.1292,-27.3917,66.20,64.40,93.92,170.00,10.00,0.00,29.97,M,6.21,M,FEW,SCT,BKN,M,1600.00,4200.00,7500.00,M,-SHRA,YBBN 081300Z 17010KT 9999 -SHRA FEW016 SCT042 BKN075 19/18 Q1015
YBBN,2015-11-08 13:30,153.1292,-27.3917,66.20,64.40,93.92,180.00,8.00,0.00,29.97,M,6.21,M,FEW,BKN,BKN,M,1800.00,6800.00,10000.00,M,-SHRA,YBBN 081330Z 18008KT 9999 -SHRA FEW018 BKN068 BKN100 19/18 Q1015
YBBN,2015-11-08 14:00,153.1292,-27.3917,66.20,64.40,93.92,180.00,8.00,0.00,29.97,M,6.21,M,FEW,SCT,BKN,M,1900.00,6000.00,10000.00,M,VCSH,YBBN 081400Z 18008KT 9999 VCSH FEW019 SCT060 BKN100 19/18 Q1015
YBBN,2015-11-08 14:30,153.1292,-27.3917,66.20,62.60,88.18,190.00,8.00,0.00,29.97,M,6.21,M,NSC,M,M,M,M,M,M,M,VCSH,YBBN 081430Z 19008KT 9999 VCSH NSC 19/17 Q1015 RMK 5SC058 6AC105 7AS140
YBBN,2015-11-08 15:00,153.1292,-27.3917,66.20,62.60,88.18,190.00,9.00,0.00,29.97,M,6.21,M,NSC,M,M,M,M,M,M,M,VCSH,YBBN 081500Z 19009KT 9999 VCSH NSC 19/17 Q1015
YBBN,2015-11-08 15:30,153.1292,-27.3917,66.20,62.60,88.18,190.00,8.00,0.00,29.97,M,6.21,M,FEW,SCT,BKN,M,2000.00,7000.00,12000.00,M,VCSH,YBBN 081530Z 19008KT 9999 VCSH FEW020 SCT070 BKN120 19/17 Q1015
YBBN,2015-11-08 16:00,153.1292,-27.3917,66.20,62.60,88.18,190.00,8.00,0.00,29.94,M,6.21,M,FEW,SCT,BKN,M,1900.00,6000.00,12000.00,M,-SHRA,YBBN 081600Z 19008KT 9999 -SHRA FEW019 SCT060 BKN120 19/17 Q1014
YBBN,2015-11-08 16:30,153.1292,-27.3917,66.20,62.60,88.18,190.00,8.00,0.00,29.94,M,6.21,M,FEW,SCT,BKN,M,2000.00,6000.00,13000.00,M,-SHRA,YBBN 081630Z 19008KT 9999 -SHRA FEW020 SCT060 BKN130 19/17 Q1014
YBBN,2015-11-08 17:00,153.1292,-27.3917,66.20,62.60,88.18,190.00,8.00,0.00,29.94,M,6.21,M,FEW,BKN,BKN,M,2000.00,12000.00,14000.00,M,-SHRA,YBBN 081700Z 19008KT 9999 -SHRA FEW020 BKN120 BKN140 19/17 Q1014
YBBN,2015-11-08 17:30,153.1292,-27.3917,66.20,62.60,88.18,190.00,7.00,0.00,29.94,M,6.21,M,FEW,BKN,BKN,M,2000.00,12000.00,15000.00,M,-SHRA,YBBN 081730Z 19007KT 9999 -SHRA FEW020 BKN120 BKN150 19/17 Q1014
YBBN,2015-11-08 18:00,153.1292,-27.3917,66.20,62.60,88.18,190.00,7.00,0.00,29.94,M,6.21,M,FEW,BKN,BKN,M,1800.00,10000.00,15000.00,M,-SHRA,YBBN 081800Z 19007KT 9999 -SHRA FEW018 BKN100 BKN150 19/17 Q1014
YBBN,2015-11-08 18:30,153.1292,-27.3917,66.20,62.60,88.18,190.00,7.00,0.00,29.94,M,6.21,M,FEW,BKN,BKN,M,1800.00,10000.00,15000.00,M,-SHRA,YBBN 081830Z 19007KT 9999 -SHRA FEW018 BKN100 BKN150 19/17 Q1014
YBBN,2015-11-08 19:00,153.1292,-27.3917,66.20,62.60,88.18,190.00,7.00,0.00,29.97,M,6.21,M,FEW,SCT,BKN,M,1500.00,6500.00,11000.00,M,-SHRA,YBBN 081900Z 19007KT 9999 -SHRA FEW015 SCT065 BKN110 19/17 Q1015
YBBN,2015-11-08 19:30,153.1292,-27.3917,66.20,62.60,88.18,190.00,7.00,0.00,29.97,M,6.21,M,FEW,SCT,BKN,M,1400.00,7000.00,13000.00,M,-SHRA,YBBN 081930Z 19007KT 9999 -SHRA FEW014 SCT070 BKN130 19/17 Q1015
YBBN,2015-11-08 20:00,153.1292,-27.3917,66.20,62.60,88.18,190.00,7.00,0.00,29.97,M,6.21,M,FEW,SCT,BKN,M,1400.00,7000.00,13000.00,M,-SHRA,YBBN 082000Z 19007KT 9999 -SHRA FEW014 SCT070 BKN130 19/17 Q1015
YBBN,2015-11-08 20:30,153.1292,-27.3917,66.20,62.60,88.18,210.00,7.00,0.00,29.97,M,6.21,M,FEW,SCT,BKN,M,1200.00,2300.00,13000.00,M,VCSH,YBBN 082030Z 21007KT 9999 VCSH FEW012 SCT023 BKN130 19/17 Q1015
YBBN,2015-11-08 21:00,153.1292,-27.3917,68.00,64.40,88.26,200.00,7.00,0.00,30.00,M,6.21,M,FEW,SCT,BKN,M,1500.00,2400.00,13000.00,M,VCSH,YBBN 082100Z 20007KT 9999 VCSH FEW015 SCT024 BKN130 20/18 Q1016
YBBN,2015-11-08 21:30,153.1292,-27.3917,68.00,64.40,88.26,200.00,6.00,0.00,30.00,M,6.21,M,FEW,BKN,BKN,M,1400.00,2200.00,13000.00,M,VCSH,YBBN 082130Z 20006KT 9999 VCSH FEW014 BKN022 BKN130 20/18 Q1016
YBBN,2015-11-08 22:00,153.1292,-27.3917,69.80,64.40,82.98,210.00,8.00,0.00,30.00,M,6.21,M,FEW,SCT,BKN,M,1500.00,2300.00,4800.00,M,VCSH,YBBN 082200Z 21008KT 9999 VCSH FEW015 SCT023 BKN048 21/18 Q1016
YBBN,2015-11-08 22:30,153.1292,-27.3917,69.80,64.40,82.98,190.00,7.00,0.00,30.00,M,6.21,M,FEW,SCT,BKN,M,1700.00,2100.00,5500.00,M,VCSH,YBBN 082230Z 19007KT 9999 VCSH FEW017 SCT021 BKN055 21/18 Q1016
YBBN,2015-11-08 23:00,153.1292,-27.3917,71.60,64.40,78.04,140.00,7.00,0.00,30.00,M,6.21,M,FEW,BKN,M,M,1700.00,2100.00,M,M,-SHRA,YBBN 082300Z 14007KT 9999 -SHRA FEW017 BKN021 22/18 Q1016
YBBN,2015-11-08 23:30,153.1292,-27.3917,69.80,66.20,88.34,170.00,7.00,0.00,30.03,M,4.97,M,FEW,SCT,BKN,M,1700.00,2100.00,5500.00,M,SHRA,YBBN 082330Z 17007KT 8000 SHRA FEW017 SCT021 BKN055 21/19 Q1017
YBBN,2015-11-08 23:41,153.1292,-27.3917,69.80,66.20,88.34,170.00,7.00,0.00,30.03,M,3.73,M,FEW,BKN,M,M,1700.00,2200.00,M,M,SHRA,YBBN 082341Z 17007KT 6000 SHRA FEW017 BKN022 21/19 Q1017
