#DEBUG: Format Typ    -> comma
#DEBUG: Time Period   -> 2015-03-10 00:00:00+00:00 2015-03-11 00:00:00+00:00
#DEBUG: Time Zone     -> Etc/UTC
#DEBUG: Data Contact   -> daryl herzmann akrherz@iastate.edu 515-294-5978
#DEBUG: Entries Found -> -1
station,valid,lon,lat,tmpf, dwpf, relh, drct, sknt, p01i, alti, mslp, vsby, gust, skyc1, skyc2, skyc3, skyc4, skyl1, skyl2, skyl3, skyl4, presentwx, metar
YBBN,2015-03-10 00:00,153.1292,-27.3917,82.40,71.60,69.90,90.00,9.00,0.00,29.94,M,6.21,M,FEW,M,M,M,2500.00,M,M,M,M,YBBN 100000Z 09009KT 9999 FEW025 28/22 Q1014
YBBN,2015-03-10 00:30,153.1292,-27.3917,82.40,69.80,65.74,90.00,9.00,0.00,29.94,M,6.21,M,FEW,M,M,M,2500.00,M,M,M,M,YBBN 100030Z 09009KT 9999 FEW025 28/21 Q1014
YBBN,2015-03-10 01:00,153.1292,-27.3917,82.40,69.80,65.74,70.00,11.00,0.00,29.94,M,6.21,M,FEW,M,M,M,2800.00,M,M,M,M,YBBN 100100Z 07011KT 9999 FEW028 28/21 Q1014
YBBN,2015-03-10 01:30,153.1292,-27.3917,84.20,69.80,62.03,80.00,9.00,0.00,29.94,M,6.21,M,FEW,M,M,M,2800.00,M,M,M,M,YBBN 100130Z 08009KT 9999 FEW028 29/21 Q1014
YBBN,2015-03-10 02:00,153.1292,-27.3917,82.40,69.80,65.74,70.00,11.00,0.00,29.94,M,6.21,M,FEW,M,M,M,3000.00,M,M,M,M,YBBN 100200Z 07011KT 9999 FEW030 28/21 Q1014 NOSIG
YBBN,2015-03-10 02:30,153.1292,-27.3917,84.20,71.60,65.95,70.00,10.00,0.00,29.94,M,6.21,M,FEW,M,M,M,3000.00,M,M,M,M,YBBN 100230Z 07010KT 9999 FEW030 29/22 Q1014
YBBN,2015-03-10 03:00,153.1292,-27.3917,84.20,69.80,62.03,80.00,9.00,0.00,29.94,M,6.21,M,FEW,M,M,M,3000.00,M,M,M,M,YBBN 100300Z 08009KT 9999 FEW030 29/21 Q1014 NOSIG
YBBN,2015-03-10 03:30,153.1292,-27.3917,84.20,69.80,62.03,80.00,10.00,0.00,29.91,M,6.21,M,FEW,M,M,M,3000.00,M,M,M,M,YBBN 100330Z 08010KT 9999 FEW030 29/21 Q1013
YBBN,2015-03-10 04:00,153.1292,-27.3917,84.20,69.80,62.03,90.00,10.00,0.00,29.91,M,6.21,M,FEW,M,M,M,3000.00,M,M,M,M,YBBN 100400Z 09010KT 9999 FEW030 29/21 Q1013
YBBN,2015-03-10 04:30,153.1292,-27.3917,84.20,69.80,62.03,90.00,9.00,0.00,29.91,M,6.21,M,FEW,M,M,M,3000.00,M,M,M,M,YBBN 100430Z 09009KT 9999 FEW030 29/21 Q1013
YBBN,2015-03-10 05:00,153.1292,-27.3917,84.20,69.80,62.03,110.00,11.00,0.00,29.91,M,6.21,M,FEW,M,M,M,3000.00,M,M,M,M,YBBN 100500Z 11011KT 9999 FEW030 29/21 Q1013 NOSIG
YBBN,2015-03-10 05:30,153.1292,-27.3917,82.40,68.00,61.81,110.00,10.00,0.00,29.88,M,6.21,M,FEW,M,M,M,3000.00,M,M,M,M,YBBN 100530Z 11010KT 9999 FEW030 28/20 Q1012
YBBN,2015-03-10 06:00,153.1292,-27.3917,82.40,68.00,61.81,100.00,10.00,0.00,29.88,M,6.21,M,FEW,M,M,M,3000.00,M,M,M,M,YBBN 100600Z 10010KT 9999 FEW030 28/20 Q1012 NOSIG
YBBN,2015-03-10 06:30,153.1292,-27.3917,82.40,68.00,61.81,100.00,10.00,0.00,29.88,M,6.21,M,FEW,M,M,M,3000.00,M,M,M,M,YBBN 100630Z 10010KT 9999 FEW030 28/20 Q1012
YBBN,2015-03-10 07:00,153.1292,-27.3917,80.60,68.00,65.54,90.00,9.00,0.00,29.91,M,6.21,M,FEW,M,M,M,3000.00,M,M,M,M,YBBN 100700Z 09009KT 9999 FEW030 27/20 Q1013
YBBN,2015-03-10 07:30,153.1292,-27.3917,78.80,69.80,73.95,100.00,9.00,0.00,29.91,M,6.21,M,FEW,M,M,M,2700.00,M,M,M,M,YBBN 100730Z 10009KT 9999 FEW027 26/21 Q1013
YBBN,2015-03-10 08:00,153.1292,-27.3917,78.80,68.00,69.52,90.00,8.00,0.00,29.91,M,6.21,M,FEW,M,M,M,2700.00,M,M,M,M,YBBN 100800Z 09008KT 9999 FEW027 26/20 Q1013 NOSIG
YBBN,2015-03-10 08:30,153.1292,-27.3917,78.80,68.00,69.52,90.00,9.00,0.00,29.91,M,6.21,M,SCT,M,M,M,2500.00,M,M,M,M,YBBN 100830Z 09009KT 9999 SCT025 26/20 Q1013
YBBN,2015-03-10 09:00,153.1292,-27.3917,78.80,68.00,69.52,80.00,10.00,0.00,29.94,M,6.21,M,SCT,M,M,M,2500.00,M,M,M,M,YBBN 100900Z 08010KT 9999 SCT025 26/20 Q1014 NOSIG
YBBN,2015-03-10 09:30,153.1292,-27.3917,77.00,68.00,73.78,90.00,9.00,0.00,29.94,M,6.21,M,SCT,M,M,M,2500.00,M,M,M,M,YBBN 100930Z 09009KT 9999 SCT025 25/20 Q1014
YBBN,2015-03-10 10:00,153.1292,-27.3917,77.00,68.00,73.78,90.00,9.00,0.00,29.97,M,6.21,M,FEW,M,M,M,2500.00,M,M,M,M,YBBN 101000Z 09009KT 9999 FEW025 25/20 Q1015
YBBN,2015-03-10 10:30,153.1292,-27.3917,77.00,68.00,73.78,90.00,8.00,0.00,29.97,M,6.21,M,FEW,M,M,M,2500.00,M,M,M,M,YBBN 101030Z 09008KT 9999 FEW025 25/20 Q1015
YBBN,2015-03-10 11:00,153.1292,-27.3917,77.00,68.00,73.78,90.00,8.00,0.00,30.00,M,6.21,M,FEW,M,M,M,2500.00,M,M,M,M,YBBN 101100Z 09008KT 9999 FEW025 25/20 Q1016
YBBN,2015-03-10 11:30,153.1292,-27.3917,77.00,66.20,69.33,90.00,8.00,0.00,29.97,M,6.21,M,FEW,M,M,M,2500.00,M,M,M,M,YBBN 101130Z 09008KT 9999 FEW025 25/19 Q1015
YBBN,2015-03-10 12:00,153.1292,-27.3917,77.00,68.00,73.78,90.00,8.00,0.00,30.00,M,6.21,M,FEW,M,M,M,2500.00,M,M,M,M,YBBN 101200Z 09008KT 9999 FEW025 25/20 Q1016 NOSIG
YBBN,2015-03-10 12:30,153.1292,-27.3917,77.00,66.20,69.33,90.00,8.00,0.00,29.97,M,6.21,M,FEW,M,M,M,2500.00,M,M,M,M,YBBN 101230Z 09008KT 9999 FEW025 25/19 Q1015
YBBN,2015-03-10 13:00,153.1292,-27.3917,77.00,68.00,73.78,100.00,7.00,0.00,29.97,M,6.21,M,FEW,M,M,M,2500.00,M,M,M,M,YBBN 101300Z 10007KT 9999 FEW025 25/20 Q1015
YBBN,2015-03-10 13:30,153.1292,-27.3917,77.00,68.00,73.78,90.00,7.00,0.00,29.97,M,6.21,M,FEW,M,M,M,2500.00,M,M,M,M,YBBN 101330Z 09007KT 9999 FEW025 25/20 Q1015
YBBN,2015-03-10 14:00,153.1292,-27.3917,77.00,68.00,73.78,80.00,7.00,0.00,29.97,M,6.21,M,FEW,M,M,M,2500.00,M,M,M,M,YBBN 101400Z 08007KT 9999 FEW025 25/20 Q1015 NOSIG
YBBN,2015-03-10 14:30,153.1292,-27.3917,77.00,68.00,73.78,90.00,7.00,0.00,29.94,M,6.21,M,FEW,M,M,M,2500.00,M,M,M,M,YBBN 101430Z 09007KT 9999 FEW025 25/20 Q1014
YBBN,2015-03-10 15:00,153.1292,-27.3917,77.00,66.20,69.33,90.00,7.00,0.00,29.94,M,6.21,M,FEW,M,M,M,2500.00,M,M,M,M,YBBN 101500Z 09007KT 9999 FEW025 25/19 Q1014
YBBN,2015-03-10 15:30,153.1292,-27.3917,77.00,66.20,69.33,110.00,6.00,0.00,29.94,M,6.21,M,FEW,M,M,M,2500.00,M,M,M,M,YBBN 101530Z 11006KT 9999 FEW025 25/19 Q1014
YBBN,2015-03-10 16:00,153.1292,-27.3917,77.00,68.00,73.78,110.00,5.00,0.00,29.94,M,6.21,M,FEW,M,M,M,2500.00,M,M,M,M,YBBN 101600Z 11005KT 9999 FEW025 25/20 Q1014 NOSIG
YBBN,2015-03-10 16:30,153.1292,-27.3917,77.00,68.00,73.78,110.00,7.00,0.00,29.91,M,6.21,M,FEW,M,M,M,2500.00,M,M,M,M,YBBN 101630Z 11007KT 9999 FEW025 25/20 Q1013
YBBN,2015-03-10 17:00,153.1292,-27.3917,77.00,68.00,73.78,110.00,5.00,0.00,29.91,M,6.21,M,FEW,M,M,M,2500.00,M,M,M,M,YBBN 101700Z 11005KT 9999 FEW025 25/20 Q1013 NOSIG
YBBN,2015-03-10 17:30,153.1292,-27.3917,77.00,68.00,73.78,100.00,6.00,0.00,29.91,M,6.21,M,FEW,M,M,M,2500.00,M,M,M,M,YBBN 101730Z 10006KT 9999 FEW025 25/20 Q1013
YBBN,2015-03-10 18:00,153.1292,-27.3917,77.00,68.00,73.78,90.00,6.00,0.00,29.91,M,6.21,M,FEW,M,M,M,2500.00,M,M,M,M,YBBN 101800Z 09006KT 9999 FEW025 25/20 Q1013
YBBN,2015-03-10 18:30,153.1292,-27.3917,75.20,68.00,78.34,90.00,5.00,0.00,29.91,M,6.21,M,FEW,M,M,M,2500.00,M,M,M,M,YBBN 101830Z 09005KT 9999 FEW025 24/20 Q1013
YBBN,2015-03-10 19:00,153.1292,-27.3917,75.20,68.00,78.34,100.00,5.00,0.00,29.91,M,6.21,M,FEW,M,M,M,2500.00,M,M,M,M,YBBN 101900Z 10005KT 9999 FEW025 24/20 Q1013 NOSIG
YBBN,2015-03-10 19:30,153.1292,-27.3917,73.40,68.00,83.21,110.00,5.00,0.00,29.91,M,6.21,M,SCT,M,M,M,2000.00,M,M,M,M,YBBN 101930Z 11005KT 9999 SCT020 23/20 Q1013
YBBN,2015-03-10 20:00,153.1292,-27.3917,71.60,68.00,88.43,200.00,5.00,0.00,29.94,M,6.21,M,SCT,M,M,M,2000.00,M,M,M,M,YBBN 102000Z 20005KT 9999 SCT020 22/20 Q1014
YBBN,2015-03-10 20:30,153.1292,-27.3917,73.40,68.00,83.21,200.00,6.00,0.00,29.94,M,6.21,M,FEW,M,M,M,2000.00,M,M,M,M,YBBN 102030Z 20006KT 9999 FEW020 23/20 Q1014
YBBN,2015-03-10 21:00,153.1292,-27.3917,75.20,68.00,78.34,210.00,5.00,0.00,29.94,M,6.21,M,FEW,M,M,M,2000.00,M,M,M,M,YBBN 102100Z 21005KT 9999 FEW020 24/20 Q1014
YBBN,2015-03-10 21:30,153.1292,-27.3917,77.00,69.80,78.48,160.00,4.00,0.00,29.94,M,6.21,M,FEW,M,M,M,2000.00,M,M,M,M,YBBN 102130Z 16004KT 9999 FEW020 25/21 Q1014
YBBN,2015-03-10 22:00,153.1292,-27.3917,80.60,66.20,61.58,120.00,8.00,0.00,29.97,M,6.21,M,SCT,M,M,M,2000.00,M,M,M,M,YBBN 102200Z 12008KT 9999 SCT020 27/19 Q1015
YBBN,2015-03-10 22:30,153.1292,-27.3917,80.60,68.00,65.54,110.00,7.00,0.00,29.97,M,6.21,M,SCT,M,M,M,2200.00,M,M,M,M,YBBN 102230Z 11007KT 9999 SCT022 27/20 Q1015
YBBN,2015-03-10 23:00,153.1292,-27.3917,80.60,68.00,65.54,100.00,8.00,0.00,29.97,M,6.21,M,SCT,M,M,M,2300.00,M,M,M,M,YBBN 102300Z 10008KT 9999 SCT023 27/20 Q1015 NOSIG
YBBN,2015-03-10 23:30,153.1292,-27.3917,82.40,68.00,61.81,100.00,8.00,0.00,29.97,M,6.21,M,SCT,M,M,M,2500.00,M,M,M,M,YBBN 102330Z 10008KT 9999 SCT025 28/20 Q1015
