#DEBUG: Format Typ    -> comma
#DEBUG: Time Period   -> 2012-02-08 00:00:00+00:00 2012-02-09 00:00:00+00:00
#DEBUG: Time Zone     -> Etc/UTC
#DEBUG: Data Contact   -> daryl herzmann akrherz@iastate.edu 515-294-5978
#DEBUG: Entries Found -> -1
station,valid,lon,lat,tmpf, dwpf, relh, drct, sknt, p01i, alti, mslp, vsby, gust, skyc1, skyc2, skyc3, skyc4, skyl1, skyl2, skyl3, skyl4, presentwx, metar
YBBN,2012-02-08 00:00,153.1292,-27.3917,82.40,66.20,58.08,180.00,6.00,0.00,29.74,M,6.21,M,SCT,SCT,M,M,3000.00,5500.00,M,M,M,YBBN 080000Z 18006KT 9999 SCT030 SCT055 28/19 Q1007
YBBN,2012-02-08 00:30,153.1292,-27.3917,82.40,66.20,58.08,190.00,6.00,0.00,29.74,M,6.21,M,SCT,SCT,M,M,3200.00,5000.00,M,M,M,YBBN 080030Z 19006KT 9999 SCT032 SCT050 28/19 Q1007
YBBN,2012-02-08 01:00,153.1292,-27.3917,82.40,66.20,58.08,190.00,6.00,0.00,29.74,M,6.21,M,SCT,SCT,M,M,3500.00,5500.00,M,M,M,YBBN 080100Z 19006KT 9999 SCT035 SCT055 28/19 Q1007 INTER 0300/0400 3000 SHRA BKN012
YBBN,2012-02-08 01:30,153.1292,-27.3917,80.60,66.20,61.58,90.00,5.00,0.00,29.74,M,6.21,M,SCT,SCT,M,M,3000.00,7000.00,M,M,M,YBBN 080130Z 09005KT 9999 SCT030 SCT070 27/19 Q1007
YBBN,2012-02-08 02:00,153.1292,-27.3917,82.40,68.00,61.81,110.00,5.00,0.00,29.71,M,6.21,M,SCT,SCT,M,M,3000.00,7000.00,M,M,M,YBBN 080200Z 11005KT 9999 SCT030 SCT070 28/20 Q1006 INTER 0300/0500 3000 SHRA BKN012
YBBN,2012-02-08 02:30,153.1292,-27.3917,82.40,68.00,61.81,70.00,6.00,0.00,29.71,M,6.21,M,SCT,M,M,M,3300.00,M,M,M,M,YBBN 080230Z 07006KT 9999 SCT033 28/20 Q1006
YBBN,2012-02-08 03:00,153.1292,-27.3917,82.40,68.00,61.81,60.00,9.00,0.00,29.71,M,6.21,M,BKN,M,M,M,3000.00,M,M,M,VCSH,YBBN 080300Z 06009KT 9999 VCSH BKN030 28/20 Q1006 INTER 0300/0600 3000 SHRA BKN012
YBBN,2012-02-08 03:30,153.1292,-27.3917,80.60,66.20,61.58,60.00,7.00,0.00,29.71,M,6.21,M,BKN,M,M,M,3000.00,M,M,M,M,YBBN 080330Z 06007KT 9999 BKN030 27/19 Q1006 RMK CB TOPS TO NW
YBBN,2012-02-08 04:00,153.1292,-27.3917,82.40,68.00,61.81,60.00,7.00,0.00,29.68,M,6.21,M,SCT,M,M,M,3000.00,M,M,M,M,YBBN 080400Z 06007KT 9999 SCT030 28/20 Q1005 INTER 0400/0700 3000 SHRA BKN012
YBBN,2012-02-08 04:30,153.1292,-27.3917,84.20,68.00,58.32,80.00,6.00,0.00,29.68,M,6.21,M,FEW,SCT,M,M,2800.00,3200.00,M,M,M,YBBN 080430Z 08006KT 9999 FEW028CB SCT032 29/20 Q1005 RMK CBS TO WEST
YBBN,2012-02-08 05:00,153.1292,-27.3917,82.40,68.00,61.81,90.00,9.00,0.00,29.68,M,6.21,M,FEW,SCT,M,M,2800.00,3300.00,M,M,VCTS,YBBN 080500Z 09009KT 9999 VCTS FEW028CB SCT033 28/20 Q1005
YBBN,2012-02-08 05:30,153.1292,-27.3917,82.40,69.80,65.74,110.00,10.00,0.00,29.68,M,6.21,M,FEW,SCT,M,M,2600.00,25000.00,M,M,VCTS,YBBN 080530Z 11010KT 9999 VCTS FEW026CB SCT250 28/21 Q1005 RMK TS TO WEST
YBBN,2012-02-08 06:00,153.1292,-27.3917,80.60,69.80,69.71,110.00,10.00,0.00,29.68,M,4.97,M,FEW,SCT,BKN,FEW,700.00,10000.00,25000.00,2600.00,VCTS,YBBN 080600Z 11010KT 8000 VCTS FEW007 SCT100 BKN250 FEW026CB 27/21 Q1005 RMK TS TO WEST
YBBN,2012-02-08 06:11,153.1292,-27.3917,78.80,69.80,73.95,110.00,11.00,0.00,29.68,M,6.21,M,FEW,SCT,BKN,FEW,800.00,10000.00,25000.00,2600.00,SHRA VCTS,YBBN 080611Z 11011KT 9999 5000S SHRA VCTS FEW008 SCT100 BKN250 FEW026CB 26/21 Q1005
YBBN,2012-02-08 06:30,153.1292,-27.3917,73.40,69.80,88.51,170.00,15.00,0.00,29.68,M,3.11,M,SCT,SCT,FEW,M,1400.00,2000.00,1900.00,M,-SHRA VCTS,YBBN 080630Z 17015KT 5000 2000S -SHRA VCTS SCT014 SCT020 FEW019CB 23/21 Q1005 RMK TS TO S FM0640 11010KT 9999 -SHRA SCT025 BKN050 INTER 0630/0930 3000 SHRA BKN012 TEMPO 0700/0930 VRB20G35KT 2000 TSRA BKN012 SCT040CB
YBBN,2012-02-08 06:34,153.1292,-27.3917,71.60,69.80,94.06,180.00,14.00,0.00,29.71,M,1.86,M,FEW,SCT,BKN,FEW,800.00,1400.00,2000.00,1800.00,SHRA VCTS,YBBN 080634Z 18014KT 3000 0700S SHRA VCTS FEW008 SCT014 BKN020 FEW018CB 22/21 Q1006
YBBN,2012-02-08 06:40,153.1292,-27.3917,69.80,68.00,94.01,210.00,20.00,0.00,29.71,M,0.62,M,BKN,SCT,FEW,M,1000.00,2000.00,1800.00,M,+SHRA VCTS,YBBN 080640Z 21020KT 1000 0600S +SHRA VCTS BKN010 SCT020 FEW018CB 21/20 Q1006
YBBN,2012-02-08 06:53,153.1292,-27.3917,69.80,66.20,88.34,170.00,5.00,0.00,29.71,M,3.73,M,FEW,SCT,BKN,FEW,1000.00,1500.00,2200.00,2000.00,SHRA VCTS,YBBN 080653Z 17005KT 6000 1500N SHRA VCTS FEW010 SCT015 BKN022 FEW020CB 21/19 Q1006
YBBN,2012-02-08 07:00,153.1292,-27.3917,69.80,68.00,94.01,160.00,4.00,0.00,29.71,M,6.21,M,FEW,SCT,BKN,FEW,1000.00,2200.00,4000.00,2000.00,-SHRA VCTS,YBBN 080700Z 16004KT 9999 1500N -SHRA VCTS FEW010 SCT022 BKN040 FEW020CB 21/20 Q1006
YBBN,2012-02-08 07:10,153.1292,-27.3917,69.80,68.00,94.01,90.00,3.00,0.00,29.71,M,6.21,M,FEW,SCT,BKN,FEW,1000.00,2200.00,8000.00,2000.00,-SHRA VCTS,YBBN 080710Z 09003KT 9999 3000N -SHRA VCTS FEW010 SCT022 BKN080 FEW020CB 21/20 Q1006
YBBN,2012-02-08 07:23,153.1292,-27.3917,69.80,68.00,94.01,110.00,2.00,0.00,29.71,M,6.21,M,FEW,SCT,BKN,FEW,1000.00,2200.00,5000.00,2000.00,-SHRA VCTS,YBBN 080723Z 11002KT 9999 5000N -SHRA VCTS FEW010 SCT022 BKN050 FEW020CB 21/20 Q1006
YBBN,2012-02-08 07:30,153.1292,-27.3917,69.80,68.00,94.01,230.00,3.00,0.00,29.71,M,6.21,M,FEW,SCT,BKN,FEW,1200.00,2200.00,10000.00,2000.00,-SHRA VCTS,YBBN 080730Z 23003KT 9999 5000N -SHRA VCTS FEW012 SCT022 BKN100 FEW020CB 21/20 Q1006
YBBN,2012-02-08 07:49,153.1292,-27.3917,71.60,69.80,94.06,90.00,2.00,0.00,29.71,M,4.35,M,FEW,SCT,BKN,M,1400.00,2200.00,8000.00,M,-SHRA,YBBN 080749Z 09002KT 7000 -SHRA FEW014 SCT022 BKN080 22/21 Q1006
YBBN,2012-02-08 08:00,153.1292,-27.3917,71.60,69.80,94.06,90.00,1.00,0.00,29.74,M,4.35,M,FEW,SCT,BKN,M,1400.00,2200.00,10000.00,M,-SHRA,YBBN 080800Z 09001KT 7000 -SHRA FEW014 SCT022 BKN100 22/21 Q1007 RESHRA
YBBN,2012-02-08 08:30,153.1292,-27.3917,71.60,69.80,94.06,310.00,8.00,0.00,29.74,M,6.21,M,FEW,SCT,BKN,M,1500.00,2200.00,12000.00,M,-SHRA,YBBN 080830Z 31008KT 9999 4000N -SHRA FEW015 SCT022 BKN120 22/21 Q1007
YBBN,2012-02-08 09:00,153.1292,-27.3917,71.60,69.80,94.06,180.00,4.00,0.00,29.77,M,4.97,M,FEW,SCT,BKN,M,1500.00,4000.00,11000.00,M,-RA,YBBN 080900Z 18004KT 8000 -RA FEW015 SCT040 BKN110 22/21 Q1008
YBBN,2012-02-08 09:30,153.1292,-27.3917,73.40,69.80,88.51,150.00,6.00,0.00,29.74,M,6.21,M,FEW,SCT,BKN,M,1500.00,10000.00,15000.00,M,M,YBBN 080930Z 15006KT 9999 FEW015 SCT100 BKN150 23/21 Q1007
YBBN,2012-02-08 10:00,153.1292,-27.3917,73.40,69.80,88.51,200.00,5.00,0.00,29.77,M,6.21,M,FEW,BKN,M,M,1000.00,14000.00,M,M,M,YBBN 081000Z 20005KT 9999 FEW010 BKN140 23/21 Q1008
YBBN,2012-02-08 10:30,153.1292,-27.3917,73.40,69.80,88.51,190.00,9.00,0.00,29.77,M,6.21,M,FEW,BKN,M,M,1200.00,14000.00,M,M,M,YBBN 081030Z 19009KT 9999 FEW012 BKN140 23/21 Q1008
YBBN,2012-02-08 11:00,153.1292,-27.3917,73.40,69.80,88.51,180.00,9.00,0.00,29.80,M,6.21,M,FEW,BKN,M,M,1200.00,15000.00,M,M,M,YBBN 081100Z 18009KT 9999 FEW012 BKN150 23/21 Q1009 NOSIG
YBBN,2012-02-08 11:30,153.1292,-27.3917,73.40,68.00,83.21,170.00,7.00,0.00,29.80,M,6.21,M,FEW,BKN,M,M,1500.00,16000.00,M,M,M,YBBN 081130Z 17007KT 9999 FEW015 BKN160 23/20 Q1009
YBBN,2012-02-08 12:00,153.1292,-27.3917,71.60,68.00,88.43,170.00,8.00,0.00,29.80,M,6.21,M,FEW,BKN,M,M,2000.00,16000.00,M,M,M,YBBN 081200Z 17008KT 9999 FEW020 BKN160 22/20 Q1009 NOSIG
YBBN,2012-02-08 12:30,153.1292,-27.3917,71.60,66.20,83.09,160.00,5.00,0.00,29.80,M,6.21,M,FEW,SCT,M,M,2000.00,16000.00,M,M,M,YBBN 081230Z 16005KT 9999 FEW020 SCT160 22/19 Q1009
YBBN,2012-02-08 13:00,153.1292,-27.3917,71.60,66.20,83.09,170.00,7.00,0.00,29.80,M,6.21,M,FEW,M,M,M,2000.00,M,M,M,M,YBBN 081300Z 17007KT 9999 FEW020 22/19 Q1009 NOSIG
YBBN,2012-02-08 13:30,153.1292,-27.3917,71.60,66.20,83.09,190.00,5.00,0.00,29.77,M,6.21,M,FEW,M,M,M,2000.00,M,M,M,M,YBBN 081330Z 19005KT 9999 FEW020 22/19 Q1008
YBBN,2012-02-08 14:00,153.1292,-27.3917,69.80,64.40,82.98,200.00,6.00,0.00,29.77,M,6.21,M,FEW,M,M,M,2000.00,M,M,M,M,YBBN 081400Z 20006KT 9999 FEW020 21/18 Q1008
YBBN,2012-02-08 14:30,153.1292,-27.3917,69.80,64.40,82.98,220.00,5.00,0.00,29.77,M,6.21,M,FEW,M,M,M,2000.00,M,M,M,M,YBBN 081430Z 22005KT 9999 FEW020 21/18 Q1008
YBBN,2012-02-08 15:00,153.1292,-27.3917,68.00,66.20,93.97,210.00,6.00,0.00,29.77,M,6.21,M,FEW,M,M,M,2000.00,M,M,M,M,YBBN 081500Z 21006KT 9999 FEW020 20/19 Q1008 NOSIG
YBBN,2012-02-08 15:30,153.1292,-27.3917,68.00,66.20,93.97,240.00,8.00,0.00,29.77,M,6.21,M,FEW,M,M,M,2000.00,M,M,M,M,YBBN 081530Z 24008KT 9999 FEW020 20/19 Q1008
YBBN,2012-02-08 16:00,153.1292,-27.3917,69.80,66.20,88.34,210.00,6.00,0.00,29.77,M,6.21,M,FEW,M,M,M,2000.00,M,M,M,M,YBBN 081600Z 21006KT 9999 FEW020 21/19 Q1008 NOSIG
YBBN,2012-02-08 16:30,153.1292,-27.3917,69.80,64.40,82.98,210.00,7.00,0.00,29.77,M,6.21,M,FEW,M,M,M,2500.00,M,M,M,M,YBBN 081630Z 21007KT 9999 FEW025 21/18 Q1008
YBBN,2012-02-08 17:00,153.1292,-27.3917,68.00,66.20,93.97,210.00,7.00,0.00,29.77,M,6.21,M,FEW,M,M,M,2500.00,M,M,M,M,YBBN 081700Z 21007KT 9999 FEW025 20/19 Q1008 NOSIG
YBBN,2012-02-08 17:30,153.1292,-27.3917,68.00,66.20,93.97,210.00,6.00,0.00,29.77,M,6.21,M,FEW,M,M,M,2500.00,M,M,M,M,YBBN 081730Z 21006KT 9999 FEW025 20/19 Q1008
YBBN,2012-02-08 18:00,153.1292,-27.3917,68.00,66.20,93.97,210.00,5.00,0.00,29.77,M,6.21,M,FEW,M,M,M,3000.00,M,M,M,M,YBBN 081800Z 21005KT 9999 FEW030 20/19 Q1008
YBBN,2012-02-08 18:30,153.1292,-27.3917,68.00,64.40,88.26,210.00,5.00,0.00,29.77,M,6.21,M,FEW,M,M,M,3000.00,M,M,M,M,YBBN 081830Z 21005KT 9999 FEW030 20/18 Q1008
YBBN,2012-02-08 19:00,153.1292,-27.3917,68.00,64.40,88.26,210.00,6.00,0.00,29.77,M,6.21,M,FEW,M,M,M,3000.00,M,M,M,M,YBBN 081900Z 21006KT 9999 FEW030 20/18 Q1008
YBBN,2012-02-08 19:30,153.1292,-27.3917,68.00,64.40,88.26,210.00,6.00,0.00,29.77,M,6.21,M,FEW,M,M,M,3000.00,M,M,M,M,YBBN 081930Z 21006KT 9999 FEW030 20/18 Q1008
YBBN,2012-02-08 20:00,153.1292,-27.3917,68.00,64.40,88.26,210.00,8.00,0.00,29.77,M,6.21,M,FEW,M,M,M,2500.00,M,M,M,M,YBBN 082000Z 21008KT 9999 FEW025 20/18 Q1008 NOSIG
YBBN,2012-02-08 20:30,153.1292,-27.3917,69.80,66.20,88.34,210.00,7.00,0.00,29.80,M,6.21,M,FEW,M,M,M,2500.00,M,M,M,M,YBBN 082030Z 21007KT 9999 FEW025 21/19 Q1009
YBBN,2012-02-08 21:00,153.1292,-27.3917,71.60,66.20,83.09,210.00,9.00,0.00,29.80,M,6.21,M,FEW,M,M,M,2500.00,M,M,M,M,YBBN 082100Z 21009KT 9999 FEW025 22/19 Q1009 NOSIG
YBBN,2012-02-08 21:30,153.1292,-27.3917,73.40,66.20,78.19,210.00,11.00,0.00,29.80,M,6.21,M,FEW,M,M,M,2500.00,M,M,M,M,YBBN 082130Z 21011KT 9999 FEW025 23/19 Q1009
YBBN,2012-02-08 22:00,153.1292,-27.3917,75.20,66.20,73.61,210.00,11.00,0.00,29.80,M,6.21,M,FEW,M,M,M,2600.00,M,M,M,M,YBBN 082200Z 21011KT 9999 FEW026 24/19 Q1009
YBBN,2012-02-08 22:30,153.1292,-27.3917,77.00,66.20,69.33,220.00,10.00,0.00,29.83,M,6.21,M,FEW,M,M,M,2600.00,M,M,M,M,YBBN 082230Z 22010KT 9999 FEW026 25/19 Q1010
YBBN,2012-02-08 23:00,153.1292,-27.3917,78.80,66.20,65.33,200.00,8.00,0.00,29.83,M,6.21,M,FEW,SCT,M,M,2200.00,2700.00,M,M,M,YBBN 082300Z 20008KT 9999 FEW022 SCT027 26/19 Q1010
YBBN,2012-02-08 23:30,153.1292,-27.3917,78.80,66.20,65.33,180.00,7.00,0.00,29.83,M,6.21,M,FEW,BKN,M,M,2300.00,2800.00,M,M,M,YBBN 082330Z 18007KT 9999 FEW023 BKN028 26/19 Q1010
