#DEBUG: Format Typ    -> comma
#DEBUG: Time Period   -> 2012-10-22 00:00:00+00:00 2012-10-23 00:00:00+00:00
#DEBUG: Time Zone     -> Etc/UTC
#DEBUG: Data Contact   -> daryl herzmann akrherz@iastate.edu 515-294-5978
#DEBUG: Entries Found -> -1
station,valid,lon,lat,tmpf, dwpf, relh, drct, sknt, p01i, alti, mslp, vsby, gust, skyc1, skyc2, skyc3, skyc4, skyl1, skyl2, skyl3, skyl4, presentwx, metar
YBBN,2012-10-22 00:00,153.1292,-27.3917,82.40,64.40,54.55,30.00,9.00,0.00,29.91,M,6.21,M,FEW,BKN,M,M,3000.00,29000.00,M,M,M,YBBN 220000Z 03009KT 9999 FEW030 BKN290 28/18 Q1013
YBBN,2012-10-22 00:30,153.1292,-27.3917,80.60,66.20,61.58,20.00,11.00,0.00,29.88,M,6.21,M,FEW,BKN,M,M,3000.00,29000.00,M,M,M,YBBN 220030Z 02011KT 9999 FEW030 BKN290 27/19 Q1012 RMK FU
YBBN,2012-10-22 01:00,153.1292,-27.3917,80.60,64.40,57.84,30.00,10.00,0.00,29.88,M,6.21,M,FEW,SCT,M,M,3000.00,29000.00,M,M,M,YBBN 220100Z 03010KT 9999 FEW030 SCT290 27/18 Q1012
YBBN,2012-10-22 01:30,153.1292,-27.3917,80.60,64.40,57.84,30.00,14.00,0.00,29.85,M,6.21,M,FEW,SCT,M,M,3000.00,34000.00,M,M,M,YBBN 220130Z 03014KT 9999 FEW030 SCT340 27/18 Q1011 RMK FU
YBBN,2012-10-22 02:00,153.1292,-27.3917,80.60,66.20,61.58,20.00,13.00,0.00,29.83,M,6.21,M,FEW,M,M,M,3000.00,M,M,M,M,YBBN 220200Z 02013KT 9999 FEW030 27/19 Q1010 RMK FU
YBBN,2012-10-22 02:30,153.1292,-27.3917,80.60,68.00,65.54,30.00,13.00,0.00,29.83,M,6.21,M,FEW,M,M,M,3000.00,M,M,M,M,YBBN 220230Z 03013KT 9999 FEW030 27/20 Q1010 RMK FU
YBBN,2012-10-22 03:00,153.1292,-27.3917,80.60,68.00,65.54,20.00,14.00,0.00,29.80,M,6.21,M,FEW,M,M,M,3000.00,M,M,M,M,YBBN 220300Z 02014KT 9999 FEW030 27/20 Q1009 RMK FU
YBBN,2012-10-22 03:30,153.1292,-27.3917,80.60,66.20,61.58,20.00,14.00,0.00,29.80,M,6.21,M,M,M,M,M,M,M,M,M,M,YBBN 220330Z 02014KT CAVOK 27/19 Q1009 RMK FU
YBBN,2012-10-22 03:51,153.1292,-27.3917,78.80,68.00,69.52,20.00,16.00,0.00,29.77,M,6.21,M,M,M,M,M,M,M,M,M,M,YBBN 220351Z 02016KT CAVOK 26/20 Q1008
YBBN,2012-10-22 04:00,153.1292,-27.3917,80.60,68.00,65.54,10.00,17.00,0.00,29.77,M,6.21,M,M,M,M,M,M,M,M,M,M,YBBN 220400Z 01017KT CAVOK 27/20 Q1008 RMK FU
YBBN,2012-10-22 04:30,153.1292,-27.3917,80.60,66.20,61.58,20.00,15.00,0.00,29.77,M,6.21,M,M,M,M,M,M,M,M,M,M,YBBN 220430Z 02015KT CAVOK 27/19 Q1008 RMK FU
YBBN,2012-10-22 05:00,153.1292,-27.3917,80.60,66.20,61.58,20.00,13.00,0.00,29.74,M,6.21,M,M,M,M,M,M,M,M,M,M,YBBN 220500Z 02013KT CAVOK 27/19 Q1007 RMK FU
YBBN,2012-10-22 05:30,153.1292,-27.3917,78.80,68.00,69.52,10.00,16.00,0.00,29.74,M,6.21,M,M,M,M,M,M,M,M,M,M,YBBN 220530Z 01016KT CAVOK 26/20 Q1007 RMK FU
YBBN,2012-10-22 06:00,153.1292,-27.3917,78.80,68.00,69.52,10.00,14.00,0.00,29.77,M,6.21,M,M,M,M,M,M,M,M,M,M,YBBN 220600Z 01014KT CAVOK 26/20 Q1008 RMK FU
YBBN,2012-10-22 06:30,153.1292,-27.3917,78.80,68.00,69.52,20.00,10.00,0.00,29.77,M,6.21,M,M,M,M,M,M,M,M,M,M,YBBN 220630Z 02010KT CAVOK 26/20 Q1008 RMK FU
YBBN,2012-10-22 07:00,153.1292,-27.3917,77.00,69.80,78.48,10.00,13.00,0.00,29.77,M,6.21,M,M,M,M,M,M,M,M,M,M,YBBN 220700Z 01013KT CAVOK 25/21 Q1008 RMK TCU TOPS TO FAR SE SMOKE
YBBN,2012-10-22 08:00,153.1292,-27.3917,75.20,68.00,78.34,10.00,10.00,0.00,29.80,M,6.21,M,M,M,M,M,M,M,M,M,M,YBBN 220800Z 01010KT CAVOK 24/20 Q1009
YBBN,2012-10-22 08:30,153.1292,-27.3917,75.20,68.00,78.34,360.00,11.00,0.00,29.80,M,6.21,M,M,M,M,M,M,M,M,M,M,YBBN 220830Z 36011KT CAVOK 24/20 Q1009 RMK FU  BUSHFIRE TO SSW
YBBN,2012-10-22 09:00,153.1292,-27.3917,77.00,68.00,73.78,150.00,11.00,0.00,29.85,M,6.21,M,FEW,M,M,M,2000.00,M,M,M,M,YBBN 220900Z 15011KT 9999 FEW020 25/20 Q1011 RMK FU  SMOKE TO SSW
YBBN,2012-10-22 09:21,153.1292,-27.3917,75.20,64.40,69.14,120.00,15.00,0.00,29.88,M,6.21,27.00,FEW,M,M,M,2000.00,M,M,M,M,YBBN 220921Z 12015G27KT 9999 FEW020 24/18 Q1012
YBBN,2012-10-22 09:33,153.1292,-27.3917,73.40,64.40,73.44,120.00,17.00,0.00,29.88,M,6.21,27.00,FEW,M,M,M,2000.00,M,M,M,M,YBBN 220933Z 12017G27KT 9999 FEW020 23/18 Q1012
YBBN,2012-10-22 10:00,153.1292,-27.3917,73.40,62.60,68.94,130.00,14.00,0.00,29.91,M,6.21,26.00,FEW,M,M,M,2000.00,M,M,M,M,YBBN 221000Z 13014G26KT 9999 FEW020 23/17 Q1013 FM1000 MOD TURB BLW 5000FT
YBBN,2012-10-22 10:30,153.1292,-27.3917,71.60,60.80,68.75,130.00,15.00,0.00,29.91,M,6.21,26.00,FEW,M,M,M,2000.00,M,M,M,M,YBBN 221030Z 13015G26KT 9999 FEW020 22/16 Q1013 RMK FU FM1030 MOD TURB BLW 5000FT
YBBN,2012-10-22 10:38,153.1292,-27.3917,71.60,59.00,64.48,140.00,14.00,0.00,29.91,M,6.21,26.00,FEW,M,M,M,2000.00,M,M,M,M,YBBN 221038Z 14014G26KT 9999 FEW020 22/15 Q1013 RMK RUNWAY 19 SHORT FINAL. SEV TURB. SEV UNDERSHOOT WINDSHEAR BELOW 200FT
YBBN,2012-10-22 11:00,153.1292,-27.3917,71.60,59.00,64.48,140.00,14.00,0.00,29.94,M,6.21,M,FEW,M,M,M,2500.00,M,M,M,M,YBBN 221100Z 14014KT 9999 FEW025 22/15 Q1014 FM1100 MOD TURB BLW 5000FT
YBBN,2012-10-22 11:11,153.1292,-27.3917,69.80,57.20,64.26,150.00,15.00,0.00,29.94,M,6.21,32.00,FEW,SCT,M,M,2000.00,6500.00,M,M,M,YBBN 221111Z 15015G32KT 9999 FEW020 SCT065 21/14 Q1014
YBBN,2012-10-22 11:30,153.1292,-27.3917,68.00,55.40,64.04,150.00,17.00,0.00,29.97,M,6.21,28.00,FEW,BKN,M,M,1400.00,5000.00,M,M,M,YBBN 221130Z 15017G28KT 9999 FEW014 BKN050 20/13 Q1015
YBBN,2012-10-22 12:00,153.1292,-27.3917,68.00,51.80,56.13,150.00,16.00,0.00,29.97,M,6.21,27.00,FEW,BKN,M,M,1400.00,3500.00,M,M,M,YBBN 221200Z 15016G27KT 9999 FEW014 BKN035 20/11 Q1015
YBBN,2012-10-22 12:30,153.1292,-27.3917,66.20,51.80,59.74,150.00,13.00,0.00,30.00,M,6.21,23.00,FEW,BKN,M,M,1400.00,4000.00,M,M,M,YBBN 221230Z 15013G23KT 9999 FEW014 BKN040 19/11 Q1016 RMK FU
YBBN,2012-10-22 13:00,153.1292,-27.3917,66.20,51.80,59.74,150.00,13.00,0.00,30.00,M,6.21,M,FEW,BKN,M,M,1400.00,4000.00,M,M,M,YBBN 221300Z 15013KT 9999 FEW014 BKN040 19/11 Q1016 RMK FU
YBBN,2012-10-22 13:30,153.1292,-27.3917,66.20,50.00,55.88,160.00,13.00,0.00,30.00,M,6.21,24.00,FEW,BKN,M,M,1400.00,4500.00,M,M,M,YBBN 221330Z 16013G24KT 9999 FEW014 BKN045 19/10 Q1016
YBBN,2012-10-22 14:00,153.1292,-27.3917,64.40,48.20,55.63,150.00,13.00,0.00,30.03,M,6.21,M,FEW,BKN,M,M,1400.00,5000.00,M,M,M,YBBN 221400Z 15013KT 9999 FEW014 BKN050 18/09 Q1017
YBBN,2012-10-22 14:30,153.1292,-27.3917,64.40,46.40,51.98,160.00,11.00,0.00,30.03,M,6.21,M,FEW,BKN,M,M,1400.00,5000.00,M,M,M,YBBN 221430Z 16011KT 9999 FEW014 BKN050 18/08 Q1017
YBBN,2012-10-22 15:00,153.1292,-27.3917,64.40,46.40,51.98,160.00,8.00,0.00,30.03,M,6.21,M,FEW,BKN,M,M,1400.00,5500.00,M,M,M,YBBN 221500Z 16008KT 9999 FEW014 BKN055 18/08 Q1017 FM1500 MOD TURB BLW 5000FT
YBBN,2012-10-22 15:30,153.1292,-27.3917,64.40,44.60,48.55,170.00,7.00,0.00,30.03,M,6.21,M,FEW,BKN,M,M,1400.00,6000.00,M,M,M,YBBN 221530Z 17007KT 9999 FEW014 BKN060 18/07 Q1017
YBBN,2012-10-22 16:00,153.1292,-27.3917,62.60,46.40,55.37,180.00,9.00,0.00,30.03,M,6.21,M,FEW,BKN,M,M,1400.00,6000.00,M,M,M,YBBN 221600Z 18009KT 9999 FEW014 BKN060 17/08 Q1017 FM1600 MOD TURB BLW 5000FT
YBBN,2012-10-22 16:30,153.1292,-27.3917,60.80,44.60,55.12,210.00,8.00,0.00,30.03,M,6.21,M,FEW,BKN,M,M,1400.00,7000.00,M,M,M,YBBN 221630Z 21008KT 9999 FEW014 BKN070 16/07 Q1017
YBBN,2012-10-22 17:00,153.1292,-27.3917,60.80,42.80,51.45,200.00,9.00,0.00,30.03,M,6.21,M,FEW,BKN,M,M,1400.00,7000.00,M,M,M,YBBN 221700Z 20009KT 9999 FEW014 BKN070 16/06 Q1017
YBBN,2012-10-22 17:30,153.1292,-27.3917,60.80,41.00,48.00,200.00,9.00,0.00,30.03,M,6.21,M,FEW,SCT,BKN,M,1500.00,4500.00,8000.00,M,M,YBBN 221730Z 20009KT 9999 FEW015 SCT045 BKN080 16/05 Q1017 RMK FU
YBBN,2012-10-22 18:00,153.1292,-27.3917,60.80,41.00,48.00,200.00,9.00,0.00,30.06,M,6.21,M,SCT,BKN,M,M,4500.00,8000.00,M,M,M,YBBN 221800Z 20009KT 9999 SCT045 BKN080 16/05 Q1018 FM1800 MOD TURB BLW 5000FT
YBBN,2012-10-22 18:30,153.1292,-27.3917,60.80,41.00,48.00,200.00,8.00,0.00,30.06,M,6.21,M,FEW,BKN,M,M,4500.00,9000.00,M,M,M,YBBN 221830Z 20008KT 9999 FEW045 BKN090 16/05 Q1018
YBBN,2012-10-22 19:00,153.1292,-27.3917,59.00,41.00,51.18,210.00,8.00,0.00,30.06,M,6.21,M,FEW,BKN,M,M,1800.00,9000.00,M,M,M,YBBN 221900Z 21008KT 9999 FEW018 BKN090 15/05 Q1018 FM1900 MOD TURB BLW 5000FT
YBBN,2012-10-22 19:30,153.1292,-27.3917,57.20,41.00,54.60,210.00,7.00,0.00,30.09,M,6.21,M,FEW,SCT,M,M,1800.00,9000.00,M,M,M,YBBN 221930Z 21007KT 9999 FEW018 SCT090 14/05 Q1019 RMK FU
YBBN,2012-10-22 20:00,153.1292,-27.3917,60.80,41.00,48.00,210.00,7.00,0.00,30.09,M,6.21,M,FEW,M,M,M,2000.00,M,M,M,M,YBBN 222000Z 21007KT 9999 FEW020 16/05 Q1019 FM2000 MOD TURB BLW 5000FT
YBBN,2012-10-22 20:30,153.1292,-27.3917,62.60,39.20,42.00,200.00,9.00,0.00,30.12,M,6.21,M,FEW,M,M,M,2500.00,M,M,M,M,YBBN 222030Z 20009KT 9999 FEW025 17/04 Q1020
YBBN,2012-10-22 21:00,153.1292,-27.3917,64.40,39.20,39.43,200.00,8.00,0.00,30.12,M,6.21,M,FEW,M,M,M,3000.00,M,M,M,M,YBBN 222100Z 20008KT 9999 FEW030 18/04 Q1020
YBBN,2012-10-22 21:30,153.1292,-27.3917,66.20,39.20,37.03,190.00,9.00,0.00,30.12,M,6.21,M,FEW,M,M,M,3000.00,M,M,M,M,YBBN 222130Z 19009KT 9999 FEW030 19/04 Q1020
YBBN,2012-10-22 22:00,153.1292,-27.3917,68.00,41.00,37.32,160.00,12.00,0.00,30.12,M,6.21,M,FEW,M,M,M,3000.00,M,M,M,M,YBBN 222200Z 16012KT 9999 FEW030 20/05 Q1020 NOSIG
YBBN,2012-10-22 22:30,153.1292,-27.3917,68.00,39.20,34.80,180.00,13.00,0.00,30.15,M,6.21,24.00,FEW,M,M,M,3000.00,M,M,M,M,YBBN 222230Z 18013G24KT 9999 FEW030 20/04 Q1021
YBBN,2012-10-22 23:00,153.1292,-27.3917,69.80,39.20,32.72,170.00,12.00,0.00,30.15,M,6.21,M,M,M,M,M,M,M,M,M,M,YBBN 222300Z 17012KT CAVOK 21/04 Q1021
YBBN,2012-10-22 23:30,153.1292,-27.3917,69.80,39.20,32.72,180.00,13.00,0.00,30.15,M,6.21,24.00,M,M,M,M,M,M,M,M,M,YBBN 222330Z 18013G24KT CAVOK 21/04 Q1021
