#DEBUG: Format Typ    -> comma
#DEBUG: Time Period   -> 2014-09-03 00:00:00+00:00 2014-09-04 00:00:00+00:00
#DEBUG: Time Zone     -> Etc/UTC
#DEBUG: Data Contact   -> daryl herzmann akrherz@iastate.edu 515-294-5978
#DEBUG: Entries Found -> -1
station,valid,lon,lat,tmpf, dwpf, relh, drct, sknt, p01i, alti, mslp, vsby, gust, skyc1, skyc2, skyc3, skyc4, skyl1, skyl2, skyl3, skyl4, presentwx, metar
YBBN,2014-09-03 00:00,153.1292,-27.3917,62.60,30.20,29.35,250.00,21.00,0.00,29.88,M,6.21,M,M,M,M,M,M,M,M,M,M,YBBN 030000Z 25021KT CAVOK 17/M01 Q1012
YBBN,2014-09-03 00:30,153.1292,-27.3917,64.40,32.00,29.63,250.00,23.00,0.00,29.85,M,6.21,M,M,M,M,M,M,M,M,M,M,YBBN 030030Z 25023KT CAVOK 18/M00 Q1011 RMK AREAS S OF BLOWING DUST
YBBN,2014-09-03 01:00,153.1292,-27.3917,66.20,30.20,25.88,250.00,21.00,0.00,29.85,M,6.21,M,M,M,M,M,M,M,M,M,M,YBBN 030100Z 25021KT CAVOK 19/M01 Q1011 FM0100 MOD TURB BLW 5000FT
YBBN,2014-09-03 01:30,153.1292,-27.3917,68.00,28.40,22.59,260.00,22.00,0.00,29.85,M,6.21,M,M,M,M,M,M,M,M,M,M,YBBN 030130Z 26022KT CAVOK 20/M02 Q1011
YBBN,2014-09-03 02:00,153.1292,-27.3917,68.00,28.40,22.59,250.00,19.00,0.00,29.83,M,6.21,M,M,M,M,M,M,M,M,M,M,YBBN 030200Z 25019KT CAVOK 20/M02 Q1010 FM0200 MOD TURB BLW 5000FT
YBBN,2014-09-03 02:38,153.1292,-27.3917,69.80,28.40,21.24,250.00,20.00,0.00,29.83,M,6.21,30.00,M,M,M,M,M,M,M,M,M,YBBN 030238Z 25020G30KT CAVOK 21/M02 Q1010
YBBN,2014-09-03 03:07,153.1292,-27.3917,71.60,28.40,19.98,250.00,17.00,0.00,29.80,M,6.21,27.00,M,M,M,M,M,M,M,M,M,YBBN 030307Z 25017G27KT CAVOK 22/M02 Q1009
YBBN,2014-09-03 03:39,153.1292,-27.3917,71.60,26.60,18.55,280.00,21.00,0.00,29.80,M,6.21,M,M,M,M,M,M,M,M,M,M,YBBN 030339Z 28021KT CAVOK 22/M03 Q1009
YBBN,2014-09-03 03:43,153.1292,-27.3917,71.60,24.80,17.22,240.00,21.00,0.00,29.80,M,6.21,M,M,M,M,M,M,M,M,M,M,YBBN 030343Z 24021KT CAVOK 22/M04 Q1009
YBBN,2014-09-03 03:52,153.1292,-27.3917,71.60,24.80,17.22,270.00,20.00,0.00,29.80,M,6.21,M,M,M,M,M,M,M,M,M,M,YBBN 030352Z 27020KT CAVOK 22/M04 Q1009
YBBN,2014-09-03 04:00,153.1292,-27.3917,71.60,21.20,14.80,260.00,20.00,0.00,29.80,M,6.21,M,M,M,M,M,M,M,M,M,M,YBBN 030400Z 26020KT CAVOK 22/M06 Q1009 FM0400 MOD TURB BLW 5000FT
YBBN,2014-09-03 04:16,153.1292,-27.3917,71.60,21.20,14.80,230.00,16.00,0.00,29.80,M,6.21,M,M,M,M,M,M,M,M,M,M,YBBN 030416Z 23016KT CAVOK 22/M06 Q1009
YBBN,2014-09-03 04:30,153.1292,-27.3917,71.60,21.20,14.80,260.00,20.00,0.00,29.80,M,6.21,M,M,M,M,M,M,M,M,M,M,YBBN 030430Z 26020KT CAVOK 22/M06 Q1009
YBBN,2014-09-03 04:56,153.1292,-27.3917,71.60,15.80,11.74,230.00,19.00,0.00,29.80,M,6.21,M,M,M,M,M,M,M,M,M,M,YBBN 030456Z 23019KT CAVOK 22/M09 Q1009
YBBN,2014-09-03 05:00,153.1292,-27.3917,71.60,17.60,12.69,230.00,19.00,0.00,29.80,M,6.21,M,M,M,M,M,M,M,M,M,M,YBBN 030500Z 23019KT CAVOK 22/M08 Q1009
YBBN,2014-09-03 05:12,153.1292,-27.3917,71.60,19.40,13.71,230.00,16.00,0.00,29.80,M,6.21,26.00,M,M,M,M,M,M,M,M,M,YBBN 030512Z 23016G26KT CAVOK 22/M07 Q1009
YBBN,2014-09-03 05:30,153.1292,-27.3917,71.60,21.20,14.80,260.00,14.00,0.00,29.80,M,6.21,M,M,M,M,M,M,M,M,M,M,YBBN 030530Z 26014KT CAVOK 22/M06 Q1009
YBBN,2014-09-03 06:00,153.1292,-27.3917,71.60,19.40,13.71,250.00,15.00,0.00,29.80,M,6.21,M,M,M,M,M,M,M,M,M,M,YBBN 030600Z 25015KT CAVOK 22/M07 Q1009 FM0600 MOD TURB BLW 5000FT
YBBN,2014-09-03 06:30,153.1292,-27.3917,69.80,19.40,14.57,250.00,16.00,0.00,29.80,M,6.21,M,M,M,M,M,M,M,M,M,M,YBBN 030630Z 25016KT CAVOK 21/M07 Q1009
YBBN,2014-09-03 07:00,153.1292,-27.3917,68.00,24.80,19.47,260.00,17.00,0.00,29.83,M,6.21,M,M,M,M,M,M,M,M,M,M,YBBN 030700Z 26017KT CAVOK 20/M04 Q1010 FM0700 MOD TURB BLW 5000FT TILL 0800
YBBN,2014-09-03 07:30,153.1292,-27.3917,66.20,24.80,20.72,250.00,15.00,0.00,29.83,M,6.21,M,M,M,M,M,M,M,M,M,M,YBBN 030730Z 25015KT CAVOK 19/M04 Q1010
YBBN,2014-09-03 08:00,153.1292,-27.3917,64.40,26.60,23.77,250.00,14.00,0.00,29.85,M,6.21,M,M,M,M,M,M,M,M,M,M,YBBN 030800Z 25014KT CAVOK 18/M03 Q1011 NOSIG
YBBN,2014-09-03 08:30,153.1292,-27.3917,64.40,26.60,23.77,250.00,12.00,0.00,29.85,M,6.21,M,M,M,M,M,M,M,M,M,M,YBBN 030830Z 25012KT CAVOK 18/M03 Q1011
YBBN,2014-09-03 09:00,153.1292,-27.3917,64.40,26.60,23.77,260.00,10.00,0.00,29.88,M,6.21,M,M,M,M,M,M,M,M,M,M,YBBN 030900Z 26010KT CAVOK 18/M03 Q1012
YBBN,2014-09-03 09:30,153.1292,-27.3917,62.60,26.60,25.32,250.00,12.00,0.00,29.88,M,6.21,M,M,M,M,M,M,M,M,M,M,YBBN 030930Z 25012KT CAVOK 17/M03 Q1012
YBBN,2014-09-03 10:00,153.1292,-27.3917,62.60,24.80,23.50,250.00,14.00,0.00,29.88,M,6.21,M,M,M,M,M,M,M,M,M,M,YBBN 031000Z 25014KT CAVOK 17/M04 Q1012
YBBN,2014-09-03 10:30,153.1292,-27.3917,60.80,23.00,23.23,240.00,12.00,0.00,29.91,M,6.21,M,M,M,M,M,M,M,M,M,M,YBBN 031030Z 24012KT CAVOK 16/M05 Q1013
YBBN,2014-09-03 11:00,153.1292,-27.3917,60.80,21.20,21.53,250.00,12.00,0.00,29.91,M,6.21,M,M,M,M,M,M,M,M,M,M,YBBN 031100Z 25012KT CAVOK 16/M06 Q1013
YBBN,2014-09-03 11:30,153.1292,-27.3917,60.80,23.00,23.23,250.00,13.00,0.00,29.91,M,6.21,M,M,M,M,M,M,M,M,M,M,YBBN 031130Z 25013KT CAVOK 16/M05 Q1013
YBBN,2014-09-03 12:00,153.1292,-27.3917,59.00,23.00,24.76,250.00,11.00,0.00,29.91,M,6.21,M,M,M,M,M,M,M,M,M,M,YBBN 031200Z 25011KT CAVOK 15/M05 Q1013 NOSIG
YBBN,2014-09-03 12:30,153.1292,-27.3917,59.00,23.00,24.76,250.00,10.00,0.00,29.91,M,6.21,M,M,M,M,M,M,M,M,M,M,YBBN 031230Z 25010KT CAVOK 15/M05 Q1013
YBBN,2014-09-03 13:00,153.1292,-27.3917,57.20,26.60,30.69,270.00,9.00,0.00,29.91,M,6.21,M,M,M,M,M,M,M,M,M,M,YBBN 031300Z 27009KT CAVOK 14/M03 Q1013
YBBN,2014-09-03 13:30,153.1292,-27.3917,57.20,23.00,26.42,260.00,13.00,0.00,29.91,M,6.21,M,M,M,M,M,M,M,M,M,M,YBBN 031330Z 26013KT CAVOK 14/M05 Q1013
YBBN,2014-09-03 14:00,153.1292,-27.3917,57.20,23.00,26.42,260.00,9.00,0.00,29.91,M,6.21,M,M,M,M,M,M,M,M,M,M,YBBN 031400Z 26009KT CAVOK 14/M05 Q1013
YBBN,2014-09-03 14:30,153.1292,-27.3917,55.40,26.60,32.76,280.00,8.00,0.00,29.91,M,6.21,M,M,M,M,M,M,M,M,M,M,YBBN 031430Z 28008KT CAVOK 13/M03 Q1013
YBBN,2014-09-03 15:00,153.1292,-27.3917,53.60,24.80,32.46,270.00,7.00,0.00,29.91,M,6.21,M,M,M,M,M,M,M,M,M,M,YBBN 031500Z 27007KT CAVOK 12/M04 Q1013
YBBN,2014-09-03 15:30,153.1292,-27.3917,51.80,26.60,37.38,250.00,9.00,0.00,29.91,M,6.21,M,M,M,M,M,M,M,M,M,M,YBBN 031530Z 25009KT CAVOK 11/M03 Q1013
YBBN,2014-09-03 16:00,153.1292,-27.3917,51.80,24.80,34.69,230.00,6.00,0.00,29.91,M,6.21,M,M,M,M,M,M,M,M,M,M,YBBN 031600Z 23006KT CAVOK 11/M04 Q1013
YBBN,2014-09-03 16:30,153.1292,-27.3917,50.00,24.80,37.08,210.00,7.00,0.00,29.88,M,6.21,M,M,M,M,M,M,M,M,M,M,YBBN 031630Z 21007KT CAVOK 10/M04 Q1012
YBBN,2014-09-03 17:00,153.1292,-27.3917,48.20,26.60,42.73,250.00,10.00,0.00,29.88,M,6.21,M,M,M,M,M,M,M,M,M,M,YBBN 031700Z 25010KT CAVOK 09/M03 Q1012 NOSIG
YBBN,2014-09-03 17:30,153.1292,-27.3917,50.00,26.60,39.95,280.00,6.00,0.00,29.88,M,6.21,M,M,M,M,M,M,M,M,M,M,YBBN 031730Z 28006KT CAVOK 10/M03 Q1012
YBBN,2014-09-03 18:00,153.1292,-27.3917,46.40,30.20,53.00,330.00,4.00,0.00,29.88,M,6.21,M,M,M,M,M,M,M,M,M,M,YBBN 031800Z 33004KT CAVOK 08/M01 Q1012
YBBN,2014-09-03 18:30,153.1292,-27.3917,50.00,26.60,39.95,270.00,4.00,0.00,29.91,M,6.21,M,M,M,M,M,M,M,M,M,M,YBBN 031830Z 27004KT CAVOK 10/M03 Q1013
YBBN,2014-09-03 19:00,153.1292,-27.3917,46.40,28.40,49.24,300.00,5.00,0.00,29.91,M,6.21,M,M,M,M,M,M,M,M,M,M,YBBN 031900Z 30005KT CAVOK 08/M02 Q1013 NOSIG
YBBN,2014-09-03 19:30,153.1292,-27.3917,46.40,28.40,49.24,280.00,6.00,0.00,29.91,M,6.21,M,M,M,M,M,M,M,M,M,M,YBBN 031930Z 28006KT CAVOK 08/M02 Q1013
YBBN,2014-09-03 20:00,153.1292,-27.3917,46.40,28.40,49.24,280.00,7.00,0.00,29.94,M,6.21,M,M,M,M,M,M,M,M,M,M,YBBN 032000Z 28007KT CAVOK 08/M02 Q1014 NOSIG
YBBN,2014-09-03 20:30,153.1292,-27.3917,48.20,28.40,46.02,260.00,8.00,0.00,29.94,M,6.21,M,M,M,M,M,M,M,M,M,M,YBBN 032030Z 26008KT CAVOK 09/M02 Q1014
YBBN,2014-09-03 21:00,153.1292,-27.3917,51.80,30.20,43.32,250.00,8.00,0.00,29.94,M,6.21,M,M,M,M,M,M,M,M,M,M,YBBN 032100Z 25008KT CAVOK 11/M01 Q1014 NOSIG
YBBN,2014-09-03 21:30,153.1292,-27.3917,55.40,28.40,35.28,260.00,8.00,0.00,29.97,M,6.21,M,M,M,M,M,M,M,M,M,M,YBBN 032130Z 26008KT CAVOK 13/M02 Q1015
YBBN,2014-09-03 22:00,153.1292,-27.3917,57.20,28.40,33.05,270.00,5.00,0.00,29.97,M,6.21,M,M,M,M,M,M,M,M,M,M,YBBN 032200Z 27005KT CAVOK 14/M02 Q1015 NOSIG
YBBN,2014-09-03 22:30,153.1292,-27.3917,59.00,30.20,33.35,280.00,6.00,0.00,29.97,M,6.21,M,M,M,M,M,M,M,M,M,M,YBBN 032230Z 28006KT CAVOK 15/M01 Q1015
YBBN,2014-09-03 23:00,153.1292,-27.3917,62.60,24.80,23.50,220.00,6.00,0.00,29.94,M,6.21,M,M,M,M,M,M,M,M,M,M,YBBN 032300Z 22006KT CAVOK 17/M04 Q1014 NOSIG
YBBN,2014-09-03 23:30,153.1292,-27.3917,64.40,23.00,20.46,210.00,10.00,0.00,29.94,M,6.21,M,M,M,M,M,M,M,M,M,M,YBBN 032330Z 21010KT CAVOK 18/M05 Q1014
