#DEBUG: Format Typ    -> comma
#DEBUG: Time Period   -> 2016-11-28 00:00:00+00:00 2016-11-29 00:00:00+00:00
#DEBUG: Time Zone     -> Etc/UTC
#DEBUG: Data Contact   -> daryl herzmann akrherz@iastate.edu 515-294-5978
#DEBUG: Entries Found -> -1
station,valid,lon,lat,tmpf, dwpf, relh, drct, sknt, p01i, alti, mslp, vsby, gust, skyc1, skyc2, skyc3, skyc4, skyl1, skyl2, skyl3, skyl4, presentwx, metar
YBBN,2016-11-28 00:00,153.1292,-27.3917,78.80,62.60,57.60,350.00,8.00,0.00,30.00,M,6.21,M,SCT,M,M,M,3000.00,M,M,M,M,YBBN 280000Z 35008KT 9999 SCT030 26/17 Q1016
YBBN,2016-11-28 00:30,153.1292,-27.3917,78.80,62.60,57.60,20.00,6.00,0.00,30.00,M,6.21,M,SCT,M,M,M,3000.00,M,M,M,M,YBBN 280030Z 02006KT 350V070 9999 SCT030 26/17 Q1016 NOSIG
YBBN,2016-11-28 01:00,153.1292,-27.3917,78.80,62.60,57.60,10.00,8.00,0.00,30.00,M,6.21,M,FEW,M,M,M,3500.00,M,M,M,M,YBBN 280100Z 01008KT 340V040 9999 FEW035 26/17 Q1016
YBBN,2016-11-28 01:30,153.1292,-27.3917,78.80,62.60,57.60,20.00,8.00,0.00,30.00,M,6.21,M,SCT,M,M,M,3500.00,M,M,M,M,YBBN 280130Z 02008KT 350V050 9999 SCT035 26/17 Q1016 NOSIG
YBBN,2016-11-28 02:00,153.1292,-27.3917,78.80,62.60,57.60,20.00,10.00,0.00,29.97,M,6.21,M,FEW,M,M,M,3500.00,M,M,M,M,YBBN 280200Z 02010KT 9999 FEW035 26/17 Q1015 NOSIG
YBBN,2016-11-28 02:30,153.1292,-27.3917,78.80,60.80,54.05,20.00,11.00,0.00,29.97,M,6.21,M,FEW,M,M,M,3500.00,M,M,M,M,YBBN 280230Z 02011KT 9999 FEW035 26/16 Q1015 NOSIG
YBBN,2016-11-28 03:00,153.1292,-27.3917,78.80,64.40,61.36,30.00,13.00,0.00,29.97,M,6.21,M,FEW,M,M,M,3500.00,M,M,M,M,YBBN 280300Z 03013KT 9999 FEW035 26/18 Q1015 NOSIG
YBBN,2016-11-28 03:30,153.1292,-27.3917,78.80,64.40,61.36,30.00,13.00,0.00,29.94,M,6.21,M,FEW,FEW,M,M,3500.00,3700.00,M,M,M,YBBN 280330Z 03013KT 9999 FEW035 FEW037TCU 26/18 Q1014 NOSIG
YBBN,2016-11-28 04:00,153.1292,-27.3917,78.80,64.40,61.36,20.00,13.00,0.00,29.94,M,6.21,M,FEW,M,M,M,3500.00,M,M,M,M,YBBN 280400Z 02013KT 9999 FEW035 26/18 Q1014 NOSIG
YBBN,2016-11-28 04:30,153.1292,-27.3917,78.80,64.40,61.36,20.00,15.00,0.00,29.94,M,6.21,M,FEW,M,M,M,3500.00,M,M,M,M,YBBN 280430Z 02015KT 9999 FEW035 26/18 Q1014
YBBN,2016-11-28 05:00,153.1292,-27.3917,78.80,62.60,57.60,20.00,16.00,0.00,29.91,M,6.21,M,FEW,M,M,M,3500.00,M,M,M,M,YBBN 280500Z 02016KT 9999 FEW035 26/17 Q1013 NOSIG
YBBN,2016-11-28 05:30,153.1292,-27.3917,77.00,62.60,61.13,20.00,17.00,0.00,29.91,M,6.21,M,FEW,M,M,M,3000.00,M,M,M,M,YBBN 280530Z 02017KT 9999 FEW030 25/17 Q1013 NOSIG
YBBN,2016-11-28 06:00,153.1292,-27.3917,77.00,60.80,57.36,10.00,17.00,0.00,29.91,M,6.21,M,FEW,M,M,M,3500.00,M,M,M,M,YBBN 280600Z 01017KT 9999 FEW035 25/16 Q1013 NOSIG
YBBN,2016-11-28 07:00,153.1292,-27.3917,75.20,59.00,57.12,10.00,17.00,0.00,29.91,M,6.21,M,FEW,M,M,M,3000.00,M,M,M,M,YBBN 280700Z 01017KT 9999 FEW030 24/15 Q1013
YBBN,2016-11-28 08:00,153.1292,-27.3917,73.40,57.20,56.88,10.00,13.00,0.00,29.94,M,6.21,M,FEW,BKN,M,M,2500.00,28000.00,M,M,M,YBBN 280800Z 01013KT 9999 FEW025 BKN280 23/14 Q1014
YBBN,2016-11-28 09:00,153.1292,-27.3917,73.40,59.00,60.67,20.00,12.00,0.00,29.94,M,6.21,M,FEW,BKN,M,M,2000.00,28000.00,M,M,M,YBBN 280900Z 02012KT 9999 FEW020 BKN280 23/15 Q1014 NOSIG
YBBN,2016-11-28 09:30,153.1292,-27.3917,73.40,59.00,60.67,30.00,11.00,0.00,29.97,M,6.21,M,FEW,BKN,M,M,2000.00,28000.00,M,M,M,YBBN 280930Z 03011KT 9999 FEW020 BKN280 23/15 Q1015
YBBN,2016-11-28 10:00,153.1292,-27.3917,73.40,59.00,60.67,30.00,11.00,0.00,29.94,M,6.21,M,FEW,BKN,M,M,2000.00,28000.00,M,M,M,YBBN 281000Z 03011KT 9999 FEW020 BKN280 23/15 Q1014 NOSIG
YBBN,2016-11-28 10:30,153.1292,-27.3917,73.40,60.80,64.69,20.00,12.00,0.00,29.97,M,6.21,M,SCT,SCT,M,M,3200.00,24000.00,M,M,M,YBBN 281030Z 02012KT 9999 SCT032 SCT240 23/16 Q1015 NOSIG
YBBN,2016-11-28 11:00,153.1292,-27.3917,73.40,60.80,64.69,20.00,11.00,0.00,29.97,M,6.21,M,FEW,BKN,M,M,3000.00,23000.00,M,M,M,YBBN 281100Z 02011KT 9999 FEW030 BKN230 23/16 Q1015 NOSIG
YBBN,2016-11-28 11:30,153.1292,-27.3917,73.40,60.80,64.69,50.00,7.00,0.00,30.00,M,6.21,M,BKN,SCT,M,M,3000.00,4200.00,M,M,M,YBBN 281130Z 05007KT 9999 BKN030 SCT042 23/16 Q1016 NOSIG
YBBN,2016-11-28 12:00,153.1292,-27.3917,73.40,59.00,60.67,60.00,7.00,0.00,30.00,M,6.21,M,BKN,BKN,M,M,3000.00,4200.00,M,M,M,YBBN 281200Z 06007KT 9999 BKN030 BKN042 23/15 Q1016 NOSIG
YBBN,2016-11-28 12:30,153.1292,-27.3917,73.40,59.00,60.67,50.00,7.00,0.00,30.00,M,6.21,M,FEW,BKN,BKN,M,3000.00,6900.00,24000.00,M,M,YBBN 281230Z 05007KT 9999 FEW030 BKN069 BKN240 23/15 Q1016 NOSIG
YBBN,2016-11-28 13:00,153.1292,-27.3917,73.40,59.00,60.67,30.00,8.00,0.00,30.00,M,6.21,M,FEW,BKN,M,M,3000.00,6900.00,M,M,M,YBBN 281300Z 03008KT 9999 FEW030 BKN069 23/15 Q1016 NOSIG
YBBN,2016-11-28 13:30,153.1292,-27.3917,71.60,59.00,64.48,30.00,9.00,0.00,30.00,M,6.21,M,FEW,BKN,BKN,M,3000.00,6500.00,22500.00,M,M,YBBN 281330Z 03009KT 9999 FEW030 BKN065 BKN225 22/15 Q1016 NOSIG
YBBN,2016-11-28 14:00,153.1292,-27.3917,71.60,59.00,64.48,10.00,7.00,0.00,29.97,M,6.21,M,FEW,SCT,BKN,M,3000.00,6500.00,20500.00,M,M,YBBN 281400Z 01007KT 9999 FEW030 SCT065 BKN205 22/15 Q1015
YBBN,2016-11-28 14:30,153.1292,-27.3917,71.60,59.00,64.48,350.00,7.00,0.00,29.97,M,6.21,M,FEW,OVC,M,M,3000.00,20500.00,M,M,M,YBBN 281430Z 35007KT 9999 FEW030 OVC205 22/15 Q1015 NOSIG
YBBN,2016-11-28 15:00,153.1292,-27.3917,71.60,60.80,68.75,300.00,7.00,0.00,29.94,M,6.21,M,FEW,BKN,M,M,2000.00,24000.00,M,M,M,YBBN 281500Z 30007KT 9999 FEW020 BKN240 22/16 Q1014
YBBN,2016-11-28 15:30,153.1292,-27.3917,71.60,60.80,68.75,330.00,8.00,0.00,29.91,M,6.21,M,FEW,OVC,M,M,2000.00,22000.00,M,M,M,YBBN 281530Z 33008KT 9999 FEW020 OVC220 22/16 Q1013 NOSIG
YBBN,2016-11-28 16:00,153.1292,-27.3917,69.80,60.80,73.09,360.00,10.00,0.00,29.88,M,6.21,M,FEW,OVC,M,M,4500.00,22000.00,M,M,M,YBBN 281600Z 36010KT 9999 FEW045 OVC220 21/16 Q1012 NOSIG
YBBN,2016-11-28 16:30,153.1292,-27.3917,71.60,60.80,68.75,360.00,10.00,0.00,29.85,M,6.21,M,FEW,BKN,M,M,2000.00,21500.00,M,M,M,YBBN 281630Z 36010KT 9999 FEW020 BKN215 22/16 Q1011 NOSIG
YBBN,2016-11-28 17:00,153.1292,-27.3917,71.60,59.00,64.48,360.00,11.00,0.00,29.85,M,6.21,M,FEW,BKN,M,M,2000.00,20000.00,M,M,M,YBBN 281700Z 36011KT 9999 FEW020 BKN200 22/15 Q1011 NOSIG
YBBN,2016-11-28 17:30,153.1292,-27.3917,69.80,59.00,68.55,10.00,11.00,0.00,29.85,M,6.21,M,FEW,M,M,M,2000.00,M,M,M,M,YBBN 281730Z 01011KT 9999 FEW020 21/15 Q1011 NOSIG
YBBN,2016-11-28 18:00,153.1292,-27.3917,68.00,59.00,72.92,10.00,9.00,0.00,29.88,M,6.21,M,FEW,M,M,M,2000.00,M,M,M,M,YBBN 281800Z 01009KT 9999 FEW020 20/15 Q1012 NOSIG
YBBN,2016-11-28 18:30,153.1292,-27.3917,69.80,60.80,73.09,310.00,6.00,0.00,29.88,M,6.21,M,FEW,M,M,M,2000.00,M,M,M,M,YBBN 281830Z 31006KT 270V350 9999 FEW020 21/16 Q1012 NOSIG
YBBN,2016-11-28 19:00,153.1292,-27.3917,68.00,60.80,77.75,280.00,5.00,0.00,29.88,M,6.21,M,FEW,M,M,M,2000.00,M,M,M,M,YBBN 281900Z 28005KT 9999 FEW020 20/16 Q1012 NOSIG
YBBN,2016-11-28 19:30,153.1292,-27.3917,69.80,60.80,73.09,270.00,5.00,0.00,29.88,M,6.21,M,M,M,M,M,M,M,M,M,M,YBBN 281930Z 27005KT 170V290 CAVOK 21/16 Q1012 NOSIG
YBBN,2016-11-28 20:00,153.1292,-27.3917,71.60,60.80,68.75,260.00,5.00,0.00,29.91,M,6.21,M,FEW,M,M,M,2000.00,M,M,M,M,YBBN 282000Z 26005KT 9999 FEW020 22/16 Q1013 NOSIG
YBBN,2016-11-28 20:30,153.1292,-27.3917,73.40,60.80,64.69,280.00,5.00,0.00,29.91,M,6.21,M,FEW,M,M,M,2800.00,M,M,M,M,YBBN 282030Z 28005KT 9999 FEW028 23/16 Q1013 NOSIG
YBBN,2016-11-28 21:00,153.1292,-27.3917,75.20,60.80,60.90,330.00,6.00,0.00,29.91,M,6.21,M,FEW,M,M,M,2800.00,M,M,M,M,YBBN 282100Z 33006KT 9999 FEW028 24/16 Q1013 NOSIG
YBBN,2016-11-28 21:30,153.1292,-27.3917,75.20,59.00,57.12,320.00,7.00,0.00,29.91,M,6.21,M,FEW,M,M,M,2800.00,M,M,M,M,YBBN 282130Z 32007KT 290V350 9999 FEW028 24/15 Q1013 NOSIG
YBBN,2016-11-28 22:00,153.1292,-27.3917,75.20,57.20,53.55,340.00,8.00,0.00,29.91,M,6.21,M,FEW,M,M,M,2800.00,M,M,M,M,YBBN 282200Z 34008KT 9999 FEW028 24/14 Q1013 NOSIG
YBBN,2016-11-28 22:30,153.1292,-27.3917,77.00,59.00,53.80,350.00,9.00,0.00,29.91,M,6.21,M,FEW,M,M,M,3200.00,M,M,M,M,YBBN 282230Z 35009KT 9999 FEW032 25/15 Q1013 NOSIG
YBBN,2016-11-28 23:00,153.1292,-27.3917,77.00,59.00,53.80,360.00,8.00,0.00,29.91,M,6.21,M,FEW,M,M,M,3200.00,M,M,M,M,YBBN 282300Z 36008KT 9999 FEW032 25/15 Q1013 NOSIG
YBBN,2016-11-28 23:30,153.1292,-27.3917,78.80,60.80,54.05,20.00,10.00,0.00,29.91,M,6.21,M,FEW,M,M,M,3600.00,M,M,M,M,YBBN 282330Z 02010KT 9999 FEW036 26/16 Q1013 NOSIG
