#DEBUG: Format Typ    -> comma
#DEBUG: Time Period   -> 2014-08-21 00:00:00+00:00 2014-08-22 00:00:00+00:00
#DEBUG: Time Zone     -> Etc/UTC
#DEBUG: Data Contact   -> daryl herzmann akrherz@iastate.edu 515-294-5978
#DEBUG: Entries Found -> -1
station,valid,lon,lat,tmpf, dwpf, relh, drct, sknt, p01i, alti, mslp, vsby, gust, skyc1, skyc2, skyc3, skyc4, skyl1, skyl2, skyl3, skyl4, presentwx, metar
YBBN,2014-08-21 00:00,153.1292,-27.3917,68.00,48.20,49.10,150.00,12.00,0.00,30.18,M,6.21,M,FEW,M,M,M,3600.00,M,M,M,M,YBBN 210000Z 15012KT 9999 FEW036 20/09 Q1022 NOSIG
YBBN,2014-08-21 00:30,153.1292,-27.3917,68.00,48.20,49.10,150.00,11.00,0.00,30.18,M,6.21,21.00,FEW,SCT,M,M,2500.00,3800.00,M,M,M,YBBN 210030Z 15011G21KT 9999 FEW025 SCT038 20/09 Q1022
YBBN,2014-08-21 01:00,153.1292,-27.3917,69.80,50.00,49.37,150.00,11.00,0.00,30.18,M,6.21,M,FEW,SCT,M,M,2500.00,3800.00,M,M,M,YBBN 210100Z 15011KT 9999 FEW025 SCT038 21/10 Q1022 NOSIG
YBBN,2014-08-21 01:30,153.1292,-27.3917,69.80,50.00,49.37,150.00,10.00,0.00,30.18,M,6.21,M,FEW,SCT,M,M,2500.00,4000.00,M,M,M,YBBN 210130Z 15010KT 9999 FEW025 SCT040 21/10 Q1022
YBBN,2014-08-21 02:00,153.1292,-27.3917,69.80,50.00,49.37,150.00,11.00,0.00,30.15,M,6.21,M,FEW,SCT,M,M,2500.00,4000.00,M,M,M,YBBN 210200Z 15011KT 9999 FEW025 SCT040 21/10 Q1021
YBBN,2014-08-21 02:30,153.1292,-27.3917,69.80,48.20,46.16,130.00,9.00,0.00,30.15,M,6.21,M,FEW,SCT,M,M,2500.00,4000.00,M,M,M,YBBN 210230Z 13009KT 9999 FEW025 SCT040 21/09 Q1021
YBBN,2014-08-21 03:00,153.1292,-27.3917,69.80,48.20,46.16,130.00,13.00,0.00,30.15,M,6.21,M,FEW,SCT,M,M,2500.00,4200.00,M,M,M,YBBN 210300Z 13013KT 9999 FEW025 SCT042 21/09 Q1021
YBBN,2014-08-21 03:30,153.1292,-27.3917,69.80,50.00,49.37,160.00,10.00,0.00,30.12,M,6.21,M,FEW,SCT,M,M,2500.00,4200.00,M,M,M,YBBN 210330Z 16010KT 9999 FEW025 SCT042 21/10 Q1020
YBBN,2014-08-21 04:00,153.1292,-27.3917,69.80,50.00,49.37,110.00,11.00,0.00,30.12,M,6.21,22.00,FEW,SCT,M,M,2500.00,4200.00,M,M,M,YBBN 210400Z 11011G22KT 9999 FEW025 SCT042 21/10 Q1020 NOSIG
YBBN,2014-08-21 04:30,153.1292,-27.3917,68.00,50.00,52.51,130.00,12.00,0.00,30.12,M,6.21,M,FEW,SCT,M,M,2500.00,4500.00,M,M,M,YBBN 210430Z 13012KT 9999 FEW025 SCT045 20/10 Q1020
YBBN,2014-08-21 05:00,153.1292,-27.3917,69.80,51.80,52.77,140.00,12.00,0.00,30.12,M,6.21,M,FEW,M,M,M,2800.00,M,M,M,M,YBBN 210500Z 14012KT 9999 FEW028 21/11 Q1020 NOSIG
YBBN,2014-08-21 05:30,153.1292,-27.3917,68.00,50.00,52.51,130.00,14.00,0.00,30.12,M,6.21,M,FEW,M,M,M,2800.00,M,M,M,M,YBBN 210530Z 13014KT 9999 FEW028 20/10 Q1020
YBBN,2014-08-21 06:00,153.1292,-27.3917,66.20,53.60,63.82,120.00,13.00,0.00,30.12,M,6.21,M,FEW,M,M,M,2800.00,M,M,M,M,YBBN 210600Z 12013KT 9999 FEW028 19/12 Q1020
YBBN,2014-08-21 06:30,153.1292,-27.3917,66.20,53.60,63.82,140.00,11.00,0.00,30.15,M,6.21,M,FEW,M,M,M,2800.00,M,M,M,M,YBBN 210630Z 14011KT 9999 FEW028 19/12 Q1021
YBBN,2014-08-21 07:00,153.1292,-27.3917,64.40,53.60,67.95,150.00,12.00,0.00,30.18,M,6.21,M,FEW,M,M,M,2800.00,M,M,M,M,YBBN 210700Z 15012KT 9999 FEW028 18/12 Q1022
YBBN,2014-08-21 07:30,153.1292,-27.3917,64.40,51.80,63.60,140.00,11.00,0.00,30.18,M,6.21,M,FEW,SCT,M,M,1800.00,3000.00,M,M,M,YBBN 210730Z 14011KT 9999 FEW018 SCT030 18/11 Q1022
YBBN,2014-08-21 08:00,153.1292,-27.3917,64.40,53.60,67.95,130.00,10.00,0.00,30.18,M,6.21,M,FEW,SCT,M,M,1800.00,3600.00,M,M,-SHRA,YBBN 210800Z 13010KT 9999 -SHRA FEW018 SCT036 18/12 Q1022 INTER 0900/1100 3000 SHRA BKN020
YBBN,2014-08-21 08:30,153.1292,-27.3917,62.60,55.40,77.29,150.00,10.00,0.00,30.18,M,6.21,M,FEW,SCT,M,M,1800.00,3000.00,M,M,M,YBBN 210830Z 15010KT 9999 FEW018 SCT030 17/13 Q1022
YBBN,2014-08-21 09:00,153.1292,-27.3917,62.60,55.40,77.29,140.00,7.00,0.00,30.21,M,6.21,M,FEW,SCT,M,M,2500.00,4000.00,M,M,-SHRA,YBBN 210900Z 14007KT 9999 -SHRA FEW025 SCT040 17/13 Q1023
YBBN,2014-08-21 09:30,153.1292,-27.3917,62.60,55.40,77.29,150.00,9.00,0.00,30.21,M,6.21,M,FEW,SCT,M,M,2500.00,4000.00,M,M,M,YBBN 210930Z 15009KT 9999 FEW025 SCT040 17/13 Q1023
YBBN,2014-08-21 10:00,153.1292,-27.3917,60.80,57.20,87.92,150.00,9.00,0.00,30.21,M,6.21,M,FEW,SCT,M,M,2000.00,4000.00,M,M,-SHRA,YBBN 211000Z 15009KT 9999 -SHRA FEW020 SCT040 16/14 Q1023
YBBN,2014-08-21 10:30,153.1292,-27.3917,60.80,57.20,87.92,170.00,12.00,0.00,30.24,M,6.21,M,SCT,BKN,M,M,2000.00,4000.00,M,M,-SHRA,YBBN 211030Z 17012KT 9999 -SHRA SCT020 BKN040 16/14 Q1024
YBBN,2014-08-21 11:00,153.1292,-27.3917,60.80,57.20,87.92,180.00,8.00,0.00,30.24,M,6.21,M,FEW,SCT,BKN,M,1000.00,2000.00,4000.00,M,-SHRA,YBBN 211100Z 18008KT 9999 -SHRA FEW010 SCT020 BKN040 16/14 Q1024
YBBN,2014-08-21 11:30,153.1292,-27.3917,59.00,57.20,93.74,180.00,7.00,0.00,30.24,M,6.21,M,SCT,BKN,M,M,2000.00,4000.00,M,M,M,YBBN 211130Z 18007KT 9999 SCT020 BKN040 15/14 Q1024
YBBN,2014-08-21 12:00,153.1292,-27.3917,59.00,55.40,87.83,190.00,9.00,0.00,30.24,M,6.21,M,FEW,M,M,M,2000.00,M,M,M,M,YBBN 211200Z 19009KT 9999 FEW020 15/13 Q1024
YBBN,2014-08-21 12:30,153.1292,-27.3917,59.00,55.40,87.83,190.00,6.00,0.00,30.24,M,6.21,M,FEW,SCT,M,M,2000.00,4000.00,M,M,M,YBBN 211230Z 19006KT 9999 FEW020 SCT040 15/13 Q1024
YBBN,2014-08-21 13:00,153.1292,-27.3917,59.00,53.60,82.25,190.00,6.00,0.00,30.24,M,6.21,M,FEW,SCT,M,M,2000.00,4000.00,M,M,M,YBBN 211300Z 19006KT 9999 FEW020 SCT040 15/12 Q1024 INTER 1300/1600 3000 SHRA BKN015
YBBN,2014-08-21 13:30,153.1292,-27.3917,59.00,53.60,82.25,170.00,9.00,0.00,30.24,M,6.21,M,FEW,SCT,M,M,2000.00,13000.00,M,M,M,YBBN 211330Z 17009KT 9999 FEW020 SCT130 15/12 Q1024
YBBN,2014-08-21 14:00,153.1292,-27.3917,59.00,51.80,76.98,180.00,9.00,0.00,30.24,M,6.21,M,FEW,SCT,M,M,2000.00,13000.00,M,M,M,YBBN 211400Z 18009KT 9999 FEW020 SCT130 15/11 Q1024 INTER 1400/1700 3000 SHRA BKN015
YBBN,2014-08-21 14:30,153.1292,-27.3917,59.00,51.80,76.98,190.00,9.00,0.00,30.21,M,6.21,M,FEW,M,M,M,2000.00,M,M,M,M,YBBN 211430Z 19009KT 9999 FEW020 15/11 Q1023
YBBN,2014-08-21 15:00,153.1292,-27.3917,57.20,53.60,87.74,210.00,8.00,0.00,30.24,M,6.21,M,FEW,SCT,M,M,2000.00,13000.00,M,M,M,YBBN 211500Z 21008KT 9999 FEW020 SCT130 14/12 Q1024 INTER 1500/1800 3000 SHRA BKN015
YBBN,2014-08-21 15:30,153.1292,-27.3917,59.00,51.80,76.98,200.00,9.00,0.00,30.24,M,6.21,M,FEW,SCT,M,M,2000.00,4000.00,M,M,M,YBBN 211530Z 20009KT 9999 FEW020 SCT040 15/11 Q1024
YBBN,2014-08-21 16:00,153.1292,-27.3917,59.00,51.80,76.98,200.00,9.00,0.00,30.21,M,6.21,M,FEW,SCT,M,M,2000.00,4000.00,M,M,VCSH,YBBN 211600Z 20009KT 9999 VCSH FEW020 SCT040 15/11 Q1023 INTER 1600/1900 3000 SHRA BKN015
YBBN,2014-08-21 16:30,153.1292,-27.3917,59.00,51.80,76.98,200.00,7.00,0.00,30.21,M,6.21,M,FEW,SCT,M,M,2000.00,4000.00,M,M,VCSH,YBBN 211630Z 20007KT 9999 VCSH FEW020 SCT040 15/11 Q1023
YBBN,2014-08-21 17:00,153.1292,-27.3917,59.00,51.80,76.98,200.00,5.00,0.00,30.21,M,6.21,M,FEW,SCT,M,M,4000.00,13000.00,M,M,VCSH,YBBN 211700Z 20005KT 9999 VCSH FEW040 SCT130 15/11 Q1023 INTER 1700/2000 3000 SHRA BKN015
YBBN,2014-08-21 17:30,153.1292,-27.3917,59.00,51.80,76.98,200.00,6.00,0.00,30.21,M,6.21,M,FEW,SCT,M,M,2000.00,3500.00,M,M,M,YBBN 211730Z 20006KT 9999 FEW020 SCT035 15/11 Q1023
YBBN,2014-08-21 18:00,153.1292,-27.3917,59.00,51.80,76.98,190.00,6.00,0.00,30.21,M,6.21,M,FEW,SCT,M,M,2000.00,4000.00,M,M,-SHRA,YBBN 211800Z 19006KT 9999 -SHRA FEW020 SCT040 15/11 Q1023 INTER 1800/2100 3000 SHRA BKN015
YBBN,2014-08-21 18:30,153.1292,-27.3917,59.00,51.80,76.98,170.00,8.00,0.00,30.21,M,6.21,M,FEW,SCT,BKN,M,2000.00,4000.00,12000.00,M,-SHRA,YBBN 211830Z 17008KT 9999 -SHRA FEW020 SCT040 BKN120 15/11 Q1023
YBBN,2014-08-21 19:00,153.1292,-27.3917,59.00,51.80,76.98,180.00,7.00,0.00,30.21,M,6.21,M,FEW,SCT,BKN,M,2000.00,4000.00,12000.00,M,-SHRA,YBBN 211900Z 18007KT 9999 -SHRA FEW020 SCT040 BKN120 15/11 Q1023
YBBN,2014-08-21 19:30,153.1292,-27.3917,57.20,53.60,87.74,170.00,6.00,0.00,30.24,M,6.21,M,FEW,SCT,BKN,M,2000.00,4000.00,12000.00,M,-SHRA,YBBN 211930Z 17006KT 9999 -SHRA FEW020 SCT040 BKN120 14/12 Q1024
YBBN,2014-08-21 20:00,153.1292,-27.3917,57.20,53.60,87.74,170.00,6.00,0.00,30.24,M,6.21,M,FEW,SCT,BKN,M,2000.00,4000.00,12000.00,M,-RA,YBBN 212000Z 17006KT 9999 -RA FEW020 SCT040 BKN120 14/12 Q1024 INTER 2000/2300 3000 SHRA BKN015
YBBN,2014-08-21 20:30,153.1292,-27.3917,57.20,53.60,87.74,170.00,8.00,0.00,30.24,M,6.21,M,FEW,BKN,BKN,M,2000.00,6600.00,8300.00,M,-RA,YBBN 212030Z 17008KT 9999 -RA FEW020 BKN066 BKN083 14/12 Q1024
YBBN,2014-08-21 21:00,153.1292,-27.3917,57.20,53.60,87.74,180.00,9.00,0.00,30.27,M,6.21,M,FEW,BKN,M,M,2000.00,7200.00,M,M,-RA,YBBN 212100Z 18009KT 9999 -RA FEW020 BKN072 14/12 Q1025 INTER 2100/2400 3000 SHRA BKN015
YBBN,2014-08-21 21:30,153.1292,-27.3917,57.20,55.40,93.69,190.00,7.00,0.00,30.27,M,6.21,M,FEW,SCT,BKN,M,3000.00,5800.00,7200.00,M,-RA,YBBN 212130Z 19007KT 9999 -RA FEW030 SCT058 BKN072 14/13 Q1025
YBBN,2014-08-21 22:00,153.1292,-27.3917,59.00,55.40,87.83,190.00,9.00,0.00,30.27,M,6.21,M,FEW,SCT,BKN,M,1900.00,3000.00,3500.00,M,-RA,YBBN 212200Z 19009KT 9999 -RA FEW019 SCT030 BKN035 15/13 Q1025 INTER 2200/0100 3000 SHRA BKN015
YBBN,2014-08-21 22:30,153.1292,-27.3917,59.00,55.40,87.83,170.00,8.00,0.00,30.27,M,6.21,M,FEW,SCT,BKN,M,2100.00,3000.00,7500.00,M,-RA,YBBN 212230Z 17008KT 9999 -RA FEW021 SCT030 BKN075 15/13 Q1025
YBBN,2014-08-21 23:00,153.1292,-27.3917,59.00,57.20,93.74,170.00,6.00,0.00,30.27,M,6.21,M,FEW,SCT,BKN,M,1700.00,6600.00,9500.00,M,RA,YBBN 212300Z 17006KT 9999 RA FEW017 SCT066 BKN095 15/14 Q1025 INTER 2300/0200 3000 SHRA BKN015
YBBN,2014-08-21 23:30,153.1292,-27.3917,60.80,57.20,87.92,170.00,8.00,0.00,30.27,M,6.21,M,FEW,SCT,BKN,M,1700.00,3800.00,5900.00,M,-RA,YBBN 212330Z 17008KT 9999 -RA FEW017 SCT038 BKN059 16/14 Q1025
