#DEBUG: Format Typ    -> comma
#DEBUG: Time Period   -> 2014-01-02 00:00:00+00:00 2014-01-03 00:00:00+00:00
#DEBUG: Time Zone     -> Etc/UTC
#DEBUG: Data Contact   -> daryl herzmann akrherz@iastate.edu 515-294-5978
#DEBUG: Entries Found -> -1
station,valid,lon,lat,tmpf, dwpf, relh, drct, sknt, p01i, alti, mslp, vsby, gust, skyc1, skyc2, skyc3, skyc4, skyl1, skyl2, skyl3, skyl4, presentwx, metar
YBBN,2014-01-02 00:00,153.1292,-27.3917,78.80,64.40,61.36,10.00,10.00,0.00,29.85,M,6.21,M,M,M,M,M,M,M,M,M,M,YBBN 020000Z 01010KT CAVOK 26/18 Q1011 NOSIG
YBBN,2014-01-02 00:30,153.1292,-27.3917,82.40,62.60,51.21,10.00,11.00,0.00,29.85,M,6.21,M,FEW,BKN,M,M,3000.00,30000.00,M,M,M,YBBN 020030Z 01011KT 9999 FEW030 BKN300 28/17 Q1011
YBBN,2014-01-02 01:00,153.1292,-27.3917,82.40,64.40,54.55,30.00,13.00,0.00,29.85,M,6.21,M,M,M,M,M,M,M,M,M,M,YBBN 020100Z 03013KT CAVOK 28/18 Q1011
YBBN,2014-01-02 01:30,153.1292,-27.3917,82.40,64.40,54.55,50.00,13.00,0.00,29.83,M,6.21,M,M,M,M,M,M,M,M,M,M,YBBN 020130Z 05013KT CAVOK 28/18 Q1010
YBBN,2014-01-02 02:00,153.1292,-27.3917,80.60,64.40,57.84,30.00,14.00,0.00,29.83,M,6.21,M,M,M,M,M,M,M,M,M,M,YBBN 020200Z 03014KT CAVOK 27/18 Q1010 NOSIG
YBBN,2014-01-02 02:30,153.1292,-27.3917,82.40,64.40,54.55,30.00,16.00,0.00,29.83,M,6.21,M,M,M,M,M,M,M,M,M,M,YBBN 020230Z 03016KT CAVOK 28/18 Q1010
YBBN,2014-01-02 03:00,153.1292,-27.3917,82.40,62.60,51.21,30.00,16.00,0.00,29.80,M,6.21,M,M,M,M,M,M,M,M,M,M,YBBN 020300Z 03016KT CAVOK 28/17 Q1009 NOSIG
YBBN,2014-01-02 03:30,153.1292,-27.3917,84.20,64.40,51.47,20.00,14.00,0.00,29.80,M,6.21,M,M,M,M,M,M,M,M,M,M,YBBN 020330Z 02014KT CAVOK 29/18 Q1009
YBBN,2014-01-02 04:00,153.1292,-27.3917,82.40,66.20,58.08,10.00,12.00,0.00,29.80,M,6.21,M,M,M,M,M,M,M,M,M,M,YBBN 020400Z 01012KT CAVOK 28/19 Q1009 NOSIG
YBBN,2014-01-02 04:30,153.1292,-27.3917,80.60,66.20,61.58,360.00,13.00,0.00,29.77,M,6.21,M,M,M,M,M,M,M,M,M,M,YBBN 020430Z 36013KT CAVOK 27/19 Q1008
YBBN,2014-01-02 05:00,153.1292,-27.3917,80.60,68.00,65.54,360.00,15.00,0.00,29.77,M,6.21,M,M,M,M,M,M,M,M,M,M,YBBN 020500Z 36015KT CAVOK 27/20 Q1008
YBBN,2014-01-02 05:30,153.1292,-27.3917,80.60,69.80,69.71,10.00,15.00,0.00,29.77,M,6.21,M,M,M,M,M,M,M,M,M,M,YBBN 020530Z 01015KT CAVOK 27/21 Q1008
YBBN,2014-01-02 06:00,153.1292,-27.3917,82.40,69.80,65.74,10.00,15.00,0.00,29.74,M,6.21,M,M,M,M,M,M,M,M,M,M,YBBN 020600Z 01015KT CAVOK 28/21 Q1007 NOSIG
YBBN,2014-01-02 06:30,153.1292,-27.3917,80.60,68.00,65.54,10.00,15.00,0.00,29.74,M,6.21,M,M,M,M,M,M,M,M,M,M,YBBN 020630Z 01015KT CAVOK 27/20 Q1007
YBBN,2014-01-02 07:00,153.1292,-27.3917,80.60,69.80,69.71,10.00,15.00,0.00,29.74,M,6.21,M,M,M,M,M,M,M,M,M,M,YBBN 020700Z 01015KT CAVOK 27/21 Q1007 NOSIG
YBBN,2014-01-02 07:30,153.1292,-27.3917,80.60,68.00,65.54,360.00,15.00,0.00,29.74,M,6.21,M,M,M,M,M,M,M,M,M,M,YBBN 020730Z 36015KT CAVOK 27/20 Q1007
YBBN,2014-01-02 08:00,153.1292,-27.3917,80.60,68.00,65.54,360.00,13.00,0.00,29.77,M,6.21,M,M,M,M,M,M,M,M,M,M,YBBN 020800Z 36013KT CAVOK 27/20 Q1008
YBBN,2014-01-02 08:30,153.1292,-27.3917,78.80,68.00,69.52,360.00,13.00,0.00,29.77,M,6.21,M,M,M,M,M,M,M,M,M,M,YBBN 020830Z 36013KT CAVOK 26/20 Q1008 RMK 6AC180
YBBN,2014-01-02 09:00,153.1292,-27.3917,78.80,69.80,73.95,10.00,13.00,0.00,29.77,M,6.21,M,M,M,M,M,M,M,M,M,M,YBBN 020900Z 01013KT CAVOK 26/21 Q1008 NOSIG
YBBN,2014-01-02 09:30,153.1292,-27.3917,77.00,69.80,78.48,360.00,14.00,0.00,29.77,M,6.21,M,M,M,M,M,M,M,M,M,M,YBBN 020930Z 36014KT CAVOK 25/21 Q1008
YBBN,2014-01-02 10:00,153.1292,-27.3917,77.00,69.80,78.48,360.00,13.00,0.00,29.77,M,6.21,M,M,M,M,M,M,M,M,M,M,YBBN 021000Z 36013KT CAVOK 25/21 Q1008 NOSIG
YBBN,2014-01-02 10:30,153.1292,-27.3917,77.00,69.80,78.48,360.00,15.00,0.00,29.77,M,6.21,M,M,M,M,M,M,M,M,M,M,YBBN 021030Z 36015KT CAVOK 25/21 Q1008
YBBN,2014-01-02 11:00,153.1292,-27.3917,77.00,69.80,78.48,360.00,14.00,0.00,29.77,M,6.21,M,FEW,SCT,M,M,3000.00,20000.00,M,M,M,YBBN 021100Z 36014KT 9999 FEW030 SCT200 25/21 Q1008
YBBN,2014-01-02 11:30,153.1292,-27.3917,78.80,69.80,73.95,350.00,10.00,0.00,29.83,M,6.21,M,FEW,BKN,M,M,3000.00,11500.00,M,M,M,YBBN 021130Z 35010KT 9999 FEW030 BKN115 26/21 Q1010
YBBN,2014-01-02 12:00,153.1292,-27.3917,78.80,71.60,78.62,160.00,5.00,0.00,29.88,M,6.21,M,FEW,BKN,M,M,3000.00,10000.00,M,M,-SHRA,YBBN 021200Z 16005KT 9999 -SHRA FEW030 BKN100 26/22 Q1012
YBBN,2014-01-02 12:30,153.1292,-27.3917,75.20,73.40,94.14,30.00,11.00,0.00,29.83,M,6.21,M,FEW,SCT,BKN,M,2500.00,4100.00,5600.00,M,-SHRA,YBBN 021230Z 03011KT 9999 -SHRA FEW025 SCT041 BKN056 24/23 Q1010
YBBN,2014-01-02 13:00,153.1292,-27.3917,75.20,71.60,88.59,20.00,14.00,0.00,29.80,M,6.21,M,M,M,M,M,M,M,M,M,M,YBBN 021300Z 02014KT CAVOK 24/22 Q1009
YBBN,2014-01-02 13:30,153.1292,-27.3917,77.00,71.60,83.44,10.00,16.00,0.00,29.77,M,6.21,M,M,M,M,M,M,M,M,M,M,YBBN 021330Z 01016KT CAVOK 25/22 Q1008 RMK 5AC160
YBBN,2014-01-02 14:00,153.1292,-27.3917,77.00,71.60,83.44,10.00,18.00,0.00,29.77,M,6.21,M,M,M,M,M,M,M,M,M,M,YBBN 021400Z 01018KT CAVOK 25/22 Q1008
YBBN,2014-01-02 14:30,153.1292,-27.3917,75.20,73.40,94.14,360.00,7.00,0.00,29.77,M,6.21,M,M,M,M,M,M,M,M,M,M,YBBN 021430Z 36007KT CAVOK 24/23 Q1008 RMK 7AC170
YBBN,2014-01-02 15:00,153.1292,-27.3917,75.20,71.60,88.59,330.00,8.00,0.00,29.74,M,6.21,M,M,M,M,M,M,M,M,M,M,YBBN 021500Z 33008KT CAVOK 24/22 Q1007 RMK 7AC170
YBBN,2014-01-02 15:30,153.1292,-27.3917,75.20,71.60,88.59,340.00,7.00,0.00,29.74,M,6.21,M,M,M,M,M,M,M,M,M,M,YBBN 021530Z 34007KT CAVOK 24/22 Q1007 RMK 7AC150
YBBN,2014-01-02 16:00,153.1292,-27.3917,75.20,69.80,83.32,310.00,7.00,0.00,29.68,M,6.21,M,M,M,M,M,M,M,M,M,M,YBBN 021600Z 31007KT CAVOK 24/21 Q1005
YBBN,2014-01-02 16:30,153.1292,-27.3917,75.20,69.80,83.32,350.00,13.00,0.00,29.71,M,6.21,M,M,M,M,M,M,M,M,M,M,YBBN 021630Z 35013KT CAVOK 24/21 Q1006 RMK 7AC150
YBBN,2014-01-02 17:00,153.1292,-27.3917,73.40,69.80,88.51,300.00,7.00,0.00,29.68,M,6.21,M,M,M,M,M,M,M,M,M,M,YBBN 021700Z 30007KT CAVOK 23/21 Q1005
YBBN,2014-01-02 17:30,153.1292,-27.3917,73.40,69.80,88.51,340.00,5.00,0.00,29.68,M,6.21,M,M,M,M,M,M,M,M,M,M,YBBN 021730Z 34005KT CAVOK 23/21 Q1005
YBBN,2014-01-02 18:00,153.1292,-27.3917,73.40,69.80,88.51,0.00,0.00,0.00,29.71,M,6.21,M,M,M,M,M,M,M,M,M,M,YBBN 021800Z 00000KT CAVOK 23/21 Q1006
YBBN,2014-01-02 18:30,153.1292,-27.3917,73.40,69.80,88.51,0.00,0.00,0.00,29.71,M,6.21,M,M,M,M,M,M,M,M,M,M,YBBN 021830Z 00000KT CAVOK 23/21 Q1006 RMK 5AC170
YBBN,2014-01-02 19:00,153.1292,-27.3917,73.40,69.80,88.51,0.00,0.00,0.00,29.71,M,6.21,M,M,M,M,M,M,M,M,M,M,YBBN 021900Z 00000KT CAVOK 23/21 Q1006
YBBN,2014-01-02 19:30,153.1292,-27.3917,73.40,69.80,88.51,110.00,1.00,0.00,29.71,M,6.21,M,M,M,M,M,M,M,M,M,M,YBBN 021930Z 11001KT CAVOK 23/21 Q1006
YBBN,2014-01-02 20:00,153.1292,-27.3917,75.20,71.60,88.59,0.00,0.00,0.00,29.71,M,6.21,M,FEW,SCT,M,M,3000.00,17000.00,M,M,M,YBBN 022000Z 00000KT 9999 FEW030 SCT170 24/22 Q1006
YBBN,2014-01-02 20:30,153.1292,-27.3917,77.00,69.80,78.48,280.00,4.00,0.00,29.71,M,6.21,M,FEW,SCT,M,M,1700.00,17000.00,M,M,M,YBBN 022030Z 28004KT 9999 FEW017 SCT170 25/21 Q1006
YBBN,2014-01-02 21:00,153.1292,-27.3917,78.80,71.60,78.62,330.00,3.00,0.00,29.74,M,6.21,M,M,M,M,M,M,M,M,M,M,YBBN 022100Z 33003KT CAVOK 26/22 Q1007
YBBN,2014-01-02 21:30,153.1292,-27.3917,80.60,71.60,74.11,0.00,0.00,0.00,29.74,M,6.21,M,M,M,M,M,M,M,M,M,M,YBBN 022130Z 00000KT CAVOK 27/22 Q1007 RMK CASTELLANUS CLOUD 2AC170
YBBN,2014-01-02 22:00,153.1292,-27.3917,82.40,71.60,69.90,350.00,3.00,0.00,29.74,M,6.21,M,M,M,M,M,M,M,M,M,M,YBBN 022200Z 35003KT CAVOK 28/22 Q1007
YBBN,2014-01-02 22:30,153.1292,-27.3917,84.20,69.80,62.03,50.00,5.00,0.00,29.71,M,6.21,M,M,M,M,M,M,M,M,M,M,YBBN 022230Z 05005KT CAVOK 29/21 Q1006 RMK CASTELLANUS CLOUD 2AC120
YBBN,2014-01-02 23:00,153.1292,-27.3917,84.20,71.60,65.95,40.00,7.00,0.00,29.71,M,6.21,M,M,M,M,M,M,M,M,M,M,YBBN 022300Z 04007KT CAVOK 29/22 Q1006 NOSIG
YBBN,2014-01-02 23:30,153.1292,-27.3917,84.20,69.80,62.03,40.00,7.00,0.00,29.71,M,6.21,M,M,M,M,M,M,M,M,M,M,YBBN 022330Z 04007KT CAVOK 29/21 Q1006 RMK CASTELLANUS CLOUD 1AC125
