#DEBUG: Format Typ    -> comma
#DEBUG: Time Period   -> 2013-11-10 00:00:00+00:00 2013-11-11 00:00:00+00:00
#DEBUG: Time Zone     -> Etc/UTC
#DEBUG: Data Contact   -> daryl herzmann akrherz@iastate.edu 515-294-5978
#DEBUG: Entries Found -> -1
station,valid,lon,lat,tmpf, dwpf, relh, drct, sknt, p01i, alti, mslp, vsby, gust, skyc1, skyc2, skyc3, skyc4, skyl1, skyl2, skyl3, skyl4, presentwx, metar
YBBN,2013-11-10 00:00,153.1292,-27.3917,78.80,60.80,54.05,40.00,10.00,0.00,29.88,M,6.21,M,M,M,M,M,M,M,M,M,M,YBBN 100000Z 04010KT CAVOK 26/16 Q1012 NOSIG
YBBN,2013-11-10 00:30,153.1292,-27.3917,80.60,62.60,54.30,30.00,13.00,0.00,29.88,M,6.21,M,M,M,M,M,M,M,M,M,M,YBBN 100030Z 03013KT CAVOK 27/17 Q1012
YBBN,2013-11-10 01:00,153.1292,-27.3917,82.40,64.40,54.55,40.00,14.00,0.00,29.85,M,6.21,M,M,M,M,M,M,M,M,M,M,YBBN 100100Z 04014KT CAVOK 28/18 Q1011 NOSIG
YBBN,2013-11-10 01:30,153.1292,-27.3917,78.80,64.40,61.36,30.00,17.00,0.00,29.85,M,6.21,M,M,M,M,M,M,M,M,M,M,YBBN 100130Z 03017KT CAVOK 26/18 Q1011
YBBN,2013-11-10 02:00,153.1292,-27.3917,78.80,66.20,65.33,20.00,19.00,0.00,29.85,M,6.21,M,M,M,M,M,M,M,M,M,M,YBBN 100200Z 02019KT CAVOK 26/19 Q1011 NOSIG
YBBN,2013-11-10 02:30,153.1292,-27.3917,78.80,66.20,65.33,20.00,19.00,0.00,29.83,M,6.21,M,M,M,M,M,M,M,M,M,M,YBBN 100230Z 02019KT CAVOK 26/19 Q1010 RMK CB TOPS TO THE SOUTH
YBBN,2013-11-10 03:00,153.1292,-27.3917,80.60,64.40,57.84,20.00,19.00,0.00,29.83,M,6.21,M,M,M,M,M,M,M,M,M,M,YBBN 100300Z 02019KT CAVOK 27/18 Q1010 NOSIG
YBBN,2013-11-10 03:30,153.1292,-27.3917,80.60,66.20,61.58,20.00,19.00,0.00,29.83,M,6.21,M,M,M,M,M,M,M,M,M,M,YBBN 100330Z 02019KT CAVOK 27/19 Q1010 RMK LINE OF CB TOPS TO THE SOUTH
YBBN,2013-11-10 04:00,153.1292,-27.3917,78.80,62.60,57.60,20.00,21.00,0.00,29.80,M,6.21,M,M,M,M,M,M,M,M,M,M,YBBN 100400Z 02021KT CAVOK 26/17 Q1009
YBBN,2013-11-10 04:30,153.1292,-27.3917,77.00,64.40,65.12,10.00,17.00,0.00,29.83,M,6.21,M,FEW,SCT,BKN,M,4000.00,10000.00,30000.00,M,M,YBBN 100430Z 01017KT 9999 FEW040 SCT100 BKN300 25/18 Q1010
YBBN,2013-11-10 05:00,153.1292,-27.3917,77.00,64.40,65.12,30.00,10.00,0.00,29.85,M,6.21,M,FEW,BKN,M,M,4000.00,9500.00,M,M,M,YBBN 100500Z 03010KT 9999 FEW040 BKN095 25/18 Q1011 TEMPO 0500/0530 3000 TSRA BKN015 SCT060CB
YBBN,2013-11-10 05:30,153.1292,-27.3917,78.80,64.40,61.36,40.00,15.00,0.00,29.83,M,6.21,M,M,M,M,M,M,M,M,M,M,YBBN 100530Z 04015KT CAVOK 26/18 Q1010 RMK ISOLATED CB TOPS TO THE WEST
YBBN,2013-11-10 06:00,153.1292,-27.3917,75.20,66.20,73.61,10.00,17.00,0.00,29.83,M,6.21,M,M,M,M,M,M,M,M,M,M,YBBN 100600Z 01017KT CAVOK 24/19 Q1010 TEMPO 0730/0900 3000 TSRA BKN015 SCT060CB
YBBN,2013-11-10 06:30,153.1292,-27.3917,75.20,66.20,73.61,10.00,16.00,0.00,29.83,M,6.21,M,FEW,BKN,M,M,4000.00,14000.00,M,M,M,YBBN 100630Z 01016KT 9999 FEW040 BKN140 24/19 Q1010 RMK DISTANT THUNDER HEARD FROM THE WEST
YBBN,2013-11-10 06:47,153.1292,-27.3917,73.40,66.20,78.19,10.00,14.00,0.00,29.83,M,6.21,M,FEW,BKN,FEW,M,4000.00,8000.00,7000.00,M,-TSRA,YBBN 100647Z 01014KT 9999 -TSRA FEW040 BKN080 FEW070CB 23/19 Q1010
YBBN,2013-11-10 07:00,153.1292,-27.3917,71.60,68.00,88.43,360.00,13.00,0.00,29.85,M,6.21,M,FEW,SCT,BKN,FEW,4000.00,6000.00,11000.00,7000.00,-TSRA,YBBN 100700Z 36013KT 9999 -TSRA FEW040 SCT060 BKN110 FEW070CB 22/20 Q1011
YBBN,2013-11-10 07:30,153.1292,-27.3917,71.60,68.00,88.43,10.00,16.00,0.00,29.83,M,6.21,M,FEW,SCT,BKN,M,3000.00,5000.00,6500.00,M,-TSRA,YBBN 100730Z 01016KT 9999 8000N -TSRA FEW030 SCT050CB BKN065 22/20 Q1010
YBBN,2013-11-10 07:51,153.1292,-27.3917,71.60,68.00,88.43,20.00,22.00,0.00,29.80,M,6.21,M,FEW,BKN,FEW,M,2500.00,12000.00,5000.00,M,M,YBBN 100751Z 02022KT 9999 FEW025 BKN120 FEW050CB 22/20 Q1009 RETS
YBBN,2013-11-10 08:00,153.1292,-27.3917,71.60,68.00,88.43,20.00,25.00,0.00,29.80,M,6.21,M,FEW,SCT,BKN,FEW,2500.00,6000.00,12000.00,5000.00,M,YBBN 100800Z 02025KT 9999 FEW025 SCT060 BKN120 FEW050CB 22/20 Q1009 TEMPO 0800/0830 3000 TSRA BKN015 SCT060CB
YBBN,2013-11-10 08:30,153.1292,-27.3917,71.60,68.00,88.43,10.00,18.00,0.00,29.83,M,6.21,M,FEW,BKN,FEW,M,2000.00,11500.00,5000.00,M,M,YBBN 100830Z 01018KT 9999 FEW020 BKN115 FEW050CB 22/20 Q1010
YBBN,2013-11-10 09:00,153.1292,-27.3917,71.60,68.00,88.43,360.00,17.00,0.00,29.85,M,6.21,M,FEW,SCT,M,M,1500.00,13000.00,M,M,M,YBBN 100900Z 36017KT 9999 FEW015 SCT130 22/20 Q1011 NOSIG
YBBN,2013-11-10 09:30,153.1292,-27.3917,71.60,68.00,88.43,360.00,16.00,0.00,29.85,M,6.21,M,FEW,SCT,M,M,1600.00,13000.00,M,M,M,YBBN 100930Z 36016KT 9999 FEW016 SCT130 22/20 Q1011
YBBN,2013-11-10 10:00,153.1292,-27.3917,71.60,66.20,83.09,350.00,15.00,0.00,29.85,M,6.21,M,FEW,M,M,M,1800.00,M,M,M,M,YBBN 101000Z 35015KT 9999 FEW018 22/19 Q1011
YBBN,2013-11-10 10:30,153.1292,-27.3917,71.60,66.20,83.09,360.00,16.00,0.00,29.85,M,6.21,M,FEW,SCT,M,M,1800.00,16000.00,M,M,M,YBBN 101030Z 36016KT 9999 FEW018 SCT160 22/19 Q1011 RMK LIGHTNING SEEN TO WEST
YBBN,2013-11-10 11:00,153.1292,-27.3917,73.40,66.20,78.19,350.00,13.00,0.00,29.91,M,6.21,M,SCT,SCT,M,M,1800.00,11000.00,M,M,M,YBBN 101100Z 35013KT 9999 SCT018 SCT110 23/19 Q1013
YBBN,2013-11-10 11:30,153.1292,-27.3917,71.60,66.20,83.09,250.00,9.00,0.00,29.94,M,6.21,M,SCT,BKN,M,M,2100.00,4500.00,M,M,-TSRA,YBBN 101130Z 25009KT 9999 -TSRA SCT021 BKN045CB 22/19 Q1014
YBBN,2013-11-10 12:00,153.1292,-27.3917,71.60,68.00,88.43,280.00,4.00,0.00,29.94,M,6.21,M,FEW,SCT,BKN,M,2000.00,5500.00,9500.00,M,-TSRA,YBBN 101200Z 28004KT 9999 -TSRA FEW020 SCT055CB BKN095 22/20 Q1014
YBBN,2013-11-10 12:30,153.1292,-27.3917,69.80,68.00,94.01,210.00,2.00,0.00,29.91,M,6.21,M,FEW,BKN,SCT,M,2000.00,4000.00,6000.00,M,-TSRA,YBBN 101230Z 21002KT 9999 -TSRA FEW020 BKN040 SCT060CB 21/20 Q1013
YBBN,2013-11-10 12:43,153.1292,-27.3917,69.80,68.00,94.01,160.00,3.00,0.00,29.91,M,6.21,M,FEW,BKN,BKN,FEW,1200.00,4000.00,12000.00,6000.00,-SHRA VCTS,YBBN 101243Z 16003KT 9999 -SHRA VCTS FEW012 BKN040 BKN120 FEW060CB 21/20 Q1013
YBBN,2013-11-10 13:00,153.1292,-27.3917,69.80,68.00,94.01,160.00,6.00,0.00,29.91,M,6.21,M,FEW,SCT,BKN,M,2000.00,4000.00,12000.00,M,M,YBBN 101300Z 16006KT 9999 FEW020 SCT040 BKN120 21/20 Q1013
YBBN,2013-11-10 13:30,153.1292,-27.3917,69.80,68.00,94.01,90.00,6.00,0.00,29.88,M,6.21,M,FEW,BKN,M,M,4000.00,11000.00,M,M,M,YBBN 101330Z 09006KT 9999 FEW040 BKN110 21/20 Q1012
YBBN,2013-11-10 14:00,153.1292,-27.3917,69.80,68.00,94.01,40.00,8.00,0.00,29.88,M,6.21,M,FEW,SCT,BKN,M,4000.00,11000.00,16000.00,M,M,YBBN 101400Z 04008KT 9999 FEW040 SCT110 BKN160 21/20 Q1012
YBBN,2013-11-10 14:30,153.1292,-27.3917,69.80,68.00,94.01,10.00,9.00,0.00,29.91,M,6.21,M,FEW,SCT,BKN,M,2000.00,11000.00,13000.00,M,M,YBBN 101430Z 01009KT 9999 FEW020 SCT110 BKN130 21/20 Q1013
YBBN,2013-11-10 15:00,153.1292,-27.3917,71.60,68.00,88.43,350.00,8.00,0.00,29.91,M,6.21,M,FEW,BKN,M,M,1300.00,11000.00,M,M,M,YBBN 101500Z 35008KT 9999 FEW013 BKN110 22/20 Q1013 NOSIG
YBBN,2013-11-10 15:30,153.1292,-27.3917,69.80,68.00,94.01,260.00,7.00,0.00,29.88,M,6.21,M,FEW,SCT,BKN,M,1300.00,11000.00,14000.00,M,M,YBBN 101530Z 26007KT 9999 FEW013 SCT110 BKN140 21/20 Q1012
YBBN,2013-11-10 16:00,153.1292,-27.3917,69.80,68.00,94.01,230.00,4.00,0.00,29.88,M,6.21,M,FEW,BKN,M,M,1500.00,15000.00,M,M,M,YBBN 101600Z 23004KT 9999 FEW015 BKN150 21/20 Q1012
YBBN,2013-11-10 16:30,153.1292,-27.3917,69.80,68.00,94.01,160.00,4.00,0.00,29.88,M,6.21,M,FEW,BKN,M,M,1500.00,12000.00,M,M,-RA,YBBN 101630Z 16004KT 9999 -RA FEW015 BKN120 21/20 Q1012
YBBN,2013-11-10 17:00,153.1292,-27.3917,69.80,68.00,94.01,130.00,3.00,0.00,29.88,M,6.21,M,FEW,BKN,M,M,1500.00,12000.00,M,M,M,YBBN 101700Z 13003KT 9999 FEW015 BKN120 21/20 Q1012
YBBN,2013-11-10 17:30,153.1292,-27.3917,69.80,68.00,94.01,80.00,2.00,0.00,29.88,M,6.21,M,FEW,SCT,BKN,M,1800.00,12000.00,15000.00,M,M,YBBN 101730Z 08002KT 9999 FEW018 SCT120 BKN150 21/20 Q1012
YBBN,2013-11-10 18:00,153.1292,-27.3917,69.80,68.00,94.01,0.00,0.00,0.00,29.88,M,6.21,M,SCT,SCT,M,M,1900.00,2300.00,M,M,M,YBBN 101800Z 00000KT 9999 SCT019 SCT023 21/20 Q1012 NOSIG
YBBN,2013-11-10 18:30,153.1292,-27.3917,69.80,68.00,94.01,0.00,0.00,0.00,29.91,M,6.21,M,SCT,BKN,BKN,M,1500.00,2300.00,15000.00,M,M,YBBN 101830Z 00000KT 9999 SCT015 BKN023 BKN150 21/20 Q1013
YBBN,2013-11-10 19:00,153.1292,-27.3917,69.80,68.00,94.01,250.00,5.00,0.00,29.91,M,6.21,M,FEW,SCT,BKN,M,500.00,11000.00,15000.00,M,M,YBBN 101900Z 25005KT 9999 FEW005 SCT110 BKN150 21/20 Q1013 NOSIG
YBBN,2013-11-10 19:30,153.1292,-27.3917,69.80,68.00,94.01,230.00,4.00,0.00,29.91,M,6.21,M,FEW,BKN,M,M,800.00,11000.00,M,M,M,YBBN 101930Z 23004KT 9999 FEW008 BKN110 21/20 Q1013 RMK VIRGA
YBBN,2013-11-10 20:00,153.1292,-27.3917,71.60,68.00,88.43,310.00,2.00,0.00,29.91,M,6.21,M,FEW,M,M,M,800.00,M,M,M,M,YBBN 102000Z 31002KT 9999 FEW008 22/20 Q1013 NOSIG
YBBN,2013-11-10 20:30,153.1292,-27.3917,73.40,66.20,78.19,360.00,8.00,0.00,29.94,M,6.21,M,FEW,M,M,M,800.00,M,M,M,M,YBBN 102030Z 36008KT 9999 FEW008 23/19 Q1014
YBBN,2013-11-10 21:00,153.1292,-27.3917,71.60,64.40,78.04,10.00,10.00,0.00,29.94,M,6.21,M,FEW,SCT,M,M,800.00,11500.00,M,M,M,YBBN 102100Z 01010KT 9999 FEW008 SCT115 22/18 Q1014 NOSIG
YBBN,2013-11-10 21:30,153.1292,-27.3917,73.40,64.40,73.44,360.00,9.00,0.00,29.94,M,6.21,M,FEW,SCT,BKN,M,800.00,11500.00,25000.00,M,M,YBBN 102130Z 36009KT 9999 FEW008 SCT115 BKN250 23/18 Q1014
YBBN,2013-11-10 22:00,153.1292,-27.3917,75.20,62.60,64.91,350.00,8.00,0.00,29.94,M,6.21,M,FEW,BKN,M,M,1000.00,25000.00,M,M,M,YBBN 102200Z 35008KT 9999 FEW010 BKN250 24/17 Q1014 NOSIG
YBBN,2013-11-10 22:30,153.1292,-27.3917,75.20,64.40,69.14,360.00,10.00,0.00,29.97,M,6.21,M,FEW,BKN,M,M,1200.00,25000.00,M,M,M,YBBN 102230Z 36010KT 9999 FEW012 BKN250 24/18 Q1015
YBBN,2013-11-10 23:00,153.1292,-27.3917,75.20,62.60,64.91,360.00,10.00,0.00,29.94,M,6.21,M,FEW,SCT,BKN,M,1400.00,11500.00,25000.00,M,M,YBBN 102300Z 36010KT 9999 FEW014 SCT115 BKN250 24/17 Q1014 NOSIG
YBBN,2013-11-10 23:30,153.1292,-27.3917,75.20,62.60,64.91,360.00,10.00,0.00,29.94,M,6.21,M,FEW,SCT,M,M,1600.00,20000.00,M,M,M,YBBN 102330Z 36010KT 9999 FEW016 SCT200 24/17 Q1014
