#DEBUG: Format Typ    -> comma
#DEBUG: Time Period   -> 2010-08-30 00:00:00+00:00 2010-08-31 00:00:00+00:00
#DEBUG: Time Zone     -> Etc/UTC
#DEBUG: Data Contact   -> daryl herzmann akrherz@iastate.edu 515-294-5978
#DEBUG: Entries Found -> -1
station,valid,lon,lat,tmpf, dwpf, relh, drct, sknt, p01i, alti, mslp, vsby, gust, skyc1, skyc2, skyc3, skyc4, skyl1, skyl2, skyl3, skyl4, presentwx, metar
YBBN,2010-08-30 00:00,153.1292,-27.3917,66.20,50.00,55.88,160.00,6.00,M,30.30,M,6.21,M,FEW,M,M,M,3000.00,M,M,M,M,YBBN 300000Z 16006KT 9999 FEW030 19/10 Q1026 NOSIG
YBBN,2010-08-30 00:30,153.1292,-27.3917,68.00,50.00,52.51,100.00,7.00,M,30.27,M,6.21,M,FEW,M,M,M,3500.00,M,M,M,M,YBBN 300030Z 10007KT 9999 FEW035 20/10 Q1025 NOSIG
YBBN,2010-08-30 01:00,153.1292,-27.3917,68.00,50.00,52.51,120.00,9.00,M,30.27,M,6.21,M,FEW,M,M,M,3800.00,M,M,M,M,YBBN 300100Z 12009KT 9999 FEW038 20/10 Q1025 NOSIG
YBBN,2010-08-30 01:30,153.1292,-27.3917,68.00,50.00,52.51,110.00,8.00,M,30.27,M,6.21,M,FEW,M,M,M,3800.00,M,M,M,M,YBBN 300130Z 11008KT 9999 FEW038 20/10 Q1025 NOSIG
YBBN,2010-08-30 02:00,153.1292,-27.3917,69.80,50.00,49.37,130.00,9.00,M,30.24,M,6.21,M,FEW,M,M,M,4500.00,M,M,M,M,YBBN 300200Z 13009KT 9999 FEW045 21/10 Q1024 NOSIG
YBBN,2010-08-30 02:30,153.1292,-27.3917,69.80,50.00,49.37,100.00,10.00,M,30.24,M,6.21,M,FEW,M,M,M,4500.00,M,M,M,M,YBBN 300230Z 10010KT 9999 FEW045 21/10 Q1024 NOSIG
YBBN,2010-08-30 03:00,153.1292,-27.3917,69.80,48.20,46.16,100.00,10.00,M,30.21,M,6.21,M,FEW,M,M,M,4500.00,M,M,M,M,YBBN 300300Z 10010KT 9999 FEW045 21/09 Q1023 NOSIG
YBBN,2010-08-30 03:30,153.1292,-27.3917,69.80,48.20,46.16,110.00,9.00,M,30.21,M,6.21,M,FEW,SCT,M,M,4500.00,9300.00,M,M,M,YBBN 300330Z 11009KT 9999 FEW045 SCT093 21/09 Q1023 NOSIG
YBBN,2010-08-30 04:00,153.1292,-27.3917,69.80,48.20,46.16,100.00,9.00,M,30.21,M,6.21,M,FEW,SCT,M,M,4500.00,9100.00,M,M,M,YBBN 300400Z 10009KT 9999 FEW045 SCT091 21/09 Q1023 NOSIG
YBBN,2010-08-30 04:30,153.1292,-27.3917,68.00,48.20,49.10,90.00,9.00,M,30.18,M,6.21,M,FEW,SCT,M,M,4500.00,9500.00,M,M,M,YBBN 300430Z 09009KT 9999 FEW045 SCT095 20/09 Q1022 NOSIG
YBBN,2010-08-30 05:00,153.1292,-27.3917,68.00,50.00,52.51,100.00,9.00,M,30.18,M,6.21,M,FEW,BKN,M,M,4800.00,8900.00,M,M,M,YBBN 300500Z 10009KT 9999 FEW048 BKN089 20/10 Q1022 NOSIG
YBBN,2010-08-30 05:30,153.1292,-27.3917,66.20,51.80,59.74,110.00,7.00,M,30.18,M,6.21,M,FEW,BKN,M,M,4800.00,9300.00,M,M,M,YBBN 300530Z 11007KT 9999 FEW048 BKN093 19/11 Q1022 NOSIG
YBBN,2010-08-30 06:00,153.1292,-27.3917,66.20,50.00,55.88,120.00,6.00,M,30.21,M,6.21,M,FEW,SCT,BKN,M,4800.00,6200.00,9100.00,M,M,YBBN 300600Z 12006KT 9999 FEW048 SCT062 BKN091 19/10 Q1023 NOSIG
YBBN,2010-08-30 06:30,153.1292,-27.3917,66.20,51.80,59.74,110.00,6.00,M,30.21,M,6.21,M,FEW,SCT,BKN,M,4800.00,6000.00,9100.00,M,M,YBBN 300630Z 11006KT 9999 FEW048 SCT060 BKN091 19/11 Q1023 NOSIG
YBBN,2010-08-30 07:00,153.1292,-27.3917,66.20,53.60,63.82,130.00,6.00,M,30.21,M,6.21,M,FEW,SCT,BKN,M,4800.00,6000.00,9300.00,M,M,YBBN 300700Z 13006KT 9999 FEW048 SCT060 BKN093 19/12 Q1023 NOSIG
YBBN,2010-08-30 07:30,153.1292,-27.3917,64.40,51.80,63.60,130.00,5.00,M,30.21,M,6.21,M,FEW,BKN,M,M,4800.00,9700.00,M,M,M,YBBN 300730Z 13005KT 9999 FEW048 BKN097 18/11 Q1023 NOSIG
YBBN,2010-08-30 08:00,153.1292,-27.3917,64.40,53.60,67.95,110.00,4.00,M,30.24,M,6.21,M,FEW,BKN,M,M,4000.00,9000.00,M,M,M,YBBN 300800Z 11004KT 9999 FEW040 BKN090 18/12 Q1024 NOSIG
YBBN,2010-08-30 08:30,153.1292,-27.3917,64.40,55.40,72.56,110.00,3.00,M,30.24,M,6.21,M,FEW,SCT,M,M,4000.00,9500.00,M,M,M,YBBN 300830Z 11003KT 9999 FEW040 SCT095 18/13 Q1024 NOSIG
YBBN,2010-08-30 09:00,153.1292,-27.3917,62.60,55.40,77.29,110.00,2.00,M,30.24,M,6.21,M,M,M,M,M,M,M,M,M,M,YBBN 300900Z 11002KT CAVOK 17/13 Q1024 NOSIG
YBBN,2010-08-30 09:30,153.1292,-27.3917,62.60,55.40,77.29,0.00,0.00,M,30.24,M,6.21,M,M,M,M,M,M,M,M,M,M,YBBN 300930Z 00000KT CAVOK 17/13 Q1024 NOSIG
YBBN,2010-08-30 10:00,153.1292,-27.3917,59.00,55.40,87.83,0.00,0.00,M,30.24,M,6.21,M,M,M,M,M,M,M,M,M,M,YBBN 301000Z 00000KT CAVOK 15/13 Q1024 NOSIG
YBBN,2010-08-30 10:30,153.1292,-27.3917,59.00,55.40,87.83,0.00,0.00,M,30.24,M,6.21,M,M,M,M,M,M,M,M,M,M,YBBN 301030Z 00000KT CAVOK 15/13 Q1024 RMK 6AC095 NOSIG
YBBN,2010-08-30 11:00,153.1292,-27.3917,59.00,55.40,87.83,0.00,0.00,M,30.27,M,6.21,M,M,M,M,M,M,M,M,M,M,YBBN 301100Z 00000KT CAVOK 15/13 Q1025 RMK 5AC095 NOSIG
YBBN,2010-08-30 11:30,153.1292,-27.3917,59.00,55.40,87.83,0.00,0.00,M,30.27,M,6.21,M,M,M,M,M,M,M,M,M,M,YBBN 301130Z 00000KT CAVOK 15/13 Q1025 NOSIG
YBBN,2010-08-30 12:00,153.1292,-27.3917,57.20,53.60,87.74,0.00,0.00,M,30.24,M,6.21,M,M,M,M,M,M,M,M,M,M,YBBN 301200Z 00000KT CAVOK 14/12 Q1024 NOSIG
YBBN,2010-08-30 12:30,153.1292,-27.3917,57.20,53.60,87.74,230.00,4.00,M,30.27,M,6.21,M,M,M,M,M,M,M,M,M,M,YBBN 301230Z 23004KT CAVOK 14/12 Q1025 NOSIG
YBBN,2010-08-30 13:00,153.1292,-27.3917,57.20,53.60,87.74,220.00,5.00,M,30.27,M,6.21,M,M,M,M,M,M,M,M,M,M,YBBN 301300Z 22005KT CAVOK 14/12 Q1025 NOSIG
YBBN,2010-08-30 13:30,153.1292,-27.3917,57.20,53.60,87.74,220.00,5.00,M,30.27,M,6.21,M,FEW,M,M,M,3000.00,M,M,M,M,YBBN 301330Z 22005KT 9999 FEW030 14/12 Q1025 NOSIG
YBBN,2010-08-30 14:00,153.1292,-27.3917,55.40,51.80,87.65,210.00,6.00,M,30.27,M,6.21,M,FEW,SCT,M,M,3000.00,8500.00,M,M,M,YBBN 301400Z 21006KT 9999 FEW030 SCT085 13/11 Q1025 NOSIG
YBBN,2010-08-30 14:30,153.1292,-27.3917,55.40,51.80,87.65,220.00,4.00,M,30.27,M,6.21,M,FEW,BKN,M,M,3000.00,8500.00,M,M,M,YBBN 301430Z 22004KT 9999 FEW030 BKN085 13/11 Q1025 NOSIG
YBBN,2010-08-30 15:00,153.1292,-27.3917,55.40,53.60,93.65,230.00,2.00,M,30.27,M,6.21,M,FEW,BKN,M,M,2500.00,8500.00,M,M,M,YBBN 301500Z 23002KT 9999 FEW025 BKN085 13/12 Q1025 NOSIG
YBBN,2010-08-30 15:30,153.1292,-27.3917,55.40,53.60,93.65,220.00,5.00,M,30.24,M,6.21,M,FEW,BKN,M,M,2500.00,8500.00,M,M,M,YBBN 301530Z 22005KT 9999 FEW025 BKN085 13/12 Q1024 NOSIG
YBBN,2010-08-30 16:00,153.1292,-27.3917,57.20,51.80,82.12,220.00,4.00,M,30.24,M,6.21,M,FEW,SCT,BKN,M,2500.00,4000.00,8500.00,M,M,YBBN 301600Z 22004KT 9999 FEW025 SCT040 BKN085 14/11 Q1024 NOSIG
YBBN,2010-08-30 16:30,153.1292,-27.3917,55.40,51.80,87.65,230.00,6.00,M,30.24,M,6.21,M,SCT,SCT,M,M,4000.00,8500.00,M,M,M,YBBN 301630Z 23006KT 9999 SCT040 SCT085 13/11 Q1024 NOSIG
YBBN,2010-08-30 17:00,153.1292,-27.3917,55.40,50.00,81.99,230.00,7.00,M,30.24,M,6.21,M,FEW,M,M,M,4000.00,M,M,M,M,YBBN 301700Z 23007KT 9999 FEW040 13/10 Q1024 NOSIG
YBBN,2010-08-30 17:30,153.1292,-27.3917,53.60,50.00,87.56,210.00,7.00,M,30.24,M,6.21,M,FEW,M,M,M,4000.00,M,M,M,M,YBBN 301730Z 21007KT 9999 FEW040 12/10 Q1024 NOSIG
YBBN,2010-08-30 18:00,153.1292,-27.3917,53.60,50.00,87.56,200.00,6.00,M,30.24,M,6.21,M,FEW,M,M,M,4000.00,M,M,M,M,YBBN 301800Z 20006KT 9999 FEW040 12/10 Q1024 NOSIG
YBBN,2010-08-30 18:30,153.1292,-27.3917,51.80,50.00,93.55,210.00,6.00,M,30.24,M,6.21,M,FEW,M,M,M,4000.00,M,M,M,M,YBBN 301830Z 21006KT 9999 FEW040 11/10 Q1024 NOSIG
YBBN,2010-08-30 19:00,153.1292,-27.3917,51.80,50.00,93.55,210.00,8.00,M,30.24,M,6.21,M,FEW,M,M,M,4000.00,M,M,M,M,YBBN 301900Z 21008KT 9999 FEW040 11/10 Q1024 NOSIG
YBBN,2010-08-30 19:30,153.1292,-27.3917,51.80,48.20,87.47,220.00,7.00,M,30.27,M,6.21,M,M,M,M,M,M,M,M,M,M,YBBN 301930Z 22007KT CAVOK 11/09 Q1025 NOSIG
YBBN,2010-08-30 20:00,153.1292,-27.3917,53.60,50.00,87.56,210.00,8.00,M,30.27,M,6.21,M,M,M,M,M,M,M,M,M,M,YBBN 302000Z 21008KT CAVOK 12/10 Q1025 NOSIG
YBBN,2010-08-30 20:30,153.1292,-27.3917,51.80,50.00,93.55,210.00,7.00,M,30.27,M,6.21,M,M,M,M,M,M,M,M,M,M,YBBN 302030Z 21007KT CAVOK 11/10 Q1025 NOSIG
YBBN,2010-08-30 21:00,153.1292,-27.3917,55.40,51.80,87.65,220.00,9.00,M,30.27,M,6.21,M,FEW,M,M,M,4000.00,M,M,M,M,YBBN 302100Z 22009KT 9999 FEW040 13/11 Q1025 NOSIG
YBBN,2010-08-30 21:30,153.1292,-27.3917,57.20,51.80,82.12,210.00,7.00,M,30.30,M,6.21,M,FEW,M,M,M,4000.00,M,M,M,M,YBBN 302130Z 21007KT 9999 FEW040 14/11 Q1026 NOSIG
YBBN,2010-08-30 22:00,153.1292,-27.3917,59.00,51.80,76.98,220.00,9.00,M,30.30,M,6.21,M,FEW,M,M,M,4000.00,M,M,M,M,YBBN 302200Z 22009KT 9999 FEW040 15/11 Q1026 NOSIG
YBBN,2010-08-30 22:30,153.1292,-27.3917,62.60,51.80,67.75,220.00,8.00,M,30.30,M,6.21,M,FEW,M,M,M,4000.00,M,M,M,M,YBBN 302230Z 22008KT 9999 FEW040 17/11 Q1026 NOSIG
YBBN,2010-08-30 23:00,153.1292,-27.3917,64.40,50.00,59.50,220.00,7.00,M,30.30,M,6.21,M,FEW,M,M,M,4000.00,M,M,M,M,YBBN 302300Z 22007KT 9999 FEW040 18/10 Q1026 NOSIG
YBBN,2010-08-30 23:30,153.1292,-27.3917,66.20,51.80,59.74,230.00,8.00,M,30.30,M,6.21,M,FEW,M,M,M,4000.00,M,M,M,M,YBBN 302330Z 23008KT 9999 FEW040 19/11 Q1026 NOSIG
