#DEBUG: Format Typ    -> comma
#DEBUG: Time Period   -> 2011-04-06 00:00:00+00:00 2011-04-07 00:00:00+00:00
#DEBUG: Time Zone     -> Etc/UTC
#DEBUG: Data Contact   -> daryl herzmann akrherz@iastate.edu 515-294-5978
#DEBUG: Entries Found -> -1
station,valid,lon,lat,tmpf, dwpf, relh, drct, sknt, p01i, alti, mslp, vsby, gust, skyc1, skyc2, skyc3, skyc4, skyl1, skyl2, skyl3, skyl4, presentwx, metar
YBBN,2011-04-06 00:00,153.1292,-27.3917,75.20,57.20,53.55,150.00,8.00,M,30.24,M,6.21,M,FEW,M,M,M,3000.00,M,M,M,M,YBBN 060000Z 15008KT 9999 FEW030 24/14 Q1024 NOSIG
YBBN,2011-04-06 00:30,153.1292,-27.3917,75.20,59.00,57.12,150.00,9.00,M,30.24,M,6.21,M,FEW,M,M,M,3300.00,M,M,M,M,YBBN 060030Z 15009KT 9999 FEW033 24/15 Q1024 NOSIG
YBBN,2011-04-06 01:00,153.1292,-27.3917,75.20,57.20,53.55,150.00,11.00,M,30.21,M,6.21,M,FEW,M,M,M,3500.00,M,M,M,M,YBBN 060100Z 15011KT 9999 FEW035 24/14 Q1023 NOSIG
YBBN,2011-04-06 01:30,153.1292,-27.3917,77.00,55.40,47.25,150.00,13.00,M,30.21,M,6.21,M,SCT,M,M,M,3500.00,M,M,M,M,YBBN 060130Z 15013KT 9999 SCT035 25/13 Q1023 NOSIG
YBBN,2011-04-06 02:00,153.1292,-27.3917,77.00,53.60,44.25,150.00,12.00,M,30.21,M,6.21,M,SCT,M,M,M,3500.00,M,M,M,M,YBBN 060200Z 15012KT 9999 SCT035 25/12 Q1023 NOSIG
YBBN,2011-04-06 02:30,153.1292,-27.3917,77.00,55.40,47.25,140.00,12.00,M,30.18,M,6.21,M,SCT,M,M,M,3500.00,M,M,M,M,YBBN 060230Z 14012KT 9999 SCT035 25/13 Q1022 NOSIG
YBBN,2011-04-06 03:00,153.1292,-27.3917,75.20,55.40,50.17,140.00,11.00,M,30.18,M,6.21,M,SCT,M,M,M,3800.00,M,M,M,M,YBBN 060300Z 14011KT 9999 SCT038 24/13 Q1022 NOSIG
YBBN,2011-04-06 03:30,153.1292,-27.3917,77.00,53.60,44.25,130.00,11.00,M,30.18,M,6.21,M,SCT,M,M,M,3800.00,M,M,M,M,YBBN 060330Z 13011KT 9999 SCT038 25/12 Q1022 NOSIG
YBBN,2011-04-06 04:00,153.1292,-27.3917,77.00,55.40,47.25,130.00,12.00,M,30.18,M,6.21,M,SCT,M,M,M,3800.00,M,M,M,M,YBBN 060400Z 13012KT 9999 SCT038 25/13 Q1022 NOSIG
YBBN,2011-04-06 04:30,153.1292,-27.3917,77.00,53.60,44.25,130.00,11.00,M,30.18,M,6.21,M,FEW,M,M,M,4000.00,M,M,M,M,YBBN 060430Z 13011KT 9999 FEW040 25/12 Q1022 NOSIG
YBBN,2011-04-06 05:00,153.1292,-27.3917,75.20,51.80,43.97,140.00,12.00,M,30.18,M,6.21,M,FEW,M,M,M,4000.00,M,M,M,M,YBBN 060500Z 14012KT 9999 FEW040 24/11 Q1022 NOSIG
YBBN,2011-04-06 05:30,153.1292,-27.3917,75.20,51.80,43.97,120.00,12.00,M,30.18,M,6.21,M,FEW,M,M,M,4000.00,M,M,M,M,YBBN 060530Z 12012KT 9999 FEW040 24/11 Q1022 NOSIG
YBBN,2011-04-06 06:00,153.1292,-27.3917,75.20,53.60,46.98,140.00,11.00,M,30.18,M,6.21,M,FEW,M,M,M,4000.00,M,M,M,M,YBBN 060600Z 14011KT 9999 FEW040 24/12 Q1022 NOSIG
YBBN,2011-04-06 06:30,153.1292,-27.3917,75.20,55.40,50.17,150.00,9.00,M,30.18,M,6.21,M,FEW,M,M,M,4000.00,M,M,M,M,YBBN 060630Z 15009KT 9999 FEW040 24/13 Q1022 NOSIG
YBBN,2011-04-06 07:00,153.1292,-27.3917,73.40,51.80,46.71,150.00,11.00,M,30.18,M,6.21,M,FEW,M,M,M,3500.00,M,M,M,M,YBBN 060700Z 15011KT 9999 FEW035 23/11 Q1022 NOSIG
YBBN,2011-04-06 07:30,153.1292,-27.3917,71.60,51.80,49.64,150.00,8.00,M,30.18,M,6.21,M,FEW,M,M,M,3500.00,M,M,M,M,YBBN 060730Z 15008KT 9999 FEW035 22/11 Q1022 NOSIG
YBBN,2011-04-06 08:00,153.1292,-27.3917,71.60,53.60,53.03,160.00,8.00,M,30.18,M,6.21,M,FEW,M,M,M,3500.00,M,M,M,M,YBBN 060800Z 16008KT 9999 FEW035 22/12 Q1022 NOSIG
YBBN,2011-04-06 08:30,153.1292,-27.3917,69.80,55.40,60.21,180.00,7.00,M,30.18,M,6.21,M,FEW,M,M,M,3500.00,M,M,M,M,YBBN 060830Z 18007KT 9999 FEW035 21/13 Q1022 NOSIG
YBBN,2011-04-06 09:00,153.1292,-27.3917,69.80,55.40,60.21,180.00,8.00,M,30.21,M,6.21,M,FEW,M,M,M,4000.00,M,M,M,M,YBBN 060900Z 18008KT 9999 FEW040 21/13 Q1023 NOSIG
YBBN,2011-04-06 09:30,153.1292,-27.3917,68.00,55.40,64.04,180.00,7.00,M,30.21,M,6.21,M,FEW,M,M,M,4000.00,M,M,M,M,YBBN 060930Z 18007KT 9999 FEW040 20/13 Q1023 NOSIG
YBBN,2011-04-06 10:00,153.1292,-27.3917,68.00,55.40,64.04,180.00,8.00,M,30.21,M,6.21,M,FEW,M,M,M,4000.00,M,M,M,M,YBBN 061000Z 18008KT 9999 FEW040 20/13 Q1023 NOSIG
YBBN,2011-04-06 10:30,153.1292,-27.3917,68.00,55.40,64.04,210.00,8.00,M,30.21,M,6.21,M,FEW,M,M,M,4000.00,M,M,M,M,YBBN 061030Z 21008KT 9999 FEW040 20/13 Q1023 NOSIG
YBBN,2011-04-06 11:00,153.1292,-27.3917,68.00,57.20,68.35,190.00,9.00,M,30.24,M,6.21,M,SCT,M,M,M,4000.00,M,M,M,M,YBBN 061100Z 19009KT 9999 SCT040 20/14 Q1024 NOSIG
YBBN,2011-04-06 11:30,153.1292,-27.3917,66.20,57.20,72.74,210.00,7.00,M,30.24,M,6.21,M,FEW,M,M,M,4000.00,M,M,M,M,YBBN 061130Z 21007KT 9999 FEW040 19/14 Q1024 NOSIG
YBBN,2011-04-06 12:00,153.1292,-27.3917,66.20,59.00,77.60,210.00,7.00,M,30.24,M,6.21,M,FEW,SCT,M,M,2000.00,4500.00,M,M,VCSH,YBBN 061200Z 21007KT 9999 VCSH FEW020 SCT045 19/15 Q1024 NOSIG
YBBN,2011-04-06 12:30,153.1292,-27.3917,66.20,59.00,77.60,210.00,7.00,M,30.24,M,6.21,M,FEW,M,M,M,2500.00,M,M,M,VCSH,YBBN 061230Z 21007KT 9999 VCSH FEW025 19/15 Q1024 NOSIG
YBBN,2011-04-06 16:30,153.1292,-27.3917,62.60,59.00,88.00,210.00,8.00,M,30.21,M,6.21,M,M,M,M,M,M,M,M,M,M,YBBN 061630Z 21008KT CAVOK 17/15 Q1023 RMK 5AC090 INTER 1630/1930 3000 SHRA BKN012
YBBN,2011-04-06 19:00,153.1292,-27.3917,64.40,59.00,82.62,210.00,7.00,M,30.21,M,6.21,M,M,M,M,M,M,M,M,M,M,YBBN 061900Z 21007KT CAVOK 18/15 Q1023 RMK 5SC055 INTER 1900/2200 3000 SHRA BKN012
YBBN,2011-04-06 20:30,153.1292,-27.3917,62.60,59.00,88.00,210.00,8.00,M,30.21,M,6.21,M,FEW,SCT,M,M,1200.00,6800.00,M,M,M,YBBN 062030Z 21008KT 9999 FEW012 SCT068 17/15 Q1023 RMK DIST SH SW/NE INTER 2030/2330 3000 SHRA BKN012
YBBN,2011-04-06 21:00,153.1292,-27.3917,64.40,59.00,82.62,210.00,7.00,M,30.24,M,6.21,M,FEW,SCT,M,M,1400.00,6800.00,M,M,M,YBBN 062100Z 21007KT 9999 FEW014 SCT068 18/15 Q1024 RMK DIST SH EAST INTER 2100/2400 3000 SHRA BKN012
YBBN,2011-04-06 21:30,153.1292,-27.3917,66.20,59.00,77.60,210.00,8.00,M,30.24,M,6.21,M,FEW,SCT,M,M,1500.00,7000.00,M,M,M,YBBN 062130Z 21008KT 9999 FEW015 SCT070 19/15 Q1024 RMK DIST SH EAST INTER 2130/0030 3000 SHRA BKN012
YBBN,2011-04-06 22:00,153.1292,-27.3917,69.80,59.00,68.55,200.00,8.00,M,30.24,M,6.21,M,FEW,M,M,M,2000.00,M,M,M,M,YBBN 062200Z 20008KT 9999 FEW020 21/15 Q1024 RMK DIST SH NE/SE INTER 2200/0100 3000 SHRA BKN012
YBBN,2011-04-06 22:30,153.1292,-27.3917,71.60,59.00,64.48,180.00,10.00,M,30.24,M,6.21,M,FEW,SCT,M,M,1800.00,6800.00,M,M,M,YBBN 062230Z 18010KT 9999 FEW018 SCT068 22/15 Q1024 RMK DIST SH S/NE INTER 2230/0130 3000 SHRA BKN012
YBBN,2011-04-06 23:00,153.1292,-27.3917,71.60,59.00,64.48,170.00,10.00,M,30.24,M,6.21,M,FEW,BKN,M,M,2000.00,6800.00,M,M,VCSH,YBBN 062300Z 17010KT 9999 VCSH FEW020 BKN068 22/15 Q1024 RMK SH S INTER 2300/0200 3000 SHRA BKN012
YBBN,2011-04-06 23:30,153.1292,-27.3917,73.40,60.80,64.69,170.00,11.00,M,30.24,M,6.21,M,FEW,BKN,M,M,2600.00,7000.00,M,M,M,YBBN 062330Z 17011KT 9999 FEW026 BKN070 23/16 Q1024 RMK DIST SH SE/NE INTER 2330/0230 3000 SHRA BKN012
