#DEBUG: Format Typ    -> comma
#DEBUG: Time Period   -> 2012-11-23 00:00:00+00:00 2012-11-24 00:00:00+00:00
#DEBUG: Time Zone     -> Etc/UTC
#DEBUG: Data Contact   -> daryl herzmann akrherz@iastate.edu 515-294-5978
#DEBUG: Entries Found -> -1
station,valid,lon,lat,tmpf, dwpf, relh, drct, sknt, p01i, alti, mslp, vsby, gust, skyc1, skyc2, skyc3, skyc4, skyl1, skyl2, skyl3, skyl4, presentwx, metar
YBBN,2012-11-23 00:00,153.1292,-27.3917,77.00,62.60,61.13,40.00,8.00,0.00,30.03,M,6.21,M,SCT,M,M,M,2900.00,M,M,M,M,YBBN 230000Z 04008KT 9999 SCT029 25/17 Q1017 NOSIG
YBBN,2012-11-23 00:30,153.1292,-27.3917,78.80,64.40,61.36,30.00,8.00,0.00,30.03,M,6.21,M,SCT,M,M,M,3000.00,M,M,M,M,YBBN 230030Z 03008KT 9999 SCT030 26/18 Q1017
YBBN,2012-11-23 01:00,153.1292,-27.3917,80.60,66.20,61.58,10.00,11.00,0.00,30.00,M,6.21,M,SCT,M,M,M,3000.00,M,M,M,M,YBBN 230100Z 01011KT 9999 SCT030 27/19 Q1016 NOSIG
YBBN,2012-11-23 01:30,153.1292,-27.3917,78.80,66.20,65.33,10.00,10.00,0.00,30.00,M,6.21,M,SCT,M,M,M,3000.00,M,M,M,M,YBBN 230130Z 01010KT 9999 SCT030 26/19 Q1016
YBBN,2012-11-23 02:00,153.1292,-27.3917,78.80,64.40,61.36,20.00,10.00,0.00,30.00,M,6.21,M,FEW,SCT,M,M,2600.00,3000.00,M,M,M,YBBN 230200Z 02010KT 9999 FEW026 SCT030 26/18 Q1016
YBBN,2012-11-23 02:30,153.1292,-27.3917,78.80,64.40,61.36,20.00,11.00,0.00,30.00,M,6.21,M,FEW,M,M,M,3000.00,M,M,M,M,YBBN 230230Z 02011KT 9999 FEW030 26/18 Q1016
YBBN,2012-11-23 03:00,153.1292,-27.3917,78.80,64.40,61.36,10.00,11.00,0.00,30.00,M,6.21,M,FEW,SCT,M,M,3000.00,9000.00,M,M,M,YBBN 230300Z 01011KT 9999 FEW030 SCT090 26/18 Q1016 NOSIG
YBBN,2012-11-23 03:30,153.1292,-27.3917,78.80,64.40,61.36,30.00,11.00,0.00,29.97,M,6.21,M,FEW,M,M,M,3000.00,M,M,M,M,YBBN 230330Z 03011KT 9999 FEW030 26/18 Q1015
YBBN,2012-11-23 04:00,153.1292,-27.3917,78.80,64.40,61.36,30.00,13.00,0.00,29.97,M,6.21,M,FEW,M,M,M,3000.00,M,M,M,M,YBBN 230400Z 03013KT 9999 FEW030 26/18 Q1015
YBBN,2012-11-23 04:30,153.1292,-27.3917,77.00,64.40,65.12,40.00,13.00,0.00,29.97,M,6.21,M,FEW,BKN,M,M,3000.00,7200.00,M,M,M,YBBN 230430Z 04013KT 9999 FEW030 BKN072 25/18 Q1015 RMK CB TOP TO E
YBBN,2012-11-23 05:00,153.1292,-27.3917,77.00,64.40,65.12,40.00,9.00,0.00,29.97,M,6.21,M,FEW,BKN,M,M,2200.00,7200.00,M,M,M,YBBN 230500Z 04009KT 9999 FEW022 BKN072 25/18 Q1015 NOSIG
YBBN,2012-11-23 05:30,153.1292,-27.3917,77.00,64.40,65.12,40.00,9.00,0.00,29.97,M,6.21,M,FEW,BKN,M,M,2100.00,7200.00,M,M,M,YBBN 230530Z 04009KT 9999 FEW021 BKN072 25/18 Q1015
YBBN,2012-11-23 06:00,153.1292,-27.3917,77.00,64.40,65.12,50.00,9.00,0.00,29.97,M,6.21,M,FEW,SCT,M,M,2100.00,7200.00,M,M,M,YBBN 230600Z 05009KT 9999 FEW021 SCT072 25/18 Q1015
YBBN,2012-11-23 06:30,153.1292,-27.3917,75.20,62.60,64.91,50.00,9.00,0.00,29.97,M,6.21,M,FEW,BKN,M,M,2000.00,6800.00,M,M,M,YBBN 230630Z 05009KT 9999 FEW020 BKN068 24/17 Q1015
YBBN,2012-11-23 07:00,153.1292,-27.3917,77.00,62.60,61.13,70.00,10.00,0.00,29.97,M,6.21,M,FEW,BKN,M,M,2200.00,6800.00,M,M,M,YBBN 230700Z 07010KT 9999 FEW022 BKN068 25/17 Q1015 NOSIG
YBBN,2012-11-23 07:30,153.1292,-27.3917,75.20,62.60,64.91,60.00,11.00,0.00,29.97,M,6.21,M,FEW,SCT,BKN,M,2200.00,6800.00,30000.00,M,M,YBBN 230730Z 06011KT 9999 FEW022 SCT068 BKN300 24/17 Q1015
YBBN,2012-11-23 08:00,153.1292,-27.3917,73.40,60.80,64.69,60.00,10.00,0.00,30.00,M,6.21,M,FEW,BKN,M,M,2000.00,30000.00,M,M,M,YBBN 230800Z 06010KT 9999 FEW020 BKN300 23/16 Q1016 NOSIG
YBBN,2012-11-23 08:30,153.1292,-27.3917,73.40,60.80,64.69,60.00,7.00,0.00,30.00,M,6.21,M,FEW,SCT,M,M,2000.00,30000.00,M,M,M,YBBN 230830Z 06007KT 9999 FEW020 SCT300 23/16 Q1016
YBBN,2012-11-23 09:00,153.1292,-27.3917,73.40,60.80,64.69,50.00,9.00,0.00,30.00,M,6.21,M,FEW,M,M,M,1800.00,M,M,M,M,YBBN 230900Z 05009KT 9999 FEW018 23/16 Q1016
YBBN,2012-11-23 09:30,153.1292,-27.3917,73.40,60.80,64.69,50.00,8.00,0.00,30.03,M,6.21,M,FEW,M,M,M,1800.00,M,M,M,M,YBBN 230930Z 05008KT 9999 FEW018 23/16 Q1017
YBBN,2012-11-23 10:00,153.1292,-27.3917,71.60,60.80,68.75,50.00,5.00,0.00,30.03,M,6.21,M,FEW,M,M,M,1800.00,M,M,M,M,YBBN 231000Z 05005KT 9999 FEW018 22/16 Q1017
YBBN,2012-11-23 10:30,153.1292,-27.3917,69.80,62.60,77.90,50.00,5.00,0.00,30.06,M,6.21,M,FEW,M,M,M,1800.00,M,M,M,M,YBBN 231030Z 05005KT 9999 FEW018 21/17 Q1018
YBBN,2012-11-23 11:00,153.1292,-27.3917,71.60,62.60,73.27,50.00,6.00,0.00,30.06,M,6.21,M,FEW,M,M,M,1800.00,M,M,M,M,YBBN 231100Z 05006KT 9999 FEW018 22/17 Q1018
YBBN,2012-11-23 11:30,153.1292,-27.3917,71.60,60.80,68.75,50.00,5.00,0.00,30.06,M,6.21,M,FEW,M,M,M,1800.00,M,M,M,M,YBBN 231130Z 05005KT 9999 FEW018 22/16 Q1018
YBBN,2012-11-23 12:00,153.1292,-27.3917,73.40,60.80,64.69,50.00,7.00,0.00,30.06,M,6.21,M,FEW,M,M,M,1800.00,M,M,M,M,YBBN 231200Z 05007KT 9999 FEW018 23/16 Q1018
YBBN,2012-11-23 12:30,153.1292,-27.3917,73.40,60.80,64.69,60.00,8.00,0.00,30.06,M,6.21,M,FEW,SCT,M,M,1800.00,2000.00,M,M,M,YBBN 231230Z 06008KT 9999 FEW018 SCT020 23/16 Q1018
YBBN,2012-11-23 13:00,153.1292,-27.3917,73.40,60.80,64.69,40.00,7.00,0.00,30.06,M,6.21,M,FEW,SCT,BKN,M,1800.00,3800.00,7600.00,M,M,YBBN 231300Z 04007KT 9999 FEW018 SCT038 BKN076 23/16 Q1018 NOSIG
YBBN,2012-11-23 13:30,153.1292,-27.3917,73.40,60.80,64.69,50.00,8.00,0.00,30.03,M,6.21,M,FEW,SCT,M,M,2000.00,3500.00,M,M,M,YBBN 231330Z 05008KT 9999 FEW020 SCT035 23/16 Q1017
YBBN,2012-11-23 16:00,153.1292,-27.3917,69.80,62.60,77.90,50.00,6.00,0.00,30.00,M,6.21,M,FEW,M,M,M,2600.00,M,M,M,M,YBBN 231600Z 05006KT 9999 FEW026 21/17 Q1016 NOSIG
YBBN,2012-11-23 16:30,153.1292,-27.3917,71.60,60.80,68.75,50.00,6.00,0.00,30.00,M,6.21,M,FEW,M,M,M,2600.00,M,M,M,M,YBBN 231630Z 05006KT 9999 FEW026 22/16 Q1016
YBBN,2012-11-23 17:00,153.1292,-27.3917,71.60,60.80,68.75,60.00,5.00,0.00,30.00,M,6.21,M,FEW,M,M,M,2600.00,M,M,M,M,YBBN 231700Z 06005KT 9999 FEW026 22/16 Q1016 NOSIG
YBBN,2012-11-23 17:30,153.1292,-27.3917,71.60,60.80,68.75,70.00,4.00,0.00,30.00,M,6.21,M,FEW,M,M,M,2600.00,M,M,M,M,YBBN 231730Z 07004KT 9999 FEW026 22/16 Q1016
YBBN,2012-11-23 18:00,153.1292,-27.3917,71.60,60.80,68.75,60.00,5.00,0.00,30.00,M,6.21,M,FEW,M,M,M,2600.00,M,M,M,M,YBBN 231800Z 06005KT 9999 FEW026 22/16 Q1016
YBBN,2012-11-23 18:30,153.1292,-27.3917,69.80,60.80,73.09,60.00,5.00,0.00,30.03,M,6.21,M,FEW,SCT,M,M,2600.00,30000.00,M,M,M,YBBN 231830Z 06005KT 9999 FEW026 SCT300 21/16 Q1017
YBBN,2012-11-23 19:00,153.1292,-27.3917,71.60,60.80,68.75,50.00,7.00,0.00,30.03,M,6.21,M,FEW,SCT,M,M,2000.00,30000.00,M,M,M,YBBN 231900Z 05007KT 9999 FEW020 SCT300 22/16 Q1017
YBBN,2012-11-23 19:30,153.1292,-27.3917,73.40,60.80,64.69,60.00,7.00,0.00,30.03,M,6.21,M,FEW,SCT,M,M,2000.00,3800.00,M,M,M,YBBN 231930Z 06007KT 9999 FEW020 SCT038 23/16 Q1017
YBBN,2012-11-23 20:00,153.1292,-27.3917,73.40,60.80,64.69,60.00,7.00,0.00,30.03,M,6.21,M,FEW,BKN,M,M,2500.00,25000.00,M,M,M,YBBN 232000Z 06007KT 9999 FEW025 BKN250 23/16 Q1017 NOSIG
YBBN,2012-11-23 20:30,153.1292,-27.3917,73.40,60.80,64.69,50.00,8.00,0.00,30.06,M,6.21,M,SCT,SCT,BKN,M,3000.00,4000.00,25000.00,M,M,YBBN 232030Z 05008KT 9999 SCT030 SCT040 BKN250 23/16 Q1018
YBBN,2012-11-23 21:00,153.1292,-27.3917,75.20,59.00,57.12,60.00,9.00,0.00,30.06,M,6.21,M,SCT,SCT,BKN,M,3000.00,4000.00,25000.00,M,M,YBBN 232100Z 06009KT 9999 SCT030 SCT040 BKN250 24/15 Q1018
YBBN,2012-11-23 21:30,153.1292,-27.3917,77.00,60.80,57.36,50.00,10.00,0.00,30.09,M,6.21,M,SCT,SCT,M,M,3300.00,4000.00,M,M,M,YBBN 232130Z 05010KT 9999 SCT033 SCT040 25/16 Q1019
YBBN,2012-11-23 22:00,153.1292,-27.3917,77.00,60.80,57.36,40.00,10.00,0.00,30.09,M,6.21,M,SCT,BKN,M,M,3600.00,25000.00,M,M,M,YBBN 232200Z 04010KT 9999 SCT036 BKN250 25/16 Q1019
YBBN,2012-11-23 22:30,153.1292,-27.3917,75.20,59.00,57.12,50.00,9.00,0.00,30.09,M,6.21,M,SCT,BKN,M,M,3600.00,25000.00,M,M,M,YBBN 232230Z 05009KT 9999 SCT036 BKN250 24/15 Q1019
YBBN,2012-11-23 23:00,153.1292,-27.3917,77.00,59.00,53.80,40.00,9.00,0.00,30.09,M,6.21,M,FEW,BKN,BKN,M,2400.00,3500.00,25000.00,M,M,YBBN 232300Z 04009KT 9999 FEW024 BKN035 BKN250 25/15 Q1019 NOSIG
YBBN,2012-11-23 23:30,153.1292,-27.3917,75.20,59.00,57.12,50.00,9.00,0.00,30.09,M,6.21,M,FEW,SCT,BKN,M,2500.00,3200.00,4000.00,M,M,YBBN 232330Z 05009KT 9999 FEW025 SCT032 BKN040 24/15 Q1019
