#DEBUG: Format Typ    -> comma
#DEBUG: Time Period   -> 2013-02-11 00:00:00+00:00 2013-02-12 00:00:00+00:00
#DEBUG: Time Zone     -> Etc/UTC
#DEBUG: Data Contact   -> daryl herzmann akrherz@iastate.edu 515-294-5978
#DEBUG: Entries Found -> -1
station,valid,lon,lat,tmpf, dwpf, relh, drct, sknt, p01i, alti, mslp, vsby, gust, skyc1, skyc2, skyc3, skyc4, skyl1, skyl2, skyl3, skyl4, presentwx, metar
YBBN,2013-02-11 00:00,153.1292,-27.3917,80.60,62.60,54.30,130.00,10.00,0.00,30.00,M,6.21,M,BKN,M,M,M,3500.00,M,M,M,M,YBBN 110000Z 13010KT 9999 BKN035 27/17 Q1016 NOSIG
YBBN,2013-02-11 00:30,153.1292,-27.3917,80.60,62.60,54.30,120.00,9.00,0.00,30.00,M,6.21,M,SCT,M,M,M,3500.00,M,M,M,M,YBBN 110030Z 12009KT 9999 SCT035 27/17 Q1016
YBBN,2013-02-11 01:00,153.1292,-27.3917,80.60,62.60,54.30,120.00,10.00,0.00,30.00,M,6.21,M,SCT,M,M,M,3500.00,M,M,M,M,YBBN 110100Z 12010KT 9999 SCT035 27/17 Q1016
YBBN,2013-02-11 01:30,153.1292,-27.3917,80.60,62.60,54.30,120.00,10.00,0.00,30.00,M,6.21,M,SCT,M,M,M,3500.00,M,M,M,M,YBBN 110130Z 12010KT 9999 SCT035 27/17 Q1016
YBBN,2013-02-11 02:00,153.1292,-27.3917,82.40,62.60,51.21,90.00,9.00,0.00,29.97,M,6.21,M,SCT,M,M,M,3500.00,M,M,M,M,YBBN 110200Z 09009KT 9999 SCT035 28/17 Q1015 NOSIG
YBBN,2013-02-11 02:30,153.1292,-27.3917,82.40,62.60,51.21,120.00,10.00,0.00,29.97,M,6.21,M,SCT,M,M,M,3500.00,M,M,M,M,YBBN 110230Z 12010KT 9999 SCT035 28/17 Q1015
YBBN,2013-02-11 03:00,153.1292,-27.3917,82.40,64.40,54.55,120.00,11.00,0.00,29.97,M,6.21,M,SCT,M,M,M,3500.00,M,M,M,M,YBBN 110300Z 12011KT 9999 SCT035 28/18 Q1015
YBBN,2013-02-11 03:30,153.1292,-27.3917,82.40,64.40,54.55,120.00,11.00,0.00,29.97,M,6.21,M,SCT,M,M,M,3500.00,M,M,M,M,YBBN 110330Z 12011KT 9999 SCT035 28/18 Q1015
YBBN,2013-02-11 04:00,153.1292,-27.3917,82.40,62.60,51.21,100.00,11.00,0.00,29.94,M,6.21,M,FEW,M,M,M,3500.00,M,M,M,M,YBBN 110400Z 10011KT 9999 FEW035 28/17 Q1014 NOSIG
YBBN,2013-02-11 04:30,153.1292,-27.3917,82.40,64.40,54.55,110.00,11.00,0.00,29.94,M,6.21,M,FEW,M,M,M,3500.00,M,M,M,M,YBBN 110430Z 11011KT 9999 FEW035 28/18 Q1014
YBBN,2013-02-11 05:00,153.1292,-27.3917,80.60,64.40,57.84,110.00,11.00,0.00,29.94,M,6.21,M,FEW,M,M,M,3500.00,M,M,M,M,YBBN 110500Z 11011KT 9999 FEW035 27/18 Q1014
YBBN,2013-02-11 05:30,153.1292,-27.3917,80.60,64.40,57.84,110.00,13.00,0.00,29.94,M,6.21,M,FEW,M,M,M,3500.00,M,M,M,M,YBBN 110530Z 11013KT 9999 FEW035 27/18 Q1014
YBBN,2013-02-11 06:00,153.1292,-27.3917,80.60,62.60,54.30,110.00,11.00,0.00,29.91,M,6.21,M,FEW,M,M,M,3500.00,M,M,M,M,YBBN 110600Z 11011KT 9999 FEW035 27/17 Q1013 NOSIG
YBBN,2013-02-11 06:30,153.1292,-27.3917,80.60,60.80,50.95,110.00,10.00,0.00,29.91,M,6.21,M,FEW,M,M,M,3500.00,M,M,M,M,YBBN 110630Z 11010KT 9999 FEW035 27/16 Q1013
YBBN,2013-02-11 07:00,153.1292,-27.3917,80.60,59.00,47.79,110.00,11.00,0.00,29.91,M,6.21,M,FEW,M,M,M,3500.00,M,M,M,M,YBBN 110700Z 11011KT 9999 FEW035 27/15 Q1013
YBBN,2013-02-11 07:30,153.1292,-27.3917,78.80,62.60,57.60,90.00,10.00,0.00,29.94,M,6.21,M,FEW,M,M,M,1700.00,M,M,M,M,YBBN 110730Z 09010KT 9999 FEW017 26/17 Q1014
YBBN,2013-02-11 08:00,153.1292,-27.3917,77.00,64.40,65.12,100.00,8.00,0.00,29.94,M,6.21,M,FEW,M,M,M,2800.00,M,M,M,M,YBBN 110800Z 10008KT 9999 FEW028 25/18 Q1014 NOSIG
YBBN,2013-02-11 08:30,153.1292,-27.3917,77.00,64.40,65.12,110.00,8.00,0.00,29.97,M,6.21,M,FEW,SCT,M,M,2800.00,30000.00,M,M,M,YBBN 110830Z 11008KT 9999 FEW028 SCT300 25/18 Q1015
YBBN,2013-02-11 09:00,153.1292,-27.3917,77.00,64.40,65.12,100.00,8.00,0.00,29.97,M,6.21,M,FEW,SCT,M,M,2500.00,30000.00,M,M,M,YBBN 110900Z 10008KT 9999 FEW025 SCT300 25/18 Q1015
YBBN,2013-02-11 09:30,153.1292,-27.3917,75.20,66.20,73.61,100.00,8.00,0.00,30.00,M,6.21,M,FEW,SCT,M,M,2300.00,30000.00,M,M,M,YBBN 110930Z 10008KT 9999 FEW023 SCT300 24/19 Q1016
YBBN,2013-02-11 10:00,153.1292,-27.3917,75.20,66.20,73.61,110.00,7.00,0.00,30.00,M,6.21,M,FEW,SCT,M,M,2300.00,30000.00,M,M,M,YBBN 111000Z 11007KT 9999 FEW023 SCT300 24/19 Q1016 NOSIG
YBBN,2013-02-11 10:30,153.1292,-27.3917,75.20,66.20,73.61,110.00,7.00,0.00,30.00,M,6.21,M,FEW,M,M,M,2400.00,M,M,M,M,YBBN 111030Z 11007KT 9999 FEW024 24/19 Q1016
YBBN,2013-02-11 11:00,153.1292,-27.3917,75.20,66.20,73.61,110.00,7.00,0.00,30.00,M,6.21,M,FEW,SCT,M,M,2300.00,7500.00,M,M,M,YBBN 111100Z 11007KT 9999 FEW023 SCT075 24/19 Q1016
YBBN,2013-02-11 11:30,153.1292,-27.3917,75.20,66.20,73.61,100.00,7.00,0.00,30.00,M,6.21,M,FEW,SCT,M,M,2300.00,3400.00,M,M,M,YBBN 111130Z 10007KT 9999 FEW023 SCT034 24/19 Q1016
YBBN,2013-02-11 12:00,153.1292,-27.3917,75.20,66.20,73.61,90.00,7.00,0.00,30.00,M,6.21,M,FEW,M,M,M,2400.00,M,M,M,M,YBBN 111200Z 09007KT 9999 FEW024 24/19 Q1016
YBBN,2013-02-11 12:30,153.1292,-27.3917,75.20,66.20,73.61,100.00,6.00,0.00,30.00,M,6.21,M,FEW,M,M,M,2400.00,M,M,M,M,YBBN 111230Z 10006KT 9999 FEW024 24/19 Q1016
YBBN,2013-02-11 13:00,153.1292,-27.3917,75.20,66.20,73.61,100.00,7.00,0.00,30.00,M,6.21,M,FEW,M,M,M,2300.00,M,M,M,M,YBBN 111300Z 10007KT 9999 FEW023 24/19 Q1016
YBBN,2013-02-11 13:30,153.1292,-27.3917,75.20,66.20,73.61,90.00,7.00,0.00,30.00,M,6.21,M,FEW,M,M,M,2300.00,M,M,M,M,YBBN 111330Z 09007KT 9999 FEW023 24/19 Q1016
YBBN,2013-02-11 14:00,153.1292,-27.3917,75.20,66.20,73.61,100.00,6.00,0.00,30.00,M,6.21,M,FEW,M,M,M,2300.00,M,M,M,M,YBBN 111400Z 10006KT 9999 FEW023 24/19 Q1016
YBBN,2013-02-11 14:30,153.1292,-27.3917,75.20,66.20,73.61,100.00,5.00,0.00,29.97,M,6.21,M,FEW,M,M,M,2300.00,M,M,M,M,YBBN 111430Z 10005KT 9999 FEW023 24/19 Q1015
YBBN,2013-02-11 15:00,153.1292,-27.3917,75.20,66.20,73.61,100.00,5.00,0.00,29.97,M,6.21,M,SCT,M,M,M,2400.00,M,M,M,M,YBBN 111500Z 10005KT 9999 SCT024 24/19 Q1015
YBBN,2013-02-11 15:30,153.1292,-27.3917,75.20,66.20,73.61,100.00,5.00,0.00,29.97,M,6.21,M,FEW,SCT,M,M,2400.00,3900.00,M,M,M,YBBN 111530Z 10005KT 9999 FEW024 SCT039 24/19 Q1015
YBBN,2013-02-11 16:00,153.1292,-27.3917,73.40,66.20,78.19,110.00,5.00,0.00,29.94,M,6.21,M,SCT,M,M,M,2700.00,M,M,M,M,YBBN 111600Z 11005KT 9999 SCT027 23/19 Q1014
YBBN,2013-02-11 16:30,153.1292,-27.3917,71.60,66.20,83.09,210.00,5.00,0.00,29.94,M,6.21,M,FEW,M,M,M,3300.00,M,M,M,M,YBBN 111630Z 21005KT 9999 FEW033 22/19 Q1014
YBBN,2013-02-11 17:00,153.1292,-27.3917,71.60,66.20,83.09,190.00,5.00,0.00,29.94,M,6.21,M,FEW,M,M,M,3400.00,M,M,M,M,YBBN 111700Z 19005KT 9999 FEW034 22/19 Q1014
YBBN,2013-02-11 17:30,153.1292,-27.3917,69.80,66.20,88.34,200.00,5.00,0.00,29.94,M,6.21,M,FEW,M,M,M,3400.00,M,M,M,M,YBBN 111730Z 20005KT 9999 FEW034 21/19 Q1014
YBBN,2013-02-11 18:00,153.1292,-27.3917,69.80,66.20,88.34,190.00,5.00,0.00,29.94,M,6.21,M,FEW,M,M,M,3400.00,M,M,M,M,YBBN 111800Z 19005KT 9999 FEW034 21/19 Q1014
YBBN,2013-02-11 18:30,153.1292,-27.3917,69.80,64.40,82.98,190.00,6.00,0.00,29.94,M,6.21,M,FEW,M,M,M,3400.00,M,M,M,M,YBBN 111830Z 19006KT 9999 FEW034 21/18 Q1014
YBBN,2013-02-11 19:00,153.1292,-27.3917,69.80,64.40,82.98,200.00,5.00,0.00,29.97,M,6.21,M,M,M,M,M,M,M,M,M,M,YBBN 111900Z 20005KT CAVOK 21/18 Q1015
YBBN,2013-02-11 19:30,153.1292,-27.3917,68.00,64.40,88.26,210.00,6.00,0.00,29.97,M,6.21,M,FEW,M,M,M,3000.00,M,M,M,M,YBBN 111930Z 21006KT 9999 FEW030 20/18 Q1015
YBBN,2013-02-11 20:00,153.1292,-27.3917,69.80,64.40,82.98,200.00,5.00,0.00,29.97,M,6.21,M,FEW,M,M,M,3000.00,M,M,M,M,YBBN 112000Z 20005KT 9999 FEW030 21/18 Q1015
YBBN,2013-02-11 20:30,153.1292,-27.3917,71.60,64.40,78.04,200.00,5.00,0.00,30.00,M,6.21,M,FEW,M,M,M,3000.00,M,M,M,M,YBBN 112030Z 20005KT 9999 FEW030 22/18 Q1016
YBBN,2013-02-11 21:00,153.1292,-27.3917,73.40,66.20,78.19,160.00,5.00,0.00,30.00,M,6.21,M,FEW,M,M,M,2500.00,M,M,M,M,YBBN 112100Z 16005KT 9999 FEW025 23/19 Q1016
YBBN,2013-02-11 21:30,153.1292,-27.3917,77.00,66.20,69.33,130.00,5.00,0.00,30.00,M,6.21,M,FEW,M,M,M,2500.00,M,M,M,M,YBBN 112130Z 13005KT 9999 FEW025 25/19 Q1016
YBBN,2013-02-11 22:00,153.1292,-27.3917,77.00,64.40,65.12,130.00,7.00,0.00,30.00,M,6.21,M,FEW,M,M,M,2500.00,M,M,M,M,YBBN 112200Z 13007KT 9999 FEW025 25/18 Q1016
YBBN,2013-02-11 22:30,153.1292,-27.3917,78.80,62.60,57.60,110.00,8.00,0.00,30.00,M,6.21,M,FEW,M,M,M,3000.00,M,M,M,M,YBBN 112230Z 11008KT 9999 FEW030 26/17 Q1016
YBBN,2013-02-11 23:00,153.1292,-27.3917,78.80,62.60,57.60,120.00,7.00,0.00,30.00,M,6.21,M,FEW,M,M,M,3500.00,M,M,M,M,YBBN 112300Z 12007KT 9999 FEW035 26/17 Q1016
YBBN,2013-02-11 23:30,153.1292,-27.3917,78.80,62.60,57.60,120.00,8.00,0.00,30.00,M,6.21,M,SCT,M,M,M,3500.00,M,M,M,M,YBBN 112330Z 12008KT 9999 SCT035 26/17 Q1016
