#DEBUG: Format Typ    -> comma
#DEBUG: Time Period   -> 2015-12-24 00:00:00+00:00 2015-12-25 00:00:00+00:00
#DEBUG: Time Zone     -> Etc/UTC
#DEBUG: Data Contact   -> daryl herzmann akrherz@iastate.edu 515-294-5978
#DEBUG: Entries Found -> -1
station,valid,lon,lat,tmpf, dwpf, relh, drct, sknt, p01i, alti, mslp, vsby, gust, skyc1, skyc2, skyc3, skyc4, skyl1, skyl2, skyl3, skyl4, presentwx, metar
YBBN,2015-12-24 00:00,153.1292,-27.3917,78.80,64.40,61.36,100.00,6.00,0.00,29.94,M,6.21,M,BKN,BKN,M,M,3300.00,6500.00,M,M,M,YBBN 240000Z 10006KT 9999 BKN033 BKN065 26/18 Q1014
YBBN,2015-12-24 01:00,153.1292,-27.3917,80.60,62.60,54.30,160.00,5.00,0.00,29.94,M,6.21,M,SCT,BKN,M,M,3500.00,7000.00,M,M,M,YBBN 240100Z 16005KT 080V200 9999 SCT035 BKN070 27/17 Q1014
YBBN,2015-12-24 02:00,153.1292,-27.3917,77.00,64.40,65.12,110.00,6.00,0.00,29.91,M,6.21,M,SCT,SCT,BKN,M,3500.00,8000.00,15000.00,M,M,YBBN 240200Z 11006KT 080V140 9999 SCT035 SCT080 BKN150 25/18 Q1013
YBBN,2015-12-24 03:00,153.1292,-27.3917,78.80,66.20,65.33,120.00,6.00,0.00,29.88,M,6.21,M,FEW,SCT,BKN,M,3200.00,7000.00,14000.00,M,M,YBBN 240300Z 12006KT 9999 FEW032 SCT070 BKN140 26/19 Q1012
YBBN,2015-12-24 03:30,153.1292,-27.3917,78.80,66.20,65.33,110.00,7.00,0.00,29.88,M,6.21,M,FEW,SCT,BKN,M,3200.00,6500.00,15000.00,M,M,YBBN 240330Z 11007KT 9999 FEW032 SCT065 BKN150 26/19 Q1012
YBBN,2015-12-24 05:30,153.1292,-27.3917,75.20,66.20,73.61,110.00,11.00,0.00,29.88,M,6.21,M,FEW,SCT,BKN,M,1000.00,2800.00,7000.00,M,-SHRA,YBBN 240530Z 11011KT 9999 4500S -SHRA FEW010 SCT028 BKN070 24/19 Q1012
YBBN,2015-12-24 05:35,153.1292,-27.3917,75.20,68.00,78.34,120.00,12.00,0.00,29.88,M,6.21,M,SCT,BKN,M,M,2800.00,7000.00,M,M,SHRA,YBBN 240535Z 12012KT 9999 2000S SHRA SCT028 BKN070 24/20 Q1012
YBBN,2015-12-24 05:41,153.1292,-27.3917,71.60,69.80,94.06,130.00,12.00,0.00,29.88,M,3.73,M,SCT,BKN,M,M,2300.00,6000.00,M,M,SHRA,YBBN 240541Z 13012KT 6000 1800S SHRA SCT023 BKN060 22/21 Q1012
YBBN,2015-12-24 06:00,153.1292,-27.3917,68.00,66.20,93.97,170.00,11.00,0.00,29.88,M,2.80,21.00,FEW,BKN,BKN,M,1200.00,1800.00,4500.00,M,SHRA,YBBN 240600Z 17011G21KT 4500 SHRA FEW012 BKN018 BKN045 20/19 Q1012
YBBN,2015-12-24 06:30,153.1292,-27.3917,69.80,68.00,94.01,140.00,9.00,0.00,29.88,M,3.11,M,FEW,BKN,M,M,800.00,2800.00,M,M,RA,YBBN 240630Z 14009KT 5000 RA FEW008 BKN028 21/20 Q1012
YBBN,2015-12-24 06:48,153.1292,-27.3917,69.80,66.20,88.34,140.00,9.00,0.00,29.91,M,4.35,M,FEW,SCT,BKN,M,1200.00,2500.00,6000.00,M,-RA,YBBN 240648Z 14009KT 7000 -RA FEW012 SCT025 BKN060 21/19 Q1013
YBBN,2015-12-24 07:00,153.1292,-27.3917,69.80,66.20,88.34,150.00,7.00,0.00,29.91,M,6.21,M,FEW,SCT,BKN,M,1500.00,3000.00,6000.00,M,-RA,YBBN 240700Z 15007KT 9999 -RA FEW015 SCT030 BKN060 21/19 Q1013
YBBN,2015-12-24 08:00,153.1292,-27.3917,69.80,68.00,94.01,190.00,6.00,0.00,29.91,M,6.21,M,FEW,SCT,BKN,M,1200.00,6500.00,11000.00,M,-RA,YBBN 240800Z 19006KT 9999 -RA FEW012 SCT065 BKN110 21/20 Q1013
YBBN,2015-12-24 08:30,153.1292,-27.3917,69.80,68.00,94.01,170.00,6.00,0.00,29.94,M,6.21,M,FEW,SCT,BKN,M,1500.00,2000.00,12000.00,M,-SHRA,YBBN 240830Z 17006KT 9999 -SHRA FEW015 SCT020 BKN120 21/20 Q1014
YBBN,2015-12-24 09:00,153.1292,-27.3917,69.80,68.00,94.01,160.00,8.00,0.00,29.94,M,6.21,M,FEW,SCT,BKN,M,1500.00,2000.00,12000.00,M,-RA,YBBN 240900Z 16008KT 9999 -RA FEW015 SCT020 BKN120 21/20 Q1014
YBBN,2015-12-24 09:30,153.1292,-27.3917,69.80,66.20,88.34,160.00,8.00,0.00,29.94,M,6.21,M,FEW,SCT,BKN,M,1500.00,12000.00,15000.00,M,-RA,YBBN 240930Z 16008KT 9999 -RA FEW015 SCT120 BKN150 21/19 Q1014
YBBN,2015-12-24 11:30,153.1292,-27.3917,69.80,66.20,88.34,200.00,6.00,0.00,29.94,M,6.21,M,FEW,BKN,BKN,M,4500.00,12000.00,16000.00,M,VCSH,YBBN 241130Z 20006KT 9999 VCSH FEW045 BKN120 BKN160 21/19 Q1014 NOSIG
YBBN,2015-12-24 12:00,153.1292,-27.3917,69.80,66.20,88.34,190.00,6.00,0.00,29.94,M,6.21,M,FEW,BKN,BKN,M,2500.00,12000.00,16000.00,M,-SHRA,YBBN 241200Z 19006KT 9999 -SHRA FEW025 BKN120 BKN160 21/19 Q1014
YBBN,2015-12-24 12:30,153.1292,-27.3917,69.80,66.20,88.34,180.00,5.00,0.00,29.94,M,6.21,M,FEW,BKN,BKN,M,2500.00,5500.00,12000.00,M,-RA,YBBN 241230Z 18005KT 9999 -RA FEW025 BKN055 BKN120 21/19 Q1014 NOSIG
YBBN,2015-12-24 13:00,153.1292,-27.3917,69.80,64.40,82.98,190.00,5.00,0.00,29.91,M,6.21,M,M,M,M,M,M,M,M,M,M,YBBN 241300Z 19005KT CAVOK 21/18 Q1013
YBBN,2015-12-24 13:30,153.1292,-27.3917,69.80,66.20,88.34,190.00,6.00,0.00,29.91,M,6.21,M,M,M,M,M,M,M,M,M,M,YBBN 241330Z 19006KT CAVOK 21/19 Q1013 NOSIG
YBBN,2015-12-24 14:00,153.1292,-27.3917,69.80,66.20,88.34,210.00,6.00,0.00,29.91,M,6.21,M,NSC,M,M,M,M,M,M,M,-DZ,YBBN 241400Z 21006KT 9999 -DZ NSC 21/19 Q1013
YBBN,2015-12-24 14:30,153.1292,-27.3917,69.80,66.20,88.34,200.00,6.00,0.00,29.91,M,6.21,M,FEW,SCT,BKN,M,1500.00,6000.00,14500.00,M,M,YBBN 241430Z 20006KT 9999 FEW015 SCT060 BKN145 21/19 Q1013 NOSIG
YBBN,2015-12-24 15:00,153.1292,-27.3917,69.80,66.20,88.34,210.00,7.00,0.00,29.88,M,6.21,M,FEW,SCT,BKN,M,1500.00,6500.00,14500.00,M,M,YBBN 241500Z 21007KT 9999 FEW015 SCT065 BKN145 21/19 Q1012
YBBN,2015-12-24 15:30,153.1292,-27.3917,68.00,64.40,88.26,210.00,7.00,0.00,29.88,M,6.21,M,M,M,M,M,M,M,M,M,M,YBBN 241530Z 21007KT CAVOK 20/18 Q1012 NOSIG
YBBN,2015-12-24 16:00,153.1292,-27.3917,68.00,64.40,88.26,210.00,7.00,0.00,29.88,M,6.21,M,M,M,M,M,M,M,M,M,M,YBBN 241600Z 21007KT CAVOK 20/18 Q1012
YBBN,2015-12-24 16:30,153.1292,-27.3917,66.20,64.40,93.92,210.00,6.00,0.00,29.88,M,6.21,M,M,M,M,M,M,M,M,M,M,YBBN 241630Z 21006KT CAVOK 19/18 Q1012 NOSIG
YBBN,2015-12-24 17:00,153.1292,-27.3917,68.00,62.60,82.86,200.00,7.00,0.00,29.88,M,6.21,M,M,M,M,M,M,M,M,M,M,YBBN 241700Z 20007KT CAVOK 20/17 Q1012
YBBN,2015-12-24 17:30,153.1292,-27.3917,66.20,62.60,88.18,200.00,7.00,0.00,29.88,M,6.21,M,M,M,M,M,M,M,M,M,M,YBBN 241730Z 20007KT CAVOK 19/17 Q1012 NOSIG
YBBN,2015-12-24 18:00,153.1292,-27.3917,68.00,62.60,82.86,200.00,7.00,0.00,29.88,M,6.21,M,M,M,M,M,M,M,M,M,M,YBBN 241800Z 20007KT CAVOK 20/17 Q1012
YBBN,2015-12-24 18:30,153.1292,-27.3917,68.00,62.60,82.86,200.00,8.00,0.00,29.88,M,6.21,M,FEW,M,M,M,2000.00,M,M,M,M,YBBN 241830Z 20008KT 9999 FEW020 20/17 Q1012 NOSIG
YBBN,2015-12-24 19:00,153.1292,-27.3917,68.00,62.60,82.86,200.00,7.00,0.00,29.88,M,6.21,M,FEW,SCT,M,M,2000.00,3000.00,M,M,M,YBBN 241900Z 20007KT 9999 FEW020 SCT030 20/17 Q1012 NOSIG
YBBN,2015-12-24 19:30,153.1292,-27.3917,68.00,62.60,82.86,200.00,7.00,0.00,29.91,M,6.21,M,FEW,SCT,M,M,2500.00,3500.00,M,M,M,YBBN 241930Z 20007KT 9999 FEW025 SCT035 20/17 Q1013 NOSIG
YBBN,2015-12-24 20:00,153.1292,-27.3917,69.80,64.40,82.98,210.00,8.00,0.00,29.91,M,6.21,M,FEW,SCT,M,M,2500.00,14000.00,M,M,M,YBBN 242000Z 21008KT 9999 FEW025 SCT140 21/18 Q1013 NOSIG
YBBN,2015-12-24 20:30,153.1292,-27.3917,71.60,64.40,78.04,210.00,8.00,0.00,29.91,M,6.21,M,FEW,BKN,M,M,2500.00,14000.00,M,M,M,YBBN 242030Z 21008KT 9999 FEW025 BKN140 22/18 Q1013
YBBN,2015-12-24 21:00,153.1292,-27.3917,73.40,64.40,73.44,190.00,8.00,0.00,29.91,M,6.21,M,FEW,SCT,M,M,2500.00,14000.00,M,M,M,YBBN 242100Z 19008KT 9999 FEW025 SCT140 23/18 Q1013 NOSIG
YBBN,2015-12-24 21:30,153.1292,-27.3917,73.40,64.40,73.44,170.00,8.00,0.00,29.94,M,6.21,M,FEW,BKN,M,M,2500.00,14000.00,M,M,M,YBBN 242130Z 17008KT 9999 FEW025 BKN140 23/18 Q1014 NOSIG
YBBN,2015-12-24 22:00,153.1292,-27.3917,75.20,64.40,69.14,180.00,9.00,0.00,29.91,M,6.21,M,FEW,BKN,M,M,2500.00,14000.00,M,M,M,YBBN 242200Z 18009KT 9999 FEW025 BKN140 24/18 Q1013
