#DEBUG: Format Typ    -> comma
#DEBUG: Time Period   -> 2014-08-16 00:00:00+00:00 2014-08-17 00:00:00+00:00
#DEBUG: Time Zone     -> Etc/UTC
#DEBUG: Data Contact   -> daryl herzmann akrherz@iastate.edu 515-294-5978
#DEBUG: Entries Found -> -1
station,valid,lon,lat,tmpf, dwpf, relh, drct, sknt, p01i, alti, mslp, vsby, gust, skyc1, skyc2, skyc3, skyc4, skyl1, skyl2, skyl3, skyl4, presentwx, metar
YBBN,2014-08-16 00:00,153.1292,-27.3917,60.80,59.00,93.79,120.00,8.00,0.00,30.12,M,3.11,M,SCT,BKN,M,M,1500.00,4000.00,M,M,-RA,YBBN 160000Z 12008KT 5000 -RA SCT015 BKN040 16/15 Q1020
YBBN,2014-08-16 00:30,153.1292,-27.3917,60.80,59.00,93.79,80.00,6.00,0.00,30.12,M,3.11,M,SCT,BKN,M,M,1500.00,4000.00,M,M,RA,YBBN 160030Z 08006KT 5000 RA SCT015 BKN040 16/15 Q1020
YBBN,2014-08-16 00:50,153.1292,-27.3917,60.80,59.00,93.79,90.00,5.00,0.00,30.09,M,3.11,M,FEW,BKN,BKN,M,500.00,1400.00,4000.00,M,RA,YBBN 160050Z 09005KT 5000 RA FEW005 BKN014 BKN040 16/15 Q1019
YBBN,2014-08-16 01:00,153.1292,-27.3917,60.80,59.00,93.79,90.00,5.00,0.00,30.09,M,3.11,M,FEW,BKN,BKN,M,500.00,1200.00,4000.00,M,RA,YBBN 160100Z 09005KT 5000 RA FEW005 BKN012 BKN040 16/15 Q1019
YBBN,2014-08-16 01:30,153.1292,-27.3917,60.80,60.80,100.00,110.00,4.00,0.00,30.09,M,3.73,M,SCT,BKN,M,M,1200.00,4000.00,M,M,-RA,YBBN 160130Z 11004KT 6000 -RA SCT012 BKN040 16/16 Q1019
YBBN,2014-08-16 02:00,153.1292,-27.3917,62.60,60.80,93.83,110.00,5.00,0.00,30.06,M,4.97,M,SCT,BKN,M,M,1200.00,4000.00,M,M,-RA,YBBN 160200Z 11005KT 8000 -RA SCT012 BKN040 17/16 Q1018
YBBN,2014-08-16 02:30,153.1292,-27.3917,62.60,60.80,93.83,120.00,6.00,0.00,30.03,M,3.73,M,FEW,BKN,M,M,1200.00,4000.00,M,M,-RA,YBBN 160230Z 12006KT 6000 -RA FEW012 BKN040 17/16 Q1017
YBBN,2014-08-16 03:00,153.1292,-27.3917,60.80,60.80,100.00,100.00,4.00,0.00,30.03,M,3.73,M,FEW,BKN,BKN,M,800.00,1400.00,4000.00,M,-RA,YBBN 160300Z 10004KT 6000 -RA FEW008 BKN014 BKN040 16/16 Q1017
YBBN,2014-08-16 03:30,153.1292,-27.3917,62.60,60.80,93.83,90.00,1.00,0.00,30.03,M,3.73,M,FEW,BKN,M,M,800.00,4000.00,M,M,-RA,YBBN 160330Z 09001KT 6000 -RA FEW008 BKN040 17/16 Q1017
YBBN,2014-08-16 04:00,153.1292,-27.3917,62.60,60.80,93.83,40.00,4.00,0.00,30.00,M,3.73,M,FEW,BKN,M,M,1000.00,4000.00,M,M,-RA,YBBN 160400Z 04004KT 6000 -RA FEW010 BKN040 17/16 Q1016
YBBN,2014-08-16 04:30,153.1292,-27.3917,62.60,60.80,93.83,70.00,3.00,0.00,30.00,M,4.97,M,SCT,BKN,M,M,1200.00,4000.00,M,M,-RA,YBBN 160430Z 07003KT 8000 -RA SCT012 BKN040 17/16 Q1016
YBBN,2014-08-16 05:00,153.1292,-27.3917,62.60,60.80,93.83,60.00,7.00,0.00,30.00,M,4.97,M,SCT,BKN,M,M,1200.00,4000.00,M,M,-RA,YBBN 160500Z 06007KT 8000 -RA SCT012 BKN040 17/16 Q1016
YBBN,2014-08-16 05:30,153.1292,-27.3917,62.60,59.00,88.00,50.00,10.00,0.00,29.97,M,4.97,M,FEW,BKN,M,M,1200.00,4000.00,M,M,-RA,YBBN 160530Z 05010KT 8000 -RA FEW012 BKN040 17/15 Q1015
YBBN,2014-08-16 06:00,153.1292,-27.3917,60.80,59.00,93.79,50.00,8.00,0.00,29.97,M,4.97,M,FEW,BKN,M,M,1200.00,4000.00,M,M,-RA,YBBN 160600Z 05008KT 8000 -RA FEW012 BKN040 16/15 Q1015
YBBN,2014-08-16 06:30,153.1292,-27.3917,60.80,59.00,93.79,20.00,7.00,0.00,30.00,M,3.73,M,SCT,BKN,M,M,1200.00,4000.00,M,M,-RA,YBBN 160630Z 02007KT 6000 -RA SCT012 BKN040 16/15 Q1016
YBBN,2014-08-16 07:00,153.1292,-27.3917,60.80,60.80,100.00,40.00,6.00,0.00,30.00,M,3.73,M,SCT,BKN,M,M,1200.00,4000.00,M,M,-RA,YBBN 160700Z 04006KT 6000 -RA SCT012 BKN040 16/16 Q1016
YBBN,2014-08-16 07:30,153.1292,-27.3917,60.80,59.00,93.79,50.00,8.00,0.00,30.00,M,5.59,M,FEW,SCT,BKN,M,500.00,3400.00,6500.00,M,-RA,YBBN 160730Z 05008KT 9000 -RA FEW005 SCT034 BKN065 16/15 Q1016
YBBN,2014-08-16 08:00,153.1292,-27.3917,62.60,59.00,88.00,40.00,11.00,0.00,29.97,M,6.21,M,FEW,SCT,BKN,M,1200.00,3300.00,7000.00,M,-RA,YBBN 160800Z 04011KT 9999 -RA FEW012 SCT033 BKN070 17/15 Q1015
YBBN,2014-08-16 08:30,153.1292,-27.3917,60.80,59.00,93.79,40.00,9.00,0.00,30.00,M,6.21,M,FEW,BKN,M,M,800.00,10000.00,M,M,-RA,YBBN 160830Z 04009KT 9999 -RA FEW008 BKN100 16/15 Q1016
YBBN,2014-08-16 09:00,153.1292,-27.3917,60.80,59.00,93.79,40.00,11.00,0.00,30.00,M,6.21,M,FEW,SCT,BKN,M,1000.00,4000.00,10000.00,M,-RA,YBBN 160900Z 04011KT 9999 -RA FEW010 SCT040 BKN100 16/15 Q1016
YBBN,2014-08-16 09:30,153.1292,-27.3917,60.80,59.00,93.79,30.00,8.00,0.00,30.00,M,6.21,M,FEW,BKN,BKN,M,900.00,3200.00,8000.00,M,-RA,YBBN 160930Z 03008KT 9999 -RA FEW009 BKN032 BKN080 16/15 Q1016
YBBN,2014-08-16 10:00,153.1292,-27.3917,60.80,59.00,93.79,30.00,9.00,0.00,30.00,M,4.97,M,FEW,SCT,BKN,M,1000.00,2000.00,4200.00,M,-RA,YBBN 161000Z 03009KT 8000 -RA FEW010 SCT020 BKN042 16/15 Q1016
YBBN,2014-08-16 10:30,153.1292,-27.3917,60.80,59.00,93.79,50.00,7.00,0.00,30.00,M,6.21,M,FEW,SCT,BKN,M,1000.00,6000.00,9000.00,M,-RA,YBBN 161030Z 05007KT 9999 -RA FEW010 SCT060 BKN090 16/15 Q1016
YBBN,2014-08-16 11:00,153.1292,-27.3917,62.60,60.80,93.83,50.00,7.00,0.00,30.00,M,6.21,M,FEW,BKN,BKN,M,800.00,4000.00,5800.00,M,-RA,YBBN 161100Z 05007KT 9999 -RA FEW008 BKN040 BKN058 17/16 Q1016
YBBN,2014-08-16 11:30,153.1292,-27.3917,62.60,60.80,93.83,50.00,7.00,0.00,29.97,M,4.97,M,FEW,SCT,BKN,M,800.00,1200.00,4000.00,M,-RA,YBBN 161130Z 05007KT 8000 -RA FEW008 SCT012 BKN040 17/16 Q1015
YBBN,2014-08-16 12:00,153.1292,-27.3917,62.60,60.80,93.83,50.00,11.00,0.00,29.94,M,6.21,M,FEW,SCT,BKN,M,800.00,1200.00,2500.00,M,-RA,YBBN 161200Z 05011KT 9999 -RA FEW008 SCT012 BKN025 17/16 Q1014
YBBN,2014-08-16 12:30,153.1292,-27.3917,62.60,60.80,93.83,40.00,12.00,0.00,29.91,M,6.21,M,FEW,SCT,BKN,M,800.00,2500.00,4000.00,M,-RA,YBBN 161230Z 04012KT 9999 -RA FEW008 SCT025 BKN040 17/16 Q1013
YBBN,2014-08-16 13:00,153.1292,-27.3917,64.40,60.80,88.09,20.00,17.00,0.00,29.91,M,6.21,M,FEW,BKN,FEW,M,800.00,3800.00,2000.00,M,-RA,YBBN 161300Z 02017KT 9999 -RA FEW008 BKN038 FEW020CB 18/16 Q1013
YBBN,2014-08-16 13:30,153.1292,-27.3917,64.40,60.80,88.09,20.00,14.00,0.00,29.91,M,1.86,M,FEW,BKN,M,M,1200.00,3800.00,M,M,-RA,YBBN 161330Z 02014KT 3000 -RA FEW012 BKN038 18/16 Q1013
YBBN,2014-08-16 14:00,153.1292,-27.3917,62.60,62.60,100.00,20.00,13.00,0.00,29.88,M,3.11,M,FEW,SCT,BKN,M,900.00,2000.00,3800.00,M,-RA,YBBN 161400Z 02013KT 5000 -RA FEW009 SCT020 BKN038 17/17 Q1012
YBBN,2014-08-16 14:20,153.1292,-27.3917,62.60,62.60,100.00,30.00,12.00,0.00,29.85,M,6.21,M,FEW,BKN,M,M,1000.00,4000.00,M,M,-DZ,YBBN 161420Z 03012KT 9999 -DZ FEW010 BKN040 17/17 Q1011
YBBN,2014-08-16 14:30,153.1292,-27.3917,62.60,62.60,100.00,30.00,12.00,0.00,29.85,M,6.21,M,FEW,BKN,M,M,1000.00,4800.00,M,M,VCSH,YBBN 161430Z 03012KT 9999 VCSH FEW010 BKN048 17/17 Q1011
YBBN,2014-08-16 14:58,153.1292,-27.3917,64.40,62.60,93.88,340.00,10.00,0.00,29.88,M,0.31,M,FEW,SCT,BKN,M,1000.00,2000.00,3000.00,M,TSRA,YBBN 161458Z 34010KT 0500 TSRA FEW010 SCT020CB BKN030 18/17 Q1012
YBBN,2014-08-16 15:00,153.1292,-27.3917,62.60,62.60,100.00,340.00,10.00,0.00,29.85,M,0.93,M,FEW,BKN,FEW,M,1000.00,3000.00,2000.00,M,TSRA,YBBN 161500Z 34010KT 1500 TSRA FEW010 BKN030 FEW020CB 17/17 Q1011
YBBN,2014-08-16 15:11,153.1292,-27.3917,62.60,62.60,100.00,20.00,12.00,0.00,29.85,M,3.11,M,FEW,BKN,FEW,M,1000.00,5000.00,2000.00,M,-SHRA VCTS,YBBN 161511Z 02012KT 5000 -SHRA VCTS FEW010 BKN050 FEW020CB 17/17 Q1011 RETS
YBBN,2014-08-16 15:30,153.1292,-27.3917,62.60,62.60,100.00,360.00,9.00,0.00,29.85,M,2.49,M,FEW,SCT,BKN,M,900.00,1300.00,2800.00,M,-SHRA,YBBN 161530Z 36009KT 4000 -SHRA FEW009 SCT013 BKN028 17/17 Q1011
YBBN,2014-08-16 16:00,153.1292,-27.3917,62.60,62.60,100.00,20.00,6.00,0.00,29.83,M,2.49,M,FEW,SCT,BKN,M,500.00,700.00,2800.00,M,-DZ,YBBN 161600Z 02006KT 4000 -DZ FEW005 SCT007 BKN028 17/17 Q1010
YBBN,2014-08-16 16:14,153.1292,-27.3917,62.60,60.80,93.83,210.00,8.00,0.00,29.83,M,0.93,M,FEW,SCT,BKN,M,400.00,800.00,2000.00,M,+SHRA,YBBN 161614Z 21008KT 1500 +SHRA FEW004 SCT008 BKN020 17/16 Q1010
YBBN,2014-08-16 16:30,153.1292,-27.3917,62.60,60.80,93.83,60.00,5.00,0.00,29.83,M,5.59,M,FEW,SCT,BKN,M,200.00,700.00,2800.00,M,-RA,YBBN 161630Z 06005KT 9000 -RA FEW002 SCT007 BKN028 17/16 Q1010
YBBN,2014-08-16 17:00,153.1292,-27.3917,62.60,60.80,93.83,0.00,0.00,0.00,29.80,M,6.21,M,FEW,SCT,BKN,M,400.00,9000.00,24000.00,M,M,YBBN 161700Z 00000KT 9999 FEW004 SCT090 BKN240 17/16 Q1009
YBBN,2014-08-16 17:30,153.1292,-27.3917,60.80,60.80,100.00,320.00,4.00,0.00,29.80,M,5.59,M,FEW,BKN,BKN,M,300.00,4000.00,24000.00,M,-DZ,YBBN 161730Z 32004KT 9000 -DZ FEW003 BKN040 BKN240 16/16 Q1009
YBBN,2014-08-16 18:00,153.1292,-27.3917,60.80,59.00,93.79,270.00,11.00,0.00,29.80,M,6.21,M,FEW,SCT,BKN,M,400.00,2800.00,4000.00,M,-DZ,YBBN 161800Z 27011KT 9999 -DZ FEW004 SCT028 BKN040 16/15 Q1009
YBBN,2014-08-16 18:30,153.1292,-27.3917,60.80,57.20,87.92,260.00,10.00,0.00,29.80,M,6.21,M,FEW,BKN,M,M,900.00,4500.00,M,M,VCSH,YBBN 161830Z 26010KT 9999 VCSH FEW009 BKN045 16/14 Q1009
YBBN,2014-08-16 19:00,153.1292,-27.3917,60.80,55.40,82.37,250.00,10.00,0.00,29.80,M,6.21,M,FEW,BKN,M,M,1200.00,5200.00,M,M,M,YBBN 161900Z 25010KT 9999 FEW012 BKN052 16/13 Q1009
YBBN,2014-08-16 19:30,153.1292,-27.3917,59.00,53.60,82.25,330.00,7.00,0.00,29.83,M,6.21,M,FEW,BKN,M,M,1500.00,5200.00,M,M,M,YBBN 161930Z 33007KT 9999 FEW015 BKN052 15/12 Q1010
YBBN,2014-08-16 20:00,153.1292,-27.3917,59.00,53.60,82.25,310.00,6.00,0.00,29.83,M,6.21,M,SCT,OVC,M,M,4800.00,10000.00,M,M,M,YBBN 162000Z 31006KT 9999 SCT048 OVC100 15/12 Q1010 NOSIG
YBBN,2014-08-16 20:30,153.1292,-27.3917,59.00,51.80,76.98,280.00,7.00,0.00,29.83,M,6.21,M,SCT,OVC,M,M,4800.00,10000.00,M,M,M,YBBN 162030Z 28007KT 9999 SCT048 OVC100 15/11 Q1010
YBBN,2014-08-16 21:00,153.1292,-27.3917,59.00,51.80,76.98,300.00,4.00,0.00,29.83,M,6.21,M,M,M,M,M,M,M,M,M,M,YBBN 162100Z 30004KT CAVOK 15/11 Q1010 RMK 7AS100
YBBN,2014-08-16 21:30,153.1292,-27.3917,60.80,51.80,72.20,270.00,4.00,0.00,29.83,M,6.21,M,M,M,M,M,M,M,M,M,M,YBBN 162130Z 27004KT CAVOK 16/11 Q1010 RMK 5SC055 7AS100
YBBN,2014-08-16 22:00,153.1292,-27.3917,60.80,50.00,67.54,260.00,5.00,0.00,29.83,M,6.21,M,M,M,M,M,M,M,M,M,M,YBBN 162200Z 26005KT CAVOK 16/10 Q1010 NOSIG
YBBN,2014-08-16 22:30,153.1292,-27.3917,60.80,50.00,67.54,260.00,6.00,0.00,29.83,M,6.21,M,FEW,BKN,M,M,2400.00,6500.00,M,M,M,YBBN 162230Z 26006KT 9999 FEW024 BKN065 16/10 Q1010
YBBN,2014-08-16 23:00,153.1292,-27.3917,62.60,51.80,67.75,250.00,8.00,0.00,29.83,M,6.21,M,FEW,BKN,M,M,2400.00,7000.00,M,M,M,YBBN 162300Z 25008KT 9999 FEW024 BKN070 17/11 Q1010 NOSIG
YBBN,2014-08-16 23:30,153.1292,-27.3917,64.40,50.00,59.50,270.00,8.00,0.00,29.83,M,6.21,M,FEW,BKN,M,M,2400.00,7000.00,M,M,M,YBBN 162330Z 27008KT 9999 FEW024 BKN070 18/10 Q1010
