#DEBUG: Format Typ    -> comma
#DEBUG: Time Period   -> 2014-07-08 00:00:00+00:00 2014-07-09 00:00:00+00:00
#DEBUG: Time Zone     -> Etc/UTC
#DEBUG: Data Contact   -> daryl herzmann akrherz@iastate.edu 515-294-5978
#DEBUG: Entries Found -> -1
station,valid,lon,lat,tmpf, dwpf, relh, drct, sknt, p01i, alti, mslp, vsby, gust, skyc1, skyc2, skyc3, skyc4, skyl1, skyl2, skyl3, skyl4, presentwx, metar
YBBN,2014-07-08 00:00,153.1292,-27.3917,60.80,35.60,38.85,210.00,6.00,0.00,30.06,M,6.21,M,M,M,M,M,M,M,M,M,M,YBBN 080000Z 21006KT CAVOK 16/02 Q1018 NOSIG
YBBN,2014-07-08 00:30,153.1292,-27.3917,62.60,35.60,36.45,210.00,5.00,0.00,30.03,M,6.21,M,M,M,M,M,M,M,M,M,M,YBBN 080030Z 21005KT CAVOK 17/02 Q1017
YBBN,2014-07-08 01:00,153.1292,-27.3917,64.40,35.60,34.22,250.00,3.00,0.00,30.03,M,6.21,M,M,M,M,M,M,M,M,M,M,YBBN 080100Z 25003KT CAVOK 18/02 Q1017
YBBN,2014-07-08 01:30,153.1292,-27.3917,66.20,35.60,32.14,310.00,4.00,0.00,30.00,M,6.21,M,M,M,M,M,M,M,M,M,M,YBBN 080130Z 31004KT CAVOK 19/02 Q1016
YBBN,2014-07-08 02:00,153.1292,-27.3917,64.40,35.60,34.22,30.00,8.00,0.00,29.97,M,6.21,M,M,M,M,M,M,M,M,M,M,YBBN 080200Z 03008KT CAVOK 18/02 Q1015 NOSIG
YBBN,2014-07-08 02:30,153.1292,-27.3917,66.20,37.40,34.51,30.00,7.00,0.00,29.97,M,6.21,M,M,M,M,M,M,M,M,M,M,YBBN 080230Z 03007KT CAVOK 19/03 Q1015
YBBN,2014-07-08 03:00,153.1292,-27.3917,66.20,37.40,34.51,30.00,8.00,0.00,29.94,M,6.21,M,M,M,M,M,M,M,M,M,M,YBBN 080300Z 03008KT CAVOK 19/03 Q1014
YBBN,2014-07-08 03:30,153.1292,-27.3917,66.20,35.60,32.14,40.00,7.00,0.00,29.94,M,6.21,M,M,M,M,M,M,M,M,M,M,YBBN 080330Z 04007KT CAVOK 19/02 Q1014
YBBN,2014-07-08 04:00,153.1292,-27.3917,66.20,35.60,32.14,60.00,8.00,0.00,29.94,M,6.21,M,M,M,M,M,M,M,M,M,M,YBBN 080400Z 06008KT CAVOK 19/02 Q1014 NOSIG
YBBN,2014-07-08 04:30,153.1292,-27.3917,66.20,33.80,29.92,40.00,7.00,0.00,29.91,M,6.21,M,M,M,M,M,M,M,M,M,M,YBBN 080430Z 04007KT CAVOK 19/01 Q1013
YBBN,2014-07-08 05:00,153.1292,-27.3917,64.40,37.40,36.74,50.00,8.00,0.00,29.91,M,6.21,M,M,M,M,M,M,M,M,M,M,YBBN 080500Z 05008KT CAVOK 18/03 Q1013 NOSIG
YBBN,2014-07-08 05:30,153.1292,-27.3917,64.40,41.00,42.28,40.00,9.00,0.00,29.91,M,6.21,M,M,M,M,M,M,M,M,M,M,YBBN 080530Z 04009KT CAVOK 18/05 Q1013
YBBN,2014-07-08 06:00,153.1292,-27.3917,62.60,41.00,45.04,20.00,9.00,0.00,29.91,M,6.21,M,M,M,M,M,M,M,M,M,M,YBBN 080600Z 02009KT CAVOK 17/05 Q1013 NOSIG
YBBN,2014-07-08 06:30,153.1292,-27.3917,62.60,42.80,48.28,10.00,8.00,0.00,29.91,M,6.21,M,M,M,M,M,M,M,M,M,M,YBBN 080630Z 01008KT CAVOK 17/06 Q1013
YBBN,2014-07-08 07:00,153.1292,-27.3917,57.20,42.80,58.52,10.00,7.00,0.00,29.94,M,6.21,M,M,M,M,M,M,M,M,M,M,YBBN 080700Z 01007KT CAVOK 14/06 Q1014 NOSIG
YBBN,2014-07-08 07:30,153.1292,-27.3917,55.40,44.60,66.91,10.00,7.00,0.00,29.94,M,6.21,M,M,M,M,M,M,M,M,M,M,YBBN 080730Z 01007KT CAVOK 13/07 Q1014
YBBN,2014-07-08 08:00,153.1292,-27.3917,55.40,46.40,71.64,10.00,6.00,0.00,29.94,M,6.21,M,M,M,M,M,M,M,M,M,M,YBBN 080800Z 01006KT CAVOK 13/08 Q1014
YBBN,2014-07-08 08:30,153.1292,-27.3917,55.40,46.40,71.64,10.00,5.00,0.00,29.94,M,6.21,M,M,M,M,M,M,M,M,M,M,YBBN 080830Z 01005KT CAVOK 13/08 Q1014
YBBN,2014-07-08 09:00,153.1292,-27.3917,55.40,48.20,76.66,330.00,4.00,0.00,29.97,M,6.21,M,M,M,M,M,M,M,M,M,M,YBBN 080900Z 33004KT CAVOK 13/09 Q1015 NOSIG
YBBN,2014-07-08 09:30,153.1292,-27.3917,53.60,46.40,76.50,290.00,5.00,0.00,29.97,M,6.21,M,M,M,M,M,M,M,M,M,M,YBBN 080930Z 29005KT CAVOK 12/08 Q1015
YBBN,2014-07-08 10:00,153.1292,-27.3917,53.60,46.40,76.50,280.00,3.00,0.00,29.97,M,6.21,M,NCD,M,M,M,M,M,M,M,//,YBBN 081000Z AUTO 28003KT 9999 // NCD 12/08 Q1015
YBBN,2014-07-08 15:00,153.1292,-27.3917,44.60,41.00,87.09,290.00,4.00,0.00,29.94,M,6.21,M,M,M,M,M,M,M,M,M,M,YBBN 081500Z 29004KT CAVOK 07/05 Q1014 NOSIG
YBBN,2014-07-08 15:30,153.1292,-27.3917,44.60,39.20,81.20,250.00,4.00,0.00,29.94,M,6.21,M,M,M,M,M,M,M,M,M,M,YBBN 081530Z 25004KT CAVOK 07/04 Q1014
YBBN,2014-07-08 16:00,153.1292,-27.3917,44.60,39.20,81.20,270.00,5.00,0.00,29.94,M,6.21,M,M,M,M,M,M,M,M,M,M,YBBN 081600Z 27005KT CAVOK 07/04 Q1014
YBBN,2014-07-08 16:30,153.1292,-27.3917,42.80,39.20,86.99,240.00,4.00,0.00,29.94,M,6.21,M,M,M,M,M,M,M,M,M,M,YBBN 081630Z 24004KT CAVOK 06/04 Q1014
YBBN,2014-07-08 17:00,153.1292,-27.3917,42.80,37.40,81.07,290.00,2.00,0.00,29.91,M,6.21,M,M,M,M,M,M,M,M,M,M,YBBN 081700Z 29002KT CAVOK 06/03 Q1013
YBBN,2014-07-08 17:30,153.1292,-27.3917,41.00,37.40,86.89,0.00,0.00,0.00,29.91,M,6.21,M,M,M,M,M,M,M,M,M,M,YBBN 081730Z 00000KT CAVOK 05/03 Q1013
YBBN,2014-07-08 18:00,153.1292,-27.3917,39.20,37.40,93.19,230.00,2.00,0.00,29.91,M,6.21,M,M,M,M,M,M,M,M,M,M,YBBN 081800Z 23002KT CAVOK 04/03 Q1013
YBBN,2014-07-08 18:30,153.1292,-27.3917,41.00,39.20,93.24,250.00,3.00,0.00,29.91,M,6.21,M,M,M,M,M,M,M,M,M,M,YBBN 081830Z 25003KT CAVOK 05/04 Q1013
YBBN,2014-07-08 19:00,153.1292,-27.3917,41.00,39.20,93.24,210.00,6.00,0.00,29.91,M,6.21,M,M,M,M,M,M,M,M,M,M,YBBN 081900Z 21006KT CAVOK 05/04 Q1013
YBBN,2014-07-08 19:30,153.1292,-27.3917,41.00,37.40,86.89,200.00,6.00,0.00,29.91,M,6.21,M,M,M,M,M,M,M,M,M,M,YBBN 081930Z 20006KT CAVOK 05/03 Q1013
YBBN,2014-07-08 20:00,153.1292,-27.3917,42.80,37.40,81.07,200.00,7.00,0.00,29.94,M,6.21,M,M,M,M,M,M,M,M,M,M,YBBN 082000Z 20007KT CAVOK 06/03 Q1014 NOSIG
YBBN,2014-07-08 20:30,153.1292,-27.3917,41.00,35.60,80.93,200.00,5.00,0.00,29.94,M,6.21,M,M,M,M,M,M,M,M,M,M,YBBN 082030Z 20005KT CAVOK 05/02 Q1014
YBBN,2014-07-08 21:00,153.1292,-27.3917,39.20,35.60,86.79,200.00,6.00,0.00,29.94,M,6.21,M,M,M,M,M,M,M,M,M,M,YBBN 082100Z 20006KT CAVOK 04/02 Q1014 NOSIG
YBBN,2014-07-08 21:30,153.1292,-27.3917,41.00,39.20,93.24,200.00,6.00,0.00,29.94,M,6.21,M,M,M,M,M,M,M,M,M,M,YBBN 082130Z 20006KT CAVOK 05/04 Q1014
YBBN,2014-07-08 22:00,153.1292,-27.3917,46.40,41.00,81.34,200.00,6.00,0.00,29.94,M,6.21,M,M,M,M,M,M,M,M,M,M,YBBN 082200Z 20006KT CAVOK 08/05 Q1014
YBBN,2014-07-08 22:30,153.1292,-27.3917,48.20,41.00,76.01,200.00,5.00,0.00,29.97,M,6.21,M,M,M,M,M,M,M,M,M,M,YBBN 082230Z 20005KT CAVOK 09/05 Q1015
YBBN,2014-07-08 23:00,153.1292,-27.3917,53.60,42.80,66.70,230.00,1.00,0.00,29.97,M,6.21,M,M,M,M,M,M,M,M,M,M,YBBN 082300Z 23001KT CAVOK 12/06 Q1015 NOSIG
YBBN,2014-07-08 23:30,153.1292,-27.3917,57.20,39.20,50.91,310.00,4.00,0.00,29.94,M,6.21,M,M,M,M,M,M,M,M,M,M,YBBN 082330Z 31004KT CAVOK 14/04 Q1014
