#DEBUG: Format Typ    -> comma
#DEBUG: Time Period   -> 2012-06-20 00:00:00+00:00 2012-06-21 00:00:00+00:00
#DEBUG: Time Zone     -> Etc/UTC
#DEBUG: Data Contact   -> daryl herzmann akrherz@iastate.edu 515-294-5978
#DEBUG: Entries Found -> -1
station,valid,lon,lat,tmpf, dwpf, relh, drct, sknt, p01i, alti, mslp, vsby, gust, skyc1, skyc2, skyc3, skyc4, skyl1, skyl2, skyl3, skyl4, presentwx, metar
YBBN,2012-06-20 00:00,153.1292,-27.3917,62.60,44.60,51.72,210.00,11.00,0.00,30.21,M,6.21,M,FEW,M,M,M,3000.00,M,M,M,M,YBBN 200000Z 21011KT 9999 FEW030 17/07 Q1023 NOSIG
YBBN,2012-06-20 00:30,153.1292,-27.3917,64.40,46.40,51.98,210.00,9.00,0.00,30.18,M,6.21,M,FEW,M,M,M,3000.00,M,M,M,M,YBBN 200030Z 21009KT 9999 FEW030 18/08 Q1022
YBBN,2012-06-20 01:00,153.1292,-27.3917,64.40,46.40,51.98,200.00,10.00,0.00,30.18,M,6.21,M,FEW,M,M,M,3000.00,M,M,M,M,YBBN 200100Z 20010KT 9999 FEW030 18/08 Q1022
YBBN,2012-06-20 01:30,153.1292,-27.3917,66.20,46.40,48.83,190.00,7.00,0.00,30.18,M,6.21,M,FEW,M,M,M,3000.00,M,M,M,M,YBBN 200130Z 19007KT 9999 FEW030 19/08 Q1022
YBBN,2012-06-20 02:00,153.1292,-27.3917,68.00,50.00,52.51,180.00,7.00,0.00,30.15,M,6.21,M,FEW,M,M,M,3000.00,M,M,M,M,YBBN 200200Z 18007KT 9999 FEW030 20/10 Q1021 NOSIG
YBBN,2012-06-20 02:30,153.1292,-27.3917,68.00,50.00,52.51,170.00,5.00,0.00,30.15,M,6.21,M,FEW,M,M,M,3000.00,M,M,M,M,YBBN 200230Z 17005KT 9999 FEW030 20/10 Q1021
YBBN,2012-06-20 03:00,153.1292,-27.3917,69.80,51.80,52.77,120.00,6.00,0.00,30.12,M,6.21,M,FEW,M,M,M,3500.00,M,M,M,M,YBBN 200300Z 12006KT 9999 FEW035 21/11 Q1020 NOSIG
YBBN,2012-06-20 03:30,153.1292,-27.3917,68.00,51.80,56.13,130.00,5.00,0.00,30.12,M,6.21,M,FEW,M,M,M,3500.00,M,M,M,M,YBBN 200330Z 13005KT 9999 FEW035 20/11 Q1020
YBBN,2012-06-20 04:00,153.1292,-27.3917,68.00,51.80,56.13,110.00,5.00,0.00,30.12,M,6.21,M,FEW,M,M,M,3800.00,M,M,M,M,YBBN 200400Z 11005KT 9999 FEW038 20/11 Q1020
YBBN,2012-06-20 04:30,153.1292,-27.3917,68.00,51.80,56.13,70.00,6.00,0.00,30.12,M,6.21,M,FEW,M,M,M,3800.00,M,M,M,M,YBBN 200430Z 07006KT 9999 FEW038 20/11 Q1020
YBBN,2012-06-20 05:00,153.1292,-27.3917,68.00,51.80,56.13,80.00,6.00,0.00,30.12,M,6.21,M,FEW,M,M,M,3800.00,M,M,M,M,YBBN 200500Z 08006KT 9999 FEW038 20/11 Q1020
YBBN,2012-06-20 05:30,153.1292,-27.3917,68.00,51.80,56.13,60.00,5.00,0.00,30.12,M,6.21,M,FEW,M,M,M,3800.00,M,M,M,M,YBBN 200530Z 06005KT 9999 FEW038 20/11 Q1020
YBBN,2012-06-20 06:00,153.1292,-27.3917,68.00,53.60,59.97,30.00,6.00,0.00,30.12,M,6.21,M,FEW,M,M,M,3800.00,M,M,M,M,YBBN 200600Z 03006KT 9999 FEW038 20/12 Q1020
YBBN,2012-06-20 06:30,153.1292,-27.3917,64.40,53.60,67.95,10.00,5.00,0.00,30.12,M,6.21,M,FEW,M,M,M,3500.00,M,M,M,M,YBBN 200630Z 01005KT 9999 FEW035 18/12 Q1020
YBBN,2012-06-20 07:00,153.1292,-27.3917,60.80,55.40,82.37,10.00,5.00,0.00,30.12,M,6.21,M,FEW,M,M,M,3500.00,M,M,M,M,YBBN 200700Z 01005KT 9999 FEW035 16/13 Q1020
YBBN,2012-06-20 07:30,153.1292,-27.3917,59.00,55.40,87.83,360.00,4.00,0.00,30.12,M,6.21,M,FEW,M,M,M,3500.00,M,M,M,M,YBBN 200730Z 36004KT 9999 FEW035 15/13 Q1020
YBBN,2012-06-20 08:00,153.1292,-27.3917,59.00,55.40,87.83,360.00,4.00,0.00,30.12,M,6.21,M,M,M,M,M,M,M,M,M,M,YBBN 200800Z 36004KT CAVOK 15/13 Q1020 NOSIG
YBBN,2012-06-20 08:30,153.1292,-27.3917,59.00,55.40,87.83,0.00,0.00,0.00,30.12,M,6.21,M,M,M,M,M,M,M,M,M,M,YBBN 200830Z 00000KT CAVOK 15/13 Q1020
YBBN,2012-06-20 09:00,153.1292,-27.3917,57.20,55.40,93.69,0.00,0.00,0.00,30.15,M,6.21,M,M,M,M,M,M,M,M,M,M,YBBN 200900Z 00000KT CAVOK 14/13 Q1021
YBBN,2012-06-20 09:30,153.1292,-27.3917,57.20,55.40,93.69,0.00,0.00,0.00,30.15,M,6.21,M,M,M,M,M,M,M,M,M,M,YBBN 200930Z 00000KT CAVOK 14/13 Q1021
YBBN,2012-06-20 10:00,153.1292,-27.3917,55.40,53.60,93.65,0.00,0.00,0.00,30.15,M,6.21,M,CLR,M,M,M,M,M,M,M,MIFG,YBBN 201000Z 00000KT 9999 MIFG SKC 13/12 Q1021
YBBN,2012-06-20 10:30,153.1292,-27.3917,53.60,51.80,93.60,0.00,0.00,0.00,30.15,M,6.21,M,CLR,M,M,M,M,M,M,M,MIFG,YBBN 201030Z 00000KT 9999 MIFG SKC 12/11 Q1021
YBBN,2012-06-20 11:00,153.1292,-27.3917,55.40,53.60,93.65,250.00,1.00,0.00,30.15,M,6.21,M,CLR,M,M,M,M,M,M,M,MIFG,YBBN 201100Z 25001KT 9999 MIFG SKC 13/12 Q1021
YBBN,2012-06-20 11:30,153.1292,-27.3917,55.40,53.60,93.65,0.00,0.00,0.00,30.15,M,6.21,M,CLR,M,M,M,M,M,M,M,MIFG,YBBN 201130Z 00000KT 9999 MIFG SKC 13/12 Q1021
YBBN,2012-06-20 12:00,153.1292,-27.3917,53.60,51.80,93.60,0.00,0.00,0.00,30.15,M,6.21,M,CLR,M,M,M,M,M,M,M,MIFG,YBBN 201200Z 00000KT 9999 MIFG SKC 12/11 Q1021
YBBN,2012-06-20 12:30,153.1292,-27.3917,53.60,51.80,93.60,0.00,0.00,0.00,30.15,M,6.21,M,CLR,M,M,M,M,M,M,M,MIFG,YBBN 201230Z 00000KT 9999 MIFG SKC 12/11 Q1021
YBBN,2012-06-20 13:00,153.1292,-27.3917,53.60,51.80,93.60,280.00,2.00,0.00,30.15,M,6.21,M,CLR,M,M,M,M,M,M,M,MIFG,YBBN 201300Z 28002KT 9999 MIFG SKC 12/11 Q1021
YBBN,2012-06-20 13:30,153.1292,-27.3917,51.80,51.80,100.00,260.00,4.00,0.00,30.15,M,6.21,M,CLR,M,M,M,M,M,M,M,MIFG,YBBN 201330Z 26004KT 9999 MIFG SKC 11/11 Q1021
YBBN,2012-06-20 14:00,153.1292,-27.3917,51.80,50.00,93.55,240.00,5.00,0.00,30.15,M,6.21,M,CLR,M,M,M,M,M,M,M,MIFG,YBBN 201400Z 24005KT 9999 MIFG SKC 11/10 Q1021
YBBN,2012-06-20 14:30,153.1292,-27.3917,51.80,50.00,93.55,240.00,5.00,0.00,30.15,M,6.21,M,CLR,M,M,M,M,M,M,M,MIFG,YBBN 201430Z 24005KT 9999 MIFG SKC 11/10 Q1021
YBBN,2012-06-20 15:00,153.1292,-27.3917,51.80,50.00,93.55,230.00,4.00,0.00,30.15,M,6.21,M,CLR,M,M,M,M,M,M,M,MIFG,YBBN 201500Z 23004KT 9999 MIFG SKC 11/10 Q1021
YBBN,2012-06-20 15:30,153.1292,-27.3917,50.00,50.00,100.00,210.00,4.00,0.00,30.12,M,6.21,M,CLR,M,M,M,M,M,M,M,MIFG,YBBN 201530Z 21004KT 9999 MIFG SKC 10/10 Q1020
YBBN,2012-06-20 16:00,153.1292,-27.3917,50.00,48.20,93.50,220.00,5.00,0.00,30.12,M,6.21,M,CLR,M,M,M,M,M,M,M,MIFG,YBBN 201600Z 22005KT 9999 MIFG SKC 10/09 Q1020
YBBN,2012-06-20 16:30,153.1292,-27.3917,50.00,48.20,93.50,220.00,6.00,0.00,30.12,M,6.21,M,CLR,M,M,M,M,M,M,M,MIFG,YBBN 201630Z 22006KT 9999 MIFG SKC 10/09 Q1020
YBBN,2012-06-20 17:00,153.1292,-27.3917,50.00,48.20,93.50,210.00,6.00,0.00,30.12,M,6.21,M,CLR,M,M,M,M,M,M,M,BCFG MIFG,YBBN 201700Z 21006KT 9999 BCFG MIFG SKC 10/09 Q1020
YBBN,2012-06-20 17:30,153.1292,-27.3917,50.00,48.20,93.50,210.00,5.00,0.00,30.12,M,6.21,M,CLR,M,M,M,M,M,M,M,BCFG MIFG,YBBN 201730Z 21005KT 9999 BCFG MIFG SKC 10/09 Q1020
YBBN,2012-06-20 18:00,153.1292,-27.3917,50.00,50.00,100.00,210.00,6.00,0.00,30.12,M,6.21,M,CLR,M,M,M,M,M,M,M,MIFG,YBBN 201800Z 21006KT 9999 MIFG SKC 10/10 Q1020
YBBN,2012-06-20 18:30,153.1292,-27.3917,48.20,48.20,100.00,210.00,6.00,0.00,30.12,M,6.21,M,CLR,M,M,M,M,M,M,M,MIFG,YBBN 201830Z 21006KT 9999 MIFG SKC 09/09 Q1020
YBBN,2012-06-20 19:00,153.1292,-27.3917,46.40,46.40,100.00,230.00,5.00,0.00,30.12,M,6.21,M,M,M,M,M,M,M,M,M,M,YBBN 201900Z 23005KT CAVOK 08/08 Q1020 FM2030 22006KT 1000 FG
YBBN,2012-06-20 19:30,153.1292,-27.3917,46.40,46.40,100.00,240.00,1.00,0.00,30.12,M,6.21,M,CLR,M,M,M,M,M,M,M,MIFG,YBBN 201930Z 24001KT 9999 MIFG SKC 08/08 Q1020
YBBN,2012-06-20 20:00,153.1292,-27.3917,48.20,46.40,93.45,0.00,0.00,0.00,30.12,M,6.21,M,CLR,M,M,M,M,M,M,M,MIFG,YBBN 202000Z 00000KT 9999 MIFG SKC 09/08 Q1020
YBBN,2012-06-20 20:16,153.1292,-27.3917,46.40,46.40,100.00,0.00,0.00,0.00,30.15,M,6.21,M,FEW,M,M,M,300.00,M,M,M,BCFG MIFG,YBBN 202016Z 00000KT 9999 BCFG MIFG FEW003 08/08 Q1021
YBBN,2012-06-20 20:30,153.1292,-27.3917,48.20,46.40,93.45,0.00,0.00,0.00,30.15,M,6.21,M,FEW,M,M,M,300.00,M,M,M,BCFG MIFG,YBBN 202030Z 00000KT 9999 BCFG MIFG FEW003 09/08 Q1021
YBBN,2012-06-20 21:00,153.1292,-27.3917,46.40,44.60,93.40,200.00,3.00,0.00,30.15,M,6.21,M,FEW,M,M,M,300.00,M,M,M,MIFG,YBBN 202100Z 20003KT 9999 MIFG FEW003 08/07 Q1021
YBBN,2012-06-20 21:30,153.1292,-27.3917,48.20,48.20,100.00,200.00,3.00,0.00,30.15,M,6.21,M,FEW,M,M,M,300.00,M,M,M,M,YBBN 202130Z 20003KT 9999 FEW003 09/09 Q1021
YBBN,2012-06-20 22:00,153.1292,-27.3917,50.00,48.20,93.50,190.00,4.00,0.00,30.15,M,6.21,M,FEW,M,M,M,400.00,M,M,M,M,YBBN 202200Z 19004KT 9999 FEW004 10/09 Q1021 RMK FU
YBBN,2012-06-20 22:30,153.1292,-27.3917,53.60,50.00,87.56,200.00,4.00,0.00,30.15,M,6.21,M,FEW,M,M,M,600.00,M,M,M,M,YBBN 202230Z 20004KT 9999 FEW006 12/10 Q1021 RMK FU
YBBN,2012-06-20 23:00,153.1292,-27.3917,55.40,51.80,87.65,190.00,1.00,0.00,30.15,M,6.21,M,FEW,M,M,M,600.00,M,M,M,M,YBBN 202300Z 19001KT 9999 FEW006 13/11 Q1021
YBBN,2012-06-20 23:30,153.1292,-27.3917,57.20,51.80,82.12,320.00,3.00,0.00,30.15,M,6.21,M,M,M,M,M,M,M,M,M,M,YBBN 202330Z 32003KT CAVOK 14/11 Q1021 RMK FU/HZ
