#DEBUG: Format Typ    -> comma
#DEBUG: Time Period   -> 2011-11-04 00:00:00+00:00 2011-11-05 00:00:00+00:00
#DEBUG: Time Zone     -> Etc/UTC
#DEBUG: Data Contact   -> daryl herzmann akrherz@iastate.edu 515-294-5978
#DEBUG: Entries Found -> -1
station,valid,lon,lat,tmpf, dwpf, relh, drct, sknt, p01i, alti, mslp, vsby, gust, skyc1, skyc2, skyc3, skyc4, skyl1, skyl2, skyl3, skyl4, presentwx, metar
YBBN,2011-11-04 00:00,153.1292,-27.3917,77.00,59.00,53.80,140.00,8.00,M,30.00,M,6.21,M,SCT,SCT,M,M,3200.00,6000.00,M,M,M,YBBN 040000Z 14008KT 9999 SCT032 SCT060 25/15 Q1016 NOSIG
YBBN,2011-11-04 00:30,153.1292,-27.3917,77.00,59.00,53.80,130.00,9.00,M,30.00,M,6.21,M,SCT,BKN,M,M,3200.00,6000.00,M,M,M,YBBN 040030Z 13009KT 9999 SCT032 BKN060 25/15 Q1016
YBBN,2011-11-04 01:00,153.1292,-27.3917,75.20,59.00,57.12,130.00,9.00,M,30.00,M,6.21,M,SCT,BKN,M,M,3500.00,6000.00,M,M,M,YBBN 040100Z 13009KT 9999 SCT035 BKN060 24/15 Q1016 NOSIG
YBBN,2011-11-04 01:30,153.1292,-27.3917,77.00,60.80,57.36,120.00,10.00,M,30.00,M,6.21,M,FEW,SCT,M,M,3800.00,7000.00,M,M,M,YBBN 040130Z 12010KT 9999 FEW038 SCT070 25/16 Q1016
YBBN,2011-11-04 02:00,153.1292,-27.3917,77.00,60.80,57.36,120.00,11.00,M,30.00,M,6.21,M,FEW,SCT,M,M,3800.00,7000.00,M,M,M,YBBN 040200Z 12011KT 9999 FEW038 SCT070 25/16 Q1016 NOSIG
YBBN,2011-11-04 02:30,153.1292,-27.3917,77.00,59.00,53.80,110.00,9.00,M,29.97,M,6.21,M,FEW,BKN,M,M,3800.00,7000.00,M,M,M,YBBN 040230Z 11009KT 9999 FEW038 BKN070 25/15 Q1015
YBBN,2011-11-04 03:00,153.1292,-27.3917,77.00,59.00,53.80,100.00,9.00,M,29.97,M,6.21,M,FEW,M,M,M,4000.00,M,M,M,M,YBBN 040300Z 10009KT 9999 FEW040 25/15 Q1015 NOSIG
YBBN,2011-11-04 03:30,153.1292,-27.3917,78.80,60.80,54.05,100.00,11.00,M,29.94,M,6.21,M,FEW,M,M,M,4000.00,M,M,M,M,YBBN 040330Z 10011KT 9999 FEW040 26/16 Q1014
YBBN,2011-11-04 04:00,153.1292,-27.3917,77.00,59.00,53.80,90.00,10.00,M,29.97,M,6.21,M,FEW,M,M,M,4000.00,M,M,M,M,YBBN 040400Z 09010KT 9999 FEW040 25/15 Q1015 NOSIG
YBBN,2011-11-04 04:30,153.1292,-27.3917,77.00,59.00,53.80,100.00,10.00,M,29.94,M,6.21,M,FEW,M,M,M,3300.00,M,M,M,M,YBBN 040430Z 10010KT 9999 FEW033 25/15 Q1014
YBBN,2011-11-04 05:00,153.1292,-27.3917,75.20,59.00,57.12,100.00,9.00,M,29.94,M,6.21,M,FEW,M,M,M,3300.00,M,M,M,M,YBBN 040500Z 10009KT 9999 FEW033 24/15 Q1014 NOSIG
YBBN,2011-11-04 05:30,153.1292,-27.3917,75.20,60.80,60.90,100.00,11.00,M,29.97,M,6.21,M,FEW,M,M,M,3300.00,M,M,M,M,YBBN 040530Z 10011KT 9999 FEW033 24/16 Q1015
YBBN,2011-11-04 06:00,153.1292,-27.3917,75.20,60.80,60.90,110.00,10.00,M,29.97,M,6.21,M,FEW,M,M,M,3000.00,M,M,M,M,YBBN 040600Z 11010KT 9999 FEW030 24/16 Q1015 NOSIG
YBBN,2011-11-04 06:30,153.1292,-27.3917,73.40,59.00,60.67,110.00,10.00,M,29.97,M,6.21,M,FEW,M,M,M,3000.00,M,M,M,M,YBBN 040630Z 11010KT 9999 FEW030 23/15 Q1015
YBBN,2011-11-04 07:00,153.1292,-27.3917,73.40,59.00,60.67,110.00,10.00,M,30.00,M,6.21,M,FEW,M,M,M,3000.00,M,M,M,M,YBBN 040700Z 11010KT 9999 FEW030 23/15 Q1016 NOSIG
YBBN,2011-11-04 07:30,153.1292,-27.3917,73.40,59.00,60.67,110.00,10.00,M,30.00,M,6.21,M,FEW,SCT,M,M,3000.00,7000.00,M,M,M,YBBN 040730Z 11010KT 9999 FEW030 SCT070 23/15 Q1016
YBBN,2011-11-04 08:00,153.1292,-27.3917,71.60,57.20,60.44,120.00,8.00,M,30.03,M,6.21,M,FEW,SCT,M,M,3000.00,6000.00,M,M,M,YBBN 040800Z 12008KT 9999 FEW030 SCT060 22/14 Q1017 NOSIG
YBBN,2011-11-04 08:30,153.1292,-27.3917,71.60,57.20,60.44,110.00,9.00,M,30.03,M,6.21,M,FEW,BKN,M,M,3000.00,9300.00,M,M,M,YBBN 040830Z 11009KT 9999 FEW030 BKN093 22/14 Q1017
YBBN,2011-11-04 09:00,153.1292,-27.3917,71.60,57.20,60.44,120.00,9.00,M,30.03,M,6.21,M,FEW,SCT,M,M,3000.00,9900.00,M,M,M,YBBN 040900Z 12009KT 9999 FEW030 SCT099 22/14 Q1017 NOSIG
YBBN,2011-11-04 09:30,153.1292,-27.3917,71.60,59.00,64.48,120.00,10.00,M,30.06,M,6.21,M,FEW,M,M,M,3000.00,M,M,M,M,YBBN 040930Z 12010KT 9999 FEW030 22/15 Q1018
YBBN,2011-11-04 10:00,153.1292,-27.3917,71.60,60.80,68.75,100.00,9.00,M,30.06,M,6.21,M,SCT,M,M,M,2900.00,M,M,M,M,YBBN 041000Z 10009KT 9999 SCT029 22/16 Q1018 NOSIG
YBBN,2011-11-04 10:30,153.1292,-27.3917,71.60,59.00,64.48,110.00,8.00,M,30.06,M,6.21,M,BKN,M,M,M,2900.00,M,M,M,M,YBBN 041030Z 11008KT 9999 BKN029 22/15 Q1018
YBBN,2011-11-04 11:00,153.1292,-27.3917,71.60,59.00,64.48,110.00,7.00,M,30.09,M,6.21,M,BKN,M,M,M,2900.00,M,M,M,M,YBBN 041100Z 11007KT 9999 BKN029 22/15 Q1019 NOSIG
YBBN,2011-11-04 11:30,153.1292,-27.3917,71.60,59.00,64.48,110.00,7.00,M,30.09,M,6.21,M,BKN,M,M,M,3000.00,M,M,M,M,YBBN 041130Z 11007KT 9999 BKN030 22/15 Q1019
YBBN,2011-11-04 12:00,153.1292,-27.3917,69.80,59.00,68.55,100.00,7.00,M,30.09,M,6.21,M,BKN,M,M,M,2900.00,M,M,M,M,YBBN 041200Z 10007KT 9999 BKN029 21/15 Q1019 NOSIG
YBBN,2011-11-04 12:30,153.1292,-27.3917,69.80,60.80,73.09,100.00,6.00,M,30.09,M,6.21,M,BKN,M,M,M,2900.00,M,M,M,M,YBBN 041230Z 10006KT 9999 BKN029 21/16 Q1019
YBBN,2011-11-04 13:00,153.1292,-27.3917,69.80,59.00,68.55,100.00,6.00,M,30.09,M,6.21,M,SCT,M,M,M,2900.00,M,M,M,M,YBBN 041300Z 10006KT 9999 SCT029 21/15 Q1019 NOSIG
YBBN,2011-11-04 13:30,153.1292,-27.3917,69.80,60.80,73.09,100.00,5.00,M,30.06,M,6.21,M,SCT,M,M,M,2800.00,M,M,M,M,YBBN 041330Z 10005KT 9999 SCT028 21/16 Q1018
YBBN,2011-11-04 14:00,153.1292,-27.3917,69.80,60.80,73.09,90.00,5.00,M,30.06,M,6.21,M,SCT,M,M,M,2600.00,M,M,M,M,YBBN 041400Z 09005KT 9999 SCT026 21/16 Q1018 NOSIG
YBBN,2011-11-04 14:30,153.1292,-27.3917,69.80,60.80,73.09,100.00,6.00,M,30.06,M,6.21,M,SCT,M,M,M,2800.00,M,M,M,M,YBBN 041430Z 10006KT 9999 SCT028 21/16 Q1018
YBBN,2011-11-04 15:00,153.1292,-27.3917,69.80,59.00,68.55,110.00,5.00,M,30.06,M,6.21,M,FEW,SCT,M,M,2800.00,4000.00,M,M,M,YBBN 041500Z 11005KT 9999 FEW028 SCT040 21/15 Q1018 NOSIG
YBBN,2011-11-04 15:30,153.1292,-27.3917,69.80,60.80,73.09,100.00,5.00,M,30.03,M,6.21,M,FEW,BKN,M,M,2800.00,4500.00,M,M,M,YBBN 041530Z 10005KT 9999 FEW028 BKN045 21/16 Q1017
YBBN,2011-11-04 16:00,153.1292,-27.3917,69.80,60.80,73.09,100.00,7.00,M,30.03,M,6.21,M,FEW,BKN,M,M,2800.00,4800.00,M,M,M,YBBN 041600Z 10007KT 9999 FEW028 BKN048 21/16 Q1017 NOSIG
YBBN,2011-11-04 16:30,153.1292,-27.3917,69.80,59.00,68.55,100.00,6.00,M,30.03,M,6.21,M,FEW,BKN,M,M,2800.00,5000.00,M,M,M,YBBN 041630Z 10006KT 9999 FEW028 BKN050 21/15 Q1017
YBBN,2011-11-04 17:00,153.1292,-27.3917,69.80,60.80,73.09,100.00,7.00,M,30.03,M,6.21,M,FEW,BKN,M,M,2800.00,5200.00,M,M,M,YBBN 041700Z 10007KT 9999 FEW028 BKN052 21/16 Q1017 NOSIG
YBBN,2011-11-04 17:30,153.1292,-27.3917,69.80,59.00,68.55,100.00,6.00,M,30.03,M,6.21,M,FEW,BKN,M,M,2600.00,5200.00,M,M,M,YBBN 041730Z 10006KT 9999 FEW026 BKN052 21/15 Q1017
YBBN,2011-11-04 18:00,153.1292,-27.3917,69.80,60.80,73.09,100.00,6.00,M,30.06,M,6.21,M,FEW,BKN,M,M,2500.00,5200.00,M,M,M,YBBN 041800Z 10006KT 9999 FEW025 BKN052 21/16 Q1018 NOSIG
YBBN,2011-11-04 18:30,153.1292,-27.3917,69.80,59.00,68.55,90.00,7.00,M,30.06,M,6.21,M,SCT,BKN,M,M,2800.00,5000.00,M,M,M,YBBN 041830Z 09007KT 9999 SCT028 BKN050 21/15 Q1018
YBBN,2011-11-04 19:00,153.1292,-27.3917,69.80,59.00,68.55,100.00,7.00,M,30.06,M,6.21,M,SCT,BKN,M,M,2800.00,5200.00,M,M,M,YBBN 041900Z 10007KT 9999 SCT028 BKN052 21/15 Q1018 NOSIG
YBBN,2011-11-04 19:30,153.1292,-27.3917,69.80,60.80,73.09,100.00,6.00,M,30.09,M,6.21,M,SCT,BKN,M,M,2600.00,5200.00,M,M,M,YBBN 041930Z 10006KT 9999 SCT026 BKN052 21/16 Q1019
YBBN,2011-11-04 20:00,153.1292,-27.3917,71.60,59.00,64.48,100.00,6.00,M,30.09,M,6.21,M,FEW,BKN,M,M,2600.00,5200.00,M,M,M,YBBN 042000Z 10006KT 9999 FEW026 BKN052 22/15 Q1019 NOSIG
YBBN,2011-11-04 20:30,153.1292,-27.3917,71.60,59.00,64.48,90.00,6.00,M,30.09,M,6.21,M,SCT,BKN,M,M,2600.00,5200.00,M,M,M,YBBN 042030Z 09006KT 9999 SCT026 BKN052 22/15 Q1019
YBBN,2011-11-04 21:00,153.1292,-27.3917,71.60,59.00,64.48,90.00,7.00,M,30.09,M,6.21,M,SCT,BKN,M,M,2600.00,5200.00,M,M,M,YBBN 042100Z 09007KT 9999 SCT026 BKN052 22/15 Q1019 NOSIG
YBBN,2011-11-04 21:30,153.1292,-27.3917,73.40,60.80,64.69,100.00,8.00,M,30.12,M,6.21,M,SCT,BKN,M,M,2600.00,5200.00,M,M,M,YBBN 042130Z 10008KT 9999 SCT026 BKN052 23/16 Q1020
YBBN,2011-11-04 22:00,153.1292,-27.3917,73.40,60.80,64.69,90.00,8.00,M,30.12,M,6.21,M,SCT,BKN,M,M,2600.00,5200.00,M,M,M,YBBN 042200Z 09008KT 9999 SCT026 BKN052 23/16 Q1020 NOSIG
YBBN,2011-11-04 22:30,153.1292,-27.3917,73.40,60.80,64.69,80.00,11.00,M,30.12,M,6.21,M,FEW,BKN,M,M,2600.00,5800.00,M,M,M,YBBN 042230Z 08011KT 9999 FEW026 BKN058 23/16 Q1020
YBBN,2011-11-04 23:00,153.1292,-27.3917,73.40,59.00,60.67,90.00,8.00,M,30.12,M,6.21,M,FEW,BKN,M,M,2700.00,6000.00,M,M,M,YBBN 042300Z 09008KT 9999 FEW027 BKN060 23/15 Q1020 NOSIG
YBBN,2011-11-04 23:30,153.1292,-27.3917,73.40,59.00,60.67,80.00,9.00,M,30.12,M,6.21,M,FEW,BKN,M,M,2700.00,6000.00,M,M,M,YBBN 042330Z 08009KT 9999 FEW027 BKN060 23/15 Q1020
