#DEBUG: Format Typ    -> comma
#DEBUG: Time Period   -> 2011-01-13 00:00:00+00:00 2011-01-14 00:00:00+00:00
#DEBUG: Time Zone     -> Etc/UTC
#DEBUG: Data Contact   -> daryl herzmann akrherz@iastate.edu 515-294-5978
#DEBUG: Entries Found -> -1
station,valid,lon,lat,tmpf, dwpf, relh, drct, sknt, p01i, alti, mslp, vsby, gust, skyc1, skyc2, skyc3, skyc4, skyl1, skyl2, skyl3, skyl4, presentwx, metar
YBBN,2011-01-13 02:00,153.1292,-27.3917,78.80,64.40,61.36,100.00,13.00,M,29.91,M,6.21,M,FEW,BKN,M,M,3000.00,7100.00,M,M,M,YBBN 130200Z 10013KT 9999 FEW030 BKN071 26/18 Q1013 NOSIG
YBBN,2011-01-13 02:30,153.1292,-27.3917,80.60,62.60,54.30,110.00,11.00,M,29.88,M,6.21,M,FEW,BKN,M,M,3000.00,6600.00,M,M,M,YBBN 130230Z 11011KT 9999 FEW030 BKN066 27/17 Q1012 NOSIG
YBBN,2011-01-13 03:00,153.1292,-27.3917,78.80,64.40,61.36,110.00,9.00,M,29.88,M,6.21,M,FEW,BKN,M,M,3100.00,6000.00,M,M,M,YBBN 130300Z 11009KT 9999 FEW031 BKN060 26/18 Q1012 NOSIG
YBBN,2011-01-13 03:30,153.1292,-27.3917,80.60,62.60,54.30,120.00,10.00,M,29.88,M,6.21,M,FEW,SCT,M,M,3400.00,6100.00,M,M,M,YBBN 130330Z 12010KT 9999 FEW034 SCT061 27/17 Q1012 NOSIG
YBBN,2011-01-13 04:00,153.1292,-27.3917,80.60,64.40,57.84,110.00,9.00,M,29.85,M,6.21,M,FEW,SCT,M,M,3300.00,6100.00,M,M,M,YBBN 130400Z 11009KT 9999 FEW033 SCT061 27/18 Q1011 NOSIG
YBBN,2011-01-13 04:30,153.1292,-27.3917,82.40,66.20,58.08,110.00,10.00,M,29.85,M,6.21,M,FEW,SCT,M,M,3400.00,6800.00,M,M,M,YBBN 130430Z 11010KT 9999 FEW034 SCT068 28/19 Q1011 NOSIG
YBBN,2011-01-13 05:00,153.1292,-27.3917,80.60,62.60,54.30,120.00,10.00,M,29.83,M,6.21,M,FEW,SCT,M,M,3400.00,6600.00,M,M,M,YBBN 130500Z 12010KT 9999 FEW034 SCT066 27/17 Q1010 NOSIG
YBBN,2011-01-13 05:30,153.1292,-27.3917,78.80,64.40,61.36,130.00,10.00,M,29.83,M,6.21,M,FEW,SCT,M,M,2900.00,6800.00,M,M,M,YBBN 130530Z 13010KT 9999 FEW029 SCT068 26/18 Q1010 NOSIG
YBBN,2011-01-13 06:00,153.1292,-27.3917,78.80,64.40,61.36,100.00,9.00,M,29.83,M,6.21,M,FEW,BKN,M,M,3100.00,7000.00,M,M,M,YBBN 130600Z 10009KT 9999 FEW031 BKN070 26/18 Q1010 NOSIG
YBBN,2011-01-13 06:30,153.1292,-27.3917,78.80,64.40,61.36,110.00,8.00,M,29.83,M,6.21,M,FEW,BKN,M,M,3300.00,7000.00,M,M,M,YBBN 130630Z 11008KT 9999 FEW033 BKN070 26/18 Q1010 NOSIG
YBBN,2011-01-13 07:00,153.1292,-27.3917,78.80,64.40,61.36,110.00,9.00,M,29.83,M,6.21,M,FEW,BKN,M,M,3300.00,7000.00,M,M,M,YBBN 130700Z 11009KT 9999 FEW033 BKN070 26/18 Q1010 NOSIG
YBBN,2011-01-13 07:30,153.1292,-27.3917,78.80,66.20,65.33,120.00,9.00,M,29.85,M,6.21,M,FEW,BKN,M,M,3500.00,7000.00,M,M,M,YBBN 130730Z 12009KT 9999 FEW035 BKN070 26/19 Q1011 NOSIG
YBBN,2011-01-13 08:00,153.1292,-27.3917,78.80,66.20,65.33,110.00,7.00,M,29.85,M,6.21,M,FEW,BKN,M,M,2800.00,7000.00,M,M,M,YBBN 130800Z 11007KT 9999 FEW028 BKN070 26/19 Q1011 NOSIG
YBBN,2011-01-13 08:30,153.1292,-27.3917,77.00,66.20,69.33,110.00,8.00,M,29.85,M,6.21,M,FEW,SCT,M,M,2800.00,7000.00,M,M,M,YBBN 130830Z 11008KT 9999 FEW028 SCT070 25/19 Q1011 NOSIG
YBBN,2011-01-13 09:00,153.1292,-27.3917,77.00,66.20,69.33,110.00,8.00,M,29.85,M,6.21,M,FEW,SCT,M,M,2800.00,7000.00,M,M,M,YBBN 130900Z 11008KT 9999 FEW028 SCT070 25/19 Q1011 NOSIG
YBBN,2011-01-13 09:30,153.1292,-27.3917,77.00,66.20,69.33,110.00,8.00,M,29.85,M,6.21,M,FEW,SCT,M,M,2500.00,7000.00,M,M,M,YBBN 130930Z 11008KT 9999 FEW025 SCT070 25/19 Q1011 NOSIG
YBBN,2011-01-13 10:00,153.1292,-27.3917,77.00,68.00,73.78,110.00,7.00,M,29.85,M,6.21,M,FEW,SCT,M,M,2500.00,7000.00,M,M,M,YBBN 131000Z 11007KT 9999 FEW025 SCT070 25/20 Q1011 NOSIG
YBBN,2011-01-13 10:30,153.1292,-27.3917,75.20,68.00,78.34,110.00,6.00,M,29.85,M,6.21,M,FEW,M,M,M,2500.00,M,M,M,M,YBBN 131030Z 11006KT 9999 FEW025 24/20 Q1011 NOSIG
YBBN,2011-01-13 11:00,153.1292,-27.3917,75.20,66.20,73.61,80.00,8.00,M,29.88,M,6.21,M,FEW,BKN,M,M,2400.00,5800.00,M,M,-SHRA,YBBN 131100Z 08008KT 9999 -SHRA FEW024 BKN058 24/19 Q1012 NOSIG
YBBN,2011-01-13 11:30,153.1292,-27.3917,77.00,68.00,73.78,110.00,7.00,M,29.88,M,6.21,M,FEW,BKN,M,M,2500.00,5800.00,M,M,M,YBBN 131130Z 11007KT 9999 FEW025 BKN058 25/20 Q1012 NOSIG
YBBN,2011-01-13 12:00,153.1292,-27.3917,75.20,66.20,73.61,100.00,9.00,M,29.88,M,6.21,M,FEW,SCT,M,M,2500.00,7000.00,M,M,M,YBBN 131200Z 10009KT 9999 FEW025 SCT070 24/19 Q1012 NOSIG
YBBN,2011-01-13 12:30,153.1292,-27.3917,75.20,66.20,73.61,110.00,7.00,M,29.88,M,6.21,M,FEW,SCT,M,M,2500.00,7000.00,M,M,M,YBBN 131230Z 11007KT 9999 FEW025 SCT070 24/19 Q1012 NOSIG
YBBN,2011-01-13 13:00,153.1292,-27.3917,75.20,68.00,78.34,110.00,6.00,M,29.88,M,6.21,M,FEW,SCT,M,M,2500.00,7000.00,M,M,M,YBBN 131300Z 11006KT 9999 FEW025 SCT070 24/20 Q1012 NOSIG
YBBN,2011-01-13 13:30,153.1292,-27.3917,75.20,66.20,73.61,120.00,6.00,M,29.85,M,6.21,M,SCT,M,M,M,2600.00,M,M,M,M,YBBN 131330Z 12006KT 9999 SCT026 24/19 Q1011 NOSIG
YBBN,2011-01-13 14:00,153.1292,-27.3917,75.20,68.00,78.34,110.00,6.00,M,29.85,M,6.21,M,FEW,M,M,M,2600.00,M,M,M,VCSH,YBBN 131400Z 11006KT 9999 VCSH FEW026 24/20 Q1011 NOSIG
YBBN,2011-01-13 14:30,153.1292,-27.3917,75.20,66.20,73.61,110.00,7.00,M,29.85,M,6.21,M,FEW,SCT,M,M,2600.00,7000.00,M,M,VCSH,YBBN 131430Z 11007KT 9999 VCSH FEW026 SCT070 24/19 Q1011 NOSIG
YBBN,2011-01-13 15:00,153.1292,-27.3917,75.20,66.20,73.61,110.00,8.00,M,29.85,M,6.21,M,FEW,SCT,M,M,2600.00,7500.00,M,M,M,YBBN 131500Z 11008KT 9999 FEW026 SCT075 24/19 Q1011 NOSIG
YBBN,2011-01-13 15:30,153.1292,-27.3917,75.20,66.20,73.61,100.00,7.00,M,29.85,M,6.21,M,FEW,SCT,M,M,2600.00,7500.00,M,M,M,YBBN 131530Z 10007KT 9999 FEW026 SCT075 24/19 Q1011 NOSIG
YBBN,2011-01-13 16:00,153.1292,-27.3917,75.20,66.20,73.61,100.00,8.00,M,29.83,M,6.21,M,FEW,SCT,M,M,2600.00,7500.00,M,M,VCSH,YBBN 131600Z 10008KT 9999 VCSH FEW026 SCT075 24/19 Q1010 NOSIG
YBBN,2011-01-13 16:30,153.1292,-27.3917,75.20,66.20,73.61,100.00,7.00,M,29.83,M,6.21,M,FEW,SCT,M,M,2600.00,7500.00,M,M,M,YBBN 131630Z 10007KT 9999 FEW026 SCT075 24/19 Q1010 NOSIG
YBBN,2011-01-13 17:00,153.1292,-27.3917,73.40,66.20,78.19,100.00,7.00,M,29.83,M,6.21,M,FEW,M,M,M,2600.00,M,M,M,M,YBBN 131700Z 10007KT 9999 FEW026 23/19 Q1010 NOSIG
YBBN,2011-01-13 20:30,153.1292,-27.3917,73.40,66.20,78.19,210.00,7.00,M,29.85,M,6.21,M,FEW,M,M,M,2600.00,M,M,M,M,YBBN 132030Z 21007KT 9999 FEW026 23/19 Q1011 NOSIG
YBBN,2011-01-13 21:00,153.1292,-27.3917,77.00,66.20,69.33,180.00,6.00,M,29.85,M,6.21,M,FEW,M,M,M,2600.00,M,M,M,M,YBBN 132100Z 18006KT 9999 FEW026 25/19 Q1011 NOSIG
YBBN,2011-01-13 21:30,153.1292,-27.3917,78.80,64.40,61.36,130.00,7.00,M,29.85,M,6.21,M,FEW,SCT,M,M,2600.00,6500.00,M,M,M,YBBN 132130Z 13007KT 9999 FEW026 SCT065 26/18 Q1011 NOSIG
YBBN,2011-01-13 22:00,153.1292,-27.3917,78.80,64.40,61.36,130.00,8.00,M,29.85,M,6.21,M,BKN,SCT,M,M,3000.00,6500.00,M,M,M,YBBN 132200Z 13008KT 9999 BKN030 SCT065 26/18 Q1011 NOSIG
YBBN,2011-01-13 22:30,153.1292,-27.3917,78.80,66.20,65.33,130.00,9.00,M,29.85,M,6.21,M,SCT,BKN,M,M,3000.00,6500.00,M,M,M,YBBN 132230Z 13009KT 9999 SCT030 BKN065 26/19 Q1011 NOSIG
YBBN,2011-01-13 23:00,153.1292,-27.3917,78.80,64.40,61.36,120.00,10.00,M,29.85,M,6.21,M,SCT,BKN,M,M,3000.00,6500.00,M,M,M,YBBN 132300Z 12010KT 9999 SCT030 BKN065 26/18 Q1011 NOSIG
YBBN,2011-01-13 23:30,153.1292,-27.3917,78.80,66.20,65.33,130.00,10.00,M,29.85,M,6.21,M,SCT,SCT,M,M,3000.00,7000.00,M,M,M,YBBN 132330Z 13010KT 9999 SCT030 SCT070 26/19 Q1011 NOSIG
