#DEBUG: Format Typ    -> comma
#DEBUG: Time Period   -> 2012-03-03 00:00:00+00:00 2012-03-04 00:00:00+00:00
#DEBUG: Time Zone     -> Etc/UTC
#DEBUG: Data Contact   -> daryl herzmann akrherz@iastate.edu 515-294-5978
#DEBUG: Entries Found -> -1
station,valid,lon,lat,tmpf, dwpf, relh, drct, sknt, p01i, alti, mslp, vsby, gust, skyc1, skyc2, skyc3, skyc4, skyl1, skyl2, skyl3, skyl4, presentwx, metar
YBBN,2012-03-03 00:00,153.1292,-27.3917,82.40,73.40,74.28,60.00,7.00,0.00,29.97,M,6.21,M,SCT,BKN,M,M,2000.00,30000.00,M,M,M,YBBN 030000Z 06007KT 9999 SCT020 BKN300 28/23 Q1015
YBBN,2012-03-03 00:30,153.1292,-27.3917,80.60,71.60,74.11,70.00,7.00,0.00,29.97,M,6.21,M,FEW,SCT,BKN,M,1500.00,2000.00,30000.00,M,M,YBBN 030030Z 07007KT 9999 FEW015 SCT020 BKN300 27/22 Q1015
YBBN,2012-03-03 01:00,153.1292,-27.3917,78.80,73.40,83.55,80.00,12.00,0.00,29.94,M,6.21,M,FEW,BKN,BKN,M,1500.00,2000.00,30000.00,M,M,YBBN 030100Z 08012KT 9999 FEW015 BKN020 BKN300 26/23 Q1014 INTER 0100/0130 4000 SHRA BKN015
YBBN,2012-03-03 01:30,153.1292,-27.3917,77.00,71.60,83.44,80.00,9.00,0.00,29.94,M,6.21,M,FEW,BKN,BKN,M,1500.00,1900.00,5000.00,M,-SHRA,YBBN 030130Z 08009KT 9999 -SHRA FEW015 BKN019 BKN050 25/22 Q1014
YBBN,2012-03-03 02:00,153.1292,-27.3917,80.60,71.60,74.11,110.00,12.00,0.00,29.94,M,6.21,M,FEW,BKN,M,M,2000.00,30000.00,M,M,M,YBBN 030200Z 11012KT 9999 FEW020 BKN300 27/22 Q1014 RMK DIST RASH
YBBN,2012-03-03 02:30,153.1292,-27.3917,80.60,71.60,74.11,120.00,11.00,0.00,29.94,M,6.21,M,SCT,SCT,BKN,M,2500.00,7000.00,30000.00,M,M,YBBN 030230Z 12011KT 9999 SCT025 SCT070 BKN300 27/22 Q1014
YBBN,2012-03-03 02:49,153.1292,-27.3917,80.60,71.60,74.11,120.00,9.00,0.00,29.94,M,3.73,M,FEW,BKN,BKN,M,1500.00,2500.00,3500.00,M,SHRA,YBBN 030249Z 12009KT 6000 SHRA FEW015 BKN025 BKN035 27/22 Q1014
YBBN,2012-03-03 03:00,153.1292,-27.3917,78.80,71.60,78.62,130.00,10.00,0.00,29.94,M,3.73,M,FEW,SCT,BKN,M,1800.00,2500.00,4500.00,M,SHRA,YBBN 030300Z 13010KT 6000 SHRA FEW018 SCT025 BKN045 26/22 Q1014
YBBN,2012-03-03 03:08,153.1292,-27.3917,77.00,73.40,88.67,160.00,9.00,0.00,29.94,M,1.86,M,FEW,SCT,BKN,M,1300.00,2500.00,3600.00,M,SHRA,YBBN 030308Z 16009KT 3000 SHRA FEW013 SCT025 BKN036 25/23 Q1014 RESHRA
YBBN,2012-03-03 03:30,153.1292,-27.3917,75.20,73.40,94.14,140.00,8.00,0.00,29.94,M,1.86,M,SCT,SCT,BKN,M,800.00,1100.00,2500.00,M,SHRA,YBBN 030330Z 14008KT 3000 SHRA SCT008 SCT011 BKN025 24/23 Q1014 RESHRA
YBBN,2012-03-03 04:00,153.1292,-27.3917,77.00,73.40,88.67,130.00,6.00,0.00,29.91,M,3.11,M,FEW,SCT,BKN,M,1200.00,1800.00,4500.00,M,-SHRA,YBBN 030400Z 13006KT 5000 -SHRA FEW012 SCT018 BKN045 25/23 Q1013 RESHRA
YBBN,2012-03-03 04:30,153.1292,-27.3917,78.80,73.40,83.55,90.00,10.00,0.00,29.91,M,4.97,M,FEW,SCT,BKN,M,1500.00,1900.00,7000.00,M,VCSH,YBBN 030430Z 09010KT 8000 VCSH FEW015 SCT019 BKN070 26/23 Q1013
YBBN,2012-03-03 05:00,153.1292,-27.3917,78.80,71.60,78.62,80.00,11.00,0.00,29.91,M,6.21,M,SCT,BKN,M,M,1900.00,7500.00,M,M,VCSH,YBBN 030500Z 08011KT 9999 VCSH SCT019 BKN075 26/22 Q1013
YBBN,2012-03-03 05:30,153.1292,-27.3917,78.80,71.60,78.62,90.00,11.00,0.00,29.91,M,6.21,M,FEW,BKN,M,M,1900.00,8000.00,M,M,M,YBBN 030530Z 09011KT 9999 FEW019 BKN080 26/22 Q1013 RMK DIST RASH
YBBN,2012-03-03 06:00,153.1292,-27.3917,78.80,73.40,83.55,100.00,11.00,0.00,29.91,M,6.21,M,FEW,SCT,BKN,M,1700.00,9500.00,30000.00,M,M,YBBN 030600Z 10011KT 9999 FEW017 SCT095 BKN300 26/23 Q1013
YBBN,2012-03-03 06:30,153.1292,-27.3917,78.80,73.40,83.55,110.00,9.00,0.00,29.91,M,6.21,M,FEW,SCT,BKN,M,1600.00,2000.00,30000.00,M,-SHRA,YBBN 030630Z 11009KT 9999 -SHRA FEW016 SCT020 BKN300 26/23 Q1013
YBBN,2012-03-03 07:00,153.1292,-27.3917,78.80,73.40,83.55,110.00,9.00,0.00,29.91,M,4.97,M,FEW,SCT,BKN,M,1600.00,2000.00,30000.00,M,-SHRA,YBBN 030700Z 11009KT 8000 -SHRA FEW016 SCT020 BKN300 26/23 Q1013
YBBN,2012-03-03 07:30,153.1292,-27.3917,78.80,73.40,83.55,110.00,9.00,0.00,29.91,M,6.21,M,FEW,BKN,M,M,1500.00,1800.00,M,M,-SHRA,YBBN 030730Z 11009KT 9999 -SHRA FEW015 BKN018 26/23 Q1013
YBBN,2012-03-03 08:00,153.1292,-27.3917,78.80,69.80,73.95,60.00,7.00,0.00,29.94,M,6.21,M,FEW,SCT,BKN,M,1800.00,2300.00,30000.00,M,-SHRA,YBBN 030800Z 06007KT 9999 -SHRA FEW018 SCT023 BKN300 26/21 Q1014
YBBN,2012-03-03 08:30,153.1292,-27.3917,77.00,69.80,78.48,50.00,6.00,0.00,29.94,M,4.97,M,FEW,SCT,BKN,M,2000.00,7000.00,30000.00,M,VCSH,YBBN 030830Z 05006KT 8000 VCSH FEW020 SCT070 BKN300 25/21 Q1014
YBBN,2012-03-03 09:00,153.1292,-27.3917,77.00,69.80,78.48,60.00,6.00,0.00,29.94,M,4.97,M,FEW,BKN,M,M,2000.00,30000.00,M,M,VCSH,YBBN 030900Z 06006KT 8000 VCSH FEW020 BKN300 25/21 Q1014
YBBN,2012-03-03 09:30,153.1292,-27.3917,77.00,69.80,78.48,60.00,6.00,0.00,29.97,M,6.21,M,SCT,BKN,M,M,2500.00,30000.00,M,M,M,YBBN 030930Z 06006KT 9999 SCT025 BKN300 25/21 Q1015
YBBN,2012-03-03 10:00,153.1292,-27.3917,77.00,69.80,78.48,60.00,6.00,0.00,29.97,M,6.21,M,SCT,BKN,M,M,2500.00,30000.00,M,M,M,YBBN 031000Z 06006KT 9999 SCT025 BKN300 25/21 Q1015
YBBN,2012-03-03 10:30,153.1292,-27.3917,77.00,69.80,78.48,70.00,5.00,0.00,29.97,M,4.97,M,SCT,SCT,BKN,M,2700.00,7000.00,30000.00,M,VCSH,YBBN 031030Z 07005KT 8000 VCSH SCT027 SCT070 BKN300 25/21 Q1015
YBBN,2012-03-03 11:00,153.1292,-27.3917,75.20,73.40,94.14,80.00,7.00,0.00,30.00,M,2.49,M,FEW,BKN,M,M,1200.00,2000.00,M,M,SHRA,YBBN 031100Z 08007KT 4000 SHRA FEW012 BKN020 24/23 Q1016
YBBN,2012-03-03 11:30,153.1292,-27.3917,75.20,71.60,88.59,80.00,7.00,0.00,30.00,M,4.35,M,FEW,SCT,BKN,M,1200.00,2200.00,6000.00,M,-SHRA,YBBN 031130Z 08007KT 7000 -SHRA FEW012 SCT022 BKN060 24/22 Q1016 RESHRA
YBBN,2012-03-03 12:00,153.1292,-27.3917,77.00,73.40,88.67,70.00,7.00,0.00,30.00,M,4.97,M,FEW,SCT,BKN,M,1600.00,2400.00,6400.00,M,VCSH,YBBN 031200Z 07007KT 8000 VCSH FEW016 SCT024 BKN064 25/23 Q1016
YBBN,2012-03-03 12:30,153.1292,-27.3917,77.00,71.60,83.44,80.00,8.00,0.00,30.00,M,6.21,M,SCT,SCT,M,M,2200.00,6400.00,M,M,M,YBBN 031230Z 08008KT 9999 SCT022 SCT064 25/22 Q1016
YBBN,2012-03-03 13:00,153.1292,-27.3917,77.00,71.60,83.44,80.00,8.00,0.00,30.00,M,6.21,M,FEW,SCT,M,M,2200.00,7500.00,M,M,VCSH,YBBN 031300Z 08008KT 9999 VCSH FEW022 SCT075 25/22 Q1016
YBBN,2012-03-03 13:30,153.1292,-27.3917,77.00,71.60,83.44,80.00,8.00,0.00,30.00,M,6.21,M,FEW,M,M,M,2200.00,M,M,M,M,YBBN 031330Z 08008KT 9999 FEW022 25/22 Q1016
YBBN,2012-03-03 14:00,153.1292,-27.3917,77.00,71.60,83.44,80.00,7.00,0.00,29.97,M,6.21,M,FEW,M,M,M,2200.00,M,M,M,M,YBBN 031400Z 08007KT 9999 FEW022 25/22 Q1015 INTER 1400/1700 3000 SHRA BKN010
YBBN,2012-03-03 14:30,153.1292,-27.3917,77.00,71.60,83.44,80.00,8.00,0.00,29.97,M,6.21,M,FEW,M,M,M,2200.00,M,M,M,M,YBBN 031430Z 08008KT 9999 FEW022 25/22 Q1015
YBBN,2012-03-03 15:00,153.1292,-27.3917,77.00,69.80,78.48,80.00,7.00,0.00,29.97,M,6.21,M,FEW,M,M,M,2200.00,M,M,M,M,YBBN 031500Z 08007KT 9999 FEW022 25/21 Q1015 INTER 1500/1800 3000 SHRA BKN010
YBBN,2012-03-03 15:30,153.1292,-27.3917,75.20,69.80,83.32,80.00,7.00,0.00,29.94,M,6.21,M,FEW,M,M,M,2200.00,M,M,M,M,YBBN 031530Z 08007KT 9999 FEW022 24/21 Q1014
YBBN,2012-03-03 16:00,153.1292,-27.3917,75.20,69.80,83.32,80.00,7.00,0.00,29.94,M,6.21,M,FEW,M,M,M,2200.00,M,M,M,M,YBBN 031600Z 08007KT 9999 FEW022 24/21 Q1014
YBBN,2012-03-03 16:30,153.1292,-27.3917,75.20,69.80,83.32,90.00,6.00,0.00,29.94,M,6.21,M,FEW,M,M,M,2200.00,M,M,M,M,YBBN 031630Z 09006KT 9999 FEW022 24/21 Q1014
YBBN,2012-03-03 17:00,153.1292,-27.3917,75.20,69.80,83.32,90.00,7.00,0.00,29.94,M,6.21,M,FEW,M,M,M,2000.00,M,M,M,M,YBBN 031700Z 09007KT 9999 FEW020 24/21 Q1014
YBBN,2012-03-03 17:30,153.1292,-27.3917,75.20,69.80,83.32,90.00,6.00,0.00,29.94,M,6.21,M,FEW,M,M,M,2000.00,M,M,M,M,YBBN 031730Z 09006KT 9999 FEW020 24/21 Q1014
YBBN,2012-03-03 18:00,153.1292,-27.3917,75.20,69.80,83.32,80.00,7.00,0.00,29.94,M,6.21,M,FEW,M,M,M,2000.00,M,M,M,M,YBBN 031800Z 08007KT 9999 FEW020 24/21 Q1014
YBBN,2012-03-03 18:30,153.1292,-27.3917,75.20,69.80,83.32,90.00,6.00,0.00,29.94,M,6.21,M,FEW,SCT,M,M,1800.00,4500.00,M,M,M,YBBN 031830Z 09006KT 9999 FEW018 SCT045 24/21 Q1014
YBBN,2012-03-03 19:00,153.1292,-27.3917,75.20,68.00,78.34,90.00,6.00,0.00,29.94,M,6.21,M,FEW,SCT,M,M,1800.00,4500.00,M,M,VCSH,YBBN 031900Z 09006KT 9999 VCSH FEW018 SCT045 24/20 Q1014
YBBN,2012-03-03 19:30,153.1292,-27.3917,77.00,69.80,78.48,90.00,7.00,0.00,29.94,M,4.97,M,FEW,SCT,M,M,1800.00,6500.00,M,M,VCSH,YBBN 031930Z 09007KT 8000 VCSH FEW018 SCT065 25/21 Q1014
YBBN,2012-03-03 20:00,153.1292,-27.3917,77.00,69.80,78.48,90.00,7.00,0.00,29.94,M,4.97,M,SCT,BKN,M,M,1900.00,3700.00,M,M,VCSH,YBBN 032000Z 09007KT 8000 VCSH SCT019 BKN037 25/21 Q1014
YBBN,2012-03-03 20:23,153.1292,-27.3917,75.20,71.60,88.59,80.00,8.00,0.00,29.94,M,3.11,M,FEW,SCT,BKN,M,1600.00,2000.00,4000.00,M,-SHRA,YBBN 032023Z 08008KT 5000 -SHRA FEW016 SCT020 BKN040 24/22 Q1014
YBBN,2012-03-03 20:30,153.1292,-27.3917,73.40,71.60,94.10,90.00,8.00,0.00,29.94,M,3.73,M,FEW,SCT,BKN,M,1600.00,2000.00,4000.00,M,-SHRA,YBBN 032030Z 09008KT 6000 -SHRA FEW016 SCT020 BKN040 23/22 Q1014
YBBN,2012-03-03 20:42,153.1292,-27.3917,75.20,71.60,88.59,90.00,6.00,0.00,29.94,M,5.59,M,FEW,BKN,BKN,M,1800.00,4000.00,4700.00,M,VCSH,YBBN 032042Z 09006KT 9000 VCSH FEW018 BKN040 BKN047 24/22 Q1014
YBBN,2012-03-03 21:00,153.1292,-27.3917,77.00,71.60,83.44,90.00,5.00,0.00,29.97,M,6.21,M,FEW,BKN,M,M,1800.00,4000.00,M,M,VCSH,YBBN 032100Z 09005KT 9999 VCSH FEW018 BKN040 25/22 Q1015 INTER 2100/2400 3000 SHRA BKN010
YBBN,2012-03-03 21:30,153.1292,-27.3917,77.00,71.60,83.44,90.00,7.00,0.00,29.97,M,6.21,M,SCT,BKN,M,M,2500.00,4300.00,M,M,M,YBBN 032130Z 09007KT 9999 SCT025 BKN043 25/22 Q1015
YBBN,2012-03-03 22:00,153.1292,-27.3917,78.80,71.60,78.62,100.00,6.00,0.00,29.97,M,6.21,M,SCT,BKN,M,M,2500.00,5000.00,M,M,M,YBBN 032200Z 10006KT 9999 SCT025 BKN050 26/22 Q1015
YBBN,2012-03-03 22:30,153.1292,-27.3917,78.80,71.60,78.62,90.00,7.00,0.00,29.97,M,6.21,M,BKN,BKN,M,M,2500.00,5000.00,M,M,VCSH,YBBN 032230Z 09007KT 9999 VCSH BKN025 BKN050 26/22 Q1015
YBBN,2012-03-03 23:00,153.1292,-27.3917,80.60,71.60,74.11,80.00,10.00,0.00,29.97,M,6.21,M,SCT,BKN,BKN,M,2500.00,6000.00,30000.00,M,M,YBBN 032300Z 08010KT 9999 SCT025 BKN060 BKN300 27/22 Q1015 RMK DIST RASH
YBBN,2012-03-03 23:30,153.1292,-27.3917,80.60,69.80,69.71,70.00,11.00,0.00,29.97,M,6.21,M,FEW,BKN,BKN,M,2000.00,5700.00,30000.00,M,M,YBBN 032330Z 07011KT 9999 FEW020 BKN057 BKN300 27/21 Q1015 RMK DIST RASH
