#DEBUG: Format Typ    -> comma
#DEBUG: Time Period   -> 2013-12-26 00:00:00+00:00 2013-12-27 00:00:00+00:00
#DEBUG: Time Zone     -> Etc/UTC
#DEBUG: Data Contact   -> daryl herzmann akrherz@iastate.edu 515-294-5978
#DEBUG: Entries Found -> -1
station,valid,lon,lat,tmpf, dwpf, relh, drct, sknt, p01i, alti, mslp, vsby, gust, skyc1, skyc2, skyc3, skyc4, skyl1, skyl2, skyl3, skyl4, presentwx, metar
YBBN,2013-12-26 00:00,153.1292,-27.3917,82.40,64.40,54.55,10.00,9.00,0.00,29.88,M,6.21,M,FEW,BKN,M,M,4500.00,31000.00,M,M,M,YBBN 260000Z 01009KT 9999 FEW045 BKN310 28/18 Q1012
YBBN,2013-12-26 00:30,153.1292,-27.3917,82.40,66.20,58.08,20.00,11.00,0.00,29.88,M,6.21,M,FEW,BKN,M,M,4000.00,31000.00,M,M,M,YBBN 260030Z 02011KT 9999 FEW040 BKN310 28/19 Q1012
YBBN,2013-12-26 01:00,153.1292,-27.3917,84.20,68.00,58.32,20.00,13.00,0.00,29.88,M,6.21,M,FEW,BKN,M,M,3800.00,31000.00,M,M,M,YBBN 260100Z 02013KT 9999 FEW038 BKN310 29/20 Q1012
YBBN,2013-12-26 01:30,153.1292,-27.3917,82.40,68.00,61.81,30.00,13.00,0.00,29.85,M,6.21,M,FEW,BKN,M,M,3800.00,31000.00,M,M,M,YBBN 260130Z 03013KT 9999 FEW038 BKN310 28/20 Q1011
YBBN,2013-12-26 02:00,153.1292,-27.3917,84.20,66.20,54.80,20.00,14.00,0.00,29.85,M,6.21,M,FEW,BKN,M,M,4500.00,31000.00,M,M,M,YBBN 260200Z 02014KT 9999 FEW045 BKN310 29/19 Q1011
YBBN,2013-12-26 02:30,153.1292,-27.3917,82.40,68.00,61.81,20.00,17.00,0.00,29.85,M,6.21,M,FEW,SCT,M,M,4200.00,31000.00,M,M,M,YBBN 260230Z 02017KT 9999 FEW042 SCT310 28/20 Q1011
YBBN,2013-12-26 03:00,153.1292,-27.3917,82.40,68.00,61.81,20.00,16.00,0.00,29.83,M,6.21,M,FEW,SCT,M,M,4200.00,31000.00,M,M,M,YBBN 260300Z 02016KT 9999 FEW042 SCT310 28/20 Q1010 NOSIG
YBBN,2013-12-26 03:30,153.1292,-27.3917,82.40,64.40,54.55,10.00,17.00,0.00,29.83,M,6.21,M,FEW,SCT,M,M,4500.00,23000.00,M,M,M,YBBN 260330Z 01017KT 9999 FEW045 SCT230 28/18 Q1010
YBBN,2013-12-26 04:00,153.1292,-27.3917,82.40,68.00,61.81,10.00,18.00,0.00,29.80,M,6.21,M,FEW,SCT,M,M,3500.00,16500.00,M,M,M,YBBN 260400Z 01018KT 9999 FEW035 SCT165 28/20 Q1009 NOSIG
YBBN,2013-12-26 04:30,153.1292,-27.3917,82.40,68.00,61.81,10.00,18.00,0.00,29.80,M,6.21,M,FEW,SCT,M,M,3500.00,15000.00,M,M,M,YBBN 260430Z 01018KT 9999 FEW035 SCT150 28/20 Q1009
YBBN,2013-12-26 05:00,153.1292,-27.3917,82.40,69.80,65.74,10.00,17.00,0.00,29.77,M,6.21,M,FEW,SCT,M,M,3200.00,16000.00,M,M,M,YBBN 260500Z 01017KT 9999 FEW032 SCT160 28/21 Q1008
YBBN,2013-12-26 05:30,153.1292,-27.3917,80.60,68.00,65.54,10.00,17.00,0.00,29.77,M,6.21,M,FEW,BKN,M,M,3200.00,15500.00,M,M,M,YBBN 260530Z 01017KT 9999 FEW032 BKN155 27/20 Q1008
YBBN,2013-12-26 06:00,153.1292,-27.3917,80.60,68.00,65.54,10.00,16.00,0.00,29.77,M,6.21,M,FEW,BKN,M,M,3000.00,16000.00,M,M,M,YBBN 260600Z 01016KT 9999 FEW030 BKN160 27/20 Q1008 NOSIG
YBBN,2013-12-26 06:30,153.1292,-27.3917,80.60,69.80,69.71,10.00,17.00,0.00,29.77,M,6.21,M,FEW,SCT,BKN,M,2800.00,16000.00,18000.00,M,M,YBBN 260630Z 01017KT 9999 FEW028 SCT160 BKN180 27/21 Q1008
YBBN,2013-12-26 07:00,153.1292,-27.3917,78.80,69.80,73.95,10.00,15.00,0.00,29.77,M,6.21,M,FEW,SCT,M,M,2500.00,18000.00,M,M,M,YBBN 260700Z 01015KT 9999 FEW025 SCT180 26/21 Q1008 NOSIG
YBBN,2013-12-26 07:30,153.1292,-27.3917,78.80,69.80,73.95,10.00,17.00,0.00,29.77,M,6.21,M,M,M,M,M,M,M,M,M,M,YBBN 260730Z 01017KT CAVOK 26/21 Q1008
YBBN,2013-12-26 08:00,153.1292,-27.3917,78.80,69.80,73.95,360.00,13.00,0.00,29.77,M,6.21,M,M,M,M,M,M,M,M,M,M,YBBN 260800Z 36013KT CAVOK 26/21 Q1008 NOSIG
YBBN,2013-12-26 08:30,153.1292,-27.3917,78.80,69.80,73.95,360.00,16.00,0.00,29.77,M,6.21,M,M,M,M,M,M,M,M,M,M,YBBN 260830Z 36016KT CAVOK 26/21 Q1008
YBBN,2013-12-26 09:00,153.1292,-27.3917,77.00,69.80,78.48,360.00,15.00,0.00,29.80,M,6.21,M,M,M,M,M,M,M,M,M,M,YBBN 260900Z 36015KT CAVOK 25/21 Q1009
YBBN,2013-12-26 09:30,153.1292,-27.3917,77.00,69.80,78.48,360.00,16.00,0.00,29.80,M,6.21,M,M,M,M,M,M,M,M,M,M,YBBN 260930Z 36016KT CAVOK 25/21 Q1009
YBBN,2013-12-26 10:00,153.1292,-27.3917,77.00,69.80,78.48,350.00,16.00,0.00,29.80,M,6.21,M,M,M,M,M,M,M,M,M,M,YBBN 261000Z 35016KT CAVOK 25/21 Q1009
YBBN,2013-12-26 10:30,153.1292,-27.3917,77.00,69.80,78.48,360.00,15.00,0.00,29.80,M,6.21,M,M,M,M,M,M,M,M,M,M,YBBN 261030Z 36015KT CAVOK 25/21 Q1009
YBBN,2013-12-26 11:00,153.1292,-27.3917,77.00,69.80,78.48,360.00,16.00,0.00,29.80,M,6.21,M,M,M,M,M,M,M,M,M,M,YBBN 261100Z 36016KT CAVOK 25/21 Q1009
YBBN,2013-12-26 11:30,153.1292,-27.3917,77.00,69.80,78.48,360.00,15.00,0.00,29.80,M,6.21,M,M,M,M,M,M,M,M,M,M,YBBN 261130Z 36015KT CAVOK 25/21 Q1009
YBBN,2013-12-26 12:00,153.1292,-27.3917,77.00,69.80,78.48,360.00,13.00,0.00,29.80,M,6.21,M,M,M,M,M,M,M,M,M,M,YBBN 261200Z 36013KT CAVOK 25/21 Q1009
YBBN,2013-12-26 12:30,153.1292,-27.3917,77.00,69.80,78.48,360.00,15.00,0.00,29.80,M,6.21,M,M,M,M,M,M,M,M,M,M,YBBN 261230Z 36015KT CAVOK 25/21 Q1009
YBBN,2013-12-26 13:00,153.1292,-27.3917,77.00,69.80,78.48,360.00,14.00,0.00,29.80,M,6.21,M,M,M,M,M,M,M,M,M,M,YBBN 261300Z 36014KT CAVOK 25/21 Q1009
YBBN,2013-12-26 13:30,153.1292,-27.3917,77.00,69.80,78.48,360.00,13.00,0.00,29.80,M,6.21,M,M,M,M,M,M,M,M,M,M,YBBN 261330Z 36013KT CAVOK 25/21 Q1009
YBBN,2013-12-26 14:00,153.1292,-27.3917,75.20,69.80,83.32,360.00,14.00,0.00,29.77,M,6.21,M,M,M,M,M,M,M,M,M,M,YBBN 261400Z 36014KT CAVOK 24/21 Q1008
YBBN,2013-12-26 14:30,153.1292,-27.3917,75.20,69.80,83.32,350.00,11.00,0.00,29.77,M,6.21,M,M,M,M,M,M,M,M,M,M,YBBN 261430Z 35011KT CAVOK 24/21 Q1008
YBBN,2013-12-26 15:00,153.1292,-27.3917,75.20,69.80,83.32,350.00,9.00,0.00,29.77,M,6.21,M,M,M,M,M,M,M,M,M,M,YBBN 261500Z 35009KT CAVOK 24/21 Q1008 NOSIG
YBBN,2013-12-26 15:30,153.1292,-27.3917,75.20,69.80,83.32,350.00,8.00,0.00,29.74,M,6.21,M,M,M,M,M,M,M,M,M,M,YBBN 261530Z 35008KT CAVOK 24/21 Q1007
YBBN,2013-12-26 16:00,153.1292,-27.3917,73.40,69.80,88.51,340.00,7.00,0.00,29.77,M,6.21,M,M,M,M,M,M,M,M,M,M,YBBN 261600Z 34007KT CAVOK 23/21 Q1008
YBBN,2013-12-26 16:30,153.1292,-27.3917,73.40,69.80,88.51,320.00,5.00,0.00,29.74,M,6.21,M,M,M,M,M,M,M,M,M,M,YBBN 261630Z 32005KT CAVOK 23/21 Q1007
YBBN,2013-12-26 17:00,153.1292,-27.3917,73.40,69.80,88.51,340.00,8.00,0.00,29.74,M,6.21,M,M,M,M,M,M,M,M,M,M,YBBN 261700Z 34008KT CAVOK 23/21 Q1007
YBBN,2013-12-26 17:30,153.1292,-27.3917,73.40,69.80,88.51,340.00,6.00,0.00,29.74,M,6.21,M,M,M,M,M,M,M,M,M,M,YBBN 261730Z 34006KT CAVOK 23/21 Q1007
YBBN,2013-12-26 18:00,153.1292,-27.3917,71.60,69.80,94.06,260.00,4.00,0.00,29.77,M,6.21,M,M,M,M,M,M,M,M,M,M,YBBN 261800Z 26004KT CAVOK 22/21 Q1008
YBBN,2013-12-26 18:30,153.1292,-27.3917,71.60,68.00,88.43,260.00,5.00,0.00,29.77,M,6.21,M,M,M,M,M,M,M,M,M,M,YBBN 261830Z 26005KT CAVOK 22/20 Q1008
YBBN,2013-12-26 19:00,153.1292,-27.3917,71.60,68.00,88.43,280.00,6.00,0.00,29.77,M,6.21,M,M,M,M,M,M,M,M,M,M,YBBN 261900Z 28006KT CAVOK 22/20 Q1008
YBBN,2013-12-26 19:30,153.1292,-27.3917,71.60,68.00,88.43,0.00,0.00,0.00,29.80,M,6.21,M,M,M,M,M,M,M,M,M,M,YBBN 261930Z 00000KT CAVOK 22/20 Q1009
YBBN,2013-12-26 20:00,153.1292,-27.3917,73.40,69.80,88.51,210.00,5.00,0.00,29.80,M,6.21,M,FEW,SCT,BKN,M,3000.00,14000.00,30000.00,M,M,YBBN 262000Z 21005KT 9999 FEW030 SCT140 BKN300 23/21 Q1009 NOSIG
YBBN,2013-12-26 20:30,153.1292,-27.3917,75.20,69.80,83.32,200.00,7.00,0.00,29.83,M,6.21,M,FEW,SCT,M,M,3000.00,15000.00,M,M,M,YBBN 262030Z 20007KT 9999 FEW030 SCT150 24/21 Q1010
YBBN,2013-12-26 21:00,153.1292,-27.3917,77.00,69.80,78.48,170.00,6.00,0.00,29.83,M,6.21,M,FEW,SCT,BKN,M,3000.00,10000.00,15000.00,M,M,YBBN 262100Z 17006KT 9999 FEW030 SCT100 BKN150 25/21 Q1010
YBBN,2013-12-26 21:30,153.1292,-27.3917,77.00,69.80,78.48,180.00,6.00,0.00,29.83,M,6.21,M,FEW,SCT,BKN,M,2000.00,9000.00,15000.00,M,M,YBBN 262130Z 18006KT 9999 FEW020 SCT090 BKN150 25/21 Q1010
YBBN,2013-12-26 22:00,153.1292,-27.3917,77.00,69.80,78.48,140.00,6.00,0.00,29.83,M,6.21,M,FEW,BKN,BKN,M,2000.00,9000.00,15000.00,M,M,YBBN 262200Z 14006KT 9999 FEW020 BKN090 BKN150 25/21 Q1010 NOSIG
YBBN,2013-12-26 22:19,153.1292,-27.3917,77.00,71.60,83.44,130.00,7.00,0.00,29.83,M,6.21,M,BKN,M,M,M,1400.00,M,M,M,M,YBBN 262219Z 13007KT 9999 BKN014 25/22 Q1010
YBBN,2013-12-26 22:30,153.1292,-27.3917,77.00,69.80,78.48,120.00,8.00,0.00,29.83,M,6.21,M,BKN,BKN,M,M,1400.00,2000.00,M,M,-DZ,YBBN 262230Z 12008KT 9999 -DZ BKN014 BKN020 25/21 Q1010
YBBN,2013-12-26 23:00,153.1292,-27.3917,78.80,69.80,73.95,120.00,10.00,0.00,29.83,M,6.21,M,SCT,BKN,M,M,1500.00,2000.00,M,M,M,YBBN 262300Z 12010KT 9999 SCT015 BKN020 26/21 Q1010
YBBN,2013-12-26 23:30,153.1292,-27.3917,78.80,69.80,73.95,110.00,11.00,0.00,29.83,M,6.21,M,FEW,BKN,M,M,1500.00,2500.00,M,M,M,YBBN 262330Z 11011KT 9999 FEW015 BKN025 26/21 Q1010
