#DEBUG: Format Typ    -> comma
#DEBUG: Time Period   -> 2014-06-21 00:00:00+00:00 2014-06-22 00:00:00+00:00
#DEBUG: Time Zone     -> Etc/UTC
#DEBUG: Data Contact   -> daryl herzmann akrherz@iastate.edu 515-294-5978
#DEBUG: Entries Found -> -1
station,valid,lon,lat,tmpf, dwpf, relh, drct, sknt, p01i, alti, mslp, vsby, gust, skyc1, skyc2, skyc3, skyc4, skyl1, skyl2, skyl3, skyl4, presentwx, metar
YBBN,2014-06-21 00:00,153.1292,-27.3917,68.00,59.00,72.92,290.00,2.00,0.00,30.15,M,6.21,M,FEW,BKN,M,M,2200.00,11000.00,M,M,M,YBBN 210000Z 29002KT 9999 FEW022 BKN110 20/15 Q1021 NOSIG
YBBN,2014-06-21 00:30,153.1292,-27.3917,69.80,59.00,68.55,300.00,4.00,0.00,30.15,M,6.21,M,FEW,SCT,M,M,2200.00,11000.00,M,M,M,YBBN 210030Z 30004KT 9999 FEW022 SCT110 21/15 Q1021
YBBN,2014-06-21 01:00,153.1292,-27.3917,71.60,59.00,64.48,300.00,4.00,0.00,30.12,M,6.21,M,FEW,M,M,M,2400.00,M,M,M,M,YBBN 210100Z 30004KT 9999 FEW024 22/15 Q1020 NOSIG
YBBN,2014-06-21 01:30,153.1292,-27.3917,73.40,60.80,64.69,10.00,5.00,0.00,30.12,M,6.21,M,FEW,M,M,M,3000.00,M,M,M,M,YBBN 210130Z 01005KT 9999 FEW030 23/16 Q1020
YBBN,2014-06-21 02:00,153.1292,-27.3917,73.40,59.00,60.67,10.00,7.00,0.00,30.09,M,6.21,M,FEW,M,M,M,3000.00,M,M,M,M,YBBN 210200Z 01007KT 9999 FEW030 23/15 Q1019 NOSIG
YBBN,2014-06-21 02:30,153.1292,-27.3917,73.40,59.00,60.67,30.00,6.00,0.00,30.06,M,6.21,M,FEW,M,M,M,3000.00,M,M,M,M,YBBN 210230Z 03006KT 9999 FEW030 23/15 Q1018
YBBN,2014-06-21 03:00,153.1292,-27.3917,75.20,57.20,53.55,30.00,8.00,0.00,30.06,M,6.21,M,FEW,M,M,M,3300.00,M,M,M,M,YBBN 210300Z 03008KT 9999 FEW033 24/14 Q1018 NOSIG
YBBN,2014-06-21 03:30,153.1292,-27.3917,71.60,57.20,60.44,40.00,7.00,0.00,30.06,M,6.21,M,FEW,M,M,M,4000.00,M,M,M,M,YBBN 210330Z 04007KT 9999 FEW040 22/14 Q1018
YBBN,2014-06-21 04:00,153.1292,-27.3917,73.40,57.20,56.88,30.00,8.00,0.00,30.03,M,6.21,M,FEW,M,M,M,4000.00,M,M,M,M,YBBN 210400Z 03008KT 9999 FEW040 23/14 Q1017 NOSIG
YBBN,2014-06-21 04:30,153.1292,-27.3917,73.40,57.20,56.88,30.00,7.00,0.00,30.03,M,6.21,M,FEW,M,M,M,4000.00,M,M,M,M,YBBN 210430Z 03007KT 9999 FEW040 23/14 Q1017
YBBN,2014-06-21 05:00,153.1292,-27.3917,71.60,59.00,64.48,30.00,8.00,0.00,30.03,M,6.21,M,FEW,M,M,M,4000.00,M,M,M,M,YBBN 210500Z 03008KT 9999 FEW040 22/15 Q1017 NOSIG
YBBN,2014-06-21 05:30,153.1292,-27.3917,69.80,60.80,73.09,40.00,9.00,0.00,30.06,M,6.21,M,FEW,M,M,M,4000.00,M,M,M,M,YBBN 210530Z 04009KT 9999 FEW040 21/16 Q1018
YBBN,2014-06-21 06:00,153.1292,-27.3917,68.00,60.80,77.75,20.00,7.00,0.00,30.06,M,6.21,M,FEW,M,M,M,4000.00,M,M,M,M,YBBN 210600Z 02007KT 9999 FEW040 20/16 Q1018 NOSIG
YBBN,2014-06-21 06:30,153.1292,-27.3917,68.00,62.60,82.86,10.00,5.00,0.00,30.06,M,6.21,M,FEW,SCT,M,M,3600.00,10000.00,M,M,M,YBBN 210630Z 01005KT 9999 FEW036 SCT100 20/17 Q1018
YBBN,2014-06-21 07:00,153.1292,-27.3917,66.20,60.80,82.74,10.00,6.00,0.00,30.06,M,6.21,M,FEW,SCT,M,M,3400.00,10000.00,M,M,M,YBBN 210700Z 01006KT 9999 FEW034 SCT100 19/16 Q1018 NOSIG
YBBN,2014-06-21 07:30,153.1292,-27.3917,64.40,60.80,88.09,360.00,3.00,0.00,30.06,M,6.21,M,FEW,M,M,M,3000.00,M,M,M,M,YBBN 210730Z 36003KT 9999 FEW030 18/16 Q1018
YBBN,2014-06-21 08:00,153.1292,-27.3917,62.60,60.80,93.83,360.00,4.00,0.00,30.06,M,6.21,M,M,M,M,M,M,M,M,M,M,YBBN 210800Z 36004KT CAVOK 17/16 Q1018
YBBN,2014-06-21 08:30,153.1292,-27.3917,62.60,60.80,93.83,0.00,0.00,0.00,30.09,M,6.21,M,FEW,M,M,M,9800.00,M,M,M,MIFG,YBBN 210830Z 00000KT 9999 MIFG FEW098 17/16 Q1019
YBBN,2014-06-21 09:00,153.1292,-27.3917,64.40,62.60,93.88,0.00,0.00,0.00,30.09,M,6.21,M,FEW,BKN,M,M,4300.00,9800.00,M,M,M,YBBN 210900Z 00000KT 9999 FEW043 BKN098 18/17 Q1019
YBBN,2014-06-21 09:30,153.1292,-27.3917,64.40,62.60,93.88,330.00,3.00,0.00,30.09,M,6.21,M,FEW,SCT,BKN,M,2700.00,7800.00,10000.00,M,M,YBBN 210930Z 33003KT 9999 FEW027 SCT078 BKN100 18/17 Q1019 RMK DIST CB AND +SHRA S/SW LIGHTNING SEEN SW
YBBN,2014-06-21 10:00,153.1292,-27.3917,64.40,62.60,93.88,190.00,5.00,0.00,30.09,M,6.21,M,FEW,SCT,BKN,FEW,1200.00,7800.00,10000.00,2700.00,VCTS,YBBN 211000Z 19005KT 9999 VCTS FEW012 SCT078 BKN100 FEW027CB 18/17 Q1019
YBBN,2014-06-21 10:30,153.1292,-27.3917,66.20,60.80,82.74,230.00,5.00,0.00,30.09,M,6.21,M,FEW,SCT,BKN,FEW,1200.00,2400.00,11000.00,2500.00,VCTS,YBBN 211030Z 23005KT 9999 VCTS FEW012 SCT024 BKN110 FEW025CB 19/16 Q1019 WS RWY19
YBBN,2014-06-21 11:00,153.1292,-27.3917,64.40,59.00,82.62,190.00,4.00,0.00,30.12,M,6.21,M,FEW,SCT,BKN,M,1400.00,1800.00,4800.00,M,VCSH,YBBN 211100Z 19004KT 9999 VCSH FEW014 SCT018 BKN048 18/15 Q1020 NOSIG
YBBN,2014-06-21 11:30,153.1292,-27.3917,64.40,59.00,82.62,190.00,5.00,0.00,30.09,M,6.21,M,FEW,SCT,BKN,M,1400.00,2500.00,9800.00,M,VCSH,YBBN 211130Z 19005KT 9999 VCSH FEW014 SCT025 BKN098 18/15 Q1019 RMK DIST CB AND +SHRA E/SE LIGHTNING SEEN E/SE
YBBN,2014-06-21 12:00,153.1292,-27.3917,64.40,59.00,82.62,190.00,5.00,0.00,30.09,M,6.21,M,FEW,SCT,BKN,M,1400.00,2700.00,9500.00,M,M,YBBN 211200Z 19005KT 9999 FEW014 SCT027 BKN095 18/15 Q1019
YBBN,2014-06-21 12:30,153.1292,-27.3917,62.60,57.20,82.50,190.00,2.00,0.00,30.09,M,6.21,M,FEW,SCT,BKN,FEW,1800.00,2300.00,10000.00,2400.00,VCSH,YBBN 211230Z 19002KT 9999 VCSH FEW018 SCT023 BKN100 FEW024TCU 17/14 Q1019 RMK DIST CB AND LIGHTNING SEEN E/NE
YBBN,2014-06-21 13:00,153.1292,-27.3917,62.60,55.40,77.29,0.00,0.00,0.00,30.09,M,6.21,M,FEW,SCT,BKN,M,1800.00,3800.00,10500.00,M,VCSH,YBBN 211300Z 00000KT 9999 VCSH FEW018 SCT038 BKN105 17/13 Q1019
YBBN,2014-06-21 13:30,153.1292,-27.3917,60.80,55.40,82.37,0.00,0.00,0.00,30.09,M,6.21,M,FEW,SCT,BKN,M,1700.00,2200.00,6800.00,M,M,YBBN 211330Z 00000KT 9999 FEW017 SCT022 BKN068 16/13 Q1019 RMK DIST LIGHTNING SEEN E/SE
YBBN,2014-06-21 14:00,153.1292,-27.3917,60.80,55.40,82.37,200.00,5.00,0.00,30.09,M,6.21,M,FEW,SCT,BKN,M,1400.00,1800.00,2400.00,M,M,YBBN 211400Z 20005KT 9999 FEW014 SCT018 BKN024 16/13 Q1019
YBBN,2014-06-21 14:30,153.1292,-27.3917,60.80,55.40,82.37,210.00,7.00,0.00,30.09,M,6.21,M,FEW,SCT,BKN,FEW,1400.00,2200.00,9500.00,2300.00,VCTS,YBBN 211430Z 21007KT 9999 VCTS FEW014 SCT022 BKN095 FEW023CB 16/13 Q1019 RMK CB AND +SHRA W LIGHTNING SEEN W
YBBN,2014-06-21 15:00,153.1292,-27.3917,60.80,55.40,82.37,240.00,14.00,0.00,30.12,M,5.59,M,FEW,SCT,BKN,FEW,1300.00,2200.00,7400.00,2300.00,SHRA VCTS,YBBN 211500Z 24014KT 9000 SHRA VCTS FEW013 SCT022 BKN074 FEW023CB 16/13 Q1020
YBBN,2014-06-21 15:10,153.1292,-27.3917,62.60,55.40,77.29,230.00,11.00,0.00,30.12,M,3.11,M,FEW,SCT,BKN,FEW,1300.00,2200.00,7600.00,2300.00,SHRA,YBBN 211510Z 23011KT 5000 SHRA FEW013 SCT022 BKN076 FEW023CB 17/13 Q1020
YBBN,2014-06-21 15:23,153.1292,-27.3917,60.80,57.20,87.92,230.00,15.00,0.00,30.09,M,1.86,M,FEW,SCT,BKN,M,1300.00,2200.00,4400.00,M,+SHRA,YBBN 211523Z 23015KT 3000 +SHRA FEW013 SCT022 BKN044 16/14 Q1019
YBBN,2014-06-21 15:30,153.1292,-27.3917,59.00,59.00,100.00,210.00,11.00,0.00,30.09,M,3.11,M,FEW,SCT,BKN,M,1600.00,2300.00,4400.00,M,SHRA,YBBN 211530Z 21011KT 5000 SHRA FEW016 SCT023 BKN044 15/15 Q1019 RESHRA
YBBN,2014-06-21 15:50,153.1292,-27.3917,60.80,59.00,93.79,150.00,6.00,0.00,30.06,M,5.59,M,FEW,SCT,BKN,M,800.00,4800.00,9200.00,M,-SHRA,YBBN 211550Z 15006KT 9000 -SHRA FEW008 SCT048 BKN092 16/15 Q1018 RESHRA
YBBN,2014-06-21 16:00,153.1292,-27.3917,60.80,59.00,93.79,120.00,6.00,0.00,30.09,M,6.21,M,FEW,SCT,BKN,M,700.00,5800.00,9800.00,M,-SHRA,YBBN 211600Z 12006KT 9999 -SHRA FEW007 SCT058 BKN098 16/15 Q1019
YBBN,2014-06-21 16:30,153.1292,-27.3917,59.00,59.00,100.00,210.00,7.00,0.00,30.09,M,6.21,M,FEW,BKN,M,M,700.00,10500.00,M,M,VCSH,YBBN 211630Z 21007KT 9999 VCSH FEW007 BKN105 15/15 Q1019
YBBN,2014-06-21 17:00,153.1292,-27.3917,59.00,59.00,100.00,220.00,3.00,0.00,30.09,M,6.21,M,FEW,SCT,BKN,M,1000.00,7900.00,13000.00,M,M,YBBN 211700Z 22003KT 9999 FEW010 SCT079 BKN130 15/15 Q1019
YBBN,2014-06-21 17:30,153.1292,-27.3917,59.00,57.20,93.74,0.00,0.00,0.00,30.09,M,6.21,M,FEW,SCT,M,M,900.00,11500.00,M,M,MIFG,YBBN 211730Z 00000KT 9999 MIFG FEW009 SCT115 15/14 Q1019
YBBN,2014-06-21 17:45,153.1292,-27.3917,59.00,57.20,93.74,0.00,0.00,0.00,30.09,M,6.21,M,FEW,M,M,M,700.00,M,M,M,BCFG MIFG,YBBN 211745Z 00000KT 9999 BCFG MIFG FEW007 15/14 Q1019 RMK WET BULB DEPRESSION 0.3 DEG
YBBN,2014-06-21 18:00,153.1292,-27.3917,57.20,57.20,100.00,0.00,0.00,0.00,30.09,M,6.21,M,FEW,M,M,M,600.00,M,M,M,BCFG MIFG,YBBN 211800Z 00000KT 9999 BCFG MIFG FEW006 14/14 Q1019
YBBN,2014-06-21 18:12,153.1292,-27.3917,57.20,55.40,93.69,0.00,0.00,0.00,30.09,M,5.59,M,FEW,M,M,M,700.00,M,M,M,BCFG MIFG,YBBN 211812Z 00000KT 9000 BCFG MIFG FEW007 14/13 Q1019
YBBN,2014-06-21 18:27,153.1292,-27.3917,57.20,57.20,100.00,0.00,0.00,0.00,30.09,M,3.73,M,FEW,M,M,M,600.00,M,M,M,PRFG,YBBN 211827Z 00000KT 6000 PRFG FEW006 14/14 Q1019
YBBN,2014-06-21 18:30,153.1292,-27.3917,57.20,57.20,100.00,0.00,0.00,0.00,30.09,M,3.11,M,FEW,M,M,M,600.00,M,M,M,PRFG,YBBN 211830Z 00000KT 5000 PRFG FEW006 14/14 Q1019
YBBN,2014-06-21 18:39,153.1292,-27.3917,57.20,57.20,100.00,0.00,0.00,0.00,30.09,M,0.56,M,M,M,M,M,M,M,M,M,FG,YBBN 211839Z 00000KT 0900 FG 14/14 Q1019
YBBN,2014-06-21 18:52,153.1292,-27.3917,55.40,55.40,100.00,0.00,0.00,0.00,30.09,M,0.87,M,FEW,M,M,M,200.00,M,M,M,PRFG BR,YBBN 211852Z 00000KT 1400 PRFG BR FEW002 13/13 Q1019
YBBN,2014-06-21 19:00,153.1292,-27.3917,57.20,55.40,93.69,0.00,0.00,0.00,30.09,M,3.11,M,FEW,M,M,M,200.00,M,M,M,BCFG BR,YBBN 211900Z 00000KT 5000 BCFG BR FEW002 14/13 Q1019
YBBN,2014-06-21 19:10,153.1292,-27.3917,55.40,55.40,100.00,250.00,4.00,0.00,30.09,M,5.59,M,FEW,M,M,M,300.00,M,M,M,MIFG,YBBN 211910Z 25004KT 9000 MIFG FEW003 13/13 Q1019
YBBN,2014-06-21 19:30,153.1292,-27.3917,55.40,53.60,93.65,220.00,6.00,0.00,30.09,M,5.59,M,FEW,SCT,M,M,700.00,13500.00,M,M,MIFG,YBBN 211930Z 22006KT 9000 MIFG FEW007 SCT135 13/12 Q1019
YBBN,2014-06-21 20:00,153.1292,-27.3917,55.40,55.40,100.00,190.00,4.00,0.00,30.12,M,4.97,M,FEW,M,M,M,600.00,M,M,M,BCFG MIFG,YBBN 212000Z 19004KT 8000 BCFG MIFG FEW006 13/13 Q1020
YBBN,2014-06-21 20:30,153.1292,-27.3917,55.40,55.40,100.00,210.00,5.00,0.00,30.12,M,4.97,M,FEW,M,M,M,800.00,M,M,M,BCFG MIFG,YBBN 212030Z 21005KT 8000 BCFG MIFG FEW008 13/13 Q1020
YBBN,2014-06-21 20:49,153.1292,-27.3917,55.40,55.40,100.00,220.00,6.00,0.00,30.12,M,4.97,M,FEW,M,M,M,1700.00,M,M,M,BCFG MIFG,YBBN 212049Z 22006KT 8000 4000SW BCFG MIFG FEW017 13/13 Q1020
YBBN,2014-06-21 21:00,153.1292,-27.3917,55.40,53.60,93.65,220.00,6.00,0.00,30.12,M,4.97,M,FEW,M,M,M,1700.00,M,M,M,BCFG MIFG,YBBN 212100Z 22006KT 8000 4000SW BCFG MIFG FEW017 13/12 Q1020
YBBN,2014-06-21 21:10,153.1292,-27.3917,55.40,53.60,93.65,230.00,6.00,0.00,30.12,M,4.97,M,FEW,M,M,M,1700.00,M,M,M,MIFG,YBBN 212110Z 23006KT 8000 MIFG FEW017 13/12 Q1020
YBBN,2014-06-21 21:30,153.1292,-27.3917,57.20,57.20,100.00,250.00,7.00,0.00,30.12,M,4.97,M,FEW,M,M,M,1700.00,M,M,M,M,YBBN 212130Z 25007KT 8000 FEW017 14/14 Q1020 RMK MIST
YBBN,2014-06-21 22:00,153.1292,-27.3917,59.00,57.20,93.74,240.00,7.00,0.00,30.12,M,6.21,M,FEW,M,M,M,300.00,M,M,M,M,YBBN 212200Z 24007KT 9999 FEW003 15/14 Q1020 NOSIG
YBBN,2014-06-21 22:30,153.1292,-27.3917,60.80,57.20,87.92,230.00,6.00,0.00,30.12,M,6.21,M,FEW,M,M,M,800.00,M,M,M,M,YBBN 212230Z 23006KT 9999 FEW008 16/14 Q1020
YBBN,2014-06-21 23:00,153.1292,-27.3917,62.60,59.00,88.00,230.00,6.00,0.00,30.15,M,6.21,M,FEW,M,M,M,800.00,M,M,M,M,YBBN 212300Z 23006KT 9999 FEW008 17/15 Q1021 NOSIG
YBBN,2014-06-21 23:30,153.1292,-27.3917,64.40,59.00,82.62,210.00,7.00,0.00,30.15,M,6.21,M,FEW,M,M,M,1800.00,M,M,M,M,YBBN 212330Z 21007KT 9999 FEW018 18/15 Q1021
