#DEBUG: Format Typ    -> comma
#DEBUG: Time Period   -> 2015-11-22 00:00:00+00:00 2015-11-23 00:00:00+00:00
#DEBUG: Time Zone     -> Etc/UTC
#DEBUG: Data Contact   -> daryl herzmann akrherz@iastate.edu 515-294-5978
#DEBUG: Entries Found -> -1
station,valid,lon,lat,tmpf, dwpf, relh, drct, sknt, p01i, alti, mslp, vsby, gust, skyc1, skyc2, skyc3, skyc4, skyl1, skyl2, skyl3, skyl4, presentwx, metar
YBBN,2015-11-22 00:00,153.1292,-27.3917,77.00,68.00,73.78,110.00,10.00,0.00,30.03,M,6.21,M,SCT,BKN,M,M,2200.00,5200.00,M,M,M,YBBN 220000Z 11010KT 080V140 9999 SCT022 BKN052 25/20 Q1017 NOSIG
YBBN,2015-11-22 00:30,153.1292,-27.3917,78.80,68.00,69.52,90.00,9.00,0.00,30.03,M,6.21,M,SCT,BKN,M,M,2000.00,5000.00,M,M,M,YBBN 220030Z 09009KT 9999 SCT020 BKN050 26/20 Q1017 NOSIG
YBBN,2015-11-22 01:00,153.1292,-27.3917,78.80,68.00,69.52,100.00,9.00,0.00,30.03,M,6.21,M,SCT,BKN,M,M,2000.00,5300.00,M,M,M,YBBN 220100Z 10009KT 9999 SCT020 BKN053 26/20 Q1017
YBBN,2015-11-22 01:30,153.1292,-27.3917,78.80,68.00,69.52,90.00,8.00,0.00,30.03,M,6.21,M,SCT,BKN,M,M,2000.00,5500.00,M,M,M,YBBN 220130Z 09008KT 9999 SCT020 BKN055 26/20 Q1017 NOSIG
YBBN,2015-11-22 02:00,153.1292,-27.3917,77.00,68.00,73.78,110.00,8.00,0.00,30.00,M,6.21,M,SCT,BKN,M,M,2300.00,5500.00,M,M,M,YBBN 220200Z 11008KT 9999 SCT023 BKN055 25/20 Q1016 NOSIG
YBBN,2015-11-22 02:30,153.1292,-27.3917,77.00,68.00,73.78,70.00,11.00,0.00,30.00,M,6.21,M,SCT,BKN,M,M,2000.00,5000.00,M,M,M,YBBN 220230Z 07011KT 9999 SCT020 BKN050 25/20 Q1016
YBBN,2015-11-22 03:00,153.1292,-27.3917,77.00,68.00,73.78,60.00,11.00,0.00,30.00,M,6.21,M,SCT,SCT,BKN,M,2000.00,3000.00,5500.00,M,M,YBBN 220300Z 06011KT 9999 SCT020 SCT030 BKN055 25/20 Q1016 NOSIG
YBBN,2015-11-22 03:30,153.1292,-27.3917,77.00,68.00,73.78,70.00,10.00,0.00,30.00,M,6.21,M,SCT,SCT,BKN,M,2000.00,3300.00,5500.00,M,M,YBBN 220330Z 07010KT 9999 SCT020 SCT033 BKN055 25/20 Q1016 NOSIG
YBBN,2015-11-22 04:00,153.1292,-27.3917,77.00,68.00,73.78,80.00,8.00,0.00,29.97,M,6.21,M,FEW,SCT,BKN,M,1700.00,3200.00,5500.00,M,M,YBBN 220400Z 08008KT 9999 FEW017 SCT032 BKN055 25/20 Q1015 NOSIG
YBBN,2015-11-22 04:30,153.1292,-27.3917,77.00,68.00,73.78,90.00,8.00,0.00,29.97,M,6.21,M,FEW,SCT,BKN,M,1000.00,2800.00,3500.00,M,M,YBBN 220430Z 09008KT 9999 FEW010 SCT028 BKN035 25/20 Q1015 NOSIG
YBBN,2015-11-22 05:00,153.1292,-27.3917,75.20,68.00,78.34,90.00,6.00,0.00,29.97,M,6.21,M,FEW,SCT,BKN,M,1000.00,2700.00,3500.00,M,M,YBBN 220500Z 09006KT 9999 FEW010 SCT027 BKN035 24/20 Q1015
YBBN,2015-11-22 05:30,153.1292,-27.3917,75.20,66.20,73.61,90.00,7.00,0.00,29.94,M,6.21,M,FEW,SCT,BKN,M,600.00,2700.00,3800.00,M,VCSH,YBBN 220530Z 09007KT 9999 VCSH FEW006 SCT027 BKN038 24/19 Q1014 NOSIG
YBBN,2015-11-22 06:00,153.1292,-27.3917,73.40,68.00,83.21,90.00,4.00,0.00,29.94,M,6.21,M,FEW,SCT,BKN,M,800.00,2000.00,3000.00,M,DZ,YBBN 220600Z 09004KT 050V110 9999 DZ FEW008 SCT020 BKN030 23/20 Q1014
YBBN,2015-11-22 06:30,153.1292,-27.3917,73.40,69.80,88.51,50.00,7.00,0.00,29.94,M,6.21,M,FEW,SCT,BKN,M,800.00,1800.00,3000.00,M,-DZ,YBBN 220630Z 05007KT 9999 -DZ FEW008 SCT018 BKN030 23/21 Q1014
YBBN,2015-11-22 07:00,153.1292,-27.3917,73.40,69.80,88.51,60.00,9.00,0.00,29.94,M,6.21,M,FEW,SCT,BKN,M,600.00,1800.00,3500.00,M,M,YBBN 220700Z 06009KT 9999 FEW006 SCT018 BKN035 23/21 Q1014 NOSIG
YBBN,2015-11-22 07:30,153.1292,-27.3917,73.40,69.80,88.51,50.00,6.00,0.00,29.94,M,6.21,M,FEW,SCT,BKN,M,1400.00,2000.00,3500.00,M,M,YBBN 220730Z 05006KT 9999 FEW014 SCT020 BKN035 23/21 Q1014 NOSIG
YBBN,2015-11-22 08:00,153.1292,-27.3917,73.40,69.80,88.51,80.00,5.00,0.00,29.97,M,6.21,M,FEW,SCT,BKN,M,1000.00,2400.00,3500.00,M,M,YBBN 220800Z 08005KT 9999 FEW010 SCT024 BKN035 23/21 Q1015
YBBN,2015-11-22 08:30,153.1292,-27.3917,73.40,69.80,88.51,70.00,7.00,0.00,29.97,M,4.97,M,FEW,OVC,M,M,1000.00,2500.00,M,M,-DZ,YBBN 220830Z 07007KT 8000 -DZ FEW010 OVC025 23/21 Q1015
YBBN,2015-11-22 09:00,153.1292,-27.3917,73.40,69.80,88.51,70.00,6.00,0.00,29.97,M,6.21,M,FEW,BKN,OVC,M,1000.00,2700.00,4800.00,M,VCSH,YBBN 220900Z 07006KT 9999 VCSH FEW010 BKN027 OVC048 23/21 Q1015
YBBN,2015-11-22 09:30,153.1292,-27.3917,75.20,69.80,83.32,70.00,7.00,0.00,30.00,M,6.21,M,FEW,SCT,OVC,M,1000.00,3200.00,4800.00,M,M,YBBN 220930Z 07007KT 9999 FEW010 SCT032 OVC048 24/21 Q1016 NOSIG
YBBN,2015-11-22 10:00,153.1292,-27.3917,75.20,69.80,83.32,90.00,4.00,0.00,30.00,M,6.21,M,FEW,OVC,M,M,1000.00,3200.00,M,M,VCSH,YBBN 221000Z 09004KT 9999 VCSH FEW010 OVC032 24/21 Q1016
YBBN,2015-11-22 10:30,153.1292,-27.3917,75.20,69.80,83.32,80.00,4.00,0.00,30.00,M,6.21,M,FEW,BKN,M,M,1000.00,3600.00,M,M,M,YBBN 221030Z 08004KT 9999 FEW010 BKN036 24/21 Q1016
YBBN,2015-11-22 11:00,153.1292,-27.3917,73.40,69.80,88.51,40.00,8.00,0.00,30.00,M,6.21,M,FEW,SCT,BKN,M,1300.00,2000.00,2500.00,M,VCSH,YBBN 221100Z 04008KT 9999 VCSH FEW013 SCT020 BKN025 23/21 Q1016 NOSIG
YBBN,2015-11-22 11:30,153.1292,-27.3917,73.40,69.80,88.51,30.00,5.00,0.00,30.00,M,6.21,M,FEW,SCT,BKN,M,1300.00,2300.00,24000.00,M,M,YBBN 221130Z 03005KT 9999 FEW013 SCT023 BKN240 23/21 Q1016
YBBN,2015-11-22 12:00,153.1292,-27.3917,73.40,69.80,88.51,40.00,6.00,0.00,30.00,M,6.21,M,FEW,OVC,M,M,1300.00,24000.00,M,M,M,YBBN 221200Z 04006KT 9999 FEW013 OVC240 23/21 Q1016
YBBN,2015-11-22 12:30,153.1292,-27.3917,73.40,69.80,88.51,30.00,7.00,0.00,30.00,M,6.21,M,FEW,SCT,OVC,M,1300.00,2000.00,24000.00,M,M,YBBN 221230Z 03007KT 9999 FEW013 SCT020 OVC240 23/21 Q1016 NOSIG
YBBN,2015-11-22 13:00,153.1292,-27.3917,73.40,69.80,88.51,30.00,6.00,0.00,29.97,M,6.21,M,FEW,BKN,M,M,1300.00,24000.00,M,M,M,YBBN 221300Z 03006KT 9999 FEW013 BKN240 23/21 Q1015
YBBN,2015-11-22 13:30,153.1292,-27.3917,73.40,69.80,88.51,40.00,7.00,0.00,29.94,M,6.21,M,FEW,OVC,M,M,1300.00,21500.00,M,M,M,YBBN 221330Z 04007KT 9999 FEW013 OVC215 23/21 Q1014 NOSIG
YBBN,2015-11-22 14:00,153.1292,-27.3917,73.40,69.80,88.51,50.00,7.00,0.00,29.94,M,6.21,M,FEW,BKN,BKN,M,1300.00,14500.00,17000.00,M,M,YBBN 221400Z 05007KT 9999 FEW013 BKN145 BKN170 23/21 Q1014
YBBN,2015-11-22 14:30,153.1292,-27.3917,73.40,69.80,88.51,20.00,8.00,0.00,29.94,M,6.21,M,FEW,SCT,BKN,M,1500.00,2300.00,3600.00,M,M,YBBN 221430Z 02008KT 9999 FEW015 SCT023 BKN036 23/21 Q1014 NOSIG
YBBN,2015-11-22 15:00,153.1292,-27.3917,73.40,69.80,88.51,10.00,9.00,0.00,29.91,M,6.21,M,SCT,SCT,BKN,M,1700.00,2200.00,3400.00,M,M,YBBN 221500Z 01009KT 9999 SCT017 SCT022 BKN034 23/21 Q1013
YBBN,2015-11-22 15:30,153.1292,-27.3917,73.40,68.00,83.21,20.00,12.00,0.00,29.91,M,6.21,M,FEW,BKN,M,M,1700.00,3400.00,M,M,M,YBBN 221530Z 02012KT 9999 FEW017 BKN034 23/20 Q1013 NOSIG
YBBN,2015-11-22 16:00,153.1292,-27.3917,73.40,68.00,83.21,10.00,12.00,0.00,29.91,M,6.21,M,FEW,BKN,M,M,1700.00,3400.00,M,M,M,YBBN 221600Z 01012KT 9999 FEW017 BKN034 23/20 Q1013 NOSIG
YBBN,2015-11-22 16:30,153.1292,-27.3917,75.20,68.00,78.34,10.00,11.00,0.00,29.88,M,6.21,M,SCT,BKN,M,M,2000.00,2800.00,M,M,M,YBBN 221630Z 01011KT 9999 SCT020 BKN028 24/20 Q1012 NOSIG
YBBN,2015-11-22 17:00,153.1292,-27.3917,73.40,68.00,83.21,350.00,12.00,0.00,29.88,M,6.21,M,SCT,BKN,M,M,2000.00,2900.00,M,M,M,YBBN 221700Z 35012KT 9999 SCT020 BKN029 23/20 Q1012 NOSIG
YBBN,2015-11-22 17:30,153.1292,-27.3917,73.40,68.00,83.21,350.00,11.00,0.00,29.88,M,6.21,M,SCT,M,M,M,2900.00,M,M,M,M,YBBN 221730Z 35011KT 9999 SCT029 23/20 Q1012 NOSIG
YBBN,2015-11-22 18:00,153.1292,-27.3917,73.40,68.00,83.21,350.00,9.00,0.00,29.88,M,6.21,M,FEW,SCT,M,M,2000.00,3100.00,M,M,M,YBBN 221800Z 35009KT 9999 FEW020 SCT031 23/20 Q1012
YBBN,2015-11-22 18:30,153.1292,-27.3917,71.60,68.00,88.43,330.00,7.00,0.00,29.91,M,6.21,M,FEW,BKN,BKN,M,2000.00,3100.00,30000.00,M,M,YBBN 221830Z 33007KT 9999 FEW020 BKN031 BKN300 22/20 Q1013
YBBN,2015-11-22 19:00,153.1292,-27.3917,71.60,68.00,88.43,350.00,11.00,0.00,29.91,M,6.21,M,FEW,M,M,M,1800.00,M,M,M,M,YBBN 221900Z 35011KT 9999 FEW018 22/20 Q1013
YBBN,2015-11-22 19:30,153.1292,-27.3917,73.40,66.20,78.19,350.00,13.00,0.00,29.91,M,6.21,M,FEW,M,M,M,1800.00,M,M,M,M,YBBN 221930Z 35013KT 9999 FEW018 23/19 Q1013 NOSIG
YBBN,2015-11-22 20:00,153.1292,-27.3917,75.20,66.20,73.61,360.00,14.00,0.00,29.91,M,6.21,M,FEW,M,M,M,1800.00,M,M,M,M,YBBN 222000Z 36014KT 9999 FEW018 24/19 Q1013 NOSIG
YBBN,2015-11-22 20:30,153.1292,-27.3917,75.20,66.20,73.61,360.00,15.00,0.00,29.94,M,6.21,M,FEW,SCT,M,M,2000.00,3000.00,M,M,M,YBBN 222030Z 36015KT 9999 FEW020 SCT030 24/19 Q1014 NOSIG
YBBN,2015-11-22 21:00,153.1292,-27.3917,77.00,66.20,69.33,360.00,13.00,0.00,29.94,M,6.21,M,FEW,M,M,M,2000.00,M,M,M,M,YBBN 222100Z 36013KT 9999 FEW020 25/19 Q1014 NOSIG
YBBN,2015-11-22 21:30,153.1292,-27.3917,77.00,66.20,69.33,360.00,11.00,0.00,29.94,M,6.21,M,FEW,SCT,M,M,2300.00,23000.00,M,M,M,YBBN 222130Z 36011KT 9999 FEW023 SCT230 25/19 Q1014 NOSIG
YBBN,2015-11-22 22:00,153.1292,-27.3917,78.80,66.20,65.33,360.00,11.00,0.00,29.94,M,6.21,M,FEW,SCT,M,M,2500.00,23000.00,M,M,M,YBBN 222200Z 36011KT 9999 FEW025 SCT230 26/19 Q1014
YBBN,2015-11-22 22:30,153.1292,-27.3917,77.00,66.20,69.33,10.00,11.00,0.00,29.97,M,6.21,M,FEW,M,M,M,2700.00,M,M,M,M,YBBN 222230Z 01011KT 9999 FEW027 25/19 Q1015
YBBN,2015-11-22 23:00,153.1292,-27.3917,78.80,64.40,61.36,10.00,13.00,0.00,29.94,M,6.21,M,FEW,M,M,M,3000.00,M,M,M,M,YBBN 222300Z 01013KT 9999 FEW030 26/18 Q1014
YBBN,2015-11-22 23:30,153.1292,-27.3917,78.80,64.40,61.36,10.00,13.00,0.00,29.94,M,6.21,M,FEW,M,M,M,3200.00,M,M,M,M,YBBN 222330Z 01013KT 9999 FEW032 26/18 Q1014 NOSIG
