#DEBUG: Format Typ    -> comma
#DEBUG: Time Period   -> 2012-12-25 00:00:00+00:00 2012-12-26 00:00:00+00:00
#DEBUG: Time Zone     -> Etc/UTC
#DEBUG: Data Contact   -> daryl herzmann akrherz@iastate.edu 515-294-5978
#DEBUG: Entries Found -> -1
station,valid,lon,lat,tmpf, dwpf, relh, drct, sknt, p01i, alti, mslp, vsby, gust, skyc1, skyc2, skyc3, skyc4, skyl1, skyl2, skyl3, skyl4, presentwx, metar
YBBN,2012-12-25 00:00,153.1292,-27.3917,82.40,64.40,54.55,30.00,10.00,0.00,29.91,M,6.21,M,FEW,SCT,M,M,2800.00,8500.00,M,M,M,YBBN 250000Z 03010KT 9999 FEW028 SCT085 28/18 Q1013
YBBN,2012-12-25 00:30,153.1292,-27.3917,80.60,64.40,57.84,30.00,11.00,0.00,29.91,M,6.21,M,FEW,SCT,M,M,3000.00,8500.00,M,M,M,YBBN 250030Z 03011KT 9999 FEW030 SCT085 27/18 Q1013
YBBN,2012-12-25 01:00,153.1292,-27.3917,82.40,60.80,48.05,30.00,12.00,0.00,29.88,M,6.21,M,FEW,SCT,M,M,3400.00,8500.00,M,M,M,YBBN 250100Z 03012KT 9999 FEW034 SCT085 28/16 Q1012
YBBN,2012-12-25 01:30,153.1292,-27.3917,82.40,60.80,48.05,30.00,12.00,0.00,29.88,M,6.21,M,FEW,M,M,M,3600.00,M,M,M,M,YBBN 250130Z 03012KT 9999 FEW036 28/16 Q1012
YBBN,2012-12-25 02:00,153.1292,-27.3917,84.20,59.00,42.52,30.00,14.00,0.00,29.85,M,6.21,M,FEW,M,M,M,3800.00,M,M,M,M,YBBN 250200Z 03014KT 9999 FEW038 29/15 Q1011 NOSIG
YBBN,2012-12-25 02:30,153.1292,-27.3917,84.20,62.60,48.32,20.00,15.00,0.00,29.83,M,6.21,M,FEW,M,M,M,3800.00,M,M,M,M,YBBN 250230Z 02015KT 9999 FEW038 29/17 Q1010
YBBN,2012-12-25 03:00,153.1292,-27.3917,84.20,62.60,48.32,30.00,15.00,0.00,29.83,M,6.21,M,FEW,M,M,M,4200.00,M,M,M,M,YBBN 250300Z 03015KT 9999 FEW042 29/17 Q1010
YBBN,2012-12-25 03:30,153.1292,-27.3917,84.20,60.80,45.34,30.00,15.00,0.00,29.83,M,6.21,M,FEW,M,M,M,4200.00,M,M,M,M,YBBN 250330Z 03015KT 9999 FEW042 29/16 Q1010
YBBN,2012-12-25 04:00,153.1292,-27.3917,84.20,66.20,54.80,20.00,16.00,0.00,29.80,M,6.21,M,FEW,M,M,M,4200.00,M,M,M,M,YBBN 250400Z 02016KT 9999 FEW042 29/19 Q1009
YBBN,2012-12-25 04:30,153.1292,-27.3917,82.40,64.40,54.55,10.00,17.00,0.00,29.80,M,6.21,M,FEW,M,M,M,4000.00,M,M,M,M,YBBN 250430Z 01017KT 9999 FEW040 28/18 Q1009
YBBN,2012-12-25 05:00,153.1292,-27.3917,82.40,64.40,54.55,10.00,17.00,0.00,29.77,M,6.21,M,FEW,M,M,M,4000.00,M,M,M,M,YBBN 250500Z 01017KT 9999 FEW040 28/18 Q1008
YBBN,2012-12-25 05:30,153.1292,-27.3917,82.40,64.40,54.55,10.00,17.00,0.00,29.77,M,6.21,M,FEW,M,M,M,3800.00,M,M,M,M,YBBN 250530Z 01017KT 9999 FEW038 28/18 Q1008
YBBN,2012-12-25 06:00,153.1292,-27.3917,82.40,64.40,54.55,10.00,18.00,0.00,29.77,M,6.21,M,FEW,M,M,M,3800.00,M,M,M,M,YBBN 250600Z 01018KT 9999 FEW038 28/18 Q1008
YBBN,2012-12-25 06:30,153.1292,-27.3917,80.60,64.40,57.84,10.00,17.00,0.00,29.77,M,6.21,M,FEW,M,M,M,3800.00,M,M,M,M,YBBN 250630Z 01017KT 9999 FEW038 27/18 Q1008 RMK CB TOP TO SW
YBBN,2012-12-25 07:00,153.1292,-27.3917,80.60,62.60,54.30,10.00,17.00,0.00,29.77,M,6.21,M,FEW,M,M,M,3200.00,M,M,M,M,YBBN 250700Z 01017KT 9999 FEW032 27/17 Q1008 NOSIG
YBBN,2012-12-25 07:30,153.1292,-27.3917,78.80,62.60,57.60,10.00,15.00,0.00,29.77,M,6.21,M,FEW,M,M,M,3000.00,M,M,M,M,YBBN 250730Z 01015KT 9999 FEW030 26/17 Q1008 RMK CB TOP TP SW
YBBN,2012-12-25 08:00,153.1292,-27.3917,78.80,62.60,57.60,10.00,14.00,0.00,29.80,M,6.21,M,FEW,SCT,M,M,3000.00,30000.00,M,M,M,YBBN 250800Z 01014KT 9999 FEW030 SCT300 26/17 Q1009 NOSIG
YBBN,2012-12-25 08:30,153.1292,-27.3917,77.00,64.40,65.12,20.00,15.00,0.00,29.80,M,6.21,M,FEW,SCT,M,M,3000.00,30000.00,M,M,M,YBBN 250830Z 02015KT 9999 FEW030 SCT300 25/18 Q1009 RMK CB TOPS TO SW  LIGHTNING SEEN
YBBN,2012-12-25 09:00,153.1292,-27.3917,77.00,64.40,65.12,20.00,14.00,0.00,29.80,M,6.21,M,FEW,SCT,M,M,3000.00,30000.00,M,M,M,YBBN 250900Z 02014KT 9999 FEW030 SCT300 25/18 Q1009
YBBN,2012-12-25 09:30,153.1292,-27.3917,77.00,66.20,69.33,20.00,12.00,0.00,29.83,M,6.21,M,M,M,M,M,M,M,M,M,M,YBBN 250930Z 02012KT CAVOK 25/19 Q1010
YBBN,2012-12-25 10:00,153.1292,-27.3917,77.00,66.20,69.33,20.00,12.00,0.00,29.83,M,6.21,M,FEW,SCT,M,M,2600.00,30000.00,M,M,M,YBBN 251000Z 02012KT 9999 FEW026 SCT300 25/19 Q1010 NOSIG
YBBN,2012-12-25 10:30,153.1292,-27.3917,77.00,66.20,69.33,20.00,13.00,0.00,29.83,M,6.21,M,SCT,M,M,M,2600.00,M,M,M,M,YBBN 251030Z 02013KT 9999 SCT026 25/19 Q1010
YBBN,2012-12-25 11:00,153.1292,-27.3917,77.00,66.20,69.33,20.00,10.00,0.00,29.85,M,6.21,M,SCT,SCT,BKN,M,2600.00,9700.00,16000.00,M,M,YBBN 251100Z 02010KT 9999 SCT026 SCT097 BKN160 25/19 Q1011
YBBN,2012-12-25 11:30,153.1292,-27.3917,77.00,66.20,69.33,10.00,12.00,0.00,29.85,M,6.21,M,SCT,BKN,M,M,2600.00,16000.00,M,M,M,YBBN 251130Z 01012KT 9999 SCT026 BKN160 25/19 Q1011
YBBN,2012-12-25 12:00,153.1292,-27.3917,77.00,66.20,69.33,20.00,12.00,0.00,29.85,M,6.21,M,SCT,BKN,M,M,2500.00,16000.00,M,M,M,YBBN 251200Z 02012KT 9999 SCT025 BKN160 25/19 Q1011
YBBN,2012-12-25 12:30,153.1292,-27.3917,77.00,66.20,69.33,10.00,11.00,0.00,29.85,M,6.21,M,SCT,BKN,M,M,2300.00,3200.00,M,M,M,YBBN 251230Z 01011KT 9999 SCT023 BKN032 25/19 Q1011
YBBN,2012-12-25 13:00,153.1292,-27.3917,77.00,66.20,69.33,10.00,12.00,0.00,29.85,M,6.21,M,SCT,BKN,M,M,2500.00,7200.00,M,M,M,YBBN 251300Z 01012KT 9999 SCT025 BKN072 25/19 Q1011
YBBN,2012-12-25 13:30,153.1292,-27.3917,77.00,66.20,69.33,10.00,10.00,0.00,29.85,M,6.21,M,BKN,BKN,M,M,2500.00,5300.00,M,M,M,YBBN 251330Z 01010KT 9999 BKN025 BKN053 25/19 Q1011
YBBN,2012-12-25 14:00,153.1292,-27.3917,77.00,66.20,69.33,10.00,10.00,0.00,29.85,M,6.21,M,SCT,SCT,BKN,M,2500.00,4100.00,5500.00,M,M,YBBN 251400Z 01010KT 9999 SCT025 SCT041 BKN055 25/19 Q1011 TEMPO 1430/1700 4000 RA BKN012
YBBN,2012-12-25 14:30,153.1292,-27.3917,77.00,66.20,69.33,360.00,9.00,0.00,29.83,M,6.21,M,SCT,SCT,BKN,M,2600.00,4300.00,5500.00,M,M,YBBN 251430Z 36009KT 9999 SCT026 SCT043 BKN055 25/19 Q1010
YBBN,2012-12-25 15:00,153.1292,-27.3917,75.20,66.20,73.61,300.00,6.00,0.00,29.83,M,6.21,M,BKN,BKN,M,M,2600.00,4000.00,M,M,M,YBBN 251500Z 30006KT 9999 BKN026 BKN040 24/19 Q1010
YBBN,2012-12-25 15:30,153.1292,-27.3917,75.20,66.20,73.61,300.00,6.00,0.00,29.83,M,6.21,M,FEW,BKN,M,M,2600.00,4200.00,M,M,-SHRA,YBBN 251530Z 30006KT 9999 -SHRA FEW026 BKN042 24/19 Q1010
YBBN,2012-12-25 16:00,153.1292,-27.3917,75.20,66.20,73.61,320.00,6.00,0.00,29.83,M,6.21,M,FEW,BKN,BKN,M,2600.00,3900.00,5600.00,M,-SHRA,YBBN 251600Z 32006KT 9999 -SHRA FEW026 BKN039 BKN056 24/19 Q1010 INTER 1600/1900 3000 SHRA BKN012
YBBN,2012-12-25 16:30,153.1292,-27.3917,73.40,68.00,83.21,280.00,5.00,0.00,29.83,M,6.21,M,BKN,M,M,M,3900.00,M,M,M,-RA,YBBN 251630Z 28005KT 9999 -RA BKN039 23/20 Q1010
YBBN,2012-12-25 17:00,153.1292,-27.3917,71.60,69.80,94.06,190.00,5.00,0.00,29.80,M,6.21,M,SCT,BKN,M,M,4200.00,4700.00,M,M,M,YBBN 251700Z 19005KT 9999 SCT042 BKN047 22/21 Q1009
YBBN,2012-12-25 17:30,153.1292,-27.3917,71.60,69.80,94.06,210.00,5.00,0.00,29.80,M,6.21,M,SCT,BKN,M,M,3800.00,4700.00,M,M,M,YBBN 251730Z 21005KT 9999 SCT038 BKN047 22/21 Q1009
YBBN,2012-12-25 18:00,153.1292,-27.3917,73.40,69.80,88.51,0.00,0.00,0.00,29.80,M,6.21,M,FEW,BKN,BKN,M,1500.00,4000.00,5900.00,M,M,YBBN 251800Z 00000KT 9999 FEW015 BKN040 BKN059 23/21 Q1009
YBBN,2012-12-25 18:30,153.1292,-27.3917,73.40,68.00,83.21,300.00,5.00,0.00,29.83,M,6.21,M,FEW,BKN,M,M,2500.00,4200.00,M,M,M,YBBN 251830Z 30005KT 9999 FEW025 BKN042 23/20 Q1010
YBBN,2012-12-25 19:00,153.1292,-27.3917,71.60,68.00,88.43,270.00,9.00,0.00,29.83,M,4.97,M,OVC,M,M,M,4400.00,M,M,M,-RA,YBBN 251900Z 27009KT 8000 -RA OVC044 22/20 Q1010
YBBN,2012-12-25 19:30,153.1292,-27.3917,71.60,68.00,88.43,250.00,7.00,0.00,29.85,M,6.21,M,FEW,OVC,M,M,2800.00,4200.00,M,M,VCSH,YBBN 251930Z 25007KT 9999 VCSH FEW028 OVC042 22/20 Q1011
YBBN,2012-12-25 20:00,153.1292,-27.3917,71.60,68.00,88.43,240.00,10.00,0.00,29.85,M,3.11,M,FEW,SCT,BKN,M,2800.00,4200.00,4800.00,M,-RA,YBBN 252000Z 24010KT 5000 -RA FEW028 SCT042 BKN048 22/20 Q1011
YBBN,2012-12-25 20:12,153.1292,-27.3917,69.80,68.00,94.01,240.00,13.00,0.00,29.88,M,1.24,M,FEW,BKN,M,M,2500.00,4800.00,M,M,RA,YBBN 252012Z 24013KT 2000 RA FEW025 BKN048 21/20 Q1012
YBBN,2012-12-25 20:30,153.1292,-27.3917,68.00,66.20,93.97,210.00,13.00,0.00,29.88,M,1.24,M,FEW,SCT,BKN,M,800.00,1400.00,2100.00,M,-RA,YBBN 252030Z 21013KT 2000 -RA FEW008 SCT014 BKN021 20/19 Q1012 RERA
YBBN,2012-12-25 21:00,153.1292,-27.3917,68.00,66.20,93.97,270.00,9.00,0.00,29.88,M,6.21,M,FEW,SCT,BKN,M,400.00,2300.00,4000.00,M,-RA,YBBN 252100Z 27009KT 9999 3000N -RA FEW004 SCT023 BKN040 20/19 Q1012
YBBN,2012-12-25 21:30,153.1292,-27.3917,69.80,66.20,88.34,320.00,6.00,0.00,29.88,M,6.21,M,FEW,SCT,BKN,M,400.00,3600.00,6300.00,M,-RA,YBBN 252130Z 32006KT 9999 -RA FEW004 SCT036 BKN063 21/19 Q1012
YBBN,2012-12-25 22:00,153.1292,-27.3917,69.80,66.20,88.34,0.00,0.00,0.00,29.88,M,6.21,M,FEW,SCT,BKN,M,400.00,3600.00,8000.00,M,-RA,YBBN 252200Z 00000KT 9999 8000N -RA FEW004 SCT036 BKN080 21/19 Q1012 INTER 2200/0100 3000 SHRA BKN010
YBBN,2012-12-25 22:30,153.1292,-27.3917,69.80,66.20,88.34,350.00,5.00,0.00,29.88,M,6.21,M,FEW,SCT,BKN,M,400.00,5000.00,8000.00,M,-RA,YBBN 252230Z 35005KT 9999 -RA FEW004 SCT050 BKN080 21/19 Q1012
YBBN,2012-12-25 23:00,153.1292,-27.3917,69.80,66.20,88.34,350.00,5.00,0.00,29.85,M,6.21,M,FEW,SCT,BKN,M,400.00,5000.00,8000.00,M,-RA,YBBN 252300Z 35005KT 9999 -RA FEW004 SCT050 BKN080 21/19 Q1011 INTER 2300/0200 3000 SHRA BKN010
YBBN,2012-12-25 23:30,153.1292,-27.3917,71.60,68.00,88.43,310.00,7.00,0.00,29.85,M,6.21,M,SCT,SCT,BKN,M,600.00,2600.00,8000.00,M,-RA,YBBN 252330Z 31007KT 9999 -RA SCT006 SCT026 BKN080 22/20 Q1011
YBBN,2012-12-25 23:42,153.1292,-27.3917,71.60,68.00,88.43,290.00,7.00,0.00,29.85,M,6.21,M,BKN,BKN,M,M,600.00,8000.00,M,M,M,YBBN 252342Z 29007KT 9999 BKN006 BKN080 22/20 Q1011
YBBN,2012-12-25 23:57,153.1292,-27.3917,71.60,66.20,83.09,290.00,6.00,0.00,29.85,M,6.21,M,SCT,BKN,M,M,800.00,8000.00,M,M,M,YBBN 252357Z 29006KT 9999 SCT008 BKN080 22/19 Q1011 FM0015 36008KT 9999 -SHRA SCT030 BKN090 INTER 2357/0257 3000 SHRA BKN010
