#DEBUG: Format Typ    -> comma
#DEBUG: Time Period   -> 2016-02-14 00:00:00+00:00 2016-02-15 00:00:00+00:00
#DEBUG: Time Zone     -> Etc/UTC
#DEBUG: Data Contact   -> daryl herzmann akrherz@iastate.edu 515-294-5978
#DEBUG: Entries Found -> -1
station,valid,lon,lat,tmpf, dwpf, relh, drct, sknt, p01i, alti, mslp, vsby, gust, skyc1, skyc2, skyc3, skyc4, skyl1, skyl2, skyl3, skyl4, presentwx, metar
YBBN,2016-02-14 00:00,153.1292,-27.3917,84.20,64.40,51.47,120.00,11.00,0.00,29.77,M,6.21,M,FEW,M,M,M,3700.00,M,M,M,M,YBBN 140000Z 12011KT 9999 FEW037 29/18 Q1008 NOSIG
YBBN,2016-02-14 00:30,153.1292,-27.3917,84.20,64.40,51.47,120.00,13.00,0.00,29.77,M,6.21,M,FEW,M,M,M,3700.00,M,M,M,M,YBBN 140030Z 12013KT 9999 FEW037 29/18 Q1008 NOSIG
YBBN,2016-02-14 01:00,153.1292,-27.3917,84.20,64.40,51.47,110.00,13.00,0.00,29.74,M,6.21,M,FEW,M,M,M,3700.00,M,M,M,M,YBBN 140100Z 11013KT 9999 FEW037 29/18 Q1007
YBBN,2016-02-14 01:30,153.1292,-27.3917,86.00,64.40,48.58,110.00,11.00,0.00,29.74,M,6.21,M,FEW,M,M,M,3700.00,M,M,M,M,YBBN 140130Z 11011KT 9999 FEW037 30/18 Q1007 NOSIG
YBBN,2016-02-14 02:00,153.1292,-27.3917,84.20,66.20,54.80,110.00,12.00,0.00,29.74,M,6.21,M,FEW,M,M,M,3700.00,M,M,M,M,YBBN 140200Z 11012KT 9999 FEW037 29/19 Q1007 NOSIG
YBBN,2016-02-14 02:30,153.1292,-27.3917,86.00,66.20,51.72,100.00,15.00,0.00,29.71,M,6.21,M,FEW,M,M,M,4000.00,M,M,M,M,YBBN 140230Z 10015KT 9999 FEW040 30/19 Q1006 NOSIG
YBBN,2016-02-14 03:00,153.1292,-27.3917,84.20,66.20,54.80,110.00,15.00,0.00,29.71,M,6.21,M,FEW,M,M,M,4200.00,M,M,M,M,YBBN 140300Z 11015KT 9999 FEW042 29/19 Q1006
YBBN,2016-02-14 03:30,153.1292,-27.3917,84.20,66.20,54.80,100.00,12.00,0.00,29.71,M,6.21,M,FEW,M,M,M,4200.00,M,M,M,M,YBBN 140330Z 10012KT 9999 FEW042 29/19 Q1006 NOSIG
YBBN,2016-02-14 04:00,153.1292,-27.3917,84.20,68.00,58.32,110.00,16.00,0.00,29.71,M,6.21,M,FEW,M,M,M,4500.00,M,M,M,M,YBBN 140400Z 11016KT 9999 FEW045 29/20 Q1006 NOSIG
YBBN,2016-02-14 04:30,153.1292,-27.3917,82.40,66.20,58.08,110.00,13.00,0.00,29.71,M,6.21,23.00,FEW,M,M,M,4200.00,M,M,M,M,YBBN 140430Z 11013G23KT 9999 FEW042 28/19 Q1006 NOSIG
YBBN,2016-02-14 05:00,153.1292,-27.3917,84.20,66.20,54.80,110.00,13.00,0.00,29.71,M,6.21,M,FEW,M,M,M,2500.00,M,M,M,M,YBBN 140500Z 11013KT 9999 FEW025 29/19 Q1006 NOSIG
YBBN,2016-02-14 05:30,153.1292,-27.3917,82.40,66.20,58.08,120.00,12.00,0.00,29.71,M,6.21,M,FEW,M,M,M,2500.00,M,M,M,M,YBBN 140530Z 12012KT 9999 FEW025 28/19 Q1006 NOSIG
YBBN,2016-02-14 06:00,153.1292,-27.3917,82.40,68.00,61.81,110.00,12.00,0.00,29.71,M,6.21,M,FEW,M,M,M,2500.00,M,M,M,M,YBBN 140600Z 11012KT 9999 FEW025 28/20 Q1006
YBBN,2016-02-14 06:30,153.1292,-27.3917,82.40,68.00,61.81,110.00,13.00,0.00,29.71,M,6.21,M,FEW,M,M,M,3500.00,M,M,M,M,YBBN 140630Z 11013KT 9999 FEW035 28/20 Q1006 NOSIG
YBBN,2016-02-14 07:00,153.1292,-27.3917,80.60,68.00,65.54,110.00,13.00,0.00,29.71,M,6.21,M,FEW,M,M,M,3500.00,M,M,M,M,YBBN 140700Z 11013KT 9999 FEW035 27/20 Q1006 NOSIG
YBBN,2016-02-14 07:30,153.1292,-27.3917,80.60,68.00,65.54,120.00,12.00,0.00,29.71,M,6.21,M,FEW,M,M,M,3000.00,M,M,M,M,YBBN 140730Z 12012KT 9999 FEW030 27/20 Q1006 NOSIG
YBBN,2016-02-14 08:00,153.1292,-27.3917,78.80,69.80,73.95,110.00,11.00,0.00,29.74,M,6.21,M,FEW,M,M,M,3000.00,M,M,M,M,YBBN 140800Z 11011KT 9999 FEW030 26/21 Q1007
YBBN,2016-02-14 08:30,153.1292,-27.3917,78.80,69.80,73.95,120.00,8.00,0.00,29.74,M,6.21,M,FEW,M,M,M,3000.00,M,M,M,M,YBBN 140830Z 12008KT 9999 FEW030 26/21 Q1007 NOSIG
YBBN,2016-02-14 09:00,153.1292,-27.3917,78.80,69.80,73.95,140.00,8.00,0.00,29.77,M,6.21,M,FEW,M,M,M,2800.00,M,M,M,M,YBBN 140900Z 14008KT 9999 FEW028 26/21 Q1008 NOSIG
YBBN,2016-02-14 09:30,153.1292,-27.3917,77.00,69.80,78.48,140.00,7.00,0.00,29.77,M,6.21,M,M,M,M,M,M,M,M,M,M,YBBN 140930Z 14007KT CAVOK 25/21 Q1008
YBBN,2016-02-14 10:00,153.1292,-27.3917,77.00,69.80,78.48,150.00,6.00,0.00,29.77,M,6.21,M,M,M,M,M,M,M,M,M,M,YBBN 141000Z 15006KT CAVOK 25/21 Q1008 NOSIG
YBBN,2016-02-14 10:30,153.1292,-27.3917,77.00,69.80,78.48,150.00,6.00,0.00,29.77,M,6.21,M,M,M,M,M,M,M,M,M,M,YBBN 141030Z 15006KT CAVOK 25/21 Q1008 NOSIG
YBBN,2016-02-14 11:00,153.1292,-27.3917,75.20,69.80,83.32,140.00,6.00,0.00,29.80,M,6.21,M,M,M,M,M,M,M,M,M,M,YBBN 141100Z 14006KT CAVOK 24/21 Q1009 NOSIG
YBBN,2016-02-14 11:30,153.1292,-27.3917,75.20,69.80,83.32,200.00,4.00,0.00,29.80,M,6.21,M,M,M,M,M,M,M,M,M,M,YBBN 141130Z 20004KT 150V220 CAVOK 24/21 Q1009 NOSIG
YBBN,2016-02-14 12:00,153.1292,-27.3917,73.40,69.80,88.51,180.00,4.00,0.00,29.80,M,6.21,M,FEW,M,M,M,2000.00,M,M,M,M,YBBN 141200Z 18004KT 140V210 9999 FEW020 23/21 Q1009 NOSIG
YBBN,2016-02-14 12:30,153.1292,-27.3917,73.40,69.80,88.51,190.00,2.00,0.00,29.80,M,6.21,M,M,M,M,M,M,M,M,M,M,YBBN 141230Z 19002KT CAVOK 23/21 Q1009 NOSIG
YBBN,2016-02-14 13:00,153.1292,-27.3917,73.40,69.80,88.51,190.00,4.00,0.00,29.80,M,6.21,M,M,M,M,M,M,M,M,M,M,YBBN 141300Z 19004KT CAVOK 23/21 Q1009
YBBN,2016-02-14 13:30,153.1292,-27.3917,75.20,69.80,83.32,150.00,6.00,0.00,29.80,M,6.21,M,M,M,M,M,M,M,M,M,M,YBBN 141330Z 15006KT CAVOK 24/21 Q1009 NOSIG
YBBN,2016-02-14 14:00,153.1292,-27.3917,73.40,69.80,88.51,180.00,6.00,0.00,29.77,M,6.21,M,M,M,M,M,M,M,M,M,M,YBBN 141400Z 18006KT CAVOK 23/21 Q1008
YBBN,2016-02-14 14:30,153.1292,-27.3917,73.40,68.00,83.21,200.00,6.00,0.00,29.77,M,6.21,M,M,M,M,M,M,M,M,M,M,YBBN 141430Z 20006KT CAVOK 23/20 Q1008 NOSIG
YBBN,2016-02-14 15:00,153.1292,-27.3917,73.40,68.00,83.21,190.00,6.00,0.00,29.77,M,6.21,M,M,M,M,M,M,M,M,M,M,YBBN 141500Z 19006KT CAVOK 23/20 Q1008
YBBN,2016-02-14 15:30,153.1292,-27.3917,73.40,68.00,83.21,190.00,6.00,0.00,29.77,M,6.21,M,FEW,M,M,M,2300.00,M,M,M,M,YBBN 141530Z 19006KT 9999 FEW023 23/20 Q1008 NOSIG
YBBN,2016-02-14 16:00,153.1292,-27.3917,73.40,68.00,83.21,190.00,5.00,0.00,29.74,M,6.21,M,M,M,M,M,M,M,M,M,M,YBBN 141600Z 19005KT CAVOK 23/20 Q1007
YBBN,2016-02-14 16:30,153.1292,-27.3917,69.80,66.20,88.34,210.00,7.00,0.00,29.74,M,6.21,M,M,M,M,M,M,M,M,M,M,YBBN 141630Z 21007KT CAVOK 21/19 Q1007 NOSIG
YBBN,2016-02-14 17:00,153.1292,-27.3917,69.80,66.20,88.34,210.00,6.00,0.00,29.74,M,6.21,M,M,M,M,M,M,M,M,M,M,YBBN 141700Z 21006KT CAVOK 21/19 Q1007
YBBN,2016-02-14 17:30,153.1292,-27.3917,71.60,68.00,88.43,210.00,7.00,0.00,29.74,M,6.21,M,M,M,M,M,M,M,M,M,M,YBBN 141730Z 21007KT CAVOK 22/20 Q1007 NOSIG
YBBN,2016-02-14 18:00,153.1292,-27.3917,71.60,66.20,83.09,200.00,8.00,0.00,29.77,M,6.21,M,M,M,M,M,M,M,M,M,M,YBBN 141800Z 20008KT CAVOK 22/19 Q1008 NOSIG
YBBN,2016-02-14 18:30,153.1292,-27.3917,71.60,66.20,83.09,200.00,8.00,0.00,29.77,M,6.21,M,M,M,M,M,M,M,M,M,M,YBBN 141830Z 20008KT CAVOK 22/19 Q1008 NOSIG
YBBN,2016-02-14 19:00,153.1292,-27.3917,69.80,66.20,88.34,200.00,8.00,0.00,29.77,M,6.21,M,FEW,M,M,M,2000.00,M,M,M,M,YBBN 141900Z 20008KT 9999 FEW020 21/19 Q1008
YBBN,2016-02-14 19:30,153.1292,-27.3917,69.80,66.20,88.34,210.00,7.00,0.00,29.77,M,6.21,M,FEW,M,M,M,2000.00,M,M,M,M,YBBN 141930Z 21007KT 9999 FEW020 21/19 Q1008 NOSIG
YBBN,2016-02-14 20:00,153.1292,-27.3917,69.80,66.20,88.34,200.00,8.00,0.00,29.77,M,6.21,M,FEW,M,M,M,2000.00,M,M,M,M,YBBN 142000Z 20008KT 9999 FEW020 21/19 Q1008
YBBN,2016-02-14 20:30,153.1292,-27.3917,71.60,68.00,88.43,200.00,8.00,0.00,29.80,M,6.21,M,FEW,M,M,M,2000.00,M,M,M,M,YBBN 142030Z 20008KT 9999 FEW020 22/20 Q1009 NOSIG
YBBN,2016-02-14 21:00,153.1292,-27.3917,73.40,66.20,78.19,200.00,9.00,0.00,29.80,M,6.21,M,FEW,M,M,M,2000.00,M,M,M,M,YBBN 142100Z 20009KT 9999 FEW020 23/19 Q1009 NOSIG
YBBN,2016-02-14 21:30,153.1292,-27.3917,75.20,66.20,73.61,210.00,10.00,0.00,29.80,M,6.21,M,FEW,M,M,M,2000.00,M,M,M,M,YBBN 142130Z 21010KT 9999 FEW020 24/19 Q1009 NOSIG
YBBN,2016-02-14 22:00,153.1292,-27.3917,77.00,66.20,69.33,200.00,10.00,0.00,29.80,M,6.21,M,FEW,M,M,M,2200.00,M,M,M,M,YBBN 142200Z 20010KT 9999 FEW022 25/19 Q1009
YBBN,2016-02-14 22:30,153.1292,-27.3917,80.60,66.20,61.58,190.00,9.00,0.00,29.83,M,6.21,M,FEW,M,M,M,2500.00,M,M,M,M,YBBN 142230Z 19009KT 9999 FEW025 27/19 Q1010 NOSIG
YBBN,2016-02-14 23:00,153.1292,-27.3917,82.40,66.20,58.08,170.00,10.00,0.00,29.83,M,6.21,M,FEW,M,M,M,3000.00,M,M,M,M,YBBN 142300Z 17010KT 9999 FEW030 28/19 Q1010 NOSIG
YBBN,2016-02-14 23:30,153.1292,-27.3917,82.40,66.20,58.08,170.00,8.00,0.00,29.83,M,6.21,M,FEW,M,M,M,3200.00,M,M,M,M,YBBN 142330Z 17008KT 130V200 9999 FEW032 28/19 Q1010
