#DEBUG: Format Typ    -> comma
#DEBUG: Time Period   -> 2015-10-02 00:00:00+00:00 2015-10-03 00:00:00+00:00
#DEBUG: Time Zone     -> Etc/UTC
#DEBUG: Data Contact   -> daryl herzmann akrherz@iastate.edu 515-294-5978
#DEBUG: Entries Found -> -1
station,valid,lon,lat,tmpf, dwpf, relh, drct, sknt, p01i, alti, mslp, vsby, gust, skyc1, skyc2, skyc3, skyc4, skyl1, skyl2, skyl3, skyl4, presentwx, metar
YBBN,2015-10-02 00:00,153.1292,-27.3917,75.20,53.60,46.98,220.00,5.00,0.00,30.45,M,6.21,M,FEW,M,M,M,3000.00,M,M,M,M,YBBN 020000Z 22005KT 210V270 9999 FEW030 24/12 Q1031
YBBN,2015-10-02 00:30,153.1292,-27.3917,77.00,50.00,38.74,230.00,3.00,0.00,30.42,M,6.21,M,FEW,M,M,M,3500.00,M,M,M,M,YBBN 020030Z 23003KT 9999 FEW035 25/10 Q1030
YBBN,2015-10-02 01:00,153.1292,-27.3917,78.80,46.40,31.90,130.00,4.00,0.00,30.42,M,6.21,M,FEW,M,M,M,3500.00,M,M,M,M,YBBN 020100Z 13004KT 040V170 9999 FEW035 26/08 Q1030
YBBN,2015-10-02 01:30,153.1292,-27.3917,80.60,44.60,28.08,80.00,5.00,0.00,30.42,M,6.21,M,FEW,M,M,M,3500.00,M,M,M,M,YBBN 020130Z 08005KT 030V180 9999 FEW035 27/07 Q1030
YBBN,2015-10-02 02:00,153.1292,-27.3917,80.60,41.00,24.46,100.00,7.00,0.00,30.39,M,6.21,M,FEW,M,M,M,3500.00,M,M,M,M,YBBN 020200Z 10007KT 060V140 9999 FEW035 27/05 Q1029
YBBN,2015-10-02 02:30,153.1292,-27.3917,80.60,42.80,26.22,130.00,7.00,0.00,30.39,M,6.21,M,FEW,M,M,M,4000.00,M,M,M,M,YBBN 020230Z 13007KT 100V170 9999 FEW040 27/06 Q1029
YBBN,2015-10-02 03:00,153.1292,-27.3917,78.80,44.60,29.79,110.00,7.00,0.00,30.39,M,6.21,M,FEW,M,M,M,4000.00,M,M,M,M,YBBN 020300Z 11007KT 9999 FEW040 26/07 Q1029 NOSIG
YBBN,2015-10-02 03:30,153.1292,-27.3917,80.60,41.00,24.46,130.00,7.00,0.00,30.39,M,6.21,M,FEW,M,M,M,4000.00,M,M,M,M,YBBN 020330Z 13007KT 9999 FEW040 27/05 Q1029
YBBN,2015-10-02 04:00,153.1292,-27.3917,80.60,41.00,24.46,90.00,6.00,0.00,30.36,M,6.21,M,FEW,M,M,M,4000.00,M,M,M,M,YBBN 020400Z 09006KT 070V130 9999 FEW040 27/05 Q1028
YBBN,2015-10-02 04:30,153.1292,-27.3917,80.60,41.00,24.46,130.00,6.00,0.00,30.36,M,6.21,M,FEW,M,M,M,4500.00,M,M,M,M,YBBN 020430Z 13006KT 9999 FEW045 27/05 Q1028
YBBN,2015-10-02 05:00,153.1292,-27.3917,80.60,42.80,26.22,90.00,6.00,0.00,30.36,M,6.21,M,M,M,M,M,M,M,M,M,M,YBBN 020500Z 09006KT CAVOK 27/06 Q1028
YBBN,2015-10-02 05:30,153.1292,-27.3917,78.80,44.60,29.79,80.00,6.00,0.00,30.36,M,6.21,M,M,M,M,M,M,M,M,M,M,YBBN 020530Z 08006KT 050V110 CAVOK 26/07 Q1028
YBBN,2015-10-02 06:00,153.1292,-27.3917,78.80,50.00,36.51,50.00,9.00,0.00,30.39,M,6.21,M,M,M,M,M,M,M,M,M,M,YBBN 020600Z 05009KT CAVOK 26/10 Q1029 RMK DIST SMOKE W/SW
YBBN,2015-10-02 06:30,153.1292,-27.3917,77.00,50.00,38.74,50.00,9.00,0.00,30.39,M,6.21,M,M,M,M,M,M,M,M,M,M,YBBN 020630Z 05009KT CAVOK 25/10 Q1029 RMK DIST SMOKE WEST
YBBN,2015-10-02 07:00,153.1292,-27.3917,75.20,48.20,38.46,50.00,7.00,0.00,30.39,M,6.21,M,M,M,M,M,M,M,M,M,M,YBBN 020700Z 05007KT CAVOK 24/09 Q1029
YBBN,2015-10-02 07:30,153.1292,-27.3917,73.40,48.20,40.85,80.00,7.00,0.00,30.39,M,6.21,M,M,M,M,M,M,M,M,M,M,YBBN 020730Z 08007KT CAVOK 23/09 Q1029 RMK DIST SMOKE W/SW
YBBN,2015-10-02 08:00,153.1292,-27.3917,71.60,51.80,49.64,80.00,6.00,0.00,30.42,M,6.21,M,M,M,M,M,M,M,M,M,M,YBBN 020800Z 08006KT CAVOK 22/11 Q1030
YBBN,2015-10-02 08:30,153.1292,-27.3917,69.80,57.20,64.26,130.00,1.00,0.00,30.42,M,6.21,M,M,M,M,M,M,M,M,M,M,YBBN 020830Z 13001KT CAVOK 21/14 Q1030 RMK SMOKE PLUMES TO W/SW
YBBN,2015-10-02 09:00,153.1292,-27.3917,69.80,59.00,68.55,110.00,3.00,0.00,30.42,M,6.21,M,M,M,M,M,M,M,M,M,M,YBBN 020900Z 11003KT CAVOK 21/15 Q1030
YBBN,2015-10-02 09:30,153.1292,-27.3917,69.80,59.00,68.55,100.00,2.00,0.00,30.45,M,6.21,M,M,M,M,M,M,M,M,M,M,YBBN 020930Z 10002KT CAVOK 21/15 Q1031
YBBN,2015-10-02 10:00,153.1292,-27.3917,68.00,59.00,72.92,110.00,1.00,0.00,30.45,M,6.21,M,M,M,M,M,M,M,M,M,M,YBBN 021000Z 11001KT CAVOK 20/15 Q1031
YBBN,2015-10-02 10:30,153.1292,-27.3917,66.20,59.00,77.60,0.00,0.00,0.00,30.45,M,6.21,M,M,M,M,M,M,M,M,M,M,YBBN 021030Z 00000KT CAVOK 19/15 Q1031
YBBN,2015-10-02 11:00,153.1292,-27.3917,64.40,60.80,88.09,0.00,0.00,0.00,30.45,M,6.21,M,NSC,M,M,M,M,M,M,M,MIFG,YBBN 021100Z 00000KT 9999 MIFG NSC 18/16 Q1031
YBBN,2015-10-02 11:30,153.1292,-27.3917,64.40,60.80,88.09,0.00,0.00,0.00,30.47,M,6.21,M,NSC,M,M,M,M,M,M,M,MIFG,YBBN 021130Z 00000KT 9999 MIFG NSC 18/16 Q1032
YBBN,2015-10-02 12:00,153.1292,-27.3917,62.60,59.00,88.00,170.00,2.00,0.00,30.47,M,6.21,M,NSC,M,M,M,M,M,M,M,MIFG,YBBN 021200Z 17002KT 9999 MIFG NSC 17/15 Q1032
YBBN,2015-10-02 12:30,153.1292,-27.3917,64.40,57.20,77.45,190.00,5.00,0.00,30.47,M,6.21,M,M,M,M,M,M,M,M,M,M,YBBN 021230Z 19005KT CAVOK 18/14 Q1032
YBBN,2015-10-02 13:00,153.1292,-27.3917,62.60,57.20,82.50,190.00,6.00,0.00,30.47,M,6.21,M,M,M,M,M,M,M,M,M,M,YBBN 021300Z 19006KT CAVOK 17/14 Q1032
YBBN,2015-10-02 13:30,153.1292,-27.3917,62.60,57.20,82.50,190.00,5.00,0.00,30.47,M,6.21,M,M,M,M,M,M,M,M,M,M,YBBN 021330Z 19005KT CAVOK 17/14 Q1032
YBBN,2015-10-02 14:00,153.1292,-27.3917,64.40,57.20,77.45,190.00,4.00,0.00,30.47,M,6.21,M,M,M,M,M,M,M,M,M,M,YBBN 021400Z 19004KT CAVOK 18/14 Q1032
YBBN,2015-10-02 14:30,153.1292,-27.3917,64.40,57.20,77.45,180.00,5.00,0.00,30.47,M,6.21,M,M,M,M,M,M,M,M,M,M,YBBN 021430Z 18005KT CAVOK 18/14 Q1032
YBBN,2015-10-02 15:00,153.1292,-27.3917,64.40,55.40,72.56,190.00,5.00,0.00,30.45,M,6.21,M,M,M,M,M,M,M,M,M,M,YBBN 021500Z 19005KT CAVOK 18/13 Q1031
YBBN,2015-10-02 15:30,153.1292,-27.3917,62.60,53.60,72.38,200.00,5.00,0.00,30.45,M,6.21,M,M,M,M,M,M,M,M,M,M,YBBN 021530Z 20005KT CAVOK 17/12 Q1031
YBBN,2015-10-02 16:00,153.1292,-27.3917,60.80,53.60,77.14,200.00,5.00,0.00,30.45,M,6.21,M,M,M,M,M,M,M,M,M,M,YBBN 021600Z 20005KT CAVOK 16/12 Q1031
YBBN,2015-10-02 16:30,153.1292,-27.3917,60.80,53.60,77.14,210.00,6.00,0.00,30.45,M,6.21,M,M,M,M,M,M,M,M,M,M,YBBN 021630Z 21006KT CAVOK 16/12 Q1031
YBBN,2015-10-02 17:00,153.1292,-27.3917,60.80,53.60,77.14,200.00,7.00,0.00,30.45,M,6.21,M,M,M,M,M,M,M,M,M,M,YBBN 021700Z 20007KT CAVOK 16/12 Q1031 NOSIG
YBBN,2015-10-02 17:30,153.1292,-27.3917,60.80,53.60,77.14,210.00,6.00,0.00,30.45,M,6.21,M,M,M,M,M,M,M,M,M,M,YBBN 021730Z 21006KT CAVOK 16/12 Q1031
YBBN,2015-10-02 18:00,153.1292,-27.3917,60.80,53.60,77.14,200.00,8.00,0.00,30.45,M,6.21,M,FEW,M,M,M,2000.00,M,M,M,M,YBBN 021800Z 20008KT 9999 FEW020 16/12 Q1031
YBBN,2015-10-02 18:30,153.1292,-27.3917,60.80,53.60,77.14,210.00,8.00,0.00,30.45,M,6.21,M,FEW,M,M,M,2000.00,M,M,M,M,YBBN 021830Z 21008KT 9999 FEW020 16/12 Q1031
YBBN,2015-10-02 19:00,153.1292,-27.3917,60.80,53.60,77.14,200.00,7.00,0.00,30.45,M,6.21,M,FEW,M,M,M,2000.00,M,M,M,M,YBBN 021900Z 20007KT 9999 FEW020 16/12 Q1031 NOSIG
YBBN,2015-10-02 19:30,153.1292,-27.3917,60.80,53.60,77.14,200.00,8.00,0.00,30.47,M,6.21,M,FEW,M,M,M,2000.00,M,M,M,M,YBBN 021930Z 20008KT 9999 FEW020 16/12 Q1032
YBBN,2015-10-02 20:00,153.1292,-27.3917,62.60,55.40,77.29,210.00,7.00,0.00,30.47,M,6.21,M,FEW,M,M,M,2000.00,M,M,M,M,YBBN 022000Z 21007KT 9999 FEW020 17/13 Q1032
YBBN,2015-10-02 20:30,153.1292,-27.3917,62.60,55.40,77.29,200.00,7.00,0.00,30.47,M,6.21,M,FEW,M,M,M,2300.00,M,M,M,M,YBBN 022030Z 20007KT 9999 FEW023 17/13 Q1032
YBBN,2015-10-02 21:00,153.1292,-27.3917,66.20,57.20,72.74,210.00,8.00,0.00,30.47,M,6.21,M,FEW,M,M,M,2400.00,M,M,M,M,YBBN 022100Z 21008KT 9999 FEW024 19/14 Q1032
YBBN,2015-10-02 21:30,153.1292,-27.3917,68.00,59.00,72.92,200.00,7.00,0.00,30.47,M,6.21,M,FEW,M,M,M,2400.00,M,M,M,M,YBBN 022130Z 20007KT 9999 FEW024 20/15 Q1032
YBBN,2015-10-02 22:00,153.1292,-27.3917,71.60,59.00,64.48,180.00,7.00,0.00,30.47,M,6.21,M,FEW,M,M,M,2600.00,M,M,M,M,YBBN 022200Z 18007KT 9999 FEW026 22/15 Q1032
YBBN,2015-10-02 22:30,153.1292,-27.3917,73.40,59.00,60.67,140.00,7.00,0.00,30.47,M,6.21,M,FEW,M,M,M,2500.00,M,M,M,M,YBBN 022230Z 14007KT 110V170 9999 FEW025 23/15 Q1032
YBBN,2015-10-02 23:00,153.1292,-27.3917,73.40,57.20,56.88,120.00,9.00,0.00,30.47,M,6.21,M,FEW,M,M,M,2700.00,M,M,M,M,YBBN 022300Z 12009KT 9999 FEW027 23/14 Q1032
YBBN,2015-10-02 23:30,153.1292,-27.3917,73.40,57.20,56.88,130.00,9.00,0.00,30.47,M,6.21,M,FEW,M,M,M,2700.00,M,M,M,M,YBBN 022330Z 13009KT 9999 FEW027 23/14 Q1032
