#DEBUG: Format Typ    -> comma
#DEBUG: Time Period   -> 2016-01-31 00:00:00+00:00 2016-02-01 00:00:00+00:00
#DEBUG: Time Zone     -> Etc/UTC
#DEBUG: Data Contact   -> daryl herzmann akrherz@iastate.edu 515-294-5978
#DEBUG: Entries Found -> -1
station,valid,lon,lat,tmpf, dwpf, relh, drct, sknt, p01i, alti, mslp, vsby, gust, skyc1, skyc2, skyc3, skyc4, skyl1, skyl2, skyl3, skyl4, presentwx, metar
YBBN,2016-01-31 00:00,153.1292,-27.3917,82.40,73.40,74.28,360.00,10.00,0.00,29.83,M,6.21,M,FEW,SCT,M,M,2100.00,10000.00,M,M,M,YBBN 310000Z 36010KT 9999 FEW021 SCT100 28/23 Q1010
YBBN,2016-01-31 00:30,153.1292,-27.3917,84.20,75.20,74.44,360.00,13.00,0.00,29.83,M,6.21,M,FEW,SCT,M,M,2200.00,10000.00,M,M,M,YBBN 310030Z 36013KT 9999 FEW022 SCT100 29/24 Q1010 NOSIG
YBBN,2016-01-31 01:00,153.1292,-27.3917,84.20,75.20,74.44,360.00,13.00,0.00,29.80,M,6.21,M,FEW,SCT,M,M,2200.00,9500.00,M,M,M,YBBN 310100Z 36013KT 9999 FEW022 SCT095 29/24 Q1009
YBBN,2016-01-31 01:30,153.1292,-27.3917,84.20,75.20,74.44,10.00,17.00,0.00,29.80,M,6.21,M,FEW,BKN,M,M,2200.00,16500.00,M,M,M,YBBN 310130Z 01017KT 9999 FEW022 BKN165 29/24 Q1009 NOSIG
YBBN,2016-01-31 02:00,153.1292,-27.3917,84.20,75.20,74.44,10.00,17.00,0.00,29.80,M,6.21,M,FEW,SCT,BKN,M,2300.00,12000.00,16500.00,M,M,YBBN 310200Z 01017KT 9999 FEW023 SCT120 BKN165 29/24 Q1009 NOSIG
YBBN,2016-01-31 02:30,153.1292,-27.3917,82.40,75.20,78.90,10.00,17.00,0.00,29.77,M,6.21,M,FEW,SCT,M,M,2200.00,12000.00,M,M,M,YBBN 310230Z 01017KT 9999 FEW022 SCT120 28/24 Q1008 NOSIG
YBBN,2016-01-31 03:00,153.1292,-27.3917,84.20,75.20,74.44,10.00,17.00,0.00,29.77,M,6.21,M,FEW,SCT,M,M,2300.00,12000.00,M,M,M,YBBN 310300Z 01017KT 9999 FEW023 SCT120 29/24 Q1008
YBBN,2016-01-31 03:30,153.1292,-27.3917,82.40,75.20,78.90,10.00,18.00,0.00,29.74,M,6.21,M,FEW,SCT,M,M,2200.00,12000.00,M,M,M,YBBN 310330Z 01018KT 9999 FEW022 SCT120 28/24 Q1007 NOSIG
YBBN,2016-01-31 04:00,153.1292,-27.3917,86.00,77.00,74.61,10.00,17.00,0.00,29.74,M,6.21,M,FEW,M,M,M,2300.00,M,M,M,M,YBBN 310400Z 01017KT 9999 FEW023 30/25 Q1007
YBBN,2016-01-31 05:00,153.1292,-27.3917,84.20,73.40,70.08,10.00,18.00,0.00,29.71,M,6.21,M,FEW,SCT,M,M,1700.00,35000.00,M,M,M,YBBN 310500Z 01018KT 9999 FEW017 SCT350 29/23 Q1006
YBBN,2016-01-31 07:00,153.1292,-27.3917,84.20,73.40,70.08,360.00,17.00,0.00,29.71,M,6.21,M,FEW,BKN,M,M,2000.00,35000.00,M,M,M,YBBN 310700Z 36017KT 9999 FEW020CB BKN350 29/23 Q1006
YBBN,2016-01-31 08:00,153.1292,-27.3917,80.60,73.40,78.76,20.00,13.00,0.00,29.71,M,6.21,M,FEW,BKN,M,M,2200.00,35000.00,M,M,M,YBBN 310800Z 02013KT 9999 FEW022 BKN350 27/23 Q1006
YBBN,2016-01-31 08:30,153.1292,-27.3917,80.60,75.20,83.66,10.00,14.00,0.00,29.74,M,6.21,M,FEW,SCT,BKN,M,2200.00,14000.00,35000.00,M,M,YBBN 310830Z 01014KT 9999 FEW022 SCT140 BKN350 27/24 Q1007 NOSIG
YBBN,2016-01-31 09:00,153.1292,-27.3917,80.60,75.20,83.66,10.00,11.00,0.00,29.74,M,6.21,M,FEW,BKN,M,M,2000.00,30000.00,M,M,M,YBBN 310900Z 01011KT 9999 FEW020 BKN300 27/24 Q1007 NOSIG
YBBN,2016-01-31 09:30,153.1292,-27.3917,80.60,73.40,78.76,360.00,12.00,0.00,29.71,M,6.21,M,FEW,BKN,M,M,2000.00,30000.00,M,M,M,YBBN 310930Z 36012KT 9999 FEW020 BKN300 27/23 Q1006
YBBN,2016-01-31 10:00,153.1292,-27.3917,80.60,75.20,83.66,360.00,11.00,0.00,29.71,M,6.21,M,FEW,SCT,M,M,2000.00,30000.00,M,M,M,YBBN 311000Z 36011KT 9999 FEW020 SCT300 27/24 Q1006 NOSIG
YBBN,2016-01-31 10:30,153.1292,-27.3917,80.60,75.20,83.66,360.00,11.00,0.00,29.74,M,6.21,M,FEW,SCT,M,M,2000.00,30000.00,M,M,M,YBBN 311030Z 36011KT 9999 FEW020 SCT300 27/24 Q1007 NOSIG
YBBN,2016-01-31 11:00,153.1292,-27.3917,78.80,75.20,88.75,20.00,10.00,0.00,29.74,M,6.21,M,M,M,M,M,M,M,M,M,M,YBBN 311100Z 02010KT CAVOK 26/24 Q1007
YBBN,2016-01-31 11:30,153.1292,-27.3917,78.80,77.00,94.23,20.00,12.00,0.00,29.74,M,6.21,M,M,M,M,M,M,M,M,M,M,YBBN 311130Z 02012KT CAVOK 26/25 Q1007 NOSIG
YBBN,2016-01-31 12:00,153.1292,-27.3917,78.80,77.00,94.23,10.00,15.00,0.00,29.74,M,6.21,M,FEW,M,M,M,2500.00,M,M,M,M,YBBN 311200Z 01015KT 9999 FEW025 26/25 Q1007
YBBN,2016-01-31 12:30,153.1292,-27.3917,78.80,75.20,88.75,10.00,15.00,0.00,29.74,M,6.21,M,FEW,M,M,M,2500.00,M,M,M,M,YBBN 311230Z 01015KT 9999 FEW025 26/24 Q1007 NOSIG
YBBN,2016-01-31 13:00,153.1292,-27.3917,78.80,75.20,88.75,10.00,15.00,0.00,29.74,M,6.21,M,FEW,M,M,M,2500.00,M,M,M,M,YBBN 311300Z 01015KT 9999 FEW025 26/24 Q1007
YBBN,2016-01-31 13:30,153.1292,-27.3917,78.80,75.20,88.75,360.00,14.00,0.00,29.74,M,6.21,M,FEW,M,M,M,2000.00,M,M,M,M,YBBN 311330Z 36014KT 9999 FEW020 26/24 Q1007
YBBN,2016-01-31 14:00,153.1292,-27.3917,78.80,73.40,83.55,360.00,15.00,0.00,29.74,M,6.21,M,FEW,SCT,M,M,2000.00,30000.00,M,M,M,YBBN 311400Z 36015KT 9999 FEW020 SCT300 26/23 Q1007
YBBN,2016-01-31 14:30,153.1292,-27.3917,78.80,75.20,88.75,360.00,13.00,0.00,29.71,M,6.21,M,FEW,SCT,M,M,2000.00,30000.00,M,M,M,YBBN 311430Z 36013KT 9999 FEW020 SCT300 26/24 Q1006 NOSIG
YBBN,2016-01-31 15:00,153.1292,-27.3917,77.00,73.40,88.67,360.00,13.00,0.00,29.71,M,6.21,M,FEW,SCT,M,M,2000.00,30000.00,M,M,M,YBBN 311500Z 36013KT 9999 FEW020 SCT300 25/23 Q1006
YBBN,2016-01-31 15:30,153.1292,-27.3917,77.00,73.40,88.67,360.00,12.00,0.00,29.71,M,6.21,M,FEW,SCT,M,M,2000.00,26000.00,M,M,M,YBBN 311530Z 36012KT 9999 FEW020 SCT260 25/23 Q1006
YBBN,2016-01-31 16:00,153.1292,-27.3917,77.00,73.40,88.67,360.00,14.00,0.00,29.71,M,6.21,M,FEW,SCT,M,M,2000.00,26000.00,M,M,M,YBBN 311600Z 36014KT 9999 FEW020 SCT260 25/23 Q1006
YBBN,2016-01-31 16:30,153.1292,-27.3917,77.00,75.20,94.19,360.00,13.00,0.00,29.71,M,6.21,M,FEW,SCT,M,M,2000.00,26000.00,M,M,M,YBBN 311630Z 36013KT 9999 FEW020 SCT260 25/24 Q1006 NOSIG
YBBN,2016-01-31 17:00,153.1292,-27.3917,77.00,73.40,88.67,360.00,15.00,0.00,29.71,M,6.21,M,FEW,SCT,M,M,1000.00,26000.00,M,M,M,YBBN 311700Z 36015KT 9999 FEW010 SCT260 25/23 Q1006 NOSIG
YBBN,2016-01-31 17:30,153.1292,-27.3917,77.00,73.40,88.67,360.00,14.00,0.00,29.71,M,6.21,M,FEW,SCT,M,M,1000.00,26000.00,M,M,M,YBBN 311730Z 36014KT 9999 FEW010 SCT260 25/23 Q1006 NOSIG
YBBN,2016-01-31 18:00,153.1292,-27.3917,77.00,73.40,88.67,360.00,11.00,0.00,29.71,M,6.21,M,FEW,BKN,M,M,2000.00,26000.00,M,M,M,YBBN 311800Z 36011KT 9999 FEW020 BKN260 25/23 Q1006 NOSIG
YBBN,2016-01-31 18:30,153.1292,-27.3917,77.00,73.40,88.67,360.00,15.00,0.00,29.74,M,6.21,M,FEW,BKN,M,M,2500.00,26000.00,M,M,M,YBBN 311830Z 36015KT 9999 FEW025 BKN260 25/23 Q1007 NOSIG
YBBN,2016-01-31 19:00,153.1292,-27.3917,77.00,73.40,88.67,350.00,10.00,0.00,29.74,M,6.21,M,FEW,BKN,M,M,1000.00,26000.00,M,M,M,YBBN 311900Z 35010KT 9999 FEW010 BKN260 25/23 Q1007
YBBN,2016-01-31 19:30,153.1292,-27.3917,77.00,73.40,88.67,360.00,11.00,0.00,29.74,M,6.21,M,FEW,BKN,M,M,1000.00,26000.00,M,M,M,YBBN 311930Z 36011KT 9999 FEW010 BKN260 25/23 Q1007 NOSIG
YBBN,2016-01-31 20:00,153.1292,-27.3917,77.00,73.40,88.67,350.00,13.00,0.00,29.77,M,6.21,M,FEW,BKN,M,M,1000.00,26000.00,M,M,M,YBBN 312000Z 35013KT 9999 FEW010 BKN260 25/23 Q1008
YBBN,2016-01-31 20:30,153.1292,-27.3917,78.80,75.20,88.75,330.00,10.00,0.00,29.77,M,6.21,M,FEW,SCT,BKN,M,1000.00,11000.00,26000.00,M,M,YBBN 312030Z 33010KT 9999 FEW010 SCT110 BKN260 26/24 Q1008 NOSIG
YBBN,2016-01-31 21:00,153.1292,-27.3917,78.80,73.40,83.55,330.00,8.00,0.00,29.77,M,6.21,M,FEW,BKN,BKN,M,1200.00,3200.00,26000.00,M,M,YBBN 312100Z 33008KT 9999 FEW012 BKN032 BKN260 26/23 Q1008
YBBN,2016-01-31 21:30,153.1292,-27.3917,78.80,75.20,88.75,340.00,8.00,0.00,29.77,M,6.21,M,FEW,SCT,BKN,M,2200.00,3000.00,12000.00,M,M,YBBN 312130Z 34008KT 9999 FEW022 SCT030 BKN120 26/24 Q1008 NOSIG
YBBN,2016-01-31 22:00,153.1292,-27.3917,80.60,75.20,83.66,360.00,12.00,0.00,29.77,M,6.21,M,FEW,SCT,BKN,M,2200.00,3000.00,26000.00,M,VCSH,YBBN 312200Z 36012KT 9999 VCSH FEW022 SCT030 BKN260 27/24 Q1008 NOSIG
YBBN,2016-01-31 22:30,153.1292,-27.3917,80.60,75.20,83.66,360.00,12.00,0.00,29.77,M,6.21,M,FEW,SCT,BKN,M,1500.00,14000.00,26000.00,M,M,YBBN 312230Z 36012KT 9999 FEW015 SCT140 BKN260 27/24 Q1008 NOSIG
YBBN,2016-01-31 23:00,153.1292,-27.3917,82.40,75.20,78.90,360.00,12.00,0.00,29.77,M,6.21,M,FEW,BKN,M,M,1800.00,26000.00,M,M,M,YBBN 312300Z 36012KT 9999 FEW018 BKN260 28/24 Q1008 NOSIG
YBBN,2016-01-31 23:30,153.1292,-27.3917,82.40,75.20,78.90,360.00,11.00,0.00,29.77,M,6.21,M,FEW,BKN,M,M,2600.00,26000.00,M,M,M,YBBN 312330Z 36011KT 9999 FEW026 BKN260 28/24 Q1008 NOSIG
