#DEBUG: Format Typ    -> comma
#DEBUG: Time Period   -> 2013-10-11 00:00:00+00:00 2013-10-12 00:00:00+00:00
#DEBUG: Time Zone     -> Etc/UTC
#DEBUG: Data Contact   -> daryl herzmann akrherz@iastate.edu 515-294-5978
#DEBUG: Entries Found -> -1
station,valid,lon,lat,tmpf, dwpf, relh, drct, sknt, p01i, alti, mslp, vsby, gust, skyc1, skyc2, skyc3, skyc4, skyl1, skyl2, skyl3, skyl4, presentwx, metar
YBBN,2013-10-11 00:00,153.1292,-27.3917,77.00,55.40,47.25,10.00,13.00,0.00,29.88,M,6.21,M,M,M,M,M,M,M,M,M,M,YBBN 110000Z 01013KT CAVOK 25/13 Q1012 NOSIG
YBBN,2013-10-11 00:30,153.1292,-27.3917,77.00,55.40,47.25,20.00,12.00,0.00,29.85,M,6.21,M,M,M,M,M,M,M,M,M,M,YBBN 110030Z 02012KT CAVOK 25/13 Q1011
YBBN,2013-10-11 01:00,153.1292,-27.3917,80.60,59.00,47.79,10.00,17.00,0.00,29.85,M,6.21,M,M,M,M,M,M,M,M,M,M,YBBN 110100Z 01017KT CAVOK 27/15 Q1011 NOSIG
YBBN,2013-10-11 01:30,153.1292,-27.3917,80.60,59.00,47.79,20.00,18.00,0.00,29.83,M,6.21,M,M,M,M,M,M,M,M,M,M,YBBN 110130Z 02018KT CAVOK 27/15 Q1010
YBBN,2013-10-11 02:00,153.1292,-27.3917,80.60,60.80,50.95,30.00,16.00,0.00,29.83,M,6.21,M,M,M,M,M,M,M,M,M,M,YBBN 110200Z 03016KT CAVOK 27/16 Q1010 RMK HZ
YBBN,2013-10-11 02:30,153.1292,-27.3917,80.60,62.60,54.30,40.00,14.00,0.00,29.83,M,6.21,M,M,M,M,M,M,M,M,M,M,YBBN 110230Z 04014KT CAVOK 27/17 Q1010
YBBN,2013-10-11 03:00,153.1292,-27.3917,80.60,62.60,54.30,40.00,15.00,0.00,29.83,M,6.21,M,M,M,M,M,M,M,M,M,M,YBBN 110300Z 04015KT CAVOK 27/17 Q1010 NOSIG
YBBN,2013-10-11 03:30,153.1292,-27.3917,82.40,62.60,51.21,30.00,14.00,0.00,29.80,M,6.21,M,M,M,M,M,M,M,M,M,M,YBBN 110330Z 03014KT CAVOK 28/17 Q1009
YBBN,2013-10-11 04:00,153.1292,-27.3917,80.60,64.40,57.84,30.00,15.00,0.00,29.80,M,6.21,M,M,M,M,M,M,M,M,M,M,YBBN 110400Z 03015KT CAVOK 27/18 Q1009 RMK HZ
YBBN,2013-10-11 04:30,153.1292,-27.3917,80.60,64.40,57.84,30.00,15.00,0.00,29.80,M,6.21,M,M,M,M,M,M,M,M,M,M,YBBN 110430Z 03015KT CAVOK 27/18 Q1009 RMK HZ
YBBN,2013-10-11 05:00,153.1292,-27.3917,78.80,66.20,65.33,30.00,17.00,0.00,29.80,M,6.21,M,M,M,M,M,M,M,M,M,M,YBBN 110500Z 03017KT CAVOK 26/19 Q1009
YBBN,2013-10-11 05:30,153.1292,-27.3917,78.80,66.20,65.33,30.00,15.00,0.00,29.80,M,6.21,M,M,M,M,M,M,M,M,M,M,YBBN 110530Z 03015KT CAVOK 26/19 Q1009 RMK HZ
YBBN,2013-10-11 06:00,153.1292,-27.3917,78.80,66.20,65.33,90.00,8.00,0.00,29.80,M,6.21,M,M,M,M,M,M,M,M,M,M,YBBN 110600Z 09008KT CAVOK 26/19 Q1009 RMK HZ
YBBN,2013-10-11 06:30,153.1292,-27.3917,77.00,66.20,69.33,60.00,7.00,0.00,29.83,M,6.21,M,M,M,M,M,M,M,M,M,M,YBBN 110630Z 06007KT CAVOK 25/19 Q1010 RMK HZ
YBBN,2013-10-11 07:00,153.1292,-27.3917,77.00,66.20,69.33,60.00,9.00,0.00,29.83,M,6.21,M,M,M,M,M,M,M,M,M,M,YBBN 110700Z 06009KT CAVOK 25/19 Q1010 FM0700 09012KT CAVOK
YBBN,2013-10-11 07:30,153.1292,-27.3917,75.20,68.00,78.34,110.00,5.00,0.00,29.85,M,6.21,M,M,M,M,M,M,M,M,M,M,YBBN 110730Z 11005KT CAVOK 24/20 Q1011 RMK HZ
YBBN,2013-10-11 08:00,153.1292,-27.3917,73.40,68.00,83.21,130.00,3.00,0.00,29.85,M,6.21,M,M,M,M,M,M,M,M,M,M,YBBN 110800Z 13003KT CAVOK 23/20 Q1011 NOSIG
YBBN,2013-10-11 08:30,153.1292,-27.3917,73.40,68.00,83.21,120.00,5.00,0.00,29.88,M,6.21,M,M,M,M,M,M,M,M,M,M,YBBN 110830Z 12005KT CAVOK 23/20 Q1012
YBBN,2013-10-11 09:00,153.1292,-27.3917,73.40,66.20,78.19,110.00,7.00,0.00,29.88,M,6.21,M,FEW,M,M,M,2500.00,M,M,M,M,YBBN 110900Z 11007KT 9999 FEW025 23/19 Q1012
YBBN,2013-10-11 09:30,153.1292,-27.3917,73.40,66.20,78.19,120.00,10.00,0.00,29.91,M,6.21,M,M,M,M,M,M,M,M,M,M,YBBN 110930Z 12010KT CAVOK 23/19 Q1013
YBBN,2013-10-11 10:00,153.1292,-27.3917,73.40,62.60,68.94,120.00,11.00,0.00,29.91,M,6.21,M,M,M,M,M,M,M,M,M,M,YBBN 111000Z 12011KT CAVOK 23/17 Q1013
YBBN,2013-10-11 10:30,153.1292,-27.3917,73.40,66.20,78.19,130.00,13.00,0.00,29.94,M,6.21,M,FEW,M,M,M,1500.00,M,M,M,M,YBBN 111030Z 13013KT 9999 FEW015 23/19 Q1014 RMK HAZE
YBBN,2013-10-11 11:00,153.1292,-27.3917,73.40,68.00,83.21,130.00,12.00,0.00,29.97,M,4.97,22.00,FEW,M,M,M,1200.00,M,M,M,M,YBBN 111100Z 13012G22KT 8000 FEW012 23/20 Q1015
YBBN,2013-10-11 11:30,153.1292,-27.3917,71.60,66.20,83.09,140.00,12.00,0.00,29.97,M,5.59,M,FEW,M,M,M,1200.00,M,M,M,M,YBBN 111130Z 14012KT 9000 FEW012 22/19 Q1015 RMK HAZE
YBBN,2013-10-11 12:00,153.1292,-27.3917,71.60,66.20,83.09,140.00,11.00,0.00,29.97,M,5.59,M,FEW,M,M,M,1400.00,M,M,M,M,YBBN 111200Z 14011KT 9000 FEW014 22/19 Q1015 RMK HAZE
YBBN,2013-10-11 12:30,153.1292,-27.3917,71.60,66.20,83.09,130.00,9.00,0.00,29.97,M,5.59,M,FEW,M,M,M,1400.00,M,M,M,M,YBBN 111230Z 13009KT 9000 FEW014 22/19 Q1015 RMK HAZE
YBBN,2013-10-11 13:00,153.1292,-27.3917,71.60,66.20,83.09,130.00,13.00,0.00,30.00,M,5.59,M,BKN,M,M,M,1400.00,M,M,M,M,YBBN 111300Z 13013KT 9000 BKN014 22/19 Q1016
YBBN,2013-10-11 13:30,153.1292,-27.3917,71.60,64.40,78.04,130.00,11.00,0.00,30.00,M,6.21,M,FEW,M,M,M,1400.00,M,M,M,M,YBBN 111330Z 13011KT 9999 FEW014 22/18 Q1016
YBBN,2013-10-11 14:00,153.1292,-27.3917,71.60,64.40,78.04,140.00,9.00,0.00,30.00,M,6.21,M,FEW,M,M,M,1400.00,M,M,M,M,YBBN 111400Z 14009KT 9999 FEW014 22/18 Q1016 TEMPO 1630/1700 4000 DZ BKN015
YBBN,2013-10-11 14:30,153.1292,-27.3917,69.80,64.40,82.98,130.00,9.00,0.00,29.97,M,6.21,M,SCT,M,M,M,1600.00,M,M,M,M,YBBN 111430Z 13009KT 9999 SCT016 21/18 Q1015 RMK HAZE
YBBN,2013-10-11 15:00,153.1292,-27.3917,69.80,64.40,82.98,140.00,10.00,0.00,29.97,M,6.21,M,FEW,SCT,M,M,1600.00,2300.00,M,M,M,YBBN 111500Z 14010KT 9999 FEW016 SCT023 21/18 Q1015 TEMPO 1630/1800 4000 DZ BKN015
YBBN,2013-10-11 15:30,153.1292,-27.3917,69.80,64.40,82.98,140.00,9.00,0.00,29.97,M,6.21,M,BKN,BKN,M,M,1400.00,2000.00,M,M,M,YBBN 111530Z 14009KT 9999 BKN014 BKN020 21/18 Q1015
YBBN,2013-10-11 16:00,153.1292,-27.3917,71.60,64.40,78.04,120.00,9.00,0.00,29.97,M,6.21,M,BKN,BKN,M,M,1400.00,2300.00,M,M,M,YBBN 111600Z 12009KT 9999 BKN014 BKN023 22/18 Q1015
YBBN,2013-10-11 16:20,153.1292,-27.3917,69.80,64.40,82.98,120.00,9.00,0.00,29.97,M,6.21,M,FEW,SCT,BKN,M,1400.00,2300.00,2800.00,M,M,YBBN 111620Z 12009KT 9999 FEW014 SCT023 BKN028 21/18 Q1015
YBBN,2013-10-11 16:30,153.1292,-27.3917,71.60,64.40,78.04,120.00,9.00,0.00,29.97,M,6.21,M,FEW,BKN,M,M,1400.00,2800.00,M,M,M,YBBN 111630Z 12009KT 9999 FEW014 BKN028 22/18 Q1015 RMK HAZE
YBBN,2013-10-11 17:00,153.1292,-27.3917,71.60,64.40,78.04,110.00,8.00,0.00,29.97,M,6.21,M,FEW,BKN,M,M,1600.00,2600.00,M,M,M,YBBN 111700Z 11008KT 9999 FEW016 BKN026 22/18 Q1015
YBBN,2013-10-11 17:30,153.1292,-27.3917,71.60,64.40,78.04,120.00,7.00,0.00,29.97,M,6.21,M,FEW,SCT,BKN,M,1600.00,2600.00,4000.00,M,M,YBBN 111730Z 12007KT 9999 FEW016 SCT026 BKN040 22/18 Q1015 RMK HAZE
YBBN,2013-10-11 18:00,153.1292,-27.3917,71.60,64.40,78.04,110.00,8.00,0.00,29.97,M,6.21,M,FEW,BKN,M,M,1400.00,4000.00,M,M,M,YBBN 111800Z 11008KT 9999 FEW014 BKN040 22/18 Q1015
YBBN,2013-10-11 18:30,153.1292,-27.3917,71.60,64.40,78.04,110.00,8.00,0.00,29.97,M,6.21,M,FEW,BKN,M,M,1400.00,4000.00,M,M,M,YBBN 111830Z 11008KT 9999 FEW014 BKN040 22/18 Q1015 RMK HAZE
YBBN,2013-10-11 19:00,153.1292,-27.3917,71.60,64.40,78.04,110.00,6.00,0.00,30.00,M,6.21,M,FEW,BKN,M,M,1600.00,4000.00,M,M,M,YBBN 111900Z 11006KT 9999 FEW016 BKN040 22/18 Q1016 TEMPO 1900/2200 BKN015
YBBN,2013-10-11 19:30,153.1292,-27.3917,71.60,64.40,78.04,100.00,8.00,0.00,30.00,M,6.21,M,FEW,SCT,BKN,M,1600.00,2800.00,4100.00,M,M,YBBN 111930Z 10008KT 9999 FEW016 SCT028 BKN041 22/18 Q1016 RMK HAZE
YBBN,2013-10-11 20:00,153.1292,-27.3917,71.60,66.20,83.09,110.00,7.00,0.00,30.00,M,6.21,M,FEW,SCT,BKN,M,1600.00,2500.00,4000.00,M,M,YBBN 112000Z 11007KT 9999 FEW016 SCT025 BKN040 22/19 Q1016 RMK HAZE
YBBN,2013-10-11 20:30,153.1292,-27.3917,71.60,66.20,83.09,100.00,7.00,0.00,30.03,M,6.21,M,FEW,SCT,BKN,M,1600.00,2500.00,4400.00,M,M,YBBN 112030Z 10007KT 9999 FEW016 SCT025 BKN044 22/19 Q1017 RMK HZ
YBBN,2013-10-11 21:00,153.1292,-27.3917,71.60,66.20,83.09,100.00,7.00,0.00,30.03,M,6.21,M,SCT,SCT,BKN,M,1400.00,2500.00,4300.00,M,M,YBBN 112100Z 10007KT 9999 SCT014 SCT025 BKN043 22/19 Q1017 TEMPO 2100/2300 BKN015
YBBN,2013-10-11 21:30,153.1292,-27.3917,71.60,66.20,83.09,90.00,7.00,0.00,30.03,M,6.21,M,FEW,SCT,BKN,M,1200.00,2000.00,4300.00,M,M,YBBN 112130Z 09007KT 9999 FEW012 SCT020 BKN043 22/19 Q1017 RMK HZ
YBBN,2013-10-11 22:00,153.1292,-27.3917,73.40,66.20,78.19,90.00,8.00,0.00,30.06,M,6.21,M,SCT,SCT,BKN,M,1300.00,2000.00,4300.00,M,M,YBBN 112200Z 09008KT 9999 SCT013 SCT020 BKN043 23/19 Q1018 TEMPO 2200/2300 BKN015
YBBN,2013-10-11 22:30,153.1292,-27.3917,75.20,68.00,78.34,80.00,10.00,0.00,30.06,M,6.21,M,SCT,SCT,BKN,M,1200.00,2500.00,4300.00,M,M,YBBN 112230Z 08010KT 9999 SCT012 SCT025 BKN043 24/20 Q1018 RMK HZ
YBBN,2013-10-11 23:00,153.1292,-27.3917,75.20,68.00,78.34,90.00,10.00,0.00,30.06,M,6.21,M,FEW,SCT,BKN,M,1200.00,2800.00,4600.00,M,M,YBBN 112300Z 09010KT 9999 FEW012 SCT028 BKN046 24/20 Q1018 NOSIG
YBBN,2013-10-11 23:30,153.1292,-27.3917,77.00,68.00,73.78,80.00,8.00,0.00,30.06,M,6.21,M,FEW,BKN,M,M,1200.00,4600.00,M,M,M,YBBN 112330Z 08008KT 9999 FEW012 BKN046 25/20 Q1018 RMK HZ
