#DEBUG: Format Typ    -> comma
#DEBUG: Time Period   -> 2012-11-10 00:00:00+00:00 2012-11-11 00:00:00+00:00
#DEBUG: Time Zone     -> Etc/UTC
#DEBUG: Data Contact   -> daryl herzmann akrherz@iastate.edu 515-294-5978
#DEBUG: Entries Found -> -1
station,valid,lon,lat,tmpf, dwpf, relh, drct, sknt, p01i, alti, mslp, vsby, gust, skyc1, skyc2, skyc3, skyc4, skyl1, skyl2, skyl3, skyl4, presentwx, metar
YBBN,2012-11-10 00:00,153.1292,-27.3917,71.60,68.00,88.43,310.00,6.00,0.00,30.03,M,4.35,M,FEW,SCT,BKN,M,900.00,2000.00,3600.00,M,-RA,YBBN 100000Z 31006KT 7000 -RA FEW009 SCT020 BKN036 22/20 Q1017
YBBN,2012-11-10 00:10,153.1292,-27.3917,68.00,64.40,88.26,310.00,5.00,0.00,30.03,M,3.11,M,SCT,SCT,BKN,M,900.00,1800.00,3600.00,M,-RA,YBBN 100010Z 31005KT 5000 -RA SCT009 SCT018 BKN036 20/18 Q1017
YBBN,2012-11-10 00:30,153.1292,-27.3917,66.20,64.40,93.92,200.00,7.00,0.00,30.03,M,2.17,M,SCT,BKN,BKN,M,900.00,1100.00,1800.00,M,-RA,YBBN 100030Z 20007KT 3500 -RA SCT009 BKN011 BKN018 19/18 Q1017
YBBN,2012-11-10 00:36,153.1292,-27.3917,66.20,64.40,93.92,190.00,8.00,0.00,30.03,M,1.24,M,SCT,BKN,OVC,M,900.00,1600.00,2600.00,M,RA,YBBN 100036Z 19008KT 2000 RA SCT009 BKN016 OVC026 19/18 Q1017
YBBN,2012-11-10 01:00,153.1292,-27.3917,66.20,64.40,93.92,200.00,8.00,0.00,30.03,M,3.73,M,FEW,SCT,OVC,M,600.00,1600.00,3500.00,M,-RA,YBBN 100100Z 20008KT 6000 -RA FEW006 SCT016 OVC035 19/18 Q1017
YBBN,2012-11-10 01:30,153.1292,-27.3917,66.20,64.40,93.92,190.00,7.00,0.00,30.00,M,4.97,M,FEW,BKN,BKN,M,1500.00,4000.00,5500.00,M,-RA,YBBN 100130Z 19007KT 8000 -RA FEW015 BKN040 BKN055 19/18 Q1016
YBBN,2012-11-10 02:00,153.1292,-27.3917,68.00,66.20,93.97,200.00,8.00,0.00,30.00,M,4.97,M,FEW,SCT,OVC,M,800.00,5400.00,8000.00,M,-RA,YBBN 100200Z 20008KT 8000 -RA FEW008 SCT054 OVC080 20/19 Q1016
YBBN,2012-11-10 02:30,153.1292,-27.3917,68.00,64.40,88.26,190.00,7.00,0.00,30.00,M,4.97,M,FEW,BKN,OVC,M,800.00,4000.00,6000.00,M,-RA,YBBN 100230Z 19007KT 8000 -RA FEW008 BKN040 OVC060 20/18 Q1016
YBBN,2012-11-10 03:00,153.1292,-27.3917,68.00,66.20,93.97,190.00,7.00,0.00,29.97,M,6.21,M,FEW,SCT,OVC,M,800.00,6000.00,7500.00,M,-RA,YBBN 100300Z 19007KT 9999 -RA FEW008 SCT060 OVC075 20/19 Q1015 TEMPO 0300/0600 2000 RA BKN005 BKN010
YBBN,2012-11-10 03:30,153.1292,-27.3917,69.80,66.20,88.34,190.00,5.00,0.00,29.97,M,6.21,M,FEW,SCT,OVC,M,1200.00,5700.00,7300.00,M,-RA,YBBN 100330Z 19005KT 9999 -RA FEW012 SCT057 OVC073 21/19 Q1015
YBBN,2012-11-10 04:00,153.1292,-27.3917,68.00,62.60,82.86,150.00,7.00,0.00,29.97,M,6.21,M,FEW,BKN,BKN,M,1100.00,2200.00,7500.00,M,-RA,YBBN 100400Z 15007KT 9999 -RA FEW011 BKN022 BKN075 20/17 Q1015
YBBN,2012-11-10 04:30,153.1292,-27.3917,68.00,64.40,88.26,170.00,6.00,0.00,29.97,M,6.21,M,FEW,OVC,M,M,1100.00,7500.00,M,M,-RA,YBBN 100430Z 17006KT 9999 -RA FEW011 OVC075 20/18 Q1015
YBBN,2012-11-10 05:00,153.1292,-27.3917,68.00,64.40,88.26,160.00,6.00,0.00,29.97,M,6.21,M,FEW,BKN,OVC,M,1500.00,4800.00,7900.00,M,-RA,YBBN 100500Z 16006KT 9999 -RA FEW015 BKN048 OVC079 20/18 Q1015 TEMPO 0500/0800 3000 RA BKN010
YBBN,2012-11-10 05:30,153.1292,-27.3917,68.00,64.40,88.26,170.00,4.00,0.00,29.97,M,6.21,M,FEW,BKN,OVC,M,1500.00,4700.00,8000.00,M,-RA,YBBN 100530Z 17004KT 9999 -RA FEW015 BKN047 OVC080 20/18 Q1015
YBBN,2012-11-10 06:00,153.1292,-27.3917,68.00,64.40,88.26,190.00,4.00,0.00,29.97,M,6.21,M,FEW,OVC,M,M,1500.00,4900.00,M,M,-RA,YBBN 100600Z 19004KT 9999 -RA FEW015 OVC049 20/18 Q1015 TEMPO 0600/0900 3000 RA BKN010
YBBN,2012-11-10 06:30,153.1292,-27.3917,68.00,64.40,88.26,0.00,0.00,0.00,29.97,M,6.21,M,FEW,BKN,OVC,M,1500.00,5300.00,6800.00,M,-RA,YBBN 100630Z 00000KT 9999 -RA FEW015 BKN053 OVC068 20/18 Q1015
YBBN,2012-11-10 07:00,153.1292,-27.3917,68.00,64.40,88.26,190.00,1.00,0.00,30.00,M,6.21,M,FEW,OVC,M,M,1500.00,5700.00,M,M,-RA,YBBN 100700Z 19001KT 9999 -RA FEW015 OVC057 20/18 Q1016 TEMPO 0700/1000 3000 RA BKN010
YBBN,2012-11-10 07:30,153.1292,-27.3917,68.00,64.40,88.26,220.00,3.00,0.00,30.00,M,6.21,M,FEW,SCT,OVC,M,1500.00,4300.00,6300.00,M,-RA,YBBN 100730Z 22003KT 9999 -RA FEW015 SCT043 OVC063 20/18 Q1016
YBBN,2012-11-10 08:00,153.1292,-27.3917,68.00,66.20,93.97,180.00,5.00,0.00,30.00,M,6.21,M,FEW,BKN,BKN,M,900.00,4200.00,10000.00,M,-RA,YBBN 100800Z 18005KT 9999 -RA FEW009 BKN042 BKN100 20/19 Q1016
YBBN,2012-11-10 08:30,153.1292,-27.3917,68.00,66.20,93.97,180.00,5.00,0.00,30.03,M,6.21,M,FEW,SCT,BKN,M,900.00,4700.00,11500.00,M,-RA,YBBN 100830Z 18005KT 9999 -RA FEW009 SCT047 BKN115 20/19 Q1017
YBBN,2012-11-10 09:00,153.1292,-27.3917,68.00,64.40,88.26,180.00,6.00,0.00,30.06,M,6.21,M,FEW,SCT,BKN,M,1300.00,3500.00,5000.00,M,-RA,YBBN 100900Z 18006KT 9999 -RA FEW013 SCT035 BKN050 20/18 Q1018
YBBN,2012-11-10 09:30,153.1292,-27.3917,68.00,64.40,88.26,160.00,7.00,0.00,30.06,M,6.21,M,FEW,SCT,BKN,M,1500.00,3000.00,5000.00,M,-RA VCSH,YBBN 100930Z 16007KT 9999 -RA VCSH FEW015 SCT030 BKN050 20/18 Q1018
YBBN,2012-11-10 10:00,153.1292,-27.3917,66.20,64.40,93.92,180.00,6.00,0.00,30.06,M,6.21,M,FEW,SCT,BKN,M,800.00,3000.00,5800.00,M,-RA,YBBN 101000Z 18006KT 9999 -RA FEW008 SCT030 BKN058 19/18 Q1018
YBBN,2012-11-10 10:30,153.1292,-27.3917,66.20,64.40,93.92,170.00,7.00,0.00,30.06,M,6.21,M,FEW,BKN,M,M,600.00,6500.00,M,M,-DZ,YBBN 101030Z 17007KT 9999 -DZ FEW006 BKN065 19/18 Q1018
YBBN,2012-11-10 11:00,153.1292,-27.3917,66.20,64.40,93.92,170.00,7.00,0.00,30.06,M,6.21,M,FEW,SCT,OVC,M,500.00,5000.00,8000.00,M,-DZ,YBBN 101100Z 17007KT 9999 -DZ FEW005 SCT050 OVC080 19/18 Q1018 TEMPO 1100/1300 5000 RA BKN009
YBBN,2012-11-10 11:30,153.1292,-27.3917,66.20,64.40,93.92,200.00,6.00,0.00,30.09,M,6.21,M,FEW,SCT,BKN,M,600.00,6000.00,8000.00,M,-RA,YBBN 101130Z 20006KT 9999 -RA FEW006 SCT060 BKN080 19/18 Q1019
YBBN,2012-11-10 12:00,153.1292,-27.3917,66.20,64.40,93.92,200.00,7.00,0.00,30.06,M,6.21,M,FEW,BKN,M,M,500.00,9000.00,M,M,-RA,YBBN 101200Z 20007KT 9999 -RA FEW005 BKN090 19/18 Q1018
YBBN,2012-11-10 12:30,153.1292,-27.3917,66.20,64.40,93.92,200.00,6.00,0.00,30.06,M,6.21,M,FEW,BKN,M,M,800.00,10000.00,M,M,-RA,YBBN 101230Z 20006KT 9999 -RA FEW008 BKN100 19/18 Q1018
YBBN,2012-11-10 13:00,153.1292,-27.3917,66.20,62.60,88.18,200.00,7.00,0.00,30.06,M,6.21,M,FEW,BKN,M,M,1200.00,10000.00,M,M,-RA,YBBN 101300Z 20007KT 9999 -RA FEW012 BKN100 19/17 Q1018
YBBN,2012-11-10 14:00,153.1292,-27.3917,64.40,62.60,93.88,210.00,9.00,0.00,30.06,M,6.21,M,FEW,BKN,M,M,900.00,2400.00,M,M,-SHRA,YBBN 101400Z 21009KT 9999 -SHRA FEW009 BKN024 18/17 Q1018 TEMPO 1400/1700 5000 SHRA BKN010
YBBN,2012-11-10 14:30,153.1292,-27.3917,64.40,60.80,88.09,200.00,9.00,0.00,30.06,M,6.21,M,FEW,SCT,BKN,M,1000.00,2600.00,6500.00,M,-SHRA,YBBN 101430Z 20009KT 9999 -SHRA FEW010 SCT026 BKN065 18/16 Q1018
YBBN,2012-11-10 15:00,153.1292,-27.3917,64.40,60.80,88.09,200.00,10.00,0.00,30.06,M,6.21,M,FEW,SCT,BKN,M,1000.00,4000.00,6000.00,M,-SHRA,YBBN 101500Z 20010KT 9999 -SHRA FEW010 SCT040 BKN060 18/16 Q1018 TEMPO 1500/1800 5000 SHRA BKN010
YBBN,2012-11-10 15:30,153.1292,-27.3917,64.40,60.80,88.09,190.00,9.00,0.00,30.06,M,5.59,M,FEW,BKN,OVC,M,1000.00,2800.00,6000.00,M,-SHRA,YBBN 101530Z 19009KT 9000 -SHRA FEW010 BKN028 OVC060 18/16 Q1018
YBBN,2012-11-10 16:00,153.1292,-27.3917,62.60,60.80,93.83,200.00,10.00,0.00,30.06,M,3.11,M,FEW,BKN,M,M,1000.00,2800.00,M,M,SHRA,YBBN 101600Z 20010KT 5000 SHRA FEW010 BKN028 17/16 Q1018
YBBN,2012-11-10 16:18,153.1292,-27.3917,62.60,60.80,93.83,200.00,9.00,0.00,30.06,M,4.97,M,FEW,BKN,OVC,M,1300.00,2800.00,5500.00,M,-SHRA,YBBN 101618Z 20009KT 8000 -SHRA FEW013 BKN028 OVC055 17/16 Q1018
YBBN,2012-11-10 16:30,153.1292,-27.3917,62.60,60.80,93.83,210.00,9.00,0.00,30.06,M,6.21,M,FEW,BKN,OVC,M,1000.00,2500.00,4000.00,M,-SHRA,YBBN 101630Z 21009KT 9999 -SHRA FEW010 BKN025 OVC040 17/16 Q1018
YBBN,2012-11-10 17:00,153.1292,-27.3917,62.60,60.80,93.83,190.00,9.00,0.00,30.06,M,6.21,M,FEW,SCT,BKN,M,1000.00,3000.00,4000.00,M,-SHRA,YBBN 101700Z 19009KT 9999 -SHRA FEW010 SCT030 BKN040 17/16 Q1018 RESHRA
YBBN,2012-11-10 17:30,153.1292,-27.3917,62.60,60.80,93.83,190.00,8.00,0.00,30.06,M,6.21,M,FEW,SCT,OVC,M,700.00,1900.00,8500.00,M,-DZ,YBBN 101730Z 19008KT 9999 -DZ FEW007 SCT019 OVC085 17/16 Q1018
YBBN,2012-11-10 18:00,153.1292,-27.3917,62.60,60.80,93.83,200.00,9.00,0.00,30.06,M,6.21,M,FEW,SCT,OVC,M,700.00,4800.00,8500.00,M,M,YBBN 101800Z 20009KT 9999 FEW007 SCT048 OVC085 17/16 Q1018
YBBN,2012-11-10 18:30,153.1292,-27.3917,64.40,60.80,88.09,190.00,10.00,0.00,30.06,M,6.21,M,FEW,SCT,BKN,M,1000.00,4500.00,10000.00,M,VCSH,YBBN 101830Z 19010KT 9999 VCSH FEW010 SCT045 BKN100 18/16 Q1018
YBBN,2012-11-10 19:00,153.1292,-27.3917,64.40,59.00,82.62,190.00,10.00,0.00,30.06,M,6.21,M,FEW,SCT,OVC,M,1200.00,9500.00,11500.00,M,M,YBBN 101900Z 19010KT 9999 FEW012 SCT095 OVC115 18/15 Q1018
YBBN,2012-11-10 19:30,153.1292,-27.3917,64.40,59.00,82.62,190.00,11.00,0.00,30.09,M,6.21,M,FEW,SCT,OVC,M,800.00,10000.00,11500.00,M,VCSH,YBBN 101930Z 19011KT 9999 VCSH FEW008 SCT100 OVC115 18/15 Q1019
YBBN,2012-11-10 19:50,153.1292,-27.3917,64.40,60.80,88.09,190.00,11.00,0.00,30.09,M,6.21,M,FEW,BKN,OVC,M,1200.00,2500.00,11500.00,M,-SHRA,YBBN 101950Z 19011KT 9999 5000S -SHRA FEW012 BKN025 OVC115 18/16 Q1019
YBBN,2012-11-10 20:00,153.1292,-27.3917,64.40,60.80,88.09,180.00,13.00,0.00,30.09,M,4.35,M,FEW,SCT,BKN,M,1500.00,2800.00,4800.00,M,-SHRA,YBBN 102000Z 18013KT 7000 -SHRA FEW015 SCT028 BKN048 18/16 Q1019
YBBN,2012-11-10 20:30,153.1292,-27.3917,64.40,59.00,82.62,170.00,10.00,0.00,30.12,M,6.21,M,FEW,BKN,M,M,1500.00,4800.00,M,M,VCSH,YBBN 102030Z 17010KT 9999 VCSH FEW015 BKN048 18/15 Q1020
YBBN,2012-11-10 21:00,153.1292,-27.3917,64.40,59.00,82.62,170.00,8.00,0.00,30.15,M,6.21,M,FEW,SCT,BKN,M,1500.00,3300.00,4200.00,M,VCSH,YBBN 102100Z 17008KT 9999 VCSH FEW015 SCT033 BKN042 18/15 Q1021
YBBN,2012-11-10 21:30,153.1292,-27.3917,66.20,57.20,72.74,160.00,10.00,0.00,30.15,M,6.21,M,FEW,SCT,BKN,M,1500.00,3200.00,4400.00,M,-SHRA,YBBN 102130Z 16010KT 9999 -SHRA FEW015 SCT032 BKN044 19/14 Q1021
YBBN,2012-11-10 22:00,153.1292,-27.3917,66.20,59.00,77.60,170.00,10.00,0.00,30.15,M,6.21,M,FEW,SCT,OVC,M,1500.00,4400.00,8000.00,M,-SHRA,YBBN 102200Z 17010KT 9999 -SHRA FEW015 SCT044 OVC080 19/15 Q1021 FM2300 15017G27KT 9999 SCT030 BKN050 FM2200 MOD TURB BLW 5000FT
YBBN,2012-11-10 22:30,153.1292,-27.3917,68.00,59.00,72.92,170.00,10.00,0.00,30.15,M,6.21,M,FEW,SCT,BKN,M,1500.00,5600.00,27000.00,M,M,YBBN 102230Z 17010KT 9999 FEW015 SCT056 BKN270 20/15 Q1021
YBBN,2012-11-10 23:00,153.1292,-27.3917,69.80,57.20,64.26,170.00,11.00,0.00,30.15,M,6.21,M,FEW,SCT,BKN,M,1500.00,10500.00,27000.00,M,M,YBBN 102300Z 17011KT 9999 FEW015 SCT105 BKN270 21/14 Q1021 FM2330 15017G27KT 9999 SCT030 BKN050 FM2300 MOD TURB BLW 5000FT
YBBN,2012-11-10 23:30,153.1292,-27.3917,71.60,55.40,56.63,150.00,12.00,0.00,30.15,M,6.21,M,SCT,SCT,BKN,M,3000.00,6300.00,27000.00,M,M,YBBN 102330Z 15012KT 9999 SCT030 SCT063 BKN270 22/13 Q1021
YBBN,2012-11-10 23:45,153.1292,-27.3917,73.40,55.40,53.29,150.00,15.00,0.00,30.15,M,6.21,27.00,BKN,SCT,M,M,3500.00,6300.00,M,M,M,YBBN 102345Z 15015G27KT 9999 BKN035 SCT063 23/13 Q1021
