#DEBUG: Format Typ    -> comma
#DEBUG: Time Period   -> 2013-10-20 00:00:00+00:00 2013-10-21 00:00:00+00:00
#DEBUG: Time Zone     -> Etc/UTC
#DEBUG: Data Contact   -> daryl herzmann akrherz@iastate.edu 515-294-5978
#DEBUG: Entries Found -> -1
station,valid,lon,lat,tmpf, dwpf, relh, drct, sknt, p01i, alti, mslp, vsby, gust, skyc1, skyc2, skyc3, skyc4, skyl1, skyl2, skyl3, skyl4, presentwx, metar
YBBN,2013-10-20 00:00,153.1292,-27.3917,75.20,62.60,64.91,100.00,7.00,0.00,30.18,M,6.21,M,SCT,M,M,M,2800.00,M,M,M,M,YBBN 200000Z 10007KT 9999 SCT028 24/17 Q1022 NOSIG
YBBN,2013-10-20 00:30,153.1292,-27.3917,77.00,62.60,61.13,120.00,8.00,0.00,30.18,M,6.21,M,SCT,M,M,M,2800.00,M,M,M,M,YBBN 200030Z 12008KT 9999 SCT028 25/17 Q1022
YBBN,2013-10-20 01:00,153.1292,-27.3917,77.00,62.60,61.13,70.00,9.00,0.00,30.15,M,6.21,M,FEW,M,M,M,2800.00,M,M,M,M,YBBN 200100Z 07009KT 9999 FEW028 25/17 Q1021 NOSIG
YBBN,2013-10-20 01:30,153.1292,-27.3917,75.20,62.60,64.91,100.00,8.00,0.00,30.15,M,6.21,M,SCT,M,M,M,2800.00,M,M,M,M,YBBN 200130Z 10008KT 9999 SCT028 24/17 Q1021
YBBN,2013-10-20 02:00,153.1292,-27.3917,77.00,64.40,65.12,70.00,10.00,0.00,30.15,M,6.21,M,SCT,M,M,M,2400.00,M,M,M,M,YBBN 200200Z 07010KT 9999 SCT024 25/18 Q1021
YBBN,2013-10-20 02:30,153.1292,-27.3917,77.00,62.60,61.13,60.00,9.00,0.00,30.12,M,6.21,M,SCT,M,M,M,2300.00,M,M,M,M,YBBN 200230Z 06009KT 9999 SCT023 25/17 Q1020
YBBN,2013-10-20 03:00,153.1292,-27.3917,77.00,62.60,61.13,30.00,13.00,0.00,30.12,M,6.21,M,FEW,M,M,M,2400.00,M,M,M,M,YBBN 200300Z 03013KT 9999 FEW024 25/17 Q1020
YBBN,2013-10-20 03:30,153.1292,-27.3917,77.00,62.60,61.13,30.00,13.00,0.00,30.09,M,6.21,M,FEW,M,M,M,2500.00,M,M,M,M,YBBN 200330Z 03013KT 9999 FEW025 25/17 Q1019
YBBN,2013-10-20 04:00,153.1292,-27.3917,77.00,64.40,65.12,40.00,14.00,0.00,30.09,M,6.21,M,SCT,M,M,M,2500.00,M,M,M,M,YBBN 200400Z 04014KT 9999 SCT025 25/18 Q1019 RMK DISTANT SHOWER 11NM TO SE
YBBN,2013-10-20 04:30,153.1292,-27.3917,77.00,64.40,65.12,30.00,13.00,0.00,30.09,M,6.21,M,SCT,SCT,M,M,2500.00,3500.00,M,M,M,YBBN 200430Z 03013KT 9999 SCT025 SCT035 25/18 Q1019
YBBN,2013-10-20 05:00,153.1292,-27.3917,77.00,64.40,65.12,20.00,12.00,0.00,30.09,M,6.21,M,SCT,SCT,M,M,2200.00,3500.00,M,M,M,YBBN 200500Z 02012KT 9999 SCT022 SCT035 25/18 Q1019 RMK VIRGA
YBBN,2013-10-20 05:30,153.1292,-27.3917,73.40,62.60,68.94,40.00,12.00,0.00,30.09,M,6.21,M,SCT,SCT,M,M,2000.00,7600.00,M,M,VCSH,YBBN 200530Z 04012KT 9999 VCSH SCT020 SCT076 23/17 Q1019
YBBN,2013-10-20 06:00,153.1292,-27.3917,73.40,60.80,64.69,50.00,11.00,0.00,30.09,M,6.21,M,FEW,SCT,M,M,2000.00,7600.00,M,M,VCSH,YBBN 200600Z 05011KT 9999 VCSH FEW020 SCT076 23/16 Q1019
YBBN,2013-10-20 06:30,153.1292,-27.3917,73.40,60.80,64.69,50.00,11.00,0.00,30.09,M,6.21,M,FEW,BKN,M,M,2200.00,7200.00,M,M,VCSH,YBBN 200630Z 05011KT 9999 VCSH FEW022 BKN072 23/16 Q1019
YBBN,2013-10-20 07:00,153.1292,-27.3917,73.40,62.60,68.94,40.00,10.00,0.00,30.09,M,6.21,M,FEW,SCT,M,M,2300.00,7600.00,M,M,M,YBBN 200700Z 04010KT 9999 FEW023 SCT076 23/17 Q1019 NOSIG
YBBN,2013-10-20 07:30,153.1292,-27.3917,73.40,62.60,68.94,50.00,10.00,0.00,30.09,M,6.21,M,FEW,M,M,M,2500.00,M,M,M,M,YBBN 200730Z 05010KT 9999 FEW025 23/17 Q1019
YBBN,2013-10-20 08:00,153.1292,-27.3917,71.60,62.60,73.27,50.00,9.00,0.00,30.09,M,6.21,M,FEW,M,M,M,2500.00,M,M,M,M,YBBN 200800Z 05009KT 9999 FEW025 22/17 Q1019
YBBN,2013-10-20 08:30,153.1292,-27.3917,71.60,62.60,73.27,50.00,9.00,0.00,30.09,M,6.21,M,FEW,M,M,M,2500.00,M,M,M,M,YBBN 200830Z 05009KT 9999 FEW025 22/17 Q1019
YBBN,2013-10-20 09:00,153.1292,-27.3917,71.60,62.60,73.27,50.00,9.00,0.00,30.09,M,6.21,M,FEW,M,M,M,2300.00,M,M,M,M,YBBN 200900Z 05009KT 9999 FEW023 22/17 Q1019
YBBN,2013-10-20 09:30,153.1292,-27.3917,69.80,62.60,77.90,40.00,8.00,0.00,30.12,M,6.21,M,FEW,M,M,M,2300.00,M,M,M,M,YBBN 200930Z 04008KT 9999 FEW023 21/17 Q1020
YBBN,2013-10-20 10:00,153.1292,-27.3917,69.80,62.60,77.90,40.00,9.00,0.00,30.12,M,6.21,M,FEW,M,M,M,2300.00,M,M,M,M,YBBN 201000Z 04009KT 9999 FEW023 21/17 Q1020
YBBN,2013-10-20 10:30,153.1292,-27.3917,69.80,62.60,77.90,40.00,7.00,0.00,30.12,M,6.21,M,FEW,M,M,M,2200.00,M,M,M,M,YBBN 201030Z 04007KT 9999 FEW022 21/17 Q1020
YBBN,2013-10-20 11:00,153.1292,-27.3917,68.00,64.40,88.26,40.00,5.00,0.00,30.15,M,6.21,M,FEW,SCT,M,M,2300.00,3700.00,M,M,M,YBBN 201100Z 04005KT 9999 FEW023 SCT037 20/18 Q1021
YBBN,2013-10-20 11:30,153.1292,-27.3917,68.00,62.60,82.86,40.00,4.00,0.00,30.15,M,6.21,M,SCT,M,M,M,2300.00,M,M,M,M,YBBN 201130Z 04004KT 9999 SCT023 20/17 Q1021
YBBN,2013-10-20 12:00,153.1292,-27.3917,68.00,62.60,82.86,10.00,5.00,0.00,30.15,M,6.21,M,FEW,M,M,M,2300.00,M,M,M,M,YBBN 201200Z 01005KT 9999 FEW023 20/17 Q1021 FM1300 21005KT 9999 SCT020 BKN035
YBBN,2013-10-20 12:30,153.1292,-27.3917,68.00,62.60,82.86,30.00,5.00,0.00,30.15,M,6.21,M,FEW,BKN,M,M,2100.00,4600.00,M,M,M,YBBN 201230Z 03005KT 9999 FEW021 BKN046 20/17 Q1021
YBBN,2013-10-20 13:00,153.1292,-27.3917,68.00,62.60,82.86,40.00,5.00,0.00,30.15,M,6.21,M,FEW,BKN,M,M,2300.00,5200.00,M,M,M,YBBN 201300Z 04005KT 9999 FEW023 BKN052 20/17 Q1021 FM1330 21005KT 9999 SCT020 BKN035
YBBN,2013-10-20 13:30,153.1292,-27.3917,68.00,62.60,82.86,40.00,6.00,0.00,M,M,6.21,M,FEW,SCT,M,M,1700.00,5000.00,M,M,M,YBBN 201330Z 04006KT 9999 FEW017 SCT050 20/17 Q////
YBBN,2013-10-20 14:00,153.1292,-27.3917,68.00,62.60,82.86,40.00,5.00,0.00,30.12,M,6.21,M,FEW,SCT,M,M,1800.00,5000.00,M,M,M,YBBN 201400Z 04005KT 9999 FEW018 SCT050 20/17 Q1020
YBBN,2013-10-20 14:30,153.1292,-27.3917,66.20,62.60,88.18,30.00,5.00,0.00,30.12,M,6.21,M,FEW,M,M,M,2000.00,M,M,M,M,YBBN 201430Z 03005KT 9999 FEW020 19/17 Q1020
YBBN,2013-10-20 15:00,153.1292,-27.3917,68.00,62.60,82.86,40.00,4.00,0.00,30.12,M,6.21,M,FEW,M,M,M,2000.00,M,M,M,M,YBBN 201500Z 04004KT 9999 FEW020 20/17 Q1020 FM1500 VRB03KT 9999 -SHRA SCT020 BKN035
YBBN,2013-10-20 15:30,153.1292,-27.3917,66.20,62.60,88.18,30.00,4.00,0.00,30.09,M,6.21,M,FEW,M,M,M,2000.00,M,M,M,M,YBBN 201530Z 03004KT 9999 FEW020 19/17 Q1019
YBBN,2013-10-20 16:00,153.1292,-27.3917,66.20,62.60,88.18,30.00,5.00,0.00,30.09,M,6.21,M,SCT,M,M,M,5400.00,M,M,M,//,YBBN 201600Z AUTO 03005KT 9999 // SCT054 19/17 Q1019
YBBN,2013-10-20 16:30,153.1292,-27.3917,66.20,62.60,88.18,30.00,7.00,0.00,30.09,M,6.21,M,FEW,M,M,M,1800.00,M,M,M,M,YBBN 201630Z 03007KT 9999 FEW018 19/17 Q1019
YBBN,2013-10-20 17:00,153.1292,-27.3917,66.20,62.60,88.18,20.00,7.00,0.00,30.09,M,6.21,M,FEW,SCT,M,M,1800.00,5000.00,M,M,M,YBBN 201700Z 02007KT 9999 FEW018 SCT050 19/17 Q1019
YBBN,2013-10-20 17:30,153.1292,-27.3917,66.20,62.60,88.18,30.00,5.00,0.00,30.09,M,6.21,M,FEW,M,M,M,1800.00,M,M,M,M,YBBN 201730Z 03005KT 9999 FEW018 19/17 Q1019
YBBN,2013-10-20 18:00,153.1292,-27.3917,64.40,60.80,88.09,220.00,3.00,0.00,30.09,M,6.21,M,SCT,M,M,M,1800.00,M,M,M,M,YBBN 201800Z 22003KT 9999 SCT018 18/16 Q1019
YBBN,2013-10-20 18:30,153.1292,-27.3917,64.40,62.60,93.88,220.00,5.00,0.00,30.09,M,6.21,M,FEW,M,M,M,1800.00,M,M,M,M,YBBN 201830Z 22005KT 9999 FEW018 18/17 Q1019
YBBN,2013-10-20 19:00,153.1292,-27.3917,64.40,62.60,93.88,210.00,4.00,0.00,30.09,M,6.21,M,SCT,M,M,M,2200.00,M,M,M,M,YBBN 201900Z 21004KT 9999 SCT022 18/17 Q1019
YBBN,2013-10-20 19:30,153.1292,-27.3917,66.20,64.40,93.92,200.00,5.00,0.00,30.09,M,6.21,M,FEW,M,M,M,2200.00,M,M,M,M,YBBN 201930Z 20005KT 9999 FEW022 19/18 Q1019
YBBN,2013-10-20 20:00,153.1292,-27.3917,66.20,64.40,93.92,200.00,6.00,0.00,30.12,M,6.21,M,SCT,M,M,M,2400.00,M,M,M,M,YBBN 202000Z 20006KT 9999 SCT024 19/18 Q1020
YBBN,2013-10-20 20:30,153.1292,-27.3917,68.00,66.20,93.97,190.00,5.00,0.00,30.12,M,6.21,M,FEW,M,M,M,2400.00,M,M,M,M,YBBN 202030Z 19005KT 9999 FEW024 20/19 Q1020
YBBN,2013-10-20 21:00,153.1292,-27.3917,71.60,64.40,78.04,210.00,4.00,0.00,30.12,M,6.21,M,FEW,M,M,M,2800.00,M,M,M,M,YBBN 202100Z 21004KT 9999 FEW028TCU 22/18 Q1020
YBBN,2013-10-20 21:30,153.1292,-27.3917,73.40,64.40,73.44,300.00,1.00,0.00,30.12,M,6.21,M,FEW,M,M,M,3000.00,M,M,M,M,YBBN 202130Z 30001KT 9999 FEW030 23/18 Q1020
YBBN,2013-10-20 22:00,153.1292,-27.3917,73.40,60.80,64.69,360.00,6.00,0.00,30.12,M,6.21,M,FEW,SCT,M,M,2500.00,3000.00,M,M,M,YBBN 202200Z 36006KT 9999 FEW025 SCT030 23/16 Q1020
YBBN,2013-10-20 22:30,153.1292,-27.3917,75.20,59.00,57.12,20.00,6.00,0.00,30.12,M,6.21,M,FEW,SCT,M,M,2800.00,5000.00,M,M,M,YBBN 202230Z 02006KT 9999 FEW028 SCT050 24/15 Q1020
YBBN,2013-10-20 23:00,153.1292,-27.3917,75.20,60.80,60.90,10.00,7.00,0.00,30.12,M,6.21,M,FEW,BKN,M,M,2800.00,5000.00,M,M,M,YBBN 202300Z 01007KT 9999 FEW028 BKN050 24/16 Q1020
YBBN,2013-10-20 23:30,153.1292,-27.3917,75.20,62.60,64.91,10.00,9.00,0.00,30.12,M,6.21,M,FEW,BKN,M,M,3000.00,5500.00,M,M,M,YBBN 202330Z 01009KT 9999 FEW030 BKN055 24/17 Q1020
