#DEBUG: Format Typ    -> comma
#DEBUG: Time Period   -> 2011-04-21 00:00:00+00:00 2011-04-22 00:00:00+00:00
#DEBUG: Time Zone     -> Etc/UTC
#DEBUG: Data Contact   -> daryl herzmann akrherz@iastate.edu 515-294-5978
#DEBUG: Entries Found -> -1
station,valid,lon,lat,tmpf, dwpf, relh, drct, sknt, p01i, alti, mslp, vsby, gust, skyc1, skyc2, skyc3, skyc4, skyl1, skyl2, skyl3, skyl4, presentwx, metar
YBBN,2011-04-21 00:00,153.1292,-27.3917,77.00,64.40,65.12,170.00,4.00,M,29.97,M,6.21,M,SCT,M,M,M,2200.00,M,M,M,M,YBBN 210000Z 17004KT 9999 SCT022 25/18 Q1015 NOSIG
YBBN,2011-04-21 00:30,153.1292,-27.3917,77.00,64.40,65.12,120.00,4.00,M,29.94,M,6.21,M,SCT,M,M,M,2500.00,M,M,M,M,YBBN 210030Z 12004KT 9999 SCT025 25/18 Q1014 NOSIG
YBBN,2011-04-21 01:00,153.1292,-27.3917,77.00,64.40,65.12,90.00,4.00,M,29.94,M,6.21,M,SCT,M,M,M,2500.00,M,M,M,M,YBBN 210100Z 09004KT 9999 SCT025 25/18 Q1014 NOSIG
YBBN,2011-04-21 01:30,153.1292,-27.3917,78.80,64.40,61.36,20.00,6.00,M,29.94,M,6.21,M,SCT,M,M,M,2500.00,M,M,M,M,YBBN 210130Z 02006KT 9999 SCT025 26/18 Q1014 NOSIG
YBBN,2011-04-21 02:00,153.1292,-27.3917,77.00,66.20,69.33,50.00,7.00,M,29.91,M,6.21,M,SCT,M,M,M,2500.00,M,M,M,M,YBBN 210200Z 05007KT 9999 SCT025 25/19 Q1013 NOSIG
YBBN,2011-04-21 02:30,153.1292,-27.3917,78.80,66.20,65.33,40.00,7.00,M,29.91,M,6.21,M,SCT,M,M,M,3000.00,M,M,M,M,YBBN 210230Z 04007KT 9999 SCT030 26/19 Q1013 NOSIG
YBBN,2011-04-21 03:00,153.1292,-27.3917,78.80,66.20,65.33,40.00,8.00,M,29.88,M,6.21,M,SCT,M,M,M,3000.00,M,M,M,M,YBBN 210300Z 04008KT 9999 SCT030 26/19 Q1012 NOSIG
YBBN,2011-04-21 03:30,153.1292,-27.3917,78.80,66.20,65.33,50.00,8.00,M,29.88,M,6.21,M,SCT,M,M,M,3000.00,M,M,M,M,YBBN 210330Z 05008KT 9999 SCT030 26/19 Q1012 NOSIG
YBBN,2011-04-21 04:00,153.1292,-27.3917,78.80,66.20,65.33,60.00,8.00,M,29.88,M,6.21,M,FEW,M,M,M,3000.00,M,M,M,M,YBBN 210400Z 06008KT 9999 FEW030 26/19 Q1012 NOSIG
YBBN,2011-04-21 04:30,153.1292,-27.3917,78.80,64.40,61.36,60.00,9.00,M,29.88,M,6.21,M,FEW,M,M,M,3000.00,M,M,M,M,YBBN 210430Z 06009KT 9999 FEW030 26/18 Q1012 NOSIG
YBBN,2011-04-21 05:00,153.1292,-27.3917,78.80,66.20,65.33,50.00,8.00,M,29.88,M,6.21,M,FEW,M,M,M,3000.00,M,M,M,M,YBBN 210500Z 05008KT 9999 FEW030 26/19 Q1012 NOSIG
YBBN,2011-04-21 05:30,153.1292,-27.3917,77.00,66.20,69.33,60.00,8.00,M,29.85,M,6.21,M,FEW,M,M,M,3000.00,M,M,M,M,YBBN 210530Z 06008KT 9999 FEW030 25/19 Q1011 NOSIG
YBBN,2011-04-21 06:00,153.1292,-27.3917,77.00,66.20,69.33,60.00,8.00,M,29.85,M,6.21,M,FEW,M,M,M,3000.00,M,M,M,M,YBBN 210600Z 06008KT 9999 FEW030 25/19 Q1011 NOSIG
YBBN,2011-04-21 06:30,153.1292,-27.3917,75.20,66.20,73.61,60.00,8.00,M,29.85,M,6.21,M,FEW,M,M,M,3000.00,M,M,M,M,YBBN 210630Z 06008KT 9999 FEW030 24/19 Q1011 NOSIG
YBBN,2011-04-21 07:00,153.1292,-27.3917,75.20,66.20,73.61,60.00,7.00,M,29.85,M,6.21,M,FEW,M,M,M,3000.00,M,M,M,M,YBBN 210700Z 06007KT 9999 FEW030 24/19 Q1011 NOSIG
YBBN,2011-04-21 07:30,153.1292,-27.3917,73.40,66.20,78.19,70.00,6.00,M,29.88,M,6.21,M,FEW,M,M,M,3000.00,M,M,M,M,YBBN 210730Z 07006KT 9999 FEW030 23/19 Q1012 NOSIG
YBBN,2011-04-21 08:00,153.1292,-27.3917,73.40,64.40,73.44,60.00,6.00,M,29.88,M,6.21,M,FEW,M,M,M,3000.00,M,M,M,M,YBBN 210800Z 06006KT 9999 FEW030 23/18 Q1012 NOSIG
YBBN,2011-04-21 08:30,153.1292,-27.3917,71.60,66.20,83.09,60.00,5.00,M,29.88,M,6.21,M,FEW,M,M,M,3000.00,M,M,M,M,YBBN 210830Z 06005KT 9999 FEW030 22/19 Q1012 NOSIG
YBBN,2011-04-21 09:00,153.1292,-27.3917,69.80,66.20,88.34,80.00,3.00,M,29.91,M,6.21,M,FEW,M,M,M,3000.00,M,M,M,M,YBBN 210900Z 08003KT 9999 FEW030 21/19 Q1013 NOSIG
YBBN,2011-04-21 09:30,153.1292,-27.3917,69.80,66.20,88.34,0.00,0.00,M,29.91,M,6.21,M,FEW,M,M,M,3000.00,M,M,M,M,YBBN 210930Z 00000KT 9999 FEW030 21/19 Q1013 NOSIG
YBBN,2011-04-21 10:00,153.1292,-27.3917,69.80,66.20,88.34,0.00,0.00,M,29.91,M,6.21,M,M,M,M,M,M,M,M,M,M,YBBN 211000Z 00000KT CAVOK 21/19 Q1013 NOSIG
YBBN,2011-04-21 10:30,153.1292,-27.3917,69.80,66.20,88.34,0.00,0.00,M,29.91,M,6.21,M,M,M,M,M,M,M,M,M,M,YBBN 211030Z 00000KT CAVOK 21/19 Q1013 NOSIG
YBBN,2011-04-21 11:00,153.1292,-27.3917,69.80,66.20,88.34,290.00,2.00,M,29.94,M,6.21,M,FEW,M,M,M,2500.00,M,M,M,M,YBBN 211100Z 29002KT 9999 FEW025 21/19 Q1014 NOSIG
YBBN,2011-04-21 11:30,153.1292,-27.3917,69.80,66.20,88.34,310.00,4.00,M,29.91,M,6.21,M,FEW,M,M,M,2500.00,M,M,M,M,YBBN 211130Z 31004KT 9999 FEW025 21/19 Q1013 NOSIG
YBBN,2011-04-21 12:00,153.1292,-27.3917,68.00,66.20,93.97,0.00,0.00,M,29.91,M,6.21,M,FEW,M,M,M,2500.00,M,M,M,M,YBBN 211200Z 00000KT 9999 FEW025 20/19 Q1013 NOSIG
YBBN,2011-04-21 12:30,153.1292,-27.3917,68.00,66.20,93.97,0.00,0.00,M,29.91,M,6.21,M,FEW,M,M,M,2500.00,M,M,M,M,YBBN 211230Z 00000KT 9999 FEW025 20/19 Q1013 NOSIG
YBBN,2011-04-21 13:00,153.1292,-27.3917,66.20,66.20,100.00,220.00,4.00,M,29.91,M,6.21,M,FEW,M,M,M,2500.00,M,M,M,M,YBBN 211300Z 22004KT 9999 FEW025 19/19 Q1013 NOSIG
YBBN,2011-04-21 13:30,153.1292,-27.3917,66.20,64.40,93.92,0.00,0.00,M,29.91,M,6.21,M,FEW,M,M,M,2500.00,M,M,M,M,YBBN 211330Z 00000KT 9999 FEW025 19/18 Q1013 NOSIG
YBBN,2011-04-21 14:00,153.1292,-27.3917,66.20,64.40,93.92,210.00,3.00,M,29.91,M,6.21,M,FEW,M,M,M,2500.00,M,M,M,M,YBBN 211400Z 21003KT 9999 FEW025 19/18 Q1013 NOSIG
YBBN,2011-04-21 14:30,153.1292,-27.3917,66.20,64.40,93.92,220.00,3.00,M,29.91,M,6.21,M,FEW,M,M,M,2500.00,M,M,M,M,YBBN 211430Z 22003KT 9999 FEW025 19/18 Q1013 NOSIG
YBBN,2011-04-21 15:00,153.1292,-27.3917,66.20,64.40,93.92,0.00,0.00,M,29.91,M,6.21,M,M,M,M,M,M,M,M,M,M,YBBN 211500Z 00000KT CAVOK 19/18 Q1013 NOSIG
YBBN,2011-04-21 15:30,153.1292,-27.3917,66.20,64.40,93.92,0.00,0.00,M,29.91,M,6.21,M,M,M,M,M,M,M,M,M,M,YBBN 211530Z 00000KT CAVOK 19/18 Q1013 NOSIG
YBBN,2011-04-21 16:00,153.1292,-27.3917,66.20,64.40,93.92,0.00,0.00,M,29.88,M,6.21,M,M,M,M,M,M,M,M,M,M,YBBN 211600Z 00000KT CAVOK 19/18 Q1012 NOSIG
YBBN,2011-04-21 16:30,153.1292,-27.3917,64.40,64.40,100.00,240.00,4.00,M,29.88,M,6.21,M,M,M,M,M,M,M,M,M,M,YBBN 211630Z 24004KT CAVOK 18/18 Q1012 NOSIG
YBBN,2011-04-21 17:00,153.1292,-27.3917,64.40,64.40,100.00,220.00,5.00,M,29.88,M,6.21,M,M,M,M,M,M,M,M,M,M,YBBN 211700Z 22005KT CAVOK 18/18 Q1012 NOSIG
YBBN,2011-04-21 17:30,153.1292,-27.3917,64.40,64.40,100.00,220.00,5.00,M,29.88,M,6.21,M,M,M,M,M,M,M,M,M,M,YBBN 211730Z 22005KT CAVOK 18/18 Q1012 NOSIG
YBBN,2011-04-21 18:00,153.1292,-27.3917,64.40,64.40,100.00,230.00,6.00,M,29.88,M,6.21,M,M,M,M,M,M,M,M,M,M,YBBN 211800Z 23006KT CAVOK 18/18 Q1012 NOSIG
YBBN,2011-04-21 18:30,153.1292,-27.3917,64.40,64.40,100.00,210.00,5.00,M,29.88,M,6.21,M,M,M,M,M,M,M,M,M,M,YBBN 211830Z 21005KT CAVOK 18/18 Q1012 NOSIG
YBBN,2011-04-21 19:00,153.1292,-27.3917,64.40,64.40,100.00,210.00,4.00,M,29.88,M,6.21,M,M,M,M,M,M,M,M,M,M,YBBN 211900Z 21004KT CAVOK 18/18 Q1012 NOSIG
YBBN,2011-04-21 19:30,153.1292,-27.3917,64.40,64.40,100.00,210.00,6.00,M,29.91,M,6.21,M,M,M,M,M,M,M,M,M,M,YBBN 211930Z 21006KT CAVOK 18/18 Q1013 NOSIG
YBBN,2011-04-21 20:00,153.1292,-27.3917,64.40,64.40,100.00,210.00,7.00,M,29.91,M,6.21,M,M,M,M,M,M,M,M,M,M,YBBN 212000Z 21007KT CAVOK 18/18 Q1013 NOSIG
YBBN,2011-04-21 20:41,153.1292,-27.3917,66.20,64.40,93.92,210.00,7.00,M,29.91,M,2.49,M,FEW,M,M,M,200.00,M,M,M,PRFG,YBBN 212041Z 21007KT 4000 PRFG FEW002 19/18 Q1013 RMK FOG BANK TO THE SOUTH OF AERODROME FM2115 21007KT 5000 BR SCT005 FM2130 20007KT 9999 FEW010
YBBN,2011-04-21 22:30,153.1292,-27.3917,69.80,68.00,94.01,220.00,9.00,M,29.94,M,6.21,M,FEW,M,M,M,300.00,M,M,M,M,YBBN 212230Z 22009KT 9999 FEW003 21/20 Q1014 NOSIG
YBBN,2011-04-21 23:00,153.1292,-27.3917,71.60,68.00,88.43,220.00,8.00,M,29.94,M,6.21,M,FEW,M,M,M,500.00,M,M,M,M,YBBN 212300Z 22008KT 9999 FEW005 22/20 Q1014 NOSIG
YBBN,2011-04-21 23:30,153.1292,-27.3917,73.40,68.00,83.21,220.00,8.00,M,29.94,M,6.21,M,FEW,M,M,M,500.00,M,M,M,M,YBBN 212330Z 22008KT 9999 FEW005 23/20 Q1014 NOSIG
