#DEBUG: Format Typ    -> comma
#DEBUG: Time Period   -> 2014-09-22 00:00:00+00:00 2014-09-23 00:00:00+00:00
#DEBUG: Time Zone     -> Etc/UTC
#DEBUG: Data Contact   -> daryl herzmann akrherz@iastate.edu 515-294-5978
#DEBUG: Entries Found -> -1
station,valid,lon,lat,tmpf, dwpf, relh, drct, sknt, p01i, alti, mslp, vsby, gust, skyc1, skyc2, skyc3, skyc4, skyl1, skyl2, skyl3, skyl4, presentwx, metar
YBBN,2014-09-22 00:00,153.1292,-27.3917,69.80,53.60,56.38,120.00,11.00,0.00,30.33,M,6.21,M,SCT,SCT,M,M,3400.00,30000.00,M,M,M,YBBN 220000Z 12011KT 9999 SCT034 SCT300 21/12 Q1027 NOSIG
YBBN,2014-09-22 00:30,153.1292,-27.3917,71.60,53.60,53.03,120.00,12.00,0.00,30.36,M,6.21,M,SCT,BKN,M,M,3500.00,30000.00,M,M,M,YBBN 220030Z 12012KT 9999 SCT035 BKN300 22/12 Q1028
YBBN,2014-09-22 01:00,153.1292,-27.3917,71.60,50.00,46.43,100.00,13.00,0.00,30.33,M,6.21,M,SCT,BKN,M,M,3500.00,30000.00,M,M,M,YBBN 220100Z 10013KT 9999 SCT035 BKN300 22/10 Q1027
YBBN,2014-09-22 01:30,153.1292,-27.3917,71.60,50.00,46.43,100.00,12.00,0.00,30.33,M,6.21,M,SCT,BKN,M,M,3800.00,30000.00,M,M,M,YBBN 220130Z 10012KT 9999 SCT038 BKN300 22/10 Q1027
YBBN,2014-09-22 02:00,153.1292,-27.3917,71.60,48.20,43.42,100.00,11.00,0.00,30.30,M,6.21,M,SCT,BKN,M,M,3800.00,27000.00,M,M,M,YBBN 220200Z 10011KT 9999 SCT038 BKN270 22/09 Q1026 NOSIG
YBBN,2014-09-22 02:30,153.1292,-27.3917,69.80,50.00,49.37,110.00,12.00,0.00,30.30,M,6.21,M,SCT,BKN,M,M,3800.00,27000.00,M,M,M,YBBN 220230Z 11012KT 9999 SCT038 BKN270 21/10 Q1026
YBBN,2014-09-22 03:00,153.1292,-27.3917,71.60,50.00,46.43,100.00,12.00,0.00,30.30,M,6.21,M,SCT,BKN,M,M,3800.00,27000.00,M,M,M,YBBN 220300Z 10012KT 9999 SCT038 BKN270 22/10 Q1026 NOSIG
YBBN,2014-09-22 03:30,153.1292,-27.3917,71.60,51.80,49.64,90.00,13.00,0.00,30.30,M,6.21,M,SCT,BKN,M,M,3800.00,27000.00,M,M,M,YBBN 220330Z 09013KT 9999 SCT038 BKN270 22/11 Q1026
YBBN,2014-09-22 04:00,153.1292,-27.3917,71.60,51.80,49.64,90.00,12.00,0.00,30.27,M,6.21,M,SCT,BKN,M,M,3800.00,27000.00,M,M,M,YBBN 220400Z 09012KT 9999 SCT038 BKN270 22/11 Q1025 NOSIG
YBBN,2014-09-22 04:30,153.1292,-27.3917,69.80,51.80,52.77,90.00,11.00,0.00,30.27,M,6.21,M,SCT,BKN,M,M,3800.00,27000.00,M,M,M,YBBN 220430Z 09011KT 9999 SCT038 BKN270 21/11 Q1025
YBBN,2014-09-22 05:00,153.1292,-27.3917,69.80,51.80,52.77,100.00,10.00,0.00,30.27,M,6.21,M,SCT,BKN,M,M,3800.00,27000.00,M,M,M,YBBN 220500Z 10010KT 9999 SCT038 BKN270 21/11 Q1025 NOSIG
YBBN,2014-09-22 05:30,153.1292,-27.3917,69.80,50.00,49.37,100.00,10.00,0.00,30.27,M,6.21,M,SCT,BKN,M,M,3800.00,27000.00,M,M,M,YBBN 220530Z 10010KT 9999 SCT038 BKN270 21/10 Q1025
YBBN,2014-09-22 06:00,153.1292,-27.3917,68.00,51.80,56.13,110.00,10.00,0.00,30.30,M,6.21,M,SCT,BKN,M,M,3800.00,27000.00,M,M,M,YBBN 220600Z 11010KT 9999 SCT038 BKN270 20/11 Q1026
YBBN,2014-09-22 06:30,153.1292,-27.3917,68.00,50.00,52.51,100.00,10.00,0.00,30.30,M,6.21,M,SCT,BKN,M,M,3500.00,20000.00,M,M,M,YBBN 220630Z 10010KT 9999 SCT035 BKN200 20/10 Q1026
YBBN,2014-09-22 07:00,153.1292,-27.3917,68.00,53.60,59.97,110.00,9.00,0.00,30.30,M,6.21,M,FEW,BKN,M,M,3400.00,18000.00,M,M,VCSH,YBBN 220700Z 11009KT 9999 VCSH FEW034 BKN180 20/12 Q1026
YBBN,2014-09-22 07:30,153.1292,-27.3917,64.40,50.00,59.50,130.00,10.00,0.00,30.30,M,6.21,M,SCT,BKN,M,M,3100.00,6600.00,M,M,VCSH,YBBN 220730Z 13010KT 9999 VCSH SCT031 BKN066 18/10 Q1026
YBBN,2014-09-22 08:00,153.1292,-27.3917,66.20,55.40,68.15,110.00,8.00,0.00,30.30,M,6.21,M,SCT,SCT,BKN,M,3100.00,8300.00,20000.00,M,VCSH,YBBN 220800Z 11008KT 9999 VCSH SCT031 SCT083 BKN200 19/13 Q1026 NOSIG
YBBN,2014-09-22 08:30,153.1292,-27.3917,64.40,57.20,77.45,150.00,7.00,0.00,30.33,M,6.21,M,FEW,SCT,BKN,M,1600.00,2800.00,7800.00,M,-SHRA,YBBN 220830Z 15007KT 9999 -SHRA FEW016 SCT028 BKN078 18/14 Q1027 RMK VIS RED TO 9KM SW -SHRA
YBBN,2014-09-22 09:00,153.1292,-27.3917,62.60,57.20,82.50,160.00,9.00,0.00,30.33,M,6.21,M,FEW,SCT,BKN,M,1300.00,3800.00,23000.00,M,VCSH,YBBN 220900Z 16009KT 9999 VCSH FEW013 SCT038 BKN230 17/14 Q1027 NOSIG
YBBN,2014-09-22 09:30,153.1292,-27.3917,62.60,57.20,82.50,150.00,8.00,0.00,30.33,M,6.21,M,FEW,SCT,BKN,M,800.00,3800.00,23000.00,M,VCSH,YBBN 220930Z 15008KT 9999 VCSH FEW008 SCT038 BKN230 17/14 Q1027
YBBN,2014-09-22 10:00,153.1292,-27.3917,62.60,55.40,77.29,150.00,7.00,0.00,30.36,M,6.21,M,FEW,SCT,BKN,M,800.00,2700.00,5400.00,M,VCSH,YBBN 221000Z 15007KT 9999 VCSH FEW008 SCT027 BKN054 17/13 Q1028 NOSIG
YBBN,2014-09-22 10:30,153.1292,-27.3917,62.60,57.20,82.50,180.00,6.00,0.00,30.36,M,6.21,M,FEW,BKN,M,M,1200.00,5600.00,M,M,-SHRA,YBBN 221030Z 18006KT 9999 -SHRA FEW012 BKN056 17/14 Q1028 RMK -SHRA N/NE
YBBN,2014-09-22 11:00,153.1292,-27.3917,60.80,55.40,82.37,180.00,6.00,0.00,30.36,M,6.21,M,FEW,SCT,BKN,M,1400.00,2500.00,8000.00,M,SHRA,YBBN 221100Z 18006KT 9999 SHRA FEW014 SCT025 BKN080 16/13 Q1028 INTER 1120/1220 3000 SHRA BKN012
YBBN,2014-09-22 11:30,153.1292,-27.3917,60.80,57.20,87.92,160.00,4.00,0.00,30.36,M,6.21,M,FEW,SCT,BKN,FEW,800.00,2400.00,5700.00,2500.00,SHRA,YBBN 221130Z 16004KT 9999 SHRA FEW008 SCT024 BKN057 FEW025TCU 16/14 Q1028 RMK VIS RED TO 8KM N/NW DUE SHRA
YBBN,2014-09-22 12:00,153.1292,-27.3917,60.80,57.20,87.92,0.00,0.00,0.00,30.36,M,5.59,M,FEW,SCT,BKN,M,900.00,2400.00,4200.00,M,-SHRA,YBBN 221200Z 00000KT 9000 -SHRA FEW009 SCT024 BKN042 16/14 Q1028 NOSIG
YBBN,2014-09-22 12:18,153.1292,-27.3917,60.80,57.20,87.92,200.00,3.00,0.00,30.36,M,3.73,M,FEW,SCT,BKN,M,900.00,2400.00,4200.00,M,SHRA,YBBN 221218Z 20003KT 6000 SHRA FEW009 SCT024 BKN042 16/14 Q1028
YBBN,2014-09-22 12:30,153.1292,-27.3917,60.80,57.20,87.92,290.00,6.00,0.00,30.36,M,4.97,M,FEW,SCT,BKN,M,500.00,1800.00,4800.00,M,-SHRA,YBBN 221230Z 29006KT 8000 -SHRA FEW005 SCT018 BKN048 16/14 Q1028 RESHRA
YBBN,2014-09-22 13:00,153.1292,-27.3917,60.80,57.20,87.92,280.00,5.00,0.00,30.33,M,6.21,M,FEW,BKN,M,M,500.00,3200.00,M,M,-SHRA,YBBN 221300Z 28005KT 9999 -SHRA FEW005 BKN032 16/14 Q1027 NOSIG
YBBN,2014-09-22 13:30,153.1292,-27.3917,60.80,59.00,93.79,260.00,4.00,0.00,30.33,M,4.97,M,FEW,SCT,BKN,M,600.00,3200.00,4600.00,M,-SHRA,YBBN 221330Z 26004KT 8000 -SHRA FEW006 SCT032 BKN046 16/15 Q1027
YBBN,2014-09-22 14:00,153.1292,-27.3917,60.80,59.00,93.79,290.00,6.00,0.00,30.33,M,3.73,M,FEW,SCT,BKN,M,800.00,1800.00,4000.00,M,-SHRA,YBBN 221400Z 29006KT 6000 -SHRA FEW008 SCT018 BKN040 16/15 Q1027
YBBN,2014-09-22 14:10,153.1292,-27.3917,60.80,59.00,93.79,310.00,6.00,0.00,30.33,M,2.49,M,FEW,SCT,BKN,M,700.00,1600.00,4000.00,M,-SHRA,YBBN 221410Z 31006KT 4000 -SHRA FEW007 SCT016 BKN040 16/15 Q1027
YBBN,2014-09-22 14:20,153.1292,-27.3917,60.80,59.00,93.79,230.00,7.00,0.00,30.33,M,3.73,M,FEW,SCT,BKN,M,700.00,1600.00,4200.00,M,-SHRA,YBBN 221420Z 23007KT 6000 -SHRA FEW007 SCT016 BKN042 16/15 Q1027
YBBN,2014-09-22 14:30,153.1292,-27.3917,60.80,59.00,93.79,220.00,7.00,0.00,30.33,M,5.59,M,FEW,SCT,BKN,M,800.00,3800.00,5000.00,M,-SHRA,YBBN 221430Z 22007KT 9000 -SHRA FEW008 SCT038 BKN050 16/15 Q1027
YBBN,2014-09-22 14:46,153.1292,-27.3917,60.80,59.00,93.79,200.00,6.00,0.00,30.33,M,3.73,M,FEW,SCT,BKN,M,800.00,1700.00,3500.00,M,-SHRA,YBBN 221446Z 20006KT 6000 -SHRA FEW008 SCT017 BKN035 16/15 Q1027
YBBN,2014-09-22 15:00,153.1292,-27.3917,60.80,57.20,87.92,200.00,7.00,0.00,30.30,M,4.97,M,FEW,SCT,BKN,M,1000.00,2300.00,4700.00,M,-SHRA,YBBN 221500Z 20007KT 8000 -SHRA FEW010 SCT023 BKN047 16/14 Q1026
YBBN,2014-09-22 15:30,153.1292,-27.3917,59.00,57.20,93.74,190.00,6.00,0.00,30.30,M,6.21,M,FEW,SCT,BKN,M,1400.00,2300.00,4800.00,M,-SHRA,YBBN 221530Z 19006KT 9999 -SHRA FEW014 SCT023 BKN048 15/14 Q1026 RMK -SHRA NW
YBBN,2014-09-22 16:00,153.1292,-27.3917,60.80,57.20,87.92,190.00,6.00,0.00,30.30,M,6.21,M,FEW,SCT,BKN,M,1700.00,2300.00,4500.00,M,M,YBBN 221600Z 19006KT 9999 FEW017 SCT023 BKN045 16/14 Q1026
YBBN,2014-09-22 16:30,153.1292,-27.3917,60.80,55.40,82.37,170.00,6.00,0.00,30.30,M,6.21,M,FEW,SCT,BKN,M,1900.00,3800.00,5600.00,M,M,YBBN 221630Z 17006KT 9999 FEW019 SCT038 BKN056 16/13 Q1026 RMK DIST -SHRA N/NW
YBBN,2014-09-22 17:00,153.1292,-27.3917,59.00,55.40,87.83,200.00,5.00,0.00,30.27,M,6.21,M,FEW,SCT,BKN,M,2000.00,4200.00,6000.00,M,M,YBBN 221700Z 20005KT 9999 FEW020 SCT042 BKN060 15/13 Q1025 NOSIG
YBBN,2014-09-22 17:30,153.1292,-27.3917,60.80,57.20,87.92,210.00,6.00,0.00,30.30,M,6.21,M,FEW,SCT,BKN,M,2200.00,3200.00,6000.00,M,M,YBBN 221730Z 21006KT 9999 FEW022 SCT032 BKN060 16/14 Q1026 RMK DIST -SHRA NW
YBBN,2014-09-22 18:00,153.1292,-27.3917,60.80,53.60,77.14,200.00,6.00,0.00,30.30,M,6.21,M,FEW,SCT,BKN,M,2000.00,3300.00,6200.00,M,M,YBBN 221800Z 20006KT 9999 FEW020 SCT033 BKN062 16/12 Q1026 NOSIG
YBBN,2014-09-22 18:30,153.1292,-27.3917,60.80,53.60,77.14,190.00,6.00,0.00,30.30,M,6.21,M,FEW,BKN,M,M,2000.00,6400.00,M,M,M,YBBN 221830Z 19006KT 9999 FEW020 BKN064 16/12 Q1026
YBBN,2014-09-22 19:00,153.1292,-27.3917,60.80,53.60,77.14,180.00,6.00,0.00,30.30,M,6.21,M,FEW,SCT,BKN,M,2000.00,3400.00,6400.00,M,M,YBBN 221900Z 18006KT 9999 FEW020 SCT034 BKN064 16/12 Q1026 NOSIG
YBBN,2014-09-22 19:30,153.1292,-27.3917,60.80,51.80,72.20,180.00,5.00,0.00,30.33,M,6.21,M,FEW,SCT,BKN,M,2200.00,2700.00,6400.00,M,M,YBBN 221930Z 18005KT 9999 FEW022 SCT027 BKN064 16/11 Q1027
YBBN,2014-09-22 20:00,153.1292,-27.3917,60.80,51.80,72.20,170.00,5.00,0.00,30.33,M,6.21,M,FEW,SCT,M,M,2200.00,2700.00,M,M,M,YBBN 222000Z 17005KT 9999 FEW022 SCT027 16/11 Q1027 NOSIG
YBBN,2014-09-22 20:30,153.1292,-27.3917,60.80,51.80,72.20,170.00,5.00,0.00,30.33,M,6.21,M,FEW,BKN,M,M,3000.00,6000.00,M,M,M,YBBN 222030Z 17005KT 9999 FEW030 BKN060 16/11 Q1027
YBBN,2014-09-22 21:00,153.1292,-27.3917,62.60,50.00,63.38,170.00,6.00,0.00,30.33,M,6.21,M,SCT,M,M,M,3000.00,M,M,M,M,YBBN 222100Z 17006KT 9999 SCT030 17/10 Q1027
YBBN,2014-09-22 21:30,153.1292,-27.3917,64.40,48.20,55.63,150.00,7.00,0.00,30.36,M,6.21,M,SCT,M,M,M,3000.00,M,M,M,M,YBBN 222130Z 15007KT 9999 SCT030 18/09 Q1028
YBBN,2014-09-22 22:00,153.1292,-27.3917,66.20,50.00,55.88,140.00,9.00,0.00,30.36,M,6.21,M,SCT,SCT,M,M,3500.00,5100.00,M,M,M,YBBN 222200Z 14009KT 9999 SCT035 SCT051 19/10 Q1028
YBBN,2014-09-22 22:30,153.1292,-27.3917,69.80,51.80,52.77,140.00,8.00,0.00,30.36,M,6.21,M,FEW,M,M,M,3500.00,M,M,M,M,YBBN 222230Z 14008KT 9999 FEW035 21/11 Q1028
YBBN,2014-09-22 23:00,153.1292,-27.3917,68.00,50.00,52.51,130.00,8.00,0.00,30.36,M,6.21,M,FEW,BKN,M,M,3500.00,5700.00,M,M,M,YBBN 222300Z 13008KT 9999 FEW035 BKN057 20/10 Q1028
YBBN,2014-09-22 23:30,153.1292,-27.3917,69.80,51.80,52.77,130.00,8.00,0.00,30.36,M,6.21,M,SCT,BKN,M,M,4000.00,6100.00,M,M,VCSH,YBBN 222330Z 13008KT 9999 VCSH SCT040 BKN061 21/11 Q1028
