#DEBUG: Format Typ    -> comma
#DEBUG: Time Period   -> 2016-12-13 00:00:00+00:00 2016-12-14 00:00:00+00:00
#DEBUG: Time Zone     -> Etc/UTC
#DEBUG: Data Contact   -> daryl herzmann akrherz@iastate.edu 515-294-5978
#DEBUG: Entries Found -> -1
station,valid,lon,lat,tmpf, dwpf, relh, drct, sknt, p01i, alti, mslp, vsby, gust, skyc1, skyc2, skyc3, skyc4, skyl1, skyl2, skyl3, skyl4, presentwx, metar
YBBN,2016-12-13 00:00,153.1292,-27.3917,77.00,60.80,57.36,60.00,10.00,0.00,30.12,M,6.21,M,SCT,M,M,M,3800.00,M,M,M,M,YBBN 130000Z 06010KT 050V110 9999 SCT038 25/16 Q1020 NOSIG
YBBN,2016-12-13 00:30,153.1292,-27.3917,77.00,60.80,57.36,50.00,8.00,0.00,30.12,M,6.21,M,SCT,M,M,M,3800.00,M,M,M,M,YBBN 130030Z 05008KT 020V080 9999 SCT038 25/16 Q1020 NOSIG
YBBN,2016-12-13 01:00,153.1292,-27.3917,78.80,60.80,54.05,20.00,9.00,0.00,30.12,M,6.21,M,SCT,M,M,M,3800.00,M,M,M,M,YBBN 130100Z 02009KT 9999 SCT038 26/16 Q1020
YBBN,2016-12-13 01:30,153.1292,-27.3917,78.80,59.00,50.69,30.00,9.00,0.00,30.12,M,6.21,M,SCT,M,M,M,4000.00,M,M,M,M,YBBN 130130Z 03009KT 9999 SCT040 26/15 Q1020 NOSIG
YBBN,2016-12-13 02:00,153.1292,-27.3917,78.80,59.00,50.69,20.00,10.00,0.00,30.09,M,6.21,M,FEW,M,M,M,4000.00,M,M,M,M,YBBN 130200Z 02010KT 9999 FEW040 26/15 Q1019
YBBN,2016-12-13 02:30,153.1292,-27.3917,78.80,57.20,47.52,30.00,10.00,0.00,30.09,M,6.21,M,FEW,M,M,M,4000.00,M,M,M,M,YBBN 130230Z 03010KT 9999 FEW040 26/14 Q1019 NOSIG
YBBN,2016-12-13 03:00,153.1292,-27.3917,80.60,53.60,39.30,30.00,10.00,0.00,30.06,M,6.21,M,FEW,M,M,M,4000.00,M,M,M,M,YBBN 130300Z 03010KT 9999 FEW040 27/12 Q1018 NOSIG
YBBN,2016-12-13 03:30,153.1292,-27.3917,80.60,57.20,44.80,50.00,10.00,0.00,30.06,M,6.21,M,FEW,M,M,M,4000.00,M,M,M,M,YBBN 130330Z 05010KT 9999 FEW040 27/14 Q1018 NOSIG
YBBN,2016-12-13 04:00,153.1292,-27.3917,80.60,57.20,44.80,50.00,11.00,0.00,30.06,M,6.21,M,FEW,M,M,M,4000.00,M,M,M,M,YBBN 130400Z 05011KT 9999 FEW040 27/14 Q1018
YBBN,2016-12-13 04:30,153.1292,-27.3917,80.60,60.80,50.95,50.00,12.00,0.00,30.06,M,6.21,M,FEW,M,M,M,4000.00,M,M,M,M,YBBN 130430Z 05012KT 9999 FEW040 27/16 Q1018 NOSIG
YBBN,2016-12-13 05:00,153.1292,-27.3917,78.80,59.00,50.69,30.00,11.00,0.00,30.03,M,6.21,M,FEW,M,M,M,4000.00,M,M,M,M,YBBN 130500Z 03011KT 9999 FEW040 26/15 Q1017 NOSIG
YBBN,2016-12-13 05:30,153.1292,-27.3917,80.60,60.80,50.95,50.00,11.00,0.00,30.03,M,6.21,M,FEW,M,M,M,4000.00,M,M,M,M,YBBN 130530Z 05011KT 9999 FEW040 27/16 Q1017 NOSIG
YBBN,2016-12-13 06:00,153.1292,-27.3917,78.80,59.00,50.69,40.00,11.00,0.00,30.03,M,6.21,M,FEW,M,M,M,4000.00,M,M,M,M,YBBN 130600Z 04011KT 9999 FEW040 26/15 Q1017
YBBN,2016-12-13 06:30,153.1292,-27.3917,78.80,59.00,50.69,50.00,11.00,0.00,30.03,M,6.21,M,FEW,M,M,M,3500.00,M,M,M,M,YBBN 130630Z 05011KT 9999 FEW035 26/15 Q1017 NOSIG
YBBN,2016-12-13 07:00,153.1292,-27.3917,77.00,62.60,61.13,50.00,11.00,0.00,30.03,M,6.21,M,FEW,M,M,M,3500.00,M,M,M,M,YBBN 130700Z 05011KT 9999 FEW035 25/17 Q1017 NOSIG
YBBN,2016-12-13 07:30,153.1292,-27.3917,77.00,62.60,61.13,60.00,10.00,0.00,30.03,M,6.21,M,FEW,M,M,M,3200.00,M,M,M,M,YBBN 130730Z 06010KT 9999 FEW032 25/17 Q1017 NOSIG
YBBN,2016-12-13 08:00,153.1292,-27.3917,75.20,64.40,69.14,50.00,11.00,0.00,30.03,M,6.21,M,FEW,M,M,M,3200.00,M,M,M,M,YBBN 130800Z 05011KT 9999 FEW032 24/18 Q1017 NOSIG
YBBN,2016-12-13 08:30,153.1292,-27.3917,75.20,64.40,69.14,50.00,10.00,0.00,30.03,M,6.21,M,FEW,M,M,M,2500.00,M,M,M,M,YBBN 130830Z 05010KT 9999 FEW025 24/18 Q1017 NOSIG
YBBN,2016-12-13 09:00,153.1292,-27.3917,73.40,64.40,73.44,50.00,9.00,0.00,30.06,M,6.21,M,FEW,M,M,M,2500.00,M,M,M,M,YBBN 130900Z 05009KT 9999 FEW025 23/18 Q1018 NOSIG
YBBN,2016-12-13 09:30,153.1292,-27.3917,73.40,64.40,73.44,40.00,9.00,0.00,30.06,M,6.21,M,FEW,M,M,M,2500.00,M,M,M,M,YBBN 130930Z 04009KT 9999 FEW025 23/18 Q1018 NOSIG
YBBN,2016-12-13 10:00,153.1292,-27.3917,73.40,64.40,73.44,40.00,7.00,0.00,30.06,M,6.21,M,FEW,M,M,M,2400.00,M,M,M,M,YBBN 131000Z 04007KT 9999 FEW024 23/18 Q1018 NOSIG
YBBN,2016-12-13 10:30,153.1292,-27.3917,71.60,64.40,78.04,30.00,9.00,0.00,30.06,M,6.21,M,FEW,M,M,M,2000.00,M,M,M,M,YBBN 131030Z 03009KT 9999 FEW020 22/18 Q1018 NOSIG
YBBN,2016-12-13 11:00,153.1292,-27.3917,71.60,64.40,78.04,40.00,9.00,0.00,30.06,M,6.21,M,FEW,M,M,M,2000.00,M,M,M,M,YBBN 131100Z 04009KT 9999 FEW020 22/18 Q1018 NOSIG
YBBN,2016-12-13 11:30,153.1292,-27.3917,71.60,64.40,78.04,30.00,9.00,0.00,30.06,M,6.21,M,FEW,M,M,M,2000.00,M,M,M,M,YBBN 131130Z 03009KT 9999 FEW020 22/18 Q1018 NOSIG
YBBN,2016-12-13 12:00,153.1292,-27.3917,71.60,64.40,78.04,30.00,9.00,0.00,30.06,M,6.21,M,FEW,M,M,M,2000.00,M,M,M,M,YBBN 131200Z 03009KT 9999 FEW020 22/18 Q1018
YBBN,2016-12-13 12:30,153.1292,-27.3917,71.60,64.40,78.04,30.00,9.00,0.00,30.06,M,6.21,M,FEW,M,M,M,2000.00,M,M,M,M,YBBN 131230Z 03009KT 9999 FEW020 22/18 Q1018 NOSIG
YBBN,2016-12-13 13:00,153.1292,-27.3917,71.60,64.40,78.04,20.00,11.00,0.00,30.06,M,6.21,M,FEW,M,M,M,2000.00,M,M,M,M,YBBN 131300Z 02011KT 9999 FEW020 22/18 Q1018
YBBN,2016-12-13 13:30,153.1292,-27.3917,71.60,64.40,78.04,20.00,9.00,0.00,30.03,M,6.21,M,FEW,M,M,M,2000.00,M,M,M,M,YBBN 131330Z 02009KT 9999 FEW020 22/18 Q1017 NOSIG
YBBN,2016-12-13 14:00,153.1292,-27.3917,71.60,64.40,78.04,10.00,11.00,0.00,30.03,M,6.21,M,FEW,M,M,M,2300.00,M,M,M,M,YBBN 131400Z 01011KT 9999 FEW023 22/18 Q1017
YBBN,2016-12-13 14:30,153.1292,-27.3917,71.60,64.40,78.04,20.00,9.00,0.00,30.03,M,6.21,M,SCT,M,M,M,2300.00,M,M,M,M,YBBN 131430Z 02009KT 9999 SCT023 22/18 Q1017 NOSIG
YBBN,2016-12-13 15:00,153.1292,-27.3917,71.60,64.40,78.04,10.00,8.00,0.00,30.00,M,6.21,M,SCT,M,M,M,2400.00,M,M,M,M,YBBN 131500Z 01008KT 9999 SCT024 22/18 Q1016
YBBN,2016-12-13 15:30,153.1292,-27.3917,71.60,64.40,78.04,270.00,5.00,0.00,30.00,M,6.21,M,SCT,M,M,M,2400.00,M,M,M,M,YBBN 131530Z 27005KT 9999 SCT024 22/18 Q1016 NOSIG
YBBN,2016-12-13 16:00,153.1292,-27.3917,69.80,66.20,88.34,250.00,5.00,0.00,30.00,M,6.21,M,SCT,M,M,M,2400.00,M,M,M,M,YBBN 131600Z 25005KT 9999 SCT024 21/19 Q1016
YBBN,2016-12-13 16:30,153.1292,-27.3917,69.80,64.40,82.98,260.00,4.00,0.00,30.00,M,6.21,M,FEW,M,M,M,2400.00,M,M,M,M,YBBN 131630Z 26004KT 9999 FEW024 21/18 Q1016 NOSIG
YBBN,2016-12-13 17:00,153.1292,-27.3917,69.80,64.40,82.98,220.00,4.00,0.00,30.00,M,6.21,M,FEW,M,M,M,2400.00,M,M,M,VCSH,YBBN 131700Z 22004KT 9999 VCSH FEW024 21/18 Q1016
YBBN,2016-12-13 17:30,153.1292,-27.3917,69.80,66.20,88.34,0.00,0.00,0.00,30.00,M,6.21,M,SCT,SCT,M,M,2200.00,5500.00,M,M,VCSH,YBBN 131730Z 00000KT 9999 VCSH SCT022 SCT055 21/19 Q1016 NOSIG
YBBN,2016-12-13 18:00,153.1292,-27.3917,69.80,64.40,82.98,0.00,0.00,0.00,30.00,M,6.21,M,SCT,SCT,M,M,2200.00,5500.00,M,M,VCSH,YBBN 131800Z 00000KT 9999 VCSH SCT022 SCT055 21/18 Q1016
YBBN,2016-12-13 18:30,153.1292,-27.3917,69.80,64.40,82.98,200.00,4.00,0.00,30.00,M,6.21,M,FEW,BKN,M,M,2100.00,2400.00,M,M,VCSH,YBBN 131830Z 20004KT 9999 VCSH FEW021 BKN024 21/18 Q1016 NOSIG
YBBN,2016-12-13 19:00,153.1292,-27.3917,69.80,64.40,82.98,210.00,4.00,0.00,30.00,M,6.21,M,SCT,M,M,M,2400.00,M,M,M,M,YBBN 131900Z 21004KT 9999 SCT024 21/18 Q1016
YBBN,2016-12-13 19:30,153.1292,-27.3917,69.80,66.20,88.34,230.00,3.00,0.00,30.00,M,6.21,M,SCT,M,M,M,2400.00,M,M,M,VCSH,YBBN 131930Z 23003KT 9999 VCSH SCT024 21/19 Q1016 NOSIG
YBBN,2016-12-13 20:00,153.1292,-27.3917,71.60,66.20,83.09,220.00,5.00,0.00,30.03,M,6.21,M,BKN,M,M,M,2400.00,M,M,M,VCSH,YBBN 132000Z 22005KT 9999 VCSH BKN024 22/19 Q1017
YBBN,2016-12-13 22:00,153.1292,-27.3917,77.00,62.60,61.13,340.00,8.00,0.00,30.03,M,6.21,M,FEW,M,M,M,3000.00,M,M,M,M,YBBN 132200Z 34008KT 9999 FEW030 25/17 Q1017
YBBN,2016-12-13 23:00,153.1292,-27.3917,77.00,62.60,61.13,350.00,11.00,0.00,30.03,M,6.21,M,FEW,M,M,M,3200.00,M,M,M,M,YBBN 132300Z 35011KT 9999 FEW032 25/17 Q1017 NOSIG
YBBN,2016-12-13 23:30,153.1292,-27.3917,78.80,64.40,61.36,10.00,11.00,0.00,30.00,M,6.21,M,FEW,M,M,M,3500.00,M,M,M,M,YBBN 132330Z 01011KT 9999 FEW035 26/18 Q1016 NOSIG
