#DEBUG: Format Typ    -> comma
#DEBUG: Time Period   -> 2012-11-25 00:00:00+00:00 2012-11-26 00:00:00+00:00
#DEBUG: Time Zone     -> Etc/UTC
#DEBUG: Data Contact   -> daryl herzmann akrherz@iastate.edu 515-294-5978
#DEBUG: Entries Found -> -1
station,valid,lon,lat,tmpf, dwpf, relh, drct, sknt, p01i, alti, mslp, vsby, gust, skyc1, skyc2, skyc3, skyc4, skyl1, skyl2, skyl3, skyl4, presentwx, metar
YBBN,2012-11-25 00:00,153.1292,-27.3917,77.00,60.80,57.36,30.00,9.00,0.00,30.09,M,6.21,M,FEW,M,M,M,3000.00,M,M,M,M,YBBN 250000Z 03009KT 9999 FEW030 25/16 Q1019
YBBN,2012-11-25 00:30,153.1292,-27.3917,77.00,59.00,53.80,30.00,9.00,0.00,30.06,M,6.21,M,FEW,M,M,M,3200.00,M,M,M,M,YBBN 250030Z 03009KT 9999 FEW032 25/15 Q1018
YBBN,2012-11-25 01:00,153.1292,-27.3917,78.80,59.00,50.69,30.00,10.00,0.00,30.06,M,6.21,M,FEW,M,M,M,3200.00,M,M,M,M,YBBN 250100Z 03010KT 9999 FEW032 26/15 Q1018 NOSIG
YBBN,2012-11-25 01:30,153.1292,-27.3917,78.80,59.00,50.69,30.00,10.00,0.00,30.06,M,6.21,M,FEW,M,M,M,3200.00,M,M,M,M,YBBN 250130Z 03010KT 9999 FEW032 26/15 Q1018
YBBN,2012-11-25 02:00,153.1292,-27.3917,78.80,59.00,50.69,40.00,11.00,0.00,30.06,M,6.21,M,FEW,M,M,M,3200.00,M,M,M,M,YBBN 250200Z 04011KT 9999 FEW032 26/15 Q1018
YBBN,2012-11-25 02:30,153.1292,-27.3917,78.80,60.80,54.05,40.00,12.00,0.00,30.03,M,6.21,M,FEW,M,M,M,3200.00,M,M,M,M,YBBN 250230Z 04012KT 9999 FEW032 26/16 Q1017
YBBN,2012-11-25 03:00,153.1292,-27.3917,78.80,59.00,50.69,30.00,13.00,0.00,30.03,M,6.21,M,FEW,M,M,M,3200.00,M,M,M,M,YBBN 250300Z 03013KT 9999 FEW032 26/15 Q1017 NOSIG
YBBN,2012-11-25 03:30,153.1292,-27.3917,78.80,62.60,57.60,30.00,13.00,0.00,30.03,M,6.21,M,FEW,M,M,M,3500.00,M,M,M,M,YBBN 250330Z 03013KT 9999 FEW035 26/17 Q1017
YBBN,2012-11-25 04:00,153.1292,-27.3917,78.80,62.60,57.60,20.00,13.00,0.00,30.00,M,6.21,M,FEW,M,M,M,3300.00,M,M,M,M,YBBN 250400Z 02013KT 9999 FEW033 26/17 Q1016 NOSIG
YBBN,2012-11-25 04:30,153.1292,-27.3917,78.80,62.60,57.60,30.00,12.00,0.00,30.00,M,6.21,M,FEW,M,M,M,3300.00,M,M,M,M,YBBN 250430Z 03012KT 9999 FEW033 26/17 Q1016
YBBN,2012-11-25 05:00,153.1292,-27.3917,78.80,62.60,57.60,20.00,12.00,0.00,30.00,M,6.21,M,FEW,M,M,M,3300.00,M,M,M,M,YBBN 250500Z 02012KT 9999 FEW033 26/17 Q1016
YBBN,2012-11-25 05:30,153.1292,-27.3917,78.80,62.60,57.60,30.00,14.00,0.00,30.00,M,6.21,M,FEW,M,M,M,3300.00,M,M,M,M,YBBN 250530Z 03014KT 9999 FEW033 26/17 Q1016
YBBN,2012-11-25 06:00,153.1292,-27.3917,77.00,62.60,61.13,20.00,13.00,0.00,30.00,M,6.21,M,FEW,M,M,M,3300.00,M,M,M,M,YBBN 250600Z 02013KT 9999 FEW033 25/17 Q1016 NOSIG
YBBN,2012-11-25 06:30,153.1292,-27.3917,77.00,62.60,61.13,20.00,14.00,0.00,30.00,M,6.21,M,FEW,SCT,M,M,3300.00,30000.00,M,M,M,YBBN 250630Z 02014KT 9999 FEW033 SCT300 25/17 Q1016
YBBN,2012-11-25 07:00,153.1292,-27.3917,75.20,62.60,64.91,10.00,13.00,0.00,30.00,M,6.21,M,FEW,SCT,M,M,3500.00,30000.00,M,M,M,YBBN 250700Z 01013KT 9999 FEW035 SCT300 24/17 Q1016 NOSIG
YBBN,2012-11-25 07:30,153.1292,-27.3917,75.20,62.60,64.91,10.00,11.00,0.00,30.03,M,6.21,M,FEW,BKN,M,M,3000.00,28000.00,M,M,M,YBBN 250730Z 01011KT 9999 FEW030 BKN280 24/17 Q1017
YBBN,2012-11-25 08:00,153.1292,-27.3917,73.40,62.60,68.94,20.00,12.00,0.00,30.03,M,6.21,M,FEW,BKN,M,M,3000.00,28000.00,M,M,M,YBBN 250800Z 02012KT 9999 FEW030 BKN280 23/17 Q1017 NOSIG
YBBN,2012-11-25 08:30,153.1292,-27.3917,73.40,62.60,68.94,10.00,11.00,0.00,30.03,M,6.21,M,FEW,BKN,M,M,2800.00,24000.00,M,M,M,YBBN 250830Z 01011KT 9999 FEW028 BKN240 23/17 Q1017
YBBN,2012-11-25 09:00,153.1292,-27.3917,73.40,62.60,68.94,20.00,12.00,0.00,30.03,M,6.21,M,FEW,BKN,M,M,2600.00,24000.00,M,M,M,YBBN 250900Z 02012KT 9999 FEW026 BKN240 23/17 Q1017
YBBN,2012-11-25 09:30,153.1292,-27.3917,73.40,62.60,68.94,20.00,11.00,0.00,30.06,M,6.21,M,FEW,BKN,M,M,2400.00,24000.00,M,M,M,YBBN 250930Z 02011KT 9999 FEW024 BKN240 23/17 Q1018
YBBN,2012-11-25 10:00,153.1292,-27.3917,73.40,62.60,68.94,20.00,11.00,0.00,30.06,M,6.21,M,FEW,BKN,M,M,2400.00,24000.00,M,M,M,YBBN 251000Z 02011KT 9999 FEW024 BKN240 23/17 Q1018 NOSIG
YBBN,2012-11-25 10:30,153.1292,-27.3917,73.40,62.60,68.94,20.00,12.00,0.00,30.06,M,6.21,M,FEW,BKN,M,M,2700.00,23000.00,M,M,M,YBBN 251030Z 02012KT 9999 FEW027 BKN230 23/17 Q1018
YBBN,2012-11-25 11:00,153.1292,-27.3917,73.40,62.60,68.94,20.00,11.00,0.00,30.09,M,6.21,M,FEW,SCT,BKN,M,2500.00,2700.00,23000.00,M,M,YBBN 251100Z 02011KT 9999 FEW025 SCT027 BKN230 23/17 Q1019
YBBN,2012-11-25 11:30,153.1292,-27.3917,73.40,62.60,68.94,20.00,9.00,0.00,30.09,M,6.21,M,FEW,SCT,BKN,M,2700.00,2900.00,23000.00,M,M,YBBN 251130Z 02009KT 9999 FEW027 SCT029 BKN230 23/17 Q1019
YBBN,2012-11-25 12:00,153.1292,-27.3917,71.60,62.60,73.27,20.00,10.00,0.00,30.06,M,6.21,M,FEW,SCT,M,M,2700.00,23000.00,M,M,M,YBBN 251200Z 02010KT 9999 FEW027 SCT230 22/17 Q1018
YBBN,2012-11-25 12:30,153.1292,-27.3917,71.60,62.60,73.27,10.00,8.00,0.00,30.09,M,6.21,M,FEW,M,M,M,2900.00,M,M,M,M,YBBN 251230Z 01008KT 9999 FEW029 22/17 Q1019
YBBN,2012-11-25 13:00,153.1292,-27.3917,73.40,62.60,68.94,20.00,9.00,0.00,30.06,M,6.21,M,FEW,SCT,M,M,2700.00,2900.00,M,M,M,YBBN 251300Z 02009KT 9999 FEW027 SCT029 23/17 Q1018
YBBN,2012-11-25 13:30,153.1292,-27.3917,71.60,62.60,73.27,10.00,10.00,0.00,30.06,M,6.21,M,FEW,SCT,M,M,2900.00,3200.00,M,M,M,YBBN 251330Z 01010KT 9999 FEW029 SCT032 22/17 Q1018
YBBN,2012-11-25 14:00,153.1292,-27.3917,71.60,62.60,73.27,10.00,9.00,0.00,30.06,M,6.21,M,FEW,M,M,M,2900.00,M,M,M,M,YBBN 251400Z 01009KT 9999 FEW029 22/17 Q1018
YBBN,2012-11-25 14:30,153.1292,-27.3917,71.60,62.60,73.27,360.00,7.00,0.00,30.03,M,6.21,M,FEW,M,M,M,2900.00,M,M,M,M,YBBN 251430Z 36007KT 9999 FEW029 22/17 Q1017
YBBN,2012-11-25 15:00,153.1292,-27.3917,71.60,62.60,73.27,310.00,6.00,0.00,30.03,M,6.21,M,FEW,SCT,M,M,2900.00,3300.00,M,M,M,YBBN 251500Z 31006KT 9999 FEW029 SCT033 22/17 Q1017
YBBN,2012-11-25 15:30,153.1292,-27.3917,69.80,62.60,77.90,310.00,5.00,0.00,30.03,M,6.21,M,FEW,SCT,M,M,2900.00,3800.00,M,M,M,YBBN 251530Z 31005KT 9999 FEW029 SCT038 21/17 Q1017
YBBN,2012-11-25 16:00,153.1292,-27.3917,71.60,62.60,73.27,300.00,5.00,0.00,30.03,M,6.21,M,FEW,BKN,M,M,2900.00,3800.00,M,M,M,YBBN 251600Z 30005KT 9999 FEW029 BKN038 22/17 Q1017
YBBN,2012-11-25 16:30,153.1292,-27.3917,69.80,64.40,82.98,300.00,4.00,0.00,30.03,M,6.21,M,FEW,BKN,M,M,2900.00,3900.00,M,M,M,YBBN 251630Z 30004KT 9999 FEW029 BKN039 21/18 Q1017
YBBN,2012-11-25 17:00,153.1292,-27.3917,69.80,62.60,77.90,310.00,5.00,0.00,30.00,M,6.21,M,FEW,BKN,M,M,3200.00,4100.00,M,M,M,YBBN 251700Z 31005KT 9999 FEW032 BKN041 21/17 Q1016
YBBN,2012-11-25 17:30,153.1292,-27.3917,69.80,62.60,77.90,310.00,5.00,0.00,30.00,M,6.21,M,FEW,BKN,M,M,3200.00,4100.00,M,M,M,YBBN 251730Z 31005KT 9999 FEW032 BKN041 21/17 Q1016
YBBN,2012-11-25 18:00,153.1292,-27.3917,69.80,62.60,77.90,310.00,5.00,0.00,30.03,M,6.21,M,FEW,BKN,M,M,3400.00,4500.00,M,M,M,YBBN 251800Z 31005KT 9999 FEW034 BKN045 21/17 Q1017
YBBN,2012-11-25 18:30,153.1292,-27.3917,69.80,62.60,77.90,300.00,5.00,0.00,30.03,M,6.21,M,FEW,BKN,M,M,3200.00,4200.00,M,M,M,YBBN 251830Z 30005KT 9999 FEW032 BKN042 21/17 Q1017
YBBN,2012-11-25 19:00,153.1292,-27.3917,69.80,62.60,77.90,280.00,4.00,0.00,30.03,M,6.21,M,FEW,BKN,M,M,3000.00,4200.00,M,M,M,YBBN 251900Z 28004KT 9999 FEW030 BKN042 21/17 Q1017
YBBN,2012-11-25 19:30,153.1292,-27.3917,71.60,62.60,73.27,260.00,3.00,0.00,30.06,M,6.21,M,FEW,BKN,M,M,3000.00,4100.00,M,M,M,YBBN 251930Z 26003KT 9999 FEW030 BKN041 22/17 Q1018
YBBN,2012-11-25 20:00,153.1292,-27.3917,71.60,62.60,73.27,270.00,4.00,0.00,30.06,M,6.21,M,FEW,BKN,M,M,3000.00,4100.00,M,M,M,YBBN 252000Z 27004KT 9999 FEW030 BKN041 22/17 Q1018
YBBN,2012-11-25 20:30,153.1292,-27.3917,73.40,62.60,68.94,340.00,3.00,0.00,30.06,M,6.21,M,FEW,BKN,M,M,3000.00,5000.00,M,M,M,YBBN 252030Z 34003KT 9999 FEW030 BKN050 23/17 Q1018
YBBN,2012-11-25 21:00,153.1292,-27.3917,73.40,62.60,68.94,340.00,1.00,0.00,30.09,M,6.21,M,FEW,BKN,M,M,3000.00,5000.00,M,M,M,YBBN 252100Z 34001KT 9999 FEW030 BKN050 23/17 Q1019
YBBN,2012-11-25 21:30,153.1292,-27.3917,75.20,62.60,64.91,360.00,5.00,0.00,30.09,M,6.21,M,SCT,SCT,M,M,3000.00,5000.00,M,M,M,YBBN 252130Z 36005KT 9999 SCT030 SCT050 24/17 Q1019
YBBN,2012-11-25 22:00,153.1292,-27.3917,75.20,60.80,60.90,360.00,7.00,0.00,30.09,M,6.21,M,FEW,SCT,M,M,3000.00,5000.00,M,M,M,YBBN 252200Z 36007KT 9999 FEW030 SCT050 24/16 Q1019
YBBN,2012-11-25 22:30,153.1292,-27.3917,77.00,62.60,61.13,360.00,7.00,0.00,30.09,M,6.21,M,FEW,SCT,M,M,3000.00,5000.00,M,M,M,YBBN 252230Z 36007KT 9999 FEW030 SCT050 25/17 Q1019
YBBN,2012-11-25 23:00,153.1292,-27.3917,77.00,62.60,61.13,360.00,9.00,0.00,30.09,M,6.21,M,FEW,SCT,M,M,2500.00,5000.00,M,M,M,YBBN 252300Z 36009KT 9999 FEW025 SCT050 25/17 Q1019
YBBN,2012-11-25 23:30,153.1292,-27.3917,78.80,62.60,57.60,360.00,9.00,0.00,30.06,M,6.21,M,FEW,M,M,M,3000.00,M,M,M,M,YBBN 252330Z 36009KT 9999 FEW030 26/17 Q1018
