#DEBUG: Format Typ    -> comma
#DEBUG: Time Period   -> 2015-12-31 00:00:00+00:00 2016-01-01 00:00:00+00:00
#DEBUG: Time Zone     -> Etc/UTC
#DEBUG: Data Contact   -> daryl herzmann akrherz@iastate.edu 515-294-5978
#DEBUG: Entries Found -> -1
station,valid,lon,lat,tmpf, dwpf, relh, drct, sknt, p01i, alti, mslp, vsby, gust, skyc1, skyc2, skyc3, skyc4, skyl1, skyl2, skyl3, skyl4, presentwx, metar
YBBN,2015-12-31 00:00,153.1292,-27.3917,78.80,53.60,41.69,170.00,10.00,0.00,29.94,M,6.21,M,FEW,SCT,BKN,M,4500.00,5000.00,5800.00,M,M,YBBN 310000Z 17010KT 9999 FEW045 SCT050 BKN058 26/12 Q1014
YBBN,2015-12-31 00:30,153.1292,-27.3917,80.60,53.60,39.30,120.00,10.00,0.00,29.94,M,6.21,M,M,M,M,M,M,M,M,M,M,YBBN 310030Z 12010KT 110V170 CAVOK 27/12 Q1014
YBBN,2015-12-31 01:00,153.1292,-27.3917,78.80,55.40,44.52,120.00,12.00,0.00,29.94,M,6.21,M,M,M,M,M,M,M,M,M,M,YBBN 310100Z 12012KT CAVOK 26/13 Q1014 NOSIG
YBBN,2015-12-31 01:30,153.1292,-27.3917,80.60,53.60,39.30,130.00,11.00,0.00,29.94,M,6.21,M,FEW,SCT,BKN,M,4000.00,5200.00,6400.00,M,M,YBBN 310130Z 13011KT 9999 FEW040 SCT052 BKN064 27/12 Q1014
YBBN,2015-12-31 02:00,153.1292,-27.3917,78.80,57.20,47.52,120.00,13.00,0.00,29.94,M,6.21,M,FEW,BKN,BKN,M,4000.00,5500.00,6400.00,M,M,YBBN 310200Z 12013KT 9999 FEW040 BKN055 BKN064 26/14 Q1014
YBBN,2015-12-31 02:30,153.1292,-27.3917,78.80,60.80,54.05,110.00,14.00,0.00,29.91,M,6.21,M,FEW,SCT,BKN,M,4200.00,5500.00,6700.00,M,M,YBBN 310230Z 11014KT 9999 FEW042 SCT055 BKN067 26/16 Q1013 NOSIG
YBBN,2015-12-31 02:43,153.1292,-27.3917,78.80,60.80,54.05,110.00,15.00,0.00,29.91,M,6.21,26.00,FEW,SCT,BKN,M,4000.00,5800.00,6700.00,M,M,YBBN 310243Z 11015G26KT 9999 FEW040 SCT058 BKN067 26/16 Q1013
YBBN,2015-12-31 03:00,153.1292,-27.3917,78.80,60.80,54.05,110.00,15.00,0.00,29.91,M,6.21,M,FEW,SCT,M,M,4000.00,5800.00,M,M,M,YBBN 310300Z 11015KT 9999 FEW040 SCT058 26/16 Q1013
YBBN,2015-12-31 03:03,153.1292,-27.3917,78.80,60.80,54.05,110.00,15.00,0.00,29.91,M,6.21,25.00,FEW,SCT,BKN,M,4000.00,5800.00,6700.00,M,M,YBBN 310303Z 11015G25KT 9999 FEW040 SCT058 BKN067 26/16 Q1013
YBBN,2015-12-31 03:30,153.1292,-27.3917,78.80,59.00,50.69,110.00,13.00,0.00,29.91,M,6.21,M,FEW,M,M,M,4500.00,M,M,M,M,YBBN 310330Z 11013KT 9999 FEW045 26/15 Q1013 NOSIG
YBBN,2015-12-31 04:00,153.1292,-27.3917,78.80,60.80,54.05,110.00,15.00,0.00,29.91,M,6.21,M,M,M,M,M,M,M,M,M,M,YBBN 310400Z 11015KT CAVOK 26/16 Q1013
YBBN,2015-12-31 04:22,153.1292,-27.3917,78.80,59.00,50.69,110.00,15.00,0.00,29.88,M,6.21,25.00,FEW,M,M,M,4500.00,M,M,M,M,YBBN 310422Z 11015G25KT 9999 FEW045 26/15 Q1012
YBBN,2015-12-31 04:30,153.1292,-27.3917,80.60,57.20,44.80,110.00,16.00,0.00,29.88,M,6.21,M,FEW,M,M,M,4500.00,M,M,M,M,YBBN 310430Z 11016KT 9999 FEW045 27/14 Q1012 NOSIG
YBBN,2015-12-31 05:00,153.1292,-27.3917,78.80,59.00,50.69,110.00,16.00,0.00,29.88,M,6.21,M,FEW,M,M,M,4500.00,M,M,M,M,YBBN 310500Z 11016KT 9999 FEW045 26/15 Q1012
YBBN,2015-12-31 05:11,153.1292,-27.3917,78.80,60.80,54.05,110.00,15.00,0.00,29.88,M,6.21,25.00,FEW,M,M,M,4500.00,M,M,M,M,YBBN 310511Z 11015G25KT 9999 FEW045 26/16 Q1012
YBBN,2015-12-31 05:30,153.1292,-27.3917,78.80,60.80,54.05,110.00,15.00,0.00,29.88,M,6.21,25.00,FEW,M,M,M,4500.00,M,M,M,M,YBBN 310530Z 11015G25KT 9999 FEW045 26/16 Q1012
YBBN,2015-12-31 06:00,153.1292,-27.3917,78.80,60.80,54.05,120.00,15.00,0.00,29.88,M,6.21,27.00,FEW,M,M,M,4000.00,M,M,M,M,YBBN 310600Z 12015G27KT 9999 FEW040 26/16 Q1012
YBBN,2015-12-31 06:30,153.1292,-27.3917,78.80,59.00,50.69,110.00,13.00,0.00,29.88,M,6.21,M,FEW,M,M,M,4000.00,M,M,M,M,YBBN 310630Z 11013KT 9999 FEW040 26/15 Q1012 NOSIG
YBBN,2015-12-31 07:00,153.1292,-27.3917,77.00,60.80,57.36,110.00,15.00,0.00,29.88,M,6.21,M,FEW,M,M,M,3500.00,M,M,M,M,YBBN 310700Z 11015KT 9999 FEW035 25/16 Q1012 NOSIG
YBBN,2015-12-31 07:30,153.1292,-27.3917,77.00,62.60,61.13,120.00,14.00,0.00,29.88,M,6.21,M,FEW,M,M,M,3200.00,M,M,M,M,YBBN 310730Z 12014KT 9999 FEW032 25/17 Q1012 NOSIG
YBBN,2015-12-31 08:00,153.1292,-27.3917,75.20,60.80,60.90,120.00,11.00,0.00,29.91,M,6.21,M,FEW,M,M,M,3000.00,M,M,M,M,YBBN 310800Z 12011KT 9999 FEW030 24/16 Q1013 NOSIG
YBBN,2015-12-31 08:30,153.1292,-27.3917,75.20,60.80,60.90,120.00,12.00,0.00,29.91,M,6.21,M,FEW,M,M,M,3000.00,M,M,M,M,YBBN 310830Z 12012KT 9999 FEW030 24/16 Q1013 NOSIG
YBBN,2015-12-31 09:00,153.1292,-27.3917,73.40,59.00,60.67,130.00,10.00,0.00,29.91,M,6.21,M,FEW,M,M,M,3000.00,M,M,M,M,YBBN 310900Z 13010KT 9999 FEW030 23/15 Q1013 NOSIG
YBBN,2015-12-31 09:30,153.1292,-27.3917,73.40,59.00,60.67,140.00,9.00,0.00,29.94,M,6.21,M,FEW,M,M,M,3000.00,M,M,M,M,YBBN 310930Z 14009KT 9999 FEW030 23/15 Q1014 NOSIG
YBBN,2015-12-31 10:00,153.1292,-27.3917,73.40,57.20,56.88,150.00,9.00,0.00,29.94,M,6.21,M,M,M,M,M,M,M,M,M,M,YBBN 311000Z 15009KT CAVOK 23/14 Q1014 NOSIG
YBBN,2015-12-31 10:30,153.1292,-27.3917,73.40,55.40,53.29,150.00,7.00,0.00,29.94,M,6.21,M,M,M,M,M,M,M,M,M,M,YBBN 311030Z 15007KT CAVOK 23/13 Q1014 NOSIG
YBBN,2015-12-31 11:00,153.1292,-27.3917,71.60,55.40,56.63,160.00,8.00,0.00,29.97,M,6.21,M,M,M,M,M,M,M,M,M,M,YBBN 311100Z 16008KT CAVOK 22/13 Q1015
YBBN,2015-12-31 11:30,153.1292,-27.3917,71.60,57.20,60.44,170.00,9.00,0.00,29.97,M,6.21,M,M,M,M,M,M,M,M,M,M,YBBN 311130Z 17009KT CAVOK 22/14 Q1015 NOSIG
YBBN,2015-12-31 12:00,153.1292,-27.3917,71.60,57.20,60.44,170.00,8.00,0.00,29.94,M,6.21,M,M,M,M,M,M,M,M,M,M,YBBN 311200Z 17008KT CAVOK 22/14 Q1014 NOSIG
YBBN,2015-12-31 12:30,153.1292,-27.3917,71.60,57.20,60.44,180.00,6.00,0.00,29.94,M,6.21,M,M,M,M,M,M,M,M,M,M,YBBN 311230Z 18006KT CAVOK 22/14 Q1014 NOSIG
YBBN,2015-12-31 13:00,153.1292,-27.3917,69.80,57.20,64.26,190.00,7.00,0.00,29.94,M,6.21,M,M,M,M,M,M,M,M,M,M,YBBN 311300Z 19007KT CAVOK 21/14 Q1014 NOSIG
YBBN,2015-12-31 13:30,153.1292,-27.3917,69.80,57.20,64.26,180.00,6.00,0.00,29.94,M,6.21,M,M,M,M,M,M,M,M,M,M,YBBN 311330Z 18006KT CAVOK 21/14 Q1014 NOSIG
YBBN,2015-12-31 14:00,153.1292,-27.3917,69.80,57.20,64.26,190.00,7.00,0.00,29.94,M,6.21,M,M,M,M,M,M,M,M,M,M,YBBN 311400Z 19007KT CAVOK 21/14 Q1014
YBBN,2015-12-31 14:30,153.1292,-27.3917,68.00,57.20,68.35,200.00,9.00,0.00,29.94,M,6.21,M,M,M,M,M,M,M,M,M,M,YBBN 311430Z 20009KT CAVOK 20/14 Q1014 NOSIG
YBBN,2015-12-31 15:00,153.1292,-27.3917,68.00,57.20,68.35,200.00,7.00,0.00,29.91,M,6.21,M,M,M,M,M,M,M,M,M,M,YBBN 311500Z 20007KT CAVOK 20/14 Q1013 NOSIG
YBBN,2015-12-31 15:30,153.1292,-27.3917,68.00,59.00,72.92,200.00,6.00,0.00,29.91,M,6.21,M,M,M,M,M,M,M,M,M,M,YBBN 311530Z 20006KT CAVOK 20/15 Q1013 NOSIG
YBBN,2015-12-31 16:00,153.1292,-27.3917,68.00,55.40,64.04,200.00,7.00,0.00,29.88,M,6.21,M,M,M,M,M,M,M,M,M,M,YBBN 311600Z 20007KT CAVOK 20/13 Q1012 NOSIG
YBBN,2015-12-31 16:30,153.1292,-27.3917,68.00,55.40,64.04,200.00,8.00,0.00,29.88,M,6.21,M,FEW,BKN,M,M,3300.00,4700.00,M,M,M,YBBN 311630Z 20008KT 9999 FEW033 BKN047 20/13 Q1012 NOSIG
YBBN,2015-12-31 17:00,153.1292,-27.3917,68.00,55.40,64.04,200.00,10.00,0.00,29.88,M,6.21,M,FEW,BKN,M,M,3000.00,5400.00,M,M,M,YBBN 311700Z 20010KT 9999 FEW030 BKN054 20/13 Q1012
YBBN,2015-12-31 17:30,153.1292,-27.3917,66.20,55.40,68.15,200.00,9.00,0.00,29.88,M,6.21,M,M,M,M,M,M,M,M,M,M,YBBN 311730Z 20009KT CAVOK 19/13 Q1012 NOSIG
YBBN,2015-12-31 18:00,153.1292,-27.3917,66.20,55.40,68.15,200.00,9.00,0.00,29.88,M,6.21,M,M,M,M,M,M,M,M,M,M,YBBN 311800Z 20009KT CAVOK 19/13 Q1012 NOSIG
YBBN,2015-12-31 18:30,153.1292,-27.3917,64.40,57.20,77.45,210.00,8.00,0.00,29.88,M,6.21,M,M,M,M,M,M,M,M,M,M,YBBN 311830Z 21008KT CAVOK 18/14 Q1012 NOSIG
YBBN,2015-12-31 19:00,153.1292,-27.3917,66.20,57.20,72.74,200.00,9.00,0.00,29.88,M,6.21,M,FEW,BKN,M,M,3000.00,5000.00,M,M,M,YBBN 311900Z 20009KT 9999 FEW030 BKN050 19/14 Q1012 NOSIG
YBBN,2015-12-31 19:30,153.1292,-27.3917,68.00,57.20,68.35,210.00,9.00,0.00,29.91,M,6.21,M,FEW,BKN,M,M,2800.00,5200.00,M,M,M,YBBN 311930Z 21009KT 9999 FEW028 BKN052 20/14 Q1013
YBBN,2015-12-31 20:00,153.1292,-27.3917,68.00,57.20,68.35,210.00,10.00,0.00,29.91,M,6.21,M,FEW,BKN,M,M,2800.00,5200.00,M,M,M,YBBN 312000Z 21010KT 9999 FEW028 BKN052 20/14 Q1013 NOSIG
YBBN,2015-12-31 20:30,153.1292,-27.3917,69.80,57.20,64.26,210.00,10.00,0.00,29.91,M,6.21,M,FEW,M,M,M,3000.00,M,M,M,M,YBBN 312030Z 21010KT 9999 FEW030 21/14 Q1013 NOSIG
YBBN,2015-12-31 21:00,153.1292,-27.3917,71.60,57.20,60.44,210.00,10.00,0.00,29.91,M,6.21,M,FEW,SCT,M,M,3200.00,5200.00,M,M,M,YBBN 312100Z 21010KT 9999 FEW032 SCT052 22/14 Q1013 NOSIG
YBBN,2015-12-31 21:30,153.1292,-27.3917,75.20,57.20,53.55,210.00,10.00,0.00,29.91,M,6.21,M,FEW,SCT,M,M,3600.00,5200.00,M,M,M,YBBN 312130Z 21010KT 9999 FEW036 SCT052 24/14 Q1013 NOSIG
YBBN,2015-12-31 22:30,153.1292,-27.3917,77.00,57.20,50.43,160.00,10.00,0.00,29.91,M,6.21,M,FEW,SCT,M,M,3800.00,5500.00,M,M,M,YBBN 312230Z 16010KT 9999 FEW038 SCT055 25/14 Q1013 NOSIG
YBBN,2015-12-31 23:00,153.1292,-27.3917,77.00,57.20,50.43,180.00,9.00,0.00,29.91,M,6.21,M,FEW,SCT,M,M,4200.00,5500.00,M,M,M,YBBN 312300Z 18009KT 9999 FEW042 SCT055 25/14 Q1013 NOSIG
YBBN,2015-12-31 23:30,153.1292,-27.3917,77.00,55.40,47.25,150.00,8.00,0.00,29.91,M,6.21,M,SCT,SCT,M,M,4600.00,5500.00,M,M,M,YBBN 312330Z 15008KT 110V190 9999 SCT046 SCT055 25/13 Q1013 NOSIG
