#DEBUG: Format Typ    -> comma
#DEBUG: Time Period   -> 2013-10-23 00:00:00+00:00 2013-10-24 00:00:00+00:00
#DEBUG: Time Zone     -> Etc/UTC
#DEBUG: Data Contact   -> daryl herzmann akrherz@iastate.edu 515-294-5978
#DEBUG: Entries Found -> -1
station,valid,lon,lat,tmpf, dwpf, relh, drct, sknt, p01i, alti, mslp, vsby, gust, skyc1, skyc2, skyc3, skyc4, skyl1, skyl2, skyl3, skyl4, presentwx, metar
YBBN,2013-10-23 00:00,153.1292,-27.3917,80.60,60.80,50.95,10.00,12.00,0.00,29.97,M,6.21,M,FEW,M,M,M,3000.00,M,M,M,M,YBBN 230000Z 01012KT 9999 FEW030 27/16 Q1015
YBBN,2013-10-23 00:30,153.1292,-27.3917,78.80,62.60,57.60,20.00,17.00,0.00,29.94,M,6.21,M,FEW,M,M,M,3000.00,M,M,M,M,YBBN 230030Z 02017KT 9999 FEW030 26/17 Q1014
YBBN,2013-10-23 01:00,153.1292,-27.3917,80.60,62.60,54.30,20.00,18.00,0.00,29.94,M,6.21,M,FEW,M,M,M,3500.00,M,M,M,M,YBBN 230100Z 02018KT 9999 FEW035 27/17 Q1014 NOSIG
YBBN,2013-10-23 01:30,153.1292,-27.3917,78.80,62.60,57.60,20.00,18.00,0.00,29.91,M,6.21,M,FEW,M,M,M,3200.00,M,M,M,M,YBBN 230130Z 02018KT 9999 FEW032 26/17 Q1013
YBBN,2013-10-23 02:00,153.1292,-27.3917,78.80,64.40,61.36,20.00,18.00,0.00,29.91,M,6.21,M,FEW,M,M,M,3200.00,M,M,M,M,YBBN 230200Z 02018KT 9999 FEW032 26/18 Q1013
YBBN,2013-10-23 02:30,153.1292,-27.3917,80.60,66.20,61.58,20.00,19.00,0.00,29.91,M,6.21,M,FEW,M,M,M,3200.00,M,M,M,M,YBBN 230230Z 02019KT 9999 FEW032 27/19 Q1013
YBBN,2013-10-23 03:00,153.1292,-27.3917,78.80,66.20,65.33,20.00,19.00,0.00,29.88,M,6.21,M,FEW,M,M,M,3000.00,M,M,M,M,YBBN 230300Z 02019KT 9999 FEW030 26/19 Q1012
YBBN,2013-10-23 03:30,153.1292,-27.3917,78.80,66.20,65.33,20.00,19.00,0.00,29.88,M,6.21,M,FEW,M,M,M,3000.00,M,M,M,M,YBBN 230330Z 02019KT 9999 FEW030 26/19 Q1012
YBBN,2013-10-23 04:00,153.1292,-27.3917,78.80,64.40,61.36,20.00,21.00,0.00,29.85,M,6.21,M,FEW,M,M,M,3000.00,M,M,M,M,YBBN 230400Z 02021KT 9999 FEW030 26/18 Q1011
YBBN,2013-10-23 04:30,153.1292,-27.3917,78.80,66.20,65.33,20.00,21.00,0.00,29.85,M,6.21,M,FEW,M,M,M,2800.00,M,M,M,M,YBBN 230430Z 02021KT 9999 FEW028 26/19 Q1011
YBBN,2013-10-23 05:00,153.1292,-27.3917,78.80,66.20,65.33,20.00,19.00,0.00,29.85,M,6.21,M,FEW,M,M,M,2800.00,M,M,M,M,YBBN 230500Z 02019KT 9999 FEW028 26/19 Q1011 NOSIG
YBBN,2013-10-23 05:30,153.1292,-27.3917,77.00,66.20,69.33,10.00,19.00,0.00,29.83,M,6.21,M,M,M,M,M,M,M,M,M,M,YBBN 230530Z 01019KT CAVOK 25/19 Q1010 RMK HAZE
YBBN,2013-10-23 06:00,153.1292,-27.3917,77.00,66.20,69.33,10.00,19.00,0.00,29.83,M,6.21,M,M,M,M,M,M,M,M,M,M,YBBN 230600Z 01019KT CAVOK 25/19 Q1010
YBBN,2013-10-23 06:30,153.1292,-27.3917,77.00,66.20,69.33,10.00,17.00,0.00,29.83,M,6.21,M,M,M,M,M,M,M,M,M,M,YBBN 230630Z 01017KT CAVOK 25/19 Q1010 RMK HAZE
YBBN,2013-10-23 07:00,153.1292,-27.3917,75.20,66.20,73.61,360.00,18.00,0.00,29.85,M,6.21,M,M,M,M,M,M,M,M,M,M,YBBN 230700Z 36018KT CAVOK 24/19 Q1011
YBBN,2013-10-23 07:30,153.1292,-27.3917,75.20,68.00,78.34,360.00,18.00,0.00,29.85,M,6.21,M,M,M,M,M,M,M,M,M,M,YBBN 230730Z 36018KT CAVOK 24/20 Q1011 RMK HAZE
YBBN,2013-10-23 08:00,153.1292,-27.3917,73.40,66.20,78.19,360.00,15.00,0.00,29.85,M,6.21,M,FEW,M,M,M,3500.00,M,M,M,M,YBBN 230800Z 36015KT 9999 FEW035 23/19 Q1011 NOSIG
YBBN,2013-10-23 08:30,153.1292,-27.3917,73.40,66.20,78.19,360.00,17.00,0.00,29.85,M,6.21,M,M,M,M,M,M,M,M,M,M,YBBN 230830Z 36017KT CAVOK 23/19 Q1011 RMK HZ
YBBN,2013-10-23 09:00,153.1292,-27.3917,73.40,66.20,78.19,360.00,19.00,0.00,29.88,M,6.21,M,M,M,M,M,M,M,M,M,M,YBBN 230900Z 36019KT CAVOK 23/19 Q1012 FM1000 36014KT 9999 SCT018
YBBN,2013-10-23 09:30,153.1292,-27.3917,73.40,68.00,83.21,360.00,18.00,0.00,29.88,M,6.21,M,M,M,M,M,M,M,M,M,M,YBBN 230930Z 36018KT CAVOK 23/20 Q1012 RMK HZ
YBBN,2013-10-23 10:00,153.1292,-27.3917,73.40,68.00,83.21,10.00,19.00,0.00,29.88,M,6.21,M,M,M,M,M,M,M,M,M,M,YBBN 231000Z 01019KT CAVOK 23/20 Q1012 NOSIG
YBBN,2013-10-23 10:30,153.1292,-27.3917,73.40,68.00,83.21,360.00,19.00,0.00,29.88,M,6.21,M,M,M,M,M,M,M,M,M,M,YBBN 231030Z 36019KT CAVOK 23/20 Q1012 RMK HZ
YBBN,2013-10-23 11:00,153.1292,-27.3917,73.40,68.00,83.21,10.00,19.00,0.00,29.88,M,6.21,M,M,M,M,M,M,M,M,M,M,YBBN 231100Z 01019KT CAVOK 23/20 Q1012 NOSIG
YBBN,2013-10-23 11:13,153.1292,-27.3917,73.40,68.00,83.21,10.00,18.00,0.00,29.88,M,6.21,28.00,M,M,M,M,M,M,M,M,M,YBBN 231113Z 01018G28KT CAVOK 23/20 Q1012
YBBN,2013-10-23 11:30,153.1292,-27.3917,73.40,68.00,83.21,10.00,18.00,0.00,29.88,M,6.21,M,M,M,M,M,M,M,M,M,M,YBBN 231130Z 01018KT CAVOK 23/20 Q1012 RMK HZ
YBBN,2013-10-23 12:00,153.1292,-27.3917,73.40,68.00,83.21,360.00,19.00,0.00,29.88,M,6.21,M,M,M,M,M,M,M,M,M,M,YBBN 231200Z 36019KT CAVOK 23/20 Q1012 NOSIG
YBBN,2013-10-23 12:30,153.1292,-27.3917,73.40,66.20,78.19,360.00,17.00,0.00,29.88,M,6.21,M,M,M,M,M,M,M,M,M,M,YBBN 231230Z 36017KT CAVOK 23/19 Q1012 RMK HZ
YBBN,2013-10-23 13:00,153.1292,-27.3917,73.40,64.40,73.44,360.00,16.00,0.00,29.88,M,6.21,M,M,M,M,M,M,M,M,M,M,YBBN 231300Z 36016KT CAVOK 23/18 Q1012 NOSIG
YBBN,2013-10-23 13:30,153.1292,-27.3917,73.40,64.40,73.44,350.00,14.00,0.00,29.88,M,6.21,M,M,M,M,M,M,M,M,M,M,YBBN 231330Z 35014KT CAVOK 23/18 Q1012
YBBN,2013-10-23 14:00,153.1292,-27.3917,71.60,64.40,78.04,350.00,10.00,0.00,29.88,M,6.21,M,M,M,M,M,M,M,M,M,M,YBBN 231400Z 35010KT CAVOK 22/18 Q1012 NOSIG
YBBN,2013-10-23 14:30,153.1292,-27.3917,69.80,62.60,77.90,350.00,8.00,0.00,29.88,M,6.21,M,M,M,M,M,M,M,M,M,M,YBBN 231430Z 35008KT CAVOK 21/17 Q1012
YBBN,2013-10-23 15:00,153.1292,-27.3917,69.80,62.60,77.90,360.00,10.00,0.00,29.88,M,6.21,M,M,M,M,M,M,M,M,M,M,YBBN 231500Z 36010KT CAVOK 21/17 Q1012 NOSIG
YBBN,2013-10-23 15:30,153.1292,-27.3917,69.80,64.40,82.98,350.00,12.00,0.00,29.88,M,6.21,M,M,M,M,M,M,M,M,M,M,YBBN 231530Z 35012KT CAVOK 21/18 Q1012
YBBN,2013-10-23 16:00,153.1292,-27.3917,69.80,64.40,82.98,350.00,12.00,0.00,29.88,M,6.21,M,M,M,M,M,M,M,M,M,M,YBBN 231600Z 35012KT CAVOK 21/18 Q1012 NOSIG
YBBN,2013-10-23 16:30,153.1292,-27.3917,69.80,66.20,88.34,350.00,10.00,0.00,29.85,M,6.21,M,M,M,M,M,M,M,M,M,M,YBBN 231630Z 35010KT CAVOK 21/19 Q1011
YBBN,2013-10-23 17:00,153.1292,-27.3917,68.00,64.40,88.26,310.00,7.00,0.00,29.85,M,6.21,M,M,M,M,M,M,M,M,M,M,YBBN 231700Z 31007KT CAVOK 20/18 Q1011 NOSIG
YBBN,2013-10-23 17:30,153.1292,-27.3917,68.00,64.40,88.26,340.00,11.00,0.00,29.85,M,6.21,M,M,M,M,M,M,M,M,M,M,YBBN 231730Z 34011KT CAVOK 20/18 Q1011
YBBN,2013-10-23 18:00,153.1292,-27.3917,69.80,66.20,88.34,350.00,11.00,0.00,29.85,M,6.21,M,M,M,M,M,M,M,M,M,M,YBBN 231800Z 35011KT CAVOK 21/19 Q1011 NOSIG
YBBN,2013-10-23 18:30,153.1292,-27.3917,69.80,66.20,88.34,350.00,12.00,0.00,29.85,M,6.21,M,M,M,M,M,M,M,M,M,M,YBBN 231830Z 35012KT CAVOK 21/19 Q1011
YBBN,2013-10-23 19:00,153.1292,-27.3917,69.80,66.20,88.34,360.00,13.00,0.00,29.88,M,6.21,M,M,M,M,M,M,M,M,M,M,YBBN 231900Z 36013KT CAVOK 21/19 Q1012 NOSIG
YBBN,2013-10-23 19:30,153.1292,-27.3917,71.60,66.20,83.09,350.00,10.00,0.00,29.88,M,6.21,M,FEW,SCT,M,M,1700.00,14000.00,M,M,M,YBBN 231930Z 35010KT 9999 FEW017 SCT140 22/19 Q1012
YBBN,2013-10-23 20:00,153.1292,-27.3917,71.60,66.20,83.09,340.00,10.00,0.00,29.91,M,6.21,M,FEW,SCT,M,M,1700.00,14000.00,M,M,M,YBBN 232000Z 34010KT 9999 FEW017 SCT140 22/19 Q1013 NOSIG
YBBN,2013-10-23 20:30,153.1292,-27.3917,73.40,66.20,78.19,340.00,8.00,0.00,29.91,M,6.21,M,FEW,SCT,M,M,1800.00,13000.00,M,M,M,YBBN 232030Z 34008KT 9999 FEW018 SCT130 23/19 Q1013
YBBN,2013-10-23 21:00,153.1292,-27.3917,73.40,66.20,78.19,360.00,8.00,0.00,29.91,M,6.21,M,FEW,SCT,M,M,1800.00,13000.00,M,M,M,YBBN 232100Z 36008KT 9999 FEW018 SCT130 23/19 Q1013 NOSIG
YBBN,2013-10-23 21:30,153.1292,-27.3917,75.20,64.40,69.14,350.00,11.00,0.00,29.91,M,6.21,M,FEW,SCT,M,M,2200.00,13000.00,M,M,M,YBBN 232130Z 35011KT 9999 FEW022 SCT130 24/18 Q1013
YBBN,2013-10-23 22:00,153.1292,-27.3917,75.20,64.40,69.14,350.00,10.00,0.00,29.91,M,6.21,M,FEW,SCT,M,M,2300.00,13000.00,M,M,M,YBBN 232200Z 35010KT 9999 FEW023 SCT130 24/18 Q1013
YBBN,2013-10-23 22:30,153.1292,-27.3917,77.00,62.60,61.13,350.00,12.00,0.00,29.91,M,6.21,M,FEW,SCT,M,M,2300.00,12500.00,M,M,M,YBBN 232230Z 35012KT 9999 FEW023 SCT125 25/17 Q1013
YBBN,2013-10-23 23:00,153.1292,-27.3917,78.80,62.60,57.60,10.00,12.00,0.00,29.91,M,6.21,M,FEW,SCT,M,M,2300.00,12500.00,M,M,M,YBBN 232300Z 01012KT 9999 FEW023 SCT125 26/17 Q1013 FM0001 36014KT 9999 FEW030
YBBN,2013-10-23 23:30,153.1292,-27.3917,80.60,64.40,57.84,10.00,12.00,0.00,29.91,M,6.21,M,M,M,M,M,M,M,M,M,M,YBBN 232330Z 01012KT CAVOK 27/18 Q1013 RMK VIRGA
