#DEBUG: Format Typ    -> comma
#DEBUG: Time Period   -> 2013-11-27 00:00:00+00:00 2013-11-28 00:00:00+00:00
#DEBUG: Time Zone     -> Etc/UTC
#DEBUG: Data Contact   -> daryl herzmann akrherz@iastate.edu 515-294-5978
#DEBUG: Entries Found -> -1
station,valid,lon,lat,tmpf, dwpf, relh, drct, sknt, p01i, alti, mslp, vsby, gust, skyc1, skyc2, skyc3, skyc4, skyl1, skyl2, skyl3, skyl4, presentwx, metar
YBBN,2013-11-27 00:00,153.1292,-27.3917,75.20,53.60,46.98,110.00,9.00,0.00,30.00,M,6.21,M,FEW,M,M,M,4500.00,M,M,M,M,YBBN 270000Z 11009KT 9999 FEW045 24/12 Q1016 NOSIG
YBBN,2013-11-27 00:30,153.1292,-27.3917,75.20,53.60,46.98,110.00,9.00,0.00,29.97,M,6.21,M,FEW,M,M,M,4500.00,M,M,M,M,YBBN 270030Z 11009KT 9999 FEW045 24/12 Q1015
YBBN,2013-11-27 01:00,153.1292,-27.3917,75.20,55.40,50.17,90.00,10.00,0.00,29.97,M,6.21,M,M,M,M,M,M,M,M,M,M,YBBN 270100Z 09010KT CAVOK 24/13 Q1015 NOSIG
YBBN,2013-11-27 01:30,153.1292,-27.3917,77.00,55.40,47.25,90.00,11.00,0.00,29.97,M,6.21,M,M,M,M,M,M,M,M,M,M,YBBN 270130Z 09011KT CAVOK 25/13 Q1015
YBBN,2013-11-27 02:00,153.1292,-27.3917,77.00,55.40,47.25,90.00,10.00,0.00,29.94,M,6.21,M,M,M,M,M,M,M,M,M,M,YBBN 270200Z 09010KT CAVOK 25/13 Q1014 NOSIG
YBBN,2013-11-27 02:30,153.1292,-27.3917,77.00,53.60,44.25,80.00,10.00,0.00,29.94,M,6.21,M,M,M,M,M,M,M,M,M,M,YBBN 270230Z 08010KT CAVOK 25/12 Q1014
YBBN,2013-11-27 03:00,153.1292,-27.3917,77.00,55.40,47.25,90.00,10.00,0.00,29.94,M,6.21,M,M,M,M,M,M,M,M,M,M,YBBN 270300Z 09010KT CAVOK 25/13 Q1014 NOSIG
YBBN,2013-11-27 03:30,153.1292,-27.3917,77.00,55.40,47.25,90.00,8.00,0.00,29.94,M,6.21,M,M,M,M,M,M,M,M,M,M,YBBN 270330Z 09008KT CAVOK 25/13 Q1014
YBBN,2013-11-27 04:00,153.1292,-27.3917,77.00,57.20,50.43,50.00,11.00,0.00,29.94,M,6.21,M,M,M,M,M,M,M,M,M,M,YBBN 270400Z 05011KT CAVOK 25/14 Q1014 NOSIG
YBBN,2013-11-27 04:30,153.1292,-27.3917,75.20,55.40,50.17,60.00,11.00,0.00,29.94,M,6.21,M,FEW,M,M,M,4000.00,M,M,M,M,YBBN 270430Z 06011KT 9999 FEW040 24/13 Q1014
YBBN,2013-11-27 05:00,153.1292,-27.3917,75.20,57.20,53.55,70.00,11.00,0.00,29.91,M,6.21,M,FEW,M,M,M,4000.00,M,M,M,M,YBBN 270500Z 07011KT 9999 FEW040 24/14 Q1013 NOSIG
YBBN,2013-11-27 05:30,153.1292,-27.3917,77.00,55.40,47.25,70.00,12.00,0.00,29.91,M,6.21,M,FEW,M,M,M,4000.00,M,M,M,M,YBBN 270530Z 07012KT 9999 FEW040 25/13 Q1013
YBBN,2013-11-27 06:00,153.1292,-27.3917,75.20,55.40,50.17,70.00,12.00,0.00,29.91,M,6.21,M,FEW,M,M,M,4000.00,M,M,M,M,YBBN 270600Z 07012KT 9999 FEW040 24/13 Q1013
YBBN,2013-11-27 06:30,153.1292,-27.3917,75.20,57.20,53.55,80.00,11.00,0.00,29.91,M,6.21,M,FEW,M,M,M,4000.00,M,M,M,M,YBBN 270630Z 08011KT 9999 FEW040 24/14 Q1013
YBBN,2013-11-27 07:00,153.1292,-27.3917,75.20,59.00,57.12,90.00,9.00,0.00,29.94,M,6.21,M,FEW,M,M,M,3500.00,M,M,M,M,YBBN 270700Z 09009KT 9999 FEW035 24/15 Q1014 NOSIG
YBBN,2013-11-27 07:30,153.1292,-27.3917,73.40,59.00,60.67,90.00,7.00,0.00,29.94,M,6.21,M,FEW,M,M,M,3500.00,M,M,M,M,YBBN 270730Z 09007KT 9999 FEW035 23/15 Q1014
YBBN,2013-11-27 08:00,153.1292,-27.3917,71.60,59.00,64.48,90.00,7.00,0.00,29.94,M,6.21,M,FEW,M,M,M,3000.00,M,M,M,M,YBBN 270800Z 09007KT 9999 FEW030 22/15 Q1014 NOSIG
YBBN,2013-11-27 08:30,153.1292,-27.3917,71.60,57.20,60.44,80.00,7.00,0.00,29.97,M,6.21,M,FEW,M,M,M,2400.00,M,M,M,M,YBBN 270830Z 08007KT 9999 FEW024 22/14 Q1015
YBBN,2013-11-27 09:00,153.1292,-27.3917,71.60,57.20,60.44,80.00,7.00,0.00,29.97,M,6.21,M,FEW,M,M,M,2400.00,M,M,M,M,YBBN 270900Z 08007KT 9999 FEW024 22/14 Q1015 NOSIG
YBBN,2013-11-27 09:30,153.1292,-27.3917,71.60,57.20,60.44,80.00,6.00,0.00,29.97,M,6.21,M,FEW,SCT,M,M,2400.00,3200.00,M,M,M,YBBN 270930Z 08006KT 9999 FEW024 SCT032 22/14 Q1015
YBBN,2013-11-27 10:00,153.1292,-27.3917,71.60,55.40,56.63,100.00,6.00,0.00,29.97,M,6.21,M,FEW,SCT,M,M,2400.00,3200.00,M,M,M,YBBN 271000Z 10006KT 9999 FEW024 SCT032 22/13 Q1015 NOSIG
YBBN,2013-11-27 10:30,153.1292,-27.3917,69.80,55.40,60.21,90.00,5.00,0.00,30.00,M,6.21,M,FEW,M,M,M,2500.00,M,M,M,M,YBBN 271030Z 09005KT 9999 FEW025 21/13 Q1016
YBBN,2013-11-27 11:00,153.1292,-27.3917,69.80,57.20,64.26,100.00,5.00,0.00,30.00,M,6.21,M,FEW,SCT,M,M,2500.00,3600.00,M,M,M,YBBN 271100Z 10005KT 9999 FEW025 SCT036 21/14 Q1016 NOSIG
YBBN,2013-11-27 11:30,153.1292,-27.3917,71.60,57.20,60.44,90.00,5.00,0.00,30.00,M,6.21,M,FEW,SCT,M,M,2500.00,3500.00,M,M,M,YBBN 271130Z 09005KT 9999 FEW025 SCT035 22/14 Q1016
YBBN,2013-11-27 12:00,153.1292,-27.3917,71.60,59.00,64.48,90.00,6.00,0.00,30.00,M,6.21,M,FEW,BKN,M,M,2500.00,3500.00,M,M,M,YBBN 271200Z 09006KT 9999 FEW025 BKN035 22/15 Q1016 NOSIG
YBBN,2013-11-27 12:30,153.1292,-27.3917,71.60,59.00,64.48,110.00,6.00,0.00,30.00,M,6.21,M,FEW,SCT,M,M,2500.00,3600.00,M,M,M,YBBN 271230Z 11006KT 9999 FEW025 SCT036 22/15 Q1016
YBBN,2013-11-27 13:00,153.1292,-27.3917,69.80,59.00,68.55,100.00,5.00,0.00,30.00,M,6.21,M,FEW,BKN,M,M,2400.00,3600.00,M,M,M,YBBN 271300Z 10005KT 9999 FEW024 BKN036 21/15 Q1016 NOSIG
YBBN,2013-11-27 13:30,153.1292,-27.3917,69.80,59.00,68.55,100.00,5.00,0.00,30.00,M,6.21,M,FEW,BKN,M,M,2300.00,3300.00,M,M,M,YBBN 271330Z 10005KT 9999 FEW023 BKN033 21/15 Q1016
YBBN,2013-11-27 14:00,153.1292,-27.3917,69.80,57.20,64.26,110.00,6.00,0.00,30.00,M,6.21,M,FEW,SCT,BKN,M,2300.00,3300.00,4200.00,M,M,YBBN 271400Z 11006KT 9999 FEW023 SCT033 BKN042 21/14 Q1016 NOSIG
YBBN,2013-11-27 14:30,153.1292,-27.3917,69.80,59.00,68.55,110.00,4.00,0.00,29.97,M,6.21,M,FEW,SCT,M,M,2300.00,4000.00,M,M,M,YBBN 271430Z 11004KT 9999 FEW023 SCT040 21/15 Q1015
YBBN,2013-11-27 15:00,153.1292,-27.3917,68.00,59.00,72.92,0.00,0.00,0.00,29.97,M,6.21,M,FEW,SCT,M,M,2300.00,4000.00,M,M,M,YBBN 271500Z 00000KT 9999 FEW023 SCT040 20/15 Q1015 NOSIG
YBBN,2013-11-27 15:30,153.1292,-27.3917,68.00,59.00,72.92,130.00,3.00,0.00,29.94,M,6.21,M,FEW,SCT,M,M,2400.00,3700.00,M,M,M,YBBN 271530Z 13003KT 9999 FEW024 SCT037 20/15 Q1014
YBBN,2013-11-27 16:00,153.1292,-27.3917,68.00,59.00,72.92,0.00,0.00,0.00,29.94,M,6.21,M,FEW,BKN,M,M,2400.00,3600.00,M,M,M,YBBN 271600Z 00000KT 9999 FEW024 BKN036 20/15 Q1014 NOSIG
YBBN,2013-11-27 16:30,153.1292,-27.3917,68.00,60.80,77.75,0.00,0.00,0.00,29.94,M,6.21,M,FEW,BKN,M,M,2800.00,3600.00,M,M,M,YBBN 271630Z 00000KT 9999 FEW028 BKN036 20/16 Q1014
YBBN,2013-11-27 17:00,153.1292,-27.3917,68.00,60.80,77.75,0.00,0.00,0.00,29.94,M,6.21,M,FEW,BKN,M,M,2200.00,3700.00,M,M,M,YBBN 271700Z 00000KT 9999 FEW022 BKN037 20/16 Q1014 NOSIG
YBBN,2013-11-27 17:30,153.1292,-27.3917,68.00,59.00,72.92,190.00,5.00,0.00,29.94,M,6.21,M,FEW,BKN,M,M,2200.00,3700.00,M,M,M,YBBN 271730Z 19005KT 9999 FEW022 BKN037 20/15 Q1014
YBBN,2013-11-27 18:00,153.1292,-27.3917,66.20,59.00,77.60,190.00,6.00,0.00,29.94,M,6.21,M,FEW,SCT,M,M,2200.00,3600.00,M,M,M,YBBN 271800Z 19006KT 9999 FEW022 SCT036 19/15 Q1014
YBBN,2013-11-27 18:30,153.1292,-27.3917,62.60,59.00,88.00,220.00,5.00,0.00,29.94,M,6.21,M,FEW,M,M,M,2200.00,M,M,M,M,YBBN 271830Z 22005KT 9999 FEW022 17/15 Q1014
YBBN,2013-11-27 19:00,153.1292,-27.3917,64.40,59.00,82.62,220.00,5.00,0.00,29.94,M,6.21,M,FEW,M,M,M,2300.00,M,M,M,M,YBBN 271900Z 22005KT 9999 FEW023 18/15 Q1014
YBBN,2013-11-27 19:30,153.1292,-27.3917,66.20,60.80,82.74,190.00,5.00,0.00,29.97,M,6.21,M,FEW,M,M,M,2300.00,M,M,M,M,YBBN 271930Z 19005KT 9999 FEW023 19/16 Q1015
YBBN,2013-11-27 20:00,153.1292,-27.3917,68.00,60.80,77.75,210.00,4.00,0.00,29.97,M,6.21,M,FEW,M,M,M,2600.00,M,M,M,M,YBBN 272000Z 21004KT 9999 FEW026 20/16 Q1015 NOSIG
YBBN,2013-11-27 20:30,153.1292,-27.3917,69.80,60.80,73.09,210.00,4.00,0.00,29.97,M,6.21,M,FEW,M,M,M,2600.00,M,M,M,M,YBBN 272030Z 21004KT 9999 FEW026 21/16 Q1015
YBBN,2013-11-27 21:00,153.1292,-27.3917,71.60,59.00,64.48,210.00,5.00,0.00,29.97,M,6.21,M,FEW,M,M,M,2600.00,M,M,M,M,YBBN 272100Z 21005KT 9999 FEW026 22/15 Q1015 NOSIG
YBBN,2013-11-27 21:30,153.1292,-27.3917,73.40,59.00,60.67,220.00,3.00,0.00,29.97,M,6.21,M,FEW,M,M,M,2800.00,M,M,M,M,YBBN 272130Z 22003KT 9999 FEW028 23/15 Q1015
YBBN,2013-11-27 22:00,153.1292,-27.3917,75.20,60.80,60.90,360.00,4.00,0.00,29.97,M,6.21,M,FEW,M,M,M,2800.00,M,M,M,M,YBBN 272200Z 36004KT 9999 FEW028 24/16 Q1015
YBBN,2013-11-27 22:30,153.1292,-27.3917,75.20,60.80,60.90,10.00,7.00,0.00,29.97,M,6.21,M,FEW,M,M,M,3100.00,M,M,M,M,YBBN 272230Z 01007KT 9999 FEW031 24/16 Q1015
YBBN,2013-11-27 23:00,153.1292,-27.3917,75.20,59.00,57.12,360.00,8.00,0.00,29.97,M,6.21,M,FEW,M,M,M,3100.00,M,M,M,M,YBBN 272300Z 36008KT 9999 FEW031 24/15 Q1015 NOSIG
YBBN,2013-11-27 23:30,153.1292,-27.3917,77.00,62.60,61.13,20.00,10.00,0.00,29.97,M,6.21,M,FEW,M,M,M,3100.00,M,M,M,M,YBBN 272330Z 02010KT 9999 FEW031 25/17 Q1015
