#DEBUG: Format Typ    -> comma
#DEBUG: Time Period   -> 2012-09-23 00:00:00+00:00 2012-09-24 00:00:00+00:00
#DEBUG: Time Zone     -> Etc/UTC
#DEBUG: Data Contact   -> daryl herzmann akrherz@iastate.edu 515-294-5978
#DEBUG: Entries Found -> -1
station,valid,lon,lat,tmpf, dwpf, relh, drct, sknt, p01i, alti, mslp, vsby, gust, skyc1, skyc2, skyc3, skyc4, skyl1, skyl2, skyl3, skyl4, presentwx, metar
YBBN,2012-09-23 00:00,153.1292,-27.3917,77.00,60.80,57.36,250.00,5.00,0.00,29.88,M,6.21,M,FEW,M,M,M,1700.00,M,M,M,M,YBBN 230000Z 25005KT 9999 FEW017 25/16 Q1012
YBBN,2012-09-23 00:30,153.1292,-27.3917,78.80,59.00,50.69,290.00,4.00,0.00,29.88,M,6.21,M,FEW,M,M,M,1700.00,M,M,M,M,YBBN 230030Z 29004KT 9999 FEW017 26/15 Q1012
YBBN,2012-09-23 01:00,153.1292,-27.3917,80.60,59.00,47.79,30.00,8.00,0.00,29.85,M,6.21,M,FEW,M,M,M,1700.00,M,M,M,M,YBBN 230100Z 03008KT 9999 FEW017 27/15 Q1011 NOSIG
YBBN,2012-09-23 01:30,153.1292,-27.3917,77.00,62.60,61.13,40.00,9.00,0.00,29.85,M,6.21,M,FEW,M,M,M,1800.00,M,M,M,M,YBBN 230130Z 04009KT 9999 FEW018 25/17 Q1011
YBBN,2012-09-23 02:00,153.1292,-27.3917,78.80,62.60,57.60,30.00,11.00,0.00,29.85,M,6.21,M,FEW,M,M,M,1800.00,M,M,M,M,YBBN 230200Z 03011KT 9999 FEW018 26/17 Q1011
YBBN,2012-09-23 02:30,153.1292,-27.3917,78.80,64.40,61.36,40.00,11.00,0.00,29.83,M,6.21,M,FEW,M,M,M,3000.00,M,M,M,M,YBBN 230230Z 04011KT 9999 FEW030 26/18 Q1010
YBBN,2012-09-23 03:00,153.1292,-27.3917,78.80,62.60,57.60,30.00,10.00,0.00,29.83,M,6.21,M,FEW,M,M,M,3000.00,M,M,M,M,YBBN 230300Z 03010KT 9999 FEW030 26/17 Q1010
YBBN,2012-09-23 03:30,153.1292,-27.3917,78.80,62.60,57.60,30.00,13.00,0.00,29.80,M,6.21,M,FEW,M,M,M,2000.00,M,M,M,M,YBBN 230330Z 03013KT 9999 FEW020 26/17 Q1009
YBBN,2012-09-23 04:00,153.1292,-27.3917,78.80,60.80,54.05,20.00,11.00,0.00,29.80,M,6.21,M,FEW,M,M,M,2000.00,M,M,M,M,YBBN 230400Z 02011KT 9999 FEW020 26/16 Q1009 NOSIG
YBBN,2012-09-23 04:30,153.1292,-27.3917,75.20,64.40,69.14,10.00,12.00,0.00,29.80,M,6.21,M,FEW,M,M,M,3500.00,M,M,M,M,YBBN 230430Z 01012KT 9999 FEW035 24/18 Q1009
YBBN,2012-09-23 05:00,153.1292,-27.3917,75.20,64.40,69.14,10.00,11.00,0.00,29.80,M,6.21,M,FEW,M,M,M,3500.00,M,M,M,M,YBBN 230500Z 01011KT 9999 FEW035 24/18 Q1009
YBBN,2012-09-23 05:30,153.1292,-27.3917,75.20,66.20,73.61,20.00,12.00,0.00,29.80,M,6.21,M,FEW,M,M,M,3500.00,M,M,M,M,YBBN 230530Z 02012KT 9999 FEW035 24/19 Q1009
YBBN,2012-09-23 06:00,153.1292,-27.3917,75.20,64.40,69.14,20.00,10.00,0.00,29.80,M,6.21,M,M,M,M,M,M,M,M,M,M,YBBN 230600Z 02010KT CAVOK 24/18 Q1009
YBBN,2012-09-23 06:30,153.1292,-27.3917,73.40,66.20,78.19,30.00,9.00,0.00,29.83,M,6.21,M,M,M,M,M,M,M,M,M,M,YBBN 230630Z 03009KT CAVOK 23/19 Q1010
YBBN,2012-09-23 07:00,153.1292,-27.3917,71.60,66.20,83.09,30.00,7.00,0.00,29.83,M,6.21,M,FEW,M,M,M,1500.00,M,M,M,M,YBBN 230700Z 03007KT 9999 FEW015 22/19 Q1010 NOSIG
YBBN,2012-09-23 07:30,153.1292,-27.3917,69.80,66.20,88.34,30.00,7.00,0.00,29.83,M,6.21,M,FEW,M,M,M,1500.00,M,M,M,M,YBBN 230730Z 03007KT 9999 FEW015 21/19 Q1010 RMK FU
YBBN,2012-09-23 08:00,153.1292,-27.3917,68.00,66.20,93.97,20.00,4.00,0.00,29.85,M,6.21,M,FEW,M,M,M,1500.00,M,M,M,M,YBBN 230800Z 02004KT 9999 FEW015 20/19 Q1011 RMK FU
YBBN,2012-09-23 08:30,153.1292,-27.3917,68.00,66.20,93.97,0.00,0.00,0.00,29.85,M,6.21,M,FEW,M,M,M,1500.00,M,M,M,M,YBBN 230830Z 00000KT 9999 FEW015 20/19 Q1011 RMK HAZE
YBBN,2012-09-23 09:00,153.1292,-27.3917,68.00,64.40,88.26,360.00,2.00,0.00,29.85,M,6.21,M,FEW,M,M,M,1500.00,M,M,M,M,YBBN 230900Z 36002KT 9999 FEW015 20/18 Q1011 NOSIG
YBBN,2012-09-23 09:30,153.1292,-27.3917,66.20,64.40,93.92,360.00,6.00,0.00,29.88,M,6.21,M,FEW,M,M,M,1500.00,M,M,M,M,YBBN 230930Z 36006KT 9999 FEW015 19/18 Q1012 RMK HAZE
YBBN,2012-09-23 10:00,153.1292,-27.3917,68.00,66.20,93.97,10.00,7.00,0.00,29.88,M,6.21,M,FEW,M,M,M,1500.00,M,M,M,M,YBBN 231000Z 01007KT 9999 FEW015 20/19 Q1012 NOSIG
YBBN,2012-09-23 10:30,153.1292,-27.3917,68.00,64.40,88.26,10.00,6.00,0.00,29.88,M,6.21,M,FEW,M,M,M,1500.00,M,M,M,M,YBBN 231030Z 01006KT 9999 FEW015 20/18 Q1012 RMK HAZE
YBBN,2012-09-23 11:00,153.1292,-27.3917,68.00,66.20,93.97,40.00,4.00,0.00,29.88,M,6.21,M,FEW,M,M,M,1500.00,M,M,M,M,YBBN 231100Z 04004KT 9999 FEW015 20/19 Q1012 NOSIG
YBBN,2012-09-23 11:35,153.1292,-27.3917,66.20,66.20,100.00,30.00,4.00,0.00,29.88,M,6.21,M,FEW,M,M,M,1500.00,M,M,M,MIFG,YBBN 231135Z 03004KT 9999 MIFG FEW015 19/19 Q1012
YBBN,2012-09-23 12:00,153.1292,-27.3917,66.20,66.20,100.00,20.00,4.00,0.00,29.88,M,6.21,M,FEW,M,M,M,800.00,M,M,M,MIFG,YBBN 231200Z 02004KT 9999 MIFG FEW008 19/19 Q1012
YBBN,2012-09-23 12:30,153.1292,-27.3917,66.20,66.20,100.00,10.00,1.00,0.00,29.88,M,6.21,M,BKN,M,M,M,700.00,M,M,M,MIFG,YBBN 231230Z 01001KT 9999 MIFG BKN007 19/19 Q1012
YBBN,2012-09-23 12:55,153.1292,-27.3917,68.00,66.20,93.97,0.00,0.00,0.00,29.88,M,6.21,M,BKN,M,M,M,700.00,M,M,M,M,YBBN 231255Z 00000KT 9999 BKN007 20/19 Q1012
YBBN,2012-09-23 13:00,153.1292,-27.3917,68.00,66.20,93.97,0.00,0.00,0.00,29.88,M,6.21,M,FEW,BKN,M,M,700.00,800.00,M,M,M,YBBN 231300Z 00000KT 9999 FEW007 BKN008 20/19 Q1012
YBBN,2012-09-23 13:30,153.1292,-27.3917,69.80,66.20,88.34,200.00,1.00,0.00,29.88,M,5.59,M,SCT,BKN,M,M,600.00,800.00,M,M,M,YBBN 231330Z 20001KT 9000 SCT006 BKN008 21/19 Q1012
YBBN,2012-09-23 14:00,153.1292,-27.3917,69.80,68.00,94.01,260.00,4.00,0.00,29.88,M,5.59,M,SCT,BKN,M,M,600.00,800.00,M,M,M,YBBN 231400Z 26004KT 9000 SCT006 BKN008 21/20 Q1012
YBBN,2012-09-23 14:30,153.1292,-27.3917,69.80,68.00,94.01,200.00,3.00,0.00,29.88,M,5.59,M,SCT,BKN,M,M,600.00,800.00,M,M,M,YBBN 231430Z 20003KT 9000 SCT006 BKN008 21/20 Q1012
YBBN,2012-09-23 15:00,153.1292,-27.3917,69.80,66.20,88.34,300.00,4.00,0.00,29.85,M,5.59,M,SCT,BKN,M,M,500.00,600.00,M,M,M,YBBN 231500Z 30004KT 9000 SCT005 BKN006 21/19 Q1011
YBBN,2012-09-23 15:30,153.1292,-27.3917,68.00,66.20,93.97,290.00,4.00,0.00,29.85,M,5.59,M,BKN,M,M,M,500.00,M,M,M,M,YBBN 231530Z 29004KT 9000 BKN005 20/19 Q1011
YBBN,2012-09-23 16:00,153.1292,-27.3917,68.00,66.20,93.97,310.00,4.00,0.00,29.85,M,5.59,M,SCT,BKN,M,M,400.00,500.00,M,M,M,YBBN 231600Z 31004KT 9000 SCT004 BKN005 20/19 Q1011
YBBN,2012-09-23 16:18,153.1292,-27.3917,68.00,66.20,93.97,240.00,2.00,0.00,29.85,M,4.97,M,SCT,BKN,M,M,400.00,500.00,M,M,BR,YBBN 231618Z 24002KT 8000 5000S BR SCT004 BKN005 20/19 Q1011
YBBN,2012-09-23 16:30,153.1292,-27.3917,68.00,66.20,93.97,260.00,1.00,0.00,29.85,M,3.11,M,FEW,BKN,M,M,400.00,500.00,M,M,BR,YBBN 231630Z 26001KT 5000 4000S BR FEW004 BKN005 20/19 Q1011
YBBN,2012-09-23 16:50,153.1292,-27.3917,66.20,64.40,93.92,210.00,9.00,0.00,29.85,M,2.49,M,FEW,BKN,M,M,300.00,500.00,M,M,BR,YBBN 231650Z 21009KT 4000 3000S BR FEW003 BKN005 19/18 Q1011
YBBN,2012-09-23 17:00,153.1292,-27.3917,66.20,64.40,93.92,200.00,7.00,0.00,29.85,M,2.49,M,SCT,BKN,M,M,200.00,500.00,M,M,BR,YBBN 231700Z 20007KT 4000 3000S BR SCT002 BKN005 19/18 Q1011
YBBN,2012-09-23 17:23,153.1292,-27.3917,64.40,64.40,100.00,200.00,5.00,0.00,29.85,M,3.11,M,FEW,BKN,M,M,200.00,300.00,M,M,BR,YBBN 231723Z 20005KT 5000 3000S BR FEW002 BKN003 18/18 Q1011
YBBN,2012-09-23 17:30,153.1292,-27.3917,64.40,64.40,100.00,210.00,5.00,0.00,29.85,M,2.49,M,FEW,BKN,M,M,200.00,300.00,M,M,BR,YBBN 231730Z 21005KT 4000 3000NE BR FEW002 BKN003 18/18 Q1011
YBBN,2012-09-23 18:00,153.1292,-27.3917,66.20,64.40,93.92,200.00,6.00,0.00,29.85,M,3.11,M,SCT,BKN,M,M,300.00,400.00,M,M,BR,YBBN 231800Z 20006KT 5000 4000NE BR SCT003 BKN004 19/18 Q1011
YBBN,2012-09-23 18:30,153.1292,-27.3917,64.40,62.60,93.88,160.00,1.00,0.00,29.85,M,3.11,M,BKN,M,M,M,300.00,M,M,M,BR,YBBN 231830Z 16001KT 5000 4000NE BR BKN003 18/17 Q1011
YBBN,2012-09-23 19:00,153.1292,-27.3917,64.40,64.40,100.00,220.00,1.00,0.00,29.85,M,3.11,M,BKN,M,M,M,300.00,M,M,M,BR,YBBN 231900Z 22001KT 5000 4000NE BR BKN003 18/18 Q1011
YBBN,2012-09-23 19:30,153.1292,-27.3917,64.40,62.60,93.88,0.00,0.00,0.00,29.85,M,1.55,M,BKN,M,M,M,300.00,M,M,M,BR,YBBN 231930Z 00000KT 2500 2000N BR BKN003 18/17 Q1011
YBBN,2012-09-23 19:36,153.1292,-27.3917,64.40,62.60,93.88,10.00,2.00,0.00,29.85,M,1.55,M,FEW,BKN,M,M,200.00,300.00,M,M,PRFG BR,YBBN 231936Z 01002KT 2500 2000N PRFG BR FEW002 BKN003 18/17 Q1011 FM2130 35007KT 7000 SCT010
YBBN,2012-09-23 19:42,153.1292,-27.3917,64.40,62.60,93.88,20.00,1.00,0.00,29.85,M,1.24,M,FEW,BKN,M,M,200.00,300.00,M,M,PRFG BR,YBBN 231942Z 02001KT 2000 1500N PRFG BR FEW002 BKN003 18/17 Q1011
YBBN,2012-09-23 20:00,153.1292,-27.3917,64.40,62.60,93.88,0.00,0.00,0.00,29.85,M,1.24,M,FEW,BKN,M,M,200.00,300.00,M,M,PRFG BR,YBBN 232000Z 00000KT 2000 1000N PRFG BR FEW002 BKN003 18/17 Q1011
YBBN,2012-09-23 20:30,153.1292,-27.3917,64.40,62.60,93.88,170.00,3.00,0.00,29.85,M,1.12,M,FEW,BKN,M,M,200.00,300.00,M,M,PRFG BR,YBBN 232030Z 17003KT 1800 1000N PRFG BR FEW002 BKN003 18/17 Q1011
YBBN,2012-09-23 21:00,153.1292,-27.3917,66.20,64.40,93.92,0.00,0.00,0.00,29.88,M,1.86,M,FEW,BKN,M,M,300.00,500.00,M,M,PRFG BR,YBBN 232100Z 00000KT 3000 2000N PRFG BR FEW003 BKN005 19/18 Q1012
YBBN,2012-09-23 21:07,153.1292,-27.3917,66.20,62.60,88.18,0.00,0.00,0.00,29.88,M,1.86,M,FEW,BKN,M,M,300.00,500.00,M,M,BR,YBBN 232107Z 00000KT 3000 BR FEW003 BKN005 19/17 Q1012
YBBN,2012-09-23 21:30,153.1292,-27.3917,68.00,64.40,88.26,30.00,3.00,0.00,29.85,M,2.17,M,SCT,BKN,M,M,500.00,600.00,M,M,BR,YBBN 232130Z 03003KT 3500 BR SCT005 BKN006 20/18 Q1011
YBBN,2012-09-23 22:00,153.1292,-27.3917,69.80,64.40,82.98,330.00,5.00,0.00,29.88,M,3.11,M,SCT,BKN,M,M,500.00,600.00,M,M,M,YBBN 232200Z 33005KT 5000 SCT005 BKN006 21/18 Q1012
YBBN,2012-09-23 22:14,153.1292,-27.3917,69.80,64.40,82.98,340.00,6.00,0.00,29.88,M,4.97,M,SCT,BKN,M,M,800.00,1000.00,M,M,M,YBBN 232214Z 34006KT 8000 SCT008 BKN010 21/18 Q1012
YBBN,2012-09-23 22:30,153.1292,-27.3917,69.80,64.40,82.98,310.00,5.00,0.00,29.88,M,5.59,M,SCT,BKN,M,M,800.00,1000.00,M,M,M,YBBN 232230Z 31005KT 9000 SCT008 BKN010 21/18 Q1012
YBBN,2012-09-23 23:00,153.1292,-27.3917,71.60,64.40,78.04,360.00,6.00,0.00,29.88,M,6.21,M,FEW,BKN,M,M,1000.00,1200.00,M,M,M,YBBN 232300Z 36006KT 9999 FEW010 BKN012 22/18 Q1012
YBBN,2012-09-23 23:19,153.1292,-27.3917,73.40,64.40,73.44,320.00,5.00,0.00,29.88,M,6.21,M,FEW,SCT,BKN,M,1000.00,1200.00,22000.00,M,M,YBBN 232319Z 32005KT 9999 FEW010 SCT012 BKN220 23/18 Q1012
YBBN,2012-09-23 23:30,153.1292,-27.3917,73.40,62.60,68.94,230.00,4.00,0.00,29.88,M,6.21,M,FEW,BKN,M,M,1000.00,20000.00,M,M,M,YBBN 232330Z 23004KT 9999 FEW010 BKN200 23/17 Q1012
