#DEBUG: Format Typ    -> comma
#DEBUG: Time Period   -> 2014-04-21 00:00:00+00:00 2014-04-22 00:00:00+00:00
#DEBUG: Time Zone     -> Etc/UTC
#DEBUG: Data Contact   -> daryl herzmann akrherz@iastate.edu 515-294-5978
#DEBUG: Entries Found -> -1
station,valid,lon,lat,tmpf, dwpf, relh, drct, sknt, p01i, alti, mslp, vsby, gust, skyc1, skyc2, skyc3, skyc4, skyl1, skyl2, skyl3, skyl4, presentwx, metar
YBBN,2014-04-21 00:00,153.1292,-27.3917,77.00,59.00,53.80,260.00,2.00,0.00,30.15,M,6.21,M,FEW,M,M,M,3500.00,M,M,M,M,YBBN 210000Z 26002KT 9999 FEW035 25/15 Q1021 NOSIG
YBBN,2014-04-21 00:30,153.1292,-27.3917,78.80,59.00,50.69,320.00,6.00,0.00,30.12,M,6.21,16.00,FEW,M,M,M,3500.00,M,M,M,M,YBBN 210030Z 32006G16KT 9999 FEW035 26/15 Q1020
YBBN,2014-04-21 01:00,153.1292,-27.3917,78.80,57.20,47.52,350.00,8.00,0.00,30.12,M,6.21,M,FEW,M,M,M,3500.00,M,M,M,M,YBBN 210100Z 35008KT 9999 FEW035 26/14 Q1020 NOSIG
YBBN,2014-04-21 01:30,153.1292,-27.3917,80.60,57.20,44.80,360.00,8.00,0.00,30.12,M,6.21,M,FEW,M,M,M,4000.00,M,M,M,M,YBBN 210130Z 36008KT 9999 FEW040 27/14 Q1020
YBBN,2014-04-21 02:00,153.1292,-27.3917,80.60,59.00,47.79,10.00,9.00,0.00,30.09,M,6.21,M,M,M,M,M,M,M,M,M,M,YBBN 210200Z 01009KT CAVOK 27/15 Q1019
YBBN,2014-04-21 02:30,153.1292,-27.3917,80.60,59.00,47.79,30.00,9.00,0.00,30.09,M,6.21,M,M,M,M,M,M,M,M,M,M,YBBN 210230Z 03009KT CAVOK 27/15 Q1019
YBBN,2014-04-21 03:00,153.1292,-27.3917,80.60,59.00,47.79,30.00,9.00,0.00,30.06,M,6.21,M,M,M,M,M,M,M,M,M,M,YBBN 210300Z 03009KT CAVOK 27/15 Q1018 NOSIG
YBBN,2014-04-21 03:30,153.1292,-27.3917,80.60,57.20,44.80,20.00,10.00,0.00,30.06,M,6.21,M,M,M,M,M,M,M,M,M,M,YBBN 210330Z 02010KT CAVOK 27/14 Q1018
YBBN,2014-04-21 04:00,153.1292,-27.3917,80.60,57.20,44.80,30.00,11.00,0.00,30.06,M,6.21,M,M,M,M,M,M,M,M,M,M,YBBN 210400Z 03011KT CAVOK 27/14 Q1018 NOSIG
YBBN,2014-04-21 04:30,153.1292,-27.3917,80.60,60.80,50.95,30.00,12.00,0.00,30.06,M,6.21,M,M,M,M,M,M,M,M,M,M,YBBN 210430Z 03012KT CAVOK 27/16 Q1018
YBBN,2014-04-21 05:00,153.1292,-27.3917,78.80,59.00,50.69,30.00,13.00,0.00,30.03,M,6.21,M,M,M,M,M,M,M,M,M,M,YBBN 210500Z 03013KT CAVOK 26/15 Q1017 NOSIG
YBBN,2014-04-21 05:30,153.1292,-27.3917,78.80,60.80,54.05,30.00,12.00,0.00,30.03,M,6.21,M,M,M,M,M,M,M,M,M,M,YBBN 210530Z 03012KT CAVOK 26/16 Q1017
YBBN,2014-04-21 06:00,153.1292,-27.3917,77.00,62.60,61.13,20.00,12.00,0.00,30.06,M,6.21,M,FEW,M,M,M,4500.00,M,M,M,M,YBBN 210600Z 02012KT 9999 FEW045 25/17 Q1018
YBBN,2014-04-21 06:30,153.1292,-27.3917,75.20,62.60,64.91,20.00,13.00,0.00,30.06,M,6.21,M,FEW,M,M,M,4000.00,M,M,M,M,YBBN 210630Z 02013KT 9999 FEW040 24/17 Q1018
YBBN,2014-04-21 07:00,153.1292,-27.3917,75.20,62.60,64.91,20.00,12.00,0.00,30.06,M,6.21,M,FEW,M,M,M,4000.00,M,M,M,M,YBBN 210700Z 02012KT 9999 FEW040 24/17 Q1018
YBBN,2014-04-21 07:30,153.1292,-27.3917,73.40,62.60,68.94,10.00,13.00,0.00,30.06,M,6.21,M,FEW,M,M,M,4000.00,M,M,M,M,YBBN 210730Z 01013KT 9999 FEW040 23/17 Q1018
YBBN,2014-04-21 08:00,153.1292,-27.3917,73.40,62.60,68.94,10.00,11.00,0.00,30.09,M,6.21,M,FEW,M,M,M,4000.00,M,M,M,M,YBBN 210800Z 01011KT 9999 FEW040 23/17 Q1019 NOSIG
YBBN,2014-04-21 08:30,153.1292,-27.3917,73.40,62.60,68.94,10.00,12.00,0.00,30.09,M,6.21,M,FEW,M,M,M,4000.00,M,M,M,M,YBBN 210830Z 01012KT 9999 FEW040 23/17 Q1019
YBBN,2014-04-21 09:00,153.1292,-27.3917,73.40,62.60,68.94,10.00,13.00,0.00,30.09,M,6.21,M,M,M,M,M,M,M,M,M,M,YBBN 210900Z 01013KT CAVOK 23/17 Q1019 NOSIG
YBBN,2014-04-21 09:30,153.1292,-27.3917,71.60,64.40,78.04,10.00,11.00,0.00,30.12,M,6.21,M,M,M,M,M,M,M,M,M,M,YBBN 210930Z 01011KT CAVOK 22/18 Q1020
YBBN,2014-04-21 10:00,153.1292,-27.3917,71.60,62.60,73.27,10.00,9.00,0.00,30.12,M,6.21,M,M,M,M,M,M,M,M,M,M,YBBN 211000Z 01009KT CAVOK 22/17 Q1020
YBBN,2014-04-21 10:30,153.1292,-27.3917,71.60,62.60,73.27,10.00,11.00,0.00,30.12,M,6.21,M,M,M,M,M,M,M,M,M,M,YBBN 211030Z 01011KT CAVOK 22/17 Q1020
YBBN,2014-04-21 11:00,153.1292,-27.3917,69.80,62.60,77.90,330.00,8.00,0.00,30.12,M,6.21,M,M,M,M,M,M,M,M,M,M,YBBN 211100Z 33008KT CAVOK 21/17 Q1020 NOSIG
YBBN,2014-04-21 11:30,153.1292,-27.3917,69.80,62.60,77.90,320.00,4.00,0.00,30.12,M,6.21,M,M,M,M,M,M,M,M,M,M,YBBN 211130Z 32004KT CAVOK 21/17 Q1020
YBBN,2014-04-21 12:00,153.1292,-27.3917,68.00,62.60,82.86,310.00,4.00,0.00,30.15,M,6.21,M,M,M,M,M,M,M,M,M,M,YBBN 211200Z 31004KT CAVOK 20/17 Q1021 NOSIG
YBBN,2014-04-21 12:30,153.1292,-27.3917,66.20,62.60,88.18,310.00,5.00,0.00,30.12,M,6.21,M,M,M,M,M,M,M,M,M,M,YBBN 211230Z 31005KT CAVOK 19/17 Q1020
YBBN,2014-04-21 13:00,153.1292,-27.3917,66.20,62.60,88.18,320.00,3.00,0.00,30.12,M,6.21,M,M,M,M,M,M,M,M,M,M,YBBN 211300Z 32003KT CAVOK 19/17 Q1020 NOSIG
YBBN,2014-04-21 13:30,153.1292,-27.3917,66.20,60.80,82.74,300.00,4.00,0.00,30.12,M,6.21,M,M,M,M,M,M,M,M,M,M,YBBN 211330Z 30004KT CAVOK 19/16 Q1020
YBBN,2014-04-21 14:00,153.1292,-27.3917,64.40,60.80,88.09,290.00,1.00,0.00,30.12,M,6.21,M,M,M,M,M,M,M,M,M,M,YBBN 211400Z 29001KT CAVOK 18/16 Q1020 NOSIG
YBBN,2014-04-21 14:30,153.1292,-27.3917,64.40,60.80,88.09,0.00,0.00,0.00,30.12,M,6.21,M,M,M,M,M,M,M,M,M,M,YBBN 211430Z 00000KT CAVOK 18/16 Q1020
YBBN,2014-04-21 15:00,153.1292,-27.3917,64.40,60.80,88.09,0.00,0.00,0.00,30.12,M,6.21,M,M,M,M,M,M,M,M,M,M,YBBN 211500Z 00000KT CAVOK 18/16 Q1020
YBBN,2014-04-21 15:30,153.1292,-27.3917,64.40,60.80,88.09,320.00,3.00,0.00,30.12,M,6.21,M,M,M,M,M,M,M,M,M,M,YBBN 211530Z 32003KT CAVOK 18/16 Q1020
YBBN,2014-04-21 16:00,153.1292,-27.3917,64.40,60.80,88.09,0.00,0.00,0.00,30.12,M,6.21,M,M,M,M,M,M,M,M,M,M,YBBN 211600Z 00000KT CAVOK 18/16 Q1020 NOSIG
YBBN,2014-04-21 16:30,153.1292,-27.3917,62.60,60.80,93.83,0.00,0.00,0.00,30.09,M,6.21,M,M,M,M,M,M,M,M,M,M,YBBN 211630Z 00000KT CAVOK 17/16 Q1019
YBBN,2014-04-21 16:45,153.1292,-27.3917,62.60,60.80,93.83,290.00,1.00,0.00,30.09,M,6.21,M,CLR,M,M,M,M,M,M,M,MIFG,YBBN 211645Z 29001KT 9999 MIFG SKC 17/16 Q1019 NOSIG
YBBN,2014-04-21 17:00,153.1292,-27.3917,62.60,60.80,93.83,130.00,4.00,0.00,30.09,M,6.21,M,CLR,M,M,M,M,M,M,M,MIFG,YBBN 211700Z 13004KT 9999 MIFG SKC 17/16 Q1019
YBBN,2014-04-21 17:30,153.1292,-27.3917,62.60,59.00,88.00,0.00,0.00,0.00,30.12,M,6.21,M,CLR,M,M,M,M,M,M,M,MIFG,YBBN 211730Z 00000KT 9999 MIFG SKC 17/15 Q1020
YBBN,2014-04-21 18:00,153.1292,-27.3917,60.80,59.00,93.79,0.00,0.00,0.00,30.12,M,6.21,M,CLR,M,M,M,M,M,M,M,MIFG,YBBN 211800Z 00000KT 9999 MIFG SKC 16/15 Q1020
YBBN,2014-04-21 18:30,153.1292,-27.3917,60.80,60.80,100.00,200.00,5.00,0.00,30.12,M,6.21,M,CLR,M,M,M,M,M,M,M,MIFG,YBBN 211830Z 20005KT 9999 MIFG SKC 16/16 Q1020
YBBN,2014-04-21 19:00,153.1292,-27.3917,60.80,60.80,100.00,200.00,7.00,0.00,30.12,M,6.21,M,M,M,M,M,M,M,M,M,M,YBBN 211900Z 20007KT CAVOK 16/16 Q1020
YBBN,2014-04-21 19:30,153.1292,-27.3917,62.60,60.80,93.83,190.00,6.00,0.00,30.12,M,6.21,M,FEW,M,M,M,2500.00,M,M,M,M,YBBN 211930Z 19006KT 9999 FEW025 17/16 Q1020
YBBN,2014-04-21 20:00,153.1292,-27.3917,60.80,59.00,93.79,200.00,6.00,0.00,30.15,M,6.21,M,FEW,M,M,M,3000.00,M,M,M,M,YBBN 212000Z 20006KT 9999 FEW030 16/15 Q1021 NOSIG
YBBN,2014-04-21 20:30,153.1292,-27.3917,62.60,60.80,93.83,200.00,5.00,0.00,30.15,M,6.21,M,FEW,M,M,M,3000.00,M,M,M,M,YBBN 212030Z 20005KT 9999 FEW030 17/16 Q1021
YBBN,2014-04-21 21:00,153.1292,-27.3917,62.60,60.80,93.83,210.00,7.00,0.00,30.15,M,6.21,M,FEW,M,M,M,3000.00,M,M,M,M,YBBN 212100Z 21007KT 9999 FEW030 17/16 Q1021
YBBN,2014-04-21 21:30,153.1292,-27.3917,66.20,62.60,88.18,200.00,7.00,0.00,30.15,M,6.21,M,FEW,M,M,M,3500.00,M,M,M,M,YBBN 212130Z 20007KT 9999 FEW035 19/17 Q1021
YBBN,2014-04-21 22:00,153.1292,-27.3917,68.00,62.60,82.86,210.00,7.00,0.00,30.15,M,6.21,M,FEW,M,M,M,3500.00,M,M,M,M,YBBN 212200Z 21007KT 9999 FEW035 20/17 Q1021
YBBN,2014-04-21 22:30,153.1292,-27.3917,71.60,62.60,73.27,210.00,8.00,0.00,30.18,M,6.21,M,FEW,M,M,M,3500.00,M,M,M,M,YBBN 212230Z 21008KT 9999 FEW035 22/17 Q1022
YBBN,2014-04-21 23:00,153.1292,-27.3917,73.40,60.80,64.69,220.00,6.00,0.00,30.15,M,6.21,M,FEW,M,M,M,3500.00,M,M,M,M,YBBN 212300Z 22006KT 9999 FEW035 23/16 Q1021 FM0100 35007KT 9999 FEW040
YBBN,2014-04-21 23:30,153.1292,-27.3917,77.00,60.80,57.36,260.00,3.00,0.00,30.15,M,6.21,M,FEW,M,M,M,3000.00,M,M,M,M,YBBN 212330Z 26003KT 9999 FEW030 25/16 Q1021
