#DEBUG: Format Typ    -> comma
#DEBUG: Time Period   -> 2013-10-09 00:00:00+00:00 2013-10-10 00:00:00+00:00
#DEBUG: Time Zone     -> Etc/UTC
#DEBUG: Data Contact   -> daryl herzmann akrherz@iastate.edu 515-294-5978
#DEBUG: Entries Found -> -1
station,valid,lon,lat,tmpf, dwpf, relh, drct, sknt, p01i, alti, mslp, vsby, gust, skyc1, skyc2, skyc3, skyc4, skyl1, skyl2, skyl3, skyl4, presentwx, metar
YBBN,2013-10-09 00:00,153.1292,-27.3917,71.60,51.80,49.64,100.00,7.00,0.00,30.15,M,6.21,M,SCT,M,M,M,3000.00,M,M,M,M,YBBN 090000Z 10007KT 9999 SCT030 22/11 Q1021
YBBN,2013-10-09 00:30,153.1292,-27.3917,71.60,51.80,49.64,90.00,8.00,0.00,30.15,M,6.21,M,SCT,M,M,M,3000.00,M,M,M,M,YBBN 090030Z 09008KT 9999 SCT030 22/11 Q1021
YBBN,2013-10-09 01:00,153.1292,-27.3917,73.40,53.60,49.90,100.00,7.00,0.00,30.15,M,6.21,M,FEW,M,M,M,3000.00,M,M,M,M,YBBN 090100Z 10007KT 9999 FEW030 23/12 Q1021
YBBN,2013-10-09 01:30,153.1292,-27.3917,73.40,50.00,43.69,80.00,11.00,0.00,30.12,M,6.21,M,FEW,M,M,M,3000.00,M,M,M,M,YBBN 090130Z 08011KT 9999 FEW030 23/10 Q1020
YBBN,2013-10-09 02:00,153.1292,-27.3917,75.20,50.00,41.14,70.00,10.00,0.00,30.12,M,6.21,M,FEW,M,M,M,3000.00,M,M,M,M,YBBN 090200Z 07010KT 9999 FEW030 24/10 Q1020
YBBN,2013-10-09 02:30,153.1292,-27.3917,73.40,51.80,46.71,90.00,9.00,0.00,30.12,M,6.21,M,FEW,M,M,M,3500.00,M,M,M,M,YBBN 090230Z 09009KT 9999 FEW035 23/11 Q1020
YBBN,2013-10-09 03:00,153.1292,-27.3917,73.40,55.40,53.29,70.00,11.00,0.00,30.09,M,6.21,M,FEW,M,M,M,3500.00,M,M,M,M,YBBN 090300Z 07011KT 9999 FEW035 23/13 Q1019
YBBN,2013-10-09 03:30,153.1292,-27.3917,73.40,55.40,53.29,70.00,12.00,0.00,30.09,M,6.21,M,FEW,M,M,M,3500.00,M,M,M,M,YBBN 090330Z 07012KT 9999 FEW035 23/13 Q1019
YBBN,2013-10-09 04:00,153.1292,-27.3917,73.40,53.60,49.90,70.00,11.00,0.00,30.09,M,6.21,M,FEW,M,M,M,3500.00,M,M,M,M,YBBN 090400Z 07011KT 9999 FEW035 23/12 Q1019 NOSIG
YBBN,2013-10-09 04:30,153.1292,-27.3917,73.40,51.80,46.71,60.00,11.00,0.00,30.09,M,6.21,M,FEW,M,M,M,3500.00,M,M,M,M,YBBN 090430Z 06011KT 9999 FEW035 23/11 Q1019
YBBN,2013-10-09 05:00,153.1292,-27.3917,73.40,53.60,49.90,50.00,11.00,0.00,30.09,M,6.21,M,FEW,M,M,M,3500.00,M,M,M,M,YBBN 090500Z 05011KT 9999 FEW035 23/12 Q1019 NOSIG
YBBN,2013-10-09 05:30,153.1292,-27.3917,73.40,53.60,49.90,50.00,12.00,0.00,30.06,M,6.21,M,FEW,M,M,M,3500.00,M,M,M,M,YBBN 090530Z 05012KT 9999 FEW035 23/12 Q1018
YBBN,2013-10-09 06:00,153.1292,-27.3917,71.60,53.60,53.03,40.00,10.00,0.00,30.06,M,6.21,M,FEW,M,M,M,3500.00,M,M,M,M,YBBN 090600Z 04010KT 9999 FEW035 22/12 Q1018
YBBN,2013-10-09 06:30,153.1292,-27.3917,71.60,53.60,53.03,40.00,10.00,0.00,30.06,M,6.21,M,FEW,M,M,M,3000.00,M,M,M,M,YBBN 090630Z 04010KT 9999 FEW030 22/12 Q1018
YBBN,2013-10-09 07:00,153.1292,-27.3917,69.80,53.60,56.38,40.00,8.00,0.00,30.06,M,6.21,M,FEW,M,M,M,3000.00,M,M,M,M,YBBN 090700Z 04008KT 9999 FEW030 21/12 Q1018 NOSIG
YBBN,2013-10-09 07:30,153.1292,-27.3917,69.80,53.60,56.38,50.00,8.00,0.00,30.09,M,6.21,M,M,M,M,M,M,M,M,M,M,YBBN 090730Z 05008KT CAVOK 21/12 Q1019
YBBN,2013-10-09 08:00,153.1292,-27.3917,66.20,55.40,68.15,50.00,7.00,0.00,30.09,M,6.21,M,M,M,M,M,M,M,M,M,M,YBBN 090800Z 05007KT CAVOK 19/13 Q1019 NOSIG
YBBN,2013-10-09 08:30,153.1292,-27.3917,68.00,55.40,64.04,50.00,7.00,0.00,30.09,M,6.21,M,M,M,M,M,M,M,M,M,M,YBBN 090830Z 05007KT CAVOK 20/13 Q1019
YBBN,2013-10-09 09:00,153.1292,-27.3917,66.20,55.40,68.15,50.00,7.00,0.00,30.09,M,6.21,M,M,M,M,M,M,M,M,M,M,YBBN 090900Z 05007KT CAVOK 19/13 Q1019 NOSIG
YBBN,2013-10-09 09:30,153.1292,-27.3917,64.40,55.40,72.56,30.00,7.00,0.00,30.12,M,6.21,M,M,M,M,M,M,M,M,M,M,YBBN 090930Z 03007KT CAVOK 18/13 Q1020
YBBN,2013-10-09 10:00,153.1292,-27.3917,64.40,55.40,72.56,10.00,8.00,0.00,30.12,M,6.21,M,M,M,M,M,M,M,M,M,M,YBBN 091000Z 01008KT CAVOK 18/13 Q1020
YBBN,2013-10-09 10:30,153.1292,-27.3917,64.40,55.40,72.56,10.00,8.00,0.00,30.12,M,6.21,M,FEW,M,M,M,2000.00,M,M,M,M,YBBN 091030Z 01008KT 9999 FEW020 18/13 Q1020
YBBN,2013-10-09 11:00,153.1292,-27.3917,64.40,55.40,72.56,20.00,8.00,0.00,30.12,M,6.21,M,FEW,M,M,M,2000.00,M,M,M,M,YBBN 091100Z 02008KT 9999 FEW020 18/13 Q1020 NOSIG
YBBN,2013-10-09 11:30,153.1292,-27.3917,64.40,57.20,77.45,20.00,8.00,0.00,30.12,M,6.21,M,FEW,M,M,M,2000.00,M,M,M,M,YBBN 091130Z 02008KT 9999 FEW020 18/14 Q1020
YBBN,2013-10-09 12:00,153.1292,-27.3917,64.40,57.20,77.45,10.00,8.00,0.00,30.12,M,6.21,M,FEW,M,M,M,2900.00,M,M,M,M,YBBN 091200Z 01008KT 9999 FEW029 18/14 Q1020 NOSIG
YBBN,2013-10-09 12:30,153.1292,-27.3917,64.40,57.20,77.45,10.00,9.00,0.00,30.12,M,6.21,M,FEW,M,M,M,2800.00,M,M,M,M,YBBN 091230Z 01009KT 9999 FEW028 18/14 Q1020
YBBN,2013-10-09 13:00,153.1292,-27.3917,64.40,55.40,72.56,300.00,7.00,0.00,30.12,M,6.21,M,FEW,M,M,M,2800.00,M,M,M,M,YBBN 091300Z 30007KT 9999 FEW028 18/13 Q1020 NOSIG
YBBN,2013-10-09 13:30,153.1292,-27.3917,64.40,55.40,72.56,290.00,7.00,0.00,30.12,M,6.21,M,FEW,M,M,M,2800.00,M,M,M,M,YBBN 091330Z 29007KT 9999 FEW028 18/13 Q1020
YBBN,2013-10-09 14:00,153.1292,-27.3917,62.60,55.40,77.29,290.00,6.00,0.00,30.12,M,6.21,M,FEW,M,M,M,2800.00,M,M,M,M,YBBN 091400Z 29006KT 9999 FEW028 17/13 Q1020
YBBN,2013-10-09 14:30,153.1292,-27.3917,60.80,55.40,82.37,280.00,4.00,0.00,30.12,M,6.21,M,FEW,M,M,M,2700.00,M,M,M,M,YBBN 091430Z 28004KT 9999 FEW027 16/13 Q1020
YBBN,2013-10-09 15:00,153.1292,-27.3917,60.80,55.40,82.37,0.00,0.00,0.00,30.12,M,6.21,M,FEW,M,M,M,2700.00,M,M,M,M,YBBN 091500Z 00000KT 9999 FEW027 16/13 Q1020 NOSIG
YBBN,2013-10-09 15:30,153.1292,-27.3917,60.80,55.40,82.37,280.00,2.00,0.00,30.12,M,6.21,M,M,M,M,M,M,M,M,M,M,YBBN 091530Z 28002KT CAVOK 16/13 Q1020
YBBN,2013-10-09 16:00,153.1292,-27.3917,59.00,55.40,87.83,0.00,0.00,0.00,30.09,M,6.21,M,M,M,M,M,M,M,M,M,M,YBBN 091600Z 00000KT CAVOK 15/13 Q1019 NOSIG
YBBN,2013-10-09 16:30,153.1292,-27.3917,59.00,55.40,87.83,0.00,0.00,0.00,30.09,M,6.21,M,M,M,M,M,M,M,M,M,M,YBBN 091630Z 00000KT CAVOK 15/13 Q1019
YBBN,2013-10-09 17:00,153.1292,-27.3917,57.20,55.40,93.69,260.00,3.00,0.00,30.09,M,6.21,M,M,M,M,M,M,M,M,M,M,YBBN 091700Z 26003KT CAVOK 14/13 Q1019 NOSIG
YBBN,2013-10-09 17:30,153.1292,-27.3917,57.20,53.60,87.74,0.00,0.00,0.00,30.09,M,6.21,M,M,M,M,M,M,M,M,M,M,YBBN 091730Z 00000KT CAVOK 14/12 Q1019
YBBN,2013-10-09 18:00,153.1292,-27.3917,57.20,53.60,87.74,320.00,5.00,0.00,30.09,M,6.21,M,FEW,M,M,M,1800.00,M,M,M,M,YBBN 091800Z 32005KT 9999 FEW018 14/12 Q1019
YBBN,2013-10-09 18:30,153.1292,-27.3917,57.20,53.60,87.74,260.00,3.00,0.00,30.09,M,6.21,M,FEW,M,M,M,2300.00,M,M,M,M,YBBN 091830Z 26003KT 9999 FEW023 14/12 Q1019
YBBN,2013-10-09 19:00,153.1292,-27.3917,57.20,53.60,87.74,270.00,4.00,0.00,30.09,M,6.21,M,FEW,M,M,M,2300.00,M,M,M,M,YBBN 091900Z 27004KT 9999 FEW023 14/12 Q1019 NOSIG
YBBN,2013-10-09 19:30,153.1292,-27.3917,57.20,53.60,87.74,270.00,5.00,0.00,30.09,M,6.21,M,FEW,M,M,M,2300.00,M,M,M,M,YBBN 091930Z 27005KT 9999 FEW023 14/12 Q1019
YBBN,2013-10-09 20:00,153.1292,-27.3917,59.00,55.40,87.83,250.00,6.00,0.00,30.12,M,6.21,M,FEW,M,M,M,2300.00,M,M,M,M,YBBN 092000Z 25006KT 9999 FEW023 15/13 Q1020 NOSIG
YBBN,2013-10-09 20:30,153.1292,-27.3917,62.60,55.40,77.29,260.00,6.00,0.00,30.12,M,6.21,M,FEW,M,M,M,2300.00,M,M,M,M,YBBN 092030Z 26006KT 9999 FEW023 17/13 Q1020
YBBN,2013-10-09 21:00,153.1292,-27.3917,66.20,55.40,68.15,270.00,6.00,0.00,30.12,M,6.21,M,FEW,M,M,M,2500.00,M,M,M,M,YBBN 092100Z 27006KT 9999 FEW025 19/13 Q1020 NOSIG
YBBN,2013-10-09 21:30,153.1292,-27.3917,68.00,55.40,64.04,290.00,6.00,0.00,30.12,M,6.21,M,FEW,M,M,M,2500.00,M,M,M,M,YBBN 092130Z 29006KT 9999 FEW025 20/13 Q1020
YBBN,2013-10-09 22:00,153.1292,-27.3917,69.80,55.40,60.21,310.00,7.00,0.00,30.12,M,6.21,M,FEW,M,M,M,2800.00,M,M,M,M,YBBN 092200Z 31007KT 9999 FEW028 21/13 Q1020
YBBN,2013-10-09 22:30,153.1292,-27.3917,71.60,55.40,56.63,360.00,9.00,0.00,30.12,M,6.21,M,M,M,M,M,M,M,M,M,M,YBBN 092230Z 36009KT CAVOK 22/13 Q1020
YBBN,2013-10-09 23:00,153.1292,-27.3917,71.60,55.40,56.63,350.00,9.00,0.00,30.12,M,6.21,M,M,M,M,M,M,M,M,M,M,YBBN 092300Z 35009KT CAVOK 22/13 Q1020
YBBN,2013-10-09 23:30,153.1292,-27.3917,73.40,57.20,56.88,360.00,9.00,0.00,30.09,M,6.21,M,M,M,M,M,M,M,M,M,M,YBBN 092330Z 36009KT CAVOK 23/14 Q1019
