#DEBUG: Format Typ    -> comma
#DEBUG: Time Period   -> 2015-01-03 00:00:00+00:00 2015-01-04 00:00:00+00:00
#DEBUG: Time Zone     -> Etc/UTC
#DEBUG: Data Contact   -> daryl herzmann akrherz@iastate.edu 515-294-5978
#DEBUG: Entries Found -> -1
station,valid,lon,lat,tmpf, dwpf, relh, drct, sknt, p01i, alti, mslp, vsby, gust, skyc1, skyc2, skyc3, skyc4, skyl1, skyl2, skyl3, skyl4, presentwx, metar
YBBN,2015-01-03 00:00,153.1292,-27.3917,80.60,69.80,69.71,60.00,11.00,0.00,30.09,M,6.21,M,SCT,OVC,M,M,2200.00,12000.00,M,M,-SHRA,YBBN 030000Z 06011KT 9999 -SHRA SCT022 OVC120 27/21 Q1019 INTER 0000/0100 3000 SHRA BKN012
YBBN,2015-01-03 00:30,153.1292,-27.3917,80.60,69.80,69.71,60.00,11.00,0.00,30.09,M,6.21,M,SCT,BKN,M,M,2300.00,12000.00,M,M,-SHRA,YBBN 030030Z 06011KT 9999 -SHRA SCT023 BKN120 27/21 Q1019
YBBN,2015-01-03 01:00,153.1292,-27.3917,80.60,71.60,74.11,60.00,10.00,0.00,30.09,M,6.21,M,SCT,BKN,M,M,2300.00,12000.00,M,M,-SHRA,YBBN 030100Z 06010KT 9999 -SHRA SCT023 BKN120 27/22 Q1019
YBBN,2015-01-03 01:30,153.1292,-27.3917,78.80,69.80,73.95,70.00,9.00,0.00,30.09,M,6.21,M,FEW,BKN,BKN,M,1800.00,2200.00,13000.00,M,-SHRA,YBBN 030130Z 07009KT 9999 -SHRA FEW018 BKN022 BKN130 26/21 Q1019
YBBN,2015-01-03 02:00,153.1292,-27.3917,80.60,69.80,69.71,50.00,11.00,0.00,30.06,M,6.21,M,FEW,SCT,BKN,M,1700.00,2100.00,14000.00,M,VCSH,YBBN 030200Z 05011KT 9999 VCSH FEW017 SCT021 BKN140 27/21 Q1018 NOSIG
YBBN,2015-01-03 02:30,153.1292,-27.3917,82.40,69.80,65.74,50.00,12.00,0.00,30.06,M,6.21,M,BKN,BKN,M,M,2300.00,15000.00,M,M,VCSH,YBBN 030230Z 05012KT 9999 VCSH BKN023 BKN150 28/21 Q1018
YBBN,2015-01-03 03:00,153.1292,-27.3917,82.40,69.80,65.74,60.00,12.00,0.00,30.06,M,6.21,M,SCT,BKN,M,M,2400.00,16000.00,M,M,M,YBBN 030300Z 06012KT 9999 SCT024 BKN160 28/21 Q1018
YBBN,2015-01-03 03:30,153.1292,-27.3917,82.40,71.60,69.90,30.00,10.00,0.00,30.06,M,6.21,M,SCT,BKN,M,M,2600.00,16000.00,M,M,M,YBBN 030330Z 03010KT 9999 SCT026 BKN160 28/22 Q1018
YBBN,2015-01-03 04:00,153.1292,-27.3917,80.60,69.80,69.71,30.00,11.00,0.00,30.03,M,6.21,M,SCT,BKN,M,M,2600.00,16000.00,M,M,M,YBBN 030400Z 03011KT 9999 SCT026 BKN160 27/21 Q1017
YBBN,2015-01-03 04:30,153.1292,-27.3917,80.60,68.00,65.54,50.00,9.00,0.00,30.03,M,6.21,M,FEW,BKN,BKN,M,2600.00,16000.00,21000.00,M,M,YBBN 030430Z 05009KT 9999 FEW026 BKN160 BKN210 27/20 Q1017
YBBN,2015-01-03 05:00,153.1292,-27.3917,80.60,69.80,69.71,50.00,9.00,0.00,30.03,M,6.21,M,FEW,SCT,BKN,M,2700.00,16000.00,20000.00,M,M,YBBN 030500Z 05009KT 9999 FEW027 SCT160 BKN200 27/21 Q1017 NOSIG
YBBN,2015-01-03 05:30,153.1292,-27.3917,82.40,69.80,65.74,50.00,10.00,0.00,30.03,M,6.21,M,FEW,BKN,M,M,2800.00,20000.00,M,M,M,YBBN 030530Z 05010KT 9999 FEW028 BKN200 28/21 Q1017 RMK HZ
YBBN,2015-01-03 06:00,153.1292,-27.3917,80.60,69.80,69.71,40.00,9.00,0.00,30.00,M,6.21,M,FEW,BKN,M,M,2800.00,20000.00,M,M,M,YBBN 030600Z 04009KT 9999 FEW028 BKN200 27/21 Q1016 NOSIG
YBBN,2015-01-03 06:30,153.1292,-27.3917,82.40,69.80,65.74,50.00,11.00,0.00,30.00,M,6.21,M,SCT,BKN,M,M,2600.00,19000.00,M,M,M,YBBN 030630Z 05011KT 9999 SCT026 BKN190 28/21 Q1016 RMK HZ
YBBN,2015-01-03 07:00,153.1292,-27.3917,80.60,68.00,65.54,40.00,11.00,0.00,30.03,M,6.21,M,SCT,BKN,M,M,2600.00,19000.00,M,M,M,YBBN 030700Z 04011KT 9999 SCT026 BKN190 27/20 Q1017 NOSIG
YBBN,2015-01-03 07:30,153.1292,-27.3917,80.60,68.00,65.54,50.00,10.00,0.00,30.03,M,6.21,M,FEW,SCT,M,M,1500.00,2600.00,M,M,M,YBBN 030730Z 05010KT 9999 FEW015 SCT026 27/20 Q1017 RMK HZ
YBBN,2015-01-03 08:00,153.1292,-27.3917,78.80,68.00,69.52,50.00,9.00,0.00,30.03,M,6.21,M,SCT,SCT,M,M,2500.00,19000.00,M,M,M,YBBN 030800Z 05009KT 9999 SCT025 SCT190 26/20 Q1017
YBBN,2015-01-03 08:30,153.1292,-27.3917,78.80,68.00,69.52,60.00,7.00,0.00,30.03,M,6.21,M,FEW,SCT,FEW,M,2000.00,20000.00,2400.00,M,M,YBBN 030830Z 06007KT 9999 FEW020 SCT200 FEW024TCU 26/20 Q1017 RMK DIST SHRA NW/SW
YBBN,2015-01-03 09:00,153.1292,-27.3917,78.80,68.00,69.52,60.00,7.00,0.00,30.06,M,6.21,M,FEW,SCT,FEW,M,2000.00,2300.00,2400.00,M,M,YBBN 030900Z 06007KT 9999 FEW020 SCT023 FEW024TCU 26/20 Q1018 NOSIG
YBBN,2015-01-03 09:30,153.1292,-27.3917,78.80,68.00,69.52,60.00,7.00,0.00,30.06,M,6.21,M,FEW,SCT,FEW,M,1900.00,2300.00,2400.00,M,-SHRA,YBBN 030930Z 06007KT 9999 -SHRA FEW019 SCT023 FEW024TCU 26/20 Q1018
YBBN,2015-01-03 10:00,153.1292,-27.3917,78.80,68.00,69.52,50.00,9.00,0.00,30.06,M,6.21,M,FEW,SCT,FEW,M,1800.00,2300.00,2400.00,M,-SHRA,YBBN 031000Z 05009KT 9999 -SHRA FEW018 SCT023 FEW024TCU 26/20 Q1018 NOSIG
YBBN,2015-01-03 10:30,153.1292,-27.3917,77.00,69.80,78.48,50.00,8.00,0.00,30.06,M,6.21,M,FEW,BKN,FEW,M,1800.00,2300.00,2400.00,M,SHRA,YBBN 031030Z 05008KT 9999 SHRA FEW018 BKN023 FEW024TCU 25/21 Q1018 RMK VIS RED TO 8KM SW IN SHRA
YBBN,2015-01-03 11:00,153.1292,-27.3917,77.00,69.80,78.48,60.00,8.00,0.00,30.06,M,6.21,M,FEW,SCT,FEW,M,1700.00,2300.00,2400.00,M,-SHRA,YBBN 031100Z 06008KT 9999 -SHRA FEW017 SCT023 FEW024TCU 25/21 Q1018 RMK VIS RED TO 9KM SW IN -SHRA
YBBN,2015-01-03 11:30,153.1292,-27.3917,77.00,68.00,73.78,60.00,9.00,0.00,30.06,M,6.21,M,FEW,SCT,FEW,M,1700.00,2300.00,2400.00,M,SHRA,YBBN 031130Z 06009KT 9999 SHRA FEW017 SCT023 FEW024TCU 25/20 Q1018 RMK VIS RED TO 8KM SW IN SHRA
YBBN,2015-01-03 12:00,153.1292,-27.3917,77.00,68.00,73.78,50.00,9.00,0.00,30.06,M,6.21,M,FEW,FEW,M,M,1900.00,2400.00,M,M,VCSH,YBBN 031200Z 05009KT 9999 VCSH FEW019 FEW024TCU 25/20 Q1018
YBBN,2015-01-03 12:30,153.1292,-27.3917,77.00,68.00,73.78,50.00,8.00,0.00,30.06,M,6.21,M,FEW,SCT,FEW,M,1800.00,2300.00,2400.00,M,SHRA,YBBN 031230Z 05008KT 9999 SHRA FEW018 SCT023 FEW024TCU 25/20 Q1018 RMK VIS RED TO 8KM S/SE IN SHRA
YBBN,2015-01-03 13:00,153.1292,-27.3917,77.00,68.00,73.78,50.00,11.00,0.00,30.06,M,6.21,M,FEW,SCT,M,M,1800.00,2300.00,M,M,SHRA,YBBN 031300Z 05011KT 9999 SHRA FEW018 SCT023 25/20 Q1018 NOSIG
YBBN,2015-01-03 13:30,153.1292,-27.3917,77.00,68.00,73.78,60.00,10.00,0.00,30.06,M,6.21,M,FEW,SCT,BKN,FEW,1800.00,2400.00,15000.00,2500.00,VCSH,YBBN 031330Z 06010KT 9999 VCSH FEW018 SCT024 BKN150 FEW025TCU 25/20 Q1018
YBBN,2015-01-03 14:00,153.1292,-27.3917,77.00,66.20,69.33,60.00,8.00,0.00,30.03,M,6.21,M,FEW,SCT,BKN,FEW,2000.00,2400.00,6200.00,2500.00,VCSH,YBBN 031400Z 06008KT 9999 VCSH FEW020 SCT024 BKN062 FEW025TCU 25/19 Q1017 NOSIG
YBBN,2015-01-03 14:30,153.1292,-27.3917,77.00,66.20,69.33,70.00,8.00,0.00,30.03,M,6.21,M,FEW,FEW,M,M,1600.00,2500.00,M,M,VCSH,YBBN 031430Z 07008KT 9999 VCSH FEW016 FEW025TCU 25/19 Q1017
YBBN,2015-01-03 15:00,153.1292,-27.3917,77.00,68.00,73.78,70.00,8.00,0.00,30.00,M,6.21,M,FEW,M,M,M,1700.00,M,M,M,VCSH,YBBN 031500Z 07008KT 9999 VCSH FEW017 25/20 Q1016 NOSIG
YBBN,2015-01-03 15:30,153.1292,-27.3917,75.20,68.00,78.34,70.00,8.00,0.00,30.00,M,6.21,M,FEW,M,M,M,2300.00,M,M,M,M,YBBN 031530Z 07008KT 9999 FEW023 24/20 Q1016 RMK DIST -SHRA S/NW
YBBN,2015-01-03 16:00,153.1292,-27.3917,75.20,66.20,73.61,60.00,8.00,0.00,30.00,M,6.21,M,FEW,SCT,M,M,2000.00,2300.00,M,M,VCSH,YBBN 031600Z 06008KT 9999 VCSH FEW020 SCT023 24/19 Q1016 NOSIG
YBBN,2015-01-03 16:30,153.1292,-27.3917,77.00,66.20,69.33,80.00,7.00,0.00,30.00,M,6.21,M,FEW,SCT,M,M,2000.00,2300.00,M,M,VCSH,YBBN 031630Z 08007KT 9999 VCSH FEW020 SCT023 25/19 Q1016 RMK -SHRA WEST
YBBN,2015-01-03 17:00,153.1292,-27.3917,75.20,66.20,73.61,80.00,7.00,0.00,30.00,M,6.21,M,FEW,M,M,M,2000.00,M,M,M,M,YBBN 031700Z 08007KT 9999 FEW020 24/19 Q1016
YBBN,2015-01-03 17:30,153.1292,-27.3917,75.20,66.20,73.61,70.00,6.00,0.00,30.00,M,6.21,M,FEW,SCT,M,M,1800.00,4800.00,M,M,VCSH,YBBN 031730Z 07006KT 9999 VCSH FEW018 SCT048 24/19 Q1016
YBBN,2015-01-03 18:00,153.1292,-27.3917,75.20,64.40,69.14,90.00,7.00,0.00,30.00,M,6.21,M,FEW,SCT,M,M,2400.00,5200.00,M,M,VCSH,YBBN 031800Z 09007KT 9999 VCSH FEW024 SCT052 24/18 Q1016
YBBN,2015-01-03 18:30,153.1292,-27.3917,75.20,64.40,69.14,80.00,7.00,0.00,30.00,M,6.21,M,FEW,SCT,M,M,2200.00,5500.00,M,M,VCSH,YBBN 031830Z 08007KT 9999 VCSH FEW022 SCT055 24/18 Q1016 RMK -SHRA W/NW
YBBN,2015-01-03 19:00,153.1292,-27.3917,75.20,62.60,64.91,90.00,6.00,0.00,30.03,M,6.21,M,FEW,SCT,M,M,2200.00,5500.00,M,M,M,YBBN 031900Z 09006KT 9999 FEW022 SCT055 24/17 Q1017
YBBN,2015-01-03 19:30,153.1292,-27.3917,75.20,62.60,64.91,90.00,6.00,0.00,30.03,M,6.21,M,FEW,SCT,M,M,1800.00,5400.00,M,M,M,YBBN 031930Z 09006KT 9999 FEW018 SCT054 24/17 Q1017 RMK DIST -SHRA WEST
YBBN,2015-01-03 20:00,153.1292,-27.3917,77.00,62.60,61.13,90.00,6.00,0.00,30.03,M,6.21,M,FEW,M,M,M,2000.00,M,M,M,M,YBBN 032000Z 09006KT 9999 FEW020 25/17 Q1017
YBBN,2015-01-03 20:30,153.1292,-27.3917,78.80,62.60,57.60,100.00,7.00,0.00,30.03,M,6.21,M,FEW,SCT,M,M,2400.00,24000.00,M,M,M,YBBN 032030Z 10007KT 9999 FEW024 SCT240 26/17 Q1017
YBBN,2015-01-03 21:00,153.1292,-27.3917,78.80,64.40,61.36,100.00,7.00,0.00,30.06,M,6.21,M,FEW,SCT,M,M,2500.00,24000.00,M,M,M,YBBN 032100Z 10007KT 9999 FEW025 SCT240 26/18 Q1018 NOSIG
YBBN,2015-01-03 21:30,153.1292,-27.3917,78.80,64.40,61.36,110.00,7.00,0.00,30.06,M,6.21,M,FEW,SCT,M,M,2700.00,25000.00,M,M,M,YBBN 032130Z 11007KT 9999 FEW027 SCT250 26/18 Q1018
YBBN,2015-01-03 22:00,153.1292,-27.3917,78.80,64.40,61.36,90.00,6.00,0.00,30.06,M,6.21,M,SCT,M,M,M,3000.00,M,M,M,M,YBBN 032200Z 09006KT 9999 SCT030 26/18 Q1018 NOSIG
YBBN,2015-01-03 22:30,153.1292,-27.3917,80.60,64.40,57.84,80.00,7.00,0.00,30.06,M,6.21,M,SCT,M,M,M,3200.00,M,M,M,M,YBBN 032230Z 08007KT 9999 SCT032 27/18 Q1018
YBBN,2015-01-03 23:00,153.1292,-27.3917,80.60,64.40,57.84,110.00,7.00,0.00,30.06,M,6.21,M,FEW,M,M,M,3500.00,M,M,M,M,YBBN 032300Z 11007KT 9999 FEW035 27/18 Q1018
YBBN,2015-01-03 23:30,153.1292,-27.3917,80.60,64.40,57.84,80.00,8.00,0.00,30.06,M,6.21,M,FEW,M,M,M,3500.00,M,M,M,M,YBBN 032330Z 08008KT 9999 FEW035 27/18 Q1018
