#DEBUG: Format Typ    -> comma
#DEBUG: Time Period   -> 2012-03-18 00:00:00+00:00 2012-03-19 00:00:00+00:00
#DEBUG: Time Zone     -> Etc/UTC
#DEBUG: Data Contact   -> daryl herzmann akrherz@iastate.edu 515-294-5978
#DEBUG: Entries Found -> -1
station,valid,lon,lat,tmpf, dwpf, relh, drct, sknt, p01i, alti, mslp, vsby, gust, skyc1, skyc2, skyc3, skyc4, skyl1, skyl2, skyl3, skyl4, presentwx, metar
YBBN,2012-03-18 00:00,153.1292,-27.3917,75.20,68.00,78.34,200.00,7.00,0.00,29.97,M,6.21,M,FEW,SCT,BKN,M,1800.00,9000.00,25000.00,M,M,YBBN 180000Z 20007KT 9999 FEW018 SCT090 BKN250 24/20 Q1015
YBBN,2012-03-18 00:30,153.1292,-27.3917,75.20,68.00,78.34,180.00,6.00,0.00,29.97,M,6.21,M,FEW,SCT,BKN,M,1800.00,7500.00,28000.00,M,M,YBBN 180030Z 18006KT 9999 FEW018 SCT075 BKN280 24/20 Q1015
YBBN,2012-03-18 01:00,153.1292,-27.3917,75.20,64.40,69.14,170.00,7.00,0.00,29.97,M,6.21,M,FEW,BKN,BKN,M,1800.00,3000.00,28000.00,M,VCSH,YBBN 180100Z 17007KT 9999 VCSH FEW018 BKN030 BKN280 24/18 Q1015
YBBN,2012-03-18 01:30,153.1292,-27.3917,75.20,66.20,73.61,170.00,8.00,0.00,29.97,M,6.21,M,FEW,BKN,BKN,M,1800.00,3000.00,28000.00,M,M,YBBN 180130Z 17008KT 9999 FEW018 BKN030 BKN280 24/19 Q1015
YBBN,2012-03-18 02:00,153.1292,-27.3917,77.00,64.40,65.12,170.00,9.00,0.00,29.94,M,6.21,M,FEW,BKN,M,M,1800.00,3500.00,M,M,VCSH,YBBN 180200Z 17009KT 9999 VCSH FEW018 BKN035 25/18 Q1014
YBBN,2012-03-18 02:30,153.1292,-27.3917,75.20,66.20,73.61,110.00,12.00,0.00,29.94,M,3.11,M,FEW,BKN,M,M,1800.00,2500.00,M,M,-SHRA,YBBN 180230Z 11012KT 5000 -SHRA FEW018 BKN025 24/19 Q1014
YBBN,2012-03-18 03:00,153.1292,-27.3917,75.20,68.00,78.34,150.00,6.00,0.00,29.94,M,6.21,M,FEW,SCT,BKN,M,1800.00,2500.00,5000.00,M,VCSH,YBBN 180300Z 15006KT 9999 VCSH FEW018 SCT025 BKN050 24/20 Q1014
YBBN,2012-03-18 03:30,153.1292,-27.3917,75.20,66.20,73.61,170.00,11.00,0.00,29.94,M,6.21,M,FEW,BKN,BKN,M,3000.00,5000.00,28000.00,M,M,YBBN 180330Z 17011KT 9999 FEW030 BKN050 BKN280 24/19 Q1014
YBBN,2012-03-18 04:00,153.1292,-27.3917,77.00,66.20,69.33,170.00,11.00,0.00,29.91,M,6.21,M,FEW,SCT,BKN,M,3000.00,5000.00,28000.00,M,M,YBBN 180400Z 17011KT 9999 FEW030 SCT050 BKN280 25/19 Q1013
YBBN,2012-03-18 04:30,153.1292,-27.3917,77.00,64.40,65.12,160.00,10.00,0.00,29.91,M,6.21,M,FEW,SCT,BKN,M,3500.00,5000.00,8000.00,M,M,YBBN 180430Z 16010KT 9999 FEW035 SCT050 BKN080 25/18 Q1013
YBBN,2012-03-18 05:00,153.1292,-27.3917,75.20,64.40,69.14,150.00,10.00,0.00,29.91,M,6.21,M,SCT,SCT,BKN,M,3200.00,5000.00,28000.00,M,M,YBBN 180500Z 15010KT 9999 SCT032 SCT050 BKN280 24/18 Q1013
YBBN,2012-03-18 05:30,153.1292,-27.3917,75.20,64.40,69.14,150.00,9.00,0.00,29.91,M,6.21,M,FEW,SCT,BKN,M,3200.00,5000.00,6500.00,M,M,YBBN 180530Z 15009KT 9999 FEW032 SCT050 BKN065 24/18 Q1013
YBBN,2012-03-18 06:00,153.1292,-27.3917,75.20,64.40,69.14,170.00,10.00,0.00,29.91,M,6.21,M,FEW,SCT,BKN,M,3200.00,4500.00,8000.00,M,M,YBBN 180600Z 17010KT 9999 FEW032 SCT045 BKN080 24/18 Q1013
YBBN,2012-03-18 06:19,153.1292,-27.3917,75.20,62.60,64.91,160.00,15.00,0.00,29.94,M,6.21,26.00,FEW,BKN,M,M,3200.00,4500.00,M,M,VCSH,YBBN 180619Z 16015G26KT 9999 VCSH FEW032 BKN045 24/17 Q1014
YBBN,2012-03-18 06:30,153.1292,-27.3917,75.20,62.60,64.91,160.00,10.00,0.00,29.91,M,6.21,M,FEW,SCT,BKN,M,3500.00,4500.00,6000.00,M,M,YBBN 180630Z 16010KT 9999 FEW035 SCT045 BKN060 24/17 Q1013
YBBN,2012-03-18 07:00,153.1292,-27.3917,75.20,62.60,64.91,170.00,9.00,0.00,29.94,M,6.21,M,FEW,BKN,M,M,3200.00,6000.00,M,M,M,YBBN 180700Z 17009KT 9999 FEW032 BKN060 24/17 Q1014
YBBN,2012-03-18 07:14,153.1292,-27.3917,73.40,62.60,68.94,170.00,15.00,0.00,29.94,M,6.21,28.00,FEW,SCT,BKN,M,3200.00,4500.00,6000.00,M,VCSH,YBBN 180714Z 17015G28KT 9999 VCSH FEW032 SCT045 BKN060 23/17 Q1014
YBBN,2012-03-18 07:30,153.1292,-27.3917,73.40,62.60,68.94,160.00,11.00,0.00,29.94,M,6.21,M,FEW,SCT,BKN,M,3200.00,4500.00,6000.00,M,VCSH,YBBN 180730Z 16011KT 9999 VCSH FEW032 SCT045 BKN060 23/17 Q1014
YBBN,2012-03-18 08:00,153.1292,-27.3917,73.40,62.60,68.94,170.00,11.00,0.00,29.94,M,6.21,M,FEW,SCT,BKN,M,3500.00,5000.00,12000.00,M,M,YBBN 180800Z 17011KT 9999 FEW035 SCT050 BKN120 23/17 Q1014
YBBN,2012-03-18 08:30,153.1292,-27.3917,73.40,60.80,64.69,170.00,13.00,0.00,29.94,M,6.21,M,FEW,SCT,BKN,M,3500.00,5000.00,8000.00,M,M,YBBN 180830Z 17013KT 9999 FEW035 SCT050 BKN080 23/16 Q1014
YBBN,2012-03-18 09:00,153.1292,-27.3917,73.40,60.80,64.69,170.00,10.00,0.00,29.97,M,6.21,M,M,M,M,M,M,M,M,M,M,YBBN 180900Z 17010KT CAVOK 23/16 Q1015
YBBN,2012-03-18 09:30,153.1292,-27.3917,71.60,60.80,68.75,170.00,10.00,0.00,29.97,M,6.21,M,M,M,M,M,M,M,M,M,M,YBBN 180930Z 17010KT CAVOK 22/16 Q1015
YBBN,2012-03-18 10:00,153.1292,-27.3917,71.60,59.00,64.48,170.00,10.00,0.00,29.97,M,6.21,M,M,M,M,M,M,M,M,M,M,YBBN 181000Z 17010KT CAVOK 22/15 Q1015 NOSIG
YBBN,2012-03-18 10:30,153.1292,-27.3917,71.60,59.00,64.48,170.00,9.00,0.00,30.00,M,6.21,M,M,M,M,M,M,M,M,M,M,YBBN 181030Z 17009KT CAVOK 22/15 Q1016
YBBN,2012-03-18 11:00,153.1292,-27.3917,71.60,57.20,60.44,170.00,10.00,0.00,30.00,M,6.21,M,M,M,M,M,M,M,M,M,M,YBBN 181100Z 17010KT CAVOK 22/14 Q1016 NOSIG
YBBN,2012-03-18 11:30,153.1292,-27.3917,71.60,57.20,60.44,180.00,9.00,0.00,30.00,M,6.21,M,M,M,M,M,M,M,M,M,M,YBBN 181130Z 18009KT CAVOK 22/14 Q1016
YBBN,2012-03-18 12:00,153.1292,-27.3917,69.80,57.20,64.26,190.00,9.00,0.00,29.97,M,6.21,M,M,M,M,M,M,M,M,M,M,YBBN 181200Z 19009KT CAVOK 21/14 Q1015
YBBN,2012-03-18 12:30,153.1292,-27.3917,69.80,55.40,60.21,190.00,7.00,0.00,29.97,M,6.21,M,M,M,M,M,M,M,M,M,M,YBBN 181230Z 19007KT CAVOK 21/13 Q1015
YBBN,2012-03-18 13:00,153.1292,-27.3917,69.80,57.20,64.26,200.00,7.00,0.00,29.97,M,6.21,M,M,M,M,M,M,M,M,M,M,YBBN 181300Z 20007KT CAVOK 21/14 Q1015 NOSIG
YBBN,2012-03-18 13:30,153.1292,-27.3917,68.00,57.20,68.35,210.00,8.00,0.00,29.97,M,6.21,M,FEW,SCT,M,M,4200.00,28000.00,M,M,M,YBBN 181330Z 21008KT 9999 FEW042 SCT280 20/14 Q1015
YBBN,2012-03-18 14:00,153.1292,-27.3917,66.20,59.00,77.60,210.00,9.00,0.00,29.97,M,6.21,M,SCT,BKN,M,M,4200.00,28000.00,M,M,M,YBBN 181400Z 21009KT 9999 SCT042 BKN280 19/15 Q1015 NOSIG
YBBN,2012-03-18 14:30,153.1292,-27.3917,66.20,57.20,72.74,210.00,8.00,0.00,29.97,M,6.21,M,M,M,M,M,M,M,M,M,M,YBBN 181430Z 21008KT CAVOK 19/14 Q1015
YBBN,2012-03-18 15:00,153.1292,-27.3917,66.20,57.20,72.74,210.00,9.00,0.00,29.94,M,6.21,M,M,M,M,M,M,M,M,M,M,YBBN 181500Z 21009KT CAVOK 19/14 Q1014
YBBN,2012-03-18 15:30,153.1292,-27.3917,64.40,57.20,77.45,210.00,8.00,0.00,29.94,M,6.21,M,M,M,M,M,M,M,M,M,M,YBBN 181530Z 21008KT CAVOK 18/14 Q1014
YBBN,2012-03-18 16:00,153.1292,-27.3917,62.60,59.00,88.00,220.00,8.00,0.00,29.94,M,6.21,M,M,M,M,M,M,M,M,M,M,YBBN 181600Z 22008KT CAVOK 17/15 Q1014
YBBN,2012-03-18 16:30,153.1292,-27.3917,66.20,59.00,77.60,210.00,11.00,0.00,29.91,M,6.21,M,M,M,M,M,M,M,M,M,M,YBBN 181630Z 21011KT CAVOK 19/15 Q1013
YBBN,2012-03-18 17:00,153.1292,-27.3917,64.40,59.00,82.62,210.00,10.00,0.00,29.91,M,6.21,M,M,M,M,M,M,M,M,M,M,YBBN 181700Z 21010KT CAVOK 18/15 Q1013 NOSIG
YBBN,2012-03-18 17:30,153.1292,-27.3917,64.40,59.00,82.62,220.00,9.00,0.00,29.91,M,6.21,M,M,M,M,M,M,M,M,M,M,YBBN 181730Z 22009KT CAVOK 18/15 Q1013
YBBN,2012-03-18 18:00,153.1292,-27.3917,62.60,59.00,88.00,220.00,10.00,0.00,29.91,M,6.21,M,M,M,M,M,M,M,M,M,M,YBBN 181800Z 22010KT CAVOK 17/15 Q1013
YBBN,2012-03-18 18:30,153.1292,-27.3917,64.40,59.00,82.62,220.00,10.00,0.00,29.91,M,6.21,M,M,M,M,M,M,M,M,M,M,YBBN 181830Z 22010KT CAVOK 18/15 Q1013
YBBN,2012-03-18 19:00,153.1292,-27.3917,64.40,59.00,82.62,210.00,9.00,0.00,29.91,M,6.21,M,M,M,M,M,M,M,M,M,M,YBBN 181900Z 21009KT CAVOK 18/15 Q1013
YBBN,2012-03-18 19:30,153.1292,-27.3917,66.20,59.00,77.60,210.00,8.00,0.00,29.94,M,6.21,M,FEW,BKN,M,M,1500.00,5800.00,M,M,M,YBBN 181930Z 21008KT 9999 FEW015 BKN058 19/15 Q1014
YBBN,2012-03-18 20:00,153.1292,-27.3917,66.20,59.00,77.60,210.00,7.00,0.00,29.94,M,6.21,M,FEW,BKN,M,M,1500.00,5000.00,M,M,VCSH,YBBN 182000Z 21007KT 9999 VCSH FEW015 BKN050 19/15 Q1014 NOSIG
YBBN,2012-03-18 20:30,153.1292,-27.3917,66.20,60.80,82.74,210.00,9.00,0.00,29.97,M,4.97,M,FEW,BKN,M,M,1600.00,4200.00,M,M,-SHRA VCSH,YBBN 182030Z 21009KT 8000 -SHRA VCSH FEW016 BKN042 19/16 Q1015
YBBN,2012-03-18 21:00,153.1292,-27.3917,68.00,59.00,72.92,210.00,12.00,0.00,29.97,M,6.21,M,FEW,SCT,M,M,1700.00,4400.00,M,M,VCSH,YBBN 182100Z 21012KT 9999 VCSH FEW017 SCT044 20/15 Q1015 NOSIG
YBBN,2012-03-18 21:30,153.1292,-27.3917,69.80,60.80,73.09,210.00,10.00,0.00,29.97,M,6.21,M,FEW,SCT,M,M,1800.00,4000.00,M,M,VCSH,YBBN 182130Z 21010KT 9999 VCSH FEW018 SCT040 21/16 Q1015
YBBN,2012-03-18 22:00,153.1292,-27.3917,71.60,60.80,68.75,200.00,9.00,0.00,29.97,M,6.21,M,FEW,SCT,M,M,1900.00,3800.00,M,M,VCSH,YBBN 182200Z 20009KT 9999 VCSH FEW019 SCT038 22/16 Q1015 NOSIG
YBBN,2012-03-18 22:30,153.1292,-27.3917,73.40,62.60,68.94,190.00,12.00,0.00,29.97,M,6.21,M,FEW,SCT,M,M,1800.00,6800.00,M,M,VCSH,YBBN 182230Z 19012KT 9999 VCSH FEW018 SCT068 23/17 Q1015
YBBN,2012-03-18 23:00,153.1292,-27.3917,75.20,64.40,69.14,170.00,12.00,0.00,29.97,M,6.21,M,FEW,SCT,M,M,1900.00,6700.00,M,M,M,YBBN 182300Z 17012KT 9999 FEW019 SCT067 24/18 Q1015 NOSIG
YBBN,2012-03-18 23:30,153.1292,-27.3917,77.00,64.40,65.12,170.00,12.00,0.00,29.97,M,6.21,22.00,FEW,M,M,M,2700.00,M,M,M,M,YBBN 182330Z 17012G22KT 9999 FEW027 25/18 Q1015
