#DEBUG: Format Typ    -> comma
#DEBUG: Time Period   -> 2013-12-27 00:00:00+00:00 2013-12-28 00:00:00+00:00
#DEBUG: Time Zone     -> Etc/UTC
#DEBUG: Data Contact   -> daryl herzmann akrherz@iastate.edu 515-294-5978
#DEBUG: Entries Found -> -1
station,valid,lon,lat,tmpf, dwpf, relh, drct, sknt, p01i, alti, mslp, vsby, gust, skyc1, skyc2, skyc3, skyc4, skyl1, skyl2, skyl3, skyl4, presentwx, metar
YBBN,2013-12-27 00:00,153.1292,-27.3917,80.60,69.80,69.71,110.00,10.00,0.00,29.83,M,6.21,M,FEW,SCT,BKN,M,2000.00,2700.00,3900.00,M,M,YBBN 270000Z 11010KT 9999 FEW020 SCT027 BKN039 27/21 Q1010 NOSIG
YBBN,2013-12-27 00:30,153.1292,-27.3917,78.80,69.80,73.95,110.00,12.00,0.00,29.83,M,6.21,M,FEW,SCT,BKN,M,2000.00,3000.00,3700.00,M,M,YBBN 270030Z 11012KT 9999 FEW020 SCT030 BKN037 26/21 Q1010
YBBN,2013-12-27 01:00,153.1292,-27.3917,82.40,69.80,65.74,110.00,13.00,0.00,29.83,M,6.21,M,FEW,SCT,M,M,3000.00,3700.00,M,M,M,YBBN 270100Z 11013KT 9999 FEW030 SCT037 28/21 Q1010 NOSIG
YBBN,2013-12-27 01:30,153.1292,-27.3917,80.60,69.80,69.71,100.00,12.00,0.00,29.83,M,6.21,M,SCT,M,M,M,3400.00,M,M,M,M,YBBN 270130Z 10012KT 9999 SCT034 27/21 Q1010
YBBN,2013-12-27 02:00,153.1292,-27.3917,82.40,69.80,65.74,110.00,13.00,0.00,29.80,M,6.21,M,SCT,M,M,M,3700.00,M,M,M,M,YBBN 270200Z 11013KT 9999 SCT037 28/21 Q1009 NOSIG
YBBN,2013-12-27 02:30,153.1292,-27.3917,82.40,68.00,61.81,120.00,14.00,0.00,29.80,M,6.21,M,FEW,M,M,M,3700.00,M,M,M,M,YBBN 270230Z 12014KT 9999 FEW037 28/20 Q1009
YBBN,2013-12-27 03:00,153.1292,-27.3917,82.40,68.00,61.81,110.00,13.00,0.00,29.80,M,6.21,M,FEW,M,M,M,3700.00,M,M,M,M,YBBN 270300Z 11013KT 9999 FEW037 28/20 Q1009 NOSIG
YBBN,2013-12-27 03:30,153.1292,-27.3917,80.60,66.20,61.58,120.00,14.00,0.00,29.77,M,6.21,M,FEW,M,M,M,3700.00,M,M,M,M,YBBN 270330Z 12014KT 9999 FEW037 27/19 Q1008 RMK CB TOPS S TO W
YBBN,2013-12-27 04:00,153.1292,-27.3917,80.60,66.20,61.58,120.00,13.00,0.00,29.74,M,6.21,M,FEW,BKN,M,M,3500.00,30000.00,M,M,M,YBBN 270400Z 12013KT 9999 FEW035 BKN300 27/19 Q1007 NOSIG
YBBN,2013-12-27 04:30,153.1292,-27.3917,78.80,64.40,61.36,130.00,12.00,0.00,29.77,M,6.21,M,FEW,SCT,BKN,M,3300.00,14000.00,25000.00,M,M,YBBN 270430Z 13012KT 9999 FEW033 SCT140 BKN250 26/18 Q1008
YBBN,2013-12-27 05:00,153.1292,-27.3917,78.80,66.20,65.33,120.00,11.00,0.00,29.77,M,6.21,M,FEW,SCT,BKN,M,3300.00,14000.00,25000.00,M,M,YBBN 270500Z 12011KT 9999 FEW033 SCT140 BKN250 26/19 Q1008 NOSIG
YBBN,2013-12-27 05:30,153.1292,-27.3917,78.80,68.00,69.52,120.00,10.00,0.00,29.77,M,6.21,M,FEW,SCT,BKN,M,2200.00,14000.00,25000.00,M,M,YBBN 270530Z 12010KT 9999 FEW022 SCT140 BKN250 26/20 Q1008
YBBN,2013-12-27 06:00,153.1292,-27.3917,77.00,68.00,73.78,110.00,11.00,0.00,29.77,M,6.21,M,FEW,SCT,BKN,M,2000.00,14000.00,22000.00,M,M,YBBN 270600Z 11011KT 9999 FEW020 SCT140 BKN220 25/20 Q1008
YBBN,2013-12-27 06:30,153.1292,-27.3917,78.80,68.00,69.52,110.00,11.00,0.00,29.74,M,6.21,M,FEW,SCT,BKN,M,2200.00,18000.00,28000.00,M,M,YBBN 270630Z 11011KT 9999 FEW022 SCT180 BKN280 26/20 Q1007
YBBN,2013-12-27 07:00,153.1292,-27.3917,77.00,68.00,73.78,110.00,12.00,0.00,29.77,M,6.21,M,SCT,BKN,M,M,2000.00,28000.00,M,M,M,YBBN 270700Z 11012KT 9999 SCT020 BKN280 25/20 Q1008
YBBN,2013-12-27 07:30,153.1292,-27.3917,78.80,68.00,69.52,120.00,9.00,0.00,29.77,M,6.21,M,FEW,SCT,M,M,2000.00,28000.00,M,M,M,YBBN 270730Z 12009KT 9999 FEW020 SCT280 26/20 Q1008
YBBN,2013-12-27 08:00,153.1292,-27.3917,77.00,68.00,73.78,120.00,9.00,0.00,29.80,M,6.21,M,FEW,SCT,M,M,1800.00,28000.00,M,M,M,YBBN 270800Z 12009KT 9999 FEW018 SCT280 25/20 Q1009 NOSIG
YBBN,2013-12-27 08:30,153.1292,-27.3917,77.00,69.80,78.48,120.00,8.00,0.00,29.83,M,6.21,M,FEW,SCT,BKN,M,1600.00,1800.00,28000.00,M,M,YBBN 270830Z 12008KT 9999 FEW016 SCT018 BKN280 25/21 Q1010
YBBN,2013-12-27 09:00,153.1292,-27.3917,77.00,68.00,73.78,120.00,9.00,0.00,29.83,M,6.21,M,SCT,SCT,M,M,1800.00,28000.00,M,M,M,YBBN 270900Z 12009KT 9999 SCT018 SCT280 25/20 Q1010 NOSIG
YBBN,2013-12-27 09:30,153.1292,-27.3917,77.00,69.80,78.48,110.00,8.00,0.00,29.83,M,6.21,M,SCT,M,M,M,1700.00,M,M,M,M,YBBN 270930Z 11008KT 9999 SCT017 25/21 Q1010
YBBN,2013-12-27 10:00,153.1292,-27.3917,77.00,69.80,78.48,110.00,8.00,0.00,29.85,M,6.21,M,SCT,M,M,M,1700.00,M,M,M,M,YBBN 271000Z 11008KT 9999 SCT017 25/21 Q1011 NOSIG
YBBN,2013-12-27 10:30,153.1292,-27.3917,77.00,69.80,78.48,110.00,8.00,0.00,29.85,M,6.21,M,BKN,M,M,M,1800.00,M,M,M,M,YBBN 271030Z 11008KT 9999 BKN018 25/21 Q1011
YBBN,2013-12-27 11:00,153.1292,-27.3917,77.00,68.00,73.78,120.00,9.00,0.00,29.85,M,6.21,M,SCT,M,M,M,1700.00,M,M,M,M,YBBN 271100Z 12009KT 9999 SCT017 25/20 Q1011 NOSIG
YBBN,2013-12-27 11:30,153.1292,-27.3917,75.20,68.00,78.34,120.00,8.00,0.00,29.85,M,6.21,M,FEW,SCT,M,M,1800.00,3500.00,M,M,M,YBBN 271130Z 12008KT 9999 FEW018 SCT035 24/20 Q1011
YBBN,2013-12-27 12:00,153.1292,-27.3917,75.20,68.00,78.34,120.00,8.00,0.00,29.88,M,6.21,M,FEW,M,M,M,2000.00,M,M,M,M,YBBN 271200Z 12008KT 9999 FEW020 24/20 Q1012 NOSIG
YBBN,2013-12-27 12:30,153.1292,-27.3917,75.20,68.00,78.34,130.00,7.00,0.00,29.85,M,6.21,M,FEW,SCT,M,M,2000.00,3000.00,M,M,M,YBBN 271230Z 13007KT 9999 FEW020 SCT030 24/20 Q1011
YBBN,2013-12-27 13:00,153.1292,-27.3917,75.20,68.00,78.34,140.00,8.00,0.00,29.85,M,6.21,M,FEW,SCT,M,M,1800.00,2700.00,M,M,M,YBBN 271300Z 14008KT 9999 FEW018 SCT027 24/20 Q1011 NOSIG
YBBN,2013-12-27 13:30,153.1292,-27.3917,75.20,66.20,73.61,140.00,7.00,0.00,29.85,M,6.21,M,FEW,M,M,M,1800.00,M,M,M,M,YBBN 271330Z 14007KT 9999 FEW018 24/19 Q1011
YBBN,2013-12-27 14:00,153.1292,-27.3917,75.20,66.20,73.61,140.00,6.00,0.00,29.85,M,6.21,M,FEW,SCT,M,M,1800.00,28000.00,M,M,M,YBBN 271400Z 14006KT 9999 FEW018 SCT280 24/19 Q1011 NOSIG
YBBN,2013-12-27 14:30,153.1292,-27.3917,75.20,66.20,73.61,150.00,6.00,0.00,29.85,M,6.21,M,FEW,SCT,M,M,1800.00,28000.00,M,M,M,YBBN 271430Z 15006KT 9999 FEW018 SCT280 24/19 Q1011
YBBN,2013-12-27 15:00,153.1292,-27.3917,73.40,66.20,78.19,140.00,7.00,0.00,29.83,M,6.21,M,FEW,M,M,M,4200.00,M,M,M,M,YBBN 271500Z 14007KT 9999 FEW042 23/19 Q1010
YBBN,2013-12-27 15:30,153.1292,-27.3917,73.40,66.20,78.19,130.00,8.00,0.00,29.83,M,6.21,M,FEW,M,M,M,4200.00,M,M,M,M,YBBN 271530Z 13008KT 9999 FEW042 23/19 Q1010
YBBN,2013-12-27 16:00,153.1292,-27.3917,73.40,66.20,78.19,160.00,5.00,0.00,29.83,M,6.21,M,FEW,SCT,M,M,4200.00,28000.00,M,M,M,YBBN 271600Z 16005KT 9999 FEW042 SCT280 23/19 Q1010 NOSIG
YBBN,2013-12-27 16:30,153.1292,-27.3917,73.40,66.20,78.19,150.00,5.00,0.00,29.83,M,6.21,M,FEW,BKN,M,M,3000.00,28000.00,M,M,M,YBBN 271630Z 15005KT 9999 FEW030 BKN280 23/19 Q1010
YBBN,2013-12-27 17:00,153.1292,-27.3917,73.40,66.20,78.19,150.00,5.00,0.00,29.83,M,6.21,M,SCT,SCT,M,M,3000.00,28000.00,M,M,M,YBBN 271700Z 15005KT 9999 SCT030 SCT280 23/19 Q1010
YBBN,2013-12-27 17:30,153.1292,-27.3917,71.60,66.20,83.09,150.00,5.00,0.00,29.83,M,6.21,M,BKN,M,M,M,3200.00,M,M,M,M,YBBN 271730Z 15005KT 9999 BKN032 22/19 Q1010
YBBN,2013-12-27 18:00,153.1292,-27.3917,71.60,66.20,83.09,160.00,5.00,0.00,29.83,M,6.21,M,BKN,M,M,M,3200.00,M,M,M,M,YBBN 271800Z 16005KT 9999 BKN032 22/19 Q1010 NOSIG
YBBN,2013-12-27 18:30,153.1292,-27.3917,71.60,66.20,83.09,170.00,3.00,0.00,29.83,M,6.21,M,SCT,M,M,M,3200.00,M,M,M,M,YBBN 271830Z 17003KT 9999 SCT032 22/19 Q1010
YBBN,2013-12-27 19:00,153.1292,-27.3917,71.60,66.20,83.09,0.00,0.00,0.00,29.83,M,6.21,M,FEW,BKN,M,M,1500.00,3800.00,M,M,M,YBBN 271900Z 00000KT 9999 FEW015 BKN038 22/19 Q1010
YBBN,2013-12-27 19:30,153.1292,-27.3917,71.60,66.20,83.09,170.00,4.00,0.00,29.85,M,6.21,M,BKN,M,M,M,3800.00,M,M,M,M,YBBN 271930Z 17004KT 9999 BKN038 22/19 Q1011
YBBN,2013-12-27 20:00,153.1292,-27.3917,73.40,66.20,78.19,170.00,5.00,0.00,29.85,M,6.21,M,FEW,BKN,M,M,1500.00,3500.00,M,M,M,YBBN 272000Z 17005KT 9999 FEW015 BKN035 23/19 Q1011 NOSIG
YBBN,2013-12-27 20:30,153.1292,-27.3917,73.40,68.00,83.21,160.00,5.00,0.00,29.85,M,6.21,M,FEW,BKN,M,M,1800.00,3100.00,M,M,M,YBBN 272030Z 16005KT 9999 FEW018 BKN031 23/20 Q1011
YBBN,2013-12-27 21:00,153.1292,-27.3917,75.20,66.20,73.61,140.00,6.00,0.00,29.85,M,6.21,M,FEW,BKN,M,M,2000.00,3100.00,M,M,M,YBBN 272100Z 14006KT 9999 FEW020 BKN031 24/19 Q1011
YBBN,2013-12-27 21:30,153.1292,-27.3917,77.00,66.20,69.33,130.00,7.00,0.00,29.88,M,6.21,M,FEW,BKN,M,M,2000.00,4400.00,M,M,M,YBBN 272130Z 13007KT 9999 FEW020 BKN044 25/19 Q1012
YBBN,2013-12-27 22:00,153.1292,-27.3917,77.00,66.20,69.33,120.00,8.00,0.00,29.88,M,6.21,M,FEW,BKN,M,M,2200.00,5100.00,M,M,M,YBBN 272200Z 12008KT 9999 FEW022 BKN051 25/19 Q1012
YBBN,2013-12-27 22:30,153.1292,-27.3917,77.00,66.20,69.33,120.00,8.00,0.00,29.88,M,6.21,M,FEW,SCT,BKN,M,2200.00,3100.00,5100.00,M,M,YBBN 272230Z 12008KT 9999 FEW022 SCT031 BKN051 25/19 Q1012
YBBN,2013-12-27 23:00,153.1292,-27.3917,78.80,66.20,65.33,130.00,7.00,0.00,29.85,M,6.21,M,FEW,SCT,BKN,M,2200.00,3000.00,5500.00,M,M,YBBN 272300Z 13007KT 9999 FEW022 SCT030 BKN055 26/19 Q1011 NOSIG
YBBN,2013-12-27 23:30,153.1292,-27.3917,78.80,66.20,65.33,70.00,7.00,0.00,29.85,M,6.21,M,FEW,BKN,M,M,2800.00,5500.00,M,M,M,YBBN 272330Z 07007KT 9999 FEW028 BKN055 26/19 Q1011
