#DEBUG: Format Typ    -> comma
#DEBUG: Time Period   -> 2016-09-01 00:00:00+00:00 2016-09-02 00:00:00+00:00
#DEBUG: Time Zone     -> Etc/UTC
#DEBUG: Data Contact   -> daryl herzmann akrherz@iastate.edu 515-294-5978
#DEBUG: Entries Found -> -1
station,valid,lon,lat,tmpf, dwpf, relh, drct, sknt, p01i, alti, mslp, vsby, gust, skyc1, skyc2, skyc3, skyc4, skyl1, skyl2, skyl3, skyl4, presentwx, metar
YBBN,2016-09-01 00:00,153.1292,-27.3917,71.60,59.00,64.48,360.00,8.00,0.00,30.15,M,6.21,M,FEW,SCT,BKN,M,2800.00,16000.00,30000.00,M,M,YBBN 010000Z 36008KT 9999 FEW028 SCT160 BKN300 22/15 Q1021
YBBN,2016-09-01 00:30,153.1292,-27.3917,68.00,60.80,77.75,40.00,7.00,0.00,30.12,M,6.21,M,FEW,SCT,BKN,M,2400.00,15000.00,30000.00,M,M,YBBN 010030Z 04007KT 9999 FEW024 SCT150 BKN300 20/16 Q1020 NOSIG
YBBN,2016-09-01 01:00,153.1292,-27.3917,71.60,60.80,68.75,10.00,7.00,0.00,30.12,M,6.21,M,FEW,SCT,M,M,2600.00,17000.00,M,M,M,YBBN 010100Z 01007KT 9999 FEW026 SCT170 22/16 Q1020
YBBN,2016-09-01 01:30,153.1292,-27.3917,75.20,60.80,60.90,10.00,9.00,0.00,30.12,M,6.21,M,FEW,SCT,M,M,3200.00,17000.00,M,M,M,YBBN 010130Z 01009KT 9999 FEW032 SCT170 24/16 Q1020 NOSIG
YBBN,2016-09-01 02:00,153.1292,-27.3917,73.40,60.80,64.69,30.00,8.00,0.00,30.09,M,6.21,M,FEW,SCT,M,M,3200.00,17000.00,M,M,M,YBBN 010200Z 03008KT 9999 FEW032 SCT170 23/16 Q1019 NOSIG
YBBN,2016-09-01 02:30,153.1292,-27.3917,73.40,60.80,64.69,30.00,11.00,0.00,30.06,M,6.21,M,FEW,M,M,M,3000.00,M,M,M,M,YBBN 010230Z 03011KT 9999 FEW030 23/16 Q1018
YBBN,2016-09-01 03:00,153.1292,-27.3917,75.20,60.80,60.90,30.00,13.00,0.00,30.03,M,6.21,M,FEW,SCT,M,M,3000.00,17000.00,M,M,M,YBBN 010300Z 03013KT 9999 FEW030 SCT170 24/16 Q1017 NOSIG
YBBN,2016-09-01 03:30,153.1292,-27.3917,73.40,60.80,64.69,30.00,15.00,0.00,30.03,M,6.21,M,FEW,SCT,M,M,3200.00,17000.00,M,M,M,YBBN 010330Z 03015KT 9999 FEW032 SCT170 23/16 Q1017 NOSIG
YBBN,2016-09-01 04:00,153.1292,-27.3917,73.40,60.80,64.69,20.00,16.00,0.00,30.03,M,6.21,M,FEW,SCT,M,M,3000.00,17000.00,M,M,M,YBBN 010400Z 02016KT 9999 FEW030 SCT170 23/16 Q1017
YBBN,2016-09-01 04:30,153.1292,-27.3917,71.60,62.60,73.27,20.00,14.00,0.00,30.03,M,6.21,M,FEW,BKN,M,M,2500.00,17000.00,M,M,M,YBBN 010430Z 02014KT 9999 FEW025 BKN170 22/17 Q1017 NOSIG
YBBN,2016-09-01 05:00,153.1292,-27.3917,71.60,62.60,73.27,20.00,14.00,0.00,30.00,M,6.21,M,FEW,BKN,M,M,2500.00,17000.00,M,M,M,YBBN 010500Z 02014KT 9999 FEW025 BKN170 22/17 Q1016 NOSIG
YBBN,2016-09-01 05:30,153.1292,-27.3917,69.80,64.40,82.98,20.00,13.00,0.00,30.00,M,6.21,M,FEW,SCT,BKN,M,2500.00,15000.00,18000.00,M,M,YBBN 010530Z 02013KT 9999 FEW025 SCT150 BKN180 21/18 Q1016 NOSIG
YBBN,2016-09-01 06:00,153.1292,-27.3917,69.80,64.40,82.98,10.00,14.00,0.00,30.00,M,6.21,M,M,M,M,M,M,M,M,M,M,YBBN 010600Z 01014KT CAVOK 21/18 Q1016
YBBN,2016-09-01 06:30,153.1292,-27.3917,69.80,62.60,77.90,10.00,14.00,0.00,30.00,M,6.21,M,M,M,M,M,M,M,M,M,M,YBBN 010630Z 01014KT CAVOK 21/17 Q1016 NOSIG
YBBN,2016-09-01 07:00,153.1292,-27.3917,68.00,62.60,82.86,20.00,13.00,0.00,30.00,M,6.21,M,M,M,M,M,M,M,M,M,M,YBBN 010700Z 02013KT CAVOK 20/17 Q1016
YBBN,2016-09-01 07:30,153.1292,-27.3917,68.00,62.60,82.86,20.00,9.00,0.00,30.00,M,6.21,M,M,M,M,M,M,M,M,M,M,YBBN 010730Z 02009KT CAVOK 20/17 Q1016 NOSIG
YBBN,2016-09-01 08:00,153.1292,-27.3917,68.00,60.80,77.75,10.00,10.00,0.00,30.00,M,6.21,M,M,M,M,M,M,M,M,M,M,YBBN 010800Z 01010KT CAVOK 20/16 Q1016
YBBN,2016-09-01 08:30,153.1292,-27.3917,68.00,62.60,82.86,20.00,10.00,0.00,30.00,M,6.21,M,M,M,M,M,M,M,M,M,M,YBBN 010830Z 02010KT CAVOK 20/17 Q1016 NOSIG
YBBN,2016-09-01 09:00,153.1292,-27.3917,66.20,62.60,88.18,20.00,8.00,0.00,30.00,M,6.21,M,M,M,M,M,M,M,M,M,M,YBBN 010900Z 02008KT CAVOK 19/17 Q1016
YBBN,2016-09-01 09:30,153.1292,-27.3917,66.20,62.60,88.18,20.00,8.00,0.00,30.03,M,6.21,M,M,M,M,M,M,M,M,M,M,YBBN 010930Z 02008KT CAVOK 19/17 Q1017 NOSIG
YBBN,2016-09-01 10:00,153.1292,-27.3917,68.00,62.60,82.86,20.00,14.00,0.00,30.03,M,6.21,M,M,M,M,M,M,M,M,M,M,YBBN 011000Z 02014KT CAVOK 20/17 Q1017 NOSIG
YBBN,2016-09-01 10:30,153.1292,-27.3917,66.20,62.60,88.18,20.00,14.00,0.00,30.03,M,6.21,M,FEW,SCT,M,M,1600.00,6300.00,M,M,M,YBBN 011030Z 02014KT 9999 FEW016 SCT063 19/17 Q1017 NOSIG
YBBN,2016-09-01 11:00,153.1292,-27.3917,66.20,62.60,88.18,20.00,15.00,0.00,30.03,M,6.21,M,FEW,SCT,M,M,1600.00,6300.00,M,M,M,YBBN 011100Z 02015KT 9999 FEW016 SCT063 19/17 Q1017
YBBN,2016-09-01 11:30,153.1292,-27.3917,66.20,62.60,88.18,20.00,13.00,0.00,30.03,M,6.21,M,M,M,M,M,M,M,M,M,M,YBBN 011130Z 02013KT CAVOK 19/17 Q1017 NOSIG
YBBN,2016-09-01 12:00,153.1292,-27.3917,66.20,62.60,88.18,20.00,14.00,0.00,30.03,M,6.21,M,FEW,SCT,M,M,1600.00,18000.00,M,M,M,YBBN 011200Z 02014KT 9999 FEW016 SCT180 19/17 Q1017 NOSIG
YBBN,2016-09-01 12:30,153.1292,-27.3917,66.20,62.60,88.18,30.00,11.00,0.00,30.00,M,6.21,M,FEW,M,M,M,1600.00,M,M,M,M,YBBN 011230Z 03011KT 9999 FEW016 19/17 Q1016 NOSIG
YBBN,2016-09-01 13:00,153.1292,-27.3917,68.00,64.40,88.26,20.00,12.00,0.00,30.00,M,6.21,M,FEW,SCT,M,M,1600.00,6000.00,M,M,M,YBBN 011300Z 02012KT 9999 FEW016 SCT060 20/18 Q1016 NOSIG
YBBN,2016-09-01 13:30,153.1292,-27.3917,68.00,64.40,88.26,30.00,9.00,0.00,30.00,M,6.21,M,FEW,SCT,M,M,1600.00,5800.00,M,M,M,YBBN 011330Z 03009KT 9999 FEW016 SCT058 20/18 Q1016 NOSIG
YBBN,2016-09-01 14:00,153.1292,-27.3917,68.00,64.40,88.26,20.00,8.00,0.00,30.00,M,6.21,M,FEW,BKN,M,M,1600.00,5800.00,M,M,M,YBBN 011400Z 02008KT 9999 FEW016 BKN058 20/18 Q1016 NOSIG
YBBN,2016-09-01 14:30,153.1292,-27.3917,68.00,64.40,88.26,20.00,9.00,0.00,30.00,M,6.21,M,M,M,M,M,M,M,M,M,M,YBBN 011430Z 02009KT CAVOK 20/18 Q1016 NOSIG
YBBN,2016-09-01 15:00,153.1292,-27.3917,68.00,64.40,88.26,10.00,9.00,0.00,29.97,M,6.21,M,FEW,SCT,M,M,3400.00,5600.00,M,M,M,YBBN 011500Z 01009KT 9999 FEW034 SCT056 20/18 Q1015
YBBN,2016-09-01 16:00,153.1292,-27.3917,68.00,64.40,88.26,350.00,5.00,0.00,29.97,M,6.21,M,FEW,SCT,BKN,M,2000.00,3000.00,4200.00,M,M,YBBN 011600Z 35005KT 9999 FEW020 SCT030 BKN042 20/18 Q1015
YBBN,2016-09-01 16:11,153.1292,-27.3917,66.20,64.40,93.92,340.00,7.00,0.00,29.97,M,3.73,M,FEW,SCT,BKN,M,900.00,1800.00,2900.00,M,-RA,YBBN 011611Z 34007KT 6000 -RA FEW009 SCT018 BKN029 19/18 Q1015
YBBN,2016-09-01 16:30,153.1292,-27.3917,66.20,64.40,93.92,360.00,7.00,0.00,29.94,M,6.21,M,FEW,SCT,BKN,M,1000.00,2700.00,4500.00,M,VCSH,YBBN 011630Z 36007KT 9999 VCSH FEW010 SCT027 BKN045 19/18 Q1014
YBBN,2016-09-01 17:00,153.1292,-27.3917,66.20,64.40,93.92,350.00,5.00,0.00,29.94,M,6.21,M,FEW,BKN,M,M,1700.00,3200.00,M,M,VCSH,YBBN 011700Z 35005KT 9999 VCSH FEW017 BKN032 19/18 Q1014
YBBN,2016-09-01 18:30,153.1292,-27.3917,66.20,64.40,93.92,350.00,8.00,0.00,29.94,M,4.35,M,FEW,SCT,BKN,M,1100.00,2100.00,4100.00,M,-RA,YBBN 011830Z 35008KT 7000 -RA FEW011 SCT021 BKN041 19/18 Q1014
YBBN,2016-09-01 22:00,153.1292,-27.3917,69.80,66.20,88.34,360.00,8.00,0.00,30.00,M,6.21,M,FEW,BKN,M,M,500.00,5500.00,M,M,M,YBBN 012200Z 36008KT 9999 FEW005 BKN055 21/19 Q1016
YBBN,2016-09-01 23:00,153.1292,-27.3917,71.60,64.40,78.04,360.00,12.00,0.00,30.00,M,6.21,M,FEW,BKN,M,M,1000.00,5900.00,M,M,M,YBBN 012300Z 36012KT 9999 FEW010 BKN059 22/18 Q1016
