#DEBUG: Format Typ    -> comma
#DEBUG: Time Period   -> 2010-09-24 00:00:00+00:00 2010-09-25 00:00:00+00:00
#DEBUG: Time Zone     -> Etc/UTC
#DEBUG: Data Contact   -> daryl herzmann akrherz@iastate.edu 515-294-5978
#DEBUG: Entries Found -> -1
station,valid,lon,lat,tmpf, dwpf, relh, drct, sknt, p01i, alti, mslp, vsby, gust, skyc1, skyc2, skyc3, skyc4, skyl1, skyl2, skyl3, skyl4, presentwx, metar
YBBN,2010-09-24 00:00,153.1292,-27.3917,73.40,59.00,60.67,50.00,8.00,M,30.21,M,6.21,M,SCT,SCT,BKN,M,2500.00,11500.00,28000.00,M,M,YBBN 240000Z 05008KT 9999 SCT025 SCT115 BKN280 23/15 Q1023 NOSIG
YBBN,2010-09-24 00:30,153.1292,-27.3917,73.40,59.00,60.67,30.00,8.00,M,30.21,M,6.21,M,FEW,SCT,BKN,M,2800.00,11500.00,28000.00,M,M,YBBN 240030Z 03008KT 9999 FEW028 SCT115 BKN280 23/15 Q1023 NOSIG
YBBN,2010-09-24 01:00,153.1292,-27.3917,73.40,57.20,56.88,50.00,8.00,M,30.21,M,6.21,M,FEW,SCT,M,M,2800.00,11500.00,M,M,M,YBBN 240100Z 05008KT 9999 FEW028 SCT115 23/14 Q1023 NOSIG
YBBN,2010-09-24 01:30,153.1292,-27.3917,75.20,57.20,53.55,50.00,8.00,M,30.18,M,6.21,M,FEW,M,M,M,3000.00,M,M,M,M,YBBN 240130Z 05008KT 9999 FEW030 24/14 Q1022 NOSIG
YBBN,2010-09-24 02:00,153.1292,-27.3917,75.20,59.00,57.12,40.00,8.00,M,30.18,M,6.21,M,FEW,BKN,M,M,3000.00,28000.00,M,M,M,YBBN 240200Z 04008KT 9999 FEW030 BKN280 24/15 Q1022 NOSIG
YBBN,2010-09-24 02:30,153.1292,-27.3917,73.40,59.00,60.67,70.00,8.00,M,30.15,M,6.21,M,FEW,BKN,M,M,3000.00,9000.00,M,M,M,YBBN 240230Z 07008KT 9999 FEW030 BKN090 23/15 Q1021 NOSIG
YBBN,2010-09-24 03:00,153.1292,-27.3917,73.40,60.80,64.69,60.00,9.00,M,30.15,M,6.21,M,FEW,SCT,BKN,M,3000.00,9500.00,11500.00,M,M,YBBN 240300Z 06009KT 9999 FEW030 SCT095 BKN115 23/16 Q1021 NOSIG
YBBN,2010-09-24 03:30,153.1292,-27.3917,73.40,60.80,64.69,50.00,9.00,M,30.15,M,6.21,M,FEW,SCT,BKN,M,2700.00,9500.00,11500.00,M,M,YBBN 240330Z 05009KT 9999 FEW027 SCT095 BKN115 23/16 Q1021 NOSIG
YBBN,2010-09-24 04:00,153.1292,-27.3917,73.40,59.00,60.67,30.00,8.00,M,30.12,M,6.21,M,FEW,SCT,BKN,M,2700.00,11500.00,28000.00,M,M,YBBN 240400Z 03008KT 9999 FEW027 SCT115 BKN280 23/15 Q1020 NOSIG
YBBN,2010-09-24 04:30,153.1292,-27.3917,73.40,59.00,60.67,10.00,8.00,M,30.12,M,6.21,M,FEW,SCT,BKN,M,2700.00,11500.00,28000.00,M,M,YBBN 240430Z 01008KT 9999 FEW027 SCT115 BKN280 23/15 Q1020 NOSIG
YBBN,2010-09-24 05:00,153.1292,-27.3917,71.60,59.00,64.48,10.00,9.00,M,30.12,M,6.21,M,FEW,SCT,BKN,M,2700.00,11500.00,28000.00,M,M,YBBN 240500Z 01009KT 9999 FEW027 SCT115 BKN280 22/15 Q1020 NOSIG
YBBN,2010-09-24 05:30,153.1292,-27.3917,71.60,60.80,68.75,10.00,10.00,M,30.12,M,6.21,M,FEW,BKN,BKN,M,2700.00,5000.00,28000.00,M,M,YBBN 240530Z 01010KT 9999 FEW027 BKN050 BKN280 22/16 Q1020 NOSIG
YBBN,2010-09-24 06:30,153.1292,-27.3917,71.60,60.80,68.75,20.00,11.00,M,30.12,M,6.21,M,FEW,BKN,BKN,M,2500.00,11000.00,28000.00,M,M,YBBN 240630Z 02011KT 9999 FEW025 BKN110 BKN280 22/16 Q1020 NOSIG
YBBN,2010-09-24 07:00,153.1292,-27.3917,69.80,60.80,73.09,20.00,10.00,M,30.12,M,6.21,M,FEW,BKN,M,M,2500.00,11000.00,M,M,M,YBBN 240700Z 02010KT 9999 FEW025 BKN110 21/16 Q1020 NOSIG
YBBN,2010-09-24 07:30,153.1292,-27.3917,69.80,60.80,73.09,20.00,9.00,M,30.12,M,6.21,M,FEW,BKN,BKN,M,2500.00,9000.00,28000.00,M,M,YBBN 240730Z 02009KT 9999 FEW025 BKN090 BKN280 21/16 Q1020 NOSIG
YBBN,2010-09-24 08:00,153.1292,-27.3917,68.00,60.80,77.75,20.00,8.00,M,30.15,M,6.21,M,FEW,BKN,BKN,M,2200.00,10000.00,28000.00,M,M,YBBN 240800Z 02008KT 9999 FEW022 BKN100 BKN280 20/16 Q1021 NOSIG
YBBN,2010-09-24 08:30,153.1292,-27.3917,68.00,60.80,77.75,20.00,8.00,M,30.15,M,6.21,M,FEW,BKN,BKN,M,2200.00,10000.00,28000.00,M,M,YBBN 240830Z 02008KT 9999 FEW022 BKN100 BKN280 20/16 Q1021 NOSIG
YBBN,2010-09-24 09:00,153.1292,-27.3917,68.00,60.80,77.75,20.00,7.00,M,30.15,M,6.21,M,FEW,BKN,BKN,M,2200.00,12000.00,28000.00,M,M,YBBN 240900Z 02007KT 9999 FEW022 BKN120 BKN280 20/16 Q1021 NOSIG
YBBN,2010-09-24 09:30,153.1292,-27.3917,68.00,62.60,82.86,50.00,5.00,M,30.18,M,6.21,M,FEW,SCT,BKN,M,2200.00,4500.00,12000.00,M,-RA,YBBN 240930Z 05005KT 9999 -RA FEW022 SCT045 BKN120 20/17 Q1022 NOSIG
YBBN,2010-09-24 10:00,153.1292,-27.3917,68.00,60.80,77.75,60.00,5.00,M,30.18,M,6.21,M,FEW,SCT,BKN,M,2200.00,4500.00,12000.00,M,-RA,YBBN 241000Z 06005KT 9999 -RA FEW022 SCT045 BKN120 20/16 Q1022 NOSIG
YBBN,2010-09-24 10:30,153.1292,-27.3917,68.00,60.80,77.75,50.00,5.00,M,30.18,M,6.21,M,FEW,SCT,BKN,M,1800.00,4500.00,11000.00,M,M,YBBN 241030Z 05005KT 9999 FEW018 SCT045 BKN110 20/16 Q1022 NOSIG
YBBN,2010-09-24 11:00,153.1292,-27.3917,68.00,62.60,82.86,50.00,6.00,M,30.18,M,6.21,M,FEW,SCT,BKN,M,1800.00,8200.00,11000.00,M,VCSH,YBBN 241100Z 05006KT 9999 VCSH FEW018 SCT082 BKN110 20/17 Q1022 NOSIG
YBBN,2010-09-24 11:30,153.1292,-27.3917,68.00,60.80,77.75,20.00,8.00,M,30.18,M,6.21,M,FEW,BKN,BKN,M,1800.00,8000.00,11000.00,M,-RA,YBBN 241130Z 02008KT 9999 -RA FEW018 BKN080 BKN110 20/16 Q1022 NOSIG
YBBN,2010-09-24 12:00,153.1292,-27.3917,68.00,60.80,77.75,30.00,10.00,M,30.18,M,6.21,M,FEW,SCT,BKN,M,1800.00,8000.00,11000.00,M,VCSH,YBBN 241200Z 03010KT 9999 VCSH FEW018 SCT080 BKN110 20/16 Q1022 NOSIG
YBBN,2010-09-24 12:30,153.1292,-27.3917,68.00,62.60,82.86,20.00,8.00,M,30.18,M,6.21,M,FEW,BKN,M,M,2000.00,11000.00,M,M,VCSH,YBBN 241230Z 02008KT 9999 VCSH FEW020 BKN110 20/17 Q1022 NOSIG
YBBN,2010-09-24 13:00,153.1292,-27.3917,68.00,62.60,82.86,10.00,7.00,M,30.18,M,6.21,M,FEW,BKN,M,M,4000.00,11000.00,M,M,-RA,YBBN 241300Z 01007KT 9999 -RA FEW040 BKN110 20/17 Q1022 NOSIG
YBBN,2010-09-24 13:30,153.1292,-27.3917,68.00,62.60,82.86,10.00,11.00,M,30.18,M,6.21,M,FEW,BKN,M,M,1800.00,11000.00,M,M,-RA,YBBN 241330Z 01011KT 9999 -RA FEW018 BKN110 20/17 Q1022 NOSIG
YBBN,2010-09-24 14:00,153.1292,-27.3917,66.20,62.60,88.18,10.00,10.00,M,30.15,M,6.21,M,FEW,BKN,M,M,1800.00,12000.00,M,M,-RA,YBBN 241400Z 01010KT 9999 -RA FEW018 BKN120 19/17 Q1021 NOSIG
YBBN,2010-09-24 14:30,153.1292,-27.3917,66.20,62.60,88.18,10.00,8.00,M,30.15,M,6.21,M,FEW,BKN,M,M,1800.00,11000.00,M,M,VCSH,YBBN 241430Z 01008KT 9999 VCSH FEW018 BKN110 19/17 Q1021 NOSIG
YBBN,2010-09-24 15:00,153.1292,-27.3917,66.20,62.60,88.18,10.00,10.00,M,30.15,M,6.21,M,FEW,BKN,M,M,1800.00,11000.00,M,M,VCSH,YBBN 241500Z 01010KT 9999 VCSH FEW018 BKN110 19/17 Q1021 NOSIG
YBBN,2010-09-24 15:30,153.1292,-27.3917,66.20,62.60,88.18,320.00,6.00,M,30.15,M,6.21,M,FEW,BKN,M,M,1800.00,11000.00,M,M,M,YBBN 241530Z 32006KT 9999 FEW018 BKN110 19/17 Q1021 NOSIG
YBBN,2010-09-24 16:00,153.1292,-27.3917,66.20,62.60,88.18,250.00,6.00,M,30.15,M,6.21,M,FEW,SCT,BKN,M,1800.00,4000.00,11000.00,M,VCSH,YBBN 241600Z 25006KT 9999 VCSH FEW018 SCT040 BKN110 19/17 Q1021 NOSIG
YBBN,2010-09-24 16:30,153.1292,-27.3917,66.20,62.60,88.18,250.00,2.00,M,30.12,M,6.21,M,FEW,SCT,BKN,M,1800.00,3800.00,11000.00,M,VCSH,YBBN 241630Z 25002KT 9999 VCSH FEW018 SCT038 BKN110 19/17 Q1020 NOSIG
YBBN,2010-09-24 17:00,153.1292,-27.3917,64.40,62.60,93.88,360.00,2.00,M,30.12,M,6.21,M,FEW,BKN,M,M,1800.00,10000.00,M,M,-RA,YBBN 241700Z 36002KT 9999 -RA FEW018 BKN100 18/17 Q1020 NOSIG
YBBN,2010-09-24 17:30,153.1292,-27.3917,64.40,62.60,93.88,350.00,3.00,M,30.12,M,6.21,M,FEW,BKN,M,M,1800.00,10000.00,M,M,-RA,YBBN 241730Z 35003KT 9999 -RA FEW018 BKN100 18/17 Q1020 NOSIG
YBBN,2010-09-24 18:00,153.1292,-27.3917,64.40,62.60,93.88,360.00,8.00,M,30.12,M,6.21,M,FEW,BKN,M,M,1800.00,10000.00,M,M,-RA,YBBN 241800Z 36008KT 9999 -RA FEW018 BKN100 18/17 Q1020 NOSIG
YBBN,2010-09-24 18:30,153.1292,-27.3917,64.40,62.60,93.88,350.00,5.00,M,30.12,M,6.21,M,FEW,SCT,BKN,M,1800.00,8500.00,10000.00,M,-RA,YBBN 241830Z 35005KT 9999 -RA FEW018 SCT085 BKN100 18/17 Q1020 NOSIG
YBBN,2010-09-24 19:00,153.1292,-27.3917,64.40,62.60,93.88,360.00,6.00,M,30.12,M,6.21,M,FEW,SCT,BKN,M,1800.00,8500.00,11000.00,M,-RA,YBBN 241900Z 36006KT 9999 -RA FEW018 SCT085 BKN110 18/17 Q1020 NOSIG
YBBN,2010-09-24 19:30,153.1292,-27.3917,64.40,62.60,93.88,10.00,7.00,M,30.12,M,6.21,M,FEW,BKN,BKN,M,2000.00,9500.00,12000.00,M,-RA,YBBN 241930Z 01007KT 9999 -RA FEW020 BKN095 BKN120 18/17 Q1020 NOSIG
YBBN,2010-09-24 20:00,153.1292,-27.3917,66.20,62.60,88.18,360.00,9.00,M,30.15,M,6.21,M,FEW,BKN,BKN,M,2000.00,10000.00,12000.00,M,-RA,YBBN 242000Z 36009KT 9999 -RA FEW020 BKN100 BKN120 19/17 Q1021 NOSIG
YBBN,2010-09-24 20:30,153.1292,-27.3917,66.20,62.60,88.18,350.00,6.00,M,30.15,M,6.21,M,FEW,BKN,OVC,M,2000.00,10000.00,12000.00,M,-RA,YBBN 242030Z 35006KT 9999 -RA FEW020 BKN100 OVC120 19/17 Q1021 NOSIG
YBBN,2010-09-24 21:00,153.1292,-27.3917,66.20,62.60,88.18,250.00,5.00,M,30.15,M,6.21,M,FEW,SCT,OVC,M,1500.00,6000.00,10000.00,M,-RA,YBBN 242100Z 25005KT 9999 -RA FEW015 SCT060 OVC100 19/17 Q1021 NOSIG
YBBN,2010-09-24 21:30,153.1292,-27.3917,66.20,62.60,88.18,310.00,4.00,M,30.15,M,6.21,M,FEW,BKN,OVC,M,1500.00,5400.00,8700.00,M,-RA,YBBN 242130Z 31004KT 9999 -RA FEW015 BKN054 OVC087 19/17 Q1021 NOSIG
YBBN,2010-09-24 22:00,153.1292,-27.3917,66.20,62.60,88.18,330.00,3.00,M,30.15,M,6.21,M,FEW,SCT,OVC,M,1800.00,3300.00,9000.00,M,-RA,YBBN 242200Z 33003KT 9999 -RA FEW018 SCT033 OVC090 19/17 Q1021 NOSIG
YBBN,2010-09-24 22:30,153.1292,-27.3917,68.00,62.60,82.86,280.00,4.00,M,30.15,M,6.21,M,FEW,SCT,OVC,M,1800.00,2400.00,18000.00,M,M,YBBN 242230Z 28004KT 9999 FEW018 SCT024 OVC180 20/17 Q1021 NOSIG
YBBN,2010-09-24 23:00,153.1292,-27.3917,68.00,62.60,82.86,270.00,5.00,M,30.15,M,6.21,M,FEW,BKN,BKN,M,2000.00,2500.00,10000.00,M,M,YBBN 242300Z 27005KT 9999 FEW020 BKN025 BKN100 20/17 Q1021 NOSIG
YBBN,2010-09-24 23:30,153.1292,-27.3917,69.80,62.60,77.90,0.00,0.00,M,30.15,M,6.21,M,SCT,SCT,BKN,M,2300.00,4300.00,9000.00,M,M,YBBN 242330Z 00000KT 9999 SCT023 SCT043 BKN090 21/17 Q1021 NOSIG
