#DEBUG: Format Typ    -> comma
#DEBUG: Time Period   -> 2014-04-23 00:00:00+00:00 2014-04-24 00:00:00+00:00
#DEBUG: Time Zone     -> Etc/UTC
#DEBUG: Data Contact   -> daryl herzmann akrherz@iastate.edu 515-294-5978
#DEBUG: Entries Found -> -1
station,valid,lon,lat,tmpf, dwpf, relh, drct, sknt, p01i, alti, mslp, vsby, gust, skyc1, skyc2, skyc3, skyc4, skyl1, skyl2, skyl3, skyl4, presentwx, metar
YBBN,2014-04-23 00:00,153.1292,-27.3917,75.20,59.00,57.12,210.00,7.00,0.00,30.09,M,6.21,M,FEW,BKN,M,M,2800.00,25000.00,M,M,M,YBBN 230000Z 21007KT 9999 FEW028 BKN250 24/15 Q1019 NOSIG
YBBN,2014-04-23 00:30,153.1292,-27.3917,78.80,59.00,50.69,240.00,5.00,0.00,30.09,M,6.21,M,FEW,BKN,M,M,2800.00,25000.00,M,M,M,YBBN 230030Z 24005KT 9999 FEW028 BKN250 26/15 Q1019
YBBN,2014-04-23 01:00,153.1292,-27.3917,78.80,57.20,47.52,360.00,6.00,0.00,30.06,M,6.21,M,FEW,SCT,M,M,3000.00,25000.00,M,M,M,YBBN 230100Z 36006KT 9999 FEW030 SCT250 26/14 Q1018
YBBN,2014-04-23 01:30,153.1292,-27.3917,78.80,53.60,41.69,360.00,9.00,0.00,30.06,M,6.21,M,FEW,BKN,M,M,3600.00,25000.00,M,M,M,YBBN 230130Z 36009KT 9999 FEW036 BKN250 26/12 Q1018
YBBN,2014-04-23 02:00,153.1292,-27.3917,78.80,60.80,54.05,50.00,8.00,0.00,30.03,M,6.21,M,FEW,SCT,M,M,3800.00,25000.00,M,M,M,YBBN 230200Z 05008KT 9999 FEW038 SCT250 26/16 Q1017
YBBN,2014-04-23 02:30,153.1292,-27.3917,78.80,55.40,44.52,30.00,9.00,0.00,30.00,M,6.21,M,FEW,BKN,M,M,3800.00,25000.00,M,M,M,YBBN 230230Z 03009KT 9999 FEW038 BKN250 26/13 Q1016
YBBN,2014-04-23 03:00,153.1292,-27.3917,78.80,59.00,50.69,30.00,9.00,0.00,30.00,M,6.21,M,FEW,BKN,M,M,3800.00,25000.00,M,M,M,YBBN 230300Z 03009KT 9999 FEW038 BKN250 26/15 Q1016 NOSIG
YBBN,2014-04-23 03:30,153.1292,-27.3917,78.80,57.20,47.52,30.00,12.00,0.00,30.00,M,6.21,M,FEW,BKN,M,M,3800.00,25000.00,M,M,M,YBBN 230330Z 03012KT 9999 FEW038 BKN250 26/14 Q1016
YBBN,2014-04-23 04:00,153.1292,-27.3917,78.80,51.80,39.02,20.00,11.00,0.00,29.97,M,6.21,M,FEW,BKN,M,M,3800.00,25000.00,M,M,M,YBBN 230400Z 02011KT 9999 FEW038 BKN250 26/11 Q1015 NOSIG
YBBN,2014-04-23 04:30,153.1292,-27.3917,80.60,57.20,44.80,20.00,12.00,0.00,29.97,M,6.21,M,FEW,BKN,M,M,3800.00,25000.00,M,M,M,YBBN 230430Z 02012KT 9999 FEW038 BKN250 27/14 Q1015
YBBN,2014-04-23 05:00,153.1292,-27.3917,78.80,55.40,44.52,30.00,11.00,0.00,29.97,M,6.21,M,FEW,BKN,M,M,4000.00,25000.00,M,M,M,YBBN 230500Z 03011KT 9999 FEW040 BKN250 26/13 Q1015
YBBN,2014-04-23 05:30,153.1292,-27.3917,78.80,57.20,47.52,20.00,10.00,0.00,29.97,M,6.21,M,FEW,SCT,M,M,4000.00,25000.00,M,M,M,YBBN 230530Z 02010KT 9999 FEW040 SCT250 26/14 Q1015
YBBN,2014-04-23 06:00,153.1292,-27.3917,77.00,60.80,57.36,20.00,9.00,0.00,29.97,M,6.21,M,FEW,M,M,M,4000.00,M,M,M,M,YBBN 230600Z 02009KT 9999 FEW040 25/16 Q1015 NOSIG
YBBN,2014-04-23 06:30,153.1292,-27.3917,75.20,60.80,60.90,30.00,8.00,0.00,29.97,M,6.21,M,FEW,M,M,M,3600.00,M,M,M,M,YBBN 230630Z 03008KT 9999 FEW036 24/16 Q1015
YBBN,2014-04-23 07:00,153.1292,-27.3917,75.20,62.60,64.91,20.00,8.00,0.00,30.00,M,6.21,M,FEW,M,M,M,3200.00,M,M,M,M,YBBN 230700Z 02008KT 9999 FEW032 24/17 Q1016
YBBN,2014-04-23 07:30,153.1292,-27.3917,73.40,62.60,68.94,10.00,8.00,0.00,30.00,M,6.21,M,FEW,M,M,M,2800.00,M,M,M,M,YBBN 230730Z 01008KT 9999 FEW028 23/17 Q1016
YBBN,2014-04-23 08:00,153.1292,-27.3917,71.60,62.60,73.27,10.00,9.00,0.00,30.00,M,6.21,M,FEW,M,M,M,2800.00,M,M,M,M,YBBN 230800Z 01009KT 9999 FEW028 22/17 Q1016 NOSIG
YBBN,2014-04-23 08:30,153.1292,-27.3917,71.60,62.60,73.27,10.00,9.00,0.00,30.03,M,6.21,M,FEW,M,M,M,2800.00,M,M,M,M,YBBN 230830Z 01009KT 9999 FEW028 22/17 Q1017
YBBN,2014-04-23 09:00,153.1292,-27.3917,71.60,62.60,73.27,10.00,8.00,0.00,30.03,M,6.21,M,FEW,M,M,M,2200.00,M,M,M,M,YBBN 230900Z 01008KT 9999 FEW022 22/17 Q1017 NOSIG
YBBN,2014-04-23 09:30,153.1292,-27.3917,69.80,62.60,77.90,10.00,8.00,0.00,30.03,M,6.21,M,FEW,M,M,M,2000.00,M,M,M,M,YBBN 230930Z 01008KT 9999 FEW020 21/17 Q1017
YBBN,2014-04-23 10:00,153.1292,-27.3917,71.60,64.40,78.04,340.00,10.00,0.00,30.03,M,6.21,M,FEW,M,M,M,2200.00,M,M,M,M,YBBN 231000Z 34010KT 9999 FEW022 22/18 Q1017 NOSIG
YBBN,2014-04-23 10:30,153.1292,-27.3917,69.80,62.60,77.90,320.00,9.00,0.00,30.03,M,6.21,M,FEW,M,M,M,2200.00,M,M,M,M,YBBN 231030Z 32009KT 9999 FEW022 21/17 Q1017
YBBN,2014-04-23 11:00,153.1292,-27.3917,69.80,62.60,77.90,320.00,6.00,0.00,30.03,M,6.21,M,FEW,M,M,M,2800.00,M,M,M,M,YBBN 231100Z 32006KT 9999 FEW028 21/17 Q1017 NOSIG
YBBN,2014-04-23 11:30,153.1292,-27.3917,68.00,62.60,82.86,310.00,5.00,0.00,30.03,M,6.21,M,FEW,M,M,M,2800.00,M,M,M,M,YBBN 231130Z 31005KT 9999 FEW028 20/17 Q1017
YBBN,2014-04-23 12:00,153.1292,-27.3917,66.20,62.60,88.18,300.00,4.00,0.00,30.03,M,6.21,M,FEW,M,M,M,4200.00,M,M,M,M,YBBN 231200Z 30004KT 9999 FEW042 19/17 Q1017 NOSIG
YBBN,2014-04-23 12:30,153.1292,-27.3917,66.20,62.60,88.18,280.00,1.00,0.00,30.03,M,6.21,M,M,M,M,M,M,M,M,M,M,YBBN 231230Z 28001KT CAVOK 19/17 Q1017
YBBN,2014-04-23 13:00,153.1292,-27.3917,66.20,62.60,88.18,0.00,0.00,0.00,30.03,M,6.21,M,FEW,M,M,M,1900.00,M,M,M,M,YBBN 231300Z 00000KT 9999 FEW019 19/17 Q1017
YBBN,2014-04-23 13:30,153.1292,-27.3917,64.40,62.60,93.88,0.00,0.00,0.00,30.03,M,6.21,M,FEW,M,M,M,1800.00,M,M,M,M,YBBN 231330Z 00000KT 9999 FEW018 18/17 Q1017 RMK WET BULB DEPRESSION 0.8DEG NOSIG
YBBN,2014-04-23 13:39,153.1292,-27.3917,64.40,62.60,93.88,0.00,0.00,0.00,30.03,M,6.21,M,FEW,M,M,M,1800.00,M,M,M,MIFG,YBBN 231339Z 00000KT 9999 MIFG FEW018 18/17 Q1017 NOSIG
YBBN,2014-04-23 14:00,153.1292,-27.3917,64.40,62.60,93.88,0.00,0.00,0.00,30.03,M,6.21,M,CLR,M,M,M,M,M,M,M,MIFG,YBBN 231400Z 00000KT 9999 MIFG SKC 18/17 Q1017
YBBN,2014-04-23 14:30,153.1292,-27.3917,62.60,62.60,100.00,0.00,0.00,0.00,30.03,M,6.21,M,CLR,M,M,M,M,M,M,M,MIFG,YBBN 231430Z 00000KT 9999 MIFG SKC 17/17 Q1017
YBBN,2014-04-23 15:00,153.1292,-27.3917,62.60,60.80,93.83,0.00,0.00,0.00,30.00,M,6.21,M,CLR,M,M,M,M,M,M,M,MIFG,YBBN 231500Z 00000KT 9999 MIFG SKC 17/16 Q1016
YBBN,2014-04-23 15:30,153.1292,-27.3917,60.80,60.80,100.00,210.00,5.00,0.00,30.00,M,6.21,M,CLR,M,M,M,M,M,M,M,MIFG,YBBN 231530Z 21005KT 9999 MIFG SKC 16/16 Q1016
YBBN,2014-04-23 16:00,153.1292,-27.3917,62.60,60.80,93.83,210.00,5.00,0.00,30.00,M,6.21,M,CLR,M,M,M,M,M,M,M,MIFG,YBBN 231600Z 21005KT 9999 MIFG SKC 17/16 Q1016
YBBN,2014-04-23 16:30,153.1292,-27.3917,62.60,60.80,93.83,200.00,7.00,0.00,30.00,M,6.21,M,M,M,M,M,M,M,M,M,M,YBBN 231630Z 20007KT CAVOK 17/16 Q1016
YBBN,2014-04-23 17:00,153.1292,-27.3917,62.60,60.80,93.83,200.00,7.00,0.00,29.97,M,6.21,M,FEW,M,M,M,2600.00,M,M,M,M,YBBN 231700Z 20007KT 9999 FEW026 17/16 Q1015 NOSIG
YBBN,2014-04-23 17:30,153.1292,-27.3917,64.40,62.60,93.88,200.00,7.00,0.00,29.97,M,6.21,M,FEW,M,M,M,1800.00,M,M,M,M,YBBN 231730Z 20007KT 9999 FEW018 18/17 Q1015
YBBN,2014-04-23 18:00,153.1292,-27.3917,62.60,60.80,93.83,190.00,6.00,0.00,29.97,M,6.21,M,FEW,M,M,M,2000.00,M,M,M,M,YBBN 231800Z 19006KT 9999 FEW020 17/16 Q1015 NOSIG
YBBN,2014-04-23 18:36,153.1292,-27.3917,60.80,60.80,100.00,190.00,5.00,0.00,29.97,M,6.21,M,FEW,M,M,M,1900.00,M,M,M,MIFG,YBBN 231836Z 19005KT 9999 MIFG FEW019 16/16 Q1015 RMK WET BULB DEPRESSION 0.4DEG NOSIG
YBBN,2014-04-23 19:00,153.1292,-27.3917,60.80,59.00,93.79,200.00,7.00,0.00,30.00,M,6.21,M,FEW,M,M,M,1700.00,M,M,M,M,YBBN 231900Z 20007KT 9999 FEW017 16/15 Q1016
YBBN,2014-04-23 19:30,153.1292,-27.3917,60.80,59.00,93.79,200.00,7.00,0.00,30.00,M,6.21,M,FEW,M,M,M,2400.00,M,M,M,M,YBBN 231930Z 20007KT 9999 FEW024 16/15 Q1016 RMK WET BULB DEPRESSION 0.4DEG
YBBN,2014-04-23 20:00,153.1292,-27.3917,60.80,59.00,93.79,200.00,7.00,0.00,30.00,M,6.21,M,FEW,M,M,M,2400.00,M,M,M,M,YBBN 232000Z 20007KT 9999 FEW024 16/15 Q1016 NOSIG
YBBN,2014-04-23 20:30,153.1292,-27.3917,60.80,59.00,93.79,200.00,7.00,0.00,30.00,M,6.21,M,FEW,M,M,M,2400.00,M,M,M,M,YBBN 232030Z 20007KT 9999 FEW024 16/15 Q1016
YBBN,2014-04-23 21:00,153.1292,-27.3917,62.60,60.80,93.83,200.00,7.00,0.00,30.00,M,6.21,M,FEW,M,M,M,2500.00,M,M,M,M,YBBN 232100Z 20007KT 9999 FEW025 17/16 Q1016 NOSIG
YBBN,2014-04-23 21:30,153.1292,-27.3917,66.20,62.60,88.18,220.00,6.00,0.00,30.03,M,6.21,M,FEW,M,M,M,2500.00,M,M,M,M,YBBN 232130Z 22006KT 9999 FEW025 19/17 Q1017
YBBN,2014-04-23 22:00,153.1292,-27.3917,68.00,62.60,82.86,210.00,7.00,0.00,30.03,M,6.21,M,FEW,M,M,M,2500.00,M,M,M,M,YBBN 232200Z 21007KT 9999 FEW025 20/17 Q1017
YBBN,2014-04-23 22:30,153.1292,-27.3917,69.80,62.60,77.90,200.00,8.00,0.00,30.03,M,6.21,M,FEW,SCT,M,M,2500.00,25000.00,M,M,M,YBBN 232230Z 20008KT 9999 FEW025 SCT250 21/17 Q1017
YBBN,2014-04-23 23:00,153.1292,-27.3917,71.60,62.60,73.27,230.00,7.00,0.00,30.06,M,6.21,M,FEW,BKN,M,M,2800.00,25000.00,M,M,M,YBBN 232300Z 23007KT 9999 FEW028 BKN250 22/17 Q1018 NOSIG
YBBN,2014-04-23 23:30,153.1292,-27.3917,73.40,62.60,68.94,210.00,7.00,0.00,30.03,M,6.21,M,FEW,BKN,M,M,2800.00,25000.00,M,M,M,YBBN 232330Z 21007KT 9999 FEW028 BKN250 23/17 Q1017
