#DEBUG: Format Typ    -> comma
#DEBUG: Time Period   -> 2014-04-09 00:00:00+00:00 2014-04-10 00:00:00+00:00
#DEBUG: Time Zone     -> Etc/UTC
#DEBUG: Data Contact   -> daryl herzmann akrherz@iastate.edu 515-294-5978
#DEBUG: Entries Found -> -1
station,valid,lon,lat,tmpf, dwpf, relh, drct, sknt, p01i, alti, mslp, vsby, gust, skyc1, skyc2, skyc3, skyc4, skyl1, skyl2, skyl3, skyl4, presentwx, metar
YBBN,2014-04-09 00:00,153.1292,-27.3917,75.20,59.00,57.12,180.00,7.00,0.00,30.09,M,6.21,M,SCT,SCT,M,M,3200.00,4500.00,M,M,M,YBBN 090000Z 18007KT 9999 SCT032 SCT045 24/15 Q1019 NOSIG
YBBN,2014-04-09 00:30,153.1292,-27.3917,77.00,59.00,53.80,130.00,7.00,0.00,30.09,M,6.21,M,SCT,SCT,M,M,3200.00,5000.00,M,M,M,YBBN 090030Z 13007KT 9999 SCT032 SCT050 25/15 Q1019
YBBN,2014-04-09 01:00,153.1292,-27.3917,78.80,60.80,54.05,130.00,9.00,0.00,30.06,M,6.21,M,SCT,SCT,M,M,3500.00,5000.00,M,M,M,YBBN 090100Z 13009KT 9999 SCT035 SCT050 26/16 Q1018 NOSIG
YBBN,2014-04-09 01:30,153.1292,-27.3917,77.00,60.80,57.36,130.00,9.00,0.00,30.06,M,6.21,M,SCT,SCT,M,M,3500.00,5500.00,M,M,M,YBBN 090130Z 13009KT 9999 SCT035 SCT055 25/16 Q1018
YBBN,2014-04-09 02:00,153.1292,-27.3917,77.00,59.00,53.80,110.00,9.00,0.00,30.03,M,6.21,M,SCT,SCT,M,M,3500.00,5500.00,M,M,M,YBBN 090200Z 11009KT 9999 SCT035 SCT055 25/15 Q1017
YBBN,2014-04-09 02:30,153.1292,-27.3917,78.80,59.00,50.69,100.00,9.00,0.00,30.03,M,6.21,M,SCT,SCT,M,M,3500.00,5500.00,M,M,M,YBBN 090230Z 10009KT 9999 SCT035 SCT055 26/15 Q1017
YBBN,2014-04-09 03:00,153.1292,-27.3917,77.00,60.80,57.36,110.00,11.00,0.00,30.03,M,6.21,M,SCT,M,M,M,3500.00,M,M,M,M,YBBN 090300Z 11011KT 9999 SCT035 25/16 Q1017
YBBN,2014-04-09 03:30,153.1292,-27.3917,77.00,60.80,57.36,110.00,13.00,0.00,30.00,M,6.21,M,FEW,M,M,M,3500.00,M,M,M,M,YBBN 090330Z 11013KT 9999 FEW035 25/16 Q1016
YBBN,2014-04-09 04:00,153.1292,-27.3917,77.00,60.80,57.36,110.00,9.00,0.00,30.00,M,6.21,M,FEW,M,M,M,3500.00,M,M,M,M,YBBN 090400Z 11009KT 9999 FEW035 25/16 Q1016
YBBN,2014-04-09 04:30,153.1292,-27.3917,77.00,59.00,53.80,90.00,10.00,0.00,30.00,M,6.21,M,FEW,M,M,M,3500.00,M,M,M,M,YBBN 090430Z 09010KT 9999 FEW035 25/15 Q1016
YBBN,2014-04-09 05:00,153.1292,-27.3917,77.00,59.00,53.80,110.00,8.00,0.00,30.00,M,6.21,M,FEW,SCT,M,M,3500.00,35000.00,M,M,M,YBBN 090500Z 11008KT 9999 FEW035 SCT350 25/15 Q1016
YBBN,2014-04-09 05:30,153.1292,-27.3917,77.00,59.00,53.80,90.00,9.00,0.00,30.00,M,6.21,M,FEW,SCT,M,M,3500.00,35000.00,M,M,M,YBBN 090530Z 09009KT 9999 FEW035 SCT350 25/15 Q1016
YBBN,2014-04-09 06:00,153.1292,-27.3917,77.00,59.00,53.80,90.00,9.00,0.00,30.00,M,6.21,M,FEW,SCT,M,M,3500.00,35000.00,M,M,M,YBBN 090600Z 09009KT 9999 FEW035 SCT350 25/15 Q1016
YBBN,2014-04-09 07:00,153.1292,-27.3917,75.20,59.00,57.12,90.00,7.00,0.00,30.00,M,6.21,M,FEW,BKN,M,M,3500.00,35000.00,M,M,M,YBBN 090700Z 09007KT 9999 FEW035 BKN350 24/15 Q1016
YBBN,2014-04-09 07:30,153.1292,-27.3917,73.40,59.00,60.67,100.00,7.00,0.00,30.00,M,6.21,M,SCT,BKN,M,M,3500.00,35000.00,M,M,M,YBBN 090730Z 10007KT 9999 SCT035 BKN350 23/15 Q1016
YBBN,2014-04-09 08:00,153.1292,-27.3917,73.40,57.20,56.88,100.00,7.00,0.00,30.03,M,6.21,M,FEW,BKN,M,M,3000.00,35000.00,M,M,M,YBBN 090800Z 10007KT 9999 FEW030 BKN350 23/14 Q1017
YBBN,2014-04-09 08:30,153.1292,-27.3917,75.20,55.40,50.17,120.00,6.00,0.00,30.03,M,6.21,M,FEW,BKN,M,M,3000.00,5700.00,M,M,M,YBBN 090830Z 12006KT 9999 FEW030 BKN057 24/13 Q1017
YBBN,2014-04-09 09:00,153.1292,-27.3917,73.40,57.20,56.88,100.00,7.00,0.00,30.03,M,6.21,M,FEW,SCT,M,M,3000.00,6100.00,M,M,M,YBBN 090900Z 10007KT 9999 FEW030 SCT061 23/14 Q1017 NOSIG
YBBN,2014-04-09 09:30,153.1292,-27.3917,73.40,57.20,56.88,100.00,6.00,0.00,30.03,M,6.21,M,FEW,SCT,M,M,3000.00,6000.00,M,M,M,YBBN 090930Z 10006KT 9999 FEW030 SCT060 23/14 Q1017
YBBN,2014-04-09 10:00,153.1292,-27.3917,73.40,59.00,60.67,100.00,7.00,0.00,30.03,M,6.21,M,FEW,BKN,M,M,3000.00,5300.00,M,M,M,YBBN 091000Z 10007KT 9999 FEW030 BKN053 23/15 Q1017
YBBN,2014-04-09 10:30,153.1292,-27.3917,73.40,59.00,60.67,100.00,6.00,0.00,30.03,M,6.21,M,FEW,M,M,M,3000.00,M,M,M,M,YBBN 091030Z 10006KT 9999 FEW030 23/15 Q1017
YBBN,2014-04-09 11:00,153.1292,-27.3917,71.60,59.00,64.48,100.00,5.00,0.00,30.03,M,6.21,M,FEW,M,M,M,3000.00,M,M,M,M,YBBN 091100Z 10005KT 9999 FEW030 22/15 Q1017
YBBN,2014-04-09 11:30,153.1292,-27.3917,73.40,60.80,64.69,100.00,4.00,0.00,30.06,M,6.21,M,FEW,M,M,M,3000.00,M,M,M,M,YBBN 091130Z 10004KT 9999 FEW030 23/16 Q1018
YBBN,2014-04-09 12:00,153.1292,-27.3917,71.60,60.80,68.75,110.00,5.00,0.00,30.06,M,6.21,M,FEW,M,M,M,3000.00,M,M,M,M,YBBN 091200Z 11005KT 9999 FEW030 22/16 Q1018
YBBN,2014-04-09 12:30,153.1292,-27.3917,69.80,60.80,73.09,100.00,4.00,0.00,30.03,M,6.21,M,FEW,M,M,M,3000.00,M,M,M,M,YBBN 091230Z 10004KT 9999 FEW030 21/16 Q1017
YBBN,2014-04-09 13:00,153.1292,-27.3917,71.60,60.80,68.75,100.00,4.00,0.00,30.03,M,6.21,M,FEW,M,M,M,3000.00,M,M,M,M,YBBN 091300Z 10004KT 9999 FEW030 22/16 Q1017 NOSIG
YBBN,2014-04-09 13:30,153.1292,-27.3917,66.20,60.80,82.74,0.00,0.00,0.00,30.03,M,6.21,M,FEW,M,M,M,3000.00,M,M,M,M,YBBN 091330Z 00000KT 9999 FEW030 19/16 Q1017
YBBN,2014-04-09 14:00,153.1292,-27.3917,66.20,59.00,77.60,210.00,5.00,0.00,30.03,M,6.21,M,FEW,M,M,M,3000.00,M,M,M,M,YBBN 091400Z 21005KT 9999 FEW030 19/15 Q1017
YBBN,2014-04-09 14:30,153.1292,-27.3917,64.40,59.00,82.62,210.00,5.00,0.00,30.03,M,6.21,M,FEW,M,M,M,3000.00,M,M,M,M,YBBN 091430Z 21005KT 9999 FEW030 18/15 Q1017
YBBN,2014-04-09 15:00,153.1292,-27.3917,64.40,59.00,82.62,210.00,5.00,0.00,30.03,M,6.21,M,M,M,M,M,M,M,M,M,M,YBBN 091500Z 21005KT CAVOK 18/15 Q1017
YBBN,2014-04-09 15:30,153.1292,-27.3917,64.40,60.80,88.09,190.00,5.00,0.00,30.00,M,6.21,M,M,M,M,M,M,M,M,M,M,YBBN 091530Z 19005KT CAVOK 18/16 Q1016
YBBN,2014-04-09 16:00,153.1292,-27.3917,66.20,59.00,77.60,200.00,6.00,0.00,30.00,M,6.21,M,FEW,M,M,M,3000.00,M,M,M,M,YBBN 091600Z 20006KT 9999 FEW030 19/15 Q1016
YBBN,2014-04-09 16:30,153.1292,-27.3917,64.40,59.00,82.62,200.00,7.00,0.00,30.00,M,6.21,M,M,M,M,M,M,M,M,M,M,YBBN 091630Z 20007KT CAVOK 18/15 Q1016
YBBN,2014-04-09 17:00,153.1292,-27.3917,64.40,59.00,82.62,200.00,7.00,0.00,30.00,M,6.21,M,M,M,M,M,M,M,M,M,M,YBBN 091700Z 20007KT CAVOK 18/15 Q1016
YBBN,2014-04-09 17:30,153.1292,-27.3917,64.40,59.00,82.62,200.00,8.00,0.00,30.00,M,6.21,M,M,M,M,M,M,M,M,M,M,YBBN 091730Z 20008KT CAVOK 18/15 Q1016
YBBN,2014-04-09 18:00,153.1292,-27.3917,64.40,59.00,82.62,200.00,7.00,0.00,30.00,M,6.21,M,M,M,M,M,M,M,M,M,M,YBBN 091800Z 20007KT CAVOK 18/15 Q1016
YBBN,2014-04-09 18:30,153.1292,-27.3917,62.60,59.00,88.00,200.00,7.00,0.00,30.00,M,6.21,M,M,M,M,M,M,M,M,M,M,YBBN 091830Z 20007KT CAVOK 17/15 Q1016
YBBN,2014-04-09 19:00,153.1292,-27.3917,62.60,59.00,88.00,200.00,7.00,0.00,30.00,M,6.21,M,M,M,M,M,M,M,M,M,M,YBBN 091900Z 20007KT CAVOK 17/15 Q1016 NOSIG
YBBN,2014-04-09 19:30,153.1292,-27.3917,62.60,59.00,88.00,210.00,7.00,0.00,30.00,M,6.21,M,FEW,SCT,M,M,3000.00,4700.00,M,M,M,YBBN 091930Z 21007KT 9999 FEW030 SCT047 17/15 Q1016
YBBN,2014-04-09 20:00,153.1292,-27.3917,62.60,59.00,88.00,200.00,7.00,0.00,30.00,M,6.21,M,FEW,BKN,M,M,3000.00,30000.00,M,M,M,YBBN 092000Z 20007KT 9999 FEW030 BKN300 17/15 Q1016 NOSIG
YBBN,2014-04-09 20:30,153.1292,-27.3917,64.40,59.00,82.62,200.00,7.00,0.00,30.00,M,6.21,M,FEW,BKN,M,M,3000.00,30000.00,M,M,M,YBBN 092030Z 20007KT 9999 FEW030 BKN300 18/15 Q1016
YBBN,2014-04-09 21:00,153.1292,-27.3917,64.40,60.80,88.09,200.00,7.00,0.00,30.00,M,6.21,M,FEW,BKN,M,M,3500.00,30000.00,M,M,M,YBBN 092100Z 20007KT 9999 FEW035 BKN300 18/16 Q1016 NOSIG
YBBN,2014-04-09 21:30,153.1292,-27.3917,68.00,60.80,77.75,200.00,7.00,0.00,30.00,M,6.21,M,FEW,BKN,M,M,4000.00,30000.00,M,M,M,YBBN 092130Z 20007KT 9999 FEW040 BKN300 20/16 Q1016
YBBN,2014-04-09 22:00,153.1292,-27.3917,69.80,60.80,73.09,200.00,7.00,0.00,30.03,M,6.21,M,M,M,M,M,M,M,M,M,M,YBBN 092200Z 20007KT CAVOK 21/16 Q1017 NOSIG
YBBN,2014-04-09 22:30,153.1292,-27.3917,73.40,60.80,64.69,210.00,5.00,0.00,30.03,M,6.21,M,M,M,M,M,M,M,M,M,M,YBBN 092230Z 21005KT CAVOK 23/16 Q1017
YBBN,2014-04-09 23:00,153.1292,-27.3917,73.40,60.80,64.69,210.00,6.00,0.00,30.03,M,6.21,M,FEW,BKN,M,M,3000.00,30000.00,M,M,M,YBBN 092300Z 21006KT 9999 FEW030 BKN300 23/16 Q1017
YBBN,2014-04-09 23:30,153.1292,-27.3917,75.20,59.00,57.12,190.00,6.00,0.00,30.03,M,6.21,M,FEW,BKN,M,M,3500.00,30000.00,M,M,M,YBBN 092330Z 19006KT 9999 FEW035 BKN300 24/15 Q1017
