#DEBUG: Format Typ    -> comma
#DEBUG: Time Period   -> 2013-01-03 00:00:00+00:00 2013-01-04 00:00:00+00:00
#DEBUG: Time Zone     -> Etc/UTC
#DEBUG: Data Contact   -> daryl herzmann akrherz@iastate.edu 515-294-5978
#DEBUG: Entries Found -> -1
station,valid,lon,lat,tmpf, dwpf, relh, drct, sknt, p01i, alti, mslp, vsby, gust, skyc1, skyc2, skyc3, skyc4, skyl1, skyl2, skyl3, skyl4, presentwx, metar
YBBN,2013-01-03 00:00,153.1292,-27.3917,82.40,60.80,48.05,120.00,13.00,0.00,29.97,M,6.21,M,SCT,M,M,M,4000.00,M,M,M,M,YBBN 030000Z 12013KT 9999 SCT040 28/16 Q1015
YBBN,2013-01-03 00:30,153.1292,-27.3917,82.40,60.80,48.05,130.00,12.00,0.00,29.97,M,6.21,M,SCT,M,M,M,4200.00,M,M,M,M,YBBN 030030Z 13012KT 9999 SCT042 28/16 Q1015
YBBN,2013-01-03 01:00,153.1292,-27.3917,82.40,60.80,48.05,110.00,13.00,0.00,29.97,M,6.21,M,SCT,M,M,M,4200.00,M,M,M,M,YBBN 030100Z 11013KT 9999 SCT042 28/16 Q1015 NOSIG
YBBN,2013-01-03 01:30,153.1292,-27.3917,82.40,62.60,51.21,110.00,13.00,0.00,29.94,M,6.21,M,FEW,M,M,M,4200.00,M,M,M,M,YBBN 030130Z 11013KT 9999 FEW042 28/17 Q1014
YBBN,2013-01-03 02:00,153.1292,-27.3917,82.40,62.60,51.21,100.00,13.00,0.00,29.94,M,6.21,M,FEW,M,M,M,4400.00,M,M,M,M,YBBN 030200Z 10013KT 9999 FEW044 28/17 Q1014
YBBN,2013-01-03 02:30,153.1292,-27.3917,82.40,62.60,51.21,110.00,13.00,0.00,29.94,M,6.21,23.00,FEW,M,M,M,4500.00,M,M,M,M,YBBN 030230Z 11013G23KT 9999 FEW045 28/17 Q1014
YBBN,2013-01-03 03:00,153.1292,-27.3917,82.40,64.40,54.55,100.00,15.00,0.00,29.91,M,6.21,25.00,FEW,M,M,M,4500.00,M,M,M,M,YBBN 030300Z 10015G25KT 9999 FEW045 28/18 Q1013
YBBN,2013-01-03 03:30,153.1292,-27.3917,80.60,62.60,54.30,110.00,15.00,0.00,29.91,M,6.21,M,FEW,M,M,M,4000.00,M,M,M,M,YBBN 030330Z 11015KT 9999 FEW040 27/17 Q1013
YBBN,2013-01-03 03:58,153.1292,-27.3917,80.60,62.60,54.30,110.00,15.00,0.00,29.91,M,6.21,26.00,FEW,M,M,M,4000.00,M,M,M,M,YBBN 030358Z 11015G26KT 9999 FEW040 27/17 Q1013
YBBN,2013-01-03 04:00,153.1292,-27.3917,82.40,64.40,54.55,110.00,15.00,0.00,29.91,M,6.21,26.00,FEW,M,M,M,4000.00,M,M,M,M,YBBN 030400Z 11015G26KT 9999 FEW040 28/18 Q1013
YBBN,2013-01-03 04:30,153.1292,-27.3917,82.40,62.60,51.21,110.00,14.00,0.00,29.91,M,6.21,M,FEW,M,M,M,4000.00,M,M,M,M,YBBN 030430Z 11014KT 9999 FEW040 28/17 Q1013
YBBN,2013-01-03 05:00,153.1292,-27.3917,80.60,62.60,54.30,120.00,16.00,0.00,29.91,M,6.21,M,FEW,M,M,M,4000.00,M,M,M,M,YBBN 030500Z 12016KT 9999 FEW040 27/17 Q1013 NOSIG
YBBN,2013-01-03 05:20,153.1292,-27.3917,80.60,62.60,54.30,120.00,15.00,0.00,29.91,M,6.21,26.00,FEW,M,M,M,4000.00,M,M,M,M,YBBN 030520Z 12015G26KT 9999 FEW040 27/17 Q1013
YBBN,2013-01-03 05:30,153.1292,-27.3917,80.60,62.60,54.30,120.00,15.00,0.00,29.91,M,6.21,M,FEW,M,M,M,4000.00,M,M,M,M,YBBN 030530Z 12015KT 9999 FEW040 27/17 Q1013
YBBN,2013-01-03 06:00,153.1292,-27.3917,80.60,62.60,54.30,120.00,16.00,0.00,29.88,M,6.21,M,FEW,M,M,M,4000.00,M,M,M,M,YBBN 030600Z 12016KT 9999 FEW040 27/17 Q1012
YBBN,2013-01-03 06:30,153.1292,-27.3917,80.60,60.80,50.95,120.00,15.00,0.00,29.88,M,6.21,M,FEW,M,M,M,4000.00,M,M,M,M,YBBN 030630Z 12015KT 9999 FEW040 27/16 Q1012
YBBN,2013-01-03 06:49,153.1292,-27.3917,80.60,60.80,50.95,120.00,15.00,0.00,29.91,M,6.21,25.00,FEW,M,M,M,4000.00,M,M,M,M,YBBN 030649Z 12015G25KT 9999 FEW040 27/16 Q1013
YBBN,2013-01-03 07:00,153.1292,-27.3917,78.80,62.60,57.60,120.00,15.00,0.00,29.91,M,6.21,26.00,FEW,M,M,M,4000.00,M,M,M,M,YBBN 030700Z 12015G26KT 9999 FEW040 26/17 Q1013
YBBN,2013-01-03 07:30,153.1292,-27.3917,78.80,64.40,61.36,120.00,14.00,0.00,29.91,M,6.21,M,FEW,SCT,M,M,2200.00,3500.00,M,M,M,YBBN 030730Z 12014KT 9999 FEW022 SCT035 26/18 Q1013
YBBN,2013-01-03 07:30,153.1292,-27.3917,78.80,64.40,61.36,120.00,14.00,0.00,29.91,M,6.21,M,FEW,SCT,M,M,2200.00,3500.00,M,M,M,YBBN 030730Z 12014KT 9999 FEW022 SCT035 26/18 Q1013
YBBN,2013-01-03 08:00,153.1292,-27.3917,77.00,64.40,65.12,120.00,15.00,0.00,29.91,M,6.21,M,FEW,SCT,M,M,2200.00,3000.00,M,M,M,YBBN 030800Z 12015KT 9999 FEW022 SCT030 25/18 Q1013 NOSIG
YBBN,2013-01-03 08:00,153.1292,-27.3917,77.00,64.40,65.12,120.00,15.00,0.00,29.91,M,6.21,M,FEW,SCT,M,M,2200.00,3000.00,M,M,M,YBBN 030800Z 12015KT 9999 FEW022 SCT030 25/18 Q1013 NOSIG
YBBN,2013-01-03 08:00,153.1292,-27.3917,77.00,64.40,65.12,120.00,15.00,0.00,29.91,M,6.21,M,FEW,SCT,M,M,2200.00,3000.00,M,M,M,YBBN 030800Z 12015KT 9999 FEW022 SCT030 25/18 Q1013
YBBN,2013-01-03 08:30,153.1292,-27.3917,77.00,62.60,61.13,110.00,11.00,0.00,29.94,M,6.21,M,FEW,SCT,M,M,2200.00,3000.00,M,M,M,YBBN 030830Z 11011KT 9999 FEW022 SCT030 25/17 Q1014
YBBN,2013-01-03 08:30,153.1292,-27.3917,77.00,62.60,61.13,110.00,11.00,0.00,29.94,M,6.21,M,FEW,SCT,M,M,2200.00,3000.00,M,M,M,YBBN 030830Z 11011KT 9999 FEW022 SCT030 25/17 Q1014
YBBN,2013-01-03 09:00,153.1292,-27.3917,77.00,62.60,61.13,120.00,12.00,0.00,29.94,M,6.21,M,FEW,BKN,M,M,2000.00,5400.00,M,M,M,YBBN 030900Z 12012KT 9999 FEW020 BKN054 25/17 Q1014 NOSIG
YBBN,2013-01-03 09:00,153.1292,-27.3917,77.00,62.60,61.13,120.00,12.00,0.00,29.94,M,6.21,M,FEW,BKN,M,M,2000.00,5400.00,M,M,M,YBBN 030900Z 12012KT 9999 FEW020 BKN054 25/17 Q1014 NOSIG
YBBN,2013-01-03 09:00,153.1292,-27.3917,77.00,62.60,61.13,120.00,12.00,0.00,29.94,M,6.21,M,FEW,BKN,M,M,2000.00,5400.00,M,M,M,YBBN 030900Z 12012KT 9999 FEW020 BKN054 25/17 Q1014
YBBN,2013-01-03 09:30,153.1292,-27.3917,77.00,60.80,57.36,120.00,13.00,0.00,29.94,M,6.21,M,FEW,SCT,M,M,2500.00,5400.00,M,M,M,YBBN 030930Z 12013KT 9999 FEW025 SCT054 25/16 Q1014
YBBN,2013-01-03 09:30,153.1292,-27.3917,77.00,60.80,57.36,120.00,13.00,0.00,29.94,M,6.21,M,FEW,SCT,M,M,2500.00,5400.00,M,M,M,YBBN 030930Z 12013KT 9999 FEW025 SCT054 25/16 Q1014
YBBN,2013-01-03 10:00,153.1292,-27.3917,77.00,62.60,61.13,120.00,12.00,0.00,29.97,M,6.21,M,FEW,BKN,M,M,2500.00,5400.00,M,M,M,YBBN 031000Z 12012KT 9999 FEW025 BKN054 25/17 Q1015
YBBN,2013-01-03 10:00,153.1292,-27.3917,77.00,62.60,61.13,120.00,12.00,0.00,29.97,M,6.21,M,FEW,BKN,M,M,2500.00,5400.00,M,M,M,YBBN 031000Z 12012KT 9999 FEW025 BKN054 25/17 Q1015
YBBN,2013-01-03 10:30,153.1292,-27.3917,77.00,60.80,57.36,120.00,12.00,0.00,29.97,M,6.21,M,FEW,BKN,M,M,2500.00,5400.00,M,M,M,YBBN 031030Z 12012KT 9999 FEW025 BKN054 25/16 Q1015
YBBN,2013-01-03 10:30,153.1292,-27.3917,77.00,60.80,57.36,120.00,12.00,0.00,29.97,M,6.21,M,FEW,BKN,M,M,2500.00,5400.00,M,M,M,YBBN 031030Z 12012KT 9999 FEW025 BKN054 25/16 Q1015
YBBN,2013-01-03 11:00,153.1292,-27.3917,75.20,60.80,60.90,130.00,11.00,0.00,29.97,M,6.21,M,FEW,BKN,M,M,2500.00,5400.00,M,M,M,YBBN 031100Z 13011KT 9999 FEW025 BKN054 24/16 Q1015
YBBN,2013-01-03 11:00,153.1292,-27.3917,75.20,60.80,60.90,130.00,11.00,0.00,29.97,M,6.21,M,FEW,BKN,M,M,2500.00,5400.00,M,M,M,YBBN 031100Z 13011KT 9999 FEW025 BKN054 24/16 Q1015
YBBN,2013-01-03 11:00,153.1292,-27.3917,75.20,60.80,60.90,130.00,11.00,0.00,29.97,M,6.21,M,FEW,BKN,M,M,2500.00,5400.00,M,M,M,YBBN 031100Z 13011KT 9999 FEW025 BKN054 24/16 Q1015 NOSIG
YBBN,2013-01-03 11:30,153.1292,-27.3917,75.20,60.80,60.90,130.00,10.00,0.00,29.97,M,6.21,M,FEW,BKN,M,M,2500.00,5400.00,M,M,M,YBBN 031130Z 13010KT 9999 FEW025 BKN054 24/16 Q1015
YBBN,2013-01-03 11:30,153.1292,-27.3917,75.20,60.80,60.90,130.00,10.00,0.00,29.97,M,6.21,M,FEW,BKN,M,M,2500.00,5400.00,M,M,M,YBBN 031130Z 13010KT 9999 FEW025 BKN054 24/16 Q1015
YBBN,2013-01-03 12:00,153.1292,-27.3917,77.00,60.80,57.36,130.00,11.00,0.00,29.97,M,6.21,M,FEW,BKN,M,M,3000.00,5400.00,M,M,M,YBBN 031200Z 13011KT 9999 FEW030 BKN054 25/16 Q1015 NOSIG
YBBN,2013-01-03 12:00,153.1292,-27.3917,77.00,60.80,57.36,130.00,11.00,0.00,29.97,M,6.21,M,FEW,BKN,M,M,3000.00,5400.00,M,M,M,YBBN 031200Z 13011KT 9999 FEW030 BKN054 25/16 Q1015
YBBN,2013-01-03 12:00,153.1292,-27.3917,77.00,60.80,57.36,130.00,11.00,0.00,29.97,M,6.21,M,FEW,BKN,M,M,3000.00,5400.00,M,M,M,YBBN 031200Z 13011KT 9999 FEW030 BKN054 25/16 Q1015
YBBN,2013-01-03 12:30,153.1292,-27.3917,77.00,60.80,57.36,110.00,10.00,0.00,29.97,M,6.21,M,SCT,SCT,BKN,M,3000.00,4000.00,5400.00,M,M,YBBN 031230Z 11010KT 9999 SCT030 SCT040 BKN054 25/16 Q1015
YBBN,2013-01-03 12:30,153.1292,-27.3917,77.00,60.80,57.36,110.00,10.00,0.00,29.97,M,6.21,M,SCT,SCT,BKN,M,3000.00,4000.00,5400.00,M,M,YBBN 031230Z 11010KT 9999 SCT030 SCT040 BKN054 25/16 Q1015
YBBN,2013-01-03 13:00,153.1292,-27.3917,77.00,60.80,57.36,120.00,10.00,0.00,29.97,M,6.21,M,FEW,BKN,M,M,3000.00,4000.00,M,M,M,YBBN 031300Z 12010KT 9999 FEW030 BKN040 25/16 Q1015
YBBN,2013-01-03 13:00,153.1292,-27.3917,77.00,60.80,57.36,120.00,10.00,0.00,29.97,M,6.21,M,FEW,BKN,M,M,3000.00,4000.00,M,M,M,YBBN 031300Z 12010KT 9999 FEW030 BKN040 25/16 Q1015 NOSIG
YBBN,2013-01-03 13:30,153.1292,-27.3917,75.20,59.00,57.12,120.00,10.00,0.00,29.97,M,6.21,M,FEW,BKN,M,M,3000.00,4200.00,M,M,M,YBBN 031330Z 12010KT 9999 FEW030 BKN042 24/15 Q1015
YBBN,2013-01-03 13:30,153.1292,-27.3917,75.20,59.00,57.12,120.00,10.00,0.00,29.97,M,6.21,M,FEW,BKN,M,M,3000.00,4200.00,M,M,M,YBBN 031330Z 12010KT 9999 FEW030 BKN042 24/15 Q1015
YBBN,2013-01-03 14:00,153.1292,-27.3917,75.20,60.80,60.90,130.00,9.00,0.00,29.97,M,6.21,M,FEW,BKN,M,M,3000.00,5000.00,M,M,M,YBBN 031400Z 13009KT 9999 FEW030 BKN050 24/16 Q1015
YBBN,2013-01-03 14:30,153.1292,-27.3917,75.20,60.80,60.90,120.00,8.00,0.00,29.97,M,6.21,M,FEW,SCT,BKN,M,3000.00,4100.00,5000.00,M,M,YBBN 031430Z 12008KT 9999 FEW030 SCT041 BKN050 24/16 Q1015
YBBN,2013-01-03 15:00,153.1292,-27.3917,75.20,60.80,60.90,140.00,7.00,0.00,29.94,M,6.21,M,FEW,OVC,M,M,3000.00,4800.00,M,M,M,YBBN 031500Z 14007KT 9999 FEW030 OVC048 24/16 Q1014 NOSIG
YBBN,2013-01-03 15:30,153.1292,-27.3917,75.20,60.80,60.90,120.00,6.00,0.00,29.94,M,6.21,M,FEW,BKN,M,M,3000.00,5000.00,M,M,M,YBBN 031530Z 12006KT 9999 FEW030 BKN050 24/16 Q1014
YBBN,2013-01-03 16:00,153.1292,-27.3917,75.20,60.80,60.90,150.00,8.00,0.00,29.94,M,6.21,M,FEW,OVC,M,M,3000.00,4800.00,M,M,M,YBBN 031600Z 15008KT 9999 FEW030 OVC048 24/16 Q1014 NOSIG
YBBN,2013-01-03 16:30,153.1292,-27.3917,75.20,60.80,60.90,150.00,7.00,0.00,29.94,M,6.21,M,FEW,OVC,M,M,3000.00,5000.00,M,M,M,YBBN 031630Z 15007KT 9999 FEW030 OVC050 24/16 Q1014
YBBN,2013-01-03 17:00,153.1292,-27.3917,73.40,60.80,64.69,150.00,7.00,0.00,29.94,M,6.21,M,FEW,BKN,M,M,3000.00,5200.00,M,M,M,YBBN 031700Z 15007KT 9999 FEW030 BKN052 23/16 Q1014
YBBN,2013-01-03 17:30,153.1292,-27.3917,73.40,60.80,64.69,180.00,6.00,0.00,29.94,M,6.21,M,FEW,SCT,M,M,3000.00,5200.00,M,M,M,YBBN 031730Z 18006KT 9999 FEW030 SCT052 23/16 Q1014
YBBN,2013-01-03 18:00,153.1292,-27.3917,71.60,60.80,68.75,180.00,6.00,0.00,29.94,M,6.21,M,FEW,M,M,M,3000.00,M,M,M,M,YBBN 031800Z 18006KT 9999 FEW030 22/16 Q1014 NOSIG
YBBN,2013-01-03 18:30,153.1292,-27.3917,71.60,60.80,68.75,190.00,7.00,0.00,29.94,M,6.21,M,FEW,M,M,M,3000.00,M,M,M,M,YBBN 031830Z 19007KT 9999 FEW030 22/16 Q1014
YBBN,2013-01-03 19:00,153.1292,-27.3917,71.60,59.00,64.48,180.00,7.00,0.00,29.94,M,6.21,M,FEW,M,M,M,3000.00,M,M,M,M,YBBN 031900Z 18007KT 9999 FEW030 22/15 Q1014
YBBN,2013-01-03 19:30,153.1292,-27.3917,71.60,59.00,64.48,190.00,7.00,0.00,29.97,M,6.21,M,FEW,M,M,M,3000.00,M,M,M,M,YBBN 031930Z 19007KT 9999 FEW030 22/15 Q1015
YBBN,2013-01-03 20:00,153.1292,-27.3917,73.40,59.00,60.67,190.00,7.00,0.00,29.97,M,6.21,M,FEW,M,M,M,3000.00,M,M,M,M,YBBN 032000Z 19007KT 9999 FEW030 23/15 Q1015 NOSIG
YBBN,2013-01-03 20:30,153.1292,-27.3917,73.40,59.00,60.67,190.00,9.00,0.00,29.97,M,6.21,M,FEW,M,M,M,3000.00,M,M,M,M,YBBN 032030Z 19009KT 9999 FEW030 23/15 Q1015
YBBN,2013-01-03 21:00,153.1292,-27.3917,75.20,59.00,57.12,180.00,8.00,0.00,29.97,M,6.21,M,FEW,M,M,M,3000.00,M,M,M,M,YBBN 032100Z 18008KT 9999 FEW030 24/15 Q1015
YBBN,2013-01-03 21:30,153.1292,-27.3917,77.00,59.00,53.80,180.00,7.00,0.00,30.00,M,6.21,M,FEW,M,M,M,4500.00,M,M,M,M,YBBN 032130Z 18007KT 9999 FEW045 25/15 Q1016
YBBN,2013-01-03 22:00,153.1292,-27.3917,77.00,59.00,53.80,140.00,7.00,0.00,30.00,M,6.21,M,FEW,SCT,M,M,3000.00,4500.00,M,M,M,YBBN 032200Z 14007KT 9999 FEW030 SCT045 25/15 Q1016
YBBN,2013-01-03 22:30,153.1292,-27.3917,78.80,59.00,50.69,130.00,10.00,0.00,30.00,M,6.21,M,FEW,SCT,M,M,3000.00,4500.00,M,M,M,YBBN 032230Z 13010KT 9999 FEW030 SCT045 26/15 Q1016
YBBN,2013-01-03 23:00,153.1292,-27.3917,80.60,60.80,50.95,140.00,9.00,0.00,30.00,M,6.21,M,SCT,M,M,M,3500.00,M,M,M,M,YBBN 032300Z 14009KT 9999 SCT035 27/16 Q1016 NOSIG
YBBN,2013-01-03 23:30,153.1292,-27.3917,80.60,60.80,50.95,110.00,12.00,0.00,30.00,M,6.21,M,SCT,M,M,M,3500.00,M,M,M,M,YBBN 032330Z 11012KT 9999 SCT035 27/16 Q1016
