#DEBUG: Format Typ    -> comma
#DEBUG: Time Period   -> 2012-12-17 00:00:00+00:00 2012-12-18 00:00:00+00:00
#DEBUG: Time Zone     -> Etc/UTC
#DEBUG: Data Contact   -> daryl herzmann akrherz@iastate.edu 515-294-5978
#DEBUG: Entries Found -> -1
station,valid,lon,lat,tmpf, dwpf, relh, drct, sknt, p01i, alti, mslp, vsby, gust, skyc1, skyc2, skyc3, skyc4, skyl1, skyl2, skyl3, skyl4, presentwx, metar
YBBN,2012-12-17 00:00,153.1292,-27.3917,84.20,68.00,58.32,20.00,14.00,0.00,29.77,M,6.21,M,M,M,M,M,M,M,M,M,M,YBBN 170000Z 02014KT CAVOK 29/20 Q1008
YBBN,2012-12-17 00:30,153.1292,-27.3917,84.20,66.20,54.80,10.00,15.00,0.00,29.74,M,6.21,M,M,M,M,M,M,M,M,M,M,YBBN 170030Z 01015KT CAVOK 29/19 Q1007
YBBN,2012-12-17 01:00,153.1292,-27.3917,84.20,69.80,62.03,10.00,16.00,0.00,29.74,M,6.21,M,M,M,M,M,M,M,M,M,M,YBBN 170100Z 01016KT CAVOK 29/21 Q1007 NOSIG
YBBN,2012-12-17 01:30,153.1292,-27.3917,84.20,69.80,62.03,20.00,16.00,0.00,29.71,M,6.21,M,M,M,M,M,M,M,M,M,M,YBBN 170130Z 02016KT CAVOK 29/21 Q1006
YBBN,2012-12-17 02:00,153.1292,-27.3917,84.20,69.80,62.03,30.00,18.00,0.00,29.71,M,6.21,M,M,M,M,M,M,M,M,M,M,YBBN 170200Z 03018KT CAVOK 29/21 Q1006
YBBN,2012-12-17 02:30,153.1292,-27.3917,86.00,69.80,58.55,20.00,17.00,0.00,29.68,M,6.21,M,M,M,M,M,M,M,M,M,M,YBBN 170230Z 02017KT CAVOK 30/21 Q1005
YBBN,2012-12-17 03:00,153.1292,-27.3917,87.80,69.80,55.29,20.00,17.00,0.00,29.68,M,6.21,M,M,M,M,M,M,M,M,M,M,YBBN 170300Z 02017KT CAVOK 31/21 Q1005 NOSIG
YBBN,2012-12-17 03:30,153.1292,-27.3917,84.20,71.60,65.95,20.00,17.00,0.00,29.68,M,6.21,M,M,M,M,M,M,M,M,M,M,YBBN 170330Z 02017KT CAVOK 29/22 Q1005
YBBN,2012-12-17 04:00,153.1292,-27.3917,84.20,69.80,62.03,10.00,17.00,0.00,29.68,M,6.21,M,M,M,M,M,M,M,M,M,M,YBBN 170400Z 01017KT CAVOK 29/21 Q1005
YBBN,2012-12-17 04:30,153.1292,-27.3917,84.20,71.60,65.95,10.00,15.00,0.00,29.65,M,6.21,M,M,M,M,M,M,M,M,M,M,YBBN 170430Z 01015KT CAVOK 29/22 Q1004
YBBN,2012-12-17 05:00,153.1292,-27.3917,84.20,71.60,65.95,10.00,16.00,0.00,29.65,M,6.21,M,M,M,M,M,M,M,M,M,M,YBBN 170500Z 01016KT CAVOK 29/22 Q1004
YBBN,2012-12-17 05:30,153.1292,-27.3917,84.20,69.80,62.03,10.00,16.00,0.00,29.65,M,6.21,M,M,M,M,M,M,M,M,M,M,YBBN 170530Z 01016KT CAVOK 29/21 Q1004
YBBN,2012-12-17 06:00,153.1292,-27.3917,84.20,71.60,65.95,10.00,15.00,0.00,29.65,M,6.21,M,M,M,M,M,M,M,M,M,M,YBBN 170600Z 01015KT CAVOK 29/22 Q1004
YBBN,2012-12-17 06:30,153.1292,-27.3917,82.40,71.60,69.90,20.00,14.00,0.00,29.65,M,6.21,M,M,M,M,M,M,M,M,M,M,YBBN 170630Z 02014KT CAVOK 28/22 Q1004
YBBN,2012-12-17 07:00,153.1292,-27.3917,80.60,71.60,74.11,30.00,13.00,0.00,29.65,M,6.21,M,M,M,M,M,M,M,M,M,M,YBBN 170700Z 03013KT CAVOK 27/22 Q1004 NOSIG
YBBN,2012-12-17 07:30,153.1292,-27.3917,80.60,73.40,78.76,30.00,13.00,0.00,29.68,M,6.21,M,M,M,M,M,M,M,M,M,M,YBBN 170730Z 03013KT CAVOK 27/23 Q1005
YBBN,2012-12-17 08:00,153.1292,-27.3917,78.80,73.40,83.55,30.00,12.00,0.00,29.68,M,6.21,M,M,M,M,M,M,M,M,M,M,YBBN 170800Z 03012KT CAVOK 26/23 Q1005
YBBN,2012-12-17 08:30,153.1292,-27.3917,78.80,71.60,78.62,30.00,9.00,0.00,29.71,M,6.21,M,M,M,M,M,M,M,M,M,M,YBBN 170830Z 03009KT CAVOK 26/22 Q1006
YBBN,2012-12-17 09:00,153.1292,-27.3917,80.60,69.80,69.71,10.00,12.00,0.00,29.68,M,6.21,M,M,M,M,M,M,M,M,M,M,YBBN 170900Z 01012KT CAVOK 27/21 Q1005
YBBN,2012-12-17 09:30,153.1292,-27.3917,80.60,71.60,74.11,20.00,12.00,0.00,29.71,M,6.21,M,M,M,M,M,M,M,M,M,M,YBBN 170930Z 02012KT CAVOK 27/22 Q1006
YBBN,2012-12-17 10:00,153.1292,-27.3917,78.80,71.60,78.62,70.00,7.00,0.00,29.74,M,6.21,M,M,M,M,M,M,M,M,M,M,YBBN 171000Z 07007KT CAVOK 26/22 Q1007 NOSIG
YBBN,2012-12-17 10:30,153.1292,-27.3917,78.80,73.40,83.55,90.00,6.00,0.00,29.77,M,6.21,M,M,M,M,M,M,M,M,M,M,YBBN 171030Z 09006KT CAVOK 26/23 Q1008
YBBN,2012-12-17 11:00,153.1292,-27.3917,78.80,73.40,83.55,90.00,6.00,0.00,29.77,M,6.21,M,M,M,M,M,M,M,M,M,M,YBBN 171100Z 09006KT CAVOK 26/23 Q1008
YBBN,2012-12-17 11:30,153.1292,-27.3917,78.80,73.40,83.55,80.00,7.00,0.00,29.77,M,6.21,M,FEW,SCT,M,M,2100.00,26000.00,M,M,M,YBBN 171130Z 08007KT 9999 FEW021 SCT260 26/23 Q1008
YBBN,2012-12-17 12:00,153.1292,-27.3917,78.80,73.40,83.55,70.00,7.00,0.00,29.80,M,6.21,M,BKN,OVC,M,M,1800.00,2300.00,M,M,//,YBBN 171200Z AUTO 07007KT 9999 // BKN018 OVC023 26/23 Q1009
YBBN,2012-12-17 12:30,153.1292,-27.3917,78.80,73.40,83.55,40.00,9.00,0.00,29.80,M,6.21,M,FEW,BKN,M,M,1300.00,1600.00,M,M,M,YBBN 171230Z 04009KT 9999 FEW013 BKN016 26/23 Q1009
YBBN,2012-12-17 12:41,153.1292,-27.3917,78.80,73.40,83.55,50.00,9.00,0.00,29.80,M,6.21,M,BKN,M,M,M,1400.00,M,M,M,M,YBBN 171241Z 05009KT 9999 BKN014 26/23 Q1009
YBBN,2012-12-17 13:00,153.1292,-27.3917,78.80,73.40,83.55,40.00,9.00,0.00,29.80,M,6.21,M,BKN,M,M,M,1400.00,M,M,M,M,YBBN 171300Z 04009KT 9999 BKN014 26/23 Q1009
YBBN,2012-12-17 13:30,153.1292,-27.3917,78.80,73.40,83.55,50.00,10.00,0.00,29.80,M,6.21,M,BKN,BKN,M,M,1200.00,1900.00,M,M,M,YBBN 171330Z 05010KT 9999 BKN012 BKN019 26/23 Q1009
YBBN,2012-12-17 13:59,153.1292,-27.3917,78.80,73.40,83.55,50.00,11.00,0.00,29.77,M,6.21,M,SCT,BKN,M,M,1200.00,2600.00,M,M,M,YBBN 171359Z 05011KT 9999 SCT012 BKN026 26/23 Q1008
YBBN,2012-12-17 14:30,153.1292,-27.3917,78.80,73.40,83.55,40.00,12.00,0.00,29.77,M,6.21,M,SCT,BKN,M,M,1400.00,2800.00,M,M,M,YBBN 171430Z 04012KT 9999 SCT014 BKN028 26/23 Q1008
YBBN,2012-12-17 15:00,153.1292,-27.3917,78.80,73.40,83.55,30.00,12.00,0.00,29.77,M,6.21,M,BKN,BKN,M,M,1500.00,2900.00,M,M,M,YBBN 171500Z 03012KT 9999 BKN015 BKN029 26/23 Q1008
YBBN,2012-12-17 15:30,153.1292,-27.3917,77.00,73.40,88.67,30.00,11.00,0.00,29.77,M,6.21,M,FEW,BKN,M,M,1000.00,3000.00,M,M,M,YBBN 171530Z 03011KT 9999 FEW010 BKN030 25/23 Q1008
YBBN,2012-12-17 16:00,153.1292,-27.3917,77.00,73.40,88.67,40.00,8.00,0.00,29.77,M,6.21,M,FEW,BKN,M,M,1000.00,2900.00,M,M,M,YBBN 171600Z 04008KT 9999 FEW010 BKN029 25/23 Q1008 NOSIG
YBBN,2012-12-17 16:30,153.1292,-27.3917,77.00,73.40,88.67,50.00,10.00,0.00,29.77,M,6.21,M,SCT,BKN,M,M,1000.00,2800.00,M,M,M,YBBN 171630Z 05010KT 9999 SCT010 BKN028 25/23 Q1008
YBBN,2012-12-17 17:00,153.1292,-27.3917,77.00,73.40,88.67,50.00,11.00,0.00,29.74,M,6.21,M,FEW,SCT,BKN,M,1000.00,1700.00,2800.00,M,M,YBBN 171700Z 05011KT 9999 FEW010 SCT017 BKN028 25/23 Q1007
YBBN,2012-12-17 17:30,153.1292,-27.3917,77.00,73.40,88.67,30.00,10.00,0.00,29.74,M,6.21,M,SCT,BKN,M,M,1000.00,2300.00,M,M,//,YBBN 171730Z AUTO 03010KT 9999 // SCT010 BKN023 25/23 Q1007
YBBN,2012-12-17 17:36,153.1292,-27.3917,77.00,73.40,88.67,40.00,10.00,0.00,29.74,M,6.21,M,BKN,BKN,M,M,1000.00,2300.00,M,M,//,YBBN 171736Z AUTO 04010KT 9999 // BKN010 BKN023 25/23 Q1007
YBBN,2012-12-17 18:00,153.1292,-27.3917,77.00,73.40,88.67,40.00,9.00,0.00,29.74,M,6.21,M,SCT,BKN,M,M,1000.00,2700.00,M,M,M,YBBN 171800Z 04009KT 9999 SCT010 BKN027 25/23 Q1007
YBBN,2012-12-17 18:30,153.1292,-27.3917,77.00,73.40,88.67,40.00,10.00,0.00,29.77,M,6.21,M,FEW,M,M,M,1000.00,M,M,M,M,YBBN 171830Z 04010KT 9999 FEW010 25/23 Q1008
YBBN,2012-12-17 19:00,153.1292,-27.3917,77.00,71.60,83.44,40.00,8.00,0.00,29.77,M,6.21,M,SCT,M,M,M,1500.00,M,M,M,M,YBBN 171900Z 04008KT 9999 SCT015 25/22 Q1008 NOSIG
YBBN,2012-12-17 19:13,153.1292,-27.3917,77.00,73.40,88.67,40.00,8.00,0.00,29.77,M,6.21,M,FEW,BKN,M,M,1200.00,1500.00,M,M,M,YBBN 171913Z 04008KT 9999 FEW012 BKN015 25/23 Q1008
YBBN,2012-12-17 19:25,153.1292,-27.3917,77.00,73.40,88.67,40.00,7.00,0.00,29.80,M,6.21,M,OVC,M,M,M,1300.00,M,M,M,//,YBBN 171925Z AUTO 04007KT 9999 // OVC013 25/23 Q1009
YBBN,2012-12-17 19:30,153.1292,-27.3917,77.00,73.40,88.67,40.00,7.00,0.00,29.80,M,6.21,M,FEW,M,M,M,1000.00,M,M,M,M,YBBN 171930Z 04007KT 9999 FEW010 25/23 Q1009
YBBN,2012-12-17 19:31,153.1292,-27.3917,77.00,73.40,88.67,40.00,7.00,0.00,29.80,M,6.21,M,FEW,BKN,M,M,1000.00,1300.00,M,M,M,YBBN 171931Z 04007KT 9999 FEW010 BKN013 25/23 Q1009
YBBN,2012-12-17 20:00,153.1292,-27.3917,78.80,73.40,83.55,50.00,5.00,0.00,29.80,M,6.21,M,FEW,BKN,M,M,1000.00,1400.00,M,M,M,YBBN 172000Z 05005KT 9999 FEW010 BKN014 26/23 Q1009
YBBN,2012-12-17 20:23,153.1292,-27.3917,78.80,73.40,83.55,40.00,6.00,0.00,29.80,M,6.21,M,FEW,SCT,BKN,M,1000.00,1400.00,2100.00,M,M,YBBN 172023Z 04006KT 9999 FEW010 SCT014 BKN021 26/23 Q1009
YBBN,2012-12-17 20:30,153.1292,-27.3917,78.80,73.40,83.55,40.00,7.00,0.00,29.80,M,6.21,M,FEW,SCT,BKN,M,1000.00,1400.00,2100.00,M,M,YBBN 172030Z 04007KT 9999 FEW010 SCT014 BKN021 26/23 Q1009
YBBN,2012-12-17 21:00,153.1292,-27.3917,78.80,73.40,83.55,20.00,10.00,0.00,29.80,M,6.21,M,FEW,SCT,BKN,M,1000.00,1400.00,2000.00,M,M,YBBN 172100Z 02010KT 9999 FEW010 SCT014 BKN020 26/23 Q1009 NOSIG
YBBN,2012-12-17 21:30,153.1292,-27.3917,80.60,73.40,78.76,30.00,10.00,0.00,29.80,M,6.21,M,FEW,SCT,BKN,M,1000.00,1300.00,1900.00,M,M,YBBN 172130Z 03010KT 9999 FEW010 SCT013 BKN019 27/23 Q1009
YBBN,2012-12-17 22:00,153.1292,-27.3917,80.60,73.40,78.76,10.00,10.00,0.00,29.83,M,6.21,M,FEW,SCT,BKN,M,1000.00,1300.00,1900.00,M,M,YBBN 172200Z 01010KT 9999 FEW010 SCT013 BKN019 27/23 Q1010
YBBN,2012-12-17 22:30,153.1292,-27.3917,80.60,71.60,74.11,360.00,7.00,0.00,29.83,M,6.21,M,FEW,SCT,BKN,M,1000.00,1300.00,2000.00,M,M,YBBN 172230Z 36007KT 9999 FEW010 SCT013 BKN020 27/22 Q1010
YBBN,2012-12-17 23:00,153.1292,-27.3917,82.40,71.60,69.90,40.00,7.00,0.00,29.83,M,6.21,M,FEW,SCT,M,M,1300.00,2100.00,M,M,M,YBBN 172300Z 04007KT 9999 FEW013 SCT021 28/22 Q1010
YBBN,2012-12-17 23:30,153.1292,-27.3917,84.20,73.40,70.08,40.00,9.00,0.00,29.83,M,6.21,M,FEW,SCT,M,M,1500.00,2100.00,M,M,M,YBBN 172330Z 04009KT 9999 FEW015 SCT021 29/23 Q1010
