#DEBUG: Format Typ    -> comma
#DEBUG: Time Period   -> 2015-11-16 00:00:00+00:00 2015-11-17 00:00:00+00:00
#DEBUG: Time Zone     -> Etc/UTC
#DEBUG: Data Contact   -> daryl herzmann akrherz@iastate.edu 515-294-5978
#DEBUG: Entries Found -> -1
station,valid,lon,lat,tmpf, dwpf, relh, drct, sknt, p01i, alti, mslp, vsby, gust, skyc1, skyc2, skyc3, skyc4, skyl1, skyl2, skyl3, skyl4, presentwx, metar
YBBN,2015-11-16 00:00,153.1292,-27.3917,75.20,59.00,57.12,110.00,9.00,0.00,30.00,M,6.21,M,FEW,M,M,M,3700.00,M,M,M,M,YBBN 160000Z 11009KT 9999 FEW037 24/15 Q1016
YBBN,2015-11-16 00:30,153.1292,-27.3917,75.20,59.00,57.12,100.00,9.00,0.00,29.97,M,6.21,M,FEW,BKN,M,M,3800.00,25000.00,M,M,M,YBBN 160030Z 10009KT 9999 FEW038 BKN250 24/15 Q1015
YBBN,2015-11-16 01:00,153.1292,-27.3917,75.20,57.20,53.55,100.00,11.00,0.00,29.97,M,6.21,M,FEW,BKN,M,M,3600.00,25000.00,M,M,M,YBBN 160100Z 10011KT 9999 FEW036 BKN250 24/14 Q1015
YBBN,2015-11-16 01:30,153.1292,-27.3917,77.00,57.20,50.43,100.00,10.00,0.00,29.97,M,6.21,M,FEW,BKN,M,M,3600.00,25000.00,M,M,M,YBBN 160130Z 10010KT 9999 FEW036 BKN250 25/14 Q1015
YBBN,2015-11-16 02:00,153.1292,-27.3917,77.00,57.20,50.43,90.00,11.00,0.00,29.97,M,6.21,M,FEW,BKN,M,M,3600.00,25000.00,M,M,M,YBBN 160200Z 09011KT 9999 FEW036 BKN250 25/14 Q1015
YBBN,2015-11-16 02:30,153.1292,-27.3917,77.00,59.00,53.80,90.00,11.00,0.00,29.94,M,6.21,M,FEW,BKN,M,M,4000.00,25000.00,M,M,M,YBBN 160230Z 09011KT 9999 FEW040 BKN250 25/15 Q1014
YBBN,2015-11-16 03:00,153.1292,-27.3917,75.20,57.20,53.55,90.00,11.00,0.00,29.94,M,6.21,M,FEW,BKN,M,M,4000.00,25000.00,M,M,M,YBBN 160300Z 09011KT 9999 FEW040 BKN250 24/14 Q1014
YBBN,2015-11-16 03:30,153.1292,-27.3917,75.20,57.20,53.55,100.00,11.00,0.00,29.94,M,6.21,M,FEW,BKN,M,M,4000.00,25000.00,M,M,M,YBBN 160330Z 10011KT 9999 FEW040 BKN250 24/14 Q1014
YBBN,2015-11-16 04:00,153.1292,-27.3917,75.20,59.00,57.12,100.00,10.00,0.00,29.94,M,6.21,M,FEW,BKN,M,M,4000.00,25000.00,M,M,M,YBBN 160400Z 10010KT 9999 FEW040 BKN250 24/15 Q1014 NOSIG
YBBN,2015-11-16 04:30,153.1292,-27.3917,75.20,59.00,57.12,90.00,8.00,0.00,29.94,M,6.21,M,FEW,BKN,M,M,3800.00,25000.00,M,M,M,YBBN 160430Z 09008KT 9999 FEW038 BKN250 24/15 Q1014
YBBN,2015-11-16 05:00,153.1292,-27.3917,75.20,60.80,60.90,110.00,11.00,0.00,29.94,M,6.21,M,FEW,BKN,M,M,2500.00,25000.00,M,M,M,YBBN 160500Z 11011KT 9999 FEW025 BKN250 24/16 Q1014 NOSIG
YBBN,2015-11-16 05:30,153.1292,-27.3917,73.40,62.60,68.94,110.00,13.00,0.00,29.91,M,6.21,M,FEW,SCT,BKN,M,2000.00,6000.00,25000.00,M,VCSH,YBBN 160530Z 11013KT 9999 VCSH FEW020 SCT060 BKN250 23/17 Q1013 RMK SH TO SW
YBBN,2015-11-16 06:00,153.1292,-27.3917,73.40,62.60,68.94,110.00,13.00,0.00,29.91,M,6.21,M,SCT,SCT,BKN,M,2000.00,6000.00,22000.00,M,VCSH,YBBN 160600Z 11013KT 9999 VCSH SCT020 SCT060 BKN220 23/17 Q1013
YBBN,2015-11-16 06:30,153.1292,-27.3917,73.40,60.80,64.69,110.00,13.00,0.00,29.91,M,6.21,M,FEW,SCT,BKN,M,1000.00,2500.00,22000.00,M,M,YBBN 160630Z 11013KT 9999 FEW010 SCT025 BKN220 23/16 Q1013 RMK SH TO W
YBBN,2015-11-16 07:00,153.1292,-27.3917,71.60,60.80,68.75,110.00,11.00,0.00,29.94,M,6.21,M,FEW,SCT,BKN,M,1800.00,2500.00,23000.00,M,VCSH,YBBN 160700Z 11011KT 9999 VCSH FEW018 SCT025 BKN230 22/16 Q1014 NOSIG
YBBN,2015-11-16 07:30,153.1292,-27.3917,71.60,62.60,73.27,140.00,12.00,0.00,29.94,M,6.21,M,FEW,SCT,BKN,FEW,1600.00,2900.00,23000.00,2200.00,SHRA,YBBN 160730Z 14012KT 9999 SHRA FEW016 SCT029 BKN230 FEW022TCU 22/17 Q1014
YBBN,2015-11-16 08:00,153.1292,-27.3917,69.80,62.60,77.90,130.00,13.00,0.00,29.97,M,6.21,M,FEW,SCT,BKN,M,700.00,2300.00,3500.00,M,VCSH,YBBN 160800Z 13013KT 9999 VCSH FEW007 SCT023TCU BKN035 21/17 Q1015
YBBN,2015-11-16 08:30,153.1292,-27.3917,69.80,60.80,73.09,110.00,13.00,0.00,30.00,M,6.21,M,FEW,SCT,M,M,1500.00,2200.00,M,M,M,YBBN 160830Z 11013KT 9999 FEW015 SCT022 21/16 Q1016
YBBN,2015-11-16 09:00,153.1292,-27.3917,69.80,60.80,73.09,110.00,10.00,0.00,30.00,M,6.21,M,FEW,M,M,M,2000.00,M,M,M,M,YBBN 160900Z 11010KT 9999 FEW020 21/16 Q1016
YBBN,2015-11-16 09:30,153.1292,-27.3917,69.80,60.80,73.09,110.00,9.00,0.00,30.03,M,6.21,M,FEW,M,M,M,2000.00,M,M,M,M,YBBN 160930Z 11009KT 9999 FEW020 21/16 Q1017
YBBN,2015-11-16 10:00,153.1292,-27.3917,69.80,60.80,73.09,120.00,9.00,0.00,30.03,M,6.21,M,FEW,M,M,M,2200.00,M,M,M,M,YBBN 161000Z 12009KT 9999 FEW022 21/16 Q1017
YBBN,2015-11-16 10:30,153.1292,-27.3917,69.80,59.00,68.55,120.00,7.00,0.00,30.03,M,6.21,M,FEW,M,M,M,2300.00,M,M,M,M,YBBN 161030Z 12007KT 9999 FEW023 21/15 Q1017
YBBN,2015-11-16 11:00,153.1292,-27.3917,68.00,60.80,77.75,120.00,8.00,0.00,30.03,M,6.21,M,BKN,BKN,M,M,2500.00,7000.00,M,M,-SHRA,YBBN 161100Z 12008KT 9999 -SHRA BKN025 BKN070 20/16 Q1017
YBBN,2015-11-16 11:30,153.1292,-27.3917,66.20,62.60,88.18,160.00,5.00,0.00,30.03,M,6.21,M,SCT,M,M,M,2500.00,M,M,M,M,YBBN 161130Z 16005KT 9999 SCT025 19/17 Q1017
YBBN,2015-11-16 12:00,153.1292,-27.3917,64.40,60.80,88.09,200.00,5.00,0.00,30.06,M,6.21,M,FEW,M,M,M,2600.00,M,M,M,M,YBBN 161200Z 20005KT 9999 FEW026 18/16 Q1018
YBBN,2015-11-16 12:30,153.1292,-27.3917,66.20,60.80,82.74,190.00,5.00,0.00,30.06,M,6.21,M,FEW,M,M,M,2600.00,M,M,M,M,YBBN 161230Z 19005KT 9999 FEW026 19/16 Q1018
YBBN,2015-11-16 13:00,153.1292,-27.3917,64.40,60.80,88.09,200.00,7.00,0.00,30.06,M,6.21,M,FEW,M,M,M,2600.00,M,M,M,M,YBBN 161300Z 20007KT 9999 FEW026 18/16 Q1018
YBBN,2015-11-16 13:30,153.1292,-27.3917,64.40,60.80,88.09,190.00,6.00,0.00,30.06,M,6.21,M,FEW,M,M,M,3000.00,M,M,M,M,YBBN 161330Z 19006KT 9999 FEW030 18/16 Q1018
YBBN,2015-11-16 14:00,153.1292,-27.3917,64.40,59.00,82.62,190.00,5.00,0.00,30.03,M,6.21,M,FEW,M,M,M,3000.00,M,M,M,M,YBBN 161400Z 19005KT 9999 FEW030 18/15 Q1017 NOSIG
YBBN,2015-11-16 14:30,153.1292,-27.3917,64.40,59.00,82.62,190.00,6.00,0.00,30.03,M,6.21,M,FEW,M,M,M,3000.00,M,M,M,M,YBBN 161430Z 19006KT 9999 FEW030 18/15 Q1017
YBBN,2015-11-16 15:00,153.1292,-27.3917,66.20,59.00,77.60,190.00,5.00,0.00,30.00,M,6.21,M,FEW,M,M,M,3000.00,M,M,M,VCSH,YBBN 161500Z 19005KT 9999 VCSH FEW030 19/15 Q1016 NOSIG
YBBN,2015-11-16 15:30,153.1292,-27.3917,66.20,59.00,77.60,190.00,5.00,0.00,30.00,M,6.21,M,FEW,M,M,M,3000.00,M,M,M,VCSH,YBBN 161530Z 19005KT 9999 VCSH FEW030 19/15 Q1016
YBBN,2015-11-16 16:00,153.1292,-27.3917,64.40,57.20,77.45,190.00,6.00,0.00,30.00,M,6.21,M,FEW,M,M,M,3000.00,M,M,M,M,YBBN 161600Z 19006KT 9999 FEW030 18/14 Q1016 NOSIG
YBBN,2015-11-16 16:30,153.1292,-27.3917,64.40,57.20,77.45,190.00,5.00,0.00,30.00,M,6.21,M,M,M,M,M,M,M,M,M,M,YBBN 161630Z 19005KT CAVOK 18/14 Q1016
YBBN,2015-11-16 17:00,153.1292,-27.3917,62.60,57.20,82.50,170.00,4.00,0.00,29.97,M,6.21,M,FEW,M,M,M,3000.00,M,M,M,M,YBBN 161700Z 17004KT 9999 FEW030 17/14 Q1015 NOSIG
YBBN,2015-11-16 17:30,153.1292,-27.3917,62.60,57.20,82.50,200.00,6.00,0.00,30.00,M,6.21,M,FEW,M,M,M,3000.00,M,M,M,M,YBBN 161730Z 20006KT 9999 FEW030 17/14 Q1016
YBBN,2015-11-16 18:00,153.1292,-27.3917,62.60,57.20,82.50,190.00,5.00,0.00,30.00,M,6.21,M,FEW,M,M,M,3000.00,M,M,M,M,YBBN 161800Z 19005KT 9999 FEW030 17/14 Q1016
YBBN,2015-11-16 18:30,153.1292,-27.3917,62.60,59.00,88.00,190.00,4.00,0.00,30.00,M,6.21,M,FEW,M,M,M,3000.00,M,M,M,M,YBBN 161830Z 19004KT 9999 FEW030 17/15 Q1016
YBBN,2015-11-16 19:00,153.1292,-27.3917,62.60,59.00,88.00,200.00,6.00,0.00,30.03,M,6.21,M,FEW,SCT,M,M,1700.00,2500.00,M,M,M,YBBN 161900Z 20006KT 9999 FEW017 SCT025 17/15 Q1017 NOSIG
YBBN,2015-11-16 19:30,153.1292,-27.3917,62.60,59.00,88.00,210.00,7.00,0.00,30.03,M,6.21,M,FEW,M,M,M,2500.00,M,M,M,M,YBBN 161930Z 21007KT 9999 FEW025 17/15 Q1017
YBBN,2015-11-16 20:00,153.1292,-27.3917,64.40,59.00,82.62,200.00,7.00,0.00,30.06,M,6.21,M,FEW,M,M,M,2700.00,M,M,M,M,YBBN 162000Z 20007KT 9999 FEW027 18/15 Q1018
YBBN,2015-11-16 20:30,153.1292,-27.3917,66.20,59.00,77.60,210.00,9.00,0.00,30.06,M,6.21,M,FEW,M,M,M,2800.00,M,M,M,M,YBBN 162030Z 21009KT 9999 FEW028 19/15 Q1018
YBBN,2015-11-16 21:00,153.1292,-27.3917,69.80,59.00,68.55,190.00,7.00,0.00,30.06,M,6.21,M,FEW,M,M,M,2800.00,M,M,M,M,YBBN 162100Z 19007KT 9999 FEW028 21/15 Q1018 NOSIG
YBBN,2015-11-16 21:30,153.1292,-27.3917,71.60,59.00,64.48,160.00,7.00,0.00,30.09,M,6.21,M,FEW,M,M,M,3000.00,M,M,M,M,YBBN 162130Z 16007KT 9999 FEW030 22/15 Q1019
YBBN,2015-11-16 22:00,153.1292,-27.3917,73.40,59.00,60.67,150.00,7.00,0.00,30.09,M,6.21,M,SCT,M,M,M,3000.00,M,M,M,M,YBBN 162200Z 15007KT 9999 SCT030 23/15 Q1019 NOSIG
YBBN,2015-11-16 22:30,153.1292,-27.3917,73.40,59.00,60.67,120.00,9.00,0.00,30.09,M,6.21,M,BKN,M,M,M,3000.00,M,M,M,M,YBBN 162230Z 12009KT 9999 BKN030 23/15 Q1019
YBBN,2015-11-16 23:00,153.1292,-27.3917,73.40,59.00,60.67,120.00,10.00,0.00,30.09,M,6.21,M,BKN,M,M,M,3000.00,M,M,M,M,YBBN 162300Z 12010KT 9999 BKN030 23/15 Q1019
YBBN,2015-11-16 23:30,153.1292,-27.3917,75.20,57.20,53.55,120.00,11.00,0.00,30.09,M,6.21,M,SCT,M,M,M,3000.00,M,M,M,M,YBBN 162330Z 12011KT 9999 SCT030 24/14 Q1019
