#DEBUG: Format Typ    -> comma
#DEBUG: Time Period   -> 2011-05-12 00:00:00+00:00 2011-05-13 00:00:00+00:00
#DEBUG: Time Zone     -> Etc/UTC
#DEBUG: Data Contact   -> daryl herzmann akrherz@iastate.edu 515-294-5978
#DEBUG: Entries Found -> -1
station,valid,lon,lat,tmpf, dwpf, relh, drct, sknt, p01i, alti, mslp, vsby, gust, skyc1, skyc2, skyc3, skyc4, skyl1, skyl2, skyl3, skyl4, presentwx, metar
YBBN,2011-05-12 00:00,153.1292,-27.3917,64.40,35.60,34.22,250.00,18.00,M,29.94,M,6.21,M,FEW,M,M,M,4500.00,M,M,M,M,YBBN 120000Z 25018KT 9999 FEW045 18/02 Q1014 NOSIG
YBBN,2011-05-12 00:30,153.1292,-27.3917,64.40,35.60,34.22,240.00,18.00,M,29.94,M,6.21,M,FEW,M,M,M,4500.00,M,M,M,M,YBBN 120030Z 24018KT 9999 FEW045 18/02 Q1014 NOSIG
YBBN,2011-05-12 01:00,153.1292,-27.3917,66.20,37.40,34.51,240.00,19.00,M,29.94,M,6.21,M,FEW,M,M,M,4500.00,M,M,M,M,YBBN 120100Z 24019KT 9999 FEW045 19/03 Q1014 NOSIG
YBBN,2011-05-12 01:30,153.1292,-27.3917,66.20,37.40,34.51,250.00,20.00,M,29.91,M,6.21,M,FEW,M,M,M,4500.00,M,M,M,M,YBBN 120130Z 25020KT 9999 FEW045 19/03 Q1013 NOSIG
YBBN,2011-05-12 02:00,153.1292,-27.3917,66.20,37.40,34.51,260.00,18.00,M,29.88,M,6.21,M,FEW,M,M,M,4500.00,M,M,M,M,YBBN 120200Z 26018KT 9999 FEW045 19/03 Q1012 NOSIG
YBBN,2011-05-12 02:17,153.1292,-27.3917,66.20,37.40,34.51,260.00,18.00,M,29.88,M,6.21,28.00,FEW,M,M,M,4500.00,M,M,M,M,YBBN 120217Z 26018G28KT 9999 FEW045 19/03 Q1012 NOSIG
YBBN,2011-05-12 02:30,153.1292,-27.3917,66.20,35.60,32.14,260.00,20.00,M,29.88,M,6.21,M,FEW,M,M,M,4500.00,M,M,M,M,YBBN 120230Z 26020KT 9999 FEW045 19/02 Q1012 NOSIG
YBBN,2011-05-12 03:00,153.1292,-27.3917,68.00,37.40,32.43,250.00,17.00,M,29.85,M,6.21,M,FEW,M,M,M,4500.00,M,M,M,M,YBBN 120300Z 25017KT 9999 FEW045 20/03 Q1011 NOSIG
YBBN,2011-05-12 03:30,153.1292,-27.3917,68.00,37.40,32.43,260.00,18.00,M,29.85,M,6.21,M,FEW,M,M,M,4500.00,M,M,M,M,YBBN 120330Z 26018KT 9999 FEW045 20/03 Q1011 NOSIG
YBBN,2011-05-12 04:00,153.1292,-27.3917,68.00,37.40,32.43,260.00,15.00,M,29.83,M,6.21,M,FEW,M,M,M,4500.00,M,M,M,M,YBBN 120400Z 26015KT 9999 FEW045 20/03 Q1010 NOSIG
YBBN,2011-05-12 04:30,153.1292,-27.3917,69.80,37.40,30.49,250.00,19.00,M,29.83,M,6.21,M,FEW,M,M,M,4500.00,M,M,M,M,YBBN 120430Z 25019KT 9999 FEW045 21/03 Q1010 NOSIG
YBBN,2011-05-12 05:00,153.1292,-27.3917,69.80,37.40,30.49,260.00,20.00,M,29.83,M,6.21,M,FEW,M,M,M,4500.00,M,M,M,M,YBBN 120500Z 26020KT 9999 FEW045 21/03 Q1010 NOSIG
YBBN,2011-05-12 05:10,153.1292,-27.3917,69.80,39.20,32.72,250.00,15.00,M,29.83,M,6.21,25.00,FEW,M,M,M,4500.00,M,M,M,M,YBBN 120510Z 25015G25KT 9999 FEW045 21/04 Q1010 NOSIG
YBBN,2011-05-12 05:30,153.1292,-27.3917,69.80,39.20,32.72,260.00,15.00,M,29.83,M,6.21,M,FEW,M,M,M,4500.00,M,M,M,M,YBBN 120530Z 26015KT 9999 FEW045 21/04 Q1010 NOSIG
YBBN,2011-05-12 06:00,153.1292,-27.3917,68.00,39.20,34.80,250.00,19.00,M,29.83,M,6.21,M,FEW,M,M,M,4000.00,M,M,M,M,YBBN 120600Z 25019KT 9999 FEW040 20/04 Q1010 NOSIG
YBBN,2011-05-12 06:30,153.1292,-27.3917,66.20,39.20,37.03,250.00,14.00,M,29.85,M,6.21,M,FEW,M,M,M,4500.00,M,M,M,M,YBBN 120630Z 25014KT 9999 FEW045 19/04 Q1011 NOSIG
YBBN,2011-05-12 07:00,153.1292,-27.3917,64.40,39.20,39.43,260.00,8.00,M,29.85,M,6.21,M,FEW,M,M,M,4500.00,M,M,M,M,YBBN 120700Z 26008KT 9999 FEW045 18/04 Q1011 NOSIG
YBBN,2011-05-12 07:30,153.1292,-27.3917,62.60,41.00,45.04,260.00,9.00,M,29.88,M,6.21,M,FEW,M,M,M,4500.00,M,M,M,M,YBBN 120730Z 26009KT 9999 FEW045 17/05 Q1012 NOSIG
YBBN,2011-05-12 08:00,153.1292,-27.3917,62.60,41.00,45.04,290.00,5.00,M,29.88,M,6.21,M,FEW,M,M,M,4500.00,M,M,M,M,YBBN 120800Z 29005KT 9999 FEW045 17/05 Q1012 NOSIG
YBBN,2011-05-12 08:30,153.1292,-27.3917,62.60,41.00,45.04,280.00,8.00,M,29.91,M,6.21,M,FEW,M,M,M,4500.00,M,M,M,M,YBBN 120830Z 28008KT 9999 FEW045 17/05 Q1013 NOSIG
YBBN,2011-05-12 09:00,153.1292,-27.3917,60.80,41.00,48.00,260.00,7.00,M,29.91,M,6.21,M,FEW,M,M,M,4500.00,M,M,M,M,YBBN 120900Z 26007KT 9999 FEW045 16/05 Q1013 NOSIG
YBBN,2011-05-12 09:30,153.1292,-27.3917,60.80,41.00,48.00,270.00,6.00,M,29.91,M,6.21,M,M,M,M,M,M,M,M,M,M,YBBN 120930Z 27006KT CAVOK 16/05 Q1013 NOSIG
YBBN,2011-05-12 10:00,153.1292,-27.3917,59.00,41.00,51.18,260.00,10.00,M,29.91,M,6.21,M,M,M,M,M,M,M,M,M,M,YBBN 121000Z 26010KT CAVOK 15/05 Q1013 NOSIG
YBBN,2011-05-12 10:30,153.1292,-27.3917,59.00,41.00,51.18,250.00,9.00,M,29.94,M,6.21,M,M,M,M,M,M,M,M,M,M,YBBN 121030Z 25009KT CAVOK 15/05 Q1014 NOSIG
YBBN,2011-05-12 11:00,153.1292,-27.3917,57.20,41.00,54.60,230.00,7.00,M,29.94,M,6.21,M,M,M,M,M,M,M,M,M,M,YBBN 121100Z 23007KT CAVOK 14/05 Q1014 NOSIG
YBBN,2011-05-12 11:30,153.1292,-27.3917,57.20,42.80,58.52,210.00,4.00,M,29.94,M,6.21,M,M,M,M,M,M,M,M,M,M,YBBN 121130Z 21004KT CAVOK 14/06 Q1014 NOSIG
YBBN,2011-05-12 12:00,153.1292,-27.3917,57.20,41.00,54.60,250.00,5.00,M,29.94,M,6.21,M,M,M,M,M,M,M,M,M,M,YBBN 121200Z 25005KT CAVOK 14/05 Q1014 NOSIG
YBBN,2011-05-12 12:30,153.1292,-27.3917,57.20,41.00,54.60,160.00,4.00,M,29.94,M,6.21,M,M,M,M,M,M,M,M,M,M,YBBN 121230Z 16004KT CAVOK 14/05 Q1014 NOSIG
YBBN,2011-05-12 13:00,153.1292,-27.3917,53.60,42.80,66.70,0.00,0.00,M,29.94,M,6.21,M,M,M,M,M,M,M,M,M,M,YBBN 121300Z 00000KT CAVOK 12/06 Q1014 NOSIG
YBBN,2011-05-12 14:00,153.1292,-27.3917,53.60,41.00,62.23,250.00,3.00,M,29.94,M,6.21,M,M,M,M,M,M,M,M,M,M,YBBN 121400Z 25003KT CAVOK 12/05 Q1014 NOSIG
YBBN,2011-05-12 14:30,153.1292,-27.3917,53.60,41.00,62.23,210.00,6.00,M,29.94,M,6.21,M,M,M,M,M,M,M,M,M,M,YBBN 121430Z 21006KT CAVOK 12/05 Q1014 NOSIG
YBBN,2011-05-12 15:00,153.1292,-27.3917,53.60,41.00,62.23,240.00,1.00,M,29.91,M,6.21,M,M,M,M,M,M,M,M,M,M,YBBN 121500Z 24001KT CAVOK 12/05 Q1013 NOSIG
YBBN,2011-05-12 15:30,153.1292,-27.3917,51.80,41.00,66.48,230.00,1.00,M,29.91,M,6.21,M,M,M,M,M,M,M,M,M,M,YBBN 121530Z 23001KT CAVOK 11/05 Q1013 NOSIG
YBBN,2011-05-12 16:00,153.1292,-27.3917,51.80,41.00,66.48,250.00,4.00,M,29.91,M,6.21,M,M,M,M,M,M,M,M,M,M,YBBN 121600Z 25004KT CAVOK 11/05 Q1013 NOSIG
YBBN,2011-05-12 16:30,153.1292,-27.3917,50.00,41.00,71.07,230.00,4.00,M,29.91,M,6.21,M,M,M,M,M,M,M,M,M,M,YBBN 121630Z 23004KT CAVOK 10/05 Q1013 NOSIG
YBBN,2011-05-12 17:00,153.1292,-27.3917,50.00,42.80,76.18,220.00,6.00,M,29.91,M,6.21,M,M,M,M,M,M,M,M,M,M,YBBN 121700Z 22006KT CAVOK 10/06 Q1013 NOSIG
YBBN,2011-05-12 17:30,153.1292,-27.3917,48.20,42.80,81.47,220.00,7.00,M,29.91,M,6.21,M,M,M,M,M,M,M,M,M,M,YBBN 121730Z 22007KT CAVOK 09/06 Q1013 NOSIG
YBBN,2011-05-12 18:00,153.1292,-27.3917,46.40,42.80,87.19,250.00,7.00,M,29.91,M,6.21,M,M,M,M,M,M,M,M,M,M,YBBN 121800Z 25007KT CAVOK 08/06 Q1013 NOSIG
YBBN,2011-05-12 18:30,153.1292,-27.3917,46.40,41.00,81.34,260.00,7.00,M,29.91,M,6.21,M,M,M,M,M,M,M,M,M,M,YBBN 121830Z 26007KT CAVOK 08/05 Q1013 NOSIG
YBBN,2011-05-12 19:00,153.1292,-27.3917,46.40,42.80,87.19,260.00,8.00,M,29.91,M,6.21,M,M,M,M,M,M,M,M,M,M,YBBN 121900Z 26008KT CAVOK 08/06 Q1013 NOSIG
YBBN,2011-05-12 19:30,153.1292,-27.3917,46.40,42.80,87.19,240.00,5.00,M,29.94,M,6.21,M,M,M,M,M,M,M,M,M,M,YBBN 121930Z 24005KT CAVOK 08/06 Q1014 NOSIG
YBBN,2011-05-12 20:00,153.1292,-27.3917,46.40,41.00,81.34,230.00,7.00,M,29.94,M,6.21,M,FEW,M,M,M,3500.00,M,M,M,M,YBBN 122000Z 23007KT 9999 FEW035 08/05 Q1014 NOSIG
YBBN,2011-05-12 20:30,153.1292,-27.3917,46.40,41.00,81.34,220.00,6.00,M,29.97,M,6.21,M,FEW,M,M,M,3500.00,M,M,M,M,YBBN 122030Z 22006KT 9999 FEW035 08/05 Q1015 NOSIG
YBBN,2011-05-12 21:00,153.1292,-27.3917,48.20,42.80,81.47,210.00,1.00,M,29.97,M,6.21,M,FEW,M,M,M,3000.00,M,M,M,M,YBBN 122100Z 21001KT 9999 FEW030 09/06 Q1015 NOSIG
YBBN,2011-05-12 21:30,153.1292,-27.3917,53.60,42.80,66.70,240.00,5.00,M,30.00,M,6.21,M,FEW,M,M,M,3000.00,M,M,M,M,YBBN 122130Z 24005KT 9999 FEW030 12/06 Q1016 NOSIG
YBBN,2011-05-12 22:00,153.1292,-27.3917,55.40,42.80,62.46,230.00,7.00,M,30.00,M,6.21,M,FEW,M,M,M,3000.00,M,M,M,M,YBBN 122200Z 23007KT 9999 FEW030 13/06 Q1016 NOSIG
YBBN,2011-05-12 22:30,153.1292,-27.3917,59.00,41.00,51.18,240.00,10.00,M,30.00,M,6.21,M,FEW,M,M,M,3000.00,M,M,M,M,YBBN 122230Z 24010KT 9999 FEW030 15/05 Q1016 NOSIG
YBBN,2011-05-12 23:00,153.1292,-27.3917,60.80,39.20,44.76,240.00,8.00,M,30.00,M,6.21,M,M,M,M,M,M,M,M,M,M,YBBN 122300Z 24008KT CAVOK 16/04 Q1016 NOSIG
YBBN,2011-05-12 23:30,153.1292,-27.3917,62.60,39.20,42.00,220.00,7.00,M,30.00,M,6.21,M,M,M,M,M,M,M,M,M,M,YBBN 122330Z 22007KT CAVOK 17/04 Q1016 NOSIG
