#DEBUG: Format Typ    -> comma
#DEBUG: Time Period   -> 2016-03-25 00:00:00+00:00 2016-03-26 00:00:00+00:00
#DEBUG: Time Zone     -> Etc/UTC
#DEBUG: Data Contact   -> daryl herzmann akrherz@iastate.edu 515-294-5978
#DEBUG: Entries Found -> -1
station,valid,lon,lat,tmpf, dwpf, relh, drct, sknt, p01i, alti, mslp, vsby, gust, skyc1, skyc2, skyc3, skyc4, skyl1, skyl2, skyl3, skyl4, presentwx, metar
YBBN,2016-03-25 01:00,153.1292,-27.3917,80.60,59.00,47.79,100.00,6.00,0.00,30.09,M,6.21,M,SCT,M,M,M,3900.00,M,M,M,M,YBBN 250100Z 10006KT 050V170 9999 SCT039 27/15 Q1019
YBBN,2016-03-25 02:00,153.1292,-27.3917,80.60,59.00,47.79,60.00,8.00,0.00,30.06,M,6.21,M,FEW,M,M,M,4000.00,M,M,M,M,YBBN 250200Z 06008KT 9999 FEW040 27/15 Q1018
YBBN,2016-03-25 02:30,153.1292,-27.3917,80.60,60.80,50.95,20.00,11.00,0.00,30.06,M,6.21,M,FEW,M,M,M,4000.00,M,M,M,M,YBBN 250230Z 02011KT 9999 FEW040 27/16 Q1018 NOSIG
YBBN,2016-03-25 03:00,153.1292,-27.3917,82.40,59.00,45.07,30.00,10.00,0.00,30.03,M,6.21,M,FEW,M,M,M,4000.00,M,M,M,M,YBBN 250300Z 03010KT 9999 FEW040 28/15 Q1017 NOSIG
YBBN,2016-03-25 03:30,153.1292,-27.3917,80.60,60.80,50.95,30.00,10.00,0.00,30.03,M,6.21,M,FEW,M,M,M,3800.00,M,M,M,M,YBBN 250330Z 03010KT 9999 FEW038 27/16 Q1017 NOSIG
YBBN,2016-03-25 04:00,153.1292,-27.3917,80.60,60.80,50.95,50.00,10.00,0.00,30.00,M,6.21,M,FEW,M,M,M,3800.00,M,M,M,M,YBBN 250400Z 05010KT 9999 FEW038 27/16 Q1016 NOSIG
YBBN,2016-03-25 04:30,153.1292,-27.3917,82.40,62.60,51.21,40.00,11.00,0.00,30.00,M,6.21,M,FEW,M,M,M,4000.00,M,M,M,M,YBBN 250430Z 04011KT 9999 FEW040 28/17 Q1016 NOSIG
YBBN,2016-03-25 05:00,153.1292,-27.3917,80.60,60.80,50.95,50.00,10.00,0.00,30.00,M,6.21,M,FEW,M,M,M,4000.00,M,M,M,M,YBBN 250500Z 05010KT 9999 FEW040 27/16 Q1016
YBBN,2016-03-25 05:30,153.1292,-27.3917,80.60,62.60,54.30,60.00,10.00,0.00,30.00,M,6.21,M,FEW,M,M,M,4000.00,M,M,M,M,YBBN 250530Z 06010KT 9999 FEW040 27/17 Q1016 NOSIG
YBBN,2016-03-25 06:00,153.1292,-27.3917,80.60,62.60,54.30,60.00,10.00,0.00,30.00,M,6.21,M,FEW,M,M,M,4000.00,M,M,M,M,YBBN 250600Z 06010KT 9999 FEW040 27/17 Q1016 NOSIG
YBBN,2016-03-25 06:30,153.1292,-27.3917,78.80,60.80,54.05,40.00,11.00,0.00,30.00,M,6.21,M,FEW,M,M,M,4000.00,M,M,M,M,YBBN 250630Z 04011KT 9999 FEW040 26/16 Q1016 NOSIG
YBBN,2016-03-25 07:00,153.1292,-27.3917,77.00,60.80,57.36,50.00,10.00,0.00,30.00,M,6.21,M,M,M,M,M,M,M,M,M,M,YBBN 250700Z 05010KT CAVOK 25/16 Q1016 NOSIG
YBBN,2016-03-25 07:30,153.1292,-27.3917,77.00,60.80,57.36,50.00,9.00,0.00,30.00,M,6.21,M,M,M,M,M,M,M,M,M,M,YBBN 250730Z 05009KT CAVOK 25/16 Q1016 NOSIG
YBBN,2016-03-25 08:00,153.1292,-27.3917,75.20,60.80,60.90,50.00,6.00,0.00,30.00,M,6.21,M,M,M,M,M,M,M,M,M,M,YBBN 250800Z 05006KT CAVOK 24/16 Q1016
YBBN,2016-03-25 08:30,153.1292,-27.3917,75.20,60.80,60.90,50.00,6.00,0.00,30.00,M,6.21,M,M,M,M,M,M,M,M,M,M,YBBN 250830Z 05006KT CAVOK 24/16 Q1016 NOSIG
YBBN,2016-03-25 09:00,153.1292,-27.3917,73.40,62.60,68.94,40.00,6.00,0.00,30.03,M,6.21,M,M,M,M,M,M,M,M,M,M,YBBN 250900Z 04006KT CAVOK 23/17 Q1017 NOSIG
YBBN,2016-03-25 09:30,153.1292,-27.3917,71.60,62.60,73.27,40.00,6.00,0.00,30.03,M,6.21,M,M,M,M,M,M,M,M,M,M,YBBN 250930Z 04006KT CAVOK 22/17 Q1017 NOSIG
YBBN,2016-03-25 10:00,153.1292,-27.3917,71.60,62.60,73.27,40.00,6.00,0.00,30.03,M,6.21,M,M,M,M,M,M,M,M,M,M,YBBN 251000Z 04006KT CAVOK 22/17 Q1017 NOSIG
YBBN,2016-03-25 10:30,153.1292,-27.3917,71.60,62.60,73.27,30.00,8.00,0.00,30.03,M,6.21,M,M,M,M,M,M,M,M,M,M,YBBN 251030Z 03008KT CAVOK 22/17 Q1017 NOSIG
YBBN,2016-03-25 11:00,153.1292,-27.3917,71.60,62.60,73.27,30.00,7.00,0.00,30.03,M,6.21,M,M,M,M,M,M,M,M,M,M,YBBN 251100Z 03007KT CAVOK 22/17 Q1017 NOSIG
YBBN,2016-03-25 11:30,153.1292,-27.3917,71.60,62.60,73.27,40.00,5.00,0.00,30.03,M,6.21,M,M,M,M,M,M,M,M,M,M,YBBN 251130Z 04005KT CAVOK 22/17 Q1017 NOSIG
YBBN,2016-03-25 12:00,153.1292,-27.3917,71.60,62.60,73.27,20.00,4.00,0.00,30.03,M,6.21,M,M,M,M,M,M,M,M,M,M,YBBN 251200Z 02004KT CAVOK 22/17 Q1017 NOSIG
YBBN,2016-03-25 12:30,153.1292,-27.3917,71.60,62.60,73.27,40.00,4.00,0.00,30.03,M,6.21,M,M,M,M,M,M,M,M,M,M,YBBN 251230Z 04004KT CAVOK 22/17 Q1017 NOSIG
YBBN,2016-03-25 13:00,153.1292,-27.3917,69.80,62.60,77.90,30.00,5.00,0.00,30.03,M,6.21,M,M,M,M,M,M,M,M,M,M,YBBN 251300Z 03005KT CAVOK 21/17 Q1017 NOSIG
YBBN,2016-03-25 13:30,153.1292,-27.3917,69.80,64.40,82.98,270.00,4.00,0.00,30.03,M,6.21,M,M,M,M,M,M,M,M,M,M,YBBN 251330Z 27004KT CAVOK 21/18 Q1017 NOSIG
YBBN,2016-03-25 14:00,153.1292,-27.3917,69.80,64.40,82.98,0.00,0.00,0.00,30.03,M,6.21,M,M,M,M,M,M,M,M,M,M,YBBN 251400Z 00000KT CAVOK 21/18 Q1017
YBBN,2016-03-25 14:30,153.1292,-27.3917,69.80,62.60,77.90,240.00,4.00,0.00,30.03,M,6.21,M,M,M,M,M,M,M,M,M,M,YBBN 251430Z 24004KT CAVOK 21/17 Q1017 NOSIG
YBBN,2016-03-25 15:00,153.1292,-27.3917,69.80,62.60,77.90,260.00,4.00,0.00,30.00,M,6.21,M,M,M,M,M,M,M,M,M,M,YBBN 251500Z 26004KT CAVOK 21/17 Q1016
YBBN,2016-03-25 15:30,153.1292,-27.3917,69.80,62.60,77.90,0.00,0.00,0.00,30.00,M,6.21,M,M,M,M,M,M,M,M,M,M,YBBN 251530Z 00000KT CAVOK 21/17 Q1016 NOSIG
YBBN,2016-03-25 16:00,153.1292,-27.3917,69.80,62.60,77.90,0.00,0.00,0.00,30.00,M,6.21,M,M,M,M,M,M,M,M,M,M,YBBN 251600Z 00000KT CAVOK 21/17 Q1016
YBBN,2016-03-25 16:30,153.1292,-27.3917,68.00,62.60,82.86,200.00,4.00,0.00,30.00,M,6.21,M,M,M,M,M,M,M,M,M,M,YBBN 251630Z 20004KT CAVOK 20/17 Q1016 NOSIG
YBBN,2016-03-25 17:00,153.1292,-27.3917,66.20,62.60,88.18,200.00,1.00,0.00,30.00,M,6.21,M,M,M,M,M,M,M,M,M,M,YBBN 251700Z 20001KT CAVOK 19/17 Q1016
YBBN,2016-03-25 17:30,153.1292,-27.3917,68.00,64.40,88.26,0.00,0.00,0.00,30.00,M,6.21,M,M,M,M,M,M,M,M,M,M,YBBN 251730Z 00000KT CAVOK 20/18 Q1016 NOSIG
YBBN,2016-03-25 18:00,153.1292,-27.3917,66.20,64.40,93.92,0.00,0.00,0.00,29.97,M,6.21,M,M,M,M,M,M,M,M,M,M,YBBN 251800Z 00000KT CAVOK 19/18 Q1015
YBBN,2016-03-25 18:30,153.1292,-27.3917,66.20,62.60,88.18,210.00,6.00,0.00,30.00,M,6.21,M,M,M,M,M,M,M,M,M,M,YBBN 251830Z 21006KT CAVOK 19/17 Q1016 NOSIG
YBBN,2016-03-25 19:00,153.1292,-27.3917,66.20,62.60,88.18,200.00,5.00,0.00,30.00,M,6.21,M,M,M,M,M,M,M,M,M,M,YBBN 251900Z 20005KT CAVOK 19/17 Q1016
YBBN,2016-03-25 19:30,153.1292,-27.3917,66.20,62.60,88.18,210.00,6.00,0.00,30.00,M,6.21,M,FEW,SCT,M,M,3500.00,30000.00,M,M,M,YBBN 251930Z 21006KT 9999 FEW035 SCT300 19/17 Q1016 NOSIG
YBBN,2016-03-25 20:00,153.1292,-27.3917,66.20,62.60,88.18,210.00,5.00,0.00,30.03,M,6.21,M,FEW,SCT,M,M,3500.00,30000.00,M,M,M,YBBN 252000Z 21005KT 9999 FEW035 SCT300 19/17 Q1017
YBBN,2016-03-25 20:30,153.1292,-27.3917,68.00,60.80,77.75,200.00,7.00,0.00,30.03,M,6.21,M,FEW,BKN,M,M,3500.00,32000.00,M,M,M,YBBN 252030Z 20007KT 9999 FEW035 BKN320 20/16 Q1017 NOSIG
YBBN,2016-03-25 21:00,153.1292,-27.3917,68.00,62.60,82.86,200.00,5.00,0.00,30.03,M,6.21,M,FEW,M,M,M,3000.00,M,M,M,M,YBBN 252100Z 20005KT 9999 FEW030 20/17 Q1017
YBBN,2016-03-25 21:30,153.1292,-27.3917,71.60,62.60,73.27,210.00,9.00,0.00,30.03,M,6.21,M,FEW,BKN,M,M,3000.00,32000.00,M,M,M,YBBN 252130Z 21009KT 9999 FEW030 BKN320 22/17 Q1017 NOSIG
YBBN,2016-03-25 22:00,153.1292,-27.3917,73.40,62.60,68.94,210.00,7.00,0.00,30.03,M,6.21,M,FEW,BKN,M,M,3000.00,32000.00,M,M,M,YBBN 252200Z 21007KT 9999 FEW030 BKN320 23/17 Q1017 NOSIG
YBBN,2016-03-25 23:00,153.1292,-27.3917,78.80,64.40,61.36,200.00,6.00,0.00,30.03,M,6.21,M,FEW,BKN,M,M,3000.00,32000.00,M,M,M,YBBN 252300Z 20006KT 9999 FEW030 BKN320 26/18 Q1017
