#DEBUG: Format Typ    -> comma
#DEBUG: Time Period   -> 2014-12-30 00:00:00+00:00 2014-12-31 00:00:00+00:00
#DEBUG: Time Zone     -> Etc/UTC
#DEBUG: Data Contact   -> daryl herzmann akrherz@iastate.edu 515-294-5978
#DEBUG: Entries Found -> -1
station,valid,lon,lat,tmpf, dwpf, relh, drct, sknt, p01i, alti, mslp, vsby, gust, skyc1, skyc2, skyc3, skyc4, skyl1, skyl2, skyl3, skyl4, presentwx, metar
YBBN,2014-12-30 00:00,153.1292,-27.3917,86.00,73.40,66.15,310.00,5.00,0.00,29.77,M,6.21,M,FEW,M,M,M,3000.00,M,M,M,M,YBBN 300000Z 31005KT 9999 FEW030 30/23 Q1008 NOSIG
YBBN,2014-12-30 00:30,153.1292,-27.3917,87.80,73.40,62.47,10.00,7.00,0.00,29.77,M,6.21,M,FEW,M,M,M,3200.00,M,M,M,M,YBBN 300030Z 01007KT 9999 FEW032 31/23 Q1008
YBBN,2014-12-30 01:00,153.1292,-27.3917,87.80,75.20,66.35,10.00,9.00,0.00,29.77,M,6.21,M,SCT,M,M,M,3200.00,M,M,M,M,YBBN 300100Z 01009KT 9999 SCT032 31/24 Q1008 NOSIG
YBBN,2014-12-30 01:30,153.1292,-27.3917,87.80,75.20,66.35,10.00,11.00,0.00,29.77,M,6.21,M,SCT,M,M,M,3300.00,M,M,M,M,YBBN 300130Z 01011KT 9999 SCT033 31/24 Q1008
YBBN,2014-12-30 02:00,153.1292,-27.3917,87.80,75.20,66.35,20.00,11.00,0.00,29.77,M,6.21,M,FEW,M,M,M,3300.00,M,M,M,M,YBBN 300200Z 02011KT 9999 FEW033 31/24 Q1008
YBBN,2014-12-30 02:30,153.1292,-27.3917,87.80,75.20,66.35,30.00,11.00,0.00,29.74,M,6.21,M,FEW,M,M,M,3300.00,M,M,M,M,YBBN 300230Z 03011KT 9999 FEW033 31/24 Q1007 RMK DIST CB TOPS TO S
YBBN,2014-12-30 03:00,153.1292,-27.3917,87.80,75.20,66.35,20.00,11.00,0.00,29.74,M,6.21,M,FEW,M,M,M,3300.00,M,M,M,M,YBBN 300300Z 02011KT 9999 FEW033 31/24 Q1007 RMK DIST CB TOPS TO S
YBBN,2014-12-30 03:30,153.1292,-27.3917,87.80,75.20,66.35,20.00,12.00,0.00,29.71,M,6.21,M,FEW,M,M,M,3300.00,M,M,M,M,YBBN 300330Z 02012KT 9999 FEW033 31/24 Q1006 RMK DIST CB TOPS TO S
YBBN,2014-12-30 04:00,153.1292,-27.3917,87.80,75.20,66.35,30.00,11.00,0.00,29.71,M,6.21,M,FEW,M,M,M,3300.00,M,M,M,M,YBBN 300400Z 03011KT 9999 FEW033 31/24 Q1006 NOSIG
YBBN,2014-12-30 04:30,153.1292,-27.3917,87.80,75.20,66.35,20.00,11.00,0.00,29.71,M,6.21,M,FEW,M,M,M,3300.00,M,M,M,M,YBBN 300430Z 02011KT 9999 FEW033 31/24 Q1006 RMK DIST CB TOPS TO S
YBBN,2014-12-30 05:00,153.1292,-27.3917,87.80,75.20,66.35,20.00,13.00,0.00,29.68,M,6.21,M,FEW,M,M,M,3500.00,M,M,M,M,YBBN 300500Z 02013KT 9999 FEW035 31/24 Q1005
YBBN,2014-12-30 05:30,153.1292,-27.3917,86.00,75.20,70.27,10.00,13.00,0.00,29.68,M,6.21,M,FEW,M,M,M,3500.00,M,M,M,M,YBBN 300530Z 01013KT 9999 FEW035 30/24 Q1005 RMK DIST CB TOPS TO S AND N
YBBN,2014-12-30 06:00,153.1292,-27.3917,86.00,75.20,70.27,10.00,12.00,0.00,29.68,M,6.21,M,FEW,M,M,M,3500.00,M,M,M,M,YBBN 300600Z 01012KT 9999 FEW035 30/24 Q1005
YBBN,2014-12-30 06:30,153.1292,-27.3917,84.20,75.20,74.44,360.00,9.00,0.00,29.68,M,6.21,M,FEW,M,M,M,3500.00,M,M,M,M,YBBN 300630Z 36009KT 9999 FEW035 29/24 Q1005 RMK DIST CB TOPS TO SE N
YBBN,2014-12-30 07:00,153.1292,-27.3917,86.00,73.40,66.15,10.00,6.00,0.00,29.71,M,6.21,M,FEW,M,M,M,4000.00,M,M,M,M,YBBN 300700Z 01006KT 9999 FEW040 30/23 Q1006
YBBN,2014-12-30 07:30,153.1292,-27.3917,86.00,73.40,66.15,360.00,7.00,0.00,29.71,M,6.21,M,FEW,M,M,M,4000.00,M,M,M,M,YBBN 300730Z 36007KT 9999 FEW040 30/23 Q1006
YBBN,2014-12-30 08:00,153.1292,-27.3917,82.40,73.40,74.28,10.00,12.00,0.00,29.71,M,6.21,M,FEW,M,M,M,4000.00,M,M,M,M,YBBN 300800Z 01012KT 9999 FEW040TCU 28/23 Q1006
YBBN,2014-12-30 08:30,153.1292,-27.3917,82.40,75.20,78.90,10.00,15.00,0.00,29.74,M,6.21,M,FEW,M,M,M,4000.00,M,M,M,M,YBBN 300830Z 01015KT 9999 FEW040 28/24 Q1007
YBBN,2014-12-30 09:00,153.1292,-27.3917,80.60,75.20,83.66,360.00,15.00,0.00,29.74,M,6.21,M,FEW,M,M,M,4000.00,M,M,M,M,YBBN 300900Z 36015KT 9999 FEW040 27/24 Q1007 NOSIG
YBBN,2014-12-30 09:30,153.1292,-27.3917,80.60,75.20,83.66,360.00,13.00,0.00,29.74,M,6.21,M,FEW,M,M,M,4000.00,M,M,M,M,YBBN 300930Z 36013KT 9999 FEW040 27/24 Q1007
YBBN,2014-12-30 10:00,153.1292,-27.3917,80.60,75.20,83.66,360.00,10.00,0.00,29.74,M,6.21,M,FEW,M,M,M,4000.00,M,M,M,M,YBBN 301000Z 36010KT 9999 FEW040 27/24 Q1007
YBBN,2014-12-30 10:30,153.1292,-27.3917,80.60,75.20,83.66,350.00,10.00,0.00,29.74,M,6.21,M,M,M,M,M,M,M,M,M,M,YBBN 301030Z 35010KT CAVOK 27/24 Q1007
YBBN,2014-12-30 11:00,153.1292,-27.3917,80.60,75.20,83.66,340.00,6.00,0.00,29.77,M,6.21,M,M,M,M,M,M,M,M,M,M,YBBN 301100Z 34006KT CAVOK 27/24 Q1008 NOSIG
YBBN,2014-12-30 11:30,153.1292,-27.3917,78.80,75.20,88.75,340.00,4.00,0.00,29.77,M,6.21,M,M,M,M,M,M,M,M,M,M,YBBN 301130Z 34004KT CAVOK 26/24 Q1008
YBBN,2014-12-30 12:00,153.1292,-27.3917,78.80,73.40,83.55,0.00,0.00,0.00,29.77,M,6.21,M,M,M,M,M,M,M,M,M,M,YBBN 301200Z 00000KT CAVOK 26/23 Q1008 NOSIG
YBBN,2014-12-30 12:30,153.1292,-27.3917,77.00,73.40,88.67,360.00,3.00,0.00,29.74,M,6.21,M,M,M,M,M,M,M,M,M,M,YBBN 301230Z 36003KT CAVOK 25/23 Q1007
YBBN,2014-12-30 13:00,153.1292,-27.3917,78.80,75.20,88.75,50.00,4.00,0.00,29.74,M,6.21,M,M,M,M,M,M,M,M,M,M,YBBN 301300Z 05004KT CAVOK 26/24 Q1007
YBBN,2014-12-30 13:30,153.1292,-27.3917,77.00,75.20,94.19,0.00,0.00,0.00,29.74,M,6.21,M,M,M,M,M,M,M,M,M,M,YBBN 301330Z 00000KT CAVOK 25/24 Q1007
YBBN,2014-12-30 14:00,153.1292,-27.3917,77.00,75.20,94.19,0.00,0.00,0.00,29.74,M,5.59,M,FEW,M,M,M,10000.00,M,M,M,MIFG,YBBN 301400Z 00000KT 9000 MIFG FEW100 25/24 Q1007
YBBN,2014-12-30 15:00,153.1292,-27.3917,75.20,75.20,100.00,0.00,0.00,0.00,29.74,M,5.59,M,FEW,M,M,M,10000.00,M,M,M,M,YBBN 301500Z 00000KT 9000 FEW100 24/24 Q1007
YBBN,2014-12-30 15:30,153.1292,-27.3917,75.20,75.20,100.00,210.00,3.00,0.00,29.71,M,6.21,M,M,M,M,M,M,M,M,M,M,YBBN 301530Z 21003KT CAVOK 24/24 Q1006
YBBN,2014-12-30 16:00,153.1292,-27.3917,75.20,73.40,94.14,160.00,4.00,0.00,29.74,M,6.21,M,M,M,M,M,M,M,M,M,M,YBBN 301600Z 16004KT CAVOK 24/23 Q1007 NOSIG
YBBN,2014-12-30 16:30,153.1292,-27.3917,77.00,73.40,88.67,160.00,1.00,0.00,29.71,M,6.21,M,M,M,M,M,M,M,M,M,M,YBBN 301630Z 16001KT CAVOK 25/23 Q1006
YBBN,2014-12-30 17:00,153.1292,-27.3917,75.20,73.40,94.14,180.00,4.00,0.00,29.71,M,6.21,M,M,M,M,M,M,M,M,M,M,YBBN 301700Z 18004KT CAVOK 24/23 Q1006 NOSIG
YBBN,2014-12-30 17:30,153.1292,-27.3917,75.20,73.40,94.14,200.00,3.00,0.00,29.71,M,6.21,M,M,M,M,M,M,M,M,M,M,YBBN 301730Z 20003KT CAVOK 24/23 Q1006
YBBN,2014-12-30 18:00,153.1292,-27.3917,75.20,73.40,94.14,200.00,3.00,0.00,29.74,M,6.21,M,FEW,SCT,M,M,4000.00,10000.00,M,M,M,YBBN 301800Z 20003KT 9999 FEW040 SCT100 24/23 Q1007
YBBN,2014-12-30 18:30,153.1292,-27.3917,73.40,73.40,100.00,210.00,4.00,0.00,29.74,M,6.21,M,FEW,SCT,M,M,4000.00,10000.00,M,M,M,YBBN 301830Z 21004KT 9999 FEW040 SCT100 23/23 Q1007
YBBN,2014-12-30 19:00,153.1292,-27.3917,75.20,73.40,94.14,220.00,5.00,0.00,29.74,M,6.21,M,FEW,SCT,M,M,4000.00,10000.00,M,M,M,YBBN 301900Z 22005KT 9999 FEW040 SCT100 24/23 Q1007
YBBN,2014-12-30 19:30,153.1292,-27.3917,75.20,73.40,94.14,190.00,2.00,0.00,29.77,M,6.21,M,M,M,M,M,M,M,M,M,M,YBBN 301930Z 19002KT CAVOK 24/23 Q1008
YBBN,2014-12-30 20:00,153.1292,-27.3917,77.00,73.40,88.67,200.00,5.00,0.00,29.77,M,6.21,M,M,M,M,M,M,M,M,M,M,YBBN 302000Z 20005KT CAVOK 25/23 Q1008
YBBN,2014-12-30 20:30,153.1292,-27.3917,78.80,73.40,83.55,190.00,5.00,0.00,29.77,M,6.21,M,FEW,M,M,M,1000.00,M,M,M,M,YBBN 302030Z 19005KT 9999 FEW010 26/23 Q1008
YBBN,2014-12-30 21:00,153.1292,-27.3917,80.60,73.40,78.76,210.00,4.00,0.00,29.80,M,6.21,M,FEW,M,M,M,1200.00,M,M,M,M,YBBN 302100Z 21004KT 9999 FEW012 27/23 Q1009 NOSIG
YBBN,2014-12-30 21:30,153.1292,-27.3917,82.40,75.20,78.90,10.00,2.00,0.00,29.80,M,6.21,M,FEW,M,M,M,1500.00,M,M,M,M,YBBN 302130Z 01002KT 9999 FEW015 28/24 Q1009
YBBN,2014-12-30 22:00,153.1292,-27.3917,84.20,73.40,70.08,20.00,3.00,0.00,29.80,M,6.21,M,FEW,M,M,M,2000.00,M,M,M,M,YBBN 302200Z 02003KT 9999 FEW020 29/23 Q1009
YBBN,2014-12-30 22:30,153.1292,-27.3917,84.20,75.20,74.44,80.00,3.00,0.00,29.80,M,6.21,M,FEW,M,M,M,2000.00,M,M,M,M,YBBN 302230Z 08003KT 9999 FEW020 29/24 Q1009
YBBN,2014-12-30 23:00,153.1292,-27.3917,84.20,73.40,70.08,90.00,5.00,0.00,29.80,M,6.21,M,FEW,M,M,M,2000.00,M,M,M,M,YBBN 302300Z 09005KT 9999 FEW020 29/23 Q1009 NOSIG
YBBN,2014-12-30 23:30,153.1292,-27.3917,86.00,75.20,70.27,50.00,6.00,0.00,29.80,M,6.21,M,FEW,M,M,M,2200.00,M,M,M,M,YBBN 302330Z 05006KT 9999 FEW022 30/24 Q1009
