#DEBUG: Format Typ    -> comma
#DEBUG: Time Period   -> 2014-10-24 00:00:00+00:00 2014-10-25 00:00:00+00:00
#DEBUG: Time Zone     -> Etc/UTC
#DEBUG: Data Contact   -> daryl herzmann akrherz@iastate.edu 515-294-5978
#DEBUG: Entries Found -> -1
station,valid,lon,lat,tmpf, dwpf, relh, drct, sknt, p01i, alti, mslp, vsby, gust, skyc1, skyc2, skyc3, skyc4, skyl1, skyl2, skyl3, skyl4, presentwx, metar
YBBN,2014-10-24 00:00,153.1292,-27.3917,75.20,55.40,50.17,10.00,11.00,0.00,30.18,M,6.21,M,FEW,M,M,M,3700.00,M,M,M,M,YBBN 240000Z 01011KT 9999 FEW037 24/13 Q1022 FM0000 03013KT 9999 FEW035
YBBN,2014-10-24 00:30,153.1292,-27.3917,77.00,55.40,47.25,360.00,10.00,0.00,30.18,M,6.21,M,FEW,M,M,M,4000.00,M,M,M,M,YBBN 240030Z 36010KT 9999 FEW040 25/13 Q1022
YBBN,2014-10-24 01:00,153.1292,-27.3917,77.00,55.40,47.25,10.00,11.00,0.00,30.15,M,6.21,M,FEW,M,M,M,4200.00,M,M,M,M,YBBN 240100Z 01011KT 9999 FEW042 25/13 Q1021 NOSIG
YBBN,2014-10-24 01:30,153.1292,-27.3917,77.00,55.40,47.25,30.00,11.00,0.00,30.15,M,6.21,M,FEW,M,M,M,4000.00,M,M,M,M,YBBN 240130Z 03011KT 9999 FEW040 25/13 Q1021
YBBN,2014-10-24 02:00,153.1292,-27.3917,77.00,57.20,50.43,40.00,11.00,0.00,30.15,M,6.21,M,FEW,M,M,M,3800.00,M,M,M,M,YBBN 240200Z 04011KT 9999 FEW038 25/14 Q1021 NOSIG
YBBN,2014-10-24 02:30,153.1292,-27.3917,77.00,57.20,50.43,40.00,14.00,0.00,30.12,M,6.21,M,FEW,M,M,M,3600.00,M,M,M,M,YBBN 240230Z 04014KT 9999 FEW036 25/14 Q1020
YBBN,2014-10-24 03:00,153.1292,-27.3917,75.20,59.00,57.12,30.00,15.00,0.00,30.12,M,6.21,M,FEW,M,M,M,3400.00,M,M,M,M,YBBN 240300Z 03015KT 9999 FEW034 24/15 Q1020
YBBN,2014-10-24 03:30,153.1292,-27.3917,75.20,59.00,57.12,30.00,13.00,0.00,30.12,M,6.21,M,FEW,M,M,M,3400.00,M,M,M,M,YBBN 240330Z 03013KT 9999 FEW034 24/15 Q1020
YBBN,2014-10-24 04:00,153.1292,-27.3917,75.20,59.00,57.12,30.00,14.00,0.00,30.12,M,6.21,M,FEW,M,M,M,3200.00,M,M,M,M,YBBN 240400Z 03014KT 9999 FEW032 24/15 Q1020 NOSIG
YBBN,2014-10-24 04:30,153.1292,-27.3917,75.20,59.00,57.12,30.00,14.00,0.00,30.09,M,6.21,M,FEW,M,M,M,3200.00,M,M,M,M,YBBN 240430Z 03014KT 9999 FEW032 24/15 Q1019
YBBN,2014-10-24 05:00,153.1292,-27.3917,75.20,59.00,57.12,10.00,15.00,0.00,30.09,M,6.21,M,FEW,M,M,M,3000.00,M,M,M,M,YBBN 240500Z 01015KT 9999 FEW030 24/15 Q1019
YBBN,2014-10-24 05:30,153.1292,-27.3917,75.20,59.00,57.12,10.00,15.00,0.00,30.09,M,6.21,M,FEW,M,M,M,3000.00,M,M,M,M,YBBN 240530Z 01015KT 9999 FEW030 24/15 Q1019
YBBN,2014-10-24 06:00,153.1292,-27.3917,73.40,57.20,56.88,10.00,15.00,0.00,30.09,M,6.21,M,FEW,M,M,M,3000.00,M,M,M,M,YBBN 240600Z 01015KT 9999 FEW030 23/14 Q1019 NOSIG
YBBN,2014-10-24 06:30,153.1292,-27.3917,73.40,57.20,56.88,10.00,15.00,0.00,30.09,M,6.21,M,M,M,M,M,M,M,M,M,M,YBBN 240630Z 01015KT CAVOK 23/14 Q1019
YBBN,2014-10-24 07:00,153.1292,-27.3917,71.60,57.20,60.44,10.00,17.00,0.00,30.09,M,6.21,M,M,M,M,M,M,M,M,M,M,YBBN 240700Z 01017KT CAVOK 22/14 Q1019 FM0900 36010KT 9999 FEW030
YBBN,2014-10-24 07:30,153.1292,-27.3917,71.60,57.20,60.44,360.00,15.00,0.00,30.12,M,6.21,M,FEW,SCT,M,M,2800.00,30000.00,M,M,M,YBBN 240730Z 36015KT 9999 FEW028 SCT300 22/14 Q1020
YBBN,2014-10-24 08:00,153.1292,-27.3917,69.80,57.20,64.26,10.00,16.00,0.00,30.12,M,6.21,M,FEW,SCT,M,M,2000.00,30000.00,M,M,M,YBBN 240800Z 01016KT 9999 FEW020 SCT300 21/14 Q1020
YBBN,2014-10-24 08:30,153.1292,-27.3917,69.80,57.20,64.26,10.00,13.00,0.00,30.15,M,6.21,M,FEW,SCT,M,M,2500.00,30000.00,M,M,M,YBBN 240830Z 01013KT 9999 FEW025 SCT300 21/14 Q1021
YBBN,2014-10-24 09:00,153.1292,-27.3917,69.80,57.20,64.26,10.00,14.00,0.00,30.15,M,6.21,M,FEW,SCT,M,M,3000.00,30000.00,M,M,M,YBBN 240900Z 01014KT 9999 FEW030 SCT300 21/14 Q1021 FM0930 36010KT 9999 FEW030
YBBN,2014-10-24 09:30,153.1292,-27.3917,69.80,57.20,64.26,20.00,14.00,0.00,30.15,M,6.21,M,FEW,SCT,M,M,3000.00,30000.00,M,M,M,YBBN 240930Z 02014KT 9999 FEW030 SCT300 21/14 Q1021
YBBN,2014-10-24 10:00,153.1292,-27.3917,69.80,57.20,64.26,10.00,14.00,0.00,30.15,M,6.21,M,FEW,SCT,M,M,3000.00,25000.00,M,M,M,YBBN 241000Z 01014KT 9999 FEW030 SCT250 21/14 Q1021 FM1000 36010KT 9999 FEW030
YBBN,2014-10-24 10:30,153.1292,-27.3917,69.80,57.20,64.26,10.00,14.00,0.00,30.18,M,6.21,M,FEW,M,M,M,3000.00,M,M,M,M,YBBN 241030Z 01014KT 9999 FEW030 21/14 Q1022
YBBN,2014-10-24 11:00,153.1292,-27.3917,69.80,57.20,64.26,10.00,14.00,0.00,30.18,M,6.21,M,FEW,M,M,M,2800.00,M,M,M,M,YBBN 241100Z 01014KT 9999 FEW028 21/14 Q1022
YBBN,2014-10-24 11:30,153.1292,-27.3917,69.80,57.20,64.26,360.00,12.00,0.00,30.18,M,6.21,M,FEW,M,M,M,2800.00,M,M,M,M,YBBN 241130Z 36012KT 9999 FEW028 21/14 Q1022
YBBN,2014-10-24 12:00,153.1292,-27.3917,69.80,57.20,64.26,360.00,12.00,0.00,30.18,M,6.21,M,FEW,M,M,M,3000.00,M,M,M,M,YBBN 241200Z 36012KT 9999 FEW030 21/14 Q1022 NOSIG
YBBN,2014-10-24 12:30,153.1292,-27.3917,68.00,57.20,68.35,340.00,9.00,0.00,30.15,M,6.21,M,FEW,M,M,M,3000.00,M,M,M,M,YBBN 241230Z 34009KT 9999 FEW030 20/14 Q1021
YBBN,2014-10-24 13:00,153.1292,-27.3917,68.00,57.20,68.35,350.00,9.00,0.00,30.15,M,6.21,M,FEW,M,M,M,3000.00,M,M,M,M,YBBN 241300Z 35009KT 9999 FEW030 20/14 Q1021 NOSIG
YBBN,2014-10-24 13:30,153.1292,-27.3917,66.20,57.20,72.74,290.00,5.00,0.00,30.15,M,6.21,M,FEW,M,M,M,3000.00,M,M,M,M,YBBN 241330Z 29005KT 9999 FEW030 19/14 Q1021
YBBN,2014-10-24 14:00,153.1292,-27.3917,64.40,57.20,77.45,290.00,5.00,0.00,30.15,M,6.21,M,FEW,M,M,M,2500.00,M,M,M,M,YBBN 241400Z 29005KT 9999 FEW025 18/14 Q1021 NOSIG
YBBN,2014-10-24 14:30,153.1292,-27.3917,62.60,57.20,82.50,320.00,4.00,0.00,30.12,M,6.21,M,FEW,M,M,M,2500.00,M,M,M,M,YBBN 241430Z 32004KT 9999 FEW025 17/14 Q1020
YBBN,2014-10-24 15:00,153.1292,-27.3917,64.40,57.20,77.45,350.00,9.00,0.00,30.09,M,6.21,M,FEW,M,M,M,2500.00,M,M,M,M,YBBN 241500Z 35009KT 9999 FEW025 18/14 Q1019
YBBN,2014-10-24 15:30,153.1292,-27.3917,64.40,57.20,77.45,330.00,8.00,0.00,30.09,M,6.21,M,M,M,M,M,M,M,M,M,M,YBBN 241530Z 33008KT CAVOK 18/14 Q1019
YBBN,2014-10-24 16:00,153.1292,-27.3917,62.60,57.20,82.50,290.00,5.00,0.00,30.09,M,6.21,M,M,M,M,M,M,M,M,M,M,YBBN 241600Z 29005KT CAVOK 17/14 Q1019 NOSIG
YBBN,2014-10-24 16:30,153.1292,-27.3917,62.60,57.20,82.50,320.00,3.00,0.00,30.09,M,6.21,M,M,M,M,M,M,M,M,M,M,YBBN 241630Z 32003KT CAVOK 17/14 Q1019
YBBN,2014-10-24 17:00,153.1292,-27.3917,62.60,57.20,82.50,250.00,4.00,0.00,30.09,M,6.21,M,M,M,M,M,M,M,M,M,M,YBBN 241700Z 25004KT CAVOK 17/14 Q1019 NOSIG
YBBN,2014-10-24 17:30,153.1292,-27.3917,62.60,57.20,82.50,260.00,1.00,0.00,30.09,M,6.21,M,M,M,M,M,M,M,M,M,M,YBBN 241730Z 26001KT CAVOK 17/14 Q1019
YBBN,2014-10-24 18:00,153.1292,-27.3917,60.80,57.20,87.92,0.00,0.00,0.00,30.09,M,6.21,M,M,M,M,M,M,M,M,M,M,YBBN 241800Z 00000KT CAVOK 16/14 Q1019
YBBN,2014-10-24 18:30,153.1292,-27.3917,60.80,57.20,87.92,290.00,5.00,0.00,30.09,M,6.21,M,FEW,SCT,M,M,4000.00,23000.00,M,M,M,YBBN 241830Z 29005KT 9999 FEW040 SCT230 16/14 Q1019
YBBN,2014-10-24 19:00,153.1292,-27.3917,60.80,55.40,82.37,310.00,5.00,0.00,30.09,M,6.21,M,FEW,SCT,M,M,4000.00,25000.00,M,M,M,YBBN 241900Z 31005KT 9999 FEW040 SCT250 16/13 Q1019 NOSIG
YBBN,2014-10-24 19:30,153.1292,-27.3917,62.60,57.20,82.50,300.00,6.00,0.00,30.12,M,6.21,M,M,M,M,M,M,M,M,M,M,YBBN 241930Z 30006KT CAVOK 17/14 Q1020
YBBN,2014-10-24 20:00,153.1292,-27.3917,64.40,57.20,77.45,270.00,6.00,0.00,30.12,M,6.21,M,M,M,M,M,M,M,M,M,M,YBBN 242000Z 27006KT CAVOK 18/14 Q1020
YBBN,2014-10-24 20:30,153.1292,-27.3917,66.20,57.20,72.74,270.00,5.00,0.00,30.12,M,6.21,M,FEW,M,M,M,2400.00,M,M,M,M,YBBN 242030Z 27005KT 9999 FEW024 19/14 Q1020
YBBN,2014-10-24 21:00,153.1292,-27.3917,69.80,55.40,60.21,300.00,7.00,0.00,30.15,M,6.21,M,FEW,M,M,M,2400.00,M,M,M,M,YBBN 242100Z 30007KT 9999 FEW024 21/13 Q1021 NOSIG
YBBN,2014-10-24 21:30,153.1292,-27.3917,69.80,55.40,60.21,320.00,9.00,0.00,30.15,M,6.21,M,FEW,M,M,M,2500.00,M,M,M,M,YBBN 242130Z 32009KT 9999 FEW025 21/13 Q1021
YBBN,2014-10-24 22:00,153.1292,-27.3917,71.60,57.20,60.44,330.00,10.00,0.00,30.15,M,6.21,M,FEW,M,M,M,2600.00,M,M,M,M,YBBN 242200Z 33010KT 9999 FEW026 22/14 Q1021 FM0000 02015KT 9999 FEW035
YBBN,2014-10-24 22:30,153.1292,-27.3917,73.40,57.20,56.88,350.00,12.00,0.00,30.12,M,6.21,M,FEW,M,M,M,2600.00,M,M,M,M,YBBN 242230Z 35012KT 9999 FEW026 23/14 Q1020
YBBN,2014-10-24 23:00,153.1292,-27.3917,75.20,55.40,50.17,350.00,12.00,0.00,30.12,M,6.21,M,FEW,M,M,M,2700.00,M,M,M,M,YBBN 242300Z 35012KT 9999 FEW027 24/13 Q1020
YBBN,2014-10-24 23:30,153.1292,-27.3917,77.00,59.00,53.80,360.00,12.00,0.00,30.12,M,6.21,M,FEW,M,M,M,2700.00,M,M,M,M,YBBN 242330Z 36012KT 9999 FEW027 25/15 Q1020
