#DEBUG: Format Typ    -> comma
#DEBUG: Time Period   -> 2014-02-12 00:00:00+00:00 2014-02-13 00:00:00+00:00
#DEBUG: Time Zone     -> Etc/UTC
#DEBUG: Data Contact   -> daryl herzmann akrherz@iastate.edu 515-294-5978
#DEBUG: Entries Found -> -1
station,valid,lon,lat,tmpf, dwpf, relh, drct, sknt, p01i, alti, mslp, vsby, gust, skyc1, skyc2, skyc3, skyc4, skyl1, skyl2, skyl3, skyl4, presentwx, metar
YBBN,2014-02-12 00:00,153.1292,-27.3917,80.60,62.60,54.30,100.00,7.00,0.00,30.00,M,6.21,M,SCT,BKN,M,M,3500.00,4600.00,M,M,M,YBBN 120000Z 10007KT 9999 SCT035 BKN046 27/17 Q1016 FM0100 07012KT 9999 SCT035
YBBN,2014-02-12 00:30,153.1292,-27.3917,80.60,62.60,54.30,120.00,7.00,0.00,29.97,M,6.21,M,SCT,BKN,M,M,3500.00,4800.00,M,M,M,YBBN 120030Z 12007KT 9999 SCT035 BKN048 27/17 Q1015
YBBN,2014-02-12 01:00,153.1292,-27.3917,80.60,64.40,57.84,110.00,7.00,0.00,29.97,M,6.21,M,SCT,M,M,M,3800.00,M,M,M,M,YBBN 120100Z 11007KT 9999 SCT038 27/18 Q1015
YBBN,2014-02-12 01:30,153.1292,-27.3917,80.60,62.60,54.30,100.00,8.00,0.00,29.97,M,6.21,M,SCT,M,M,M,4000.00,M,M,M,M,YBBN 120130Z 10008KT 9999 SCT040 27/17 Q1015
YBBN,2014-02-12 02:00,153.1292,-27.3917,80.60,60.80,50.95,90.00,8.00,0.00,29.97,M,6.21,M,SCT,M,M,M,4000.00,M,M,M,M,YBBN 120200Z 09008KT 9999 SCT040 27/16 Q1015
YBBN,2014-02-12 02:30,153.1292,-27.3917,82.40,64.40,54.55,70.00,9.00,0.00,29.94,M,6.21,M,SCT,M,M,M,4200.00,M,M,M,M,YBBN 120230Z 07009KT 9999 SCT042 28/18 Q1014
YBBN,2014-02-12 03:00,153.1292,-27.3917,80.60,62.60,54.30,80.00,9.00,0.00,29.94,M,6.21,M,SCT,M,M,M,4200.00,M,M,M,M,YBBN 120300Z 08009KT 9999 SCT042 27/17 Q1014
YBBN,2014-02-12 03:30,153.1292,-27.3917,82.40,62.60,51.21,80.00,8.00,0.00,29.94,M,6.21,M,SCT,M,M,M,4200.00,M,M,M,M,YBBN 120330Z 08008KT 9999 SCT042 28/17 Q1014
YBBN,2014-02-12 04:00,153.1292,-27.3917,80.60,62.60,54.30,70.00,8.00,0.00,29.94,M,6.21,M,FEW,M,M,M,4200.00,M,M,M,M,YBBN 120400Z 07008KT 9999 FEW042 27/17 Q1014
YBBN,2014-02-12 04:30,153.1292,-27.3917,80.60,60.80,50.95,120.00,7.00,0.00,29.94,M,6.21,M,FEW,M,M,M,4500.00,M,M,M,M,YBBN 120430Z 12007KT 9999 FEW045 27/16 Q1014
YBBN,2014-02-12 05:00,153.1292,-27.3917,80.60,60.80,50.95,70.00,8.00,0.00,29.91,M,6.21,M,FEW,M,M,M,4500.00,M,M,M,M,YBBN 120500Z 07008KT 9999 FEW045 27/16 Q1013
YBBN,2014-02-12 05:30,153.1292,-27.3917,82.40,62.60,51.21,60.00,9.00,0.00,29.91,M,6.21,M,FEW,M,M,M,4500.00,M,M,M,M,YBBN 120530Z 06009KT 9999 FEW045 28/17 Q1013
YBBN,2014-02-12 06:00,153.1292,-27.3917,80.60,62.60,54.30,50.00,12.00,0.00,29.91,M,6.21,M,FEW,M,M,M,2000.00,M,M,M,M,YBBN 120600Z 05012KT 9999 FEW020 27/17 Q1013 NOSIG
YBBN,2014-02-12 06:30,153.1292,-27.3917,80.60,60.80,50.95,50.00,12.00,0.00,29.91,M,6.21,M,FEW,M,M,M,2000.00,M,M,M,M,YBBN 120630Z 05012KT 9999 FEW020 27/16 Q1013
YBBN,2014-02-12 07:00,153.1292,-27.3917,78.80,62.60,57.60,60.00,12.00,0.00,29.91,M,6.21,M,FEW,M,M,M,2000.00,M,M,M,M,YBBN 120700Z 06012KT 9999 FEW020 26/17 Q1013
YBBN,2014-02-12 07:30,153.1292,-27.3917,78.80,64.40,61.36,60.00,8.00,0.00,29.91,M,6.21,M,FEW,M,M,M,2000.00,M,M,M,M,YBBN 120730Z 06008KT 9999 FEW020 26/18 Q1013
YBBN,2014-02-12 08:00,153.1292,-27.3917,77.00,64.40,65.12,60.00,9.00,0.00,29.94,M,6.21,M,FEW,M,M,M,2000.00,M,M,M,M,YBBN 120800Z 06009KT 9999 FEW020 25/18 Q1014 NOSIG
YBBN,2014-02-12 08:30,153.1292,-27.3917,77.00,62.60,61.13,60.00,8.00,0.00,29.94,M,6.21,M,FEW,M,M,M,2000.00,M,M,M,M,YBBN 120830Z 06008KT 9999 FEW020 25/17 Q1014
YBBN,2014-02-12 09:00,153.1292,-27.3917,75.20,62.60,64.91,60.00,7.00,0.00,29.94,M,6.21,M,FEW,M,M,M,2000.00,M,M,M,M,YBBN 120900Z 06007KT 9999 FEW020 24/17 Q1014 NOSIG
YBBN,2014-02-12 09:30,153.1292,-27.3917,75.20,62.60,64.91,70.00,7.00,0.00,29.97,M,6.21,M,FEW,M,M,M,2000.00,M,M,M,M,YBBN 120930Z 07007KT 9999 FEW020 24/17 Q1015
YBBN,2014-02-12 10:00,153.1292,-27.3917,75.20,62.60,64.91,50.00,6.00,0.00,29.97,M,6.21,M,FEW,M,M,M,2000.00,M,M,M,M,YBBN 121000Z 05006KT 9999 FEW020 24/17 Q1015 NOSIG
YBBN,2014-02-12 10:30,153.1292,-27.3917,75.20,64.40,69.14,50.00,6.00,0.00,30.00,M,6.21,M,FEW,M,M,M,2000.00,M,M,M,M,YBBN 121030Z 05006KT 9999 FEW020 24/18 Q1016
YBBN,2014-02-12 11:00,153.1292,-27.3917,75.20,64.40,69.14,50.00,5.00,0.00,30.00,M,6.21,M,FEW,SCT,M,M,2000.00,2800.00,M,M,M,YBBN 121100Z 05005KT 9999 FEW020 SCT028 24/18 Q1016 NOSIG
YBBN,2014-02-12 11:30,153.1292,-27.3917,75.20,64.40,69.14,60.00,6.00,0.00,30.00,M,6.21,M,FEW,SCT,M,M,2000.00,2800.00,M,M,M,YBBN 121130Z 06006KT 9999 FEW020 SCT028 24/18 Q1016
YBBN,2014-02-12 12:00,153.1292,-27.3917,75.20,64.40,69.14,50.00,7.00,0.00,30.00,M,6.21,M,FEW,SCT,M,M,2000.00,2700.00,M,M,M,YBBN 121200Z 05007KT 9999 FEW020 SCT027 24/18 Q1016 NOSIG
YBBN,2014-02-12 12:30,153.1292,-27.3917,75.20,64.40,69.14,50.00,7.00,0.00,30.00,M,6.21,M,FEW,SCT,M,M,2000.00,2700.00,M,M,M,YBBN 121230Z 05007KT 9999 FEW020 SCT027 24/18 Q1016
YBBN,2014-02-12 13:00,153.1292,-27.3917,75.20,64.40,69.14,60.00,6.00,0.00,29.97,M,6.21,M,FEW,M,M,M,2000.00,M,M,M,M,YBBN 121300Z 06006KT 9999 FEW020 24/18 Q1015 NOSIG
YBBN,2014-02-12 13:30,153.1292,-27.3917,75.20,64.40,69.14,50.00,7.00,0.00,29.97,M,6.21,M,FEW,M,M,M,2000.00,M,M,M,M,YBBN 121330Z 05007KT 9999 FEW020 24/18 Q1015
YBBN,2014-02-12 14:00,153.1292,-27.3917,73.40,64.40,73.44,60.00,5.00,0.00,29.97,M,6.21,M,FEW,M,M,M,2000.00,M,M,M,M,YBBN 121400Z 06005KT 9999 FEW020 23/18 Q1015 NOSIG
YBBN,2014-02-12 14:30,153.1292,-27.3917,73.40,64.40,73.44,70.00,4.00,0.00,29.97,M,6.21,M,FEW,M,M,M,2600.00,M,M,M,M,YBBN 121430Z 07004KT 9999 FEW026 23/18 Q1015
YBBN,2014-02-12 15:00,153.1292,-27.3917,73.40,64.40,73.44,110.00,4.00,0.00,29.97,M,6.21,M,FEW,M,M,M,2500.00,M,M,M,M,YBBN 121500Z 11004KT 9999 FEW025 23/18 Q1015 NOSIG
YBBN,2014-02-12 15:30,153.1292,-27.3917,71.60,66.20,83.09,90.00,4.00,0.00,29.94,M,6.21,M,FEW,M,M,M,2300.00,M,M,M,M,YBBN 121530Z 09004KT 9999 FEW023 22/19 Q1014
YBBN,2014-02-12 16:00,153.1292,-27.3917,71.60,66.20,83.09,100.00,4.00,0.00,29.94,M,6.21,M,FEW,M,M,M,2300.00,M,M,M,M,YBBN 121600Z 10004KT 9999 FEW023 22/19 Q1014
YBBN,2014-02-12 16:30,153.1292,-27.3917,69.80,64.40,82.98,110.00,4.00,0.00,29.94,M,6.21,M,FEW,SCT,M,M,2300.00,6500.00,M,M,M,YBBN 121630Z 11004KT 9999 FEW023 SCT065 21/18 Q1014
YBBN,2014-02-12 17:00,153.1292,-27.3917,69.80,64.40,82.98,210.00,5.00,0.00,29.94,M,6.21,M,FEW,BKN,M,M,2000.00,6500.00,M,M,M,YBBN 121700Z 21005KT 9999 FEW020 BKN065 21/18 Q1014
YBBN,2014-02-12 17:30,153.1292,-27.3917,69.80,66.20,88.34,200.00,2.00,0.00,29.91,M,6.21,M,FEW,BKN,M,M,2000.00,6300.00,M,M,M,YBBN 121730Z 20002KT 9999 FEW020 BKN063 21/19 Q1013
YBBN,2014-02-12 18:00,153.1292,-27.3917,69.80,64.40,82.98,0.00,0.00,0.00,29.91,M,6.21,M,FEW,M,M,M,2000.00,M,M,M,M,YBBN 121800Z 00000KT 9999 FEW020 21/18 Q1013
YBBN,2014-02-12 18:30,153.1292,-27.3917,69.80,64.40,82.98,0.00,0.00,0.00,29.91,M,6.21,M,FEW,M,M,M,2000.00,M,M,M,M,YBBN 121830Z 00000KT 9999 FEW020 21/18 Q1013
YBBN,2014-02-12 19:00,153.1292,-27.3917,68.00,64.40,88.26,260.00,3.00,0.00,29.91,M,6.21,M,FEW,M,M,M,1800.00,M,M,M,M,YBBN 121900Z 26003KT 9999 FEW018 20/18 Q1013 NOSIG
YBBN,2014-02-12 19:30,153.1292,-27.3917,68.00,64.40,88.26,230.00,4.00,0.00,29.94,M,6.21,M,FEW,M,M,M,1700.00,M,M,M,M,YBBN 121930Z 23004KT 9999 FEW017 20/18 Q1014
YBBN,2014-02-12 20:00,153.1292,-27.3917,69.80,64.40,82.98,200.00,4.00,0.00,29.94,M,6.21,M,FEW,M,M,M,1800.00,M,M,M,M,YBBN 122000Z 20004KT 9999 FEW018 21/18 Q1014 NOSIG
YBBN,2014-02-12 20:30,153.1292,-27.3917,69.80,66.20,88.34,200.00,5.00,0.00,29.94,M,6.21,M,FEW,M,M,M,2200.00,M,M,M,M,YBBN 122030Z 20005KT 9999 FEW022 21/19 Q1014
YBBN,2014-02-12 21:00,153.1292,-27.3917,73.40,66.20,78.19,190.00,5.00,0.00,29.94,M,6.21,M,FEW,M,M,M,2400.00,M,M,M,M,YBBN 122100Z 19005KT 9999 FEW024 23/19 Q1014 FM2200 12007KT 9999 SCT030
YBBN,2014-02-12 21:30,153.1292,-27.3917,75.20,66.20,73.61,210.00,6.00,0.00,29.94,M,6.21,M,FEW,SCT,M,M,2400.00,5700.00,M,M,M,YBBN 122130Z 21006KT 9999 FEW024 SCT057 24/19 Q1014
YBBN,2014-02-12 22:00,153.1292,-27.3917,77.00,64.40,65.12,210.00,5.00,0.00,29.97,M,6.21,M,FEW,BKN,M,M,3000.00,5900.00,M,M,M,YBBN 122200Z 21005KT 9999 FEW030 BKN059 25/18 Q1015 NOSIG
YBBN,2014-02-12 22:30,153.1292,-27.3917,77.00,64.40,65.12,270.00,6.00,0.00,29.97,M,6.21,M,FEW,M,M,M,3200.00,M,M,M,M,YBBN 122230Z 27006KT 9999 FEW032 25/18 Q1015 RMK HZ
YBBN,2014-02-12 23:00,153.1292,-27.3917,80.60,64.40,57.84,220.00,4.00,0.00,29.97,M,6.21,M,FEW,M,M,M,4000.00,M,M,M,M,YBBN 122300Z 22004KT 9999 FEW040 27/18 Q1015 NOSIG
YBBN,2014-02-12 23:30,153.1292,-27.3917,80.60,64.40,57.84,340.00,3.00,0.00,29.94,M,6.21,M,FEW,M,M,M,3300.00,M,M,M,M,YBBN 122330Z 34003KT 9999 FEW033 27/18 Q1014 RMK HZ
