#DEBUG: Format Typ    -> comma
#DEBUG: Time Period   -> 2012-01-13 00:00:00+00:00 2012-01-14 00:00:00+00:00
#DEBUG: Time Zone     -> Etc/UTC
#DEBUG: Data Contact   -> daryl herzmann akrherz@iastate.edu 515-294-5978
#DEBUG: Entries Found -> -1
station,valid,lon,lat,tmpf, dwpf, relh, drct, sknt, p01i, alti, mslp, vsby, gust, skyc1, skyc2, skyc3, skyc4, skyl1, skyl2, skyl3, skyl4, presentwx, metar
YBBN,2012-01-13 00:00,153.1292,-27.3917,80.60,59.00,47.79,60.00,10.00,M,30.00,M,6.21,M,SCT,   ,   ,   ,3500.00,M,M,M,M,YBBN 130000Z 06010KT 9999 SCT035 27/15 Q1016
YBBN,2012-01-13 00:30,153.1292,-27.3917,78.80,59.00,50.69,60.00,11.00,M,30.00,M,6.21,M,FEW,SCT,   ,   ,3000.00,3500.00,M,M,M,YBBN 130030Z 06011KT 9999 FEW030 SCT035 26/15 Q1016 RMK SHRA DIST SE
YBBN,2012-01-13 01:00,153.1292,-27.3917,78.80,57.20,47.52,40.00,12.00,M,30.00,M,6.21,M,SCT,   ,   ,   ,3700.00,M,M,M,M,YBBN 130100Z 04012KT 9999 SCT037 26/14 Q1016 NOSIG
YBBN,2012-01-13 01:30,153.1292,-27.3917,78.80,57.20,47.52,50.00,11.00,M,30.00,M,6.21,M,FEW,SCT,   ,   ,3300.00,4000.00,M,M,M,YBBN 130130Z 05011KT 9999 FEW033 SCT040 26/14 Q1016
YBBN,2012-01-13 02:00,153.1292,-27.3917,78.80,57.20,47.52,70.00,11.00,M,29.97,M,6.21,M,FEW,SCT,   ,   ,3300.00,4000.00,M,M,M,YBBN 130200Z 07011KT 9999 FEW033 SCT040 26/14 Q1015 NOSIG
YBBN,2012-01-13 02:30,153.1292,-27.3917,80.60,57.20,44.80,70.00,11.00,M,29.97,M,6.21,M,FEW,   ,   ,   ,4000.00,M,M,M,M,YBBN 130230Z 07011KT 9999 FEW040 27/14 Q1015
YBBN,2012-01-13 03:00,153.1292,-27.3917,80.60,59.00,47.79,70.00,11.00,M,29.97,M,6.21,M,FEW,   ,   ,   ,4000.00,M,M,M,M,YBBN 130300Z 07011KT 9999 FEW040 27/15 Q1015 NOSIG
YBBN,2012-01-13 03:30,153.1292,-27.3917,78.80,57.20,47.52,40.00,12.00,M,29.94,M,6.21,M,FEW,   ,   ,   ,4000.00,M,M,M,M,YBBN 130330Z 04012KT 9999 FEW040 26/14 Q1014
YBBN,2012-01-13 04:00,153.1292,-27.3917,80.60,57.20,44.80,60.00,12.00,M,29.94,M,6.21,M,FEW,   ,   ,   ,4000.00,M,M,M,M,YBBN 130400Z 06012KT 9999 FEW040 27/14 Q1014
YBBN,2012-01-13 04:30,153.1292,-27.3917,78.80,59.00,50.69,60.00,11.00,M,29.94,M,6.21,M,FEW,   ,   ,   ,4000.00,M,M,M,M,YBBN 130430Z 06011KT 9999 FEW040 26/15 Q1014
YBBN,2012-01-13 05:00,153.1292,-27.3917,78.80,59.00,50.69,60.00,12.00,M,29.91,M,6.21,M,FEW,BKN,   ,   ,4000.00,30000.00,M,M,M,YBBN 130500Z 06012KT 9999 FEW040 BKN300 26/15 Q1013 NOSIG
YBBN,2012-01-13 05:30,153.1292,-27.3917,77.00,59.00,53.80,60.00,11.00,M,29.91,M,6.21,M,FEW,SCT,   ,   ,4000.00,30000.00,M,M,M,YBBN 130530Z 06011KT 9999 FEW040 SCT300 25/15 Q1013
YBBN,2012-01-13 06:00,153.1292,-27.3917,77.00,57.20,50.43,60.00,12.00,M,29.91,M,6.21,M,FEW,   ,   ,   ,4000.00,M,M,M,M,YBBN 130600Z 06012KT 9999 FEW040 25/14 Q1013 NOSIG
YBBN,2012-01-13 06:30,153.1292,-27.3917,78.80,59.00,50.69,60.00,11.00,M,29.91,M,6.21,M,FEW,   ,   ,   ,4000.00,M,M,M,M,YBBN 130630Z 06011KT 9999 FEW040 26/15 Q1013
YBBN,2012-01-13 07:00,153.1292,-27.3917,77.00,59.00,53.80,70.00,11.00,M,29.94,M,6.21,M,FEW,SCT,   ,   ,3800.00,5300.00,M,M,M,YBBN 130700Z 07011KT 9999 FEW038 SCT053 25/15 Q1014 NOSIG
YBBN,2012-01-13 07:30,153.1292,-27.3917,75.20,59.00,57.12,70.00,10.00,M,29.94,M,6.21,M,FEW,SCT,   ,   ,3800.00,5500.00,M,M,M,YBBN 130730Z 07010KT 9999 FEW038 SCT055 24/15 Q1014
YBBN,2012-01-13 08:00,153.1292,-27.3917,75.20,57.20,53.55,60.00,9.00,M,29.94,M,6.21,M,FEW,   ,   ,   ,3600.00,M,M,M,M,YBBN 130800Z 06009KT 9999 FEW036 24/14 Q1014
YBBN,2012-01-13 08:30,153.1292,-27.3917,75.20,57.20,53.55,70.00,9.00,M,29.97,M,6.21,M,FEW,   ,   ,   ,3500.00,M,M,M,M,YBBN 130830Z 07009KT 9999 FEW035 24/14 Q1015
YBBN,2012-01-13 09:00,153.1292,-27.3917,73.40,57.20,56.88,70.00,10.00,M,29.97,M,6.21,M,FEW,   ,   ,   ,3800.00,M,M,M,M,YBBN 130900Z 07010KT 9999 FEW038 23/14 Q1015 NOSIG
YBBN,2012-01-13 09:30,153.1292,-27.3917,73.40,59.00,60.67,70.00,9.00,M,29.97,M,6.21,M,SCT,   ,   ,   ,3800.00,M,M,M,M,YBBN 130930Z 07009KT 9999 SCT038 23/15 Q1015
YBBN,2012-01-13 10:00,153.1292,-27.3917,73.40,59.00,60.67,60.00,8.00,M,29.97,M,6.21,M,FEW,   ,   ,   ,3800.00,M,M,M,M,YBBN 131000Z 06008KT 9999 FEW038 23/15 Q1015 NOSIG
YBBN,2012-01-13 10:30,153.1292,-27.3917,73.40,59.00,60.67,50.00,9.00,M,29.97,M,6.21,M,FEW,   ,   ,   ,3800.00,M,M,M,M,YBBN 131030Z 05009KT 9999 FEW038 23/15 Q1015
YBBN,2012-01-13 11:00,153.1292,-27.3917,71.60,59.00,64.48,50.00,8.00,M,29.97,M,6.21,M,FEW,SCT,   ,   ,3800.00,28000.00,M,M,M,YBBN 131100Z 05008KT 9999 FEW038 SCT280 22/15 Q1015 NOSIG
YBBN,2012-01-13 11:30,153.1292,-27.3917,73.40,59.00,60.67,70.00,8.00,M,29.97,M,6.21,M,FEW,SCT,   ,   ,3800.00,28000.00,M,M,M,YBBN 131130Z 07008KT 9999 FEW038 SCT280 23/15 Q1015
YBBN,2012-01-13 12:00,153.1292,-27.3917,73.40,59.00,60.67,60.00,6.00,M,29.97,M,6.21,M,FEW,SCT,   ,   ,3800.00,28000.00,M,M,M,YBBN 131200Z 06006KT 9999 FEW038 SCT280 23/15 Q1015
YBBN,2012-01-13 12:30,153.1292,-27.3917,73.40,59.00,60.67,60.00,6.00,M,29.97,M,6.21,M,SCT,   ,   ,   ,3800.00,M,M,M,M,YBBN 131230Z 06006KT 9999 SCT038 23/15 Q1015
YBBN,2012-01-13 13:00,153.1292,-27.3917,73.40,59.00,60.67,60.00,7.00,M,29.97,M,6.21,M,SCT,   ,   ,   ,3800.00,M,M,M,M,YBBN 131300Z 06007KT 9999 SCT038 23/15 Q1015 NOSIG
YBBN,2012-01-13 13:30,153.1292,-27.3917,69.80,59.00,68.55,50.00,7.00,M,29.97,M,6.21,M,SCT,   ,   ,   ,3800.00,M,M,M,M,YBBN 131330Z 05007KT 9999 SCT038 21/15 Q1015
YBBN,2012-01-13 14:00,153.1292,-27.3917,69.80,60.80,73.09,60.00,6.00,M,29.97,M,6.21,M,FEW,SCT,   ,   ,3000.00,3800.00,M,M,M,YBBN 131400Z 06006KT 9999 FEW030 SCT038 21/16 Q1015 NOSIG
YBBN,2012-01-13 14:30,153.1292,-27.3917,71.60,59.00,64.48,50.00,6.00,M,29.94,M,6.21,M,SCT,   ,   ,   ,3700.00,M,M,M,M,YBBN 131430Z 05006KT 9999 SCT037 22/15 Q1014
YBBN,2012-01-13 15:00,153.1292,-27.3917,71.60,59.00,64.48,50.00,7.00,M,29.94,M,6.21,M,BKN,   ,   ,   ,3700.00,M,M,M,M,YBBN 131500Z 05007KT 9999 BKN037 22/15 Q1014 NOSIG
YBBN,2012-01-13 15:30,153.1292,-27.3917,73.40,59.00,60.67,60.00,7.00,M,29.94,M,6.21,M,FEW,SCT,BKN,   ,3500.00,4000.00,24000.00,M,M,YBBN 131530Z 06007KT 9999 FEW035 SCT040 BKN240 23/15 Q1014
YBBN,2012-01-13 16:00,153.1292,-27.3917,71.60,59.00,64.48,70.00,7.00,M,29.91,M,6.21,M,FEW,SCT,   ,   ,3500.00,24000.00,M,M,M,YBBN 131600Z 07007KT 9999 FEW035 SCT240 22/15 Q1013
YBBN,2012-01-13 16:30,153.1292,-27.3917,71.60,59.00,64.48,60.00,6.00,M,29.91,M,6.21,M,FEW,SCT,   ,   ,3300.00,3800.00,M,M,M,YBBN 131630Z 06006KT 9999 FEW033 SCT038 22/15 Q1013
YBBN,2012-01-13 17:00,153.1292,-27.3917,71.60,57.20,60.44,60.00,5.00,M,29.91,M,6.21,M,FEW,SCT,   ,   ,3300.00,4000.00,M,M,M,YBBN 131700Z 06005KT 9999 FEW033 SCT040 22/14 Q1013 NOSIG
YBBN,2012-01-13 17:30,153.1292,-27.3917,71.60,59.00,64.48,70.00,4.00,M,29.91,M,6.21,M,FEW,SCT,   ,   ,3900.00,25000.00,M,M,M,YBBN 131730Z 07004KT 9999 FEW039 SCT250 22/15 Q1013
YBBN,2012-01-13 18:00,153.1292,-27.3917,68.00,59.00,72.92,60.00,5.00,M,29.91,M,6.21,M,SCT,   ,   ,   ,3700.00,M,M,M,M,YBBN 131800Z 06005KT 9999 SCT037 20/15 Q1013
YBBN,2012-01-13 18:30,153.1292,-27.3917,69.80,59.00,68.55,50.00,6.00,M,29.94,M,6.21,M,SCT,SCT,   ,   ,3400.00,10000.00,M,M,M,YBBN 131830Z 05006KT 9999 SCT034 SCT100 21/15 Q1014
YBBN,2012-01-13 19:00,153.1292,-27.3917,69.80,59.00,68.55,60.00,5.00,M,29.94,M,6.21,M,SCT,SCT,   ,   ,3500.00,11000.00,M,M,M,YBBN 131900Z 06005KT 9999 SCT035 SCT110 21/15 Q1014
YBBN,2012-01-13 19:30,153.1292,-27.3917,69.80,60.80,73.09,60.00,5.00,M,29.94,M,6.21,M,SCT,SCT,   ,   ,3500.00,10500.00,M,M,M,YBBN 131930Z 06005KT 9999 SCT035 SCT105 21/16 Q1014
YBBN,2012-01-13 20:00,153.1292,-27.3917,71.60,62.60,73.27,50.00,3.00,M,29.94,M,6.21,M,FEW,BKN,   ,   ,3500.00,27000.00,M,M,M,YBBN 132000Z 05003KT 9999 FEW035 BKN270 22/17 Q1014
YBBN,2012-01-13 20:30,153.1292,-27.3917,73.40,60.80,64.69,50.00,4.00,M,29.97,M,6.21,M,SCT,   ,   ,   ,3500.00,M,M,M,M,YBBN 132030Z 05004KT 9999 SCT035 23/16 Q1015
YBBN,2012-01-13 21:00,153.1292,-27.3917,75.20,60.80,60.90,60.00,6.00,M,29.97,M,6.21,M,SCT,SCT,   ,   ,3500.00,4800.00,M,M,M,YBBN 132100Z 06006KT 9999 SCT035 SCT048 24/16 Q1015 NOSIG
YBBN,2012-01-13 21:30,153.1292,-27.3917,75.20,59.00,57.12,50.00,6.00,M,29.97,M,6.21,M,SCT,BKN,   ,   ,3500.00,25000.00,M,M,M,YBBN 132130Z 05006KT 9999 SCT035 BKN250 24/15 Q1015
YBBN,2012-01-13 22:00,153.1292,-27.3917,77.00,60.80,57.36,50.00,7.00,M,29.97,M,6.21,M,SCT,BKN,   ,   ,3500.00,5000.00,M,M,M,YBBN 132200Z 05007KT 9999 SCT035 BKN050 25/16 Q1015
YBBN,2012-01-13 22:30,153.1292,-27.3917,77.00,60.80,57.36,30.00,8.00,M,29.97,M,6.21,M,SCT,BKN,   ,   ,3500.00,5000.00,M,M,M,YBBN 132230Z 03008KT 9999 SCT035 BKN050 25/16 Q1015
YBBN,2012-01-13 23:00,153.1292,-27.3917,78.80,60.80,54.05,50.00,9.00,M,29.97,M,6.21,M,SCT,BKN,   ,   ,3500.00,27000.00,M,M,M,YBBN 132300Z 05009KT 9999 SCT035 BKN270 26/16 Q1015
YBBN,2012-01-13 23:30,153.1292,-27.3917,77.00,60.80,57.36,40.00,9.00,M,29.97,M,6.21,M,FEW,SCT,BKN,   ,3500.00,5400.00,26000.00,M,M,YBBN 132330Z 04009KT 9999 FEW035 SCT054 BKN260 25/16 Q1015
