#DEBUG: Format Typ    -> comma
#DEBUG: Time Period   -> 2015-02-04 00:00:00+00:00 2015-02-05 00:00:00+00:00
#DEBUG: Time Zone     -> Etc/UTC
#DEBUG: Data Contact   -> daryl herzmann akrherz@iastate.edu 515-294-5978
#DEBUG: Entries Found -> -1
station,valid,lon,lat,tmpf, dwpf, relh, drct, sknt, p01i, alti, mslp, vsby, gust, skyc1, skyc2, skyc3, skyc4, skyl1, skyl2, skyl3, skyl4, presentwx, metar
YBBN,2015-02-04 00:00,153.1292,-27.3917,77.00,60.80,57.36,160.00,10.00,0.00,29.85,M,6.21,M,BKN,M,M,M,3500.00,M,M,M,M,YBBN 040000Z 16010KT 9999 BKN035 25/16 Q1011
YBBN,2015-02-04 00:30,153.1292,-27.3917,80.60,60.80,50.95,130.00,12.00,0.00,29.85,M,6.21,M,SCT,M,M,M,3500.00,M,M,M,M,YBBN 040030Z 13012KT 9999 SCT035 27/16 Q1011
YBBN,2015-02-04 01:00,153.1292,-27.3917,78.80,60.80,54.05,130.00,12.00,0.00,29.85,M,6.21,M,SCT,BKN,M,M,3500.00,4800.00,M,M,M,YBBN 040100Z 13012KT 9999 SCT035 BKN048 26/16 Q1011
YBBN,2015-02-04 01:30,153.1292,-27.3917,80.60,62.60,54.30,110.00,12.00,0.00,29.85,M,6.21,M,BKN,M,M,M,3800.00,M,M,M,M,YBBN 040130Z 11012KT 9999 BKN038 27/17 Q1011
YBBN,2015-02-04 02:00,153.1292,-27.3917,80.60,62.60,54.30,110.00,13.00,0.00,29.85,M,6.21,M,SCT,M,M,M,3800.00,M,M,M,M,YBBN 040200Z 11013KT 9999 SCT038 27/17 Q1011
YBBN,2015-02-04 02:30,153.1292,-27.3917,80.60,64.40,57.84,110.00,13.00,0.00,29.85,M,6.21,M,SCT,M,M,M,3800.00,M,M,M,M,YBBN 040230Z 11013KT 9999 SCT038 27/18 Q1011
YBBN,2015-02-04 03:00,153.1292,-27.3917,80.60,62.60,54.30,110.00,15.00,0.00,29.83,M,6.21,M,SCT,M,M,M,4000.00,M,M,M,M,YBBN 040300Z 11015KT 9999 SCT040 27/17 Q1010
YBBN,2015-02-04 03:30,153.1292,-27.3917,78.80,62.60,57.60,100.00,13.00,0.00,29.83,M,6.21,M,BKN,M,M,M,4000.00,M,M,M,M,YBBN 040330Z 10013KT 9999 BKN040 26/17 Q1010
YBBN,2015-02-04 04:00,153.1292,-27.3917,80.60,64.40,57.84,120.00,14.00,0.00,29.83,M,6.21,M,SCT,M,M,M,4000.00,M,M,M,M,YBBN 040400Z 12014KT 9999 SCT040 27/18 Q1010
YBBN,2015-02-04 04:30,153.1292,-27.3917,80.60,64.40,57.84,120.00,15.00,0.00,29.83,M,6.21,M,SCT,M,M,M,4500.00,M,M,M,M,YBBN 040430Z 12015KT 9999 SCT045 27/18 Q1010
YBBN,2015-02-04 05:00,153.1292,-27.3917,80.60,62.60,54.30,120.00,14.00,0.00,29.83,M,6.21,M,M,M,M,M,M,M,M,M,M,YBBN 040500Z 12014KT CAVOK 27/17 Q1010 NOSIG
YBBN,2015-02-04 05:30,153.1292,-27.3917,77.00,62.60,61.13,130.00,15.00,0.00,29.83,M,6.21,M,M,M,M,M,M,M,M,M,M,YBBN 040530Z 13015KT CAVOK 25/17 Q1010 RMK 5CU050
YBBN,2015-02-04 06:03,153.1292,-27.3917,78.80,62.60,57.60,120.00,15.00,0.00,29.83,M,6.21,26.00,FEW,M,M,M,4500.00,M,M,M,M,YBBN 040603Z 12015G26KT 9999 FEW045 26/17 Q1010
YBBN,2015-02-04 06:30,153.1292,-27.3917,77.00,60.80,57.36,120.00,15.00,0.00,29.83,M,6.21,M,FEW,M,M,M,4000.00,M,M,M,M,YBBN 040630Z 12015KT 9999 FEW040 25/16 Q1010 NOSIG
YBBN,2015-02-04 06:39,153.1292,-27.3917,78.80,62.60,57.60,120.00,16.00,0.00,29.85,M,6.21,26.00,FEW,M,M,M,4000.00,M,M,M,M,YBBN 040639Z 12016G26KT 9999 FEW040 26/17 Q1011
YBBN,2015-02-04 07:00,153.1292,-27.3917,78.80,59.00,50.69,120.00,14.00,0.00,29.85,M,6.21,M,FEW,M,M,M,4000.00,M,M,M,M,YBBN 040700Z 12014KT 9999 FEW040 26/15 Q1011 NOSIG
YBBN,2015-02-04 07:30,153.1292,-27.3917,77.00,59.00,53.80,130.00,15.00,0.00,29.85,M,6.21,M,FEW,M,M,M,4000.00,M,M,M,M,YBBN 040730Z 13015KT 9999 FEW040 25/15 Q1011
YBBN,2015-02-04 07:51,153.1292,-27.3917,77.00,60.80,57.36,140.00,15.00,0.00,29.85,M,6.21,25.00,M,M,M,M,M,M,M,M,M,YBBN 040751Z 14015G25KT CAVOK 25/16 Q1011
YBBN,2015-02-04 08:00,153.1292,-27.3917,77.00,60.80,57.36,140.00,14.00,0.00,29.85,M,6.21,25.00,FEW,SCT,M,M,3000.00,8000.00,M,M,M,YBBN 040800Z 14014G25KT 9999 FEW030 SCT080 25/16 Q1011
YBBN,2015-02-04 08:30,153.1292,-27.3917,77.00,59.00,53.80,140.00,13.00,0.00,29.88,M,6.21,M,FEW,BKN,M,M,3000.00,7000.00,M,M,M,YBBN 040830Z 14013KT 9999 FEW030 BKN070 25/15 Q1012
YBBN,2015-02-04 09:00,153.1292,-27.3917,77.00,59.00,53.80,140.00,11.00,0.00,29.91,M,6.21,M,FEW,SCT,BKN,M,3000.00,7500.00,8500.00,M,M,YBBN 040900Z 14011KT 9999 FEW030 SCT075 BKN085 25/15 Q1013
YBBN,2015-02-04 09:30,153.1292,-27.3917,75.20,59.00,57.12,150.00,10.00,0.00,29.91,M,6.21,M,FEW,SCT,BKN,M,3000.00,8500.00,23500.00,M,M,YBBN 040930Z 15010KT 9999 FEW030 SCT085 BKN235 24/15 Q1013
YBBN,2015-02-04 10:00,153.1292,-27.3917,75.20,59.00,57.12,150.00,9.00,0.00,29.91,M,6.21,M,FEW,BKN,M,M,4000.00,22000.00,M,M,M,YBBN 041000Z 15009KT 9999 FEW040 BKN220 24/15 Q1013
YBBN,2015-02-04 10:30,153.1292,-27.3917,75.20,59.00,57.12,160.00,7.00,0.00,29.94,M,6.21,M,FEW,BKN,M,M,4000.00,23000.00,M,M,M,YBBN 041030Z 16007KT 9999 FEW040 BKN230 24/15 Q1014
YBBN,2015-02-04 11:00,153.1292,-27.3917,73.40,59.00,60.67,180.00,10.00,0.00,29.94,M,6.21,M,FEW,BKN,M,M,4000.00,22000.00,M,M,M,YBBN 041100Z 18010KT 9999 FEW040 BKN220 23/15 Q1014
YBBN,2015-02-04 11:30,153.1292,-27.3917,73.40,59.00,60.67,170.00,9.00,0.00,29.94,M,6.21,M,FEW,BKN,M,M,4000.00,23000.00,M,M,M,YBBN 041130Z 17009KT 9999 FEW040 BKN230 23/15 Q1014
YBBN,2015-02-04 12:00,153.1292,-27.3917,73.40,59.00,60.67,170.00,9.00,0.00,29.94,M,6.21,M,FEW,BKN,M,M,4000.00,23000.00,M,M,M,YBBN 041200Z 17009KT 9999 FEW040 BKN230 23/15 Q1014
YBBN,2015-02-04 12:30,153.1292,-27.3917,73.40,59.00,60.67,160.00,9.00,0.00,29.97,M,6.21,M,FEW,SCT,BKN,M,3500.00,20000.00,22000.00,M,M,YBBN 041230Z 16009KT 9999 FEW035 SCT200 BKN220 23/15 Q1015
YBBN,2015-02-04 13:00,153.1292,-27.3917,73.40,59.00,60.67,170.00,9.00,0.00,29.97,M,6.21,M,FEW,SCT,M,M,4200.00,22000.00,M,M,M,YBBN 041300Z 17009KT 9999 FEW042 SCT220 23/15 Q1015
YBBN,2015-02-04 13:30,153.1292,-27.3917,71.60,59.00,64.48,190.00,8.00,0.00,29.97,M,6.21,M,FEW,SCT,M,M,4000.00,22000.00,M,M,M,YBBN 041330Z 19008KT 9999 FEW040 SCT220 22/15 Q1015
YBBN,2015-02-04 14:00,153.1292,-27.3917,71.60,59.00,64.48,190.00,8.00,0.00,29.97,M,6.21,M,FEW,SCT,M,M,3500.00,6000.00,M,M,M,YBBN 041400Z 19008KT 9999 FEW035 SCT060 22/15 Q1015
YBBN,2015-02-04 14:30,153.1292,-27.3917,71.60,59.00,64.48,190.00,8.00,0.00,29.97,M,6.21,M,SCT,SCT,M,M,3500.00,7500.00,M,M,M,YBBN 041430Z 19008KT 9999 SCT035 SCT075 22/15 Q1015
YBBN,2015-02-04 15:00,153.1292,-27.3917,71.60,59.00,64.48,160.00,10.00,0.00,29.94,M,6.21,M,FEW,SCT,M,M,3700.00,4500.00,M,M,M,YBBN 041500Z 16010KT 9999 FEW037 SCT045 22/15 Q1014
YBBN,2015-02-04 15:30,153.1292,-27.3917,71.60,60.80,68.75,170.00,8.00,0.00,29.94,M,6.21,M,FEW,SCT,BKN,M,3700.00,4300.00,5800.00,M,M,YBBN 041530Z 17008KT 9999 FEW037 SCT043 BKN058 22/16 Q1014
YBBN,2015-02-04 16:00,153.1292,-27.3917,71.60,60.80,68.75,190.00,7.00,0.00,29.94,M,6.21,M,FEW,SCT,BKN,M,3700.00,4500.00,6000.00,M,M,YBBN 041600Z 19007KT 9999 FEW037 SCT045 BKN060 22/16 Q1014
YBBN,2015-02-04 16:30,153.1292,-27.3917,71.60,60.80,68.75,150.00,5.00,0.00,29.94,M,6.21,M,FEW,SCT,BKN,M,1500.00,3000.00,4800.00,M,-SHRA,YBBN 041630Z 15005KT 9999 -SHRA FEW015 SCT030 BKN048 22/16 Q1014
YBBN,2015-02-04 17:00,153.1292,-27.3917,71.60,60.80,68.75,190.00,7.00,0.00,29.94,M,6.21,M,FEW,SCT,BKN,M,3000.00,4000.00,6500.00,M,M,YBBN 041700Z 19007KT 9999 FEW030 SCT040 BKN065 22/16 Q1014
YBBN,2015-02-04 17:30,153.1292,-27.3917,69.80,62.60,77.90,170.00,11.00,0.00,29.94,M,6.21,M,FEW,SCT,BKN,M,3000.00,3500.00,4500.00,M,-SHRA,YBBN 041730Z 17011KT 9999 -SHRA FEW030 SCT035 BKN045 21/17 Q1014
YBBN,2015-02-04 18:00,153.1292,-27.3917,69.80,62.60,77.90,190.00,7.00,0.00,29.94,M,6.21,M,FEW,SCT,BKN,M,3600.00,4500.00,6500.00,M,-SHRA,YBBN 041800Z 19007KT 9999 -SHRA FEW036 SCT045 BKN065 21/17 Q1014
YBBN,2015-02-04 18:30,153.1292,-27.3917,69.80,62.60,77.90,190.00,6.00,0.00,29.97,M,6.21,M,SCT,BKN,M,M,3600.00,4500.00,M,M,-SHRA,YBBN 041830Z 19006KT 9999 -SHRA SCT036 BKN045 21/17 Q1015
YBBN,2015-02-04 19:00,153.1292,-27.3917,68.00,62.60,82.86,230.00,5.00,0.00,29.97,M,6.21,M,FEW,SCT,BKN,M,3600.00,4500.00,5500.00,M,-SHRA,YBBN 041900Z 23005KT 9999 -SHRA FEW036 SCT045 BKN055 20/17 Q1015
YBBN,2015-02-04 19:30,153.1292,-27.3917,68.00,62.60,82.86,210.00,5.00,0.00,29.97,M,6.21,M,FEW,SCT,BKN,M,3000.00,4500.00,6000.00,M,-SHRA,YBBN 041930Z 21005KT 9999 -SHRA FEW030 SCT045 BKN060 20/17 Q1015
YBBN,2015-02-04 20:00,153.1292,-27.3917,68.00,62.60,82.86,200.00,6.00,0.00,30.00,M,6.21,M,FEW,SCT,BKN,M,1800.00,5000.00,7500.00,M,VCSH,YBBN 042000Z 20006KT 9999 VCSH FEW018 SCT050 BKN075 20/17 Q1016
YBBN,2015-02-04 20:30,153.1292,-27.3917,68.00,62.60,82.86,200.00,7.00,0.00,30.00,M,6.21,M,FEW,SCT,M,M,1800.00,7000.00,M,M,VCSH,YBBN 042030Z 20007KT 9999 VCSH FEW018 SCT070 20/17 Q1016
YBBN,2015-02-04 21:00,153.1292,-27.3917,69.80,60.80,73.09,200.00,5.00,0.00,30.00,M,6.21,M,FEW,SCT,BKN,M,1500.00,5000.00,7000.00,M,VCSH,YBBN 042100Z 20005KT 9999 VCSH FEW015 SCT050 BKN070 21/16 Q1016
YBBN,2015-02-04 21:30,153.1292,-27.3917,71.60,60.80,68.75,190.00,7.00,0.00,30.00,M,6.21,M,FEW,SCT,BKN,M,1500.00,5000.00,7000.00,M,M,YBBN 042130Z 19007KT 9999 FEW015 SCT050 BKN070 22/16 Q1016
YBBN,2015-02-04 22:00,153.1292,-27.3917,77.00,60.80,57.36,170.00,9.00,0.00,30.03,M,6.21,M,FEW,SCT,M,M,1500.00,7000.00,M,M,M,YBBN 042200Z 17009KT 9999 FEW015 SCT070 25/16 Q1017
YBBN,2015-02-04 22:30,153.1292,-27.3917,78.80,59.00,50.69,130.00,11.00,0.00,30.03,M,6.21,M,FEW,SCT,M,M,1500.00,7000.00,M,M,M,YBBN 042230Z 13011KT 9999 FEW015 SCT070 26/15 Q1017
YBBN,2015-02-04 23:00,153.1292,-27.3917,78.80,59.00,50.69,130.00,10.00,0.00,30.03,M,6.21,M,FEW,SCT,M,M,1500.00,7000.00,M,M,VCSH,YBBN 042300Z 13010KT 9999 VCSH FEW015 SCT070 26/15 Q1017 NOSIG
YBBN,2015-02-04 23:30,153.1292,-27.3917,78.80,59.00,50.69,120.00,12.00,0.00,30.03,M,6.21,M,FEW,SCT,BKN,M,2000.00,3800.00,6500.00,M,VCSH,YBBN 042330Z 12012KT 9999 VCSH FEW020 SCT038 BKN065 26/15 Q1017
