#DEBUG: Format Typ    -> comma
#DEBUG: Time Period   -> 2013-01-26 00:00:00+00:00 2013-01-27 00:00:00+00:00
#DEBUG: Time Zone     -> Etc/UTC
#DEBUG: Data Contact   -> daryl herzmann akrherz@iastate.edu 515-294-5978
#DEBUG: Entries Found -> -1
station,valid,lon,lat,tmpf, dwpf, relh, drct, sknt, p01i, alti, mslp, vsby, gust, skyc1, skyc2, skyc3, skyc4, skyl1, skyl2, skyl3, skyl4, presentwx, metar
YBBN,2013-01-26 00:00,153.1292,-27.3917,78.80,73.40,83.55,60.00,16.00,0.00,29.77,M,5.59,26.00,FEW,BKN,BKN,M,800.00,1700.00,6000.00,M,-SHRA VCSH,YBBN 260000Z 06016G26KT 9000 -SHRA VCSH FEW008 BKN017 BKN060 26/23 Q1008
YBBN,2013-01-26 00:30,153.1292,-27.3917,78.80,73.40,83.55,60.00,16.00,0.00,29.74,M,3.11,M,SCT,BKN,M,M,900.00,1600.00,M,M,SHRA VCSH,YBBN 260030Z 06016KT 5000 SHRA VCSH SCT009 BKN016 26/23 Q1007
YBBN,2013-01-26 01:00,153.1292,-27.3917,78.80,73.40,83.55,60.00,16.00,0.00,29.74,M,3.11,M,SCT,SCT,BKN,M,800.00,1300.00,3000.00,M,-RA,YBBN 260100Z 06016KT 5000 -RA SCT008 SCT013 BKN030 26/23 Q1007
YBBN,2013-01-26 01:30,153.1292,-27.3917,77.00,75.20,94.19,60.00,14.00,0.00,29.74,M,3.73,M,FEW,SCT,BKN,M,600.00,800.00,1300.00,M,-RA,YBBN 260130Z 06014KT 6000 -RA FEW006 SCT008 BKN013 25/24 Q1007
YBBN,2013-01-26 01:37,153.1292,-27.3917,77.00,75.20,94.19,60.00,15.00,0.00,29.74,M,3.11,M,FEW,SCT,BKN,M,600.00,800.00,1400.00,M,RA,YBBN 260137Z 06015KT 5000 3000S RA FEW006 SCT008 BKN014 25/24 Q1007
YBBN,2013-01-26 02:00,153.1292,-27.3917,77.00,73.40,88.67,60.00,15.00,0.00,29.74,M,3.73,M,FEW,BKN,M,M,700.00,1400.00,M,M,-RA,YBBN 260200Z 06015KT 6000 -RA FEW007 BKN014 25/23 Q1007
YBBN,2013-01-26 02:30,153.1292,-27.3917,77.00,73.40,88.67,60.00,15.00,0.00,29.74,M,3.73,M,FEW,SCT,BKN,M,900.00,1700.00,3200.00,M,-RA,YBBN 260230Z 06015KT 6000 -RA FEW009 SCT017 BKN032 25/23 Q1007
YBBN,2013-01-26 03:00,153.1292,-27.3917,78.80,75.20,88.75,60.00,18.00,0.00,29.71,M,3.73,M,FEW,SCT,BKN,M,900.00,1200.00,3200.00,M,SHRA VCSH,YBBN 260300Z 06018KT 6000 SHRA VCSH FEW009 SCT012 BKN032 26/24 Q1006
YBBN,2013-01-26 03:12,153.1292,-27.3917,78.80,75.20,88.75,60.00,16.00,0.00,29.71,M,3.73,26.00,FEW,SCT,BKN,M,900.00,1600.00,3800.00,M,SHRA VCSH,YBBN 260312Z 06016G26KT 6000 SHRA VCSH FEW009 SCT016 BKN038 26/24 Q1006
YBBN,2013-01-26 03:30,153.1292,-27.3917,77.00,75.20,94.19,50.00,15.00,0.00,29.71,M,3.11,M,SCT,SCT,BKN,M,900.00,1600.00,3500.00,M,SHRA VCSH,YBBN 260330Z 05015KT 5000 SHRA VCSH SCT009 SCT016 BKN035 25/24 Q1006
YBBN,2013-01-26 04:00,153.1292,-27.3917,77.00,75.20,94.19,60.00,15.00,0.00,29.71,M,3.73,M,SCT,SCT,BKN,M,900.00,1200.00,3400.00,M,-RA,YBBN 260400Z 06015KT 6000 -RA SCT009 SCT012 BKN034 25/24 Q1006 RESHRA
YBBN,2013-01-26 04:30,153.1292,-27.3917,78.80,75.20,88.75,60.00,15.00,0.00,29.71,M,3.73,M,SCT,SCT,BKN,M,900.00,1800.00,3200.00,M,-SHRADZ VCSH,YBBN 260430Z 06015KT 6000 -SHRADZ VCSH SCT009 SCT018 BKN032 26/24 Q1006
YBBN,2013-01-26 04:45,153.1292,-27.3917,78.80,75.20,88.75,60.00,15.00,0.00,29.71,M,5.59,M,FEW,SCT,BKN,M,1000.00,1800.00,3200.00,M,-SHRADZ VCSH,YBBN 260445Z 06015KT 9000 -SHRADZ VCSH FEW010 SCT018 BKN032 26/24 Q1006
YBBN,2013-01-26 05:00,153.1292,-27.3917,78.80,75.20,88.75,60.00,14.00,0.00,29.71,M,4.97,M,SCT,SCT,BKN,M,1000.00,1800.00,3200.00,M,-SHRA VCSH,YBBN 260500Z 06014KT 8000 -SHRA VCSH SCT010 SCT018 BKN032 26/24 Q1006
YBBN,2013-01-26 05:09,153.1292,-27.3917,78.80,73.40,83.55,60.00,15.00,0.00,29.71,M,3.73,M,SCT,SCT,BKN,M,1000.00,1800.00,3200.00,M,-SHRA VCSH,YBBN 260509Z 06015KT 6000 -SHRA VCSH SCT010 SCT018 BKN032 26/23 Q1006
YBBN,2013-01-26 05:30,153.1292,-27.3917,78.80,73.40,83.55,60.00,17.00,0.00,29.71,M,4.97,27.00,FEW,SCT,BKN,M,1200.00,1800.00,3300.00,M,-SHRA VCSH,YBBN 260530Z 06017G27KT 8000 -SHRA VCSH FEW012 SCT018 BKN033 26/23 Q1006
YBBN,2013-01-26 06:00,153.1292,-27.3917,77.00,73.40,88.67,60.00,15.00,0.00,29.71,M,3.73,M,FEW,SCT,BKN,M,900.00,1300.00,3000.00,M,-RA,YBBN 260600Z 06015KT 6000 -RA FEW009 SCT013 BKN030 25/23 Q1006
YBBN,2013-01-26 06:30,153.1292,-27.3917,78.80,73.40,83.55,60.00,15.00,0.00,29.68,M,3.73,M,FEW,SCT,BKN,M,800.00,1200.00,3200.00,M,-RA,YBBN 260630Z 06015KT 6000 -RA FEW008 SCT012 BKN032 26/23 Q1005
YBBN,2013-01-26 07:00,153.1292,-27.3917,77.00,73.40,88.67,60.00,15.00,0.00,29.71,M,4.97,M,FEW,SCT,BKN,M,900.00,1600.00,3000.00,M,-RA,YBBN 260700Z 06015KT 8000 -RA FEW009 SCT016 BKN030 25/23 Q1006
YBBN,2013-01-26 07:30,153.1292,-27.3917,78.80,73.40,83.55,60.00,16.00,0.00,29.71,M,5.59,M,FEW,SCT,BKN,M,900.00,1600.00,3000.00,M,-RA,YBBN 260730Z 06016KT 9000 -RA FEW009 SCT016 BKN030 26/23 Q1006
YBBN,2013-01-26 08:00,153.1292,-27.3917,77.00,73.40,88.67,60.00,16.00,0.00,29.71,M,4.35,M,FEW,SCT,BKN,M,1000.00,1500.00,2500.00,M,-RA VCSH,YBBN 260800Z 06016KT 7000 -RA VCSH FEW010 SCT015 BKN025 25/23 Q1006
YBBN,2013-01-26 08:30,153.1292,-27.3917,77.00,73.40,88.67,60.00,13.00,0.00,29.71,M,1.55,M,FEW,BKN,BKN,M,800.00,1500.00,2500.00,M,SHRA,YBBN 260830Z 06013KT 2500 7000NE SHRA FEW008 BKN015 BKN025 25/23 Q1006
YBBN,2013-01-26 09:00,153.1292,-27.3917,77.00,73.40,88.67,60.00,14.00,0.00,29.71,M,5.59,M,FEW,BKN,OVC,M,1200.00,1500.00,8000.00,M,-RA,YBBN 260900Z 06014KT 9000 -RA FEW012 BKN015 OVC080 25/23 Q1006
YBBN,2013-01-26 09:16,153.1292,-27.3917,77.00,75.20,94.19,60.00,14.00,0.00,29.74,M,3.73,M,SCT,BKN,BKN,M,1200.00,1500.00,3000.00,M,+SHRA,YBBN 260916Z 06014KT 6000 2000N +SHRA SCT012 BKN015 BKN030 25/24 Q1007
YBBN,2013-01-26 09:30,153.1292,-27.3917,77.00,73.40,88.67,50.00,18.00,0.00,29.74,M,4.35,M,FEW,BKN,OVC,M,1200.00,3400.00,8000.00,M,-RA,YBBN 260930Z 05018KT 7000 -RA FEW012 BKN034 OVC080 25/23 Q1007
YBBN,2013-01-26 10:00,153.1292,-27.3917,77.00,73.40,88.67,60.00,15.00,0.00,29.74,M,6.21,25.00,FEW,SCT,OVC,M,1500.00,5000.00,11000.00,M,-RA,YBBN 261000Z 06015G25KT 9999 -RA FEW015 SCT050 OVC110 25/23 Q1007
YBBN,2013-01-26 10:30,153.1292,-27.3917,77.00,73.40,88.67,60.00,16.00,0.00,29.74,M,5.59,M,SCT,BKN,BKN,M,1500.00,3000.00,5000.00,M,-RA,YBBN 261030Z 06016KT 9000 -RA SCT015 BKN030 BKN050 25/23 Q1007
YBBN,2013-01-26 11:00,153.1292,-27.3917,77.00,75.20,94.19,50.00,16.00,0.00,29.74,M,3.73,27.00,FEW,BKN,BKN,M,1100.00,1600.00,3800.00,M,-RA,YBBN 261100Z 05016G27KT 6000 -RA FEW011 BKN016 BKN038 25/24 Q1007
YBBN,2013-01-26 11:30,153.1292,-27.3917,73.40,69.80,88.51,50.00,18.00,0.00,29.74,M,3.11,35.00,FEW,BKN,BKN,M,900.00,1500.00,3500.00,M,-RA,YBBN 261130Z 05018G35KT 5000 -RA FEW009 BKN015 BKN035 23/21 Q1007
YBBN,2013-01-26 12:00,153.1292,-27.3917,77.00,73.40,88.67,60.00,15.00,0.00,29.74,M,3.73,M,SCT,BKN,OVC,M,1400.00,4500.00,8500.00,M,-RA,YBBN 261200Z 06015KT 6000 -RA SCT014 BKN045 OVC085 25/23 Q1007
YBBN,2013-01-26 12:30,153.1292,-27.3917,77.00,75.20,94.19,70.00,14.00,0.00,29.71,M,4.97,M,BKN,SCT,OVC,M,1300.00,5000.00,8100.00,M,-RA,YBBN 261230Z 07014KT 8000 -RA BKN013 SCT050 OVC081 25/24 Q1006
YBBN,2013-01-26 12:49,153.1292,-27.3917,77.00,75.20,94.19,70.00,15.00,0.00,29.71,M,2.49,32.00,BKN,BKN,BKN,M,1300.00,2500.00,4000.00,M,RA,YBBN 261249Z 07015G32KT 4000 RA BKN013 BKN025 BKN040 25/24 Q1006
YBBN,2013-01-26 13:00,153.1292,-27.3917,77.00,75.20,94.19,60.00,18.00,0.00,29.71,M,2.61,28.00,BKN,BKN,OVC,M,1200.00,1800.00,2400.00,M,+RA,YBBN 261300Z AUTO 06018G28KT 4200 +RA BKN012 BKN018 OVC024 25/24 Q1006
YBBN,2013-01-26 13:23,153.1292,-27.3917,77.00,73.40,88.67,70.00,17.00,0.00,29.71,M,5.59,M,FEW,BKN,BKN,M,1200.00,2100.00,5300.00,M,-RA,YBBN 261323Z 07017KT 9000 -RA FEW012 BKN021 BKN053 25/23 Q1006
YBBN,2013-01-26 13:30,153.1292,-27.3917,77.00,75.20,94.19,70.00,17.00,0.00,29.71,M,6.21,M,FEW,BKN,OVC,M,1400.00,2000.00,9000.00,M,-RA,YBBN 261330Z 07017KT 9999 -RA FEW014 BKN020 OVC090 25/24 Q1006
YBBN,2013-01-26 14:00,153.1292,-27.3917,77.00,73.40,88.67,70.00,16.00,0.00,29.71,M,5.59,M,SCT,BKN,OVC,M,1400.00,2200.00,8000.00,M,-RA,YBBN 261400Z 07016KT 9000 -RA SCT014 BKN022 OVC080 25/23 Q1006
YBBN,2013-01-26 14:12,153.1292,-27.3917,77.00,73.40,88.67,60.00,18.00,0.00,29.68,M,3.73,30.00,SCT,BKN,BKN,M,1400.00,2200.00,3500.00,M,RA,YBBN 261412Z 06018G30KT 6000 RA SCT014 BKN022 BKN035 25/23 Q1005
YBBN,2013-01-26 14:30,153.1292,-27.3917,77.00,73.40,88.67,50.00,18.00,0.00,29.68,M,4.97,M,FEW,SCT,OVC,M,1400.00,2600.00,8000.00,M,-RA,YBBN 261430Z 05018KT 8000 -RA FEW014 SCT026 OVC080 25/23 Q1005
YBBN,2013-01-26 15:00,153.1292,-27.3917,77.00,73.40,88.67,60.00,19.00,0.00,29.68,M,3.73,29.00,SCT,BKN,BKN,M,1500.00,2500.00,6000.00,M,-RA,YBBN 261500Z 06019G29KT 6000 -RA SCT015 BKN025 BKN060 25/23 Q1005
YBBN,2013-01-26 15:30,153.1292,-27.3917,75.20,71.60,88.59,60.00,19.00,0.00,29.68,M,4.97,29.00,FEW,SCT,OVC,M,1500.00,4500.00,11000.00,M,-RA,YBBN 261530Z 06019G29KT 8000 -RA FEW015 SCT045 OVC110 24/22 Q1005
YBBN,2013-01-26 16:00,153.1292,-27.3917,75.20,73.40,94.14,60.00,16.00,0.00,29.65,M,4.35,M,FEW,BKN,OVC,M,1500.00,6000.00,10000.00,M,-RA,YBBN 261600Z 06016KT 7000 -RA FEW015 BKN060 OVC100 24/23 Q1004
YBBN,2013-01-26 16:30,153.1292,-27.3917,77.00,73.40,88.67,60.00,18.00,0.00,29.65,M,3.11,30.00,FEW,SCT,OVC,M,1200.00,2500.00,10000.00,M,-RA,YBBN 261630Z 06018G30KT 5000 -RA FEW012 SCT025 OVC100 25/23 Q1004
YBBN,2013-01-26 16:31,153.1292,-27.3917,77.00,73.40,88.67,60.00,18.00,0.00,29.65,M,3.73,30.00,FEW,SCT,OVC,M,1200.00,2500.00,10000.00,M,-RA,YBBN 261631Z 06018G30KT 6000 -RA FEW012 SCT025 OVC100 25/23 Q1004
YBBN,2013-01-26 17:00,153.1292,-27.3917,77.00,73.40,88.67,70.00,18.00,0.00,29.65,M,3.73,28.00,FEW,BKN,OVC,M,1200.00,5000.00,10000.00,M,-RA,YBBN 261700Z 07018G28KT 6000 -RA FEW012 BKN050 OVC100 25/23 Q1004
YBBN,2013-01-26 17:30,153.1292,-27.3917,77.00,71.60,83.44,60.00,17.00,0.00,29.65,M,4.97,M,SCT,SCT,OVC,M,1400.00,2000.00,8500.00,M,-RA,YBBN 261730Z 06017KT 8000 -RA SCT014 SCT020 OVC085 25/22 Q1004
YBBN,2013-01-26 17:41,153.1292,-27.3917,75.20,71.60,88.59,60.00,15.00,0.00,29.62,M,4.97,25.00,SCT,BKN,OVC,M,1200.00,6000.00,8500.00,M,-RA,YBBN 261741Z 06015G25KT 8000 -RA SCT012 BKN060 OVC085 24/22 Q1003
YBBN,2013-01-26 18:00,153.1292,-27.3917,75.20,73.40,94.14,70.00,15.00,0.00,29.62,M,4.97,25.00,SCT,BKN,OVC,M,1400.00,2000.00,9000.00,M,-RA,YBBN 261800Z 07015G25KT 8000 -RA SCT014 BKN020 OVC090 24/23 Q1003
YBBN,2013-01-26 18:30,153.1292,-27.3917,75.20,73.40,94.14,60.00,16.00,0.00,29.65,M,3.73,26.00,SCT,BKN,OVC,M,1400.00,2000.00,8700.00,M,-RA,YBBN 261830Z 06016G26KT 6000 -RA SCT014 BKN020 OVC087 24/23 Q1004
YBBN,2013-01-26 18:42,153.1292,-27.3917,75.20,73.40,94.14,70.00,17.00,0.00,29.65,M,3.11,M,BKN,OVC,M,M,1400.00,8000.00,M,M,-RA,YBBN 261842Z 07017KT 5000 -RA BKN014 OVC080 24/23 Q1004
YBBN,2013-01-26 19:00,153.1292,-27.3917,75.20,73.40,94.14,70.00,15.00,0.00,29.65,M,3.11,M,BKN,BKN,OVC,M,1400.00,2500.00,7500.00,M,-RA,YBBN 261900Z 07015KT 5000 -RA BKN014 BKN025 OVC075 24/23 Q1004
YBBN,2013-01-26 19:08,153.1292,-27.3917,75.20,73.40,94.14,70.00,16.00,0.00,29.65,M,3.11,26.00,BKN,BKN,OVC,M,1400.00,5500.00,7500.00,M,RA,YBBN 261908Z 07016G26KT 5000 RA BKN014 BKN055 OVC075 24/23 Q1004
YBBN,2013-01-26 19:30,153.1292,-27.3917,75.20,73.40,94.14,70.00,16.00,0.00,29.65,M,3.73,26.00,FEW,BKN,OVC,M,1200.00,1400.00,7200.00,M,RA,YBBN 261930Z 07016G26KT 6000 3000N RA FEW012 BKN014 OVC072 24/23 Q1004
YBBN,2013-01-26 20:00,153.1292,-27.3917,75.20,73.40,94.14,70.00,17.00,0.00,29.65,M,3.11,27.00,BKN,BKN,OVC,M,1400.00,2200.00,8000.00,M,-RA,YBBN 262000Z 07017G27KT 5000 -RA BKN014 BKN022 OVC080 24/23 Q1004
YBBN,2013-01-26 20:30,153.1292,-27.3917,75.20,73.40,94.14,70.00,16.00,0.00,29.65,M,2.49,26.00,FEW,SCT,BKN,M,700.00,900.00,1700.00,M,RA,YBBN 262030Z 07016G26KT 4000 RA FEW007 SCT009 BKN017 24/23 Q1004
YBBN,2013-01-26 21:00,153.1292,-27.3917,75.20,73.40,94.14,70.00,19.00,0.00,29.65,M,2.49,32.00,FEW,SCT,BKN,M,700.00,900.00,1600.00,M,RA,YBBN 262100Z 07019G32KT 4000 RA FEW007 SCT009 BKN016 24/23 Q1004
YBBN,2013-01-26 21:30,153.1292,-27.3917,75.20,73.40,94.14,70.00,18.00,0.00,29.65,M,2.49,33.00,SCT,SCT,BKN,M,700.00,900.00,1400.00,M,RA,YBBN 262130Z 07018G33KT 4000 RA SCT007 SCT009 BKN014 24/23 Q1004
YBBN,2013-01-26 22:00,153.1292,-27.3917,75.20,73.40,94.14,70.00,17.00,0.00,29.62,M,2.49,29.00,SCT,SCT,BKN,M,700.00,900.00,1200.00,M,RA,YBBN 262200Z 07017G29KT 4000 RA SCT007 SCT009 BKN012 24/23 Q1003
YBBN,2013-01-26 22:20,153.1292,-27.3917,75.20,73.40,94.14,80.00,17.00,0.00,29.62,M,3.11,27.00,FEW,SCT,BKN,M,700.00,1000.00,1400.00,M,RA,YBBN 262220Z 08017G27KT 5000 RA FEW007 SCT010 BKN014 24/23 Q1003
YBBN,2013-01-26 22:30,153.1292,-27.3917,77.00,73.40,88.67,80.00,19.00,0.00,29.62,M,3.73,32.00,FEW,SCT,BKN,M,700.00,1200.00,1500.00,M,-RA,YBBN 262230Z 08019G32KT 6000 -RA FEW007 SCT012 BKN015 25/23 Q1003
YBBN,2013-01-26 23:00,153.1292,-27.3917,77.00,73.40,88.67,70.00,20.00,0.00,29.62,M,3.11,M,FEW,SCT,BKN,M,700.00,1100.00,1500.00,M,-RA,YBBN 262300Z 07020KT 5000 -RA FEW007 SCT011 BKN015 25/23 Q1003
YBBN,2013-01-26 23:06,153.1292,-27.3917,77.00,73.40,88.67,70.00,20.00,0.00,29.62,M,3.11,31.00,FEW,SCT,BKN,M,700.00,1100.00,1500.00,M,-RA,YBBN 262306Z 07020G31KT 5000 -RA FEW007 SCT011 BKN015 25/23 Q1003
YBBN,2013-01-26 23:21,153.1292,-27.3917,77.00,73.40,88.67,70.00,20.00,0.00,29.62,M,3.11,M,FEW,SCT,BKN,M,700.00,1100.00,1500.00,M,RA,YBBN 262321Z 07020KT 5000 4000S RA FEW007 SCT011 BKN015 25/23 Q1003
YBBN,2013-01-26 23:30,153.1292,-27.3917,77.00,73.40,88.67,70.00,18.00,0.00,29.62,M,3.11,32.00,FEW,SCT,BKN,M,700.00,1200.00,2000.00,M,RA,YBBN 262330Z 07018G32KT 5000 4000S RA FEW007 SCT012 BKN020 25/23 Q1003 RESHRA
