#DEBUG: Format Typ    -> comma
#DEBUG: Time Period   -> 2013-12-18 00:00:00+00:00 2013-12-19 00:00:00+00:00
#DEBUG: Time Zone     -> Etc/UTC
#DEBUG: Data Contact   -> daryl herzmann akrherz@iastate.edu 515-294-5978
#DEBUG: Entries Found -> -1
station,valid,lon,lat,tmpf, dwpf, relh, drct, sknt, p01i, alti, mslp, vsby, gust, skyc1, skyc2, skyc3, skyc4, skyl1, skyl2, skyl3, skyl4, presentwx, metar
YBBN,2013-12-18 00:00,153.1292,-27.3917,78.80,55.40,44.52,110.00,12.00,0.00,30.15,M,6.21,M,M,M,M,M,M,M,M,M,M,YBBN 180000Z 11012KT CAVOK 26/13 Q1021
YBBN,2013-12-18 00:30,153.1292,-27.3917,78.80,57.20,47.52,110.00,11.00,0.00,30.15,M,6.21,M,M,M,M,M,M,M,M,M,M,YBBN 180030Z 11011KT CAVOK 26/14 Q1021
YBBN,2013-12-18 01:00,153.1292,-27.3917,78.80,59.00,50.69,110.00,12.00,0.00,30.15,M,6.21,M,FEW,M,M,M,4500.00,M,M,M,M,YBBN 180100Z 11012KT 9999 FEW045 26/15 Q1021 NOSIG
YBBN,2013-12-18 01:30,153.1292,-27.3917,78.80,59.00,50.69,120.00,13.00,0.00,30.15,M,6.21,M,FEW,M,M,M,4500.00,M,M,M,M,YBBN 180130Z 12013KT 9999 FEW045 26/15 Q1021
YBBN,2013-12-18 02:00,153.1292,-27.3917,78.80,55.40,44.52,110.00,14.00,0.00,30.15,M,6.21,M,M,M,M,M,M,M,M,M,M,YBBN 180200Z 11014KT CAVOK 26/13 Q1021 NOSIG
YBBN,2013-12-18 02:30,153.1292,-27.3917,78.80,55.40,44.52,110.00,14.00,0.00,30.15,M,6.21,M,M,M,M,M,M,M,M,M,M,YBBN 180230Z 11014KT CAVOK 26/13 Q1021
YBBN,2013-12-18 03:00,153.1292,-27.3917,78.80,57.20,47.52,110.00,11.00,0.00,30.12,M,6.21,M,M,M,M,M,M,M,M,M,M,YBBN 180300Z 11011KT CAVOK 26/14 Q1020 NOSIG
YBBN,2013-12-18 03:30,153.1292,-27.3917,80.60,57.20,44.80,100.00,13.00,0.00,30.12,M,6.21,M,M,M,M,M,M,M,M,M,M,YBBN 180330Z 10013KT CAVOK 27/14 Q1020
YBBN,2013-12-18 04:00,153.1292,-27.3917,78.80,57.20,47.52,120.00,13.00,0.00,30.12,M,6.21,M,M,M,M,M,M,M,M,M,M,YBBN 180400Z 12013KT CAVOK 26/14 Q1020 NOSIG
YBBN,2013-12-18 04:30,153.1292,-27.3917,78.80,55.40,44.52,110.00,12.00,0.00,30.12,M,6.21,M,M,M,M,M,M,M,M,M,M,YBBN 180430Z 11012KT CAVOK 26/13 Q1020
YBBN,2013-12-18 05:00,153.1292,-27.3917,78.80,51.80,39.02,120.00,13.00,0.00,30.12,M,6.21,M,M,M,M,M,M,M,M,M,M,YBBN 180500Z 12013KT CAVOK 26/11 Q1020 NOSIG
YBBN,2013-12-18 05:30,153.1292,-27.3917,78.80,51.80,39.02,120.00,14.00,0.00,30.12,M,6.21,M,M,M,M,M,M,M,M,M,M,YBBN 180530Z 12014KT CAVOK 26/11 Q1020
YBBN,2013-12-18 06:00,153.1292,-27.3917,78.80,51.80,39.02,110.00,13.00,0.00,30.12,M,6.21,M,M,M,M,M,M,M,M,M,M,YBBN 180600Z 11013KT CAVOK 26/11 Q1020 NOSIG
YBBN,2013-12-18 06:30,153.1292,-27.3917,77.00,53.60,44.25,110.00,12.00,0.00,30.12,M,6.21,M,M,M,M,M,M,M,M,M,M,YBBN 180630Z 11012KT CAVOK 25/12 Q1020
YBBN,2013-12-18 07:00,153.1292,-27.3917,75.20,57.20,53.55,110.00,13.00,0.00,30.12,M,6.21,M,FEW,M,M,M,4000.00,M,M,M,M,YBBN 180700Z 11013KT 9999 FEW040 24/14 Q1020 NOSIG
YBBN,2013-12-18 07:30,153.1292,-27.3917,75.20,57.20,53.55,110.00,11.00,0.00,30.15,M,6.21,M,FEW,M,M,M,4000.00,M,M,M,M,YBBN 180730Z 11011KT 9999 FEW040 24/14 Q1021
YBBN,2013-12-18 08:00,153.1292,-27.3917,73.40,57.20,56.88,100.00,11.00,0.00,30.15,M,6.21,M,FEW,M,M,M,4000.00,M,M,M,M,YBBN 180800Z 10011KT 9999 FEW040 23/14 Q1021 NOSIG
YBBN,2013-12-18 08:30,153.1292,-27.3917,73.40,55.40,53.29,110.00,10.00,0.00,30.15,M,6.21,M,SCT,M,M,M,4000.00,M,M,M,M,YBBN 180830Z 11010KT 9999 SCT040 23/13 Q1021
YBBN,2013-12-18 09:00,153.1292,-27.3917,73.40,55.40,53.29,110.00,10.00,0.00,30.15,M,6.21,M,FEW,M,M,M,4000.00,M,M,M,M,YBBN 180900Z 11010KT 9999 FEW040 23/13 Q1021 NOSIG
YBBN,2013-12-18 09:30,153.1292,-27.3917,73.40,57.20,56.88,110.00,9.00,0.00,30.18,M,6.21,M,FEW,M,M,M,4000.00,M,M,M,M,YBBN 180930Z 11009KT 9999 FEW040 23/14 Q1022
YBBN,2013-12-18 10:00,153.1292,-27.3917,73.40,57.20,56.88,110.00,10.00,0.00,30.18,M,6.21,M,SCT,M,M,M,3200.00,M,M,M,M,YBBN 181000Z 11010KT 9999 SCT032 23/14 Q1022 NOSIG
YBBN,2013-12-18 10:30,153.1292,-27.3917,73.40,57.20,56.88,100.00,9.00,0.00,30.18,M,6.21,M,FEW,M,M,M,4000.00,M,M,M,M,YBBN 181030Z 10009KT 9999 FEW040 23/14 Q1022
YBBN,2013-12-18 11:00,153.1292,-27.3917,73.40,55.40,53.29,110.00,9.00,0.00,30.18,M,6.21,M,FEW,M,M,M,4000.00,M,M,M,M,YBBN 181100Z 11009KT 9999 FEW040 23/13 Q1022
YBBN,2013-12-18 11:30,153.1292,-27.3917,73.40,57.20,56.88,110.00,9.00,0.00,30.18,M,6.21,M,FEW,M,M,M,3800.00,M,M,M,M,YBBN 181130Z 11009KT 9999 FEW038 23/14 Q1022
YBBN,2013-12-18 12:00,153.1292,-27.3917,73.40,55.40,53.29,100.00,9.00,0.00,30.18,M,6.21,M,SCT,M,M,M,3800.00,M,M,M,M,YBBN 181200Z 10009KT 9999 SCT038 23/13 Q1022
YBBN,2013-12-18 12:30,153.1292,-27.3917,71.60,55.40,56.63,110.00,8.00,0.00,30.18,M,6.21,M,FEW,M,M,M,4000.00,M,M,M,M,YBBN 181230Z 11008KT 9999 FEW040 22/13 Q1022
YBBN,2013-12-18 13:00,153.1292,-27.3917,71.60,55.40,56.63,110.00,8.00,0.00,30.18,M,6.21,M,FEW,M,M,M,4000.00,M,M,M,M,YBBN 181300Z 11008KT 9999 FEW040 22/13 Q1022 NOSIG
YBBN,2013-12-18 13:30,153.1292,-27.3917,71.60,55.40,56.63,110.00,8.00,0.00,30.18,M,6.21,M,FEW,M,M,M,4000.00,M,M,M,M,YBBN 181330Z 11008KT 9999 FEW040 22/13 Q1022
YBBN,2013-12-18 14:00,153.1292,-27.3917,71.60,57.20,60.44,120.00,8.00,0.00,30.15,M,6.21,M,FEW,M,M,M,4000.00,M,M,M,M,YBBN 181400Z 12008KT 9999 FEW040 22/14 Q1021
YBBN,2013-12-18 14:30,153.1292,-27.3917,71.60,53.60,53.03,110.00,6.00,0.00,30.15,M,6.21,M,FEW,M,M,M,4000.00,M,M,M,M,YBBN 181430Z 11006KT 9999 FEW040 22/12 Q1021
YBBN,2013-12-18 15:00,153.1292,-27.3917,71.60,55.40,56.63,110.00,6.00,0.00,30.15,M,6.21,M,FEW,M,M,M,4000.00,M,M,M,M,YBBN 181500Z 11006KT 9999 FEW040 22/13 Q1021
YBBN,2013-12-18 15:30,153.1292,-27.3917,69.80,57.20,64.26,130.00,8.00,0.00,30.12,M,6.21,M,FEW,M,M,M,4000.00,M,M,M,M,YBBN 181530Z 13008KT 9999 FEW040 21/14 Q1020
YBBN,2013-12-18 16:00,153.1292,-27.3917,69.80,57.20,64.26,140.00,5.00,0.00,30.12,M,6.21,M,FEW,M,M,M,3500.00,M,M,M,M,YBBN 181600Z 14005KT 9999 FEW035 21/14 Q1020
YBBN,2013-12-18 16:30,153.1292,-27.3917,68.00,57.20,68.35,140.00,7.00,0.00,30.12,M,6.21,M,FEW,M,M,M,3000.00,M,M,M,M,YBBN 181630Z 14007KT 9999 FEW030 20/14 Q1020
YBBN,2013-12-18 17:00,153.1292,-27.3917,68.00,55.40,64.04,170.00,6.00,0.00,30.12,M,6.21,M,FEW,M,M,M,2500.00,M,M,M,M,YBBN 181700Z 17006KT 9999 FEW025 20/13 Q1020
YBBN,2013-12-18 17:30,153.1292,-27.3917,68.00,55.40,64.04,160.00,5.00,0.00,30.12,M,6.21,M,FEW,M,M,M,2500.00,M,M,M,M,YBBN 181730Z 16005KT 9999 FEW025 20/13 Q1020
YBBN,2013-12-18 18:00,153.1292,-27.3917,66.20,57.20,72.74,150.00,5.00,0.00,30.12,M,6.21,M,FEW,M,M,M,2400.00,M,M,M,M,YBBN 181800Z 15005KT 9999 FEW024 19/14 Q1020
YBBN,2013-12-18 18:30,153.1292,-27.3917,66.20,57.20,72.74,170.00,4.00,0.00,30.12,M,6.21,M,FEW,M,M,M,2400.00,M,M,M,M,YBBN 181830Z 17004KT 9999 FEW024 19/14 Q1020
YBBN,2013-12-18 19:00,153.1292,-27.3917,66.20,57.20,72.74,190.00,4.00,0.00,30.12,M,6.21,M,FEW,SCT,M,M,2400.00,6000.00,M,M,M,YBBN 181900Z 19004KT 9999 FEW024 SCT060 19/14 Q1020 NOSIG
YBBN,2013-12-18 19:30,153.1292,-27.3917,64.40,59.00,82.62,200.00,5.00,0.00,30.15,M,6.21,M,FEW,SCT,M,M,2000.00,6000.00,M,M,M,YBBN 181930Z 20005KT 9999 FEW020 SCT060 18/15 Q1021
YBBN,2013-12-18 20:00,153.1292,-27.3917,68.00,59.00,72.92,200.00,7.00,0.00,30.15,M,6.21,M,FEW,SCT,M,M,2000.00,6000.00,M,M,M,YBBN 182000Z 20007KT 9999 FEW020 SCT060 20/15 Q1021 NOSIG
YBBN,2013-12-18 20:30,153.1292,-27.3917,71.60,59.00,64.48,180.00,5.00,0.00,30.15,M,6.21,M,FEW,SCT,M,M,2300.00,3500.00,M,M,M,YBBN 182030Z 18005KT 9999 FEW023 SCT035 22/15 Q1021
YBBN,2013-12-18 21:00,153.1292,-27.3917,71.60,59.00,64.48,170.00,6.00,0.00,30.15,M,6.21,M,FEW,BKN,M,M,2800.00,6000.00,M,M,M,YBBN 182100Z 17006KT 9999 FEW028 BKN060 22/15 Q1021 NOSIG
YBBN,2013-12-18 21:30,153.1292,-27.3917,73.40,59.00,60.67,150.00,6.00,0.00,30.15,M,6.21,M,FEW,BKN,M,M,3000.00,6000.00,M,M,VCSH,YBBN 182130Z 15006KT 9999 VCSH FEW030 BKN060 23/15 Q1021
YBBN,2013-12-18 22:00,153.1292,-27.3917,73.40,59.00,60.67,110.00,9.00,0.00,30.18,M,6.21,M,SCT,BKN,M,M,3000.00,5800.00,M,M,-SHRA VCSH,YBBN 182200Z 11009KT 9999 -SHRA VCSH SCT030 BKN058 23/15 Q1022 NOSIG
YBBN,2013-12-18 22:30,153.1292,-27.3917,75.20,59.00,57.12,120.00,9.00,0.00,30.18,M,6.21,M,FEW,BKN,M,M,3000.00,6000.00,M,M,VCSH,YBBN 182230Z 12009KT 9999 VCSH FEW030 BKN060 24/15 Q1022
YBBN,2013-12-18 23:00,153.1292,-27.3917,77.00,57.20,50.43,120.00,11.00,0.00,30.18,M,6.21,M,SCT,BKN,M,M,2800.00,6000.00,M,M,M,YBBN 182300Z 12011KT 9999 SCT028 BKN060 25/14 Q1022 NOSIG
YBBN,2013-12-18 23:30,153.1292,-27.3917,78.80,59.00,50.69,120.00,12.00,0.00,30.18,M,6.21,M,SCT,M,M,M,3000.00,M,M,M,M,YBBN 182330Z 12012KT 9999 SCT030 26/15 Q1022
