#DEBUG: Format Typ    -> comma
#DEBUG: Time Period   -> 2015-07-28 00:00:00+00:00 2015-07-29 00:00:00+00:00
#DEBUG: Time Zone     -> Etc/UTC
#DEBUG: Data Contact   -> daryl herzmann akrherz@iastate.edu 515-294-5978
#DEBUG: Entries Found -> -1
station,valid,lon,lat,tmpf, dwpf, relh, drct, sknt, p01i, alti, mslp, vsby, gust, skyc1, skyc2, skyc3, skyc4, skyl1, skyl2, skyl3, skyl4, presentwx, metar
YBBN,2015-07-28 00:00,153.1292,-27.3917,62.60,41.00,45.04,200.00,8.00,0.00,30.42,M,6.21,M,FEW,M,M,M,3200.00,M,M,M,M,YBBN 280000Z 20008KT 9999 FEW032 17/05 Q1030 NOSIG
YBBN,2015-07-28 00:30,153.1292,-27.3917,62.60,42.80,48.28,160.00,7.00,0.00,30.42,M,6.21,M,FEW,M,M,M,3400.00,M,M,M,M,YBBN 280030Z 16007KT 9999 FEW034 17/06 Q1030
YBBN,2015-07-28 01:00,153.1292,-27.3917,64.40,42.80,45.32,170.00,9.00,0.00,30.42,M,6.21,M,FEW,M,M,M,3400.00,M,M,M,M,YBBN 280100Z 17009KT 9999 FEW034 18/06 Q1030
YBBN,2015-07-28 01:30,153.1292,-27.3917,66.20,44.60,45.60,150.00,7.00,0.00,30.39,M,6.21,M,FEW,M,M,M,3500.00,M,M,M,M,YBBN 280130Z 15007KT 9999 FEW035 19/07 Q1029
YBBN,2015-07-28 02:00,153.1292,-27.3917,66.20,44.60,45.60,120.00,10.00,0.00,30.39,M,6.21,M,FEW,M,M,M,3600.00,M,M,M,M,YBBN 280200Z 12010KT 9999 FEW036 19/07 Q1029
YBBN,2015-07-28 02:30,153.1292,-27.3917,66.20,42.80,42.57,110.00,9.00,0.00,30.36,M,6.21,M,FEW,M,M,M,3700.00,M,M,M,M,YBBN 280230Z 11009KT 9999 FEW037 19/06 Q1028
YBBN,2015-07-28 03:00,153.1292,-27.3917,66.20,42.80,42.57,110.00,10.00,0.00,30.36,M,6.21,M,FEW,M,M,M,3800.00,M,M,M,M,YBBN 280300Z 11010KT 9999 FEW038 19/06 Q1028 NOSIG
YBBN,2015-07-28 03:30,153.1292,-27.3917,64.40,42.80,45.32,110.00,10.00,0.00,30.36,M,6.21,M,FEW,M,M,M,4000.00,M,M,M,M,YBBN 280330Z 11010KT 9999 FEW040 18/06 Q1028
YBBN,2015-07-28 04:00,153.1292,-27.3917,66.20,44.60,45.60,100.00,9.00,0.00,30.36,M,6.21,M,FEW,M,M,M,4000.00,M,M,M,M,YBBN 280400Z 10009KT 9999 FEW040 19/07 Q1028
YBBN,2015-07-28 04:30,153.1292,-27.3917,64.40,44.60,48.55,120.00,10.00,0.00,30.33,M,6.21,M,FEW,M,M,M,4200.00,M,M,M,M,YBBN 280430Z 12010KT 9999 FEW042 18/07 Q1027
YBBN,2015-07-28 05:00,153.1292,-27.3917,64.40,44.60,48.55,100.00,10.00,0.00,30.33,M,6.21,M,FEW,M,M,M,4300.00,M,M,M,M,YBBN 280500Z 10010KT 9999 FEW043 18/07 Q1027
YBBN,2015-07-28 05:30,153.1292,-27.3917,64.40,44.60,48.55,110.00,10.00,0.00,30.36,M,6.21,M,FEW,M,M,M,4200.00,M,M,M,M,YBBN 280530Z 11010KT 9999 FEW042 18/07 Q1028
YBBN,2015-07-28 06:00,153.1292,-27.3917,62.60,41.00,45.04,110.00,10.00,0.00,30.36,M,6.21,M,FEW,M,M,M,4000.00,M,M,M,M,YBBN 280600Z 11010KT 9999 FEW040 17/05 Q1028
YBBN,2015-07-28 06:30,153.1292,-27.3917,62.60,42.80,48.28,120.00,10.00,0.00,30.36,M,6.21,M,FEW,M,M,M,3900.00,M,M,M,M,YBBN 280630Z 12010KT 9999 FEW039 17/06 Q1028
YBBN,2015-07-28 07:00,153.1292,-27.3917,62.60,41.00,45.04,120.00,10.00,0.00,30.36,M,6.21,M,FEW,M,M,M,3500.00,M,M,M,M,YBBN 280700Z 12010KT 9999 FEW035 17/05 Q1028 NOSIG
YBBN,2015-07-28 07:30,153.1292,-27.3917,60.80,42.80,51.45,120.00,8.00,0.00,30.36,M,6.21,M,FEW,M,M,M,3400.00,M,M,M,M,YBBN 280730Z 12008KT 9999 FEW034 16/06 Q1028
YBBN,2015-07-28 08:00,153.1292,-27.3917,60.80,42.80,51.45,130.00,7.00,0.00,30.39,M,6.21,M,FEW,M,M,M,3200.00,M,M,M,M,YBBN 280800Z 13007KT 9999 FEW032 16/06 Q1029 NOSIG
YBBN,2015-07-28 08:30,153.1292,-27.3917,60.80,42.80,51.45,130.00,8.00,0.00,30.39,M,6.21,M,FEW,SCT,M,M,3000.00,6000.00,M,M,M,YBBN 280830Z 13008KT 9999 FEW030 SCT060 16/06 Q1029
YBBN,2015-07-28 09:00,153.1292,-27.3917,59.00,44.60,58.77,130.00,8.00,0.00,30.42,M,6.21,M,M,M,M,M,M,M,M,M,M,YBBN 280900Z 13008KT CAVOK 15/07 Q1030 NOSIG
YBBN,2015-07-28 09:30,153.1292,-27.3917,59.00,42.80,54.86,140.00,6.00,0.00,30.42,M,6.21,M,M,M,M,M,M,M,M,M,M,YBBN 280930Z 14006KT CAVOK 15/06 Q1030
YBBN,2015-07-28 10:00,153.1292,-27.3917,57.20,44.60,62.69,170.00,5.00,0.00,30.42,M,6.21,M,M,M,M,M,M,M,M,M,M,YBBN 281000Z 17005KT CAVOK 14/07 Q1030 NOSIG
YBBN,2015-07-28 10:30,153.1292,-27.3917,55.40,42.80,62.46,170.00,5.00,0.00,30.42,M,6.21,M,M,M,M,M,M,M,M,M,M,YBBN 281030Z 17005KT CAVOK 13/06 Q1030
YBBN,2015-07-28 11:00,153.1292,-27.3917,55.40,42.80,62.46,170.00,6.00,0.00,30.45,M,6.21,M,M,M,M,M,M,M,M,M,M,YBBN 281100Z 17006KT CAVOK 13/06 Q1031 NOSIG
YBBN,2015-07-28 11:30,153.1292,-27.3917,53.60,41.00,62.23,170.00,5.00,0.00,30.45,M,6.21,M,M,M,M,M,M,M,M,M,M,YBBN 281130Z 17005KT CAVOK 12/05 Q1031
YBBN,2015-07-28 12:00,153.1292,-27.3917,53.60,39.20,58.02,190.00,5.00,0.00,30.42,M,6.21,M,M,M,M,M,M,M,M,M,M,YBBN 281200Z 19005KT CAVOK 12/04 Q1030 NOSIG
YBBN,2015-07-28 12:30,153.1292,-27.3917,53.60,37.40,54.07,190.00,5.00,0.00,30.42,M,6.21,M,M,M,M,M,M,M,M,M,M,YBBN 281230Z 19005KT CAVOK 12/03 Q1030
YBBN,2015-07-28 13:00,153.1292,-27.3917,53.60,39.20,58.02,190.00,6.00,0.00,30.42,M,6.21,M,M,M,M,M,M,M,M,M,M,YBBN 281300Z 19006KT CAVOK 12/04 Q1030 NOSIG
YBBN,2015-07-28 13:30,153.1292,-27.3917,51.80,39.20,61.99,200.00,6.00,0.00,30.42,M,6.21,M,M,M,M,M,M,M,M,M,M,YBBN 281330Z 20006KT CAVOK 11/04 Q1030
YBBN,2015-07-28 14:00,153.1292,-27.3917,50.00,41.00,71.07,210.00,8.00,0.00,30.42,M,6.21,M,M,M,M,M,M,M,M,M,M,YBBN 281400Z 21008KT CAVOK 10/05 Q1030
YBBN,2015-07-28 14:30,153.1292,-27.3917,50.00,39.20,66.27,210.00,9.00,0.00,30.42,M,6.21,M,M,M,M,M,M,M,M,M,M,YBBN 281430Z 21009KT CAVOK 10/04 Q1030
YBBN,2015-07-28 15:00,153.1292,-27.3917,50.00,39.20,66.27,210.00,9.00,0.00,30.42,M,6.21,M,M,M,M,M,M,M,M,M,M,YBBN 281500Z 21009KT CAVOK 10/04 Q1030 NOSIG
YBBN,2015-07-28 15:30,153.1292,-27.3917,51.80,37.40,57.77,200.00,10.00,0.00,30.42,M,6.21,M,M,M,M,M,M,M,M,M,M,YBBN 281530Z 20010KT CAVOK 11/03 Q1030
YBBN,2015-07-28 16:00,153.1292,-27.3917,51.80,37.40,57.77,210.00,9.00,0.00,30.42,M,6.21,M,M,M,M,M,M,M,M,M,M,YBBN 281600Z 21009KT CAVOK 11/03 Q1030 NOSIG
YBBN,2015-07-28 16:30,153.1292,-27.3917,50.00,37.40,61.76,200.00,9.00,0.00,30.42,M,6.21,M,M,M,M,M,M,M,M,M,M,YBBN 281630Z 20009KT CAVOK 10/03 Q1030
YBBN,2015-07-28 17:00,153.1292,-27.3917,50.00,37.40,61.76,200.00,8.00,0.00,30.42,M,6.21,M,M,M,M,M,M,M,M,M,M,YBBN 281700Z 20008KT CAVOK 10/03 Q1030 NOSIG
YBBN,2015-07-28 17:30,153.1292,-27.3917,50.00,37.40,61.76,190.00,7.00,0.00,30.42,M,6.21,M,M,M,M,M,M,M,M,M,M,YBBN 281730Z 19007KT CAVOK 10/03 Q1030
YBBN,2015-07-28 18:00,153.1292,-27.3917,50.00,35.60,57.52,200.00,9.00,0.00,30.42,M,6.21,M,M,M,M,M,M,M,M,M,M,YBBN 281800Z 20009KT CAVOK 10/02 Q1030 NOSIG
YBBN,2015-07-28 18:30,153.1292,-27.3917,48.20,37.40,66.05,200.00,8.00,0.00,30.42,M,6.21,M,M,M,M,M,M,M,M,M,M,YBBN 281830Z 20008KT CAVOK 09/03 Q1030
YBBN,2015-07-28 19:00,153.1292,-27.3917,48.20,37.40,66.05,200.00,9.00,0.00,30.42,M,6.21,M,M,M,M,M,M,M,M,M,M,YBBN 281900Z 20009KT CAVOK 09/03 Q1030 NOSIG
YBBN,2015-07-28 19:30,153.1292,-27.3917,48.20,37.40,66.05,200.00,9.00,0.00,30.42,M,6.21,M,M,M,M,M,M,M,M,M,M,YBBN 281930Z 20009KT CAVOK 09/03 Q1030
YBBN,2015-07-28 20:00,153.1292,-27.3917,48.20,35.60,61.52,200.00,9.00,0.00,30.42,M,6.21,M,M,M,M,M,M,M,M,M,M,YBBN 282000Z 20009KT CAVOK 09/02 Q1030 NOSIG
YBBN,2015-07-28 20:30,153.1292,-27.3917,48.20,37.40,66.05,200.00,9.00,0.00,30.45,M,6.21,M,M,M,M,M,M,M,M,M,M,YBBN 282030Z 20009KT CAVOK 09/03 Q1031
YBBN,2015-07-28 21:00,153.1292,-27.3917,50.00,37.40,61.76,210.00,10.00,0.00,30.45,M,6.21,M,M,M,M,M,M,M,M,M,M,YBBN 282100Z 21010KT CAVOK 10/03 Q1031 NOSIG
YBBN,2015-07-28 21:30,153.1292,-27.3917,51.80,37.40,57.77,210.00,9.00,0.00,30.47,M,6.21,M,M,M,M,M,M,M,M,M,M,YBBN 282130Z 21009KT CAVOK 11/03 Q1032
YBBN,2015-07-28 22:00,153.1292,-27.3917,53.60,37.40,54.07,210.00,10.00,0.00,30.47,M,6.21,M,M,M,M,M,M,M,M,M,M,YBBN 282200Z 21010KT CAVOK 12/03 Q1032 NOSIG
YBBN,2015-07-28 22:30,153.1292,-27.3917,55.40,37.40,50.64,210.00,13.00,0.00,30.47,M,6.21,M,M,M,M,M,M,M,M,M,M,YBBN 282230Z 21013KT CAVOK 13/03 Q1032
YBBN,2015-07-28 23:00,153.1292,-27.3917,59.00,37.40,44.47,210.00,13.00,0.00,30.47,M,6.21,M,M,M,M,M,M,M,M,M,M,YBBN 282300Z 21013KT CAVOK 15/03 Q1032 NOSIG
YBBN,2015-07-28 23:30,153.1292,-27.3917,59.00,37.40,44.47,210.00,14.00,0.00,30.47,M,6.21,M,M,M,M,M,M,M,M,M,M,YBBN 282330Z 21014KT CAVOK 15/03 Q1032
