#DEBUG: Format Typ    -> comma
#DEBUG: Time Period   -> 2010-09-04 00:00:00+00:00 2010-09-05 00:00:00+00:00
#DEBUG: Time Zone     -> Etc/UTC
#DEBUG: Data Contact   -> daryl herzmann akrherz@iastate.edu 515-294-5978
#DEBUG: Entries Found -> -1
station,valid,lon,lat,tmpf, dwpf, relh, drct, sknt, p01i, alti, mslp, vsby, gust, skyc1, skyc2, skyc3, skyc4, skyl1, skyl2, skyl3, skyl4, presentwx, metar
YBBN,2010-09-04 00:00,153.1292,-27.3917,75.20,64.40,69.14,40.00,11.00,M,30.12,M,6.21,M,SCT,M,M,M,3000.00,M,M,M,M,YBBN 040000Z 04011KT 9999 SCT030 24/18 Q1020 NOSIG
YBBN,2010-09-04 00:30,153.1292,-27.3917,75.20,64.40,69.14,20.00,14.00,M,30.12,M,6.21,M,SCT,FEW,M,M,3200.00,3200.00,M,M,M,YBBN 040030Z 02014KT 9999 SCT032 FEW032TCU 24/18 Q1020 NOSIG
YBBN,2010-09-04 01:00,153.1292,-27.3917,77.00,66.20,69.33,20.00,14.00,M,30.12,M,6.21,M,SCT,FEW,M,M,3500.00,3500.00,M,M,M,YBBN 040100Z 02014KT 9999 SCT035 FEW035TCU 25/19 Q1020 NOSIG
YBBN,2010-09-04 01:30,153.1292,-27.3917,77.00,66.20,69.33,40.00,16.00,M,30.09,M,6.21,M,SCT,SCT,M,M,3800.00,24000.00,M,M,M,YBBN 040130Z 04016KT 9999 SCT038 SCT240 25/19 Q1019 NOSIG
YBBN,2010-09-04 02:00,153.1292,-27.3917,75.20,66.20,73.61,30.00,16.00,M,30.09,M,6.21,M,FEW,SCT,M,M,3500.00,24000.00,M,M,M,YBBN 040200Z 03016KT 9999 FEW035 SCT240 24/19 Q1019 NOSIG
YBBN,2010-09-04 02:30,153.1292,-27.3917,75.20,66.20,73.61,30.00,17.00,M,30.06,M,6.21,M,FEW,SCT,M,M,3500.00,24000.00,M,M,M,YBBN 040230Z 03017KT 9999 FEW035 SCT240 24/19 Q1018 NOSIG
YBBN,2010-09-04 03:00,153.1292,-27.3917,75.20,66.20,73.61,30.00,17.00,M,30.06,M,6.21,M,FEW,BKN,M,M,3500.00,24000.00,M,M,M,YBBN 040300Z 03017KT 9999 FEW035 BKN240 24/19 Q1018 NOSIG
YBBN,2010-09-04 03:30,153.1292,-27.3917,75.20,66.20,73.61,20.00,17.00,M,30.03,M,6.21,M,FEW,SCT,M,M,3500.00,24000.00,M,M,M,YBBN 040330Z 02017KT 9999 FEW035 SCT240 24/19 Q1017 NOSIG
YBBN,2010-09-04 04:00,153.1292,-27.3917,75.20,66.20,73.61,30.00,17.00,M,30.03,M,6.21,M,FEW,SCT,FEW,M,3500.00,28000.00,3500.00,M,M,YBBN 040400Z 03017KT 9999 FEW035 SCT280 FEW035TCU 24/19 Q1017 NOSIG
YBBN,2010-09-04 04:30,153.1292,-27.3917,73.40,66.20,78.19,20.00,13.00,M,30.03,M,6.21,M,FEW,FEW,M,M,3800.00,3800.00,M,M,M,YBBN 040430Z 02013KT 9999 FEW038 FEW038TCU 23/19 Q1017 NOSIG
YBBN,2010-09-04 05:00,153.1292,-27.3917,73.40,66.20,78.19,20.00,16.00,M,30.03,M,6.21,M,FEW,FEW,M,M,3800.00,3800.00,M,M,M,YBBN 040500Z 02016KT 9999 FEW038 FEW038TCU 23/19 Q1017 NOSIG
YBBN,2010-09-04 05:30,153.1292,-27.3917,73.40,66.20,78.19,30.00,15.00,M,30.00,M,6.21,M,FEW,FEW,M,M,3800.00,3800.00,M,M,M,YBBN 040530Z 03015KT 9999 FEW038 FEW038TCU 23/19 Q1016 NOSIG
YBBN,2010-09-04 06:00,153.1292,-27.3917,71.60,66.20,83.09,20.00,17.00,M,30.00,M,6.21,M,FEW,SCT,FEW,M,3800.00,28000.00,3800.00,M,M,YBBN 040600Z 02017KT 9999 FEW038 SCT280 FEW038TCU 22/19 Q1016 NOSIG
YBBN,2010-09-04 12:00,153.1292,-27.3917,69.80,66.20,88.34,10.00,13.00,M,30.09,M,6.21,M,SCT,BKN,M,M,1800.00,9000.00,M,M,M,YBBN 041200Z 01013KT 9999 SCT018 BKN090 21/19 Q1019 RMK DIST SHRA TEMPO 1230/1500 5000 RA BKN010
YBBN,2010-09-04 20:00,153.1292,-27.3917,68.00,66.20,93.97,360.00,10.00,M,30.03,M,6.21,M,FEW,SCT,BKN,M,1500.00,6000.00,11000.00,M,M,YBBN 042000Z 36010KT 9999 FEW015 SCT060 BKN110 20/19 Q1017 NOSIG
YBBN,2010-09-04 20:30,153.1292,-27.3917,68.00,66.20,93.97,350.00,8.00,M,30.03,M,6.21,M,FEW,SCT,BKN,M,1200.00,6000.00,11000.00,M,M,YBBN 042030Z 35008KT 9999 FEW012 SCT060 BKN110 20/19 Q1017 NOSIG
YBBN,2010-09-04 21:00,153.1292,-27.3917,68.00,68.00,100.00,350.00,8.00,M,30.03,M,6.21,M,FEW,BKN,BKN,M,800.00,2500.00,11000.00,M,M,YBBN 042100Z 35008KT 9999 FEW008 BKN025 BKN110 20/20 Q1017 NOSIG
YBBN,2010-09-04 21:30,153.1292,-27.3917,69.80,68.00,94.01,20.00,7.00,M,30.03,M,6.21,M,FEW,BKN,BKN,M,800.00,2500.00,11000.00,M,M,YBBN 042130Z 02007KT 9999 FEW008 BKN025 BKN110 21/20 Q1017 NOSIG
YBBN,2010-09-04 22:00,153.1292,-27.3917,69.80,68.00,94.01,10.00,8.00,M,30.03,M,6.21,M,FEW,BKN,M,M,1000.00,2500.00,M,M,M,YBBN 042200Z 01008KT 9999 FEW010 BKN025 21/20 Q1017 NOSIG
YBBN,2010-09-04 22:30,153.1292,-27.3917,69.80,68.00,94.01,10.00,10.00,M,30.06,M,6.21,M,FEW,BKN,M,M,1000.00,2500.00,M,M,M,YBBN 042230Z 01010KT 9999 FEW010 BKN025 21/20 Q1018 NOSIG
YBBN,2010-09-04 23:00,153.1292,-27.3917,69.80,68.00,94.01,10.00,8.00,M,30.06,M,6.21,M,FEW,BKN,M,M,1000.00,2500.00,M,M,M,YBBN 042300Z 01008KT 9999 FEW010 BKN025 21/20 Q1018 NOSIG
