#DEBUG: Format Typ    -> comma
#DEBUG: Time Period   -> 2014-01-13 00:00:00+00:00 2014-01-14 00:00:00+00:00
#DEBUG: Time Zone     -> Etc/UTC
#DEBUG: Data Contact   -> daryl herzmann akrherz@iastate.edu 515-294-5978
#DEBUG: Entries Found -> -1
station,valid,lon,lat,tmpf, dwpf, relh, drct, sknt, p01i, alti, mslp, vsby, gust, skyc1, skyc2, skyc3, skyc4, skyl1, skyl2, skyl3, skyl4, presentwx, metar
YBBN,2014-01-13 00:00,153.1292,-27.3917,80.60,62.60,54.30,110.00,10.00,0.00,30.06,M,6.21,M,SCT,SCT,M,M,4200.00,5700.00,M,M,M,YBBN 130000Z 11010KT 9999 SCT042 SCT057 27/17 Q1018
YBBN,2014-01-13 00:30,153.1292,-27.3917,80.60,60.80,50.95,110.00,10.00,0.00,30.06,M,6.21,M,SCT,SCT,M,M,4200.00,6000.00,M,M,M,YBBN 130030Z 11010KT 9999 SCT042 SCT060 27/16 Q1018
YBBN,2014-01-13 01:00,153.1292,-27.3917,78.80,60.80,54.05,110.00,10.00,0.00,30.06,M,6.21,M,M,M,M,M,M,M,M,M,M,YBBN 130100Z 11010KT CAVOK 26/16 Q1018
YBBN,2014-01-13 01:30,153.1292,-27.3917,80.60,62.60,54.30,120.00,10.00,0.00,30.06,M,6.21,M,M,M,M,M,M,M,M,M,M,YBBN 130130Z 12010KT CAVOK 27/17 Q1018 RMK 5SC062
YBBN,2014-01-13 02:00,153.1292,-27.3917,80.60,62.60,54.30,90.00,11.00,0.00,30.03,M,6.21,M,M,M,M,M,M,M,M,M,M,YBBN 130200Z 09011KT CAVOK 27/17 Q1017 NOSIG
YBBN,2014-01-13 02:30,153.1292,-27.3917,82.40,64.40,54.55,110.00,11.00,0.00,30.03,M,6.21,M,BKN,M,M,M,5500.00,M,M,M,-SHRA,YBBN 130230Z 11011KT 9999 -SHRA BKN055 28/18 Q1017 RMK RASH TO SSE
YBBN,2014-01-13 03:00,153.1292,-27.3917,80.60,64.40,57.84,150.00,9.00,0.00,30.03,M,6.21,M,FEW,BKN,M,M,4500.00,7000.00,M,M,-SHRA,YBBN 130300Z 15009KT 9999 -SHRA FEW045 BKN070 27/18 Q1017
YBBN,2014-01-13 03:30,153.1292,-27.3917,80.60,64.40,57.84,120.00,11.00,0.00,30.03,M,6.21,M,FEW,SCT,M,M,2700.00,4200.00,M,M,VCSH,YBBN 130330Z 12011KT 9999 VCSH FEW027 SCT042 27/18 Q1017
YBBN,2014-01-13 04:00,153.1292,-27.3917,80.60,64.40,57.84,120.00,11.00,0.00,30.03,M,6.21,M,FEW,SCT,M,M,2700.00,4200.00,M,M,VCSH,YBBN 130400Z 12011KT 9999 VCSH FEW027 SCT042 27/18 Q1017
YBBN,2014-01-13 04:30,153.1292,-27.3917,80.60,64.40,57.84,120.00,12.00,0.00,30.00,M,6.21,M,FEW,M,M,M,4500.00,M,M,M,M,YBBN 130430Z 12012KT 9999 FEW045 27/18 Q1016
YBBN,2014-01-13 05:00,153.1292,-27.3917,80.60,62.60,54.30,120.00,12.00,0.00,30.00,M,6.21,M,FEW,M,M,M,4500.00,M,M,M,M,YBBN 130500Z 12012KT 9999 FEW045 27/17 Q1016 NOSIG
YBBN,2014-01-13 05:30,153.1292,-27.3917,80.60,62.60,54.30,110.00,10.00,0.00,30.00,M,6.21,M,FEW,M,M,M,4500.00,M,M,M,M,YBBN 130530Z 11010KT 9999 FEW045 27/17 Q1016
YBBN,2014-01-13 06:00,153.1292,-27.3917,80.60,62.60,54.30,100.00,13.00,0.00,30.00,M,6.21,M,FEW,M,M,M,4500.00,M,M,M,M,YBBN 130600Z 10013KT 9999 FEW045 27/17 Q1016 NOSIG
YBBN,2014-01-13 06:30,153.1292,-27.3917,78.80,64.40,61.36,110.00,12.00,0.00,30.00,M,6.21,M,FEW,M,M,M,4000.00,M,M,M,M,YBBN 130630Z 11012KT 9999 FEW040 26/18 Q1016
YBBN,2014-01-13 07:00,153.1292,-27.3917,78.80,64.40,61.36,110.00,13.00,0.00,30.00,M,6.21,M,FEW,M,M,M,4000.00,M,M,M,M,YBBN 130700Z 11013KT 9999 FEW040 26/18 Q1016 RMK BUSHFIRE SMOKE TO SOUTH
YBBN,2014-01-13 07:30,153.1292,-27.3917,78.80,62.60,57.60,110.00,11.00,0.00,30.00,M,6.21,M,FEW,M,M,M,4000.00,M,M,M,M,YBBN 130730Z 11011KT 9999 FEW040 26/17 Q1016
YBBN,2014-01-13 08:00,153.1292,-27.3917,77.00,62.60,61.13,110.00,11.00,0.00,30.03,M,6.21,M,FEW,M,M,M,3500.00,M,M,M,M,YBBN 130800Z 11011KT 9999 FEW035 25/17 Q1017 NOSIG
YBBN,2014-01-13 08:30,153.1292,-27.3917,77.00,62.60,61.13,120.00,9.00,0.00,30.03,M,6.21,M,FEW,M,M,M,3500.00,M,M,M,M,YBBN 130830Z 12009KT 9999 FEW035 25/17 Q1017
YBBN,2014-01-13 09:00,153.1292,-27.3917,77.00,62.60,61.13,110.00,9.00,0.00,30.06,M,6.21,M,FEW,M,M,M,3500.00,M,M,M,M,YBBN 130900Z 11009KT 9999 FEW035 25/17 Q1018 NOSIG
YBBN,2014-01-13 09:30,153.1292,-27.3917,77.00,62.60,61.13,110.00,8.00,0.00,30.06,M,6.21,M,FEW,M,M,M,2800.00,M,M,M,M,YBBN 130930Z 11008KT 9999 FEW028 25/17 Q1018
YBBN,2014-01-13 10:00,153.1292,-27.3917,75.20,64.40,69.14,110.00,8.00,0.00,30.06,M,6.21,M,FEW,SCT,M,M,2500.00,7500.00,M,M,M,YBBN 131000Z 11008KT 9999 FEW025 SCT075 24/18 Q1018 NOSIG
YBBN,2014-01-13 10:30,153.1292,-27.3917,75.20,62.60,64.91,110.00,8.00,0.00,30.06,M,6.21,M,FEW,SCT,M,M,2500.00,7000.00,M,M,M,YBBN 131030Z 11008KT 9999 FEW025 SCT070 24/17 Q1018
YBBN,2014-01-13 11:00,153.1292,-27.3917,75.20,62.60,64.91,110.00,8.00,0.00,30.06,M,6.21,M,FEW,M,M,M,2500.00,M,M,M,M,YBBN 131100Z 11008KT 9999 FEW025 24/17 Q1018 NOSIG
YBBN,2014-01-13 11:30,153.1292,-27.3917,75.20,66.20,73.61,100.00,7.00,0.00,30.06,M,6.21,M,FEW,M,M,M,2500.00,M,M,M,M,YBBN 131130Z 10007KT 9999 FEW025 24/19 Q1018
YBBN,2014-01-13 12:00,153.1292,-27.3917,75.20,66.20,73.61,110.00,8.00,0.00,30.06,M,6.21,M,SCT,M,M,M,2500.00,M,M,M,M,YBBN 131200Z 11008KT 9999 SCT025 24/19 Q1018 NOSIG
YBBN,2014-01-13 12:30,153.1292,-27.3917,75.20,64.40,69.14,110.00,7.00,0.00,30.06,M,6.21,M,FEW,M,M,M,2500.00,M,M,M,M,YBBN 131230Z 11007KT 9999 FEW025 24/18 Q1018
YBBN,2014-01-13 13:00,153.1292,-27.3917,75.20,64.40,69.14,110.00,6.00,0.00,30.06,M,6.21,M,FEW,M,M,M,2500.00,M,M,M,M,YBBN 131300Z 11006KT 9999 FEW025 24/18 Q1018
YBBN,2014-01-13 13:30,153.1292,-27.3917,75.20,64.40,69.14,100.00,5.00,0.00,30.06,M,6.21,M,FEW,M,M,M,2500.00,M,M,M,M,YBBN 131330Z 10005KT 9999 FEW025 24/18 Q1018
YBBN,2014-01-13 14:00,153.1292,-27.3917,75.20,64.40,69.14,100.00,7.00,0.00,30.06,M,6.21,M,FEW,M,M,M,2500.00,M,M,M,M,YBBN 131400Z 10007KT 9999 FEW025 24/18 Q1018 NOSIG
YBBN,2014-01-13 14:30,153.1292,-27.3917,75.20,64.40,69.14,90.00,5.00,0.00,30.03,M,6.21,M,FEW,M,M,M,2400.00,M,M,M,M,YBBN 131430Z 09005KT 9999 FEW024 24/18 Q1017
YBBN,2014-01-13 15:00,153.1292,-27.3917,75.20,62.60,64.91,100.00,6.00,0.00,30.03,M,6.21,M,FEW,SCT,M,M,2500.00,4500.00,M,M,M,YBBN 131500Z 10006KT 9999 FEW025 SCT045 24/17 Q1017 NOSIG
YBBN,2014-01-13 15:30,153.1292,-27.3917,73.40,64.40,73.44,90.00,6.00,0.00,30.03,M,6.21,M,BKN,M,M,M,3000.00,M,M,M,M,YBBN 131530Z 09006KT 9999 BKN030 23/18 Q1017
YBBN,2014-01-13 16:00,153.1292,-27.3917,71.60,66.20,83.09,110.00,4.00,0.00,30.03,M,6.21,M,SCT,M,M,M,3100.00,M,M,M,M,YBBN 131600Z 11004KT 9999 SCT031 22/19 Q1017 NOSIG
YBBN,2014-01-13 16:30,153.1292,-27.3917,73.40,64.40,73.44,90.00,8.00,0.00,30.03,M,6.21,M,SCT,M,M,M,3000.00,M,M,M,M,YBBN 131630Z 09008KT 9999 SCT030 23/18 Q1017
YBBN,2014-01-13 17:00,153.1292,-27.3917,73.40,62.60,68.94,90.00,6.00,0.00,30.03,M,6.21,M,SCT,M,M,M,3000.00,M,M,M,M,YBBN 131700Z 09006KT 9999 SCT030 23/17 Q1017 NOSIG
YBBN,2014-01-13 17:30,153.1292,-27.3917,73.40,62.60,68.94,90.00,6.00,0.00,30.03,M,6.21,M,SCT,M,M,M,3000.00,M,M,M,M,YBBN 131730Z 09006KT 9999 SCT030 23/17 Q1017
YBBN,2014-01-13 18:00,153.1292,-27.3917,75.20,62.60,64.91,90.00,7.00,0.00,30.03,M,6.21,M,FEW,M,M,M,3000.00,M,M,M,M,YBBN 131800Z 09007KT 9999 FEW030 24/17 Q1017 NOSIG
YBBN,2014-01-13 18:30,153.1292,-27.3917,75.20,62.60,64.91,100.00,7.00,0.00,30.03,M,6.21,M,BKN,M,M,M,3200.00,M,M,M,M,YBBN 131830Z 10007KT 9999 BKN032 24/17 Q1017
YBBN,2014-01-13 19:00,153.1292,-27.3917,75.20,62.60,64.91,100.00,8.00,0.00,30.06,M,6.21,M,FEW,SCT,M,M,2500.00,5200.00,M,M,M,YBBN 131900Z 10008KT 9999 FEW025 SCT052 24/17 Q1018 NOSIG
YBBN,2014-01-13 19:30,153.1292,-27.3917,75.20,62.60,64.91,100.00,6.00,0.00,30.06,M,6.21,M,SCT,SCT,M,M,2500.00,5000.00,M,M,M,YBBN 131930Z 10006KT 9999 SCT025 SCT050 24/17 Q1018
YBBN,2014-01-13 20:00,153.1292,-27.3917,75.20,62.60,64.91,100.00,7.00,0.00,30.09,M,6.21,M,FEW,SCT,M,M,2500.00,5200.00,M,M,M,YBBN 132000Z 10007KT 9999 FEW025 SCT052 24/17 Q1019 NOSIG
YBBN,2014-01-13 20:30,153.1292,-27.3917,75.20,62.60,64.91,110.00,7.00,0.00,30.09,M,6.21,M,FEW,SCT,M,M,1800.00,5000.00,M,M,M,YBBN 132030Z 11007KT 9999 FEW018 SCT050 24/17 Q1019
YBBN,2014-01-13 21:00,153.1292,-27.3917,77.00,60.80,57.36,110.00,8.00,0.00,30.09,M,6.21,M,FEW,M,M,M,3500.00,M,M,M,M,YBBN 132100Z 11008KT 9999 FEW035 25/16 Q1019
YBBN,2014-01-13 21:30,153.1292,-27.3917,78.80,60.80,54.05,110.00,8.00,0.00,30.09,M,6.21,M,FEW,M,M,M,3500.00,M,M,M,M,YBBN 132130Z 11008KT 9999 FEW035 26/16 Q1019
YBBN,2014-01-13 22:00,153.1292,-27.3917,78.80,60.80,54.05,110.00,9.00,0.00,30.09,M,6.21,M,SCT,M,M,M,4000.00,M,M,M,M,YBBN 132200Z 11009KT 9999 SCT040 26/16 Q1019 NOSIG
YBBN,2014-01-13 22:30,153.1292,-27.3917,78.80,60.80,54.05,100.00,9.00,0.00,30.09,M,6.21,M,SCT,M,M,M,3600.00,M,M,M,M,YBBN 132230Z 10009KT 9999 SCT036 26/16 Q1019
YBBN,2014-01-13 23:00,153.1292,-27.3917,80.60,62.60,54.30,100.00,9.00,0.00,30.09,M,6.21,M,SCT,M,M,M,3800.00,M,M,M,M,YBBN 132300Z 10009KT 9999 SCT038 27/17 Q1019 NOSIG
YBBN,2014-01-13 23:30,153.1292,-27.3917,78.80,62.60,57.60,80.00,10.00,0.00,30.09,M,6.21,M,SCT,M,M,M,3800.00,M,M,M,M,YBBN 132330Z 08010KT 9999 SCT038 26/17 Q1019
