#DEBUG: Format Typ    -> comma
#DEBUG: Time Period   -> 2014-12-31 00:00:00+00:00 2015-01-01 00:00:00+00:00
#DEBUG: Time Zone     -> Etc/UTC
#DEBUG: Data Contact   -> daryl herzmann akrherz@iastate.edu 515-294-5978
#DEBUG: Entries Found -> -1
station,valid,lon,lat,tmpf, dwpf, relh, drct, sknt, p01i, alti, mslp, vsby, gust, skyc1, skyc2, skyc3, skyc4, skyl1, skyl2, skyl3, skyl4, presentwx, metar
YBBN,2014-12-31 00:00,153.1292,-27.3917,82.40,77.00,83.77,40.00,9.00,0.00,29.80,M,6.21,M,FEW,M,M,M,2200.00,M,M,M,M,YBBN 310000Z 04009KT 9999 FEW022 28/25 Q1009
YBBN,2014-12-31 00:30,153.1292,-27.3917,80.60,77.00,88.83,50.00,8.00,0.00,29.80,M,6.21,M,FEW,M,M,M,2200.00,M,M,M,M,YBBN 310030Z 05008KT 9999 FEW022 27/25 Q1009
YBBN,2014-12-31 01:00,153.1292,-27.3917,86.00,71.60,62.25,50.00,9.00,0.00,29.80,M,6.21,M,FEW,M,M,M,2200.00,M,M,M,M,YBBN 310100Z 05009KT 9999 FEW022 30/22 Q1009 NOSIG
YBBN,2014-12-31 01:30,153.1292,-27.3917,87.80,73.40,62.47,50.00,9.00,0.00,29.80,M,6.21,M,FEW,M,M,M,2200.00,M,M,M,M,YBBN 310130Z 05009KT 9999 FEW022 31/23 Q1009
YBBN,2014-12-31 02:00,153.1292,-27.3917,87.80,75.20,66.35,70.00,9.00,0.00,29.80,M,6.21,M,FEW,M,M,M,2300.00,M,M,M,M,YBBN 310200Z 07009KT 9999 FEW023 31/24 Q1009 NOSIG
YBBN,2014-12-31 02:30,153.1292,-27.3917,87.80,77.00,70.45,90.00,9.00,0.00,29.80,M,6.21,M,FEW,FEW,M,M,2300.00,2300.00,M,M,M,YBBN 310230Z 09009KT 9999 FEW023 FEW023CB 31/25 Q1009 RMK DISTANT TS TO NW
YBBN,2014-12-31 03:00,153.1292,-27.3917,86.00,75.20,70.27,110.00,10.00,0.00,29.80,M,6.21,M,FEW,FEW,M,M,2300.00,2300.00,M,M,M,YBBN 310300Z 11010KT 9999 FEW023 FEW023CB 30/24 Q1009
YBBN,2014-12-31 03:30,153.1292,-27.3917,86.00,77.00,74.61,110.00,9.00,0.00,29.80,M,6.21,M,FEW,FEW,M,M,1600.00,2200.00,M,M,M,YBBN 310330Z 11009KT 9999 FEW016 FEW022CB 30/25 Q1009
YBBN,2014-12-31 04:00,153.1292,-27.3917,84.20,75.20,74.44,100.00,8.00,0.00,29.80,M,6.21,M,FEW,FEW,M,M,1600.00,2200.00,M,M,M,YBBN 310400Z 10008KT 9999 FEW016 FEW022CB 29/24 Q1009
YBBN,2014-12-31 04:30,153.1292,-27.3917,84.20,75.20,74.44,90.00,8.00,0.00,29.80,M,6.21,M,FEW,SCT,FEW,M,1500.00,14000.00,2300.00,M,M,YBBN 310430Z 09008KT 9999 FEW015 SCT140 FEW023CB 29/24 Q1009 RMK MAMMATUS  DISTANT TS TO W
YBBN,2014-12-31 05:00,153.1292,-27.3917,84.20,75.20,74.44,90.00,8.00,0.00,29.80,M,6.21,M,FEW,SCT,FEW,M,1500.00,14000.00,2300.00,M,M,YBBN 310500Z 09008KT 9999 FEW015 SCT140 FEW023CB 29/24 Q1009 FM0500 10011KT 9999 -SHRA SCT020
YBBN,2014-12-31 05:30,153.1292,-27.3917,84.20,75.20,74.44,110.00,7.00,0.00,29.80,M,6.21,M,FEW,SCT,M,M,1800.00,25000.00,M,M,M,YBBN 310530Z 11007KT 9999 FEW018 SCT250 29/24 Q1009 RMK CB TOPS TO W SW
YBBN,2014-12-31 06:00,153.1292,-27.3917,86.00,75.20,70.27,80.00,10.00,0.00,29.80,M,6.21,M,FEW,SCT,M,M,2000.00,25000.00,M,M,M,YBBN 310600Z 08010KT 9999 FEW020 SCT250 30/24 Q1009
YBBN,2014-12-31 06:30,153.1292,-27.3917,86.00,75.20,70.27,80.00,10.00,0.00,29.80,M,6.21,M,FEW,SCT,M,M,2000.00,25000.00,M,M,M,YBBN 310630Z 08010KT 9999 FEW020 SCT250 30/24 Q1009 RMK CB TOP TO S
YBBN,2014-12-31 07:00,153.1292,-27.3917,84.20,73.40,70.08,70.00,8.00,0.00,29.80,M,6.21,M,FEW,SCT,M,M,2000.00,25000.00,M,M,M,YBBN 310700Z 07008KT 9999 FEW020 SCT250 29/23 Q1009
YBBN,2014-12-31 07:30,153.1292,-27.3917,84.20,75.20,74.44,70.00,8.00,0.00,29.83,M,6.21,M,FEW,SCT,M,M,2000.00,25000.00,M,M,M,YBBN 310730Z 07008KT 9999 FEW020 SCT250 29/24 Q1010 RMK CB TOPS TO S
YBBN,2014-12-31 08:00,153.1292,-27.3917,82.40,75.20,78.90,70.00,7.00,0.00,29.83,M,6.21,M,FEW,BKN,M,M,2000.00,25000.00,M,M,M,YBBN 310800Z 07007KT 9999 FEW020 BKN250 28/24 Q1010
YBBN,2014-12-31 08:30,153.1292,-27.3917,82.40,75.20,78.90,50.00,8.00,0.00,29.85,M,6.21,M,FEW,SCT,BKN,M,2000.00,12000.00,25000.00,M,M,YBBN 310830Z 05008KT 9999 FEW020 SCT120 BKN250 28/24 Q1011 RMK CB TO SW VIRGA
YBBN,2014-12-31 09:00,153.1292,-27.3917,82.40,75.20,78.90,60.00,10.00,0.00,29.85,M,6.21,M,FEW,BKN,BKN,M,2000.00,12000.00,23000.00,M,M,YBBN 310900Z 06010KT 9999 FEW020 BKN120 BKN230 28/24 Q1011
YBBN,2014-12-31 09:30,153.1292,-27.3917,80.60,77.00,88.83,70.00,8.00,0.00,29.88,M,6.21,M,FEW,SCT,BKN,M,1400.00,12000.00,22000.00,M,M,YBBN 310930Z 07008KT 9999 FEW014 SCT120 BKN220 27/25 Q1012 RMK CB TO SW.
YBBN,2014-12-31 10:00,153.1292,-27.3917,82.40,75.20,78.90,80.00,7.00,0.00,29.88,M,6.21,M,SCT,SCT,BKN,M,1500.00,12000.00,23000.00,M,M,YBBN 311000Z 08007KT 9999 SCT015 SCT120 BKN230 28/24 Q1012
YBBN,2014-12-31 10:30,153.1292,-27.3917,82.40,75.20,78.90,70.00,7.00,0.00,29.88,M,6.21,M,FEW,SCT,BKN,M,1600.00,2000.00,23000.00,M,M,YBBN 311030Z 07007KT 9999 FEW016 SCT020 BKN230 28/24 Q1012 RMK CB TO SSE.
YBBN,2014-12-31 11:00,153.1292,-27.3917,80.60,75.20,83.66,70.00,6.00,0.00,29.91,M,6.21,M,FEW,SCT,BKN,M,1700.00,2200.00,23000.00,M,M,YBBN 311100Z 07006KT 9999 FEW017 SCT022 BKN230 27/24 Q1013
YBBN,2014-12-31 11:30,153.1292,-27.3917,80.60,75.20,83.66,60.00,8.00,0.00,29.91,M,6.21,M,SCT,SCT,M,M,1400.00,2000.00,M,M,VCSH,YBBN 311130Z 06008KT 9999 VCSH SCT014 SCT020 27/24 Q1013
YBBN,2014-12-31 12:00,153.1292,-27.3917,80.60,75.20,83.66,60.00,7.00,0.00,29.91,M,6.21,M,FEW,SCT,M,M,1400.00,1800.00,M,M,-SHRA,YBBN 311200Z 06007KT 9999 -SHRA FEW014 SCT018 27/24 Q1013 NOSIG
YBBN,2014-12-31 12:30,153.1292,-27.3917,80.60,75.20,83.66,60.00,7.00,0.00,29.91,M,6.21,M,FEW,SCT,BKN,M,1200.00,1800.00,11000.00,M,-SHRA,YBBN 311230Z 06007KT 9999 -SHRA FEW012 SCT018 BKN110 27/24 Q1013
YBBN,2014-12-31 12:49,153.1292,-27.3917,78.80,73.40,83.55,50.00,11.00,0.00,29.91,M,3.73,M,FEW,SCT,BKN,M,1300.00,1700.00,11000.00,M,-SHRA,YBBN 311249Z 05011KT 6000 -SHRA FEW013 SCT017 BKN110 26/23 Q1013
YBBN,2014-12-31 13:00,153.1292,-27.3917,77.00,73.40,88.67,50.00,9.00,0.00,29.91,M,6.21,M,SCT,SCT,M,M,1800.00,10000.00,M,M,-SHRA,YBBN 311300Z 05009KT 9999 -SHRA SCT018 SCT100 25/23 Q1013
YBBN,2014-12-31 13:30,153.1292,-27.3917,78.80,75.20,88.75,60.00,6.00,0.00,29.91,M,6.21,M,SCT,M,M,M,1800.00,M,M,M,VCSH,YBBN 311330Z 06006KT 9999 VCSH SCT018 26/24 Q1013
YBBN,2014-12-31 14:00,153.1292,-27.3917,78.80,75.20,88.75,60.00,7.00,0.00,29.91,M,6.21,M,FEW,SCT,M,M,1600.00,1900.00,M,M,VCSH,YBBN 311400Z 06007KT 9999 VCSH FEW016 SCT019 26/24 Q1013
YBBN,2014-12-31 14:30,153.1292,-27.3917,78.80,75.20,88.75,50.00,8.00,0.00,29.88,M,6.21,M,FEW,SCT,M,M,1500.00,1900.00,M,M,VCSH,YBBN 311430Z 05008KT 9999 VCSH FEW015 SCT019 26/24 Q1012
YBBN,2014-12-31 15:00,153.1292,-27.3917,78.80,75.20,88.75,40.00,7.00,0.00,29.88,M,6.21,M,FEW,SCT,M,M,1500.00,1800.00,M,M,M,YBBN 311500Z 04007KT 9999 FEW015 SCT018 26/24 Q1012 NOSIG
YBBN,2014-12-31 15:30,153.1292,-27.3917,78.80,75.20,88.75,30.00,7.00,0.00,29.88,M,6.21,M,FEW,M,M,M,1200.00,M,M,M,M,YBBN 311530Z 03007KT 9999 FEW012 26/24 Q1012
YBBN,2014-12-31 16:00,153.1292,-27.3917,78.80,75.20,88.75,40.00,5.00,0.00,29.88,M,6.21,M,FEW,SCT,M,M,1500.00,12000.00,M,M,M,YBBN 311600Z 04005KT 9999 FEW015 SCT120 26/24 Q1012
YBBN,2014-12-31 16:30,153.1292,-27.3917,77.00,75.20,94.19,40.00,6.00,0.00,29.88,M,6.21,M,FEW,SCT,M,M,1800.00,11000.00,M,M,M,YBBN 311630Z 04006KT 9999 FEW018 SCT110 25/24 Q1012 RMK LIGHTNING SEEN TO SOUTH.
YBBN,2014-12-31 17:00,153.1292,-27.3917,77.00,75.20,94.19,40.00,5.00,0.00,29.88,M,6.21,M,FEW,SCT,M,M,1300.00,11000.00,M,M,M,YBBN 311700Z 04005KT 9999 FEW013 SCT110 25/24 Q1012
YBBN,2014-12-31 17:30,153.1292,-27.3917,77.00,75.20,94.19,40.00,6.00,0.00,29.88,M,6.21,M,FEW,SCT,M,M,1300.00,1700.00,M,M,M,YBBN 311730Z 04006KT 9999 FEW013 SCT017 25/24 Q1012
YBBN,2014-12-31 18:00,153.1292,-27.3917,77.00,75.20,94.19,40.00,5.00,0.00,29.91,M,6.21,M,FEW,SCT,M,M,1400.00,1700.00,M,M,VCSH,YBBN 311800Z 04005KT 9999 VCSH FEW014 SCT017 25/24 Q1013
YBBN,2014-12-31 18:30,153.1292,-27.3917,78.80,75.20,88.75,50.00,4.00,0.00,29.91,M,6.21,M,FEW,SCT,FEW,M,700.00,13000.00,1600.00,M,VCSH,YBBN 311830Z 05004KT 9999 VCSH FEW007 SCT130 FEW016TCU 26/24 Q1013
YBBN,2014-12-31 19:00,153.1292,-27.3917,78.80,75.20,88.75,60.00,6.00,0.00,29.91,M,6.21,M,FEW,SCT,M,M,800.00,1600.00,M,M,VCSH,YBBN 311900Z 06006KT 9999 VCSH FEW008 SCT016 26/24 Q1013 INTER 1900/2200 3000 SHRA BKN010
YBBN,2014-12-31 19:30,153.1292,-27.3917,77.00,75.20,94.19,40.00,4.00,0.00,29.91,M,6.21,M,FEW,SCT,BKN,M,1000.00,1700.00,11000.00,M,VCSH,YBBN 311930Z 04004KT 9999 VCSH FEW010 SCT017 BKN110 25/24 Q1013
YBBN,2014-12-31 20:00,153.1292,-27.3917,80.60,75.20,83.66,40.00,7.00,0.00,29.94,M,6.21,M,FEW,SCT,BKN,FEW,1000.00,1800.00,11000.00,1700.00,M,YBBN 312000Z 04007KT 9999 FEW010 SCT018 BKN110 FEW017TCU 27/24 Q1014
YBBN,2014-12-31 20:30,153.1292,-27.3917,80.60,75.20,83.66,40.00,8.00,0.00,29.94,M,6.21,M,FEW,SCT,M,M,1400.00,2000.00,M,M,VCSH,YBBN 312030Z 04008KT 9999 VCSH FEW014 SCT020 27/24 Q1014
YBBN,2014-12-31 21:00,153.1292,-27.3917,80.60,75.20,83.66,50.00,9.00,0.00,29.94,M,6.21,M,FEW,M,M,M,1300.00,M,M,M,VCSH,YBBN 312100Z 05009KT 9999 VCSH FEW013 27/24 Q1014 INTER 2100/2400 3000 SHRA BKN010
YBBN,2014-12-31 21:30,153.1292,-27.3917,82.40,75.20,78.90,50.00,9.00,0.00,29.94,M,6.21,M,FEW,M,M,M,1300.00,M,M,M,VCSH,YBBN 312130Z 05009KT 9999 VCSH FEW013 28/24 Q1014
YBBN,2014-12-31 22:00,153.1292,-27.3917,82.40,75.20,78.90,30.00,9.00,0.00,29.94,M,6.21,M,FEW,M,M,M,1300.00,M,M,M,VCSH,YBBN 312200Z 03009KT 9999 VCSH FEW013 28/24 Q1014 INTER 2200/0100 3000 SHRA BKN010
YBBN,2014-12-31 22:16,153.1292,-27.3917,82.40,75.20,78.90,30.00,10.00,0.00,29.94,M,6.21,M,FEW,FEW,M,M,1300.00,2000.00,M,M,VCSH,YBBN 312216Z 03010KT 9999 VCSH FEW013 FEW020TCU 28/24 Q1014
YBBN,2014-12-31 22:30,153.1292,-27.3917,84.20,75.20,74.44,30.00,9.00,0.00,29.94,M,6.21,M,FEW,FEW,M,M,1300.00,2000.00,M,M,VCSH,YBBN 312230Z 03009KT 9999 VCSH FEW013 FEW020TCU 29/24 Q1014
YBBN,2014-12-31 23:00,153.1292,-27.3917,82.40,73.40,74.28,30.00,9.00,0.00,29.97,M,6.21,M,FEW,SCT,FEW,M,1500.00,16000.00,2000.00,M,M,YBBN 312300Z 03009KT 9999 FEW015 SCT160 FEW020TCU 28/23 Q1015 INTER 2300/0200 3000 SHRA BKN010
YBBN,2014-12-31 23:30,153.1292,-27.3917,82.40,73.40,74.28,20.00,8.00,0.00,29.97,M,6.21,M,FEW,BKN,FEW,M,1700.00,13500.00,2000.00,M,M,YBBN 312330Z 02008KT 9999 FEW017 BKN135 FEW020TCU 28/23 Q1015
