#DEBUG: Format Typ    -> comma
#DEBUG: Time Period   -> 2015-03-09 00:00:00+00:00 2015-03-10 00:00:00+00:00
#DEBUG: Time Zone     -> Etc/UTC
#DEBUG: Data Contact   -> daryl herzmann akrherz@iastate.edu 515-294-5978
#DEBUG: Entries Found -> -1
station,valid,lon,lat,tmpf, dwpf, relh, drct, sknt, p01i, alti, mslp, vsby, gust, skyc1, skyc2, skyc3, skyc4, skyl1, skyl2, skyl3, skyl4, presentwx, metar
YBBN,2015-03-09 00:00,153.1292,-27.3917,84.20,69.80,62.03,90.00,5.00,0.00,29.88,M,6.21,M,SCT,M,M,M,2200.00,M,M,M,M,YBBN 090000Z 09005KT 9999 SCT022 29/21 Q1012 NOSIG
YBBN,2015-03-09 00:30,153.1292,-27.3917,84.20,69.80,62.03,120.00,5.00,0.00,29.88,M,6.21,M,SCT,M,M,M,2400.00,M,M,M,M,YBBN 090030Z 12005KT 9999 SCT024 29/21 Q1012
YBBN,2015-03-09 01:00,153.1292,-27.3917,84.20,68.00,58.32,110.00,6.00,0.00,29.88,M,6.21,M,FEW,M,M,M,2500.00,M,M,M,M,YBBN 090100Z 11006KT 9999 FEW025 29/20 Q1012
YBBN,2015-03-09 01:30,153.1292,-27.3917,84.20,69.80,62.03,70.00,7.00,0.00,29.88,M,6.21,M,FEW,M,M,M,2500.00,M,M,M,M,YBBN 090130Z 07007KT 9999 FEW025 29/21 Q1012
YBBN,2015-03-09 02:00,153.1292,-27.3917,84.20,69.80,62.03,80.00,7.00,0.00,29.85,M,6.21,M,FEW,M,M,M,2500.00,M,M,M,M,YBBN 090200Z 08007KT 9999 FEW025 29/21 Q1011 NOSIG
YBBN,2015-03-09 02:30,153.1292,-27.3917,84.20,69.80,62.03,80.00,7.00,0.00,29.85,M,6.21,M,FEW,SCT,M,M,2800.00,25000.00,M,M,M,YBBN 090230Z 08007KT 9999 FEW028 SCT250 29/21 Q1011
YBBN,2015-03-09 03:00,153.1292,-27.3917,86.00,69.80,58.55,60.00,9.00,0.00,29.85,M,6.21,M,FEW,M,M,M,3000.00,M,M,M,M,YBBN 090300Z 06009KT 9999 FEW030 30/21 Q1011 NOSIG
YBBN,2015-03-09 03:30,153.1292,-27.3917,84.20,71.60,65.95,70.00,8.00,0.00,29.83,M,6.21,M,FEW,SCT,M,M,3000.00,25000.00,M,M,M,YBBN 090330Z 07008KT 9999 FEW030 SCT250 29/22 Q1010
YBBN,2015-03-09 04:00,153.1292,-27.3917,84.20,71.60,65.95,70.00,9.00,0.00,29.83,M,6.21,M,FEW,M,M,M,3000.00,M,M,M,M,YBBN 090400Z 07009KT 9999 FEW030 29/22 Q1010 NOSIG
YBBN,2015-03-09 04:30,153.1292,-27.3917,84.20,69.80,62.03,70.00,8.00,0.00,29.83,M,6.21,M,FEW,M,M,M,3000.00,M,M,M,M,YBBN 090430Z 07008KT 9999 FEW030 29/21 Q1010
YBBN,2015-03-09 05:00,153.1292,-27.3917,84.20,69.80,62.03,60.00,10.00,0.00,29.83,M,6.21,M,FEW,M,M,M,3000.00,M,M,M,M,YBBN 090500Z 06010KT 9999 FEW030 29/21 Q1010
YBBN,2015-03-09 05:30,153.1292,-27.3917,84.20,69.80,62.03,50.00,12.00,0.00,29.83,M,6.21,M,FEW,SCT,M,M,3000.00,25000.00,M,M,M,YBBN 090530Z 05012KT 9999 FEW030 SCT250 29/21 Q1010
YBBN,2015-03-09 06:00,153.1292,-27.3917,84.20,69.80,62.03,50.00,11.00,0.00,29.83,M,6.21,M,FEW,M,M,M,3000.00,M,M,M,M,YBBN 090600Z 05011KT 9999 FEW030 29/21 Q1010
YBBN,2015-03-09 06:30,153.1292,-27.3917,82.40,69.80,65.74,50.00,11.00,0.00,29.83,M,6.21,M,FEW,M,M,M,3000.00,M,M,M,M,YBBN 090630Z 05011KT 9999 FEW030 28/21 Q1010
YBBN,2015-03-09 07:00,153.1292,-27.3917,82.40,69.80,65.74,50.00,9.00,0.00,29.83,M,6.21,M,FEW,M,M,M,3000.00,M,M,M,M,YBBN 090700Z 05009KT 9999 FEW030 28/21 Q1010 NOSIG
YBBN,2015-03-09 07:30,153.1292,-27.3917,82.40,69.80,65.74,50.00,9.00,0.00,29.85,M,6.21,M,FEW,M,M,M,3000.00,M,M,M,M,YBBN 090730Z 05009KT 9999 FEW030 28/21 Q1011
YBBN,2015-03-09 08:00,153.1292,-27.3917,80.60,69.80,69.71,50.00,8.00,0.00,29.85,M,6.21,M,FEW,BKN,M,M,2800.00,17000.00,M,M,M,YBBN 090800Z 05008KT 9999 FEW028 BKN170 27/21 Q1011 NOSIG
YBBN,2015-03-09 08:30,153.1292,-27.3917,78.80,71.60,78.62,40.00,9.00,0.00,29.85,M,6.21,M,FEW,BKN,M,M,1700.00,18000.00,M,M,M,YBBN 090830Z 04009KT 9999 FEW017 BKN180 26/22 Q1011
YBBN,2015-03-09 09:00,153.1292,-27.3917,78.80,71.60,78.62,50.00,8.00,0.00,29.85,M,6.21,M,FEW,SCT,M,M,1800.00,18000.00,M,M,M,YBBN 090900Z 05008KT 9999 FEW018 SCT180 26/22 Q1011 NOSIG
YBBN,2015-03-09 09:30,153.1292,-27.3917,78.80,71.60,78.62,50.00,9.00,0.00,29.88,M,6.21,M,FEW,SCT,M,M,2000.00,18000.00,M,M,M,YBBN 090930Z 05009KT 9999 FEW020 SCT180 26/22 Q1012
YBBN,2015-03-09 10:00,153.1292,-27.3917,78.80,71.60,78.62,50.00,7.00,0.00,29.88,M,6.21,M,SCT,SCT,M,M,2200.00,18000.00,M,M,M,YBBN 091000Z 05007KT 9999 SCT022 SCT180 26/22 Q1012 NOSIG
YBBN,2015-03-09 10:30,153.1292,-27.3917,78.80,71.60,78.62,40.00,8.00,0.00,29.88,M,6.21,M,SCT,M,M,M,2100.00,M,M,M,M,YBBN 091030Z 04008KT 9999 SCT021 26/22 Q1012
YBBN,2015-03-09 11:00,153.1292,-27.3917,78.80,71.60,78.62,60.00,4.00,0.00,29.91,M,6.21,M,SCT,M,M,M,2100.00,M,M,M,M,YBBN 091100Z 06004KT 9999 SCT021 26/22 Q1013
YBBN,2015-03-09 11:30,153.1292,-27.3917,77.00,71.60,83.44,50.00,5.00,0.00,29.91,M,6.21,M,FEW,M,M,M,2100.00,M,M,M,M,YBBN 091130Z 05005KT 9999 FEW021 25/22 Q1013
YBBN,2015-03-09 12:00,153.1292,-27.3917,78.80,71.60,78.62,60.00,4.00,0.00,29.91,M,6.21,M,SCT,M,M,M,2000.00,M,M,M,M,YBBN 091200Z 06004KT 9999 SCT020 26/22 Q1013
YBBN,2015-03-09 12:30,153.1292,-27.3917,78.80,71.60,78.62,50.00,5.00,0.00,29.91,M,6.21,M,SCT,SCT,M,M,2000.00,17000.00,M,M,M,YBBN 091230Z 05005KT 9999 SCT020 SCT170 26/22 Q1013
YBBN,2015-03-09 13:00,153.1292,-27.3917,77.00,71.60,83.44,60.00,4.00,0.00,29.91,M,6.21,M,SCT,SCT,M,M,2000.00,17000.00,M,M,M,YBBN 091300Z 06004KT 9999 SCT020 SCT170 25/22 Q1013
YBBN,2015-03-09 13:30,153.1292,-27.3917,78.80,71.60,78.62,50.00,3.00,0.00,29.91,M,6.21,M,SCT,M,M,M,2000.00,M,M,M,M,YBBN 091330Z 05003KT 9999 SCT020 26/22 Q1013
YBBN,2015-03-09 14:00,153.1292,-27.3917,77.00,71.60,83.44,60.00,5.00,0.00,29.91,M,6.21,M,SCT,M,M,M,1800.00,M,M,M,M,YBBN 091400Z 06005KT 9999 SCT018 25/22 Q1013 NOSIG
YBBN,2015-03-09 14:30,153.1292,-27.3917,77.00,71.60,83.44,60.00,4.00,0.00,29.91,M,6.21,M,SCT,M,M,M,1800.00,M,M,M,M,YBBN 091430Z 06004KT 9999 SCT018 25/22 Q1013
YBBN,2015-03-09 15:00,153.1292,-27.3917,77.00,71.60,83.44,70.00,4.00,0.00,29.88,M,6.21,M,SCT,M,M,M,1800.00,M,M,M,M,YBBN 091500Z 07004KT 9999 SCT018 25/22 Q1012
YBBN,2015-03-09 15:30,153.1292,-27.3917,77.00,71.60,83.44,90.00,4.00,0.00,29.88,M,6.21,M,SCT,M,M,M,1800.00,M,M,M,M,YBBN 091530Z 09004KT 9999 SCT018 25/22 Q1012
YBBN,2015-03-09 16:00,153.1292,-27.3917,77.00,73.40,88.67,90.00,5.00,0.00,29.88,M,6.21,M,SCT,M,M,M,1800.00,M,M,M,M,YBBN 091600Z 09005KT 9999 SCT018 25/23 Q1012
YBBN,2015-03-09 16:30,153.1292,-27.3917,77.00,71.60,83.44,70.00,4.00,0.00,29.88,M,6.21,M,FEW,SCT,M,M,1700.00,1900.00,M,M,M,YBBN 091630Z 07004KT 9999 FEW017 SCT019 25/22 Q1012
YBBN,2015-03-09 17:00,153.1292,-27.3917,77.00,71.60,83.44,80.00,4.00,0.00,29.88,M,6.21,M,FEW,SCT,M,M,1700.00,1900.00,M,M,M,YBBN 091700Z 08004KT 9999 FEW017 SCT019 25/22 Q1012 NOSIG
YBBN,2015-03-09 17:30,153.1292,-27.3917,77.00,71.60,83.44,80.00,4.00,0.00,29.88,M,6.21,M,SCT,M,M,M,2000.00,M,M,M,M,YBBN 091730Z 08004KT 9999 SCT020 25/22 Q1012
YBBN,2015-03-09 18:00,153.1292,-27.3917,77.00,71.60,83.44,90.00,5.00,0.00,29.88,M,6.21,M,SCT,M,M,M,1900.00,M,M,M,M,YBBN 091800Z 09005KT 9999 SCT019 25/22 Q1012
YBBN,2015-03-09 18:30,153.1292,-27.3917,77.00,73.40,88.67,80.00,5.00,0.00,29.88,M,6.21,M,FEW,SCT,M,M,1500.00,1800.00,M,M,M,YBBN 091830Z 08005KT 9999 FEW015 SCT018 25/23 Q1012
YBBN,2015-03-09 19:00,153.1292,-27.3917,77.00,71.60,83.44,90.00,7.00,0.00,29.88,M,6.21,M,FEW,SCT,M,M,1600.00,1800.00,M,M,M,YBBN 091900Z 09007KT 9999 FEW016 SCT018 25/22 Q1012
YBBN,2015-03-09 19:30,153.1292,-27.3917,77.00,71.60,83.44,100.00,7.00,0.00,29.88,M,6.21,M,FEW,SCT,M,M,1600.00,1900.00,M,M,M,YBBN 091930Z 10007KT 9999 FEW016 SCT019 25/22 Q1012
YBBN,2015-03-09 20:00,153.1292,-27.3917,77.00,71.60,83.44,100.00,6.00,0.00,29.91,M,6.21,M,FEW,SCT,M,M,1600.00,1900.00,M,M,M,YBBN 092000Z 10006KT 9999 FEW016 SCT019 25/22 Q1013
YBBN,2015-03-09 20:30,153.1292,-27.3917,78.80,71.60,78.62,100.00,6.00,0.00,29.91,M,6.21,M,FEW,SCT,M,M,1600.00,1900.00,M,M,M,YBBN 092030Z 10006KT 9999 FEW016 SCT019 26/22 Q1013
YBBN,2015-03-09 21:00,153.1292,-27.3917,78.80,71.60,78.62,100.00,7.00,0.00,29.94,M,6.21,M,FEW,M,M,M,2200.00,M,M,M,M,YBBN 092100Z 10007KT 9999 FEW022 26/22 Q1014 NOSIG
YBBN,2015-03-09 21:30,153.1292,-27.3917,78.80,71.60,78.62,110.00,7.00,0.00,29.94,M,6.21,M,FEW,M,M,M,2200.00,M,M,M,M,YBBN 092130Z 11007KT 9999 FEW022 26/22 Q1014
YBBN,2015-03-09 22:00,153.1292,-27.3917,80.60,71.60,74.11,100.00,7.00,0.00,29.94,M,6.21,M,FEW,M,M,M,2500.00,M,M,M,M,YBBN 092200Z 10007KT 9999 FEW025 27/22 Q1014 NOSIG
YBBN,2015-03-09 22:30,153.1292,-27.3917,80.60,71.60,74.11,80.00,8.00,0.00,29.94,M,6.21,M,FEW,M,M,M,2500.00,M,M,M,M,YBBN 092230Z 08008KT 9999 FEW025 27/22 Q1014
YBBN,2015-03-09 23:00,153.1292,-27.3917,82.40,71.60,69.90,90.00,8.00,0.00,29.94,M,6.21,M,FEW,M,M,M,2500.00,M,M,M,M,YBBN 092300Z 09008KT 9999 FEW025 28/22 Q1014
YBBN,2015-03-09 23:30,153.1292,-27.3917,82.40,71.60,69.90,90.00,7.00,0.00,29.94,M,6.21,M,SCT,M,M,M,2500.00,M,M,M,M,YBBN 092330Z 09007KT 9999 SCT025 28/22 Q1014
