#DEBUG: Format Typ    -> comma
#DEBUG: Time Period   -> 2013-11-16 00:00:00+00:00 2013-11-17 00:00:00+00:00
#DEBUG: Time Zone     -> Etc/UTC
#DEBUG: Data Contact   -> daryl herzmann akrherz@iastate.edu 515-294-5978
#DEBUG: Entries Found -> -1
station,valid,lon,lat,tmpf, dwpf, relh, drct, sknt, p01i, alti, mslp, vsby, gust, skyc1, skyc2, skyc3, skyc4, skyl1, skyl2, skyl3, skyl4, presentwx, metar
YBBN,2013-11-16 00:00,153.1292,-27.3917,75.20,64.40,69.14,50.00,8.00,0.00,29.85,M,6.21,M,FEW,SCT,BKN,M,2400.00,2800.00,4000.00,M,VCSH,YBBN 160000Z 05008KT 9999 VCSH FEW024 SCT028 BKN040 24/18 Q1011
YBBN,2013-11-16 00:30,153.1292,-27.3917,77.00,66.20,69.33,50.00,9.00,0.00,29.83,M,6.21,M,FEW,SCT,BKN,FEW,2400.00,2700.00,5200.00,3000.00,M,YBBN 160030Z 05009KT 9999 FEW024 SCT027 BKN052 FEW030CB 25/19 Q1010 RMK DIST +SHRA AND CB SE
YBBN,2013-11-16 01:00,153.1292,-27.3917,78.80,66.20,65.33,40.00,10.00,0.00,29.83,M,6.21,M,FEW,SCT,BKN,FEW,2400.00,2700.00,4200.00,2800.00,M,YBBN 160100Z 04010KT 9999 FEW024 SCT027 BKN042 FEW028TCU 26/19 Q1010
YBBN,2013-11-16 01:30,153.1292,-27.3917,78.80,66.20,65.33,50.00,11.00,0.00,29.83,M,6.21,M,FEW,SCT,BKN,FEW,2000.00,2800.00,4200.00,3000.00,M,YBBN 160130Z 05011KT 9999 FEW020 SCT028 BKN042 FEW030TCU 26/19 Q1010
YBBN,2013-11-16 02:00,153.1292,-27.3917,78.80,60.80,54.05,70.00,11.00,0.00,29.80,M,6.21,M,FEW,SCT,FEW,M,2200.00,2800.00,3000.00,M,M,YBBN 160200Z 07011KT 9999 FEW022 SCT028 FEW030TCU 26/16 Q1009
YBBN,2013-11-16 02:30,153.1292,-27.3917,78.80,59.00,50.69,70.00,13.00,0.00,29.80,M,6.21,M,FEW,SCT,BKN,FEW,2400.00,3000.00,30000.00,3200.00,VCSH,YBBN 160230Z 07013KT 9999 VCSH FEW024 SCT030 BKN300 FEW032CB 26/15 Q1009
YBBN,2013-11-16 03:00,153.1292,-27.3917,75.20,59.00,57.12,60.00,14.00,0.00,29.77,M,6.21,M,FEW,BKN,FEW,M,2400.00,30000.00,3200.00,M,VCSH,YBBN 160300Z 06014KT 9999 VCSH FEW024 BKN300 FEW032CB 24/15 Q1008
YBBN,2013-11-16 03:30,153.1292,-27.3917,75.20,59.00,57.12,70.00,9.00,0.00,29.77,M,6.21,M,FEW,SCT,BKN,FEW,2400.00,4200.00,30000.00,3200.00,VCSH,YBBN 160330Z 07009KT 9999 VCSH FEW024 SCT042 BKN300 FEW032CB 24/15 Q1008 RMK CB AND DIST +SHRA SW AND NW
YBBN,2013-11-16 04:00,153.1292,-27.3917,77.00,60.80,57.36,50.00,14.00,0.00,29.74,M,6.21,M,FEW,SCT,BKN,FEW,2300.00,3500.00,30000.00,3200.00,VCSH,YBBN 160400Z 05014KT 9999 VCSH FEW023 SCT035 BKN300 FEW032CB 25/16 Q1007
YBBN,2013-11-16 04:30,153.1292,-27.3917,75.20,66.20,73.61,60.00,13.00,0.00,29.74,M,6.21,M,FEW,BKN,M,M,1800.00,2500.00,M,M,VCSH,YBBN 160430Z 06013KT 9999 VCSH FEW018 BKN025 24/19 Q1007 RMK DIST CB AND +SHRA S/SE
YBBN,2013-11-16 05:00,153.1292,-27.3917,73.40,62.60,68.94,60.00,13.00,0.00,29.74,M,6.21,M,FEW,BKN,FEW,M,1700.00,2300.00,2400.00,M,VCSH,YBBN 160500Z 06013KT 9999 VCSH FEW017 BKN023 FEW024TCU 23/17 Q1007
YBBN,2013-11-16 05:30,153.1292,-27.3917,77.00,62.60,61.13,40.00,14.00,0.00,29.74,M,6.21,M,FEW,SCT,FEW,M,1800.00,2500.00,2600.00,M,VCSH,YBBN 160530Z 04014KT 9999 VCSH FEW018 SCT025 FEW026TCU 25/17 Q1007 RMK DIST CB AND +SHRA SE
YBBN,2013-11-16 06:00,153.1292,-27.3917,77.00,60.80,57.36,40.00,15.00,0.00,29.74,M,6.21,M,FEW,SCT,FEW,M,2000.00,2600.00,2700.00,M,VCSH,YBBN 160600Z 04015KT 9999 VCSH FEW020 SCT026 FEW027TCU 25/16 Q1007 TEMPO 0800/0900 VRB20G30KT 2000 TSRA BKN015 SCT040CB
YBBN,2013-11-16 06:30,153.1292,-27.3917,75.20,60.80,60.90,40.00,11.00,0.00,29.74,M,6.21,M,FEW,SCT,BKN,M,2200.00,2700.00,3600.00,M,M,YBBN 160630Z 04011KT 9999 FEW022 SCT027 BKN036 24/16 Q1007 RMK DIST CB TOP EAST
YBBN,2013-11-16 07:00,153.1292,-27.3917,77.00,60.80,57.36,40.00,10.00,0.00,29.74,M,6.21,M,FEW,SCT,M,M,2200.00,3400.00,M,M,M,YBBN 160700Z 04010KT 9999 FEW022 SCT034 25/16 Q1007
YBBN,2013-11-16 07:30,153.1292,-27.3917,75.20,60.80,60.90,50.00,10.00,0.00,29.77,M,6.21,M,FEW,M,M,M,2200.00,M,M,M,M,YBBN 160730Z 05010KT 9999 FEW022 24/16 Q1008
YBBN,2013-11-16 08:00,153.1292,-27.3917,73.40,64.40,73.44,10.00,13.00,0.00,29.80,M,6.21,M,FEW,M,M,M,2200.00,M,M,M,M,YBBN 160800Z 01013KT 9999 FEW022 23/18 Q1009
YBBN,2013-11-16 08:30,153.1292,-27.3917,73.40,66.20,78.19,10.00,13.00,0.00,29.80,M,6.21,M,FEW,SCT,M,M,2200.00,3000.00,M,M,M,YBBN 160830Z 01013KT 9999 FEW022 SCT030 23/19 Q1009 RMK CB TOPS TO S
YBBN,2013-11-16 09:00,153.1292,-27.3917,73.40,66.20,78.19,360.00,11.00,0.00,29.77,M,6.21,M,SCT,SCT,M,M,1900.00,3000.00,M,M,M,YBBN 160900Z 36011KT 9999 SCT019 SCT030 23/19 Q1008 NOSIG
YBBN,2013-11-16 09:30,153.1292,-27.3917,73.40,66.20,78.19,360.00,14.00,0.00,29.80,M,6.21,M,FEW,SCT,M,M,1800.00,25000.00,M,M,M,YBBN 160930Z 36014KT 9999 FEW018 SCT250 23/19 Q1009 RMK CB TOPS TO SE
YBBN,2013-11-16 10:00,153.1292,-27.3917,71.60,64.40,78.04,340.00,13.00,0.00,29.80,M,6.21,M,FEW,BKN,M,M,1900.00,25000.00,M,M,M,YBBN 161000Z 34013KT 9999 FEW019 BKN250 22/18 Q1009
YBBN,2013-11-16 10:30,153.1292,-27.3917,71.60,64.40,78.04,270.00,6.00,0.00,29.83,M,6.21,M,FEW,SCT,BKN,M,2300.00,7000.00,26000.00,M,M,YBBN 161030Z 27006KT 9999 FEW023 SCT070 BKN260 22/18 Q1010
YBBN,2013-11-16 11:00,153.1292,-27.3917,71.60,64.40,78.04,180.00,5.00,0.00,29.83,M,6.21,M,FEW,SCT,M,M,2400.00,8000.00,M,M,M,YBBN 161100Z 18005KT 9999 FEW024 SCT080 22/18 Q1010
YBBN,2013-11-16 11:30,153.1292,-27.3917,69.80,59.00,68.55,130.00,11.00,0.00,29.85,M,6.21,M,SCT,BKN,M,M,2300.00,8000.00,M,M,M,YBBN 161130Z 13011KT 9999 SCT023 BKN080 21/15 Q1011 RMK LIGHTNING CB TOPS TO E
YBBN,2013-11-16 12:00,153.1292,-27.3917,68.00,59.00,72.92,140.00,13.00,0.00,29.85,M,6.21,M,FEW,BKN,M,M,3000.00,5000.00,M,M,M,YBBN 161200Z 14013KT 9999 FEW030 BKN050 20/15 Q1011
YBBN,2013-11-16 12:30,153.1292,-27.3917,68.00,59.00,72.92,140.00,11.00,0.00,29.85,M,6.21,M,FEW,BKN,M,M,3000.00,4500.00,M,M,M,YBBN 161230Z 14011KT 9999 FEW030 BKN045 20/15 Q1011
YBBN,2013-11-16 13:00,153.1292,-27.3917,68.00,59.00,72.92,150.00,9.00,0.00,29.85,M,6.21,M,FEW,BKN,M,M,1200.00,4200.00,M,M,M,YBBN 161300Z 15009KT 9999 FEW012 BKN042 20/15 Q1011
YBBN,2013-11-16 13:30,153.1292,-27.3917,68.00,59.00,72.92,150.00,9.00,0.00,29.83,M,6.21,M,BKN,M,M,M,4200.00,M,M,M,M,YBBN 161330Z 15009KT 9999 BKN042 20/15 Q1010
YBBN,2013-11-16 14:00,153.1292,-27.3917,68.00,59.00,72.92,160.00,8.00,0.00,29.85,M,6.21,M,FEW,BKN,M,M,1500.00,4000.00,M,M,M,YBBN 161400Z 16008KT 9999 FEW015 BKN040 20/15 Q1011
YBBN,2013-11-16 14:30,153.1292,-27.3917,68.00,59.00,72.92,180.00,6.00,0.00,29.85,M,6.21,M,FEW,BKN,M,M,1900.00,4200.00,M,M,M,YBBN 161430Z 18006KT 9999 FEW019 BKN042 20/15 Q1011
YBBN,2013-11-16 15:00,153.1292,-27.3917,68.00,59.00,72.92,170.00,7.00,0.00,29.85,M,6.21,M,BKN,BKN,M,M,1900.00,4500.00,M,M,M,YBBN 161500Z 17007KT 9999 BKN019 BKN045 20/15 Q1011
YBBN,2013-11-16 15:30,153.1292,-27.3917,68.00,57.20,68.35,170.00,8.00,0.00,29.83,M,6.21,M,FEW,BKN,M,M,1900.00,4500.00,M,M,M,YBBN 161530Z 17008KT 9999 FEW019 BKN045 20/14 Q1010
YBBN,2013-11-16 16:00,153.1292,-27.3917,66.20,57.20,72.74,190.00,7.00,0.00,29.83,M,6.21,M,FEW,SCT,OVC,M,2300.00,4500.00,5000.00,M,M,YBBN 161600Z 19007KT 9999 FEW023 SCT045 OVC050 19/14 Q1010 NOSIG
YBBN,2013-11-16 16:30,153.1292,-27.3917,66.20,57.20,72.74,140.00,5.00,0.00,29.80,M,6.21,M,FEW,BKN,M,M,2300.00,5000.00,M,M,M,YBBN 161630Z 14005KT 9999 FEW023 BKN050 19/14 Q1009
YBBN,2013-11-16 17:00,153.1292,-27.3917,68.00,57.20,68.35,150.00,5.00,0.00,29.83,M,6.21,M,FEW,OVC,M,M,2300.00,5000.00,M,M,M,YBBN 161700Z 15005KT 9999 FEW023 OVC050 20/14 Q1010 NOSIG
YBBN,2013-11-16 17:30,153.1292,-27.3917,68.00,57.20,68.35,160.00,5.00,0.00,29.83,M,6.21,M,FEW,BKN,M,M,2300.00,5300.00,M,M,M,YBBN 161730Z 16005KT 9999 FEW023 BKN053 20/14 Q1010
YBBN,2013-11-16 18:00,153.1292,-27.3917,66.20,57.20,72.74,170.00,5.00,0.00,29.83,M,6.21,M,FEW,SCT,BKN,M,2000.00,5300.00,32000.00,M,M,YBBN 161800Z 17005KT 9999 FEW020 SCT053 BKN320 19/14 Q1010
YBBN,2013-11-16 18:30,153.1292,-27.3917,66.20,57.20,72.74,170.00,5.00,0.00,29.83,M,6.21,M,FEW,BKN,BKN,M,2000.00,5300.00,24000.00,M,M,YBBN 161830Z 17005KT 9999 FEW020 BKN053 BKN240 19/14 Q1010
YBBN,2013-11-16 19:00,153.1292,-27.3917,66.20,57.20,72.74,180.00,6.00,0.00,29.85,M,6.21,M,FEW,SCT,BKN,M,2000.00,4500.00,24000.00,M,M,YBBN 161900Z 18006KT 9999 FEW020 SCT045 BKN240 19/14 Q1011
YBBN,2013-11-16 19:30,153.1292,-27.3917,66.20,57.20,72.74,200.00,5.00,0.00,29.85,M,6.21,M,FEW,SCT,BKN,M,1800.00,5000.00,24000.00,M,M,YBBN 161930Z 20005KT 9999 FEW018 SCT050 BKN240 19/14 Q1011
YBBN,2013-11-16 20:00,153.1292,-27.3917,66.20,57.20,72.74,210.00,8.00,0.00,29.85,M,6.21,M,BKN,BKN,M,M,1800.00,26000.00,M,M,M,YBBN 162000Z 21008KT 9999 BKN018 BKN260 19/14 Q1011 NOSIG
YBBN,2013-11-16 20:30,153.1292,-27.3917,68.00,57.20,68.35,200.00,7.00,0.00,29.85,M,6.21,M,SCT,SCT,BKN,M,1700.00,3800.00,26000.00,M,M,YBBN 162030Z 20007KT 9999 SCT017 SCT038 BKN260 20/14 Q1011
YBBN,2013-11-16 21:00,153.1292,-27.3917,69.80,57.20,64.26,170.00,6.00,0.00,29.88,M,6.21,M,FEW,SCT,BKN,M,1600.00,1800.00,26000.00,M,M,YBBN 162100Z 17006KT 9999 FEW016 SCT018 BKN260 21/14 Q1012
YBBN,2013-11-16 21:30,153.1292,-27.3917,69.80,57.20,64.26,170.00,6.00,0.00,29.88,M,6.21,M,FEW,SCT,BKN,M,1800.00,23000.00,26000.00,M,M,YBBN 162130Z 17006KT 9999 FEW018 SCT230 BKN260 21/14 Q1012
YBBN,2013-11-16 22:00,153.1292,-27.3917,71.60,59.00,64.48,120.00,5.00,0.00,29.88,M,6.21,M,FEW,SCT,BKN,M,1700.00,2400.00,26000.00,M,M,YBBN 162200Z 12005KT 9999 FEW017 SCT024 BKN260 22/15 Q1012
YBBN,2013-11-16 22:30,153.1292,-27.3917,71.60,60.80,68.75,130.00,6.00,0.00,29.88,M,6.21,M,FEW,SCT,BKN,M,1900.00,2700.00,26000.00,M,M,YBBN 162230Z 13006KT 9999 FEW019 SCT027 BKN260 22/16 Q1012
YBBN,2013-11-16 23:00,153.1292,-27.3917,71.60,60.80,68.75,130.00,7.00,0.00,29.88,M,6.21,M,FEW,SCT,BKN,M,2000.00,2700.00,26000.00,M,M,YBBN 162300Z 13007KT 9999 FEW020 SCT027 BKN260 22/16 Q1012 NOSIG
YBBN,2013-11-16 23:30,153.1292,-27.3917,71.60,62.60,73.27,120.00,6.00,0.00,29.88,M,6.21,M,FEW,BKN,M,M,2200.00,2500.00,M,M,M,YBBN 162330Z 12006KT 9999 FEW022 BKN025 22/17 Q1012 RMK HZ
