#DEBUG: Format Typ    -> comma
#DEBUG: Time Period   -> 2016-05-06 00:00:00+00:00 2016-05-07 00:00:00+00:00
#DEBUG: Time Zone     -> Etc/UTC
#DEBUG: Data Contact   -> daryl herzmann akrherz@iastate.edu 515-294-5978
#DEBUG: Entries Found -> -1
station,valid,lon,lat,tmpf, dwpf, relh, drct, sknt, p01i, alti, mslp, vsby, gust, skyc1, skyc2, skyc3, skyc4, skyl1, skyl2, skyl3, skyl4, presentwx, metar
YBBN,2016-05-06 00:30,153.1292,-27.3917,75.20,60.80,60.90,100.00,4.00,0.00,30.09,M,6.21,M,FEW,SCT,M,M,3000.00,32000.00,M,M,M,YBBN 060030Z 10004KT 060V130 9999 FEW030 SCT320 24/16 Q1019
YBBN,2016-05-06 01:00,153.1292,-27.3917,77.00,60.80,57.36,130.00,5.00,0.00,30.09,M,6.21,M,FEW,SCT,M,M,3200.00,30000.00,M,M,M,YBBN 060100Z 13005KT 090V150 9999 FEW032 SCT300 25/16 Q1019 NOSIG
YBBN,2016-05-06 01:30,153.1292,-27.3917,77.00,60.80,57.36,130.00,6.00,0.00,30.06,M,6.21,M,FEW,M,M,M,3000.00,M,M,M,M,YBBN 060130Z 13006KT 9999 FEW030 25/16 Q1018 NOSIG
YBBN,2016-05-06 02:00,153.1292,-27.3917,77.00,59.00,53.80,110.00,6.00,0.00,30.06,M,6.21,M,FEW,M,M,M,3200.00,M,M,M,M,YBBN 060200Z 11006KT 050V150 9999 FEW032 25/15 Q1018 NOSIG
YBBN,2016-05-06 02:30,153.1292,-27.3917,77.00,60.80,57.36,40.00,7.00,0.00,30.06,M,6.21,M,FEW,M,M,M,3000.00,M,M,M,M,YBBN 060230Z 04007KT 9999 FEW030 25/16 Q1018 NOSIG
YBBN,2016-05-06 03:00,153.1292,-27.3917,78.80,62.60,57.60,30.00,8.00,0.00,30.03,M,6.21,M,FEW,M,M,M,3400.00,M,M,M,M,YBBN 060300Z 03008KT 9999 FEW034 26/17 Q1017 NOSIG
YBBN,2016-05-06 03:30,153.1292,-27.3917,77.00,62.60,61.13,50.00,8.00,0.00,30.03,M,6.21,M,FEW,SCT,M,M,4500.00,32000.00,M,M,M,YBBN 060330Z 05008KT 9999 FEW045 SCT320 25/17 Q1017 NOSIG
YBBN,2016-05-06 04:00,153.1292,-27.3917,78.80,60.80,54.05,30.00,10.00,0.00,30.03,M,6.21,M,M,M,M,M,M,M,M,M,M,YBBN 060400Z 03010KT CAVOK 26/16 Q1017 NOSIG
YBBN,2016-05-06 04:30,153.1292,-27.3917,77.00,60.80,57.36,50.00,8.00,0.00,30.03,M,6.21,M,M,M,M,M,M,M,M,M,M,YBBN 060430Z 05008KT CAVOK 25/16 Q1017
YBBN,2016-05-06 05:00,153.1292,-27.3917,77.00,62.60,61.13,60.00,7.00,0.00,30.03,M,6.21,M,M,M,M,M,M,M,M,M,M,YBBN 060500Z 06007KT CAVOK 25/17 Q1017
YBBN,2016-05-06 05:30,153.1292,-27.3917,75.20,62.60,64.91,60.00,7.00,0.00,30.03,M,6.21,M,FEW,SCT,M,M,4500.00,35000.00,M,M,M,YBBN 060530Z 06007KT 9999 FEW045 SCT350 24/17 Q1017 NOSIG
YBBN,2016-05-06 06:00,153.1292,-27.3917,75.20,62.60,64.91,60.00,7.00,0.00,30.03,M,6.21,M,FEW,BKN,M,M,4000.00,32000.00,M,M,M,YBBN 060600Z 06007KT 9999 FEW040 BKN320 24/17 Q1017 NOSIG
YBBN,2016-05-06 06:30,153.1292,-27.3917,75.20,62.60,64.91,70.00,6.00,0.00,30.03,M,6.21,M,FEW,BKN,M,M,3500.00,30000.00,M,M,M,YBBN 060630Z 07006KT 9999 FEW035 BKN300 24/17 Q1017 NOSIG
YBBN,2016-05-06 07:00,153.1292,-27.3917,73.40,62.60,68.94,60.00,5.00,0.00,30.03,M,6.21,M,FEW,BKN,M,M,3000.00,30000.00,M,M,M,YBBN 060700Z 06005KT 9999 FEW030 BKN300 23/17 Q1017
YBBN,2016-05-06 08:00,153.1292,-27.3917,71.60,60.80,68.75,60.00,5.00,0.00,30.06,M,6.21,M,M,M,M,M,M,M,M,M,M,YBBN 060800Z 06005KT CAVOK 22/16 Q1018
YBBN,2016-05-06 09:00,153.1292,-27.3917,71.60,62.60,73.27,60.00,4.00,0.00,30.06,M,6.21,M,M,M,M,M,M,M,M,M,M,YBBN 060900Z 06004KT CAVOK 22/17 Q1018
YBBN,2016-05-06 10:00,153.1292,-27.3917,69.80,64.40,82.98,80.00,3.00,0.00,30.09,M,6.21,M,FEW,BKN,M,M,2000.00,30000.00,M,M,M,YBBN 061000Z 08003KT 9999 FEW020 BKN300 21/18 Q1019
YBBN,2016-05-06 10:30,153.1292,-27.3917,69.80,62.60,77.90,0.00,0.00,0.00,30.09,M,6.21,M,FEW,SCT,M,M,2000.00,30000.00,M,M,M,YBBN 061030Z 00000KT 9999 FEW020 SCT300 21/17 Q1019 NOSIG
YBBN,2016-05-06 11:00,153.1292,-27.3917,68.00,64.40,88.26,80.00,1.00,0.00,30.09,M,6.21,M,FEW,SCT,M,M,3000.00,30000.00,M,M,M,YBBN 061100Z 08001KT 9999 FEW030 SCT300 20/18 Q1019
YBBN,2016-05-06 12:00,153.1292,-27.3917,66.20,62.60,88.18,100.00,4.00,0.00,30.09,M,6.21,M,FEW,SCT,M,M,2000.00,30000.00,M,M,M,YBBN 061200Z 10004KT 9999 FEW020 SCT300 19/17 Q1019
YBBN,2016-05-06 14:00,153.1292,-27.3917,62.60,60.80,93.83,220.00,4.00,0.00,30.06,M,6.21,M,FEW,SCT,M,M,2000.00,3000.00,M,M,M,YBBN 061400Z 22004KT 9999 FEW020 SCT030 17/16 Q1018
YBBN,2016-05-06 14:30,153.1292,-27.3917,64.40,62.60,93.88,220.00,5.00,0.00,30.06,M,6.21,M,FEW,BKN,M,M,2000.00,3000.00,M,M,M,YBBN 061430Z 22005KT 9999 FEW020 BKN030 18/17 Q1018 NOSIG
YBBN,2016-05-06 15:00,153.1292,-27.3917,64.40,62.60,93.88,220.00,5.00,0.00,30.06,M,6.21,M,SCT,M,M,M,3000.00,M,M,M,M,YBBN 061500Z 22005KT 9999 SCT030 18/17 Q1018
YBBN,2016-05-06 15:30,153.1292,-27.3917,64.40,62.60,93.88,200.00,5.00,0.00,30.06,M,6.21,M,FEW,M,M,M,2500.00,M,M,M,M,YBBN 061530Z 20005KT 9999 FEW025 18/17 Q1018 NOSIG
YBBN,2016-05-06 16:00,153.1292,-27.3917,64.40,62.60,93.88,200.00,6.00,0.00,30.06,M,6.21,M,FEW,BKN,M,M,2500.00,4000.00,M,M,M,YBBN 061600Z 20006KT 9999 FEW025 BKN040 18/17 Q1018 NOSIG
YBBN,2016-05-06 16:30,153.1292,-27.3917,62.60,60.80,93.83,210.00,7.00,0.00,30.06,M,6.21,M,FEW,M,M,M,4000.00,M,M,M,M,YBBN 061630Z 21007KT 9999 FEW040 17/16 Q1018 NOSIG
YBBN,2016-05-06 17:00,153.1292,-27.3917,62.60,60.80,93.83,210.00,7.00,0.00,30.06,M,6.21,M,SCT,M,M,M,4000.00,M,M,M,M,YBBN 061700Z 21007KT 9999 SCT040 17/16 Q1018
YBBN,2016-05-06 17:30,153.1292,-27.3917,62.60,60.80,93.83,210.00,7.00,0.00,30.06,M,6.21,M,SCT,M,M,M,4000.00,M,M,M,M,YBBN 061730Z 21007KT 9999 SCT040 17/16 Q1018 NOSIG
YBBN,2016-05-06 18:00,153.1292,-27.3917,64.40,62.60,93.88,200.00,7.00,0.00,30.06,M,6.21,M,SCT,M,M,M,4000.00,M,M,M,M,YBBN 061800Z 20007KT 9999 SCT040 18/17 Q1018
YBBN,2016-05-06 18:30,153.1292,-27.3917,62.60,60.80,93.83,210.00,7.00,0.00,30.09,M,6.21,M,FEW,SCT,M,M,2000.00,4000.00,M,M,M,YBBN 061830Z 21007KT 9999 FEW020 SCT040 17/16 Q1019 NOSIG
YBBN,2016-05-06 19:00,153.1292,-27.3917,62.60,60.80,93.83,210.00,7.00,0.00,30.09,M,6.21,M,FEW,M,M,M,2000.00,M,M,M,M,YBBN 061900Z 21007KT 9999 FEW020 17/16 Q1019
YBBN,2016-05-06 19:30,153.1292,-27.3917,62.60,60.80,93.83,200.00,8.00,0.00,30.09,M,6.21,M,FEW,M,M,M,2000.00,M,M,M,M,YBBN 061930Z 20008KT 9999 FEW020 17/16 Q1019 NOSIG
YBBN,2016-05-06 20:00,153.1292,-27.3917,62.60,59.00,88.00,200.00,6.00,0.00,30.09,M,6.21,M,FEW,BKN,M,M,2000.00,30000.00,M,M,M,YBBN 062000Z 20006KT 9999 FEW020 BKN300 17/15 Q1019
YBBN,2016-05-06 20:30,153.1292,-27.3917,62.60,60.80,93.83,200.00,7.00,0.00,30.09,M,6.21,M,FEW,BKN,M,M,2500.00,30000.00,M,M,M,YBBN 062030Z 20007KT 9999 FEW025 BKN300 17/16 Q1019 NOSIG
YBBN,2016-05-06 21:00,153.1292,-27.3917,62.60,62.60,100.00,210.00,7.00,0.00,30.09,M,6.21,M,FEW,BKN,M,M,2500.00,30000.00,M,M,M,YBBN 062100Z 21007KT 9999 FEW025 BKN300 17/17 Q1019
YBBN,2016-05-06 22:00,153.1292,-27.3917,66.20,62.60,88.18,220.00,8.00,0.00,30.12,M,6.21,M,BKN,M,M,M,4000.00,M,M,M,M,YBBN 062200Z 22008KT 9999 BKN040 19/17 Q1020
YBBN,2016-05-06 23:00,153.1292,-27.3917,69.80,62.60,77.90,210.00,8.00,0.00,30.12,M,6.21,M,FEW,SCT,M,M,3000.00,5500.00,M,M,M,YBBN 062300Z 21008KT 9999 FEW030 SCT055 21/17 Q1020
