#DEBUG: Format Typ    -> comma
#DEBUG: Time Period   -> 2015-05-20 00:00:00+00:00 2015-05-21 00:00:00+00:00
#DEBUG: Time Zone     -> Etc/UTC
#DEBUG: Data Contact   -> daryl herzmann akrherz@iastate.edu 515-294-5978
#DEBUG: Entries Found -> -1
station,valid,lon,lat,tmpf, dwpf, relh, drct, sknt, p01i, alti, mslp, vsby, gust, skyc1, skyc2, skyc3, skyc4, skyl1, skyl2, skyl3, skyl4, presentwx, metar
YBBN,2015-05-20 00:00,153.1292,-27.3917,69.80,64.40,82.98,250.00,5.00,0.00,30.12,M,6.21,M,FEW,SCT,M,M,1800.00,26000.00,M,M,M,YBBN 200000Z 25005KT 9999 FEW018 SCT260 21/18 Q1020
YBBN,2015-05-20 00:30,153.1292,-27.3917,73.40,64.40,73.44,240.00,3.00,0.00,30.12,M,6.21,M,FEW,SCT,M,M,1800.00,26000.00,M,M,M,YBBN 200030Z 24003KT 9999 FEW018 SCT260 23/18 Q1020
YBBN,2015-05-20 01:00,153.1292,-27.3917,73.40,62.60,68.94,30.00,4.00,0.00,30.12,M,6.21,M,FEW,SCT,M,M,1900.00,26000.00,M,M,M,YBBN 200100Z 03004KT 9999 FEW019 SCT260 23/17 Q1020 NOSIG
YBBN,2015-05-20 01:30,153.1292,-27.3917,75.20,64.40,69.14,30.00,5.00,0.00,30.09,M,6.21,M,FEW,SCT,M,M,1900.00,26000.00,M,M,M,YBBN 200130Z 03005KT 9999 FEW019 SCT260 24/18 Q1019
YBBN,2015-05-20 02:00,153.1292,-27.3917,75.20,62.60,64.91,10.00,5.00,0.00,30.06,M,6.21,M,FEW,SCT,M,M,2200.00,22000.00,M,M,M,YBBN 200200Z 01005KT 9999 FEW022 SCT220 24/17 Q1018 NOSIG
YBBN,2015-05-20 02:30,153.1292,-27.3917,75.20,64.40,69.14,360.00,6.00,0.00,30.06,M,6.21,M,FEW,SCT,M,M,2200.00,22000.00,M,M,M,YBBN 200230Z 36006KT 9999 FEW022 SCT220 24/18 Q1018
YBBN,2015-05-20 03:00,153.1292,-27.3917,75.20,64.40,69.14,30.00,7.00,0.00,30.06,M,6.21,M,FEW,SCT,M,M,2500.00,26000.00,M,M,M,YBBN 200300Z 03007KT 9999 FEW025 SCT260 24/18 Q1018 NOSIG
YBBN,2015-05-20 03:30,153.1292,-27.3917,75.20,66.20,73.61,30.00,7.00,0.00,30.03,M,6.21,M,FEW,BKN,M,M,2500.00,26000.00,M,M,M,YBBN 200330Z 03007KT 9999 FEW025 BKN260 24/19 Q1017
YBBN,2015-05-20 04:00,153.1292,-27.3917,75.20,64.40,69.14,30.00,6.00,0.00,30.03,M,6.21,M,FEW,SCT,M,M,2800.00,26000.00,M,M,M,YBBN 200400Z 03006KT 9999 FEW028 SCT260 24/18 Q1017 NOSIG
YBBN,2015-05-20 04:30,153.1292,-27.3917,75.20,64.40,69.14,30.00,6.00,0.00,30.03,M,6.21,M,FEW,M,M,M,2800.00,M,M,M,M,YBBN 200430Z 03006KT 9999 FEW028 24/18 Q1017
YBBN,2015-05-20 05:00,153.1292,-27.3917,73.40,64.40,73.44,30.00,9.00,0.00,30.03,M,6.21,M,FEW,M,M,M,2800.00,M,M,M,M,YBBN 200500Z 03009KT 9999 FEW028 23/18 Q1017 NOSIG
YBBN,2015-05-20 05:30,153.1292,-27.3917,73.40,64.40,73.44,30.00,8.00,0.00,30.03,M,6.21,M,FEW,SCT,M,M,2800.00,22000.00,M,M,M,YBBN 200530Z 03008KT 9999 FEW028 SCT220 23/18 Q1017
YBBN,2015-05-20 06:00,153.1292,-27.3917,73.40,64.40,73.44,30.00,9.00,0.00,30.03,M,6.21,M,FEW,SCT,M,M,2800.00,22000.00,M,M,M,YBBN 200600Z 03009KT 9999 FEW028 SCT220 23/18 Q1017
YBBN,2015-05-20 06:30,153.1292,-27.3917,71.60,64.40,78.04,20.00,7.00,0.00,30.03,M,6.21,M,FEW,M,M,M,3000.00,M,M,M,M,YBBN 200630Z 02007KT 9999 FEW030 22/18 Q1017
YBBN,2015-05-20 07:00,153.1292,-27.3917,69.80,64.40,82.98,360.00,7.00,0.00,30.03,M,6.21,M,FEW,M,M,M,3000.00,M,M,M,M,YBBN 200700Z 36007KT 9999 FEW030 21/18 Q1017 NOSIG
YBBN,2015-05-20 07:30,153.1292,-27.3917,68.00,64.40,88.26,10.00,6.00,0.00,30.06,M,6.21,M,FEW,SCT,M,M,3000.00,22000.00,M,M,M,YBBN 200730Z 01006KT 9999 FEW030 SCT220 20/18 Q1018
YBBN,2015-05-20 08:00,153.1292,-27.3917,68.00,66.20,93.97,10.00,7.00,0.00,30.06,M,6.21,M,FEW,M,M,M,2800.00,M,M,M,M,YBBN 200800Z 01007KT 9999 FEW028 20/19 Q1018 NOSIG
YBBN,2015-05-20 08:30,153.1292,-27.3917,68.00,66.20,93.97,360.00,8.00,0.00,30.06,M,6.21,M,FEW,M,M,M,2500.00,M,M,M,M,YBBN 200830Z 36008KT 9999 FEW025 20/19 Q1018
YBBN,2015-05-20 09:00,153.1292,-27.3917,68.00,66.20,93.97,360.00,8.00,0.00,30.06,M,6.21,M,FEW,M,M,M,2300.00,M,M,M,M,YBBN 200900Z 36008KT 9999 FEW023 20/19 Q1018
YBBN,2015-05-20 09:30,153.1292,-27.3917,68.00,66.20,93.97,360.00,7.00,0.00,30.06,M,6.21,M,M,M,M,M,M,M,M,M,M,YBBN 200930Z 36007KT CAVOK 20/19 Q1018
YBBN,2015-05-20 10:00,153.1292,-27.3917,68.00,66.20,93.97,340.00,6.00,0.00,30.09,M,6.21,M,M,M,M,M,M,M,M,M,M,YBBN 201000Z 34006KT CAVOK 20/19 Q1019
YBBN,2015-05-20 10:30,153.1292,-27.3917,68.00,66.20,93.97,330.00,6.00,0.00,30.09,M,6.21,M,M,M,M,M,M,M,M,M,M,YBBN 201030Z 33006KT CAVOK 20/19 Q1019 RMK 5AC160
YBBN,2015-05-20 11:00,153.1292,-27.3917,68.00,66.20,93.97,310.00,5.00,0.00,30.09,M,6.21,M,M,M,M,M,M,M,M,M,M,YBBN 201100Z 31005KT CAVOK 20/19 Q1019
YBBN,2015-05-20 11:30,153.1292,-27.3917,68.00,66.20,93.97,310.00,5.00,0.00,30.09,M,6.21,M,M,M,M,M,M,M,M,M,M,YBBN 201130Z 31005KT CAVOK 20/19 Q1019
YBBN,2015-05-20 12:00,153.1292,-27.3917,68.00,66.20,93.97,280.00,2.00,0.00,30.09,M,6.21,M,M,M,M,M,M,M,M,M,M,YBBN 201200Z 28002KT CAVOK 20/19 Q1019 NOSIG
YBBN,2015-05-20 12:30,153.1292,-27.3917,66.20,66.20,100.00,340.00,4.00,0.00,30.06,M,6.21,M,M,M,M,M,M,M,M,M,M,YBBN 201230Z 34004KT CAVOK 19/19 Q1018 RMK 5AC150
YBBN,2015-05-20 13:00,153.1292,-27.3917,66.20,64.40,93.92,350.00,4.00,0.00,30.06,M,6.21,M,M,M,M,M,M,M,M,M,M,YBBN 201300Z 35004KT CAVOK 19/18 Q1018
YBBN,2015-05-20 13:30,153.1292,-27.3917,66.20,66.20,100.00,360.00,7.00,0.00,30.06,M,6.21,M,M,M,M,M,M,M,M,M,M,YBBN 201330Z 36007KT CAVOK 19/19 Q1018
YBBN,2015-05-20 14:00,153.1292,-27.3917,66.20,66.20,100.00,360.00,5.00,0.00,30.06,M,6.21,M,M,M,M,M,M,M,M,M,M,YBBN 201400Z 36005KT CAVOK 19/19 Q1018
YBBN,2015-05-20 14:30,153.1292,-27.3917,64.40,64.40,100.00,350.00,5.00,0.00,30.06,M,6.21,M,M,M,M,M,M,M,M,M,M,YBBN 201430Z 35005KT CAVOK 18/18 Q1018
YBBN,2015-05-20 14:40,153.1292,-27.3917,64.40,64.40,100.00,350.00,5.00,0.00,30.06,M,6.21,M,FEW,SCT,M,M,100.00,16000.00,M,M,MIFG,YBBN 201440Z 35005KT 9999 MIFG FEW001 SCT160 18/18 Q1018 RMK AUTO OBSC CODES REMOVED FM1500 34005KT 5000 BR NSC
YBBN,2015-05-20 15:00,153.1292,-27.3917,64.40,64.40,100.00,0.00,0.00,0.00,30.06,M,6.21,M,FEW,SCT,M,M,100.00,16000.00,M,M,MIFG,YBBN 201500Z 00000KT 9999 MIFG FEW001 SCT160 18/18 Q1018
YBBN,2015-05-20 15:30,153.1292,-27.3917,64.40,64.40,100.00,0.00,0.00,0.00,30.03,M,3.73,M,SCT,BKN,M,M,100.00,18000.00,M,M,BCFG MIFG,YBBN 201530Z 00000KT 6000 BCFG MIFG SCT001 BKN180 18/18 Q1017
YBBN,2015-05-20 16:00,153.1292,-27.3917,64.40,64.40,100.00,190.00,3.00,0.00,30.03,M,5.59,M,FEW,SCT,BKN,M,300.00,18000.00,24000.00,M,MIFG,YBBN 201600Z 19003KT 9000 MIFG FEW003 SCT180 BKN240 18/18 Q1017
YBBN,2015-05-20 16:30,153.1292,-27.3917,64.40,64.40,100.00,0.00,0.00,0.00,30.03,M,5.59,M,SCT,SCT,BKN,M,100.00,18000.00,23000.00,M,MIFG,YBBN 201630Z 00000KT 9000 MIFG SCT001 SCT180 BKN230 18/18 Q1017
YBBN,2015-05-20 17:00,153.1292,-27.3917,64.40,64.40,100.00,0.00,0.00,0.00,30.03,M,5.59,M,SCT,SCT,M,M,100.00,18000.00,M,M,MIFG,YBBN 201700Z 00000KT 9000 MIFG SCT001 SCT180 18/18 Q1017
YBBN,2015-05-20 17:30,153.1292,-27.3917,64.40,62.60,93.88,0.00,0.00,0.00,30.03,M,3.11,M,SCT,BKN,M,M,100.00,18000.00,M,M,BCFG,YBBN 201730Z 00000KT 5000 1000S BCFG SCT001 BKN180 18/17 Q1017
YBBN,2015-05-20 18:00,153.1292,-27.3917,62.60,62.60,100.00,240.00,2.00,0.00,30.03,M,3.11,M,BKN,M,M,M,100.00,M,M,M,BCFG,YBBN 201800Z 24002KT 5000 BCFG BKN001 17/17 Q1017
YBBN,2015-05-20 18:30,153.1292,-27.3917,62.60,62.60,100.00,0.00,0.00,0.00,30.03,M,0.93,M,BKN,SCT,M,M,100.00,18000.00,M,M,PRFG,YBBN 201830Z 00000KT 1500 PRFG BKN001 SCT180 17/17 Q1017
YBBN,2015-05-20 18:39,153.1292,-27.3917,62.60,62.60,100.00,0.00,0.00,0.00,30.03,M,0.06,M,VV ,M,M,M,M,M,M,M,FG,YBBN 201839Z 00000KT 0100 FG VV/// 17/17 Q1017
YBBN,2015-05-20 19:00,153.1292,-27.3917,62.60,62.60,100.00,0.00,0.00,0.00,30.03,M,0.09,M,VV ,M,M,M,M,M,M,M,FG,YBBN 201900Z 00000KT 0150 FG VV/// 17/17 Q1017
YBBN,2015-05-20 19:30,153.1292,-27.3917,62.60,62.60,100.00,0.00,0.00,0.00,30.03,M,0.06,M,VV ,M,M,M,M,M,M,M,FG,YBBN 201930Z 00000KT 0100 FG VV/// 17/17 Q1017
YBBN,2015-05-20 20:00,153.1292,-27.3917,64.40,62.60,93.88,230.00,5.00,0.00,30.06,M,0.16,M,VV ,M,M,M,M,M,M,M,FG,YBBN 202000Z 23005KT 0250 FG VV/// 18/17 Q1018
YBBN,2015-05-20 20:30,153.1292,-27.3917,64.40,64.40,100.00,210.00,7.00,0.00,30.06,M,1.55,M,VV ,M,M,M,M,M,M,M,PRFG,YBBN 202030Z 21007KT 2500 PRFG VV/// 18/18 Q1018
YBBN,2015-05-20 21:00,153.1292,-27.3917,64.40,62.60,93.88,190.00,5.00,0.00,30.06,M,0.93,M,VV ,M,M,M,M,M,M,M,PRFG,YBBN 202100Z 19005KT 1500 PRFG VV/// 18/17 Q1018
YBBN,2015-05-20 21:30,153.1292,-27.3917,64.40,64.40,100.00,200.00,5.00,0.00,30.09,M,0.93,M,VV ,M,M,M,M,M,M,M,PRFG,YBBN 202130Z 20005KT 1500 PRFG VV/// 18/18 Q1019
YBBN,2015-05-20 22:00,153.1292,-27.3917,64.40,64.40,100.00,210.00,5.00,0.00,30.06,M,1.55,M,VV ,M,M,M,M,M,M,M,PRFG,YBBN 202200Z 21005KT 2500 PRFG VV/// 18/18 Q1018
YBBN,2015-05-20 22:30,153.1292,-27.3917,64.40,64.40,100.00,0.00,0.00,0.00,30.06,M,4.35,M,FEW,BKN,M,M,300.00,18000.00,M,M,PRFG,YBBN 202230Z 00000KT 7000 PRFG FEW003 BKN180 18/18 Q1018
YBBN,2015-05-20 23:00,153.1292,-27.3917,68.00,64.40,88.26,0.00,0.00,0.00,30.06,M,5.59,M,FEW,BKN,M,M,300.00,18000.00,M,M,VCFG,YBBN 202300Z 00000KT 9000 VCFG FEW003 BKN180 20/18 Q1018
YBBN,2015-05-20 23:30,153.1292,-27.3917,69.80,66.20,88.34,350.00,4.00,0.00,30.09,M,6.21,M,M,M,M,M,M,M,M,M,M,YBBN 202330Z 35004KT CAVOK 21/19 Q1019 RMK 5AC180
