#DEBUG: Format Typ    -> comma
#DEBUG: Time Period   -> 2013-12-07 00:00:00+00:00 2013-12-08 00:00:00+00:00
#DEBUG: Time Zone     -> Etc/UTC
#DEBUG: Data Contact   -> daryl herzmann akrherz@iastate.edu 515-294-5978
#DEBUG: Entries Found -> -1
station,valid,lon,lat,tmpf, dwpf, relh, drct, sknt, p01i, alti, mslp, vsby, gust, skyc1, skyc2, skyc3, skyc4, skyl1, skyl2, skyl3, skyl4, presentwx, metar
YBBN,2013-12-07 00:00,153.1292,-27.3917,75.20,50.00,41.14,30.00,7.00,0.00,30.15,M,6.21,M,FEW,M,M,M,4500.00,M,M,M,M,YBBN 070000Z 03007KT 9999 FEW045 24/10 Q1021
YBBN,2013-12-07 00:30,153.1292,-27.3917,75.20,50.00,41.14,20.00,7.00,0.00,30.12,M,6.21,M,M,M,M,M,M,M,M,M,M,YBBN 070030Z 02007KT CAVOK 24/10 Q1020
YBBN,2013-12-07 01:00,153.1292,-27.3917,75.20,48.20,38.46,20.00,9.00,0.00,30.12,M,6.21,M,M,M,M,M,M,M,M,M,M,YBBN 070100Z 02009KT CAVOK 24/09 Q1020 NOSIG
YBBN,2013-12-07 01:30,153.1292,-27.3917,75.20,50.00,41.14,20.00,8.00,0.00,30.12,M,6.21,M,M,M,M,M,M,M,M,M,M,YBBN 070130Z 02008KT CAVOK 24/10 Q1020
YBBN,2013-12-07 02:00,153.1292,-27.3917,77.00,50.00,38.74,30.00,9.00,0.00,30.12,M,6.21,M,M,M,M,M,M,M,M,M,M,YBBN 070200Z 03009KT CAVOK 25/10 Q1020 NOSIG
YBBN,2013-12-07 02:30,153.1292,-27.3917,77.00,51.80,41.42,20.00,10.00,0.00,30.09,M,6.21,M,M,M,M,M,M,M,M,M,M,YBBN 070230Z 02010KT CAVOK 25/11 Q1019
YBBN,2013-12-07 03:00,153.1292,-27.3917,77.00,44.60,31.62,50.00,10.00,0.00,30.09,M,6.21,M,M,M,M,M,M,M,M,M,M,YBBN 070300Z 05010KT CAVOK 25/07 Q1019 NOSIG
YBBN,2013-12-07 03:30,153.1292,-27.3917,78.80,46.40,31.90,40.00,11.00,0.00,30.09,M,6.21,M,M,M,M,M,M,M,M,M,M,YBBN 070330Z 04011KT CAVOK 26/08 Q1019
YBBN,2013-12-07 04:00,153.1292,-27.3917,77.00,46.40,33.85,50.00,12.00,0.00,30.06,M,6.21,M,M,M,M,M,M,M,M,M,M,YBBN 070400Z 05012KT CAVOK 25/08 Q1018 NOSIG
YBBN,2013-12-07 04:30,153.1292,-27.3917,77.00,46.40,33.85,40.00,11.00,0.00,30.06,M,6.21,M,M,M,M,M,M,M,M,M,M,YBBN 070430Z 04011KT CAVOK 25/08 Q1018
YBBN,2013-12-07 05:00,153.1292,-27.3917,77.00,48.20,36.22,60.00,12.00,0.00,30.06,M,6.21,M,M,M,M,M,M,M,M,M,M,YBBN 070500Z 06012KT CAVOK 25/09 Q1018 NOSIG
YBBN,2013-12-07 05:30,153.1292,-27.3917,77.00,46.40,33.85,50.00,12.00,0.00,30.06,M,6.21,M,M,M,M,M,M,M,M,M,M,YBBN 070530Z 05012KT CAVOK 25/08 Q1018
YBBN,2013-12-07 06:00,153.1292,-27.3917,75.20,48.20,38.46,40.00,13.00,0.00,30.06,M,6.21,M,M,M,M,M,M,M,M,M,M,YBBN 070600Z 04013KT CAVOK 24/09 Q1018 NOSIG
YBBN,2013-12-07 06:30,153.1292,-27.3917,75.20,50.00,41.14,40.00,13.00,0.00,30.06,M,6.21,M,M,M,M,M,M,M,M,M,M,YBBN 070630Z 04013KT CAVOK 24/10 Q1018
YBBN,2013-12-07 07:00,153.1292,-27.3917,75.20,50.00,41.14,50.00,13.00,0.00,30.06,M,6.21,M,M,M,M,M,M,M,M,M,M,YBBN 070700Z 05013KT CAVOK 24/10 Q1018 NOSIG
YBBN,2013-12-07 07:30,153.1292,-27.3917,73.40,51.80,46.71,50.00,12.00,0.00,30.06,M,6.21,M,M,M,M,M,M,M,M,M,M,YBBN 070730Z 05012KT CAVOK 23/11 Q1018
YBBN,2013-12-07 08:00,153.1292,-27.3917,71.60,51.80,49.64,40.00,11.00,0.00,30.06,M,6.21,M,M,M,M,M,M,M,M,M,M,YBBN 070800Z 04011KT CAVOK 22/11 Q1018 NOSIG
YBBN,2013-12-07 08:30,153.1292,-27.3917,71.60,53.60,53.03,40.00,9.00,0.00,30.09,M,6.21,M,M,M,M,M,M,M,M,M,M,YBBN 070830Z 04009KT CAVOK 22/12 Q1019
YBBN,2013-12-07 09:00,153.1292,-27.3917,69.80,55.40,60.21,40.00,9.00,0.00,30.09,M,6.21,M,M,M,M,M,M,M,M,M,M,YBBN 070900Z 04009KT CAVOK 21/13 Q1019 NOSIG
YBBN,2013-12-07 09:30,153.1292,-27.3917,69.80,55.40,60.21,40.00,9.00,0.00,30.09,M,6.21,M,M,M,M,M,M,M,M,M,M,YBBN 070930Z 04009KT CAVOK 21/13 Q1019
YBBN,2013-12-07 10:00,153.1292,-27.3917,69.80,55.40,60.21,40.00,8.00,0.00,30.09,M,6.21,M,M,M,M,M,M,M,M,M,M,YBBN 071000Z 04008KT CAVOK 21/13 Q1019
YBBN,2013-12-07 10:30,153.1292,-27.3917,69.80,55.40,60.21,40.00,9.00,0.00,30.09,M,6.21,M,M,M,M,M,M,M,M,M,M,YBBN 071030Z 04009KT CAVOK 21/13 Q1019
YBBN,2013-12-07 11:00,153.1292,-27.3917,68.00,57.20,68.35,30.00,8.00,0.00,30.09,M,6.21,M,M,M,M,M,M,M,M,M,M,YBBN 071100Z 03008KT CAVOK 20/14 Q1019
YBBN,2013-12-07 11:30,153.1292,-27.3917,69.80,55.40,60.21,40.00,7.00,0.00,30.09,M,6.21,M,M,M,M,M,M,M,M,M,M,YBBN 071130Z 04007KT CAVOK 21/13 Q1019
YBBN,2013-12-07 12:00,153.1292,-27.3917,68.00,57.20,68.35,30.00,8.00,0.00,30.09,M,6.21,M,M,M,M,M,M,M,M,M,M,YBBN 071200Z 03008KT CAVOK 20/14 Q1019 NOSIG
YBBN,2013-12-07 12:30,153.1292,-27.3917,68.00,57.20,68.35,30.00,8.00,0.00,30.09,M,6.21,M,M,M,M,M,M,M,M,M,M,YBBN 071230Z 03008KT CAVOK 20/14 Q1019
YBBN,2013-12-07 13:00,153.1292,-27.3917,66.20,57.20,72.74,30.00,9.00,0.00,30.09,M,6.21,M,FEW,M,M,M,4200.00,M,M,M,M,YBBN 071300Z 03009KT 9999 FEW042 19/14 Q1019 NOSIG
YBBN,2013-12-07 13:30,153.1292,-27.3917,66.20,57.20,72.74,30.00,7.00,0.00,30.09,M,6.21,M,FEW,M,M,M,2800.00,M,M,M,M,YBBN 071330Z 03007KT 9999 FEW028 19/14 Q1019
YBBN,2013-12-07 14:00,153.1292,-27.3917,66.20,57.20,72.74,40.00,5.00,0.00,30.09,M,6.21,M,FEW,M,M,M,2800.00,M,M,M,M,YBBN 071400Z 04005KT 9999 FEW028 19/14 Q1019 NOSIG
YBBN,2013-12-07 14:30,153.1292,-27.3917,66.20,57.20,72.74,30.00,6.00,0.00,30.09,M,6.21,M,FEW,M,M,M,2800.00,M,M,M,M,YBBN 071430Z 03006KT 9999 FEW028 19/14 Q1019
YBBN,2013-12-07 15:00,153.1292,-27.3917,66.20,57.20,72.74,30.00,5.00,0.00,30.09,M,6.21,M,FEW,M,M,M,2800.00,M,M,M,M,YBBN 071500Z 03005KT 9999 FEW028 19/14 Q1019
YBBN,2013-12-07 15:30,153.1292,-27.3917,66.20,57.20,72.74,30.00,5.00,0.00,30.09,M,6.21,M,FEW,SCT,M,M,2600.00,2800.00,M,M,M,YBBN 071530Z 03005KT 9999 FEW026 SCT028 19/14 Q1019
YBBN,2013-12-07 16:00,153.1292,-27.3917,66.20,57.20,72.74,40.00,5.00,0.00,30.09,M,6.21,M,FEW,SCT,M,M,2600.00,2900.00,M,M,M,YBBN 071600Z 04005KT 9999 FEW026 SCT029 19/14 Q1019 NOSIG
YBBN,2013-12-07 16:30,153.1292,-27.3917,64.40,57.20,77.45,30.00,1.00,0.00,30.06,M,6.21,M,FEW,SCT,M,M,2500.00,2900.00,M,M,M,YBBN 071630Z 03001KT 9999 FEW025 SCT029 18/14 Q1018
YBBN,2013-12-07 17:00,153.1292,-27.3917,64.40,59.00,82.62,210.00,4.00,0.00,30.06,M,6.21,M,FEW,SCT,M,M,2500.00,3000.00,M,M,M,YBBN 071700Z 21004KT 9999 FEW025 SCT030 18/15 Q1018
YBBN,2013-12-07 17:30,153.1292,-27.3917,64.40,59.00,82.62,220.00,5.00,0.00,30.06,M,6.21,M,FEW,M,M,M,2400.00,M,M,M,M,YBBN 071730Z 22005KT 9999 FEW024 18/15 Q1018
YBBN,2013-12-07 18:00,153.1292,-27.3917,62.60,57.20,82.50,210.00,5.00,0.00,30.06,M,6.21,M,FEW,M,M,M,2500.00,M,M,M,M,YBBN 071800Z 21005KT 9999 FEW025 17/14 Q1018 NOSIG
YBBN,2013-12-07 18:30,153.1292,-27.3917,62.60,57.20,82.50,200.00,5.00,0.00,30.09,M,6.21,M,FEW,M,M,M,2500.00,M,M,M,M,YBBN 071830Z 20005KT 9999 FEW025 17/14 Q1019
YBBN,2013-12-07 19:00,153.1292,-27.3917,62.60,55.40,77.29,200.00,7.00,0.00,30.09,M,6.21,M,FEW,M,M,M,2800.00,M,M,M,M,YBBN 071900Z 20007KT 9999 FEW028 17/13 Q1019 NOSIG
YBBN,2013-12-07 19:30,153.1292,-27.3917,62.60,57.20,82.50,200.00,7.00,0.00,30.09,M,6.21,M,FEW,M,M,M,2800.00,M,M,M,M,YBBN 071930Z 20007KT 9999 FEW028 17/14 Q1019
YBBN,2013-12-07 20:00,153.1292,-27.3917,64.40,57.20,77.45,200.00,7.00,0.00,30.12,M,6.21,M,FEW,M,M,M,2800.00,M,M,M,M,YBBN 072000Z 20007KT 9999 FEW028 18/14 Q1020 NOSIG
YBBN,2013-12-07 20:30,153.1292,-27.3917,68.00,57.20,68.35,210.00,7.00,0.00,30.12,M,6.21,M,FEW,M,M,M,2800.00,M,M,M,M,YBBN 072030Z 21007KT 9999 FEW028 20/14 Q1020
YBBN,2013-12-07 21:00,153.1292,-27.3917,69.80,57.20,64.26,210.00,6.00,0.00,30.12,M,6.21,M,FEW,M,M,M,2800.00,M,M,M,M,YBBN 072100Z 21006KT 9999 FEW028 21/14 Q1020
YBBN,2013-12-07 21:30,153.1292,-27.3917,73.40,57.20,56.88,220.00,5.00,0.00,30.12,M,6.21,M,FEW,M,M,M,2800.00,M,M,M,M,YBBN 072130Z 22005KT 9999 FEW028 23/14 Q1020
YBBN,2013-12-07 22:00,153.1292,-27.3917,73.40,57.20,56.88,30.00,5.00,0.00,30.12,M,6.21,M,SCT,M,M,M,3500.00,M,M,M,M,YBBN 072200Z 03005KT 9999 SCT035 23/14 Q1020
YBBN,2013-12-07 22:30,153.1292,-27.3917,75.20,57.20,53.55,50.00,7.00,0.00,30.12,M,6.21,M,SCT,M,M,M,3800.00,M,M,M,M,YBBN 072230Z 05007KT 9999 SCT038 24/14 Q1020
YBBN,2013-12-07 23:00,153.1292,-27.3917,75.20,57.20,53.55,30.00,7.00,0.00,30.12,M,6.21,M,SCT,M,M,M,3800.00,M,M,M,M,YBBN 072300Z 03007KT 9999 SCT038 24/14 Q1020 NOSIG
YBBN,2013-12-07 23:30,153.1292,-27.3917,75.20,57.20,53.55,20.00,6.00,0.00,30.12,M,6.21,M,SCT,M,M,M,3800.00,M,M,M,M,YBBN 072330Z 02006KT 9999 SCT038 24/14 Q1020
