#DEBUG: Format Typ    -> comma
#DEBUG: Time Period   -> 2014-03-06 00:00:00+00:00 2014-03-07 00:00:00+00:00
#DEBUG: Time Zone     -> Etc/UTC
#DEBUG: Data Contact   -> daryl herzmann akrherz@iastate.edu 515-294-5978
#DEBUG: Entries Found -> -1
station,valid,lon,lat,tmpf, dwpf, relh, drct, sknt, p01i, alti, mslp, vsby, gust, skyc1, skyc2, skyc3, skyc4, skyl1, skyl2, skyl3, skyl4, presentwx, metar
YBBN,2014-03-06 00:00,153.1292,-27.3917,78.80,57.20,47.52,110.00,7.00,0.00,30.06,M,6.21,M,FEW,M,M,M,2800.00,M,M,M,M,YBBN 060000Z 11007KT 9999 FEW028 26/14 Q1018 NOSIG
YBBN,2014-03-06 00:30,153.1292,-27.3917,78.80,57.20,47.52,130.00,7.00,0.00,30.06,M,6.21,M,SCT,M,M,M,3000.00,M,M,M,M,YBBN 060030Z 13007KT 9999 SCT030 26/14 Q1018
YBBN,2014-03-06 01:00,153.1292,-27.3917,78.80,59.00,50.69,90.00,7.00,0.00,30.06,M,6.21,M,SCT,M,M,M,3000.00,M,M,M,M,YBBN 060100Z 09007KT 9999 SCT030 26/15 Q1018 NOSIG
YBBN,2014-03-06 01:30,153.1292,-27.3917,78.80,59.00,50.69,100.00,7.00,0.00,30.06,M,6.21,M,SCT,M,M,M,3000.00,M,M,M,M,YBBN 060130Z 10007KT 9999 SCT030 26/15 Q1018
YBBN,2014-03-06 02:00,153.1292,-27.3917,78.80,59.00,50.69,80.00,8.00,0.00,30.03,M,6.21,M,SCT,M,M,M,3000.00,M,M,M,M,YBBN 060200Z 08008KT 9999 SCT030 26/15 Q1017 NOSIG
YBBN,2014-03-06 02:30,153.1292,-27.3917,80.60,59.00,47.79,70.00,8.00,0.00,30.03,M,6.21,M,SCT,M,M,M,3500.00,M,M,M,M,YBBN 060230Z 07008KT 9999 SCT035 27/15 Q1017
YBBN,2014-03-06 03:00,153.1292,-27.3917,80.60,60.80,50.95,60.00,10.00,0.00,30.03,M,6.21,M,SCT,M,M,M,3500.00,M,M,M,M,YBBN 060300Z 06010KT 9999 SCT035 27/16 Q1017 NOSIG
YBBN,2014-03-06 03:30,153.1292,-27.3917,80.60,60.80,50.95,50.00,11.00,0.00,30.03,M,6.21,M,SCT,M,M,M,3500.00,M,M,M,M,YBBN 060330Z 05011KT 9999 SCT035 27/16 Q1017
YBBN,2014-03-06 04:00,153.1292,-27.3917,80.60,60.80,50.95,70.00,10.00,0.00,30.03,M,6.21,M,SCT,M,M,M,3500.00,M,M,M,M,YBBN 060400Z 07010KT 9999 SCT035 27/16 Q1017
YBBN,2014-03-06 04:30,153.1292,-27.3917,80.60,60.80,50.95,60.00,11.00,0.00,30.00,M,6.21,M,SCT,M,M,M,3500.00,M,M,M,M,YBBN 060430Z 06011KT 9999 SCT035 27/16 Q1016
YBBN,2014-03-06 05:00,153.1292,-27.3917,80.60,59.00,47.79,70.00,11.00,0.00,30.00,M,6.21,M,SCT,M,M,M,3500.00,M,M,M,M,YBBN 060500Z 07011KT 9999 SCT035 27/15 Q1016 NOSIG
YBBN,2014-03-06 05:30,153.1292,-27.3917,78.80,59.00,50.69,60.00,12.00,0.00,30.00,M,6.21,M,SCT,M,M,M,3500.00,M,M,M,M,YBBN 060530Z 06012KT 9999 SCT035 26/15 Q1016
YBBN,2014-03-06 06:00,153.1292,-27.3917,78.80,60.80,54.05,60.00,11.00,0.00,30.00,M,6.21,M,SCT,M,M,M,3500.00,M,M,M,M,YBBN 060600Z 06011KT 9999 SCT035 26/16 Q1016 NOSIG
YBBN,2014-03-06 06:30,153.1292,-27.3917,78.80,60.80,54.05,70.00,12.00,0.00,30.00,M,6.21,M,FEW,M,M,M,3500.00,M,M,M,M,YBBN 060630Z 07012KT 9999 FEW035 26/16 Q1016
YBBN,2014-03-06 07:00,153.1292,-27.3917,77.00,60.80,57.36,60.00,11.00,0.00,30.00,M,6.21,M,FEW,M,M,M,3500.00,M,M,M,M,YBBN 060700Z 06011KT 9999 FEW035 25/16 Q1016 NOSIG
YBBN,2014-03-06 07:30,153.1292,-27.3917,77.00,60.80,57.36,70.00,10.00,0.00,30.03,M,6.21,M,FEW,M,M,M,3300.00,M,M,M,M,YBBN 060730Z 07010KT 9999 FEW033 25/16 Q1017
YBBN,2014-03-06 08:00,153.1292,-27.3917,75.20,60.80,60.90,70.00,8.00,0.00,30.03,M,6.21,M,FEW,M,M,M,3000.00,M,M,M,M,YBBN 060800Z 07008KT 9999 FEW030 24/16 Q1017 NOSIG
YBBN,2014-03-06 08:30,153.1292,-27.3917,75.20,62.60,64.91,80.00,7.00,0.00,30.03,M,6.21,M,FEW,M,M,M,3000.00,M,M,M,M,YBBN 060830Z 08007KT 9999 FEW030 24/17 Q1017
YBBN,2014-03-06 09:00,153.1292,-27.3917,75.20,62.60,64.91,70.00,7.00,0.00,30.03,M,6.21,M,FEW,M,M,M,2800.00,M,M,M,M,YBBN 060900Z 07007KT 9999 FEW028 24/17 Q1017 NOSIG
YBBN,2014-03-06 09:30,153.1292,-27.3917,73.40,62.60,68.94,80.00,5.00,0.00,30.06,M,6.21,M,FEW,M,M,M,2500.00,M,M,M,M,YBBN 060930Z 08005KT 9999 FEW025 23/17 Q1018
YBBN,2014-03-06 10:00,153.1292,-27.3917,73.40,62.60,68.94,90.00,6.00,0.00,30.06,M,6.21,M,FEW,M,M,M,2500.00,M,M,M,M,YBBN 061000Z 09006KT 9999 FEW025 23/17 Q1018 NOSIG
YBBN,2014-03-06 10:30,153.1292,-27.3917,73.40,62.60,68.94,90.00,5.00,0.00,30.06,M,6.21,M,FEW,M,M,M,2300.00,M,M,M,M,YBBN 061030Z 09005KT 9999 FEW023 23/17 Q1018
YBBN,2014-03-06 11:00,153.1292,-27.3917,73.40,62.60,68.94,80.00,5.00,0.00,30.06,M,6.21,M,FEW,M,M,M,2300.00,M,M,M,M,YBBN 061100Z 08005KT 9999 FEW023 23/17 Q1018 NOSIG
YBBN,2014-03-06 11:30,153.1292,-27.3917,73.40,62.60,68.94,90.00,4.00,0.00,30.06,M,6.21,M,FEW,M,M,M,2500.00,M,M,M,M,YBBN 061130Z 09004KT 9999 FEW025 23/17 Q1018
YBBN,2014-03-06 12:00,153.1292,-27.3917,73.40,62.60,68.94,100.00,5.00,0.00,30.09,M,6.21,M,FEW,M,M,M,2500.00,M,M,M,M,YBBN 061200Z 10005KT 9999 FEW025 23/17 Q1019
YBBN,2014-03-06 12:30,153.1292,-27.3917,73.40,62.60,68.94,100.00,4.00,0.00,30.09,M,6.21,M,FEW,M,M,M,2500.00,M,M,M,M,YBBN 061230Z 10004KT 9999 FEW025 23/17 Q1019
YBBN,2014-03-06 13:00,153.1292,-27.3917,73.40,62.60,68.94,100.00,5.00,0.00,30.09,M,6.21,M,FEW,M,M,M,3000.00,M,M,M,M,YBBN 061300Z 10005KT 9999 FEW030 23/17 Q1019 NOSIG
YBBN,2014-03-06 13:30,153.1292,-27.3917,73.40,62.60,68.94,90.00,6.00,0.00,30.06,M,6.21,M,FEW,M,M,M,3000.00,M,M,M,M,YBBN 061330Z 09006KT 9999 FEW030 23/17 Q1018
YBBN,2014-03-06 14:00,153.1292,-27.3917,73.40,62.60,68.94,100.00,5.00,0.00,30.06,M,6.21,M,FEW,M,M,M,3000.00,M,M,M,M,YBBN 061400Z 10005KT 9999 FEW030 23/17 Q1018 NOSIG
YBBN,2014-03-06 14:30,153.1292,-27.3917,71.60,62.60,73.27,90.00,4.00,0.00,30.06,M,6.21,M,FEW,M,M,M,2800.00,M,M,M,M,YBBN 061430Z 09004KT 9999 FEW028 22/17 Q1018
YBBN,2014-03-06 15:00,153.1292,-27.3917,69.80,62.60,77.90,110.00,4.00,0.00,30.06,M,6.21,M,FEW,M,M,M,3200.00,M,M,M,M,YBBN 061500Z 11004KT 9999 FEW032 21/17 Q1018
YBBN,2014-03-06 15:30,153.1292,-27.3917,69.80,62.60,77.90,200.00,4.00,0.00,30.03,M,6.21,M,FEW,M,M,M,3000.00,M,M,M,M,YBBN 061530Z 20004KT 9999 FEW030 21/17 Q1017
YBBN,2014-03-06 16:00,153.1292,-27.3917,69.80,62.60,77.90,180.00,4.00,0.00,30.03,M,6.21,M,FEW,M,M,M,3000.00,M,M,M,M,YBBN 061600Z 18004KT 9999 FEW030 21/17 Q1017 NOSIG
YBBN,2014-03-06 16:30,153.1292,-27.3917,68.00,62.60,82.86,180.00,5.00,0.00,30.03,M,6.21,M,FEW,M,M,M,4000.00,M,M,M,M,YBBN 061630Z 18005KT 9999 FEW040 20/17 Q1017
YBBN,2014-03-06 17:00,153.1292,-27.3917,68.00,62.60,82.86,190.00,5.00,0.00,30.03,M,6.21,M,FEW,M,M,M,2800.00,M,M,M,M,YBBN 061700Z 19005KT 9999 FEW028 20/17 Q1017 NOSIG
YBBN,2014-03-06 17:30,153.1292,-27.3917,66.20,62.60,88.18,200.00,7.00,0.00,30.03,M,6.21,M,FEW,SCT,M,M,2800.00,4500.00,M,M,M,YBBN 061730Z 20007KT 9999 FEW028 SCT045 19/17 Q1017
YBBN,2014-03-06 18:00,153.1292,-27.3917,64.40,60.80,88.09,200.00,6.00,0.00,30.03,M,6.21,M,M,M,M,M,M,M,M,M,M,YBBN 061800Z 20006KT CAVOK 18/16 Q1017
YBBN,2014-03-06 18:30,153.1292,-27.3917,64.40,60.80,88.09,200.00,6.00,0.00,30.03,M,6.21,M,FEW,SCT,M,M,2500.00,5500.00,M,M,M,YBBN 061830Z 20006KT 9999 FEW025 SCT055 18/16 Q1017
YBBN,2014-03-06 19:00,153.1292,-27.3917,66.20,60.80,82.74,200.00,7.00,0.00,30.03,M,6.21,M,FEW,SCT,M,M,2500.00,5300.00,M,M,M,YBBN 061900Z 20007KT 9999 FEW025 SCT053 19/16 Q1017
YBBN,2014-03-06 19:30,153.1292,-27.3917,66.20,60.80,82.74,200.00,7.00,0.00,30.03,M,6.21,M,FEW,SCT,M,M,2800.00,5500.00,M,M,VCSH,YBBN 061930Z 20007KT 9999 VCSH FEW028 SCT055 19/16 Q1017
YBBN,2014-03-06 20:00,153.1292,-27.3917,66.20,60.80,82.74,200.00,5.00,0.00,30.06,M,6.21,M,FEW,BKN,M,M,3000.00,5500.00,M,M,M,YBBN 062000Z 20005KT 9999 FEW030 BKN055 19/16 Q1018
YBBN,2014-03-06 20:30,153.1292,-27.3917,68.00,60.80,77.75,200.00,5.00,0.00,30.06,M,6.21,M,FEW,BKN,M,M,3000.00,6000.00,M,M,M,YBBN 062030Z 20005KT 9999 FEW030 BKN060 20/16 Q1018
YBBN,2014-03-06 21:00,153.1292,-27.3917,69.80,60.80,73.09,200.00,6.00,0.00,30.06,M,6.21,M,FEW,BKN,M,M,3500.00,6000.00,M,M,M,YBBN 062100Z 20006KT 9999 FEW035 BKN060 21/16 Q1018 NOSIG
YBBN,2014-03-06 21:30,153.1292,-27.3917,71.60,62.60,73.27,190.00,7.00,0.00,30.06,M,6.21,M,FEW,BKN,M,M,3500.00,6500.00,M,M,M,YBBN 062130Z 19007KT 9999 FEW035 BKN065 22/17 Q1018
YBBN,2014-03-06 22:00,153.1292,-27.3917,73.40,62.60,68.94,190.00,5.00,0.00,30.09,M,6.21,M,FEW,BKN,M,M,3000.00,6500.00,M,M,M,YBBN 062200Z 19005KT 9999 FEW030 BKN065 23/17 Q1019
YBBN,2014-03-06 22:30,153.1292,-27.3917,75.20,62.60,64.91,160.00,5.00,0.00,30.09,M,6.21,M,FEW,BKN,M,M,3000.00,6500.00,M,M,M,YBBN 062230Z 16005KT 9999 FEW030 BKN065 24/17 Q1019
YBBN,2014-03-06 23:00,153.1292,-27.3917,77.00,62.60,61.13,120.00,7.00,0.00,30.09,M,6.21,M,FEW,BKN,M,M,3500.00,6500.00,M,M,M,YBBN 062300Z 12007KT 9999 FEW035 BKN065 25/17 Q1019 NOSIG
YBBN,2014-03-06 23:30,153.1292,-27.3917,77.00,62.60,61.13,130.00,6.00,0.00,30.09,M,6.21,M,FEW,BKN,M,M,3000.00,6000.00,M,M,VCSH,YBBN 062330Z 13006KT 9999 VCSH FEW030 BKN060 25/17 Q1019
