#DEBUG: Format Typ    -> comma
#DEBUG: Time Period   -> 2014-03-30 00:00:00+00:00 2014-03-31 00:00:00+00:00
#DEBUG: Time Zone     -> Etc/UTC
#DEBUG: Data Contact   -> daryl herzmann akrherz@iastate.edu 515-294-5978
#DEBUG: Entries Found -> -1
station,valid,lon,lat,tmpf, dwpf, relh, drct, sknt, p01i, alti, mslp, vsby, gust, skyc1, skyc2, skyc3, skyc4, skyl1, skyl2, skyl3, skyl4, presentwx, metar
YBBN,2014-03-30 00:00,153.1292,-27.3917,77.00,71.60,83.44,140.00,5.00,0.00,30.06,M,6.21,M,FEW,SCT,BKN,M,1400.00,2700.00,12000.00,M,-SHRA,YBBN 300000Z 14005KT 9999 -SHRA FEW014 SCT027 BKN120 25/22 Q1018
YBBN,2014-03-30 00:30,153.1292,-27.3917,77.00,73.40,88.67,140.00,4.00,0.00,30.06,M,6.21,M,FEW,BKN,M,M,1400.00,11000.00,M,M,-SHRA,YBBN 300030Z 14004KT 9999 -SHRA FEW014 BKN110 25/23 Q1018
YBBN,2014-03-30 01:00,153.1292,-27.3917,77.00,71.60,83.44,180.00,5.00,0.00,30.06,M,6.21,M,FEW,BKN,BKN,M,1400.00,11000.00,27000.00,M,-SHRA,YBBN 300100Z 18005KT 9999 -SHRA FEW014 BKN110 BKN270 25/22 Q1018
YBBN,2014-03-30 01:30,153.1292,-27.3917,77.00,71.60,83.44,220.00,10.00,0.00,30.06,M,6.21,M,SCT,BKN,M,M,1300.00,11000.00,M,M,VCSH,YBBN 300130Z 22010KT 9999 VCSH SCT013 BKN110 25/22 Q1018
YBBN,2014-03-30 02:00,153.1292,-27.3917,75.20,71.60,88.59,210.00,9.00,0.00,30.06,M,6.21,M,FEW,BKN,M,M,1300.00,11000.00,M,M,-SHRA,YBBN 300200Z 21009KT 9999 -SHRA FEW013 BKN110 24/22 Q1018
YBBN,2014-03-30 02:30,153.1292,-27.3917,75.20,71.60,88.59,210.00,9.00,0.00,30.06,M,6.21,M,FEW,SCT,BKN,M,1300.00,8100.00,11500.00,M,-RA,YBBN 300230Z 21009KT 9999 -RA FEW013 SCT081 BKN115 24/22 Q1018
YBBN,2014-03-30 03:00,153.1292,-27.3917,73.40,71.60,94.10,190.00,7.00,0.00,30.03,M,5.59,M,FEW,BKN,M,M,1300.00,5300.00,M,M,-RA,YBBN 300300Z 19007KT 9000 -RA FEW013 BKN053 23/22 Q1017
YBBN,2014-03-30 03:30,153.1292,-27.3917,75.20,73.40,94.14,200.00,9.00,0.00,30.03,M,6.21,M,FEW,BKN,M,M,1300.00,5700.00,M,M,-RA,YBBN 300330Z 20009KT 9999 -RA FEW013 BKN057 24/23 Q1017
YBBN,2014-03-30 04:00,153.1292,-27.3917,75.20,71.60,88.59,210.00,9.00,0.00,30.03,M,6.21,M,FEW,BKN,BKN,M,1300.00,6200.00,8000.00,M,-RA,YBBN 300400Z 21009KT 9999 -RA FEW013 BKN062 BKN080 24/22 Q1017
YBBN,2014-03-30 04:30,153.1292,-27.3917,75.20,71.60,88.59,190.00,6.00,0.00,30.00,M,6.21,M,FEW,BKN,BKN,M,600.00,5400.00,11500.00,M,VCSH,YBBN 300430Z 19006KT 9999 VCSH FEW006 BKN054 BKN115 24/22 Q1016
YBBN,2014-03-30 05:00,153.1292,-27.3917,75.20,71.60,88.59,200.00,7.00,0.00,30.00,M,6.21,M,FEW,BKN,BKN,M,800.00,4800.00,11500.00,M,-RA,YBBN 300500Z 20007KT 9999 -RA FEW008 BKN048 BKN115 24/22 Q1016 INTER 0500/0800 4000 SHRA BKN015
YBBN,2014-03-30 05:30,153.1292,-27.3917,75.20,71.60,88.59,260.00,3.00,0.00,30.00,M,6.21,M,FEW,SCT,BKN,M,1000.00,4800.00,11500.00,M,VCSH,YBBN 300530Z 26003KT 9999 VCSH FEW010 SCT048 BKN115 24/22 Q1016
YBBN,2014-03-30 06:00,153.1292,-27.3917,75.20,71.60,88.59,200.00,3.00,0.00,30.00,M,6.21,M,FEW,SCT,BKN,M,1200.00,2500.00,10000.00,M,-SHRA,YBBN 300600Z 20003KT 9999 -SHRA FEW012 SCT025 BKN100 24/22 Q1016
YBBN,2014-03-30 06:30,153.1292,-27.3917,75.20,71.60,88.59,140.00,5.00,0.00,30.00,M,6.21,M,FEW,SCT,BKN,M,1200.00,3500.00,10500.00,M,VCSH,YBBN 300630Z 14005KT 9999 VCSH FEW012 SCT035 BKN105 24/22 Q1016
YBBN,2014-03-30 07:00,153.1292,-27.3917,75.20,71.60,88.59,150.00,3.00,0.00,30.00,M,6.21,M,SCT,SCT,BKN,M,1100.00,1500.00,2000.00,M,VCSH,YBBN 300700Z 15003KT 9999 VCSH SCT011 SCT015 BKN020 24/22 Q1016
YBBN,2014-03-30 07:30,153.1292,-27.3917,73.40,69.80,88.51,150.00,5.00,0.00,30.00,M,6.21,M,FEW,SCT,M,M,1100.00,3800.00,M,M,M,YBBN 300730Z 15005KT 9999 FEW011 SCT038 23/21 Q1016
YBBN,2014-03-30 08:00,153.1292,-27.3917,73.40,68.00,83.21,160.00,5.00,0.00,30.03,M,6.21,M,M,M,M,M,M,M,M,M,M,YBBN 300800Z 16005KT 9999 23/20 Q1017
YBBN,2014-03-30 08:30,153.1292,-27.3917,73.40,69.80,88.51,150.00,4.00,0.00,30.03,M,6.21,M,FEW,SCT,M,M,2000.00,11000.00,M,M,M,YBBN 300830Z 15004KT 9999 FEW020 SCT110 23/21 Q1017
YBBN,2014-03-30 09:00,153.1292,-27.3917,73.40,69.80,88.51,0.00,0.00,0.00,30.06,M,6.21,M,FEW,SCT,M,M,2000.00,11000.00,M,M,M,YBBN 300900Z 00000KT 9999 FEW020 SCT110 23/21 Q1018
YBBN,2014-03-30 09:30,153.1292,-27.3917,73.40,69.80,88.51,160.00,1.00,0.00,30.06,M,6.21,M,FEW,M,M,M,2000.00,M,M,M,M,YBBN 300930Z 16001KT 9999 FEW020 23/21 Q1018
YBBN,2014-03-30 10:00,153.1292,-27.3917,71.60,69.80,94.06,180.00,4.00,0.00,30.06,M,6.21,M,FEW,M,M,M,2000.00,M,M,M,M,YBBN 301000Z 18004KT 9999 FEW020 22/21 Q1018
YBBN,2014-03-30 10:30,153.1292,-27.3917,71.60,69.80,94.06,210.00,3.00,0.00,30.09,M,6.21,M,FEW,M,M,M,2000.00,M,M,M,M,YBBN 301030Z 21003KT 9999 FEW020 22/21 Q1019
YBBN,2014-03-30 11:00,153.1292,-27.3917,71.60,69.80,94.06,180.00,4.00,0.00,30.09,M,6.21,M,M,M,M,M,M,M,M,M,M,YBBN 301100Z 18004KT CAVOK 22/21 Q1019
YBBN,2014-03-30 11:30,153.1292,-27.3917,71.60,69.80,94.06,180.00,5.00,0.00,30.09,M,6.21,M,FEW,M,M,M,1000.00,M,M,M,M,YBBN 301130Z 18005KT 9999 FEW010 22/21 Q1019
YBBN,2014-03-30 12:00,153.1292,-27.3917,71.60,69.80,94.06,210.00,4.00,0.00,30.09,M,6.21,M,FEW,M,M,M,1000.00,M,M,M,M,YBBN 301200Z 21004KT 9999 FEW010 22/21 Q1019
YBBN,2014-03-30 12:30,153.1292,-27.3917,69.80,69.80,100.00,220.00,2.00,0.00,30.09,M,6.21,M,FEW,M,M,M,1000.00,M,M,M,M,YBBN 301230Z 22002KT 9999 FEW010 21/21 Q1019
YBBN,2014-03-30 13:00,153.1292,-27.3917,69.80,69.80,100.00,290.00,2.00,0.00,30.06,M,6.21,M,SCT,SCT,M,M,1000.00,1500.00,M,M,M,YBBN 301300Z 29002KT 9999 SCT010 SCT015 21/21 Q1018
YBBN,2014-03-30 13:30,153.1292,-27.3917,71.60,69.80,94.06,180.00,4.00,0.00,30.06,M,6.21,M,BKN,M,M,M,1000.00,M,M,M,M,YBBN 301330Z 18004KT 9999 BKN010 22/21 Q1018
YBBN,2014-03-30 14:00,153.1292,-27.3917,69.80,69.80,100.00,190.00,5.00,0.00,30.06,M,6.21,M,BKN,M,M,M,1200.00,M,M,M,M,YBBN 301400Z 19005KT 9999 BKN012 21/21 Q1018
YBBN,2014-03-30 14:30,153.1292,-27.3917,69.80,69.80,100.00,210.00,7.00,0.00,30.06,M,6.21,M,SCT,M,M,M,1500.00,M,M,M,M,YBBN 301430Z 21007KT 9999 SCT015 21/21 Q1018
YBBN,2014-03-30 15:00,153.1292,-27.3917,69.80,68.00,94.01,210.00,7.00,0.00,30.06,M,6.21,M,FEW,M,M,M,1500.00,M,M,M,M,YBBN 301500Z 21007KT 9999 FEW015 21/20 Q1018
YBBN,2014-03-30 15:30,153.1292,-27.3917,69.80,68.00,94.01,200.00,6.00,0.00,30.06,M,6.21,M,FEW,M,M,M,1500.00,M,M,M,M,YBBN 301530Z 20006KT 9999 FEW015 21/20 Q1018
YBBN,2014-03-30 16:00,153.1292,-27.3917,68.00,68.00,100.00,210.00,7.00,0.00,30.03,M,6.21,M,SCT,M,M,M,1500.00,M,M,M,M,YBBN 301600Z 21007KT 9999 SCT015 20/20 Q1017
YBBN,2014-03-30 16:30,153.1292,-27.3917,69.80,68.00,94.01,210.00,7.00,0.00,30.03,M,6.21,M,SCT,M,M,M,1500.00,M,M,M,M,YBBN 301630Z 21007KT 9999 SCT015 21/20 Q1017
YBBN,2014-03-30 17:00,153.1292,-27.3917,69.80,68.00,94.01,200.00,6.00,0.00,30.03,M,6.21,M,SCT,M,M,M,1500.00,M,M,M,M,YBBN 301700Z 20006KT 9999 SCT015 21/20 Q1017
YBBN,2014-03-30 17:30,153.1292,-27.3917,69.80,68.00,94.01,210.00,8.00,0.00,30.03,M,6.21,M,FEW,M,M,M,1500.00,M,M,M,M,YBBN 301730Z 21008KT 9999 FEW015 21/20 Q1017
YBBN,2014-03-30 18:00,153.1292,-27.3917,69.80,68.00,94.01,200.00,7.00,0.00,30.03,M,6.21,M,FEW,M,M,M,4000.00,M,M,M,M,YBBN 301800Z 20007KT 9999 FEW040 21/20 Q1017 NOSIG
YBBN,2014-03-30 18:30,153.1292,-27.3917,68.00,68.00,100.00,210.00,6.00,0.00,30.03,M,6.21,M,FEW,M,M,M,2000.00,M,M,M,M,YBBN 301830Z 21006KT 9999 FEW020 20/20 Q1017
YBBN,2014-03-30 19:00,153.1292,-27.3917,68.00,66.20,93.97,210.00,6.00,0.00,30.06,M,6.21,M,M,M,M,M,M,M,M,M,M,YBBN 301900Z 21006KT CAVOK 20/19 Q1018
YBBN,2014-03-30 19:30,153.1292,-27.3917,68.00,66.20,93.97,210.00,7.00,0.00,30.06,M,6.21,M,FEW,M,M,M,2000.00,M,M,M,M,YBBN 301930Z 21007KT 9999 FEW020 20/19 Q1018
YBBN,2014-03-30 20:00,153.1292,-27.3917,68.00,66.20,93.97,200.00,6.00,0.00,30.06,M,6.21,M,FEW,M,M,M,2000.00,M,M,M,M,YBBN 302000Z 20006KT 9999 FEW020TCU 20/19 Q1018 RMK TCU TO N AND NE
YBBN,2014-03-30 20:30,153.1292,-27.3917,68.00,68.00,100.00,210.00,7.00,0.00,30.06,M,6.21,M,FEW,M,M,M,2000.00,M,M,M,M,YBBN 302030Z 21007KT 9999 FEW020 20/20 Q1018
YBBN,2014-03-30 21:00,153.1292,-27.3917,69.80,68.00,94.01,210.00,9.00,0.00,30.09,M,6.21,M,FEW,FEW,M,M,2500.00,2700.00,M,M,M,YBBN 302100Z 21009KT 9999 FEW025 FEW027TCU 21/20 Q1019 NOSIG
YBBN,2014-03-30 21:30,153.1292,-27.3917,71.60,68.00,88.43,210.00,9.00,0.00,30.09,M,6.21,M,FEW,SCT,M,M,2500.00,6500.00,M,M,M,YBBN 302130Z 21009KT 9999 FEW025 SCT065 22/20 Q1019
YBBN,2014-03-30 22:00,153.1292,-27.3917,73.40,69.80,88.51,210.00,9.00,0.00,30.09,M,6.21,M,FEW,FEW,M,M,2500.00,2700.00,M,M,M,YBBN 302200Z 21009KT 9999 FEW025 FEW027TCU 23/21 Q1019
YBBN,2014-03-30 22:30,153.1292,-27.3917,75.20,69.80,83.32,200.00,7.00,0.00,30.09,M,6.21,M,FEW,M,M,M,2500.00,M,M,M,M,YBBN 302230Z 20007KT 9999 FEW025 24/21 Q1019
YBBN,2014-03-30 23:00,153.1292,-27.3917,78.80,69.80,73.95,170.00,8.00,0.00,30.09,M,6.21,M,FEW,M,M,M,2500.00,M,M,M,M,YBBN 302300Z 17008KT 9999 FEW025 26/21 Q1019 NOSIG
YBBN,2014-03-30 23:30,153.1292,-27.3917,77.00,69.80,78.48,120.00,8.00,0.00,30.09,M,6.21,M,SCT,M,M,M,2300.00,M,M,M,M,YBBN 302330Z 12008KT 9999 SCT023 25/21 Q1019
