#DEBUG: Format Typ    -> comma
#DEBUG: Time Period   -> 2013-03-13 00:00:00+00:00 2013-03-14 00:00:00+00:00
#DEBUG: Time Zone     -> Etc/UTC
#DEBUG: Data Contact   -> daryl herzmann akrherz@iastate.edu 515-294-5978
#DEBUG: Entries Found -> -1
station,valid,lon,lat,tmpf, dwpf, relh, drct, sknt, p01i, alti, mslp, vsby, gust, skyc1, skyc2, skyc3, skyc4, skyl1, skyl2, skyl3, skyl4, presentwx, metar
YBBN,2013-03-13 00:00,153.1292,-27.3917,77.00,60.80,57.36,150.00,9.00,0.00,29.85,M,6.21,M,SCT,M,M,M,3300.00,M,M,M,M,YBBN 130000Z 15009KT 9999 SCT033 25/16 Q1011 NOSIG
YBBN,2013-03-13 00:30,153.1292,-27.3917,77.00,59.00,53.80,120.00,11.00,0.00,29.85,M,6.21,M,SCT,M,M,M,3800.00,M,M,M,M,YBBN 130030Z 12011KT 9999 SCT038 25/15 Q1011
YBBN,2013-03-13 01:00,153.1292,-27.3917,78.80,59.00,50.69,130.00,11.00,0.00,29.83,M,6.21,M,SCT,M,M,M,3800.00,M,M,M,M,YBBN 130100Z 13011KT 9999 SCT038 26/15 Q1010
YBBN,2013-03-13 01:30,153.1292,-27.3917,80.60,57.20,44.80,130.00,11.00,0.00,29.83,M,6.21,M,SCT,M,M,M,3800.00,M,M,M,M,YBBN 130130Z 13011KT 9999 SCT038 27/14 Q1010
YBBN,2013-03-13 02:00,153.1292,-27.3917,80.60,59.00,47.79,120.00,11.00,0.00,29.83,M,6.21,M,FEW,M,M,M,3800.00,M,M,M,M,YBBN 130200Z 12011KT 9999 FEW038 27/15 Q1010
YBBN,2013-03-13 02:30,153.1292,-27.3917,80.60,55.40,41.97,120.00,12.00,0.00,29.80,M,6.21,M,SCT,M,M,M,3800.00,M,M,M,M,YBBN 130230Z 12012KT 9999 SCT038 27/13 Q1009
YBBN,2013-03-13 03:00,153.1292,-27.3917,80.60,55.40,41.97,120.00,11.00,0.00,29.80,M,6.21,22.00,SCT,SCT,M,M,3800.00,7500.00,M,M,M,YBBN 130300Z 12011G22KT 9999 SCT038 SCT075 27/13 Q1009 NOSIG
YBBN,2013-03-13 03:30,153.1292,-27.3917,80.60,55.40,41.97,120.00,12.00,0.00,29.80,M,6.21,M,FEW,M,M,M,3800.00,M,M,M,M,YBBN 130330Z 12012KT 9999 FEW038 27/13 Q1009
YBBN,2013-03-13 04:00,153.1292,-27.3917,80.60,59.00,47.79,120.00,12.00,0.00,29.77,M,6.21,M,FEW,SCT,M,M,3800.00,7500.00,M,M,M,YBBN 130400Z 12012KT 9999 FEW038 SCT075 27/15 Q1008 NOSIG
YBBN,2013-03-13 04:30,153.1292,-27.3917,80.60,62.60,54.30,120.00,13.00,0.00,29.77,M,6.21,M,FEW,M,M,M,3800.00,M,M,M,M,YBBN 130430Z 12013KT 9999 FEW038 27/17 Q1008
YBBN,2013-03-13 05:00,153.1292,-27.3917,78.80,62.60,57.60,120.00,12.00,0.00,29.77,M,6.21,M,FEW,BKN,M,M,3800.00,8800.00,M,M,M,YBBN 130500Z 12012KT 9999 FEW038 BKN088 26/17 Q1008
YBBN,2013-03-13 05:30,153.1292,-27.3917,77.00,62.60,61.13,130.00,12.00,0.00,29.77,M,6.21,M,FEW,BKN,M,M,3800.00,8500.00,M,M,M,YBBN 130530Z 13012KT 9999 FEW038 BKN085 25/17 Q1008
YBBN,2013-03-13 06:00,153.1292,-27.3917,77.00,60.80,57.36,130.00,12.00,0.00,29.77,M,6.21,M,FEW,BKN,M,M,3500.00,8000.00,M,M,M,YBBN 130600Z 13012KT 9999 FEW035 BKN080 25/16 Q1008
YBBN,2013-03-13 06:30,153.1292,-27.3917,75.20,60.80,60.90,140.00,10.00,0.00,29.77,M,6.21,M,FEW,BKN,M,M,3800.00,7000.00,M,M,M,YBBN 130630Z 14010KT 9999 FEW038 BKN070 24/16 Q1008
YBBN,2013-03-13 07:00,153.1292,-27.3917,75.20,62.60,64.91,130.00,11.00,0.00,29.77,M,6.21,M,FEW,BKN,BKN,M,3000.00,7000.00,9000.00,M,-DZ,YBBN 130700Z 13011KT 9999 -DZ FEW030 BKN070 BKN090 24/17 Q1008 NOSIG
YBBN,2013-03-13 07:30,153.1292,-27.3917,73.40,62.60,68.94,130.00,12.00,0.00,29.80,M,6.21,M,FEW,SCT,BKN,M,3000.00,5000.00,6500.00,M,-DZ,YBBN 130730Z 13012KT 9999 -DZ FEW030 SCT050 BKN065 23/17 Q1009
YBBN,2013-03-13 08:00,153.1292,-27.3917,73.40,59.00,60.67,140.00,8.00,0.00,29.80,M,6.21,M,FEW,BKN,M,M,3200.00,7000.00,M,M,M,YBBN 130800Z 14008KT 9999 FEW032 BKN070 23/15 Q1009
YBBN,2013-03-13 08:30,153.1292,-27.3917,69.80,62.60,77.90,150.00,11.00,0.00,29.80,M,6.21,M,FEW,BKN,BKN,M,2000.00,6000.00,10000.00,M,-DZ,YBBN 130830Z 15011KT 9999 -DZ FEW020 BKN060 BKN100 21/17 Q1009
YBBN,2013-03-13 09:00,153.1292,-27.3917,68.00,60.80,77.75,150.00,13.00,0.00,29.83,M,4.97,M,FEW,SCT,BKN,M,2000.00,2500.00,6000.00,M,-SHRA,YBBN 130900Z 15013KT 8000 -SHRA FEW020 SCT025 BKN060 20/16 Q1010
YBBN,2013-03-13 09:30,153.1292,-27.3917,71.60,60.80,68.75,150.00,6.00,0.00,29.83,M,6.21,M,FEW,SCT,BKN,M,2500.00,6500.00,8000.00,M,M,YBBN 130930Z 15006KT 9999 FEW025 SCT065 BKN080 22/16 Q1010
YBBN,2013-03-13 10:00,153.1292,-27.3917,71.60,62.60,73.27,160.00,4.00,0.00,29.83,M,6.21,M,FEW,SCT,BKN,M,2500.00,6000.00,8000.00,M,M,YBBN 131000Z 16004KT 9999 FEW025 SCT060 BKN080 22/17 Q1010
YBBN,2013-03-13 10:30,153.1292,-27.3917,71.60,62.60,73.27,170.00,9.00,0.00,29.83,M,6.21,M,M,M,M,M,M,M,M,M,M,YBBN 131030Z 17009KT 9999 22/17 Q1010
YBBN,2013-03-13 11:00,153.1292,-27.3917,71.60,62.60,73.27,200.00,8.00,0.00,29.83,M,6.21,M,FEW,BKN,BKN,M,2500.00,8000.00,10000.00,M,M,YBBN 131100Z 20008KT 9999 FEW025 BKN080 BKN100 22/17 Q1010
YBBN,2013-03-13 11:30,153.1292,-27.3917,71.60,62.60,73.27,190.00,8.00,0.00,29.83,M,6.21,M,FEW,BKN,BKN,M,2500.00,8000.00,10000.00,M,M,YBBN 131130Z 19008KT 9999 FEW025 BKN080 BKN100 22/17 Q1010
YBBN,2013-03-13 12:00,153.1292,-27.3917,71.60,62.60,73.27,190.00,8.00,0.00,29.83,M,6.21,M,FEW,SCT,M,M,2500.00,8000.00,M,M,M,YBBN 131200Z 19008KT 9999 FEW025 SCT080 22/17 Q1010 NOSIG
YBBN,2013-03-13 12:30,153.1292,-27.3917,71.60,60.80,68.75,190.00,7.00,0.00,29.83,M,6.21,M,FEW,M,M,M,2500.00,M,M,M,M,YBBN 131230Z 19007KT 9999 FEW025 22/16 Q1010
YBBN,2013-03-13 13:00,153.1292,-27.3917,69.80,59.00,68.55,190.00,7.00,0.00,29.83,M,6.21,M,M,M,M,M,M,M,M,M,M,YBBN 131300Z 19007KT CAVOK 21/15 Q1010
YBBN,2013-03-13 13:30,153.1292,-27.3917,69.80,59.00,68.55,190.00,8.00,0.00,29.80,M,6.21,M,M,M,M,M,M,M,M,M,M,YBBN 131330Z 19008KT CAVOK 21/15 Q1009
YBBN,2013-03-13 14:00,153.1292,-27.3917,66.20,59.00,77.60,210.00,7.00,0.00,29.80,M,6.21,M,M,M,M,M,M,M,M,M,M,YBBN 131400Z 21007KT CAVOK 19/15 Q1009 NOSIG
YBBN,2013-03-13 14:30,153.1292,-27.3917,66.20,60.80,82.74,200.00,7.00,0.00,29.80,M,6.21,M,M,M,M,M,M,M,M,M,M,YBBN 131430Z 20007KT CAVOK 19/16 Q1009
YBBN,2013-03-13 15:00,153.1292,-27.3917,66.20,60.80,82.74,200.00,7.00,0.00,29.80,M,6.21,M,M,M,M,M,M,M,M,M,M,YBBN 131500Z 20007KT CAVOK 19/16 Q1009
YBBN,2013-03-13 15:30,153.1292,-27.3917,66.20,60.80,82.74,210.00,7.00,0.00,29.80,M,6.21,M,M,M,M,M,M,M,M,M,M,YBBN 131530Z 21007KT CAVOK 19/16 Q1009
YBBN,2013-03-13 16:00,153.1292,-27.3917,64.40,60.80,88.09,210.00,7.00,0.00,29.77,M,6.21,M,M,M,M,M,M,M,M,M,M,YBBN 131600Z 21007KT CAVOK 18/16 Q1008 NOSIG
YBBN,2013-03-13 16:30,153.1292,-27.3917,64.40,60.80,88.09,210.00,7.00,0.00,29.77,M,6.21,M,M,M,M,M,M,M,M,M,M,YBBN 131630Z 21007KT CAVOK 18/16 Q1008
YBBN,2013-03-13 17:00,153.1292,-27.3917,62.60,60.80,93.83,210.00,7.00,0.00,29.77,M,6.21,M,M,M,M,M,M,M,M,M,M,YBBN 131700Z 21007KT CAVOK 17/16 Q1008
YBBN,2013-03-13 17:30,153.1292,-27.3917,64.40,60.80,88.09,200.00,7.00,0.00,29.74,M,6.21,M,M,M,M,M,M,M,M,M,M,YBBN 131730Z 20007KT CAVOK 18/16 Q1007
YBBN,2013-03-13 18:00,153.1292,-27.3917,64.40,60.80,88.09,200.00,6.00,0.00,29.74,M,6.21,M,M,M,M,M,M,M,M,M,M,YBBN 131800Z 20006KT CAVOK 18/16 Q1007
YBBN,2013-03-13 18:30,153.1292,-27.3917,62.60,60.80,93.83,210.00,7.00,0.00,29.74,M,6.21,M,M,M,M,M,M,M,M,M,M,YBBN 131830Z 21007KT CAVOK 17/16 Q1007
YBBN,2013-03-13 19:00,153.1292,-27.3917,64.40,60.80,88.09,200.00,7.00,0.00,29.74,M,6.21,M,M,M,M,M,M,M,M,M,M,YBBN 131900Z 20007KT CAVOK 18/16 Q1007 NOSIG
YBBN,2013-03-13 19:30,153.1292,-27.3917,64.40,60.80,88.09,200.00,7.00,0.00,29.74,M,6.21,M,M,M,M,M,M,M,M,M,M,YBBN 131930Z 20007KT CAVOK 18/16 Q1007
YBBN,2013-03-13 20:00,153.1292,-27.3917,64.40,60.80,88.09,200.00,7.00,0.00,29.74,M,6.21,M,M,M,M,M,M,M,M,M,M,YBBN 132000Z 20007KT CAVOK 18/16 Q1007 NOSIG
YBBN,2013-03-13 20:30,153.1292,-27.3917,64.40,60.80,88.09,200.00,7.00,0.00,29.77,M,6.21,M,M,M,M,M,M,M,M,M,M,YBBN 132030Z 20007KT CAVOK 18/16 Q1008
YBBN,2013-03-13 21:00,153.1292,-27.3917,68.00,60.80,77.75,200.00,7.00,0.00,29.77,M,6.21,M,M,M,M,M,M,M,M,M,M,YBBN 132100Z 20007KT CAVOK 20/16 Q1008
YBBN,2013-03-13 21:30,153.1292,-27.3917,69.80,60.80,73.09,200.00,10.00,0.00,29.77,M,6.21,M,M,M,M,M,M,M,M,M,M,YBBN 132130Z 20010KT CAVOK 21/16 Q1008
YBBN,2013-03-13 22:00,153.1292,-27.3917,71.60,60.80,68.75,210.00,12.00,0.00,29.80,M,6.21,M,M,M,M,M,M,M,M,M,M,YBBN 132200Z 21012KT CAVOK 22/16 Q1009
YBBN,2013-03-13 22:30,153.1292,-27.3917,71.60,60.80,68.75,210.00,13.00,0.00,29.80,M,6.21,M,M,M,M,M,M,M,M,M,M,YBBN 132230Z 21013KT CAVOK 22/16 Q1009
YBBN,2013-03-13 23:00,153.1292,-27.3917,75.20,60.80,60.90,210.00,12.00,0.00,29.80,M,6.21,M,FEW,M,M,M,2200.00,M,M,M,M,YBBN 132300Z 21012KT 9999 FEW022 24/16 Q1009
YBBN,2013-03-13 23:30,153.1292,-27.3917,77.00,60.80,57.36,200.00,12.00,0.00,29.80,M,6.21,M,FEW,M,M,M,2500.00,M,M,M,M,YBBN 132330Z 20012KT 9999 FEW025 25/16 Q1009
