#DEBUG: Format Typ    -> comma
#DEBUG: Time Period   -> 2013-10-30 00:00:00+00:00 2013-10-31 00:00:00+00:00
#DEBUG: Time Zone     -> Etc/UTC
#DEBUG: Data Contact   -> daryl herzmann akrherz@iastate.edu 515-294-5978
#DEBUG: Entries Found -> -1
station,valid,lon,lat,tmpf, dwpf, relh, drct, sknt, p01i, alti, mslp, vsby, gust, skyc1, skyc2, skyc3, skyc4, skyl1, skyl2, skyl3, skyl4, presentwx, metar
YBBN,2013-10-30 00:00,153.1292,-27.3917,75.20,59.00,57.12,130.00,8.00,0.00,29.97,M,6.21,M,FEW,BKN,M,M,2700.00,3600.00,M,M,M,YBBN 300000Z 13008KT 9999 FEW027 BKN036 24/15 Q1015 NOSIG
YBBN,2013-10-30 00:30,153.1292,-27.3917,73.40,59.00,60.67,130.00,7.00,0.00,29.97,M,6.21,M,FEW,BKN,M,M,3300.00,4500.00,M,M,M,YBBN 300030Z 13007KT 9999 FEW033 BKN045 23/15 Q1015
YBBN,2013-10-30 01:00,153.1292,-27.3917,77.00,60.80,57.36,90.00,8.00,0.00,29.97,M,6.21,M,SCT,SCT,M,M,3300.00,4500.00,M,M,M,YBBN 300100Z 09008KT 9999 SCT033 SCT045 25/16 Q1015 NOSIG
YBBN,2013-10-30 01:30,153.1292,-27.3917,77.00,60.80,57.36,120.00,10.00,0.00,29.94,M,6.21,M,SCT,M,M,M,3500.00,M,M,M,M,YBBN 300130Z 12010KT 9999 SCT035 25/16 Q1014
YBBN,2013-10-30 02:00,153.1292,-27.3917,77.00,59.00,53.80,120.00,10.00,0.00,29.94,M,6.21,M,SCT,M,M,M,4000.00,M,M,M,M,YBBN 300200Z 12010KT 9999 SCT040 25/15 Q1014 NOSIG
YBBN,2013-10-30 02:30,153.1292,-27.3917,77.00,59.00,53.80,100.00,12.00,0.00,29.94,M,6.21,M,FEW,M,M,M,4000.00,M,M,M,M,YBBN 300230Z 10012KT 9999 FEW040 25/15 Q1014
YBBN,2013-10-30 03:00,153.1292,-27.3917,75.20,59.00,57.12,110.00,13.00,0.00,29.94,M,6.21,M,FEW,M,M,M,4300.00,M,M,M,M,YBBN 300300Z 11013KT 9999 FEW043 24/15 Q1014 NOSIG
YBBN,2013-10-30 03:30,153.1292,-27.3917,75.20,57.20,53.55,110.00,13.00,0.00,29.94,M,6.21,M,FEW,M,M,M,4300.00,M,M,M,M,YBBN 300330Z 11013KT 9999 FEW043 24/14 Q1014
YBBN,2013-10-30 04:00,153.1292,-27.3917,77.00,59.00,53.80,110.00,13.00,0.00,29.91,M,6.21,M,FEW,M,M,M,4300.00,M,M,M,M,YBBN 300400Z 11013KT 9999 FEW043 25/15 Q1013 NOSIG
YBBN,2013-10-30 04:30,153.1292,-27.3917,75.20,59.00,57.12,110.00,14.00,0.00,29.91,M,6.21,M,FEW,M,M,M,4300.00,M,M,M,M,YBBN 300430Z 11014KT 9999 FEW043 24/15 Q1013
YBBN,2013-10-30 05:00,153.1292,-27.3917,75.20,60.80,60.90,110.00,14.00,0.00,29.94,M,6.21,M,FEW,M,M,M,4300.00,M,M,M,M,YBBN 300500Z 11014KT 9999 FEW043 24/16 Q1014 NOSIG
YBBN,2013-10-30 05:30,153.1292,-27.3917,73.40,59.00,60.67,120.00,14.00,0.00,29.94,M,6.21,26.00,FEW,M,M,M,4100.00,M,M,M,M,YBBN 300530Z 12014G26KT 9999 FEW041 23/15 Q1014
YBBN,2013-10-30 06:00,153.1292,-27.3917,73.40,60.80,64.69,120.00,16.00,0.00,29.94,M,6.21,27.00,FEW,M,M,M,4000.00,M,M,M,M,YBBN 300600Z 12016G27KT 9999 FEW040 23/16 Q1014
YBBN,2013-10-30 06:30,153.1292,-27.3917,73.40,60.80,64.69,120.00,15.00,0.00,29.94,M,6.21,M,FEW,M,M,M,2500.00,M,M,M,M,YBBN 300630Z 12015KT 9999 FEW025 23/16 Q1014 RMK HAZE
YBBN,2013-10-30 07:00,153.1292,-27.3917,71.60,60.80,68.75,120.00,14.00,0.00,29.97,M,6.21,M,FEW,M,M,M,2500.00,M,M,M,M,YBBN 300700Z 12014KT 9999 FEW025 22/16 Q1015 NOSIG
YBBN,2013-10-30 07:30,153.1292,-27.3917,71.60,60.80,68.75,120.00,13.00,0.00,29.97,M,6.21,M,FEW,BKN,M,M,2300.00,5700.00,M,M,M,YBBN 300730Z 12013KT 9999 FEW023 BKN057 22/16 Q1015
YBBN,2013-10-30 08:00,153.1292,-27.3917,71.60,59.00,64.48,110.00,14.00,0.00,30.00,M,6.21,25.00,FEW,BKN,M,M,1800.00,5700.00,M,M,M,YBBN 300800Z 11014G25KT 9999 FEW018 BKN057 22/15 Q1016 NOSIG
YBBN,2013-10-30 08:30,153.1292,-27.3917,71.60,60.80,68.75,110.00,12.00,0.00,30.00,M,6.21,22.00,FEW,BKN,M,M,2600.00,6200.00,M,M,M,YBBN 300830Z 11012G22KT 9999 FEW026 BKN062 22/16 Q1016
YBBN,2013-10-30 09:00,153.1292,-27.3917,71.60,60.80,68.75,110.00,11.00,0.00,30.00,M,6.21,M,FEW,BKN,M,M,2500.00,6500.00,M,M,VCSH,YBBN 300900Z 11011KT 9999 VCSH FEW025 BKN065 22/16 Q1016 NOSIG
YBBN,2013-10-30 09:30,153.1292,-27.3917,69.80,62.60,77.90,100.00,12.00,0.00,30.03,M,6.21,M,FEW,SCT,BKN,M,1800.00,2500.00,5200.00,M,M,YBBN 300930Z 10012KT 9999 FEW018 SCT025 BKN052 21/17 Q1017
YBBN,2013-10-30 10:00,153.1292,-27.3917,71.60,59.00,64.48,110.00,11.00,0.00,30.06,M,6.21,M,FEW,SCT,BKN,M,1800.00,2500.00,4700.00,M,M,YBBN 301000Z 11011KT 9999 FEW018 SCT025 BKN047 22/15 Q1018 NOSIG
YBBN,2013-10-30 10:30,153.1292,-27.3917,71.60,59.00,64.48,110.00,9.00,0.00,30.06,M,6.21,M,SCT,BKN,BKN,M,2800.00,4000.00,8500.00,M,M,YBBN 301030Z 11009KT 9999 SCT028 BKN040 BKN085 22/15 Q1018
YBBN,2013-10-30 11:00,153.1292,-27.3917,69.80,59.00,68.55,110.00,9.00,0.00,30.06,M,6.21,M,FEW,SCT,BKN,M,2800.00,4200.00,8700.00,M,M,YBBN 301100Z 11009KT 9999 FEW028 SCT042 BKN087 21/15 Q1018 NOSIG
YBBN,2013-10-30 11:30,153.1292,-27.3917,69.80,57.20,64.26,110.00,10.00,0.00,30.06,M,6.21,M,SCT,SCT,BKN,M,3000.00,4000.00,6200.00,M,M,YBBN 301130Z 11010KT 9999 SCT030 SCT040 BKN062 21/14 Q1018
YBBN,2013-10-30 12:00,153.1292,-27.3917,69.80,57.20,64.26,110.00,9.00,0.00,30.06,M,6.21,M,FEW,BKN,M,M,3000.00,3600.00,M,M,M,YBBN 301200Z 11009KT 9999 FEW030 BKN036 21/14 Q1018 NOSIG
YBBN,2013-10-30 12:30,153.1292,-27.3917,69.80,59.00,68.55,140.00,7.00,0.00,30.06,M,6.21,M,SCT,SCT,BKN,M,3000.00,3600.00,5500.00,M,M,YBBN 301230Z 14007KT 9999 SCT030 SCT036 BKN055 21/15 Q1018
YBBN,2013-10-30 13:00,153.1292,-27.3917,69.80,57.20,64.26,140.00,10.00,0.00,30.06,M,6.21,M,FEW,BKN,M,M,3000.00,5800.00,M,M,M,YBBN 301300Z 14010KT 9999 FEW030 BKN058 21/14 Q1018 NOSIG
YBBN,2013-10-30 13:30,153.1292,-27.3917,69.80,59.00,68.55,120.00,8.00,0.00,30.06,M,6.21,M,FEW,BKN,M,M,3000.00,5800.00,M,M,M,YBBN 301330Z 12008KT 9999 FEW030 BKN058 21/15 Q1018
YBBN,2013-10-30 14:00,153.1292,-27.3917,69.80,59.00,68.55,110.00,8.00,0.00,30.06,M,6.21,M,FEW,BKN,M,M,2700.00,6000.00,M,M,M,YBBN 301400Z 11008KT 9999 FEW027 BKN060 21/15 Q1018 NOSIG
YBBN,2013-10-30 14:30,153.1292,-27.3917,69.80,59.00,68.55,100.00,6.00,0.00,30.06,M,6.21,M,FEW,BKN,M,M,2500.00,6000.00,M,M,M,YBBN 301430Z 10006KT 9999 FEW025 BKN060 21/15 Q1018
YBBN,2013-10-30 15:00,153.1292,-27.3917,69.80,59.00,68.55,110.00,7.00,0.00,30.03,M,6.21,M,SCT,BKN,M,M,2500.00,6000.00,M,M,M,YBBN 301500Z 11007KT 9999 SCT025 BKN060 21/15 Q1017 NOSIG
YBBN,2013-10-30 15:30,153.1292,-27.3917,69.80,55.40,60.21,100.00,6.00,0.00,30.03,M,6.21,M,SCT,BKN,M,M,2500.00,4000.00,M,M,M,YBBN 301530Z 10006KT 9999 SCT025 BKN040 21/13 Q1017
YBBN,2013-10-30 16:00,153.1292,-27.3917,69.80,55.40,60.21,120.00,8.00,0.00,30.03,M,6.21,M,SCT,BKN,M,M,2500.00,3800.00,M,M,-SHRA,YBBN 301600Z 12008KT 9999 -SHRA SCT025 BKN038 21/13 Q1017 NOSIG
YBBN,2013-10-30 16:30,153.1292,-27.3917,68.00,59.00,72.92,100.00,7.00,0.00,30.03,M,6.21,M,BKN,BKN,M,M,2700.00,4300.00,M,M,-SHRA,YBBN 301630Z 10007KT 9999 -SHRA BKN027 BKN043 20/15 Q1017
YBBN,2013-10-30 17:00,153.1292,-27.3917,68.00,57.20,68.35,190.00,5.00,0.00,30.03,M,6.21,M,SCT,BKN,M,M,3200.00,4400.00,M,M,M,YBBN 301700Z 19005KT 9999 SCT032 BKN044 20/14 Q1017 NOSIG
YBBN,2013-10-30 17:30,153.1292,-27.3917,68.00,55.40,64.04,160.00,4.00,0.00,30.03,M,6.21,M,FEW,BKN,M,M,3200.00,4200.00,M,M,M,YBBN 301730Z 16004KT 9999 FEW032 BKN042 20/13 Q1017
YBBN,2013-10-30 18:00,153.1292,-27.3917,66.20,55.40,68.15,160.00,5.00,0.00,30.03,M,6.21,M,SCT,M,M,M,4400.00,M,M,M,M,YBBN 301800Z 16005KT 9999 SCT044 19/13 Q1017
YBBN,2013-10-30 18:30,153.1292,-27.3917,66.20,55.40,68.15,160.00,5.00,0.00,30.03,M,6.21,M,M,M,M,M,M,M,M,M,M,YBBN 301830Z 16005KT CAVOK 19/13 Q1017
YBBN,2013-10-30 19:00,153.1292,-27.3917,66.20,53.60,63.82,160.00,5.00,0.00,30.06,M,6.21,M,FEW,SCT,M,M,4200.00,7400.00,M,M,M,YBBN 301900Z 16005KT 9999 FEW042 SCT074 19/12 Q1018 NOSIG
YBBN,2013-10-30 19:30,153.1292,-27.3917,66.20,55.40,68.15,150.00,5.00,0.00,30.06,M,6.21,M,FEW,M,M,M,4000.00,M,M,M,M,YBBN 301930Z 15005KT 9999 FEW040 19/13 Q1018
YBBN,2013-10-30 20:00,153.1292,-27.3917,68.00,53.60,59.97,160.00,5.00,0.00,30.09,M,6.21,M,FEW,SCT,M,M,3600.00,4000.00,M,M,M,YBBN 302000Z 16005KT 9999 FEW036 SCT040 20/12 Q1019 NOSIG
YBBN,2013-10-30 20:30,153.1292,-27.3917,68.00,53.60,59.97,170.00,6.00,0.00,30.09,M,6.21,M,FEW,SCT,M,M,3500.00,5200.00,M,M,M,YBBN 302030Z 17006KT 9999 FEW035 SCT052 20/12 Q1019
YBBN,2013-10-30 21:00,153.1292,-27.3917,69.80,55.40,60.21,140.00,6.00,0.00,30.09,M,6.21,M,FEW,SCT,M,M,3000.00,5200.00,M,M,M,YBBN 302100Z 14006KT 9999 FEW030 SCT052 21/13 Q1019 NOSIG
YBBN,2013-10-30 21:30,153.1292,-27.3917,73.40,55.40,53.29,140.00,8.00,0.00,30.09,M,6.21,M,FEW,BKN,M,M,3000.00,4800.00,M,M,M,YBBN 302130Z 14008KT 9999 FEW030 BKN048 23/13 Q1019
YBBN,2013-10-30 22:00,153.1292,-27.3917,71.60,57.20,60.44,120.00,8.00,0.00,30.12,M,6.21,M,SCT,BKN,M,M,3000.00,5400.00,M,M,M,YBBN 302200Z 12008KT 9999 SCT030 BKN054 22/14 Q1020 NOSIG
YBBN,2013-10-30 22:30,153.1292,-27.3917,73.40,57.20,56.88,120.00,9.00,0.00,30.12,M,6.21,M,FEW,SCT,M,M,3000.00,5200.00,M,M,M,YBBN 302230Z 12009KT 9999 FEW030 SCT052 23/14 Q1020
YBBN,2013-10-30 23:00,153.1292,-27.3917,73.40,55.40,53.29,110.00,11.00,0.00,30.12,M,6.21,M,FEW,SCT,M,M,3200.00,5200.00,M,M,M,YBBN 302300Z 11011KT 9999 FEW032 SCT052 23/13 Q1020 NOSIG
YBBN,2013-10-30 23:30,153.1292,-27.3917,75.20,55.40,50.17,110.00,9.00,0.00,30.12,M,6.21,M,SCT,M,M,M,3200.00,M,M,M,M,YBBN 302330Z 11009KT 9999 SCT032 24/13 Q1020
