#DEBUG: Format Typ    -> comma
#DEBUG: Time Period   -> 2013-02-20 00:00:00+00:00 2013-02-21 00:00:00+00:00
#DEBUG: Time Zone     -> Etc/UTC
#DEBUG: Data Contact   -> daryl herzmann akrherz@iastate.edu 515-294-5978
#DEBUG: Entries Found -> -1
station,valid,lon,lat,tmpf, dwpf, relh, drct, sknt, p01i, alti, mslp, vsby, gust, skyc1, skyc2, skyc3, skyc4, skyl1, skyl2, skyl3, skyl4, presentwx, metar
YBBN,2013-02-20 00:00,153.1292,-27.3917,78.80,66.20,65.33,190.00,9.00,0.00,29.74,M,6.21,M,SCT,BKN,M,M,3500.00,4500.00,M,M,M,YBBN 200000Z 19009KT 9999 SCT035 BKN045 26/19 Q1007
YBBN,2013-02-20 00:30,153.1292,-27.3917,78.80,64.40,61.36,200.00,14.00,0.00,29.74,M,6.21,M,BKN,BKN,M,M,3500.00,4700.00,M,M,M,YBBN 200030Z 20014KT 9999 BKN035 BKN047 26/18 Q1007
YBBN,2013-02-20 01:00,153.1292,-27.3917,80.60,64.40,57.84,200.00,14.00,0.00,29.74,M,6.21,M,SCT,BKN,M,M,3800.00,4500.00,M,M,VCSH,YBBN 200100Z 20014KT 9999 VCSH SCT038 BKN045 27/18 Q1007
YBBN,2013-02-20 01:30,153.1292,-27.3917,78.80,66.20,65.33,190.00,10.00,0.00,29.74,M,6.21,M,BKN,BKN,M,M,3800.00,4800.00,M,M,VCSH,YBBN 200130Z 19010KT 9999 VCSH BKN038 BKN048 26/19 Q1007
YBBN,2013-02-20 02:00,153.1292,-27.3917,78.80,66.20,65.33,190.00,12.00,0.00,29.74,M,6.21,M,SCT,BKN,M,M,3200.00,4300.00,M,M,-SHRA,YBBN 200200Z 19012KT 9999 -SHRA SCT032 BKN043 26/19 Q1007
YBBN,2013-02-20 02:30,153.1292,-27.3917,80.60,66.20,61.58,200.00,14.00,0.00,29.74,M,6.21,M,BKN,BKN,M,M,3500.00,5000.00,M,M,VCSH,YBBN 200230Z 20014KT 9999 VCSH BKN035 BKN050 27/19 Q1007
YBBN,2013-02-20 03:00,153.1292,-27.3917,78.80,68.00,69.52,180.00,9.00,0.00,29.74,M,6.21,M,SCT,BKN,M,M,3500.00,4100.00,M,M,VCSH,YBBN 200300Z 18009KT 9999 VCSH SCT035 BKN041 26/20 Q1007 FM0300 MOD TURB BLW 5000FT
YBBN,2013-02-20 03:30,153.1292,-27.3917,80.60,68.00,65.54,200.00,16.00,0.00,29.71,M,6.21,M,SCT,SCT,BKN,M,3800.00,4700.00,5500.00,M,VCSH,YBBN 200330Z 20016KT 9999 VCSH SCT038 SCT047 BKN055 27/20 Q1006
YBBN,2013-02-20 04:00,153.1292,-27.3917,78.80,69.80,73.95,170.00,8.00,0.00,29.71,M,6.21,M,BKN,BKN,M,M,3100.00,4000.00,M,M,VCSH,YBBN 200400Z 17008KT 9999 VCSH BKN031 BKN040 26/21 Q1006 FM0400 MOD TURB BLW 5000FT
YBBN,2013-02-20 04:30,153.1292,-27.3917,77.00,71.60,83.44,190.00,10.00,0.00,29.71,M,6.21,M,FEW,SCT,BKN,M,1200.00,3000.00,5700.00,M,VCSH,YBBN 200430Z 19010KT 9999 VCSH FEW012 SCT030 BKN057 25/22 Q1006
YBBN,2013-02-20 05:00,153.1292,-27.3917,75.20,71.60,88.59,130.00,7.00,0.00,29.71,M,6.21,M,FEW,BKN,BKN,M,1200.00,3500.00,4600.00,M,-SHRA,YBBN 200500Z 13007KT 9999 8000N -SHRA FEW012 BKN035 BKN046 24/22 Q1006
YBBN,2013-02-20 05:30,153.1292,-27.3917,77.00,73.40,88.67,180.00,10.00,0.00,29.71,M,6.21,M,FEW,BKN,M,M,1200.00,3500.00,M,M,VCSH,YBBN 200530Z 18010KT 9999 VCSH FEW012 BKN035 25/23 Q1006
YBBN,2013-02-20 05:49,153.1292,-27.3917,77.00,71.60,83.44,180.00,9.00,0.00,29.71,M,6.21,M,FEW,BKN,BKN,M,1500.00,3000.00,6000.00,M,-SHRA,YBBN 200549Z 18009KT 9999 5000S -SHRA FEW015 BKN030 BKN060 25/22 Q1006
YBBN,2013-02-20 05:53,153.1292,-27.3917,75.20,69.80,83.32,180.00,9.00,0.00,29.71,M,1.55,M,FEW,BKN,BKN,M,1500.00,3000.00,4900.00,M,-SHRA,YBBN 200553Z 18009KT 2500 -SHRA FEW015 BKN030 BKN049 24/21 Q1006
YBBN,2013-02-20 06:00,153.1292,-27.3917,73.40,71.60,94.10,190.00,12.00,0.00,29.71,M,2.49,M,FEW,BKN,BKN,M,1400.00,3000.00,4300.00,M,-SHRA,YBBN 200600Z 19012KT 4000 -SHRA FEW014 BKN030 BKN043 23/22 Q1006
YBBN,2013-02-20 06:10,153.1292,-27.3917,73.40,71.60,94.10,180.00,11.00,0.00,29.71,M,6.21,M,FEW,BKN,BKN,M,1400.00,3500.00,6300.00,M,VCSH,YBBN 200610Z 18011KT 9999 VCSH FEW014 BKN035 BKN063 23/22 Q1006
YBBN,2013-02-20 06:30,153.1292,-27.3917,75.20,71.60,88.59,190.00,9.00,0.00,29.71,M,6.21,M,BKN,BKN,M,M,3500.00,4700.00,M,M,-SHRA,YBBN 200630Z 19009KT 9999 -SHRA BKN035 BKN047 24/22 Q1006
YBBN,2013-02-20 07:00,153.1292,-27.3917,73.40,69.80,88.51,190.00,10.00,0.00,29.71,M,6.21,M,BKN,BKN,M,M,3300.00,8300.00,M,M,VCSH,YBBN 200700Z 19010KT 9999 VCSH BKN033 BKN083 23/21 Q1006
YBBN,2013-02-20 07:30,153.1292,-27.3917,77.00,66.20,69.33,180.00,7.00,0.00,29.74,M,6.21,M,BKN,BKN,M,M,3500.00,6100.00,M,M,VCSH,YBBN 200730Z 18007KT 9999 VCSH BKN035 BKN061 25/19 Q1007
YBBN,2013-02-20 08:00,153.1292,-27.3917,75.20,68.00,78.34,180.00,7.00,0.00,29.74,M,6.21,M,BKN,BKN,M,M,3500.00,4300.00,M,M,VCSH,YBBN 200800Z 18007KT 9999 VCSH BKN035 BKN043 24/20 Q1007
YBBN,2013-02-20 08:30,153.1292,-27.3917,73.40,68.00,83.21,200.00,9.00,0.00,29.77,M,6.21,M,BKN,BKN,M,M,3100.00,4500.00,M,M,M,YBBN 200830Z 20009KT 9999 BKN031 BKN045 23/20 Q1008
YBBN,2013-02-20 09:00,153.1292,-27.3917,75.20,66.20,73.61,200.00,9.00,0.00,29.77,M,6.21,M,FEW,BKN,M,M,3200.00,4300.00,M,M,M,YBBN 200900Z 20009KT 9999 FEW032 BKN043 24/19 Q1008 FM0900 MOD TURB BLW 5000FT
YBBN,2013-02-20 09:30,153.1292,-27.3917,73.40,66.20,78.19,200.00,11.00,0.00,29.77,M,6.21,M,SCT,BKN,M,M,3500.00,4300.00,M,M,M,YBBN 200930Z 20011KT 9999 SCT035 BKN043 23/19 Q1008
YBBN,2013-02-20 10:00,153.1292,-27.3917,73.40,66.20,78.19,200.00,10.00,0.00,29.80,M,6.21,M,FEW,BKN,M,M,3500.00,4000.00,M,M,M,YBBN 201000Z 20010KT 9999 FEW035 BKN040 23/19 Q1009 FM1000 MOD TURB BLW 5000FT
YBBN,2013-02-20 10:30,153.1292,-27.3917,73.40,64.40,73.44,200.00,13.00,0.00,29.80,M,6.21,M,BKN,M,M,M,4000.00,M,M,M,M,YBBN 201030Z 20013KT 9999 BKN040 23/18 Q1009
YBBN,2013-02-20 11:00,153.1292,-27.3917,73.40,64.40,73.44,200.00,10.00,0.00,29.80,M,6.21,M,BKN,M,M,M,3800.00,M,M,M,M,YBBN 201100Z 20010KT 9999 BKN038 23/18 Q1009
YBBN,2013-02-20 11:30,153.1292,-27.3917,71.60,64.40,78.04,200.00,9.00,0.00,29.80,M,6.21,M,BKN,M,M,M,3000.00,M,M,M,M,YBBN 201130Z 20009KT 9999 BKN030 22/18 Q1009
YBBN,2013-02-20 12:00,153.1292,-27.3917,71.60,64.40,78.04,200.00,9.00,0.00,29.80,M,6.21,M,FEW,BKN,M,M,3000.00,3400.00,M,M,M,YBBN 201200Z 20009KT 9999 FEW030 BKN034 22/18 Q1009 FM1200 MOD TURB BLW 5000FT
YBBN,2013-02-20 12:30,153.1292,-27.3917,71.60,64.40,78.04,210.00,9.00,0.00,29.80,M,6.21,M,FEW,BKN,M,M,3000.00,3400.00,M,M,M,YBBN 201230Z 21009KT 9999 FEW030 BKN034 22/18 Q1009
YBBN,2013-02-20 13:00,153.1292,-27.3917,71.60,64.40,78.04,200.00,8.00,0.00,29.80,M,6.21,M,FEW,BKN,M,M,3000.00,3500.00,M,M,M,YBBN 201300Z 20008KT 9999 FEW030 BKN035 22/18 Q1009 FM1300 MOD TURB BLW 5000FT
YBBN,2013-02-20 13:30,153.1292,-27.3917,71.60,66.20,83.09,200.00,10.00,0.00,29.77,M,6.21,M,FEW,BKN,M,M,2000.00,3000.00,M,M,-RA,YBBN 201330Z 20010KT 9999 -RA FEW020 BKN030 22/19 Q1008
YBBN,2013-02-20 14:00,153.1292,-27.3917,69.80,66.20,88.34,210.00,10.00,0.00,29.77,M,6.21,M,FEW,SCT,BKN,M,1200.00,2600.00,6000.00,M,M,YBBN 201400Z 21010KT 9999 FEW012 SCT026 BKN060 21/19 Q1008 FM1400 MOD TURB BLW 5000FT
YBBN,2013-02-20 14:30,153.1292,-27.3917,69.80,66.20,88.34,200.00,8.00,0.00,29.77,M,6.21,M,FEW,SCT,M,M,1500.00,6500.00,M,M,M,YBBN 201430Z 20008KT 9999 FEW015 SCT065 21/19 Q1008
YBBN,2013-02-20 15:00,153.1292,-27.3917,69.80,66.20,88.34,210.00,10.00,0.00,29.74,M,6.21,M,M,M,M,M,M,M,M,M,M,YBBN 201500Z 21010KT CAVOK 21/19 Q1007
YBBN,2013-02-20 15:30,153.1292,-27.3917,69.80,64.40,82.98,210.00,11.00,0.00,29.74,M,6.21,M,FEW,BKN,M,M,3300.00,5600.00,M,M,M,YBBN 201530Z 21011KT 9999 FEW033 BKN056 21/18 Q1007
YBBN,2013-02-20 16:00,153.1292,-27.3917,71.60,64.40,78.04,210.00,11.00,0.00,29.74,M,6.21,M,FEW,BKN,M,M,3300.00,4200.00,M,M,M,YBBN 201600Z 21011KT 9999 FEW033 BKN042 22/18 Q1007 FM1600 MOD TURB BLW 5000FT
YBBN,2013-02-20 16:30,153.1292,-27.3917,71.60,64.40,78.04,210.00,9.00,0.00,29.74,M,6.21,M,SCT,BKN,M,M,3600.00,4400.00,M,M,M,YBBN 201630Z 21009KT 9999 SCT036 BKN044 22/18 Q1007
YBBN,2013-02-20 17:00,153.1292,-27.3917,71.60,64.40,78.04,200.00,10.00,0.00,29.71,M,6.21,M,FEW,SCT,BKN,M,2000.00,3600.00,6000.00,M,M,YBBN 201700Z 20010KT 9999 FEW020 SCT036 BKN060 22/18 Q1006 FM1700 MOD TURB BLW 5000FT
YBBN,2013-02-20 17:30,153.1292,-27.3917,69.80,64.40,82.98,210.00,11.00,0.00,29.71,M,6.21,M,BKN,M,M,M,3600.00,M,M,M,M,YBBN 201730Z 21011KT 9999 BKN036 21/18 Q1006
YBBN,2013-02-20 18:00,153.1292,-27.3917,69.80,64.40,82.98,210.00,12.00,0.00,29.71,M,6.21,M,FEW,BKN,M,M,3600.00,4800.00,M,M,M,YBBN 201800Z 21012KT 9999 FEW036 BKN048 21/18 Q1006 FM1800 MOD TURB BLW 5000FT
YBBN,2013-02-20 18:30,153.1292,-27.3917,71.60,64.40,78.04,210.00,11.00,0.00,29.71,M,6.21,M,BKN,M,M,M,3600.00,M,M,M,M,YBBN 201830Z 21011KT 9999 BKN036 22/18 Q1006
YBBN,2013-02-20 19:00,153.1292,-27.3917,71.60,64.40,78.04,200.00,9.00,0.00,29.74,M,6.21,M,BKN,M,M,M,3400.00,M,M,M,M,YBBN 201900Z 20009KT 9999 BKN034 22/18 Q1007 FM1900 MOD TURB BLW 5000FT
YBBN,2013-02-20 21:00,153.1292,-27.3917,73.40,64.40,73.44,200.00,12.00,0.00,29.74,M,6.21,M,FEW,BKN,M,M,2500.00,5000.00,M,M,M,YBBN 202100Z 20012KT 9999 FEW025 BKN050 23/18 Q1007 FM2100 MOD TURB BLW 5000FT
YBBN,2013-02-20 21:30,153.1292,-27.3917,75.20,64.40,69.14,200.00,14.00,0.00,29.74,M,6.21,M,FEW,SCT,M,M,2500.00,3500.00,M,M,M,YBBN 202130Z 20014KT 9999 FEW025 SCT035 24/18 Q1007
YBBN,2013-02-20 22:00,153.1292,-27.3917,77.00,62.60,61.13,190.00,13.00,0.00,29.74,M,6.21,M,FEW,SCT,M,M,2500.00,3500.00,M,M,M,YBBN 202200Z 19013KT 9999 FEW025 SCT035 25/17 Q1007 FM2200 MOD TURB BLW 5000FT
YBBN,2013-02-20 22:30,153.1292,-27.3917,77.00,64.40,65.12,200.00,13.00,0.00,29.74,M,6.21,M,FEW,SCT,M,M,2500.00,3500.00,M,M,M,YBBN 202230Z 20013KT 9999 FEW025 SCT035 25/18 Q1007
YBBN,2013-02-20 23:00,153.1292,-27.3917,78.80,64.40,61.36,190.00,14.00,0.00,29.77,M,6.21,M,SCT,M,M,M,3000.00,M,M,M,M,YBBN 202300Z 19014KT 9999 SCT030 26/18 Q1008
YBBN,2013-02-20 23:30,153.1292,-27.3917,77.00,64.40,65.12,190.00,14.00,0.00,29.77,M,6.21,M,FEW,BKN,M,M,3000.00,3500.00,M,M,-SHRA,YBBN 202330Z 19014KT 9999 -SHRA FEW030 BKN035 25/18 Q1008
