#DEBUG: Format Typ    -> comma
#DEBUG: Time Period   -> 2012-11-07 00:00:00+00:00 2012-11-08 00:00:00+00:00
#DEBUG: Time Zone     -> Etc/UTC
#DEBUG: Data Contact   -> daryl herzmann akrherz@iastate.edu 515-294-5978
#DEBUG: Entries Found -> -1
station,valid,lon,lat,tmpf, dwpf, relh, drct, sknt, p01i, alti, mslp, vsby, gust, skyc1, skyc2, skyc3, skyc4, skyl1, skyl2, skyl3, skyl4, presentwx, metar
YBBN,2012-11-07 00:00,153.1292,-27.3917,78.80,59.00,50.69,30.00,9.00,0.00,30.03,M,6.21,M,SCT,M,M,M,3100.00,M,M,M,M,YBBN 070000Z 03009KT 9999 SCT031 26/15 Q1017
YBBN,2012-11-07 00:30,153.1292,-27.3917,75.20,59.00,57.12,20.00,9.00,0.00,30.03,M,6.21,M,SCT,M,M,M,3100.00,M,M,M,M,YBBN 070030Z 02009KT 9999 SCT031 24/15 Q1017
YBBN,2012-11-07 01:00,153.1292,-27.3917,77.00,60.80,57.36,350.00,9.00,0.00,30.00,M,6.21,M,SCT,M,M,M,3100.00,M,M,M,M,YBBN 070100Z 35009KT 9999 SCT031 25/16 Q1016 NOSIG
YBBN,2012-11-07 01:30,153.1292,-27.3917,77.00,59.00,53.80,20.00,8.00,0.00,30.00,M,6.21,M,FEW,SCT,M,M,3500.00,20000.00,M,M,M,YBBN 070130Z 02008KT 9999 FEW035 SCT200 25/15 Q1016
YBBN,2012-11-07 02:00,153.1292,-27.3917,78.80,57.20,47.52,50.00,8.00,0.00,30.00,M,6.21,M,FEW,SCT,M,M,4000.00,20000.00,M,M,M,YBBN 070200Z 05008KT 9999 FEW040 SCT200 26/14 Q1016 NOSIG
YBBN,2012-11-07 02:30,153.1292,-27.3917,78.80,53.60,41.69,40.00,9.00,0.00,29.97,M,6.21,M,FEW,BKN,M,M,4500.00,20000.00,M,M,M,YBBN 070230Z 04009KT 9999 FEW045 BKN200 26/12 Q1015
YBBN,2012-11-07 03:00,153.1292,-27.3917,77.00,53.60,44.25,50.00,9.00,0.00,29.97,M,6.21,M,FEW,BKN,M,M,4500.00,20000.00,M,M,M,YBBN 070300Z 05009KT 9999 FEW045 BKN200 25/12 Q1015
YBBN,2012-11-07 03:30,153.1292,-27.3917,78.80,57.20,47.52,50.00,9.00,0.00,29.94,M,6.21,M,FEW,BKN,M,M,4500.00,20000.00,M,M,M,YBBN 070330Z 05009KT 9999 FEW045 BKN200 26/14 Q1014
YBBN,2012-11-07 04:00,153.1292,-27.3917,78.80,59.00,50.69,60.00,9.00,0.00,29.94,M,6.21,M,FEW,BKN,M,M,4500.00,21000.00,M,M,M,YBBN 070400Z 06009KT 9999 FEW045 BKN210 26/15 Q1014 NOSIG
YBBN,2012-11-07 04:30,153.1292,-27.3917,77.00,59.00,53.80,50.00,8.00,0.00,29.94,M,6.21,M,FEW,BKN,M,M,4000.00,21000.00,M,M,M,YBBN 070430Z 05008KT 9999 FEW040 BKN210 25/15 Q1014
YBBN,2012-11-07 05:00,153.1292,-27.3917,77.00,60.80,57.36,60.00,8.00,0.00,29.94,M,6.21,M,FEW,BKN,M,M,3800.00,22000.00,M,M,M,YBBN 070500Z 06008KT 9999 FEW038 BKN220 25/16 Q1014 NOSIG
YBBN,2012-11-07 05:30,153.1292,-27.3917,75.20,60.80,60.90,60.00,9.00,0.00,29.94,M,6.21,M,FEW,BKN,M,M,3500.00,22000.00,M,M,M,YBBN 070530Z 06009KT 9999 FEW035 BKN220 24/16 Q1014
YBBN,2012-11-07 06:00,153.1292,-27.3917,77.00,62.60,61.13,80.00,9.00,0.00,29.94,M,6.21,M,FEW,BKN,M,M,3000.00,22000.00,M,M,M,YBBN 070600Z 08009KT 9999 FEW030 BKN220 25/17 Q1014
YBBN,2012-11-07 06:30,153.1292,-27.3917,75.20,62.60,64.91,70.00,9.00,0.00,29.94,M,6.21,M,FEW,BKN,M,M,2400.00,22000.00,M,M,M,YBBN 070630Z 07009KT 9999 FEW024 BKN220 24/17 Q1014
YBBN,2012-11-07 07:00,153.1292,-27.3917,73.40,62.60,68.94,60.00,9.00,0.00,29.94,M,6.21,M,FEW,BKN,M,M,2400.00,22000.00,M,M,M,YBBN 070700Z 06009KT 9999 FEW024 BKN220 23/17 Q1014
YBBN,2012-11-07 07:30,153.1292,-27.3917,73.40,62.60,68.94,70.00,8.00,0.00,29.94,M,6.21,M,FEW,BKN,M,M,2400.00,22000.00,M,M,M,YBBN 070730Z 07008KT 9999 FEW024 BKN220 23/17 Q1014
YBBN,2012-11-07 08:00,153.1292,-27.3917,71.60,62.60,73.27,70.00,7.00,0.00,29.94,M,6.21,M,FEW,BKN,M,M,2000.00,23000.00,M,M,M,YBBN 070800Z 07007KT 9999 FEW020 BKN230 22/17 Q1014 NOSIG
YBBN,2012-11-07 08:30,153.1292,-27.3917,71.60,64.40,78.04,60.00,8.00,0.00,29.94,M,6.21,M,FEW,SCT,BKN,M,2000.00,22000.00,24000.00,M,M,YBBN 070830Z 06008KT 9999 FEW020 SCT220 BKN240 22/18 Q1014
YBBN,2012-11-07 09:00,153.1292,-27.3917,71.60,62.60,73.27,50.00,9.00,0.00,29.94,M,6.21,M,FEW,SCT,BKN,M,2000.00,22000.00,25000.00,M,M,YBBN 070900Z 05009KT 9999 FEW020 SCT220 BKN250 22/17 Q1014
YBBN,2012-11-07 09:30,153.1292,-27.3917,71.60,64.40,78.04,50.00,9.00,0.00,29.97,M,6.21,M,FEW,BKN,M,M,2000.00,24000.00,M,M,M,YBBN 070930Z 05009KT 9999 FEW020 BKN240 22/18 Q1015
YBBN,2012-11-07 10:00,153.1292,-27.3917,71.60,64.40,78.04,40.00,8.00,0.00,29.94,M,6.21,M,FEW,BKN,M,M,1800.00,22000.00,M,M,M,YBBN 071000Z 04008KT 9999 FEW018 BKN220 22/18 Q1014
YBBN,2012-11-07 10:30,153.1292,-27.3917,71.60,64.40,78.04,30.00,9.00,0.00,29.94,M,6.21,M,FEW,BKN,M,M,1800.00,21000.00,M,M,M,YBBN 071030Z 03009KT 9999 FEW018 BKN210 22/18 Q1014
YBBN,2012-11-07 11:00,153.1292,-27.3917,71.60,64.40,78.04,20.00,7.00,0.00,29.97,M,6.21,M,FEW,SCT,BKN,M,1800.00,21000.00,24000.00,M,M,YBBN 071100Z 02007KT 9999 FEW018 SCT210 BKN240 22/18 Q1015 NOSIG
YBBN,2012-11-07 11:30,153.1292,-27.3917,71.60,66.20,83.09,20.00,7.00,0.00,29.97,M,6.21,M,SCT,BKN,M,M,1800.00,21000.00,M,M,M,YBBN 071130Z 02007KT 9999 SCT018 BKN210 22/19 Q1015
YBBN,2012-11-07 12:00,153.1292,-27.3917,71.60,66.20,83.09,20.00,9.00,0.00,29.97,M,6.21,M,FEW,BKN,M,M,1800.00,22000.00,M,M,M,YBBN 071200Z 02009KT 9999 FEW018 BKN220 22/19 Q1015 NOSIG
YBBN,2012-11-07 12:30,153.1292,-27.3917,71.60,66.20,83.09,20.00,8.00,0.00,29.97,M,6.21,M,FEW,BKN,M,M,1800.00,21000.00,M,M,M,YBBN 071230Z 02008KT 9999 FEW018 BKN210 22/19 Q1015
YBBN,2012-11-07 13:00,153.1292,-27.3917,71.60,66.20,83.09,360.00,11.00,0.00,29.97,M,6.21,M,SCT,BKN,M,M,1800.00,18500.00,M,M,M,YBBN 071300Z 36011KT 9999 SCT018 BKN185 22/19 Q1015 NOSIG
YBBN,2012-11-07 13:30,153.1292,-27.3917,73.40,64.40,73.44,360.00,9.00,0.00,29.97,M,6.21,M,SCT,BKN,M,M,2000.00,19000.00,M,M,M,YBBN 071330Z 36009KT 9999 SCT020 BKN190 23/18 Q1015
YBBN,2012-11-07 14:00,153.1292,-27.3917,71.60,64.40,78.04,10.00,11.00,0.00,29.97,M,6.21,M,SCT,SCT,M,M,2000.00,19000.00,M,M,M,YBBN 071400Z 01011KT 9999 SCT020 SCT190 22/18 Q1015
YBBN,2012-11-07 14:30,153.1292,-27.3917,71.60,64.40,78.04,10.00,11.00,0.00,29.94,M,6.21,M,SCT,SCT,M,M,1800.00,18500.00,M,M,M,YBBN 071430Z 01011KT 9999 SCT018 SCT185 22/18 Q1014
YBBN,2012-11-07 15:00,153.1292,-27.3917,71.60,64.40,78.04,20.00,10.00,0.00,29.94,M,6.21,M,SCT,SCT,M,M,2200.00,18500.00,M,M,M,YBBN 071500Z 02010KT 9999 SCT022 SCT185 22/18 Q1014
YBBN,2012-11-07 15:30,153.1292,-27.3917,71.60,66.20,83.09,20.00,10.00,0.00,29.94,M,6.21,M,SCT,SCT,M,M,2000.00,18500.00,M,M,M,YBBN 071530Z 02010KT 9999 SCT020 SCT185 22/19 Q1014
YBBN,2012-11-07 16:00,153.1292,-27.3917,71.60,66.20,83.09,20.00,10.00,0.00,29.94,M,6.21,M,SCT,SCT,M,M,2000.00,18500.00,M,M,M,YBBN 071600Z 02010KT 9999 SCT020 SCT185 22/19 Q1014 NOSIG
YBBN,2012-11-07 16:30,153.1292,-27.3917,69.80,64.40,82.98,10.00,8.00,0.00,29.94,M,6.21,M,SCT,SCT,M,M,2000.00,18000.00,M,M,M,YBBN 071630Z 01008KT 9999 SCT020 SCT180 21/18 Q1014
YBBN,2012-11-07 17:00,153.1292,-27.3917,69.80,64.40,82.98,350.00,7.00,0.00,29.94,M,6.21,M,FEW,SCT,M,M,2000.00,18000.00,M,M,M,YBBN 071700Z 35007KT 9999 FEW020 SCT180 21/18 Q1014
YBBN,2012-11-07 17:30,153.1292,-27.3917,68.00,64.40,88.26,320.00,4.00,0.00,29.94,M,6.21,M,FEW,M,M,M,1800.00,M,M,M,M,YBBN 071730Z 32004KT 9999 FEW018 20/18 Q1014
YBBN,2012-11-07 18:00,153.1292,-27.3917,68.00,64.40,88.26,330.00,2.00,0.00,29.94,M,6.21,M,FEW,M,M,M,2000.00,M,M,M,M,YBBN 071800Z 33002KT 9999 FEW020 20/18 Q1014
YBBN,2012-11-07 18:30,153.1292,-27.3917,66.20,64.40,93.92,290.00,3.00,0.00,29.94,M,6.21,M,FEW,M,M,M,1600.00,M,M,M,VCSH,YBBN 071830Z 29003KT 9999 VCSH FEW016 19/18 Q1014
YBBN,2012-11-07 19:00,153.1292,-27.3917,66.20,64.40,93.92,280.00,5.00,0.00,29.94,M,6.21,M,FEW,M,M,M,1500.00,M,M,M,VCSH,YBBN 071900Z 28005KT 9999 VCSH FEW015 19/18 Q1014 NOSIG
YBBN,2012-11-07 19:30,153.1292,-27.3917,68.00,64.40,88.26,270.00,5.00,0.00,29.97,M,6.21,M,FEW,M,M,M,1800.00,M,M,M,M,YBBN 071930Z 27005KT 9999 FEW018 20/18 Q1015
YBBN,2012-11-07 20:00,153.1292,-27.3917,68.00,64.40,88.26,270.00,3.00,0.00,29.97,M,6.21,M,FEW,M,M,M,2000.00,M,M,M,VCSH,YBBN 072000Z 27003KT 9999 VCSH FEW020 20/18 Q1015
YBBN,2012-11-07 20:30,153.1292,-27.3917,69.80,66.20,88.34,290.00,4.00,0.00,29.97,M,6.21,M,SCT,BKN,M,M,2000.00,5700.00,M,M,VCSH,YBBN 072030Z 29004KT 9999 VCSH SCT020 BKN057 21/19 Q1015
YBBN,2012-11-07 21:00,153.1292,-27.3917,71.60,66.20,83.09,40.00,4.00,0.00,29.97,M,6.21,M,FEW,BKN,BKN,M,1600.00,2000.00,5500.00,M,-SHRA,YBBN 072100Z 04004KT 9999 -SHRA FEW016 BKN020 BKN055 22/19 Q1015 NOSIG
YBBN,2012-11-07 21:30,153.1292,-27.3917,71.60,66.20,83.09,340.00,4.00,0.00,30.00,M,6.21,M,FEW,SCT,BKN,M,1500.00,2000.00,4500.00,M,-SHRA,YBBN 072130Z 34004KT 9999 -SHRA FEW015 SCT020 BKN045 22/19 Q1016
YBBN,2012-11-07 22:00,153.1292,-27.3917,73.40,66.20,78.19,360.00,5.00,0.00,30.00,M,6.21,M,FEW,SCT,BKN,M,1500.00,2000.00,4500.00,M,VCSH,YBBN 072200Z 36005KT 9999 VCSH FEW015 SCT020 BKN045 23/19 Q1016
YBBN,2012-11-07 22:30,153.1292,-27.3917,73.40,66.20,78.19,40.00,7.00,0.00,30.00,M,6.21,M,FEW,SCT,BKN,M,1500.00,2000.00,5000.00,M,VCSH,YBBN 072230Z 04007KT 9999 VCSH FEW015 SCT020 BKN050 23/19 Q1016
YBBN,2012-11-07 23:00,153.1292,-27.3917,73.40,68.00,83.21,40.00,9.00,0.00,30.00,M,6.21,M,FEW,BKN,BKN,M,1500.00,2000.00,4500.00,M,-SHRA,YBBN 072300Z 04009KT 9999 -SHRA FEW015 BKN020 BKN045 23/20 Q1016
YBBN,2012-11-07 23:30,153.1292,-27.3917,71.60,68.00,88.43,360.00,7.00,0.00,30.00,M,6.21,M,FEW,SCT,BKN,M,1800.00,2400.00,4500.00,M,VCSH,YBBN 072330Z 36007KT 9999 VCSH FEW018 SCT024 BKN045 22/20 Q1016
