#DEBUG: Format Typ    -> comma
#DEBUG: Time Period   -> 2010-10-04 00:00:00+00:00 2010-10-05 00:00:00+00:00
#DEBUG: Time Zone     -> Etc/UTC
#DEBUG: Data Contact   -> daryl herzmann akrherz@iastate.edu 515-294-5978
#DEBUG: Entries Found -> -1
station,valid,lon,lat,tmpf, dwpf, relh, drct, sknt, p01i, alti, mslp, vsby, gust, skyc1, skyc2, skyc3, skyc4, skyl1, skyl2, skyl3, skyl4, presentwx, metar
YBBN,2010-10-04 00:00,153.1292,-27.3917,75.20,62.60,64.91,220.00,7.00,M,30.03,M,6.21,M,FEW,M,M,M,2000.00,M,M,M,M,YBBN 040000Z 22007KT 9999 FEW020 24/17 Q1017 NOSIG
YBBN,2010-10-04 00:30,153.1292,-27.3917,75.20,62.60,64.91,230.00,6.00,M,30.03,M,6.21,M,FEW,M,M,M,2000.00,M,M,M,M,YBBN 040030Z 23006KT 9999 FEW020 24/17 Q1017 NOSIG
YBBN,2010-10-04 01:00,153.1292,-27.3917,77.00,62.60,61.13,230.00,7.00,M,30.00,M,6.21,M,SCT,M,M,M,2500.00,M,M,M,M,YBBN 040100Z 23007KT 9999 SCT025 25/17 Q1016 NOSIG
YBBN,2010-10-04 01:30,153.1292,-27.3917,77.00,64.40,65.12,50.00,9.00,M,30.00,M,6.21,M,SCT,M,M,M,3200.00,M,M,M,M,YBBN 040130Z 05009KT 9999 SCT032 25/18 Q1016 NOSIG
YBBN,2010-10-04 02:00,153.1292,-27.3917,77.00,66.20,69.33,40.00,7.00,M,30.00,M,6.21,M,SCT,M,M,M,3500.00,M,M,M,M,YBBN 040200Z 04007KT 9999 SCT035 25/19 Q1016 NOSIG
YBBN,2010-10-04 02:30,153.1292,-27.3917,77.00,66.20,69.33,40.00,11.00,M,29.97,M,6.21,M,SCT,M,M,M,3500.00,M,M,M,M,YBBN 040230Z 04011KT 9999 SCT035 25/19 Q1015 NOSIG
YBBN,2010-10-04 03:00,153.1292,-27.3917,77.00,66.20,69.33,50.00,10.00,M,29.97,M,6.21,M,SCT,M,M,M,3500.00,M,M,M,M,YBBN 040300Z 05010KT 9999 SCT035 25/19 Q1015 NOSIG
YBBN,2010-10-04 03:30,153.1292,-27.3917,77.00,66.20,69.33,50.00,9.00,M,29.94,M,6.21,M,SCT,M,M,M,3500.00,M,M,M,M,YBBN 040330Z 05009KT 9999 SCT035 25/19 Q1014 NOSIG
YBBN,2010-10-04 04:00,153.1292,-27.3917,77.00,64.40,65.12,50.00,10.00,M,29.94,M,6.21,M,SCT,M,M,M,3500.00,M,M,M,M,YBBN 040400Z 05010KT 9999 SCT035 25/18 Q1014 NOSIG
YBBN,2010-10-04 04:30,153.1292,-27.3917,77.00,66.20,69.33,40.00,10.00,M,29.94,M,6.21,M,SCT,M,M,M,3500.00,M,M,M,M,YBBN 040430Z 04010KT 9999 SCT035 25/19 Q1014 NOSIG
YBBN,2010-10-04 05:00,153.1292,-27.3917,77.00,66.20,69.33,30.00,11.00,M,29.94,M,6.21,M,FEW,FEW,M,M,3500.00,3500.00,M,M,M,YBBN 040500Z 03011KT 9999 FEW035 FEW035TCU 25/19 Q1014 NOSIG
YBBN,2010-10-04 05:30,153.1292,-27.3917,75.20,66.20,73.61,10.00,11.00,M,29.91,M,6.21,M,FEW,FEW,M,M,3500.00,3500.00,M,M,M,YBBN 040530Z 01011KT 9999 FEW035 FEW035TCU 24/19 Q1013 NOSIG
YBBN,2010-10-04 06:00,153.1292,-27.3917,73.40,66.20,78.19,10.00,12.00,M,29.91,M,6.21,M,FEW,FEW,M,M,3500.00,3500.00,M,M,M,YBBN 040600Z 01012KT 9999 FEW035 FEW035TCU 23/19 Q1013 NOSIG
YBBN,2010-10-04 06:30,153.1292,-27.3917,71.60,66.20,83.09,10.00,13.00,M,29.94,M,6.21,M,FEW,FEW,M,M,3500.00,3500.00,M,M,M,YBBN 040630Z 01013KT 9999 FEW035 FEW035TCU 22/19 Q1014 NOSIG
YBBN,2010-10-04 07:00,153.1292,-27.3917,71.60,66.20,83.09,20.00,11.00,M,29.94,M,6.21,M,FEW,M,M,M,2800.00,M,M,M,M,YBBN 040700Z 02011KT 9999 FEW028TCU 22/19 Q1014 NOSIG
YBBN,2010-10-04 07:30,153.1292,-27.3917,69.80,66.20,88.34,20.00,8.00,M,29.94,M,6.21,M,FEW,SCT,FEW,M,800.00,12000.00,2200.00,M,M,YBBN 040730Z 02008KT 9999 FEW008 SCT120 FEW022TCU 21/19 Q1014 NOSIG
YBBN,2010-10-04 08:00,153.1292,-27.3917,69.80,66.20,88.34,20.00,7.00,M,29.97,M,6.21,M,FEW,SCT,BKN,M,800.00,2000.00,12000.00,M,M,YBBN 040800Z 02007KT 9999 FEW008 SCT020TCU BKN120 21/19 Q1015 RMK SHRA TO SW NOSIG
YBBN,2010-10-04 08:30,153.1292,-27.3917,69.80,66.20,88.34,40.00,5.00,M,29.97,M,6.21,M,FEW,SCT,BKN,M,800.00,4800.00,5500.00,M,M,YBBN 040830Z 04005KT 9999 FEW008 SCT048 BKN055 21/19 Q1015 NOSIG
YBBN,2010-10-04 09:00,153.1292,-27.3917,71.60,66.20,83.09,150.00,4.00,M,29.97,M,6.21,M,FEW,SCT,BKN,M,800.00,4600.00,8600.00,M,M,YBBN 040900Z 15004KT 9999 FEW008 SCT046 BKN086 22/19 Q1015 NOSIG
YBBN,2010-10-04 09:30,153.1292,-27.3917,69.80,66.20,88.34,360.00,6.00,M,30.00,M,6.21,M,FEW,OVC,M,M,800.00,10000.00,M,M,M,YBBN 040930Z 36006KT 9999 FEW008 OVC100 21/19 Q1016 NOSIG
YBBN,2010-10-04 10:00,153.1292,-27.3917,69.80,66.20,88.34,360.00,5.00,M,30.00,M,6.21,M,FEW,BKN,M,M,2000.00,12000.00,M,M,M,YBBN 041000Z 36005KT 9999 FEW020 BKN120 21/19 Q1016 NOSIG
YBBN,2010-10-04 10:30,153.1292,-27.3917,69.80,66.20,88.34,350.00,6.00,M,30.00,M,6.21,M,FEW,BKN,M,M,2000.00,13000.00,M,M,M,YBBN 041030Z 35006KT 9999 FEW020 BKN130 21/19 Q1016 NOSIG
YBBN,2010-10-04 11:00,153.1292,-27.3917,69.80,66.20,88.34,310.00,4.00,M,30.00,M,6.21,M,FEW,BKN,M,M,4500.00,13000.00,M,M,M,YBBN 041100Z 31004KT 9999 FEW045 BKN130 21/19 Q1016 NOSIG
YBBN,2010-10-04 11:30,153.1292,-27.3917,68.00,66.20,93.97,250.00,4.00,M,30.00,M,6.21,M,FEW,BKN,M,M,4000.00,13000.00,M,M,M,YBBN 041130Z 25004KT 9999 FEW040 BKN130 20/19 Q1016 NOSIG
YBBN,2010-10-04 12:00,153.1292,-27.3917,69.80,66.20,88.34,230.00,4.00,M,30.00,M,6.21,M,FEW,BKN,M,M,4000.00,13000.00,M,M,M,YBBN 041200Z 23004KT 9999 FEW040 BKN130 21/19 Q1016 NOSIG
YBBN,2010-10-04 12:30,153.1292,-27.3917,68.00,66.20,93.97,200.00,5.00,M,30.00,M,6.21,M,FEW,SCT,M,M,4000.00,13000.00,M,M,M,YBBN 041230Z 20005KT 9999 FEW040 SCT130 20/19 Q1016 NOSIG
YBBN,2010-10-04 13:00,153.1292,-27.3917,66.20,66.20,100.00,210.00,5.00,M,30.00,M,6.21,M,FEW,SCT,M,M,4000.00,13000.00,M,M,M,YBBN 041300Z 21005KT 9999 FEW040 SCT130 19/19 Q1016 NOSIG
YBBN,2010-10-04 13:30,153.1292,-27.3917,68.00,64.40,88.26,230.00,4.00,M,30.00,M,6.21,M,M,M,M,M,M,M,M,M,M,YBBN 041330Z 23004KT CAVOK 20/18 Q1016 NOSIG
YBBN,2010-10-04 14:00,153.1292,-27.3917,68.00,64.40,88.26,330.00,5.00,M,30.00,M,6.21,M,M,M,M,M,M,M,M,M,M,YBBN 041400Z 33005KT CAVOK 20/18 Q1016 RMK 7AC130 NOSIG
YBBN,2010-10-04 14:30,153.1292,-27.3917,68.00,64.40,88.26,320.00,1.00,M,30.00,M,6.21,M,M,M,M,M,M,M,M,M,M,YBBN 041430Z 32001KT CAVOK 20/18 Q1016 RMK 7AC130 NOSIG
YBBN,2010-10-04 15:00,153.1292,-27.3917,66.20,64.40,93.92,0.00,0.00,M,29.97,M,6.21,M,M,M,M,M,M,M,M,M,M,YBBN 041500Z 00000KT CAVOK 19/18 Q1015 NOSIG
YBBN,2010-10-04 15:30,153.1292,-27.3917,66.20,64.40,93.92,0.00,0.00,M,29.97,M,6.21,M,M,M,M,M,M,M,M,M,M,YBBN 041530Z 00000KT CAVOK 19/18 Q1015 NOSIG
YBBN,2010-10-04 16:00,153.1292,-27.3917,64.40,64.40,100.00,0.00,0.00,M,29.97,M,6.21,M,M,M,M,M,M,M,M,M,M,YBBN 041600Z 00000KT CAVOK 18/18 Q1015 NOSIG
YBBN,2010-10-04 16:30,153.1292,-27.3917,64.40,62.60,93.88,330.00,1.00,M,29.94,M,6.21,M,M,M,M,M,M,M,M,M,M,YBBN 041630Z 33001KT CAVOK 18/17 Q1014 NOSIG
YBBN,2010-10-04 17:00,153.1292,-27.3917,64.40,62.60,93.88,230.00,2.00,M,29.94,M,6.21,M,M,M,M,M,M,M,M,M,M,YBBN 041700Z 23002KT CAVOK 18/17 Q1014 NOSIG
YBBN,2010-10-04 17:30,153.1292,-27.3917,62.60,60.80,93.83,240.00,5.00,M,29.94,M,6.21,M,M,M,M,M,M,M,M,M,M,YBBN 041730Z 24005KT CAVOK 17/16 Q1014 NOSIG
YBBN,2010-10-04 18:00,153.1292,-27.3917,62.60,62.60,100.00,240.00,6.00,M,29.94,M,6.21,M,M,M,M,M,M,M,M,M,M,YBBN 041800Z 24006KT CAVOK 17/17 Q1014 NOSIG
YBBN,2010-10-04 18:30,153.1292,-27.3917,62.60,60.80,93.83,240.00,4.00,M,29.97,M,6.21,M,M,M,M,M,M,M,M,M,M,YBBN 041830Z 24004KT CAVOK 17/16 Q1015 NOSIG
YBBN,2010-10-04 19:00,153.1292,-27.3917,62.60,62.60,100.00,220.00,4.00,M,29.97,M,6.21,M,M,M,M,M,M,M,M,M,M,YBBN 041900Z 22004KT CAVOK 17/17 Q1015 NOSIG
YBBN,2010-10-04 19:30,153.1292,-27.3917,62.60,60.80,93.83,210.00,6.00,M,29.97,M,6.21,M,M,M,M,M,M,M,M,M,M,YBBN 041930Z 21006KT CAVOK 17/16 Q1015 NOSIG
YBBN,2010-10-04 20:00,153.1292,-27.3917,64.40,62.60,93.88,210.00,7.00,M,29.97,M,6.21,M,M,M,M,M,M,M,M,M,M,YBBN 042000Z 21007KT CAVOK 18/17 Q1015 NOSIG
YBBN,2010-10-04 20:30,153.1292,-27.3917,66.20,62.60,88.18,220.00,9.00,M,30.00,M,6.21,M,M,M,M,M,M,M,M,M,M,YBBN 042030Z 22009KT CAVOK 19/17 Q1016 NOSIG
YBBN,2010-10-04 21:00,153.1292,-27.3917,68.00,62.60,82.86,230.00,8.00,M,30.00,M,6.21,M,FEW,M,M,M,1200.00,M,M,M,M,YBBN 042100Z 23008KT 9999 FEW012 20/17 Q1016 NOSIG
YBBN,2010-10-04 21:30,153.1292,-27.3917,68.00,64.40,88.26,210.00,7.00,M,30.00,M,6.21,M,FEW,M,M,M,1800.00,M,M,M,M,YBBN 042130Z 21007KT 9999 FEW018 20/18 Q1016 NOSIG
YBBN,2010-10-04 22:00,153.1292,-27.3917,71.60,60.80,68.75,240.00,7.00,M,30.00,M,6.21,M,FEW,M,M,M,2000.00,M,M,M,M,YBBN 042200Z 24007KT 9999 FEW020 22/16 Q1016 NOSIG
YBBN,2010-10-04 22:30,153.1292,-27.3917,73.40,60.80,64.69,230.00,10.00,M,30.03,M,6.21,M,FEW,M,M,M,2000.00,M,M,M,M,YBBN 042230Z 23010KT 9999 FEW020 23/16 Q1017 NOSIG
YBBN,2010-10-04 23:00,153.1292,-27.3917,73.40,60.80,64.69,210.00,10.00,M,30.03,M,6.21,M,FEW,M,M,M,2500.00,M,M,M,M,YBBN 042300Z 21010KT 9999 FEW025 23/16 Q1017 NOSIG
YBBN,2010-10-04 23:30,153.1292,-27.3917,75.20,60.80,60.90,220.00,11.00,M,30.03,M,6.21,M,FEW,M,M,M,2800.00,M,M,M,M,YBBN 042330Z 22011KT 9999 FEW028 24/16 Q1017 NOSIG
