#DEBUG: Format Typ    -> comma
#DEBUG: Time Period   -> 2012-02-06 00:00:00+00:00 2012-02-07 00:00:00+00:00
#DEBUG: Time Zone     -> Etc/UTC
#DEBUG: Data Contact   -> daryl herzmann akrherz@iastate.edu 515-294-5978
#DEBUG: Entries Found -> -1
station,valid,lon,lat,tmpf, dwpf, relh, drct, sknt, p01i, alti, mslp, vsby, gust, skyc1, skyc2, skyc3, skyc4, skyl1, skyl2, skyl3, skyl4, presentwx, metar
YBBN,2012-02-06 00:00,153.1292,-27.3917,82.40,71.60,69.90,10.00,7.00,0.00,29.53,M,6.21,M,FEW,M,M,M,2500.00,M,M,M,M,YBBN 060000Z 01007KT 9999 FEW025 28/22 Q1000
YBBN,2012-02-06 00:30,153.1292,-27.3917,84.20,71.60,65.95,20.00,6.00,0.00,29.53,M,6.21,M,FEW,M,M,M,2500.00,M,M,M,M,YBBN 060030Z 02006KT 9999 FEW025 29/22 Q1000
YBBN,2012-02-06 01:00,153.1292,-27.3917,84.20,71.60,65.95,30.00,8.00,0.00,29.53,M,6.21,M,FEW,M,M,M,2500.00,M,M,M,M,YBBN 060100Z 03008KT 9999 FEW025 29/22 Q1000 NOSIG
YBBN,2012-02-06 01:30,153.1292,-27.3917,84.20,71.60,65.95,40.00,8.00,0.00,29.53,M,6.21,M,FEW,M,M,M,2500.00,M,M,M,M,YBBN 060130Z 04008KT 9999 FEW025 29/22 Q1000
YBBN,2012-02-06 02:00,153.1292,-27.3917,84.20,73.40,70.08,30.00,9.00,0.00,29.50,M,6.21,M,FEW,M,M,M,2500.00,M,M,M,M,YBBN 060200Z 03009KT 9999 FEW025 29/23 Q0999
YBBN,2012-02-06 02:30,153.1292,-27.3917,86.00,73.40,66.15,30.00,9.00,0.00,29.50,M,6.21,M,FEW,M,M,M,2500.00,M,M,M,M,YBBN 060230Z 03009KT 9999 FEW025 30/23 Q0999
YBBN,2012-02-06 03:00,153.1292,-27.3917,86.00,73.40,66.15,50.00,11.00,0.00,29.50,M,6.21,M,FEW,M,M,M,2500.00,M,M,M,M,YBBN 060300Z 05011KT 9999 FEW025 30/23 Q0999
YBBN,2012-02-06 03:30,153.1292,-27.3917,84.20,73.40,70.08,60.00,10.00,0.00,29.50,M,6.21,M,FEW,M,M,M,2500.00,M,M,M,M,YBBN 060330Z 06010KT 9999 FEW025 29/23 Q0999
YBBN,2012-02-06 04:00,153.1292,-27.3917,84.20,71.60,65.95,50.00,11.00,0.00,29.50,M,6.21,M,FEW,SCT,M,M,2500.00,9400.00,M,M,M,YBBN 060400Z 05011KT 9999 FEW025 SCT094 29/22 Q0999
YBBN,2012-02-06 04:30,153.1292,-27.3917,84.20,71.60,65.95,70.00,10.00,0.00,29.50,M,6.21,M,FEW,BKN,M,M,2500.00,9000.00,M,M,M,YBBN 060430Z 07010KT 9999 FEW025 BKN090 29/22 Q0999
YBBN,2012-02-06 05:00,153.1292,-27.3917,84.20,71.60,65.95,70.00,10.00,0.00,29.50,M,6.21,M,FEW,BKN,M,M,2500.00,9000.00,M,M,M,YBBN 060500Z 07010KT 9999 FEW025 BKN090 29/22 Q0999
YBBN,2012-02-06 05:30,153.1292,-27.3917,84.20,71.60,65.95,70.00,11.00,0.00,29.50,M,6.21,M,FEW,SCT,M,M,2500.00,9000.00,M,M,M,YBBN 060530Z 07011KT 9999 FEW025 SCT090 29/22 Q0999
YBBN,2012-02-06 06:00,153.1292,-27.3917,84.20,71.60,65.95,60.00,10.00,0.00,29.50,M,6.21,M,FEW,SCT,M,M,2500.00,9000.00,M,M,M,YBBN 060600Z 06010KT 9999 FEW025 SCT090 29/22 Q0999 NOSIG
YBBN,2012-02-06 06:30,153.1292,-27.3917,82.40,71.60,69.90,50.00,10.00,0.00,29.50,M,6.21,M,FEW,M,M,M,2500.00,M,M,M,M,YBBN 060630Z 05010KT 9999 FEW025 28/22 Q0999
YBBN,2012-02-06 07:00,153.1292,-27.3917,82.40,71.60,69.90,50.00,9.00,0.00,29.50,M,6.21,M,FEW,M,M,M,2500.00,M,M,M,M,YBBN 060700Z 05009KT 9999 FEW025 28/22 Q0999
YBBN,2012-02-06 07:30,153.1292,-27.3917,80.60,71.60,74.11,50.00,9.00,0.00,29.50,M,6.21,M,FEW,M,M,M,2500.00,M,M,M,M,YBBN 060730Z 05009KT 9999 FEW025 27/22 Q0999
YBBN,2012-02-06 08:00,153.1292,-27.3917,80.60,71.60,74.11,40.00,8.00,0.00,29.53,M,6.21,M,FEW,M,M,M,2500.00,M,M,M,M,YBBN 060800Z 04008KT 9999 FEW025 27/22 Q1000 NOSIG
YBBN,2012-02-06 08:30,153.1292,-27.3917,78.80,73.40,83.55,50.00,5.00,0.00,29.53,M,6.21,M,FEW,M,M,M,2000.00,M,M,M,M,YBBN 060830Z 05005KT 9999 FEW020 26/23 Q1000
YBBN,2012-02-06 09:00,153.1292,-27.3917,77.00,71.60,83.44,20.00,7.00,0.00,29.53,M,6.21,M,FEW,M,M,M,2000.00,M,M,M,M,YBBN 060900Z 02007KT 9999 FEW020 25/22 Q1000 NOSIG
YBBN,2012-02-06 09:30,153.1292,-27.3917,77.00,71.60,83.44,10.00,6.00,0.00,29.56,M,6.21,M,FEW,M,M,M,2000.00,M,M,M,M,YBBN 060930Z 01006KT 9999 FEW020 25/22 Q1001
YBBN,2012-02-06 10:00,153.1292,-27.3917,77.00,71.60,83.44,10.00,6.00,0.00,29.56,M,6.21,M,FEW,M,M,M,2500.00,M,M,M,M,YBBN 061000Z 01006KT 9999 FEW025 25/22 Q1001 NOSIG
YBBN,2012-02-06 10:30,153.1292,-27.3917,75.20,71.60,88.59,10.00,6.00,0.00,29.59,M,6.21,M,FEW,M,M,M,2500.00,M,M,M,M,YBBN 061030Z 01006KT 9999 FEW025 24/22 Q1002
YBBN,2012-02-06 11:00,153.1292,-27.3917,75.20,71.60,88.59,30.00,5.00,0.00,29.59,M,6.21,M,M,M,M,M,M,M,M,M,M,YBBN 061100Z 03005KT CAVOK 24/22 Q1002
YBBN,2012-02-06 11:30,153.1292,-27.3917,75.20,71.60,88.59,30.00,4.00,0.00,29.59,M,6.21,M,M,M,M,M,M,M,M,M,M,YBBN 061130Z 03004KT CAVOK 24/22 Q1002
YBBN,2012-02-06 12:00,153.1292,-27.3917,75.20,73.40,94.14,30.00,4.00,0.00,29.59,M,6.21,M,M,M,M,M,M,M,M,M,M,YBBN 061200Z 03004KT CAVOK 24/23 Q1002
YBBN,2012-02-06 12:30,153.1292,-27.3917,75.20,73.40,94.14,30.00,3.00,0.00,29.59,M,6.21,M,M,M,M,M,M,M,M,M,M,YBBN 061230Z 03003KT CAVOK 24/23 Q1002
YBBN,2012-02-06 13:00,153.1292,-27.3917,75.20,73.40,94.14,30.00,4.00,0.00,29.59,M,6.21,M,FEW,M,M,M,800.00,M,M,M,M,YBBN 061300Z 03004KT 9999 FEW008 24/23 Q1002
YBBN,2012-02-06 13:30,153.1292,-27.3917,75.20,71.60,88.59,30.00,3.00,0.00,29.59,M,6.21,M,FEW,M,M,M,1100.00,M,M,M,M,YBBN 061330Z 03003KT 9999 FEW011 24/22 Q1002
YBBN,2012-02-06 14:00,153.1292,-27.3917,77.00,73.40,88.67,0.00,0.00,0.00,29.62,M,6.21,M,FEW,SCT,M,M,1600.00,2500.00,M,M,M,YBBN 061400Z 00000KT 9999 FEW016 SCT025 25/23 Q1003 NOSIG
YBBN,2012-02-06 14:30,153.1292,-27.3917,77.00,69.80,78.48,70.00,5.00,0.00,29.59,M,6.21,M,SCT,BKN,M,M,1600.00,3800.00,M,M,M,YBBN 061430Z 07005KT 9999 SCT016 BKN038 25/21 Q1002
YBBN,2012-02-06 15:00,153.1292,-27.3917,77.00,71.60,83.44,140.00,4.00,0.00,29.59,M,6.21,M,FEW,BKN,M,M,1600.00,12000.00,M,M,M,YBBN 061500Z 14004KT 9999 FEW016 BKN120 25/22 Q1002 NOSIG
YBBN,2012-02-06 15:30,153.1292,-27.3917,77.00,73.40,88.67,170.00,5.00,0.00,29.59,M,6.21,M,FEW,BKN,M,M,1600.00,2300.00,M,M,M,YBBN 061530Z 17005KT 9999 FEW016 BKN023 25/23 Q1002
YBBN,2012-02-06 16:00,153.1292,-27.3917,75.20,71.60,88.59,170.00,5.00,0.00,29.59,M,6.21,M,FEW,BKN,M,M,1600.00,4100.00,M,M,M,YBBN 061600Z 17005KT 9999 FEW016 BKN041 24/22 Q1002
YBBN,2012-02-06 16:30,153.1292,-27.3917,75.20,73.40,94.14,170.00,5.00,0.00,29.59,M,6.21,M,FEW,BKN,M,M,1600.00,11000.00,M,M,M,YBBN 061630Z 17005KT 9999 FEW016 BKN110 24/23 Q1002
YBBN,2012-02-06 17:00,153.1292,-27.3917,75.20,71.60,88.59,190.00,5.00,0.00,29.62,M,6.21,M,FEW,BKN,M,M,1600.00,3700.00,M,M,M,YBBN 061700Z 19005KT 9999 FEW016 BKN037 24/22 Q1003
YBBN,2012-02-06 17:30,153.1292,-27.3917,75.20,71.60,88.59,160.00,5.00,0.00,29.62,M,6.21,M,FEW,BKN,M,M,1800.00,4200.00,M,M,M,YBBN 061730Z 16005KT 9999 FEW018 BKN042 24/22 Q1003
YBBN,2012-02-06 18:00,153.1292,-27.3917,75.20,71.60,88.59,170.00,6.00,0.00,29.62,M,6.21,M,FEW,BKN,M,M,1400.00,3300.00,M,M,M,YBBN 061800Z 17006KT 9999 FEW014 BKN033 24/22 Q1003 NOSIG
YBBN,2012-02-06 18:30,153.1292,-27.3917,75.20,71.60,88.59,170.00,5.00,0.00,29.62,M,6.21,M,FEW,M,M,M,1600.00,M,M,M,M,YBBN 061830Z 17005KT 9999 FEW016 24/22 Q1003
YBBN,2012-02-06 19:00,153.1292,-27.3917,75.20,69.80,83.32,110.00,4.00,0.00,29.62,M,6.21,M,SCT,M,M,M,3500.00,M,M,M,M,YBBN 061900Z 11004KT 9999 SCT035 24/21 Q1003
YBBN,2012-02-06 19:30,153.1292,-27.3917,75.20,69.80,83.32,130.00,5.00,0.00,29.62,M,6.21,M,M,M,M,M,M,M,M,M,M,YBBN 061930Z 13005KT CAVOK 24/21 Q1003
YBBN,2012-02-06 20:00,153.1292,-27.3917,75.20,69.80,83.32,170.00,4.00,0.00,29.62,M,6.21,M,FEW,SCT,M,M,2000.00,11000.00,M,M,M,YBBN 062000Z 17004KT 9999 FEW020 SCT110 24/21 Q1003
YBBN,2012-02-06 20:30,153.1292,-27.3917,77.00,69.80,78.48,190.00,6.00,0.00,29.65,M,6.21,M,FEW,M,M,M,2000.00,M,M,M,M,YBBN 062030Z 19006KT 9999 FEW020 25/21 Q1004
YBBN,2012-02-06 21:00,153.1292,-27.3917,77.00,71.60,83.44,170.00,6.00,0.00,29.65,M,6.21,M,FEW,M,M,M,2000.00,M,M,M,M,YBBN 062100Z 17006KT 9999 FEW020 25/22 Q1004 NOSIG
YBBN,2012-02-06 21:30,153.1292,-27.3917,78.80,71.60,78.62,140.00,7.00,0.00,29.65,M,6.21,M,FEW,M,M,M,2000.00,M,M,M,M,YBBN 062130Z 14007KT 9999 FEW020 26/22 Q1004
YBBN,2012-02-06 22:00,153.1292,-27.3917,78.80,69.80,73.95,130.00,6.00,0.00,29.65,M,6.21,M,FEW,M,M,M,2000.00,M,M,M,M,YBBN 062200Z 13006KT 9999 FEW020 26/21 Q1004
YBBN,2012-02-06 22:30,153.1292,-27.3917,78.80,69.80,73.95,100.00,9.00,0.00,29.65,M,6.21,M,FEW,M,M,M,2000.00,M,M,M,M,YBBN 062230Z 10009KT 9999 FEW020 26/21 Q1004
YBBN,2012-02-06 23:00,153.1292,-27.3917,80.60,69.80,69.71,90.00,8.00,0.00,29.68,M,6.21,M,FEW,SCT,M,M,2200.00,10000.00,M,M,M,YBBN 062300Z 09008KT 9999 FEW022 SCT100 27/21 Q1005 NOSIG
YBBN,2012-02-06 23:30,153.1292,-27.3917,80.60,69.80,69.71,90.00,8.00,0.00,29.68,M,6.21,M,FEW,SCT,M,M,2400.00,10000.00,M,M,M,YBBN 062330Z 09008KT 9999 FEW024 SCT100 27/21 Q1005
