#DEBUG: Format Typ    -> comma
#DEBUG: Time Period   -> 2016-12-17 00:00:00+00:00 2016-12-18 00:00:00+00:00
#DEBUG: Time Zone     -> Etc/UTC
#DEBUG: Data Contact   -> daryl herzmann akrherz@iastate.edu 515-294-5978
#DEBUG: Entries Found -> -1
station,valid,lon,lat,tmpf, dwpf, relh, drct, sknt, p01i, alti, mslp, vsby, gust, skyc1, skyc2, skyc3, skyc4, skyl1, skyl2, skyl3, skyl4, presentwx, metar
YBBN,2016-12-17 00:00,153.1292,-27.3917,80.60,68.00,65.54,50.00,13.00,0.00,29.88,M,6.21,M,FEW,M,M,M,3000.00,M,M,M,M,YBBN 170000Z 05013KT 9999 FEW030 27/20 Q1012
YBBN,2016-12-17 00:30,153.1292,-27.3917,80.60,68.00,65.54,40.00,15.00,0.00,29.88,M,6.21,M,FEW,M,M,M,3000.00,M,M,M,M,YBBN 170030Z 04015KT 9999 FEW030 27/20 Q1012 NOSIG
YBBN,2016-12-17 01:00,153.1292,-27.3917,82.40,68.00,61.81,30.00,15.00,0.00,29.88,M,6.21,M,FEW,M,M,M,3000.00,M,M,M,M,YBBN 170100Z 03015KT 9999 FEW030 28/20 Q1012 NOSIG
YBBN,2016-12-17 01:30,153.1292,-27.3917,80.60,68.00,65.54,30.00,16.00,0.00,29.85,M,6.21,M,FEW,M,M,M,3000.00,M,M,M,M,YBBN 170130Z 03016KT 9999 FEW030 27/20 Q1011 NOSIG
YBBN,2016-12-17 02:00,153.1292,-27.3917,80.60,68.00,65.54,30.00,16.00,0.00,29.85,M,6.21,M,FEW,M,M,M,3000.00,M,M,M,M,YBBN 170200Z 03016KT 9999 FEW030 27/20 Q1011 NOSIG
YBBN,2016-12-17 02:30,153.1292,-27.3917,82.40,68.00,61.81,30.00,19.00,0.00,29.85,M,6.21,M,FEW,M,M,M,3000.00,M,M,M,M,YBBN 170230Z 03019KT 9999 FEW030 28/20 Q1011 NOSIG
YBBN,2016-12-17 03:00,153.1292,-27.3917,82.40,69.80,65.74,20.00,18.00,0.00,29.83,M,6.21,M,FEW,SCT,M,M,3000.00,14000.00,M,M,M,YBBN 170300Z 02018KT 9999 FEW030 SCT140 28/21 Q1010
YBBN,2016-12-17 03:30,153.1292,-27.3917,82.40,68.00,61.81,20.00,19.00,0.00,29.83,M,6.21,M,FEW,M,M,M,3000.00,M,M,M,M,YBBN 170330Z 02019KT 9999 FEW030 28/20 Q1010 NOSIG
YBBN,2016-12-17 04:00,153.1292,-27.3917,80.60,69.80,69.71,20.00,19.00,0.00,29.80,M,6.21,M,FEW,M,M,M,3000.00,M,M,M,M,YBBN 170400Z 02019KT 9999 FEW030 27/21 Q1009
YBBN,2016-12-17 04:30,153.1292,-27.3917,82.40,69.80,65.74,20.00,19.00,0.00,29.80,M,6.21,M,FEW,SCT,M,M,3000.00,13000.00,M,M,M,YBBN 170430Z 02019KT 9999 FEW030 SCT130 28/21 Q1009 NOSIG
YBBN,2016-12-17 05:00,153.1292,-27.3917,80.60,69.80,69.71,20.00,18.00,0.00,29.80,M,6.21,M,FEW,SCT,M,M,3000.00,13000.00,M,M,M,YBBN 170500Z 02018KT 9999 FEW030 SCT130 27/21 Q1009 NOSIG
YBBN,2016-12-17 05:30,153.1292,-27.3917,80.60,68.00,65.54,20.00,18.00,0.00,29.80,M,6.21,M,FEW,M,M,M,3000.00,M,M,M,M,YBBN 170530Z 02018KT 9999 FEW030 27/20 Q1009 NOSIG
YBBN,2016-12-17 06:00,153.1292,-27.3917,80.60,69.80,69.71,20.00,17.00,0.00,29.80,M,6.21,M,FEW,M,M,M,3000.00,M,M,M,M,YBBN 170600Z 02017KT 9999 FEW030 27/21 Q1009
YBBN,2016-12-17 06:30,153.1292,-27.3917,78.80,69.80,73.95,20.00,18.00,0.00,29.80,M,6.21,M,FEW,M,M,M,3000.00,M,M,M,M,YBBN 170630Z 02018KT 9999 FEW030 26/21 Q1009 NOSIG
YBBN,2016-12-17 07:00,153.1292,-27.3917,78.80,69.80,73.95,20.00,17.00,0.00,29.80,M,6.21,M,M,M,M,M,M,M,M,M,M,YBBN 170700Z 02017KT CAVOK 26/21 Q1009
YBBN,2016-12-17 07:30,153.1292,-27.3917,77.00,69.80,78.48,10.00,18.00,0.00,29.80,M,6.21,M,FEW,M,M,M,1000.00,M,M,M,M,YBBN 170730Z 01018KT 9999 FEW010 25/21 Q1009 NOSIG
YBBN,2016-12-17 08:00,153.1292,-27.3917,77.00,69.80,78.48,10.00,17.00,0.00,29.83,M,6.21,M,SCT,M,M,M,1600.00,M,M,M,M,YBBN 170800Z 01017KT 9999 SCT016 25/21 Q1010
YBBN,2016-12-17 08:30,153.1292,-27.3917,77.00,69.80,78.48,10.00,19.00,0.00,29.83,M,6.21,M,FEW,M,M,M,1600.00,M,M,M,M,YBBN 170830Z 01019KT 9999 FEW016 25/21 Q1010 NOSIG
YBBN,2016-12-17 09:00,153.1292,-27.3917,77.00,69.80,78.48,10.00,17.00,0.00,29.83,M,6.21,M,FEW,M,M,M,1600.00,M,M,M,M,YBBN 170900Z 01017KT 9999 FEW016 25/21 Q1010
YBBN,2016-12-17 09:30,153.1292,-27.3917,77.00,69.80,78.48,10.00,18.00,0.00,29.83,M,6.21,M,FEW,M,M,M,1600.00,M,M,M,M,YBBN 170930Z 01018KT 9999 FEW016 25/21 Q1010 NOSIG
YBBN,2016-12-17 10:00,153.1292,-27.3917,77.00,69.80,78.48,10.00,17.00,0.00,29.85,M,6.21,M,FEW,M,M,M,1800.00,M,M,M,M,YBBN 171000Z 01017KT 9999 FEW018 25/21 Q1011
YBBN,2016-12-17 10:30,153.1292,-27.3917,77.00,69.80,78.48,10.00,15.00,0.00,29.85,M,6.21,M,FEW,M,M,M,1800.00,M,M,M,M,YBBN 171030Z 01015KT 9999 FEW018 25/21 Q1011 NOSIG
YBBN,2016-12-17 11:00,153.1292,-27.3917,77.00,69.80,78.48,10.00,15.00,0.00,29.88,M,6.21,M,FEW,BKN,M,M,1800.00,13000.00,M,M,VCSH,YBBN 171100Z 01015KT 9999 VCSH FEW018 BKN130 25/21 Q1012
YBBN,2016-12-17 13:00,153.1292,-27.3917,77.00,68.00,73.78,360.00,16.00,0.00,29.88,M,6.21,M,FEW,BKN,M,M,1800.00,14000.00,M,M,M,YBBN 171300Z 36016KT 9999 FEW018 BKN140 25/20 Q1012
YBBN,2016-12-17 14:00,153.1292,-27.3917,77.00,68.00,73.78,360.00,16.00,0.00,29.85,M,6.21,M,FEW,BKN,M,M,1800.00,13000.00,M,M,M,YBBN 171400Z 36016KT 9999 FEW018 BKN130 25/20 Q1011
YBBN,2016-12-17 15:00,153.1292,-27.3917,77.00,68.00,73.78,360.00,15.00,0.00,29.83,M,6.21,M,FEW,BKN,M,M,1800.00,13000.00,M,M,M,YBBN 171500Z 36015KT 9999 FEW018 BKN130 25/20 Q1010
YBBN,2016-12-17 16:00,153.1292,-27.3917,77.00,69.80,78.48,360.00,15.00,0.00,29.83,M,6.21,M,FEW,BKN,M,M,1800.00,12000.00,M,M,M,YBBN 171600Z 36015KT 9999 FEW018 BKN120 25/21 Q1010
YBBN,2016-12-17 16:30,153.1292,-27.3917,75.20,69.80,83.32,360.00,13.00,0.00,29.83,M,6.21,M,FEW,BKN,M,M,1800.00,12000.00,M,M,M,YBBN 171630Z 36013KT 9999 FEW018 BKN120 24/21 Q1010 NOSIG
YBBN,2016-12-17 17:00,153.1292,-27.3917,75.20,68.00,78.34,360.00,13.00,0.00,29.83,M,6.21,M,FEW,BKN,M,M,1800.00,11500.00,M,M,M,YBBN 171700Z 36013KT 9999 FEW018 BKN115 24/20 Q1010
YBBN,2016-12-17 17:30,153.1292,-27.3917,75.20,69.80,83.32,350.00,12.00,0.00,29.83,M,6.21,M,M,M,M,M,M,M,M,M,M,YBBN 171730Z 35012KT CAVOK 24/21 Q1010 NOSIG
YBBN,2016-12-17 18:00,153.1292,-27.3917,75.20,68.00,78.34,360.00,12.00,0.00,29.83,M,6.21,M,M,M,M,M,M,M,M,M,M,YBBN 171800Z 36012KT CAVOK 24/20 Q1010
YBBN,2016-12-17 18:30,153.1292,-27.3917,75.20,69.80,83.32,360.00,9.00,0.00,29.85,M,6.21,M,FEW,BKN,M,M,2000.00,12000.00,M,M,M,YBBN 171830Z 36009KT 9999 FEW020 BKN120 24/21 Q1011 NOSIG
YBBN,2016-12-17 19:00,153.1292,-27.3917,75.20,69.80,83.32,350.00,9.00,0.00,29.85,M,6.21,M,FEW,BKN,M,M,2000.00,12000.00,M,M,M,YBBN 171900Z 35009KT 9999 FEW020 BKN120 24/21 Q1011
YBBN,2016-12-17 19:30,153.1292,-27.3917,75.20,69.80,83.32,350.00,8.00,0.00,29.85,M,6.21,M,FEW,SCT,M,M,2000.00,12000.00,M,M,M,YBBN 171930Z 35008KT 9999 FEW020 SCT120 24/21 Q1011 NOSIG
YBBN,2016-12-17 20:00,153.1292,-27.3917,75.20,69.80,83.32,350.00,9.00,0.00,29.88,M,6.21,M,FEW,BKN,M,M,2000.00,15000.00,M,M,M,YBBN 172000Z 35009KT 9999 FEW020 BKN150 24/21 Q1012
YBBN,2016-12-17 20:30,153.1292,-27.3917,77.00,69.80,78.48,350.00,9.00,0.00,29.88,M,6.21,M,FEW,SCT,M,M,2000.00,10000.00,M,M,M,YBBN 172030Z 35009KT 9999 FEW020 SCT100 25/21 Q1012 NOSIG
YBBN,2016-12-17 21:00,153.1292,-27.3917,78.80,69.80,73.95,350.00,8.00,0.00,29.88,M,6.21,M,FEW,SCT,BKN,M,2000.00,7500.00,12000.00,M,M,YBBN 172100Z 35008KT 9999 FEW020 SCT075 BKN120 26/21 Q1012
YBBN,2016-12-17 21:30,153.1292,-27.3917,78.80,69.80,73.95,350.00,8.00,0.00,29.91,M,6.21,M,FEW,SCT,BKN,M,2000.00,8000.00,11000.00,M,M,YBBN 172130Z 35008KT 9999 FEW020 SCT080 BKN110 26/21 Q1013 NOSIG
YBBN,2016-12-17 22:00,153.1292,-27.3917,78.80,69.80,73.95,350.00,7.00,0.00,29.91,M,6.21,M,FEW,SCT,BKN,M,2000.00,8000.00,11000.00,M,M,YBBN 172200Z 35007KT 9999 FEW020 SCT080 BKN110 26/21 Q1013
YBBN,2016-12-17 22:30,153.1292,-27.3917,80.60,68.00,65.54,10.00,8.00,0.00,29.91,M,6.21,M,FEW,SCT,BKN,M,2500.00,7000.00,11000.00,M,M,YBBN 172230Z 01008KT 9999 FEW025 SCT070 BKN110 27/20 Q1013
YBBN,2016-12-17 23:00,153.1292,-27.3917,80.60,69.80,69.71,360.00,8.00,0.00,29.91,M,6.21,M,FEW,SCT,BKN,M,2400.00,7000.00,11000.00,M,M,YBBN 172300Z 36008KT 9999 FEW024 SCT070 BKN110 27/21 Q1013
YBBN,2016-12-17 23:30,153.1292,-27.3917,82.40,69.80,65.74,20.00,8.00,0.00,29.91,M,6.21,M,FEW,SCT,BKN,M,3000.00,7000.00,11000.00,M,VCSH,YBBN 172330Z 02008KT 9999 VCSH FEW030 SCT070 BKN110 28/21 Q1013
