#DEBUG: Format Typ    -> comma
#DEBUG: Time Period   -> 2015-02-09 00:00:00+00:00 2015-02-10 00:00:00+00:00
#DEBUG: Time Zone     -> Etc/UTC
#DEBUG: Data Contact   -> daryl herzmann akrherz@iastate.edu 515-294-5978
#DEBUG: Entries Found -> -1
station,valid,lon,lat,tmpf, dwpf, relh, drct, sknt, p01i, alti, mslp, vsby, gust, skyc1, skyc2, skyc3, skyc4, skyl1, skyl2, skyl3, skyl4, presentwx, metar
YBBN,2015-02-09 00:00,153.1292,-27.3917,82.40,64.40,54.55,110.00,8.00,0.00,30.09,M,6.21,M,SCT,M,M,M,3800.00,M,M,M,M,YBBN 090000Z 11008KT 9999 SCT038 28/18 Q1019 NOSIG
YBBN,2015-02-09 00:30,153.1292,-27.3917,82.40,64.40,54.55,120.00,8.00,0.00,30.09,M,6.21,M,SCT,M,M,M,4000.00,M,M,M,M,YBBN 090030Z 12008KT 9999 SCT040 28/18 Q1019
YBBN,2015-02-09 01:00,153.1292,-27.3917,82.40,64.40,54.55,120.00,8.00,0.00,30.09,M,6.21,M,SCT,M,M,M,4000.00,M,M,M,M,YBBN 090100Z 12008KT 9999 SCT040 28/18 Q1019 NOSIG
YBBN,2015-02-09 01:30,153.1292,-27.3917,82.40,66.20,58.08,90.00,10.00,0.00,30.09,M,6.21,M,SCT,M,M,M,4000.00,M,M,M,M,YBBN 090130Z 09010KT 9999 SCT040 28/19 Q1019
YBBN,2015-02-09 02:00,153.1292,-27.3917,82.40,62.60,51.21,120.00,10.00,0.00,30.09,M,6.21,M,SCT,M,M,M,4000.00,M,M,M,M,YBBN 090200Z 12010KT 9999 SCT040 28/17 Q1019 NOSIG
YBBN,2015-02-09 02:30,153.1292,-27.3917,82.40,64.40,54.55,110.00,10.00,0.00,30.09,M,6.21,M,SCT,M,M,M,4000.00,M,M,M,M,YBBN 090230Z 11010KT 9999 SCT040 28/18 Q1019
YBBN,2015-02-09 03:00,153.1292,-27.3917,82.40,66.20,58.08,110.00,11.00,0.00,30.06,M,6.21,M,SCT,M,M,M,4000.00,M,M,M,M,YBBN 090300Z 11011KT 9999 SCT040 28/19 Q1018
YBBN,2015-02-09 03:30,153.1292,-27.3917,82.40,66.20,58.08,110.00,13.00,0.00,30.06,M,6.21,M,SCT,M,M,M,4000.00,M,M,M,M,YBBN 090330Z 11013KT 9999 SCT040 28/19 Q1018
YBBN,2015-02-09 04:00,153.1292,-27.3917,84.20,64.40,51.47,110.00,12.00,0.00,30.06,M,6.21,M,FEW,M,M,M,4000.00,M,M,M,M,YBBN 090400Z 11012KT 9999 FEW040 29/18 Q1018 NOSIG
YBBN,2015-02-09 04:30,153.1292,-27.3917,82.40,62.60,51.21,110.00,10.00,0.00,30.06,M,6.21,M,FEW,M,M,M,4000.00,M,M,M,M,YBBN 090430Z 11010KT 9999 FEW040 28/17 Q1018
YBBN,2015-02-09 05:00,153.1292,-27.3917,82.40,64.40,54.55,110.00,11.00,0.00,30.06,M,6.21,M,FEW,M,M,M,4000.00,M,M,M,M,YBBN 090500Z 11011KT 9999 FEW040 28/18 Q1018 NOSIG
YBBN,2015-02-09 05:30,153.1292,-27.3917,82.40,66.20,58.08,110.00,12.00,0.00,30.06,M,6.21,M,FEW,M,M,M,4000.00,M,M,M,M,YBBN 090530Z 11012KT 9999 FEW040 28/19 Q1018
YBBN,2015-02-09 06:00,153.1292,-27.3917,80.60,66.20,61.58,120.00,13.00,0.00,30.06,M,6.21,M,FEW,M,M,M,4000.00,M,M,M,M,YBBN 090600Z 12013KT 9999 FEW040 27/19 Q1018 NOSIG
YBBN,2015-02-09 06:30,153.1292,-27.3917,80.60,68.00,65.54,110.00,12.00,0.00,30.06,M,6.21,M,FEW,M,M,M,3500.00,M,M,M,M,YBBN 090630Z 11012KT 9999 FEW035 27/20 Q1018
YBBN,2015-02-09 07:00,153.1292,-27.3917,78.80,66.20,65.33,110.00,13.00,0.00,30.06,M,6.21,M,FEW,M,M,M,3500.00,M,M,M,M,YBBN 090700Z 11013KT 9999 FEW035 26/19 Q1018
YBBN,2015-02-09 07:30,153.1292,-27.3917,78.80,64.40,61.36,110.00,14.00,0.00,30.09,M,6.21,M,FEW,M,M,M,3500.00,M,M,M,M,YBBN 090730Z 11014KT 9999 FEW035 26/18 Q1019
YBBN,2015-02-09 08:00,153.1292,-27.3917,78.80,66.20,65.33,110.00,13.00,0.00,30.09,M,6.21,M,FEW,M,M,M,3000.00,M,M,M,M,YBBN 090800Z 11013KT 9999 FEW030 26/19 Q1019 NOSIG
YBBN,2015-02-09 08:30,153.1292,-27.3917,77.00,68.00,73.78,110.00,12.00,0.00,30.09,M,6.21,M,FEW,M,M,M,2500.00,M,M,M,M,YBBN 090830Z 11012KT 9999 FEW025 25/20 Q1019 RMK VIRGA
YBBN,2015-02-09 09:00,153.1292,-27.3917,77.00,68.00,73.78,110.00,9.00,0.00,30.12,M,6.21,M,FEW,M,M,M,2500.00,M,M,M,M,YBBN 090900Z 11009KT 9999 FEW025 25/20 Q1020
YBBN,2015-02-09 09:30,153.1292,-27.3917,77.00,68.00,73.78,100.00,7.00,0.00,30.12,M,6.21,M,FEW,M,M,M,2500.00,M,M,M,M,YBBN 090930Z 10007KT 9999 FEW025 25/20 Q1020
YBBN,2015-02-09 10:00,153.1292,-27.3917,77.00,66.20,69.33,120.00,9.00,0.00,30.12,M,6.21,M,FEW,SCT,M,M,2500.00,3000.00,M,M,VCSH,YBBN 091000Z 12009KT 9999 VCSH FEW025 SCT030 25/19 Q1020
YBBN,2015-02-09 10:30,153.1292,-27.3917,75.20,66.20,73.61,100.00,8.00,0.00,30.12,M,6.21,M,FEW,SCT,BKN,M,2500.00,4500.00,5500.00,M,-SHRA,YBBN 091030Z 10008KT 9999 -SHRA FEW025 SCT045 BKN055 24/19 Q1020
YBBN,2015-02-09 11:00,153.1292,-27.3917,75.20,66.20,73.61,150.00,7.00,0.00,30.12,M,6.21,M,FEW,SCT,M,M,1500.00,3000.00,M,M,-SHRA,YBBN 091100Z 15007KT 9999 -SHRA FEW015 SCT030 24/19 Q1020
YBBN,2015-02-09 11:06,153.1292,-27.3917,71.60,68.00,88.43,120.00,18.00,0.00,30.15,M,4.35,28.00,FEW,BKN,BKN,M,1500.00,3000.00,7800.00,M,-SHRA,YBBN 091106Z 12018G28KT 7000 -SHRA FEW015 BKN030 BKN078 22/20 Q1021
YBBN,2015-02-09 11:30,153.1292,-27.3917,71.60,68.00,88.43,150.00,6.00,0.00,30.15,M,6.21,M,FEW,BKN,BKN,M,1500.00,4500.00,7000.00,M,VCSH,YBBN 091130Z 15006KT 9999 VCSH FEW015 BKN045 BKN070 22/20 Q1021 RESHRA
YBBN,2015-02-09 12:00,153.1292,-27.3917,71.60,68.00,88.43,170.00,6.00,0.00,30.12,M,6.21,M,FEW,SCT,M,M,1500.00,7500.00,M,M,M,YBBN 091200Z 17006KT 9999 FEW015 SCT075 22/20 Q1020
YBBN,2015-02-09 12:30,153.1292,-27.3917,71.60,68.00,88.43,150.00,4.00,0.00,30.12,M,6.21,M,SCT,SCT,M,M,2200.00,5500.00,M,M,-SHRA,YBBN 091230Z 15004KT 9999 -SHRA SCT022 SCT055 22/20 Q1020
YBBN,2015-02-09 13:00,153.1292,-27.3917,71.60,68.00,88.43,160.00,6.00,0.00,30.12,M,6.21,M,SCT,BKN,M,M,3000.00,5500.00,M,M,VCSH,YBBN 091300Z 16006KT 9999 VCSH SCT030 BKN055 22/20 Q1020
YBBN,2015-02-09 13:30,153.1292,-27.3917,69.80,68.00,94.01,180.00,6.00,0.00,30.12,M,6.21,M,FEW,SCT,M,M,2500.00,3500.00,M,M,VCSH,YBBN 091330Z 18006KT 9999 VCSH FEW025 SCT035 21/20 Q1020
YBBN,2015-02-09 14:00,153.1292,-27.3917,71.60,68.00,88.43,190.00,7.00,0.00,30.12,M,6.21,M,FEW,SCT,BKN,M,2500.00,3500.00,7000.00,M,VCSH,YBBN 091400Z 19007KT 9999 VCSH FEW025 SCT035 BKN070 22/20 Q1020
YBBN,2015-02-09 14:30,153.1292,-27.3917,69.80,68.00,94.01,180.00,7.00,0.00,30.12,M,6.21,M,FEW,SCT,BKN,M,2500.00,3000.00,7500.00,M,-SHRA,YBBN 091430Z 18007KT 9999 -SHRA FEW025 SCT030 BKN075 21/20 Q1020 RESHRA
YBBN,2015-02-09 15:00,153.1292,-27.3917,69.80,68.00,94.01,190.00,7.00,0.00,30.09,M,6.21,M,FEW,SCT,BKN,M,2500.00,5500.00,7000.00,M,VCSH,YBBN 091500Z 19007KT 9999 VCSH FEW025 SCT055 BKN070 21/20 Q1019
YBBN,2015-02-09 15:30,153.1292,-27.3917,69.80,68.00,94.01,190.00,7.00,0.00,30.09,M,6.21,M,FEW,SCT,BKN,M,3000.00,5000.00,8000.00,M,VCSH,YBBN 091530Z 19007KT 9999 VCSH FEW030 SCT050 BKN080 21/20 Q1019
YBBN,2015-02-09 16:00,153.1292,-27.3917,69.80,68.00,94.01,170.00,7.00,0.00,30.09,M,6.21,M,FEW,SCT,BKN,M,2400.00,3000.00,5000.00,M,VCSH,YBBN 091600Z 17007KT 9999 VCSH FEW024 SCT030 BKN050 21/20 Q1019
YBBN,2015-02-09 16:15,153.1292,-27.3917,69.80,68.00,94.01,170.00,8.00,0.00,30.09,M,3.11,M,FEW,BKN,M,M,1500.00,2400.00,M,M,+SHRA,YBBN 091615Z 17008KT 5000 +SHRA FEW015 BKN024 21/20 Q1019
YBBN,2015-02-09 16:30,153.1292,-27.3917,69.80,68.00,94.01,150.00,7.00,0.00,30.09,M,6.21,M,FEW,BKN,OVC,M,1100.00,2200.00,5000.00,M,VCSH,YBBN 091630Z 15007KT 9999 VCSH FEW011 BKN022 OVC050 21/20 Q1019 RESHRA
YBBN,2015-02-09 17:00,153.1292,-27.3917,69.80,68.00,94.01,190.00,5.00,0.00,30.09,M,6.21,M,SCT,SCT,OVC,M,2800.00,5000.00,8000.00,M,VCSH,YBBN 091700Z 19005KT 9999 VCSH SCT028 SCT050 OVC080 21/20 Q1019
YBBN,2015-02-09 17:30,153.1292,-27.3917,69.80,68.00,94.01,190.00,6.00,0.00,30.09,M,6.21,M,FEW,SCT,M,M,3000.00,6000.00,M,M,M,YBBN 091730Z 19006KT 9999 FEW030 SCT060 21/20 Q1019
YBBN,2015-02-09 18:00,153.1292,-27.3917,69.80,68.00,94.01,190.00,6.00,0.00,30.09,M,6.21,M,FEW,M,M,M,3000.00,M,M,M,M,YBBN 091800Z 19006KT 9999 FEW030 21/20 Q1019
YBBN,2015-02-09 18:30,153.1292,-27.3917,69.80,68.00,94.01,200.00,8.00,0.00,30.09,M,6.21,M,FEW,SCT,M,M,3000.00,7000.00,M,M,M,YBBN 091830Z 20008KT 9999 FEW030 SCT070 21/20 Q1019
YBBN,2015-02-09 19:00,153.1292,-27.3917,69.80,66.20,88.34,200.00,6.00,0.00,30.09,M,6.21,M,FEW,M,M,M,2400.00,M,M,M,M,YBBN 091900Z 20006KT 9999 FEW024 21/19 Q1019
YBBN,2015-02-09 19:30,153.1292,-27.3917,69.80,66.20,88.34,160.00,7.00,0.00,30.09,M,6.21,M,FEW,SCT,BKN,M,1200.00,3000.00,8500.00,M,-SHRA,YBBN 091930Z 16007KT 9999 -SHRA FEW012 SCT030 BKN085 21/19 Q1019
YBBN,2015-02-09 20:00,153.1292,-27.3917,69.80,66.20,88.34,180.00,7.00,0.00,30.09,M,6.21,M,FEW,M,M,M,1500.00,M,M,M,VCSH,YBBN 092000Z 18007KT 9999 VCSH FEW015 21/19 Q1019
YBBN,2015-02-09 20:30,153.1292,-27.3917,69.80,66.20,88.34,180.00,6.00,0.00,30.09,M,6.21,M,FEW,M,M,M,2000.00,M,M,M,VCSH,YBBN 092030Z 18006KT 9999 VCSH FEW020 21/19 Q1019
YBBN,2015-02-09 21:00,153.1292,-27.3917,71.60,68.00,88.43,170.00,7.00,0.00,30.12,M,6.21,M,FEW,SCT,M,M,2000.00,6000.00,M,M,VCSH,YBBN 092100Z 17007KT 9999 VCSH FEW020 SCT060 22/20 Q1020
YBBN,2015-02-09 21:30,153.1292,-27.3917,73.40,68.00,83.21,150.00,6.00,0.00,30.12,M,6.21,M,FEW,SCT,M,M,2000.00,6500.00,M,M,-SHRA,YBBN 092130Z 15006KT 9999 -SHRA FEW020 SCT065 23/20 Q1020
YBBN,2015-02-09 22:00,153.1292,-27.3917,73.40,68.00,83.21,160.00,6.00,0.00,30.12,M,6.21,M,FEW,SCT,M,M,2000.00,7000.00,M,M,-SHRA,YBBN 092200Z 16006KT 9999 -SHRA FEW020 SCT070 23/20 Q1020
YBBN,2015-02-09 22:30,153.1292,-27.3917,75.20,68.00,78.34,140.00,5.00,0.00,30.12,M,6.21,M,FEW,SCT,M,M,2000.00,7000.00,M,M,-SHRA,YBBN 092230Z 14005KT 9999 -SHRA FEW020 SCT070 24/20 Q1020
YBBN,2015-02-09 23:00,153.1292,-27.3917,78.80,66.20,65.33,130.00,9.00,0.00,30.12,M,6.21,M,FEW,M,M,M,2400.00,M,M,M,M,YBBN 092300Z 13009KT 9999 FEW024 26/19 Q1020
YBBN,2015-02-09 23:30,153.1292,-27.3917,80.60,64.40,57.84,120.00,12.00,0.00,30.12,M,6.21,M,FEW,SCT,M,M,2400.00,7000.00,M,M,VCSH,YBBN 092330Z 12012KT 9999 VCSH FEW024 SCT070 27/18 Q1020
