#DEBUG: Format Typ    -> comma
#DEBUG: Time Period   -> 2013-11-04 00:00:00+00:00 2013-11-05 00:00:00+00:00
#DEBUG: Time Zone     -> Etc/UTC
#DEBUG: Data Contact   -> daryl herzmann akrherz@iastate.edu 515-294-5978
#DEBUG: Entries Found -> -1
station,valid,lon,lat,tmpf, dwpf, relh, drct, sknt, p01i, alti, mslp, vsby, gust, skyc1, skyc2, skyc3, skyc4, skyl1, skyl2, skyl3, skyl4, presentwx, metar
YBBN,2013-11-04 00:00,153.1292,-27.3917,77.00,57.20,50.43,120.00,13.00,0.00,30.03,M,6.21,M,SCT,M,M,M,4000.00,M,M,M,M,YBBN 040000Z 12013KT 9999 SCT040 25/14 Q1017
YBBN,2013-11-04 00:30,153.1292,-27.3917,77.00,57.20,50.43,110.00,14.00,0.00,30.03,M,6.21,M,FEW,SCT,M,M,3000.00,4200.00,M,M,M,YBBN 040030Z 11014KT 9999 FEW030 SCT042 25/14 Q1017
YBBN,2013-11-04 01:00,153.1292,-27.3917,77.00,57.20,50.43,110.00,14.00,0.00,30.03,M,6.21,M,FEW,SCT,M,M,3500.00,4200.00,M,M,M,YBBN 040100Z 11014KT 9999 FEW035 SCT042 25/14 Q1017
YBBN,2013-11-04 01:30,153.1292,-27.3917,77.00,57.20,50.43,110.00,13.00,0.00,30.03,M,6.21,M,FEW,BKN,M,M,3700.00,4100.00,M,M,M,YBBN 040130Z 11013KT 9999 FEW037 BKN041 25/14 Q1017
YBBN,2013-11-04 02:00,153.1292,-27.3917,75.20,57.20,53.55,110.00,13.00,0.00,30.03,M,6.21,23.00,FEW,BKN,M,M,3700.00,4500.00,M,M,M,YBBN 040200Z 11013G23KT 9999 FEW037 BKN045 24/14 Q1017 NOSIG
YBBN,2013-11-04 02:30,153.1292,-27.3917,75.20,57.20,53.55,110.00,14.00,0.00,30.03,M,6.21,M,FEW,BKN,M,M,3700.00,4500.00,M,M,M,YBBN 040230Z 11014KT 9999 FEW037 BKN045 24/14 Q1017
YBBN,2013-11-04 03:00,153.1292,-27.3917,75.20,57.20,53.55,110.00,14.00,0.00,30.03,M,6.21,M,FEW,BKN,M,M,3500.00,4800.00,M,M,M,YBBN 040300Z 11014KT 9999 FEW035 BKN048 24/14 Q1017 NOSIG
YBBN,2013-11-04 03:30,153.1292,-27.3917,75.20,57.20,53.55,110.00,14.00,0.00,30.00,M,6.21,M,SCT,M,M,M,3500.00,M,M,M,M,YBBN 040330Z 11014KT 9999 SCT035 24/14 Q1016
YBBN,2013-11-04 04:00,153.1292,-27.3917,75.20,57.20,53.55,110.00,13.00,0.00,30.00,M,6.21,M,FEW,SCT,M,M,3500.00,4500.00,M,M,M,YBBN 040400Z 11013KT 9999 FEW035 SCT045 24/14 Q1016 NOSIG
YBBN,2013-11-04 04:30,153.1292,-27.3917,73.40,55.40,53.29,110.00,13.00,0.00,30.00,M,6.21,M,FEW,BKN,M,M,3500.00,5000.00,M,M,M,YBBN 040430Z 11013KT 9999 FEW035 BKN050 23/13 Q1016
YBBN,2013-11-04 04:46,153.1292,-27.3917,73.40,55.40,53.29,120.00,15.00,0.00,30.00,M,6.21,25.00,FEW,BKN,M,M,3500.00,5000.00,M,M,M,YBBN 040446Z 12015G25KT 9999 FEW035 BKN050 23/13 Q1016
YBBN,2013-11-04 05:00,153.1292,-27.3917,73.40,57.20,56.88,110.00,14.00,0.00,30.00,M,6.21,M,FEW,BKN,M,M,3500.00,5000.00,M,M,M,YBBN 040500Z 11014KT 9999 FEW035 BKN050 23/14 Q1016
YBBN,2013-11-04 05:30,153.1292,-27.3917,71.60,55.40,56.63,110.00,13.00,0.00,30.00,M,6.21,23.00,FEW,BKN,M,M,3500.00,5000.00,M,M,M,YBBN 040530Z 11013G23KT 9999 FEW035 BKN050 22/13 Q1016
YBBN,2013-11-04 06:00,153.1292,-27.3917,71.60,55.40,56.63,110.00,13.00,0.00,30.03,M,6.21,M,FEW,BKN,M,M,3500.00,4800.00,M,M,M,YBBN 040600Z 11013KT 9999 FEW035 BKN048 22/13 Q1017 NOSIG
YBBN,2013-11-04 06:30,153.1292,-27.3917,71.60,57.20,60.44,110.00,13.00,0.00,30.03,M,6.21,M,FEW,BKN,M,M,3200.00,4800.00,M,M,M,YBBN 040630Z 11013KT 9999 FEW032 BKN048 22/14 Q1017
YBBN,2013-11-04 07:00,153.1292,-27.3917,71.60,55.40,56.63,110.00,10.00,0.00,30.06,M,6.21,M,FEW,BKN,M,M,3500.00,4800.00,M,M,M,YBBN 040700Z 11010KT 9999 FEW035 BKN048 22/13 Q1018
YBBN,2013-11-04 07:30,153.1292,-27.3917,69.80,55.40,60.21,110.00,13.00,0.00,30.06,M,6.21,M,FEW,BKN,M,M,3500.00,4800.00,M,M,M,YBBN 040730Z 11013KT 9999 FEW035 BKN048 21/13 Q1018
YBBN,2013-11-04 08:00,153.1292,-27.3917,69.80,55.40,60.21,120.00,13.00,0.00,30.09,M,6.21,M,FEW,BKN,M,M,3000.00,4000.00,M,M,M,YBBN 040800Z 12013KT 9999 FEW030 BKN040 21/13 Q1019 FM0900 MOD TURB BLW 5000FT
YBBN,2013-11-04 08:30,153.1292,-27.3917,69.80,55.40,60.21,120.00,12.00,0.00,30.09,M,6.21,M,SCT,BKN,M,M,3200.00,4200.00,M,M,M,YBBN 040830Z 12012KT 9999 SCT032 BKN042 21/13 Q1019
YBBN,2013-11-04 09:00,153.1292,-27.3917,69.80,55.40,60.21,120.00,13.00,0.00,30.12,M,6.21,M,FEW,BKN,M,M,3300.00,4200.00,M,M,M,YBBN 040900Z 12013KT 9999 FEW033 BKN042 21/13 Q1020
YBBN,2013-11-04 09:30,153.1292,-27.3917,69.80,55.40,60.21,120.00,12.00,0.00,30.12,M,6.21,M,SCT,BKN,M,M,3200.00,4200.00,M,M,M,YBBN 040930Z 12012KT 9999 SCT032 BKN042 21/13 Q1020
YBBN,2013-11-04 10:00,153.1292,-27.3917,69.80,57.20,64.26,130.00,11.00,0.00,30.15,M,6.21,M,SCT,BKN,M,M,3200.00,4000.00,M,M,M,YBBN 041000Z 13011KT 9999 SCT032 BKN040 21/14 Q1021 FM1000 MOD TURB BLW 5000FT
YBBN,2013-11-04 10:30,153.1292,-27.3917,68.00,57.20,68.35,140.00,12.00,0.00,30.18,M,6.21,M,SCT,BKN,M,M,2700.00,3500.00,M,M,M,YBBN 041030Z 14012KT 9999 SCT027 BKN035 20/14 Q1022
YBBN,2013-11-04 11:00,153.1292,-27.3917,68.00,55.40,64.04,150.00,12.00,0.00,30.18,M,6.21,22.00,SCT,BKN,M,M,2700.00,3500.00,M,M,M,YBBN 041100Z 15012G22KT 9999 SCT027 BKN035 20/13 Q1022
YBBN,2013-11-04 11:30,153.1292,-27.3917,68.00,55.40,64.04,150.00,11.00,0.00,30.18,M,6.21,21.00,SCT,BKN,M,M,2700.00,3800.00,M,M,M,YBBN 041130Z 15011G21KT 9999 SCT027 BKN038 20/13 Q1022
YBBN,2013-11-04 12:00,153.1292,-27.3917,66.20,57.20,72.74,160.00,10.00,0.00,30.21,M,6.21,M,FEW,BKN,M,M,2600.00,3600.00,M,M,M,YBBN 041200Z 16010KT 9999 FEW026 BKN036 19/14 Q1023 FM1200 MOD TURB BLW 5000FT
YBBN,2013-11-04 12:30,153.1292,-27.3917,66.20,55.40,68.15,160.00,10.00,0.00,30.21,M,6.21,21.00,FEW,BKN,M,M,2600.00,4000.00,M,M,M,YBBN 041230Z 16010G21KT 9999 FEW026 BKN040 19/13 Q1023
YBBN,2013-11-04 13:00,153.1292,-27.3917,68.00,53.60,59.97,160.00,11.00,0.00,30.21,M,6.21,M,FEW,BKN,M,M,3500.00,4400.00,M,M,M,YBBN 041300Z 16011KT 9999 FEW035 BKN044 20/12 Q1023
YBBN,2013-11-04 13:30,153.1292,-27.3917,66.20,51.80,59.74,160.00,9.00,0.00,30.21,M,6.21,M,BKN,M,M,M,4200.00,M,M,M,M,YBBN 041330Z 16009KT 9999 BKN042 19/11 Q1023
YBBN,2013-11-04 14:00,153.1292,-27.3917,66.20,50.00,55.88,150.00,9.00,0.00,30.21,M,6.21,M,SCT,OVC,M,M,3400.00,4200.00,M,M,M,YBBN 041400Z 15009KT 9999 SCT034 OVC042 19/10 Q1023 FM1400 MOD TURB BLW 5000FT TILL 1500
YBBN,2013-11-04 14:30,153.1292,-27.3917,66.20,51.80,59.74,140.00,11.00,0.00,30.21,M,6.21,M,FEW,OVC,M,M,3200.00,4600.00,M,M,M,YBBN 041430Z 14011KT 9999 FEW032 OVC046 19/11 Q1023
YBBN,2013-11-04 15:00,153.1292,-27.3917,66.20,51.80,59.74,150.00,12.00,0.00,30.18,M,6.21,M,FEW,BKN,M,M,3200.00,4500.00,M,M,M,YBBN 041500Z 15012KT 9999 FEW032 BKN045 19/11 Q1022
YBBN,2013-11-04 15:30,153.1292,-27.3917,64.40,51.80,63.60,160.00,8.00,0.00,30.18,M,6.21,18.00,FEW,SCT,BKN,M,3500.00,5000.00,7500.00,M,M,YBBN 041530Z 16008G18KT 9999 FEW035 SCT050 BKN075 18/11 Q1022
YBBN,2013-11-04 16:30,153.1292,-27.3917,64.40,50.00,59.50,160.00,8.00,0.00,30.18,M,6.21,M,M,M,M,M,M,M,M,M,M,YBBN 041630Z 16008KT CAVOK 18/10 Q1022 RMK 7SC082
YBBN,2013-11-04 17:00,153.1292,-27.3917,64.40,51.80,63.60,170.00,7.00,0.00,30.18,M,6.21,M,M,M,M,M,M,M,M,M,M,YBBN 041700Z 17007KT CAVOK 18/11 Q1022
YBBN,2013-11-04 17:30,153.1292,-27.3917,64.40,50.00,59.50,150.00,7.00,0.00,30.18,M,6.21,M,M,M,M,M,M,M,M,M,M,YBBN 041730Z 15007KT CAVOK 18/10 Q1022 RMK 5SC080
YBBN,2013-11-04 18:00,153.1292,-27.3917,64.40,51.80,63.60,160.00,7.00,0.00,30.18,M,6.21,M,M,M,M,M,M,M,M,M,M,YBBN 041800Z 16007KT CAVOK 18/11 Q1022
YBBN,2013-11-04 18:30,153.1292,-27.3917,64.40,51.80,63.60,160.00,8.00,0.00,30.18,M,6.21,M,M,M,M,M,M,M,M,M,M,YBBN 041830Z 16008KT CAVOK 18/11 Q1022 RMK 7SC081
YBBN,2013-11-04 19:00,153.1292,-27.3917,62.60,51.80,67.75,170.00,8.00,0.00,30.21,M,6.21,M,FEW,SCT,M,M,3000.00,8000.00,M,M,M,YBBN 041900Z 17008KT 9999 FEW030 SCT080 17/11 Q1023
YBBN,2013-11-04 19:30,153.1292,-27.3917,62.60,51.80,67.75,160.00,7.00,0.00,30.21,M,6.21,M,FEW,M,M,M,2700.00,M,M,M,M,YBBN 041930Z 16007KT 9999 FEW027 17/11 Q1023
YBBN,2013-11-04 20:00,153.1292,-27.3917,64.40,51.80,63.60,160.00,8.00,0.00,30.21,M,6.21,M,FEW,M,M,M,2700.00,M,M,M,M,YBBN 042000Z 16008KT 9999 FEW027 18/11 Q1023
YBBN,2013-11-04 20:30,153.1292,-27.3917,66.20,51.80,59.74,170.00,10.00,0.00,30.24,M,6.21,M,FEW,M,M,M,4500.00,M,M,M,M,YBBN 042030Z 17010KT 9999 FEW045 19/11 Q1024
YBBN,2013-11-04 21:00,153.1292,-27.3917,66.20,50.00,55.88,160.00,9.00,0.00,30.24,M,6.21,M,SCT,M,M,M,4500.00,M,M,M,M,YBBN 042100Z 16009KT 9999 SCT045 19/10 Q1024
YBBN,2013-11-04 21:30,153.1292,-27.3917,68.00,50.00,52.51,150.00,9.00,0.00,30.24,M,6.21,M,FEW,SCT,M,M,3000.00,4500.00,M,M,M,YBBN 042130Z 15009KT 9999 FEW030 SCT045 20/10 Q1024
YBBN,2013-11-04 22:00,153.1292,-27.3917,69.80,51.80,52.77,130.00,10.00,0.00,30.24,M,6.21,M,SCT,M,M,M,3500.00,M,M,M,M,YBBN 042200Z 13010KT 9999 SCT035 21/11 Q1024 NOSIG
YBBN,2013-11-04 22:30,153.1292,-27.3917,69.80,50.00,49.37,150.00,8.00,0.00,30.24,M,6.21,M,SCT,M,M,M,3500.00,M,M,M,M,YBBN 042230Z 15008KT 9999 SCT035 21/10 Q1024
YBBN,2013-11-04 23:00,153.1292,-27.3917,71.60,51.80,49.64,120.00,10.00,0.00,30.24,M,6.21,M,FEW,SCT,M,M,3500.00,4800.00,M,M,M,YBBN 042300Z 12010KT 9999 FEW035 SCT048 22/11 Q1024
YBBN,2013-11-04 23:30,153.1292,-27.3917,71.60,51.80,49.64,100.00,10.00,0.00,30.24,M,6.21,M,SCT,M,M,M,3500.00,M,M,M,M,YBBN 042330Z 10010KT 9999 SCT035 22/11 Q1024
