#DEBUG: Format Typ    -> comma
#DEBUG: Time Period   -> 2014-04-27 00:00:00+00:00 2014-04-28 00:00:00+00:00
#DEBUG: Time Zone     -> Etc/UTC
#DEBUG: Data Contact   -> daryl herzmann akrherz@iastate.edu 515-294-5978
#DEBUG: Entries Found -> -1
station,valid,lon,lat,tmpf, dwpf, relh, drct, sknt, p01i, alti, mslp, vsby, gust, skyc1, skyc2, skyc3, skyc4, skyl1, skyl2, skyl3, skyl4, presentwx, metar
YBBN,2014-04-27 00:00,153.1292,-27.3917,75.20,64.40,69.14,210.00,7.00,0.00,30.06,M,6.21,M,FEW,SCT,M,M,2500.00,15000.00,M,M,M,YBBN 270000Z 21007KT 9999 FEW025 SCT150 24/18 Q1018 NOSIG
YBBN,2014-04-27 00:30,153.1292,-27.3917,77.00,64.40,65.12,230.00,7.00,0.00,30.06,M,6.21,M,FEW,SCT,M,M,3000.00,14000.00,M,M,M,YBBN 270030Z 23007KT 9999 FEW030 SCT140 25/18 Q1018
YBBN,2014-04-27 01:00,153.1292,-27.3917,78.80,62.60,57.60,210.00,7.00,0.00,30.06,M,6.21,M,FEW,SCT,M,M,3000.00,15000.00,M,M,M,YBBN 270100Z 21007KT 9999 FEW030 SCT150 26/17 Q1018 NOSIG
YBBN,2014-04-27 01:30,153.1292,-27.3917,80.60,62.60,54.30,180.00,6.00,0.00,30.03,M,6.21,M,FEW,SCT,M,M,2500.00,15500.00,M,M,M,YBBN 270130Z 18006KT 9999 FEW025 SCT155 27/17 Q1017
YBBN,2014-04-27 02:00,153.1292,-27.3917,80.60,60.80,50.95,190.00,6.00,0.00,30.03,M,6.21,M,FEW,SCT,M,M,3500.00,15000.00,M,M,M,YBBN 270200Z 19006KT 9999 FEW035 SCT150 27/16 Q1017 FM0300 13012KT 9999 SCT035 BKN140
YBBN,2014-04-27 02:30,153.1292,-27.3917,82.40,59.00,45.07,140.00,7.00,0.00,30.00,M,6.21,M,FEW,SCT,M,M,3500.00,15000.00,M,M,M,YBBN 270230Z 14007KT 9999 FEW035 SCT150 28/15 Q1016
YBBN,2014-04-27 03:00,153.1292,-27.3917,80.60,62.60,54.30,110.00,8.00,0.00,30.00,M,6.21,M,FEW,SCT,M,M,4000.00,15500.00,M,M,M,YBBN 270300Z 11008KT 9999 FEW040 SCT155 27/17 Q1016
YBBN,2014-04-27 03:30,153.1292,-27.3917,80.60,60.80,50.95,100.00,9.00,0.00,30.00,M,6.21,M,FEW,M,M,M,4000.00,M,M,M,M,YBBN 270330Z 10009KT 9999 FEW040 27/16 Q1016
YBBN,2014-04-27 04:00,153.1292,-27.3917,80.60,60.80,50.95,110.00,9.00,0.00,29.97,M,6.21,M,FEW,M,M,M,4000.00,M,M,M,M,YBBN 270400Z 11009KT 9999 FEW040 27/16 Q1015 NOSIG
YBBN,2014-04-27 04:30,153.1292,-27.3917,80.60,62.60,54.30,110.00,13.00,0.00,29.97,M,6.21,M,FEW,SCT,M,M,4500.00,15500.00,M,M,M,YBBN 270430Z 11013KT 9999 FEW045 SCT155 27/17 Q1015
YBBN,2014-04-27 04:54,153.1292,-27.3917,77.00,62.60,61.13,110.00,13.00,0.00,30.00,M,6.21,M,FEW,SCT,FEW,M,4000.00,15000.00,4200.00,M,-TSRA,YBBN 270454Z 11013KT 9999 -TSRA FEW040 SCT150 FEW042CB 25/17 Q1016
YBBN,2014-04-27 05:00,153.1292,-27.3917,77.00,62.60,61.13,110.00,12.00,0.00,30.00,M,6.21,M,FEW,SCT,FEW,M,4000.00,15500.00,4200.00,M,-SHRA,YBBN 270500Z 11012KT 9999 -SHRA FEW040 SCT155 FEW042TCU 25/17 Q1016 RETS
YBBN,2014-04-27 05:30,153.1292,-27.3917,78.80,64.40,61.36,110.00,11.00,0.00,30.00,M,6.21,M,FEW,SCT,FEW,M,4000.00,13200.00,4200.00,M,VCSH,YBBN 270530Z 11011KT 9999 VCSH FEW040 SCT132 FEW042TCU 26/18 Q1016 RMK SHRA TO S
YBBN,2014-04-27 06:00,153.1292,-27.3917,77.00,62.60,61.13,120.00,12.00,0.00,30.00,M,6.21,M,FEW,SCT,FEW,M,3500.00,13500.00,4000.00,M,VCSH,YBBN 270600Z 12012KT 9999 VCSH FEW035 SCT135 FEW040TCU 25/17 Q1016 INTER 0800/0900 3000 SHRA BKN015
YBBN,2014-04-27 06:30,153.1292,-27.3917,77.00,62.60,61.13,120.00,11.00,0.00,30.00,M,6.21,M,FEW,SCT,FEW,M,3000.00,10500.00,3500.00,M,VCSH,YBBN 270630Z 12011KT 9999 VCSH FEW030 SCT105 FEW035TCU 25/17 Q1016 RMK SHRA TO SW
YBBN,2014-04-27 07:00,153.1292,-27.3917,77.00,64.40,65.12,130.00,9.00,0.00,30.03,M,6.21,M,FEW,BKN,FEW,M,3500.00,10500.00,4000.00,M,-SHRA,YBBN 270700Z 13009KT 9999 -SHRA FEW035 BKN105 FEW040TCU 25/18 Q1017 INTER 0700/1000 3000 SHRA BKN015
YBBN,2014-04-27 07:21,153.1292,-27.3917,75.20,66.20,73.61,130.00,7.00,0.00,30.03,M,6.21,M,SCT,SCT,BKN,FEW,3500.00,8500.00,10500.00,3800.00,VCTS,YBBN 270721Z 13007KT 9999 VCTS SCT035 SCT085 BKN105 FEW038CB 24/19 Q1017
YBBN,2014-04-27 07:30,153.1292,-27.3917,75.20,66.20,73.61,140.00,7.00,0.00,30.03,M,6.21,M,FEW,SCT,BKN,FEW,3000.00,8500.00,10500.00,3500.00,-SHRA VCTS,YBBN 270730Z 14007KT 9999 -SHRA VCTS FEW030 SCT085 BKN105 FEW035CB 24/19 Q1017
YBBN,2014-04-27 08:00,153.1292,-27.3917,75.20,64.40,69.14,150.00,6.00,0.00,30.03,M,6.21,M,FEW,SCT,BKN,FEW,3000.00,8500.00,14500.00,3500.00,M,YBBN 270800Z 15006KT 9999 FEW030 SCT085 BKN145 FEW035TCU 24/18 Q1017
YBBN,2014-04-27 08:30,153.1292,-27.3917,73.40,64.40,73.44,160.00,4.00,0.00,30.06,M,6.21,M,FEW,SCT,BKN,FEW,2800.00,10500.00,14000.00,3000.00,VCSH,YBBN 270830Z 16004KT 9999 VCSH FEW028 SCT105 BKN140 FEW030CB 23/18 Q1018 RMK DIST LIGHTNING SEEN NE
YBBN,2014-04-27 09:00,153.1292,-27.3917,73.40,62.60,68.94,130.00,6.00,0.00,30.06,M,6.21,M,FEW,SCT,BKN,FEW,2800.00,10500.00,12000.00,30000.00,VCSH,YBBN 270900Z 13006KT 9999 VCSH FEW028 SCT105 BKN120 FEW300CB 23/17 Q1018
YBBN,2014-04-27 09:30,153.1292,-27.3917,73.40,59.00,60.67,160.00,7.00,0.00,30.06,M,6.21,M,FEW,SCT,BKN,FEW,2800.00,12000.00,16000.00,3000.00,VCSH,YBBN 270930Z 16007KT 9999 VCSH FEW028 SCT120 BKN160 FEW030CB 23/15 Q1018 RMK DIST LIGHTNING SEEN NE
YBBN,2014-04-27 10:00,153.1292,-27.3917,71.60,57.20,60.44,160.00,7.00,0.00,30.06,M,6.21,M,FEW,SCT,BKN,M,2800.00,12000.00,16500.00,M,M,YBBN 271000Z 16007KT 9999 FEW028 SCT120 BKN165 22/14 Q1018
YBBN,2014-04-27 10:30,153.1292,-27.3917,71.60,57.20,60.44,160.00,6.00,0.00,30.09,M,6.21,M,FEW,SCT,BKN,FEW,2800.00,9800.00,16000.00,3000.00,M,YBBN 271030Z 16006KT 9999 FEW028 SCT098 BKN160 FEW030CB 22/14 Q1019 RMK DIST LIGHTNING SEEN NE
YBBN,2014-04-27 11:00,153.1292,-27.3917,71.60,59.00,64.48,160.00,5.00,0.00,30.09,M,6.21,M,FEW,SCT,BKN,FEW,2800.00,9800.00,11000.00,3000.00,M,YBBN 271100Z 16005KT 9999 FEW028 SCT098 BKN110 FEW030CB 22/15 Q1019 INTER 1100/1400 3000 SHRA BKN015
YBBN,2014-04-27 11:30,153.1292,-27.3917,71.60,59.00,64.48,190.00,6.00,0.00,30.09,M,6.21,M,FEW,SCT,BKN,M,2700.00,9500.00,11000.00,M,M,YBBN 271130Z 19006KT 9999 FEW027 SCT095 BKN110 22/15 Q1019 RMK DIST LIGHTNING SEEN E/NE
YBBN,2014-04-27 12:00,153.1292,-27.3917,71.60,59.00,64.48,170.00,8.00,0.00,30.09,M,6.21,M,FEW,SCT,BKN,FEW,2700.00,3500.00,11000.00,2900.00,M,YBBN 271200Z 17008KT 9999 FEW027 SCT035 BKN110 FEW029CB 22/15 Q1019
YBBN,2014-04-27 12:30,153.1292,-27.3917,71.60,60.80,68.75,160.00,7.00,0.00,30.09,M,6.21,M,FEW,SCT,BKN,FEW,2700.00,3900.00,11000.00,2900.00,M,YBBN 271230Z 16007KT 9999 FEW027 SCT039 BKN110 FEW029CB 22/16 Q1019 RMK CB AND DIST LIGHTNING SEEN E/NE
YBBN,2014-04-27 13:00,153.1292,-27.3917,71.60,60.80,68.75,170.00,7.00,0.00,30.09,M,6.21,M,FEW,SCT,BKN,FEW,2300.00,4000.00,11000.00,2900.00,M,YBBN 271300Z 17007KT 9999 FEW023 SCT040 BKN110 FEW029CB 22/16 Q1019 RMK DIST+SHRA NE/ DIST LIGHTNING SEEN E/NE
YBBN,2014-04-27 13:30,153.1292,-27.3917,69.80,62.60,77.90,190.00,6.00,0.00,30.09,M,6.21,M,FEW,SCT,BKN,FEW,2300.00,3900.00,11500.00,2900.00,VCSH,YBBN 271330Z 19006KT 9999 VCSH FEW023 SCT039 BKN115 FEW029CB 21/17 Q1019 RMK DIST +SHRA N/NE DIST LIGHTNING SEEN N/NE
YBBN,2014-04-27 14:00,153.1292,-27.3917,69.80,62.60,77.90,180.00,5.00,0.00,30.09,M,6.21,M,FEW,SCT,BKN,FEW,2200.00,3200.00,11500.00,2900.00,VCTS VCSH,YBBN 271400Z 18005KT 9999 VCTS VCSH FEW022 SCT032 BKN115 FEW029CB 21/17 Q1019
YBBN,2014-04-27 14:30,153.1292,-27.3917,69.80,62.60,77.90,50.00,3.00,0.00,30.09,M,6.21,M,FEW,SCT,BKN,FEW,2000.00,3300.00,12000.00,2900.00,SHRA,YBBN 271430Z 05003KT 9999 SHRA FEW020 SCT033 BKN120 FEW029CB 21/17 Q1019 RMK SHRA NORTH/ DIST LIGHTNING SEEN NE
YBBN,2014-04-27 15:00,153.1292,-27.3917,69.80,62.60,77.90,300.00,3.00,0.00,30.09,M,6.21,M,FEW,SCT,BKN,M,2600.00,3000.00,12000.00,M,VCSH,YBBN 271500Z 30003KT 9999 VCSH FEW026 SCT030 BKN120 21/17 Q1019
YBBN,2014-04-27 15:30,153.1292,-27.3917,69.80,60.80,73.09,230.00,4.00,0.00,30.06,M,6.21,M,FEW,SCT,BKN,FEW,2600.00,3400.00,12000.00,2900.00,M,YBBN 271530Z 23004KT 9999 FEW026 SCT034 BKN120 FEW029CB 21/16 Q1018 RMK DIST LIGHTNING SEEN E/NE
YBBN,2014-04-27 16:00,153.1292,-27.3917,69.80,60.80,73.09,160.00,4.00,0.00,30.06,M,6.21,M,FEW,SCT,BKN,FEW,2600.00,3800.00,12500.00,2900.00,M,YBBN 271600Z 16004KT 9999 FEW026 SCT038 BKN125 FEW029CB 21/16 Q1018 RMK DIST LIGHTNING SEEN E/NE
YBBN,2014-04-27 16:30,153.1292,-27.3917,69.80,60.80,73.09,180.00,5.00,0.00,30.06,M,6.21,M,FEW,BKN,M,M,2600.00,15000.00,M,M,M,YBBN 271630Z 18005KT 9999 FEW026 BKN150 21/16 Q1018 RMK DIST -SHRA NW
YBBN,2014-04-27 17:00,153.1292,-27.3917,68.00,60.80,77.75,150.00,4.00,0.00,30.06,M,6.21,M,FEW,SCT,M,M,2600.00,15000.00,M,M,M,YBBN 271700Z 15004KT 9999 FEW026 SCT150 20/16 Q1018
YBBN,2014-04-27 17:30,153.1292,-27.3917,66.20,60.80,82.74,200.00,6.00,0.00,30.06,M,6.21,M,FEW,SCT,M,M,2600.00,4900.00,M,M,M,YBBN 271730Z 20006KT 9999 FEW026 SCT049 19/16 Q1018 RMK DIST LIGHTNING SEEN EAST
YBBN,2014-04-27 18:00,153.1292,-27.3917,68.00,60.80,77.75,160.00,5.00,0.00,30.06,M,6.21,M,FEW,FEW,M,M,2600.00,2800.00,M,M,M,YBBN 271800Z 16005KT 9999 FEW026 FEW028CB 20/16 Q1018
YBBN,2014-04-27 18:30,153.1292,-27.3917,66.20,62.60,88.18,150.00,7.00,0.00,30.06,M,6.21,M,FEW,SCT,FEW,M,2300.00,12000.00,2800.00,M,M,YBBN 271830Z 15007KT 9999 FEW023 SCT120 FEW028CB 19/17 Q1018 RMK DIST LIGHTNING SEEN NE
YBBN,2014-04-27 19:00,153.1292,-27.3917,68.00,62.60,82.86,160.00,8.00,0.00,30.09,M,6.21,M,FEW,SCT,FEW,M,2300.00,15000.00,2800.00,M,-SHRA,YBBN 271900Z 16008KT 9999 -SHRA FEW023 SCT150 FEW028CB 20/17 Q1019 RMK DIST LIGHTNING SEEN E/NE
YBBN,2014-04-27 19:30,153.1292,-27.3917,68.00,62.60,82.86,170.00,6.00,0.00,30.09,M,6.21,M,FEW,SCT,BKN,FEW,2200.00,15000.00,25000.00,2800.00,VCSH,YBBN 271930Z 17006KT 9999 VCSH FEW022 SCT150 BKN250 FEW028CB 20/17 Q1019 RMK DIST LIGHTNING SEEN NE
YBBN,2014-04-27 20:00,153.1292,-27.3917,68.00,62.60,82.86,180.00,7.00,0.00,30.09,M,6.21,M,FEW,SCT,BKN,FEW,2500.00,15000.00,24000.00,2700.00,-SHRA,YBBN 272000Z 18007KT 9999 -SHRA FEW025 SCT150 BKN240 FEW027CB 20/17 Q1019 RMK DIST LIGHTNING SEEN EAST
YBBN,2014-04-27 20:30,153.1292,-27.3917,66.20,62.60,88.18,170.00,7.00,0.00,30.09,M,6.21,M,FEW,SCT,BKN,M,2300.00,2900.00,12000.00,M,-SHRA,YBBN 272030Z 17007KT 9999 -SHRA FEW023 SCT029 BKN120 19/17 Q1019
YBBN,2014-04-27 21:00,153.1292,-27.3917,66.20,62.60,88.18,180.00,7.00,0.00,30.12,M,6.21,M,FEW,BKN,M,M,1500.00,10000.00,M,M,-SHRA,YBBN 272100Z 18007KT 9999 -SHRA FEW015 BKN100 19/17 Q1020 INTER 2100/2400 3000 SHRA BKN015
YBBN,2014-04-27 21:30,153.1292,-27.3917,66.20,62.60,88.18,170.00,8.00,0.00,30.12,M,6.21,M,FEW,SCT,BKN,M,1500.00,7600.00,9500.00,M,-SHRA,YBBN 272130Z 17008KT 9999 -SHRA FEW015 SCT076 BKN095 19/17 Q1020
YBBN,2014-04-27 22:00,153.1292,-27.3917,66.20,64.40,93.92,170.00,8.00,0.00,30.12,M,6.21,M,FEW,BKN,BKN,M,1500.00,6800.00,7900.00,M,-SHRA,YBBN 272200Z 17008KT 9999 -SHRA FEW015 BKN068 BKN079 19/18 Q1020 INTER 2200/0100 3000 SHRA BKN015
YBBN,2014-04-27 22:30,153.1292,-27.3917,66.20,62.60,88.18,170.00,7.00,0.00,30.15,M,6.21,M,FEW,SCT,BKN,M,1500.00,3500.00,10500.00,M,-SHRA,YBBN 272230Z 17007KT 9999 -SHRA FEW015 SCT035 BKN105 19/17 Q1021
YBBN,2014-04-27 23:00,153.1292,-27.3917,66.20,62.60,88.18,170.00,5.00,0.00,30.15,M,6.21,M,FEW,SCT,BKN,M,1500.00,5900.00,11500.00,M,-SHRA,YBBN 272300Z 17005KT 9999 -SHRA FEW015 SCT059 BKN115 19/17 Q1021 FM0000 14010KT 9999 -SHRA SCT030 SCT050 INTER 2330/0200 4000 SHRA BKN015
YBBN,2014-04-27 23:30,153.1292,-27.3917,66.20,64.40,93.92,160.00,8.00,0.00,30.15,M,6.21,M,FEW,BKN,M,M,1500.00,11500.00,M,M,-SHRA,YBBN 272330Z 16008KT 9999 -SHRA FEW015 BKN115 19/18 Q1021
