#DEBUG: Format Typ    -> comma
#DEBUG: Time Period   -> 2013-10-13 00:00:00+00:00 2013-10-14 00:00:00+00:00
#DEBUG: Time Zone     -> Etc/UTC
#DEBUG: Data Contact   -> daryl herzmann akrherz@iastate.edu 515-294-5978
#DEBUG: Entries Found -> -1
station,valid,lon,lat,tmpf, dwpf, relh, drct, sknt, p01i, alti, mslp, vsby, gust, skyc1, skyc2, skyc3, skyc4, skyl1, skyl2, skyl3, skyl4, presentwx, metar
YBBN,2013-10-13 00:00,153.1292,-27.3917,78.80,59.00,50.69,360.00,10.00,0.00,29.91,M,6.21,M,FEW,M,M,M,3200.00,M,M,M,M,YBBN 130000Z 36010KT 9999 FEW032 26/15 Q1013
YBBN,2013-10-13 00:30,153.1292,-27.3917,82.40,60.80,48.05,10.00,11.00,0.00,29.91,M,6.21,M,FEW,M,M,M,3200.00,M,M,M,M,YBBN 130030Z 01011KT 9999 FEW032 28/16 Q1013
YBBN,2013-10-13 01:00,153.1292,-27.3917,80.60,59.00,47.79,20.00,13.00,0.00,29.88,M,6.21,M,FEW,M,M,M,3500.00,M,M,M,M,YBBN 130100Z 02013KT 9999 FEW035 27/15 Q1012
YBBN,2013-10-13 01:30,153.1292,-27.3917,80.60,62.60,54.30,30.00,17.00,0.00,29.88,M,6.21,M,FEW,SCT,M,M,3500.00,14000.00,M,M,M,YBBN 130130Z 03017KT 9999 FEW035 SCT140 27/17 Q1012
YBBN,2013-10-13 02:00,153.1292,-27.3917,82.40,64.40,54.55,20.00,19.00,0.00,29.85,M,6.21,M,M,M,M,M,M,M,M,M,M,YBBN 130200Z 02019KT CAVOK 28/18 Q1011
YBBN,2013-10-13 02:30,153.1292,-27.3917,77.00,66.20,69.33,20.00,22.00,0.00,29.83,M,6.21,M,M,M,M,M,M,M,M,M,M,YBBN 130230Z 02022KT CAVOK 25/19 Q1010
YBBN,2013-10-13 03:00,153.1292,-27.3917,77.00,66.20,69.33,20.00,19.00,0.00,29.83,M,6.21,M,M,M,M,M,M,M,M,M,M,YBBN 130300Z 02019KT CAVOK 25/19 Q1010 RMK 5AC140
YBBN,2013-10-13 03:30,153.1292,-27.3917,78.80,64.40,61.36,20.00,21.00,0.00,29.80,M,6.21,M,M,M,M,M,M,M,M,M,M,YBBN 130330Z 02021KT CAVOK 26/18 Q1009
YBBN,2013-10-13 04:00,153.1292,-27.3917,78.80,62.60,57.60,10.00,22.00,0.00,29.80,M,6.21,M,M,M,M,M,M,M,M,M,M,YBBN 130400Z 01022KT CAVOK 26/17 Q1009
YBBN,2013-10-13 04:30,153.1292,-27.3917,78.80,64.40,61.36,10.00,21.00,0.00,29.77,M,6.21,M,M,M,M,M,M,M,M,M,M,YBBN 130430Z 01021KT CAVOK 26/18 Q1008 RMK HZ
YBBN,2013-10-13 04:46,153.1292,-27.3917,77.00,64.40,65.12,20.00,21.00,0.00,29.77,M,6.21,31.00,M,M,M,M,M,M,M,M,M,YBBN 130446Z 02021G31KT CAVOK 25/18 Q1008
YBBN,2013-10-13 05:00,153.1292,-27.3917,77.00,64.40,65.12,20.00,22.00,0.00,29.77,M,6.21,M,M,M,M,M,M,M,M,M,M,YBBN 130500Z 02022KT CAVOK 25/18 Q1008
YBBN,2013-10-13 05:30,153.1292,-27.3917,78.80,64.40,61.36,20.00,22.00,0.00,29.77,M,6.21,M,M,M,M,M,M,M,M,M,M,YBBN 130530Z 02022KT CAVOK 26/18 Q1008 RMK HZ
YBBN,2013-10-13 06:00,153.1292,-27.3917,77.00,64.40,65.12,20.00,22.00,0.00,29.74,M,6.21,M,M,M,M,M,M,M,M,M,M,YBBN 130600Z 02022KT CAVOK 25/18 Q1007 RMK HZ
YBBN,2013-10-13 06:30,153.1292,-27.3917,77.00,66.20,69.33,20.00,23.00,0.00,29.74,M,6.21,M,M,M,M,M,M,M,M,M,M,YBBN 130630Z 02023KT CAVOK 25/19 Q1007 RMK HZ
YBBN,2013-10-13 07:00,153.1292,-27.3917,75.20,64.40,69.14,10.00,25.00,0.00,29.74,M,6.21,M,M,M,M,M,M,M,M,M,M,YBBN 130700Z 01025KT CAVOK 24/18 Q1007 FM0700 01019G29KT CAVOK FM0700 MOD TURB BLW 5000FT
YBBN,2013-10-13 07:06,153.1292,-27.3917,75.20,64.40,69.14,10.00,23.00,0.00,29.74,M,6.21,34.00,NCD,M,M,M,M,M,M,M,//,YBBN 130706Z AUTO 01023G34KT 9999 // NCD 24/18 Q1007
YBBN,2013-10-13 07:30,153.1292,-27.3917,75.20,66.20,73.61,10.00,23.00,0.00,29.77,M,6.21,M,M,M,M,M,M,M,M,M,M,YBBN 130730Z 01023KT CAVOK 24/19 Q1008 RMK HZ
YBBN,2013-10-13 08:00,153.1292,-27.3917,75.20,66.20,73.61,10.00,21.00,0.00,29.77,M,6.21,M,M,M,M,M,M,M,M,M,M,YBBN 130800Z 01021KT CAVOK 24/19 Q1008 RMK HZ
YBBN,2013-10-13 08:30,153.1292,-27.3917,75.20,66.20,73.61,360.00,19.00,0.00,29.77,M,6.21,M,M,M,M,M,M,M,M,M,M,YBBN 130830Z 36019KT CAVOK 24/19 Q1008 RMK HZ
YBBN,2013-10-13 09:00,153.1292,-27.3917,75.20,66.20,73.61,10.00,20.00,0.00,29.77,M,6.21,M,M,M,M,M,M,M,M,M,M,YBBN 130900Z 01020KT CAVOK 24/19 Q1008
YBBN,2013-10-13 09:30,153.1292,-27.3917,75.20,66.20,73.61,360.00,18.00,0.00,29.77,M,6.21,M,M,M,M,M,M,M,M,M,M,YBBN 130930Z 36018KT CAVOK 24/19 Q1008 RMK HZ 4 AC190 5CC240
YBBN,2013-10-13 10:00,153.1292,-27.3917,75.20,66.20,73.61,360.00,19.00,0.00,29.77,M,6.21,M,M,M,M,M,M,M,M,M,M,YBBN 131000Z 36019KT CAVOK 24/19 Q1008 RMK HZ 1AC120 4AC185
YBBN,2013-10-13 10:30,153.1292,-27.3917,75.20,64.40,69.14,360.00,19.00,0.00,29.77,M,6.21,M,M,M,M,M,M,M,M,M,M,YBBN 131030Z 36019KT CAVOK 24/18 Q1008 RMK HZ 2AC120 6AC185
YBBN,2013-10-13 11:00,153.1292,-27.3917,75.20,64.40,69.14,360.00,19.00,0.00,29.77,M,6.21,M,M,M,M,M,M,M,M,M,M,YBBN 131100Z 36019KT CAVOK 24/18 Q1008 RMK HZ 1AC120 6AC185
YBBN,2013-10-13 11:30,153.1292,-27.3917,75.20,62.60,64.91,360.00,18.00,0.00,29.77,M,6.21,M,M,M,M,M,M,M,M,M,M,YBBN 131130Z 36018KT CAVOK 24/17 Q1008 RMK HZ 1AC120 7AC185
YBBN,2013-10-13 12:00,153.1292,-27.3917,75.20,62.60,64.91,360.00,19.00,0.00,29.77,M,6.21,M,M,M,M,M,M,M,M,M,M,YBBN 131200Z 36019KT CAVOK 24/17 Q1008 RMK HZ 1SC074 3AC120 6AC190
YBBN,2013-10-13 12:30,153.1292,-27.3917,75.20,62.60,64.91,350.00,16.00,0.00,29.80,M,6.21,M,FEW,SCT,BKN,M,7400.00,12000.00,14000.00,M,VCSH,YBBN 131230Z 35016KT 9999 VCSH FEW074 SCT120 BKN140 24/17 Q1009 RMK HZ
YBBN,2013-10-13 13:00,153.1292,-27.3917,75.20,62.60,64.91,310.00,10.00,0.00,29.83,M,6.21,M,FEW,SCT,BKN,M,7200.00,12000.00,16000.00,M,-SHRA,YBBN 131300Z 31010KT 9999 -SHRA FEW072 SCT120 BKN160 24/17 Q1010 FM1300 MOD/SEV TURB BLW 5000FT
YBBN,2013-10-13 13:30,153.1292,-27.3917,73.40,62.60,68.94,360.00,7.00,0.00,29.80,M,6.21,M,FEW,SCT,BKN,M,7800.00,11000.00,13800.00,M,VCSH,YBBN 131330Z 36007KT 9999 VCSH FEW078 SCT110 BKN138 23/17 Q1009 RMK HZ
YBBN,2013-10-13 14:00,153.1292,-27.3917,73.40,64.40,73.44,350.00,10.00,0.00,29.80,M,5.59,M,FEW,SCT,BKN,M,7800.00,9000.00,12000.00,M,-SHRA,YBBN 131400Z 35010KT 9000 -SHRA FEW078 SCT090 BKN120 23/18 Q1009 FM1400 MOD/SEV TURB BLW 5000FT
YBBN,2013-10-13 14:30,153.1292,-27.3917,71.60,64.40,78.04,320.00,2.00,0.00,29.77,M,6.21,M,FEW,SCT,BKN,M,7800.00,9000.00,12500.00,M,VCSH,YBBN 131430Z 32002KT 9999 VCSH FEW078 SCT090 BKN125 22/18 Q1008
YBBN,2013-10-13 15:00,153.1292,-27.3917,73.40,64.40,73.44,350.00,14.00,0.00,29.77,M,6.21,M,FEW,SCT,BKN,M,8000.00,11000.00,14500.00,M,VCSH,YBBN 131500Z 35014KT 9999 VCSH FEW080 SCT110 BKN145 23/18 Q1008 FM1500 MOD/SEV TURB BLW 5000FT
YBBN,2013-10-13 15:30,153.1292,-27.3917,71.60,64.40,78.04,360.00,18.00,0.00,29.71,M,6.21,M,FEW,SCT,BKN,M,8200.00,12500.00,15800.00,M,VCSH,YBBN 131530Z 36018KT 9999 VCSH FEW082 SCT125 BKN158 22/18 Q1006 RMK HZ
YBBN,2013-10-13 16:00,153.1292,-27.3917,71.60,66.20,83.09,360.00,18.00,0.00,29.71,M,6.21,M,FEW,SCT,BKN,M,8000.00,12000.00,14000.00,M,VCSH,YBBN 131600Z 36018KT 9999 VCSH FEW080 SCT120 BKN140 22/19 Q1006 RMK HZ
YBBN,2013-10-13 16:30,153.1292,-27.3917,71.60,64.40,78.04,350.00,17.00,0.00,29.71,M,6.21,M,M,M,M,M,M,M,M,M,M,YBBN 131630Z 35017KT CAVOK 22/18 Q1006 RMK HZ
YBBN,2013-10-13 17:00,153.1292,-27.3917,71.60,64.40,78.04,350.00,15.00,0.00,29.71,M,6.21,M,M,M,M,M,M,M,M,M,M,YBBN 131700Z 35015KT CAVOK 22/18 Q1006 RMK HZ 5AC180
YBBN,2013-10-13 17:30,153.1292,-27.3917,71.60,64.40,78.04,360.00,16.00,0.00,29.71,M,6.21,M,M,M,M,M,M,M,M,M,M,YBBN 131730Z 36016KT CAVOK 22/18 Q1006 RMK HZ 1SC074 3AC140 5AC180
YBBN,2013-10-13 18:00,153.1292,-27.3917,69.80,64.40,82.98,350.00,14.00,0.00,29.71,M,6.21,M,M,M,M,M,M,M,M,M,M,YBBN 131800Z 35014KT CAVOK 21/18 Q1006 FM1800 MOD/SEV TURB BLW 5000FT
YBBN,2013-10-13 18:30,153.1292,-27.3917,69.80,62.60,77.90,320.00,9.00,0.00,29.77,M,6.21,M,M,M,M,M,M,M,M,M,M,YBBN 131830Z 32009KT CAVOK 21/17 Q1008 RMK HZ
YBBN,2013-10-13 19:00,153.1292,-27.3917,68.00,62.60,82.86,350.00,6.00,0.00,29.77,M,6.21,M,FEW,M,M,M,4500.00,M,M,M,M,YBBN 131900Z 35006KT 9999 FEW045 20/17 Q1008 FM1900 MOD/SEV TURB BLW 5000FT TILL 2100
YBBN,2013-10-13 19:30,153.1292,-27.3917,69.80,62.60,77.90,280.00,5.00,0.00,29.77,M,6.21,M,FEW,M,M,M,3000.00,M,M,M,M,YBBN 131930Z 28005KT 9999 FEW030 21/17 Q1008 RMK HZ
YBBN,2013-10-13 20:00,153.1292,-27.3917,73.40,57.20,56.88,270.00,12.00,0.00,29.80,M,6.21,M,FEW,M,M,M,3000.00,M,M,M,M,YBBN 132000Z 27012KT 9999 FEW030 23/14 Q1009
YBBN,2013-10-13 20:22,153.1292,-27.3917,75.20,48.20,38.46,260.00,18.00,0.00,29.83,M,6.21,28.00,FEW,M,M,M,3000.00,M,M,M,M,YBBN 132022Z 26018G28KT 9999 FEW030 24/09 Q1010
YBBN,2013-10-13 20:30,153.1292,-27.3917,73.40,46.40,38.18,250.00,20.00,0.00,29.83,M,6.21,M,M,M,M,M,M,M,M,M,M,YBBN 132030Z 25020KT CAVOK 23/08 Q1010
YBBN,2013-10-13 21:00,153.1292,-27.3917,73.40,44.60,35.66,250.00,18.00,0.00,29.85,M,6.21,M,M,M,M,M,M,M,M,M,M,YBBN 132100Z 25018KT CAVOK 23/07 Q1011
YBBN,2013-10-13 21:30,153.1292,-27.3917,75.20,44.60,33.57,250.00,17.00,0.00,29.85,M,6.21,M,M,M,M,M,M,M,M,M,M,YBBN 132130Z 25017KT CAVOK 24/07 Q1011
YBBN,2013-10-13 22:00,153.1292,-27.3917,75.20,41.00,29.23,260.00,17.00,0.00,29.88,M,6.21,M,M,M,M,M,M,M,M,M,M,YBBN 132200Z 26017KT CAVOK 24/05 Q1012 FM2200 MOD TURB BLW 5000FT
YBBN,2013-10-13 22:30,153.1292,-27.3917,77.00,35.60,22.28,260.00,17.00,0.00,29.88,M,6.21,M,M,M,M,M,M,M,M,M,M,YBBN 132230Z 26017KT CAVOK 25/02 Q1012
YBBN,2013-10-13 23:00,153.1292,-27.3917,77.00,33.80,20.74,240.00,16.00,0.00,29.91,M,6.21,M,M,M,M,M,M,M,M,M,M,YBBN 132300Z 24016KT CAVOK 25/01 Q1013 FM2300 MOD TURB BLW 5000FT
YBBN,2013-10-13 23:08,153.1292,-27.3917,77.00,32.00,19.30,250.00,15.00,0.00,29.91,M,6.21,26.00,M,M,M,M,M,M,M,M,M,YBBN 132308Z 25015G26KT CAVOK 25/00 Q1013
YBBN,2013-10-13 23:30,153.1292,-27.3917,77.00,32.00,19.30,260.00,18.00,0.00,29.91,M,6.21,M,M,M,M,M,M,M,M,M,M,YBBN 132330Z 26018KT CAVOK 25/00 Q1013
YBBN,2013-10-13 23:41,153.1292,-27.3917,78.80,32.00,18.18,260.00,17.00,0.00,29.91,M,6.21,27.00,M,M,M,M,M,M,M,M,M,YBBN 132341Z 26017G27KT CAVOK 26/00 Q1013
