#DEBUG: Format Typ    -> comma
#DEBUG: Time Period   -> 2011-02-02 00:00:00+00:00 2011-02-03 00:00:00+00:00
#DEBUG: Time Zone     -> Etc/UTC
#DEBUG: Data Contact   -> daryl herzmann akrherz@iastate.edu 515-294-5978
#DEBUG: Entries Found -> -1
station,valid,lon,lat,tmpf, dwpf, relh, drct, sknt, p01i, alti, mslp, vsby, gust, skyc1, skyc2, skyc3, skyc4, skyl1, skyl2, skyl3, skyl4, presentwx, metar
YBBN,2011-02-02 00:00,153.1292,-27.3917,86.00,77.00,74.61,30.00,9.00,M,30.03,M,6.21,M,SCT,M,M,M,1600.00,M,M,M,M,YBBN 020000Z 03009KT 9999 SCT016 30/25 Q1017 NOSIG
YBBN,2011-02-02 00:30,153.1292,-27.3917,86.00,75.20,70.27,40.00,8.00,M,30.03,M,6.21,M,FEW,M,M,M,1700.00,M,M,M,M,YBBN 020030Z 04008KT 9999 FEW017 30/24 Q1017 NOSIG
YBBN,2011-02-02 01:00,153.1292,-27.3917,86.00,75.20,70.27,40.00,8.00,M,30.03,M,6.21,M,SCT,SCT,M,M,1700.00,4200.00,M,M,M,YBBN 020100Z 04008KT 9999 SCT017 SCT042 30/24 Q1017 NOSIG
YBBN,2011-02-02 01:30,153.1292,-27.3917,84.20,75.20,74.44,40.00,9.00,M,30.03,M,6.21,M,FEW,SCT,M,M,1800.00,4200.00,M,M,M,YBBN 020130Z 04009KT 9999 FEW018 SCT042 29/24 Q1017 NOSIG
YBBN,2011-02-02 02:00,153.1292,-27.3917,86.00,75.20,70.27,40.00,9.00,M,30.03,M,6.21,M,SCT,SCT,M,M,1800.00,4200.00,M,M,M,YBBN 020200Z 04009KT 9999 SCT018 SCT042 30/24 Q1017 NOSIG
YBBN,2011-02-02 02:30,153.1292,-27.3917,86.00,77.00,74.61,30.00,9.00,M,30.00,M,6.21,M,SCT,SCT,M,M,1800.00,4200.00,M,M,M,YBBN 020230Z 03009KT 9999 SCT018 SCT042 30/25 Q1016 NOSIG
YBBN,2011-02-02 03:00,153.1292,-27.3917,86.00,77.00,74.61,50.00,11.00,M,30.00,M,6.21,M,SCT,SCT,M,M,2000.00,4200.00,M,M,M,YBBN 020300Z 05011KT 9999 SCT020 SCT042 30/25 Q1016 NOSIG
YBBN,2011-02-02 03:30,153.1292,-27.3917,86.00,75.20,70.27,40.00,9.00,M,30.00,M,6.21,M,SCT,M,M,M,2000.00,M,M,M,M,YBBN 020330Z 04009KT 9999 SCT020 30/24 Q1016 NOSIG
YBBN,2011-02-02 04:00,153.1292,-27.3917,87.80,75.20,66.35,50.00,13.00,M,30.00,M,6.21,M,SCT,M,M,M,2000.00,M,M,M,M,YBBN 020400Z 05013KT 9999 SCT020 31/24 Q1016 NOSIG
YBBN,2011-02-02 04:30,153.1292,-27.3917,86.00,75.20,70.27,60.00,13.00,M,30.00,M,6.21,M,FEW,M,M,M,2000.00,M,M,M,VCSH,YBBN 020430Z 06013KT 9999 VCSH FEW020 30/24 Q1016 NOSIG
YBBN,2011-02-02 05:00,153.1292,-27.3917,86.00,75.20,70.27,40.00,13.00,M,30.00,M,6.21,M,FEW,M,M,M,2000.00,M,M,M,M,YBBN 020500Z 04013KT 9999 FEW020 30/24 Q1016 NOSIG
YBBN,2011-02-02 05:30,153.1292,-27.3917,86.00,75.20,70.27,50.00,11.00,M,30.00,M,6.21,M,FEW,M,M,M,2000.00,M,M,M,M,YBBN 020530Z 05011KT 9999 FEW020 30/24 Q1016 NOSIG
YBBN,2011-02-02 06:00,153.1292,-27.3917,86.00,75.20,70.27,60.00,12.00,M,30.00,M,6.21,M,FEW,M,M,M,2200.00,M,M,M,M,YBBN 020600Z 06012KT 9999 FEW022 30/24 Q1016 NOSIG
YBBN,2011-02-02 06:30,153.1292,-27.3917,84.20,75.20,74.44,60.00,11.00,M,30.00,M,6.21,M,FEW,M,M,M,2200.00,M,M,M,M,YBBN 020630Z 06011KT 9999 FEW022 29/24 Q1016 NOSIG
YBBN,2011-02-02 07:00,153.1292,-27.3917,84.20,75.20,74.44,50.00,11.00,M,30.00,M,6.21,M,FEW,M,M,M,2400.00,M,M,M,M,YBBN 020700Z 05011KT 9999 FEW024 29/24 Q1016 NOSIG
YBBN,2011-02-02 07:30,153.1292,-27.3917,82.40,75.20,78.90,50.00,10.00,M,30.00,M,6.21,M,FEW,M,M,M,2400.00,M,M,M,M,YBBN 020730Z 05010KT 9999 FEW024 28/24 Q1016 NOSIG
YBBN,2011-02-02 08:00,153.1292,-27.3917,82.40,75.20,78.90,50.00,9.00,M,30.03,M,6.21,M,FEW,M,M,M,2400.00,M,M,M,M,YBBN 020800Z 05009KT 9999 FEW024 28/24 Q1017 NOSIG
YBBN,2011-02-02 08:30,153.1292,-27.3917,82.40,75.20,78.90,50.00,9.00,M,30.03,M,6.21,M,FEW,SCT,M,M,1800.00,2000.00,M,M,M,YBBN 020830Z 05009KT 9999 FEW018 SCT020 28/24 Q1017 RMK DIST SH SOUTH NOSIG
YBBN,2011-02-02 09:00,153.1292,-27.3917,80.60,75.20,83.66,60.00,9.00,M,30.03,M,6.21,M,FEW,SCT,M,M,1500.00,1800.00,M,M,M,YBBN 020900Z 06009KT 9999 FEW015 SCT018 27/24 Q1017 RMK SMOKE/HAZE NOSIG
YBBN,2011-02-02 09:30,153.1292,-27.3917,80.60,75.20,83.66,50.00,8.00,M,30.03,M,6.21,M,FEW,SCT,M,M,1500.00,1700.00,M,M,M,YBBN 020930Z 05008KT 9999 FEW015 SCT017 27/24 Q1017 RMK SMOKE/HAZE NOSIG
YBBN,2011-02-02 10:00,153.1292,-27.3917,80.60,75.20,83.66,50.00,8.00,M,30.03,M,6.21,M,FEW,SCT,M,M,1200.00,1600.00,M,M,VCSH,YBBN 021000Z 05008KT 9999 VCSH FEW012 SCT016 27/24 Q1017 RMK SH SW/SMOKE/HAZE NOSIG
YBBN,2011-02-02 10:30,153.1292,-27.3917,78.80,75.20,88.75,40.00,9.00,M,30.06,M,6.21,M,FEW,SCT,M,M,1200.00,1500.00,M,M,M,YBBN 021030Z 04009KT 9999 FEW012 SCT015 26/24 Q1018 RMK SMOKE/HAZE INTER 1300/1330 3000 SHRA BKN010
YBBN,2011-02-02 11:00,153.1292,-27.3917,80.60,75.20,83.66,40.00,9.00,M,30.06,M,6.21,M,FEW,SCT,M,M,1200.00,1500.00,M,M,VCSH,YBBN 021100Z 04009KT 9999 VCSH FEW012 SCT015 27/24 Q1018 RMK SH W/SMOKE/HAZE INTER 1300/1400 3000 SHRA BKN010
YBBN,2011-02-02 11:30,153.1292,-27.3917,78.80,75.20,88.75,30.00,9.00,M,30.06,M,6.21,M,FEW,SCT,M,M,1200.00,1500.00,M,M,VCSH,YBBN 021130Z 03009KT 9999 VCSH FEW012 SCT015 26/24 Q1018 RMK SH SW/SMOKE/HAZE INTER 1300/1430 3000 SHRA BKN010
YBBN,2011-02-02 12:00,153.1292,-27.3917,78.80,75.20,88.75,40.00,9.00,M,30.06,M,6.21,M,FEW,SCT,M,M,1200.00,1500.00,M,M,VCSH,YBBN 021200Z 04009KT 9999 VCSH FEW012 SCT015 26/24 Q1018 RMK SMOKE/HAZE INTER 1300/1500 3000 SHRA BKN010
YBBN,2011-02-02 12:30,153.1292,-27.3917,78.80,75.20,88.75,40.00,8.00,M,30.06,M,6.21,M,FEW,SCT,M,M,1100.00,1500.00,M,M,M,YBBN 021230Z 04008KT 9999 FEW011 SCT015 26/24 Q1018 RMK SMOKE/HAZE INTER 1300/1530 3000 SHRA BKN010
YBBN,2011-02-02 13:00,153.1292,-27.3917,78.80,75.20,88.75,40.00,9.00,M,30.06,M,6.21,M,FEW,SCT,M,M,1000.00,1500.00,M,M,M,YBBN 021300Z 04009KT 9999 FEW010 SCT015 26/24 Q1018 RMK SMOKE/HAZE INTER 1300/1600 3000 SHRA BKN010
YBBN,2011-02-02 13:30,153.1292,-27.3917,78.80,75.20,88.75,40.00,8.00,M,30.03,M,6.21,M,FEW,SCT,M,M,1000.00,1500.00,M,M,M,YBBN 021330Z 04008KT 9999 FEW010 SCT015 26/24 Q1017 RMK SMOKE/HAZE INTER 1330/1630 3000 SHRA BKN010
YBBN,2011-02-02 14:00,153.1292,-27.3917,78.80,75.20,88.75,40.00,8.00,M,30.03,M,6.21,M,FEW,SCT,M,M,900.00,1500.00,M,M,M,YBBN 021400Z 04008KT 9999 FEW009 SCT015 26/24 Q1017 RMK SMOKE/HAZE INTER 1400/1700 3000 SHRA BKN010
YBBN,2011-02-02 14:30,153.1292,-27.3917,78.80,75.20,88.75,30.00,9.00,M,30.03,M,6.21,M,FEW,M,M,M,1000.00,M,M,M,M,YBBN 021430Z 03009KT 9999 FEW010 26/24 Q1017 RMK SMOKE/HAZE INTER 1430/1730 3000 SHRA BKN010
YBBN,2011-02-02 15:00,153.1292,-27.3917,78.80,75.20,88.75,40.00,7.00,M,30.00,M,6.21,M,FEW,M,M,M,1000.00,M,M,M,M,YBBN 021500Z 04007KT 9999 FEW010 26/24 Q1016 RMK HAZE INTER 1500/1800 3000 SHRA BKN010
YBBN,2011-02-02 15:30,153.1292,-27.3917,78.80,75.20,88.75,40.00,7.00,M,30.00,M,6.21,M,FEW,SCT,M,M,1100.00,1500.00,M,M,M,YBBN 021530Z 04007KT 9999 FEW011 SCT015 26/24 Q1016 RMK HZ INTER 1530/1830 3000 SHRA BKN010
YBBN,2011-02-02 16:00,153.1292,-27.3917,78.80,75.20,88.75,40.00,7.00,M,30.00,M,6.21,M,FEW,SCT,M,M,1100.00,1500.00,M,M,M,YBBN 021600Z 04007KT 9999 FEW011 SCT015 26/24 Q1016 RMK HZ/FU INTER 1600/1900 3000 SHRA BKN010
YBBN,2011-02-02 16:30,153.1292,-27.3917,78.80,75.20,88.75,60.00,5.00,M,30.00,M,6.21,M,FEW,M,M,M,1000.00,M,M,M,M,YBBN 021630Z 06005KT 9999 FEW010 26/24 Q1016 RMK DIST SH SE/HZ/FU INTER 1630/1930 3000 SHRA BKN010
YBBN,2011-02-02 17:00,153.1292,-27.3917,77.00,73.40,88.67,50.00,6.00,M,30.00,M,6.21,M,FEW,M,M,M,1000.00,M,M,M,VCSH,YBBN 021700Z 05006KT 9999 VCSH FEW010 25/23 Q1016 RMK SH SE/HZ/FU INTER 1700/2000 3000 SHRA BKN010
YBBN,2011-02-02 17:30,153.1292,-27.3917,77.00,73.40,88.67,50.00,7.00,M,30.00,M,6.21,M,FEW,SCT,M,M,1000.00,3600.00,M,M,VCSH,YBBN 021730Z 05007KT 9999 VCSH FEW010 SCT036 25/23 Q1016 RMK SH EAST/HZ/FU INTER 1730/2030 3000 SHRA BKN010
YBBN,2011-02-02 18:00,153.1292,-27.3917,77.00,73.40,88.67,40.00,6.00,M,30.00,M,6.21,M,FEW,SCT,M,M,800.00,4000.00,M,M,VCSH,YBBN 021800Z 04006KT 9999 VCSH FEW008 SCT040 25/23 Q1016 RMK SH EAST/HZ/FU INTER 1800/2100 3000 SHRA BKN010
YBBN,2011-02-02 18:30,153.1292,-27.3917,77.00,73.40,88.67,40.00,4.00,M,30.00,M,4.97,M,FEW,BKN,M,M,800.00,4000.00,M,M,-SHRA VCSH,YBBN 021830Z 04004KT 8000 -SHRA VCSH FEW008 BKN040 25/23 Q1016 RMK SH SE/HZ INTER 1830/2130 3000 SHRA BKN010
YBBN,2011-02-02 19:00,153.1292,-27.3917,77.00,73.40,88.67,40.00,4.00,M,30.00,M,6.21,M,FEW,SCT,M,M,800.00,1500.00,M,M,VCSH,YBBN 021900Z 04004KT 9999 VCSH FEW008 SCT015 25/23 Q1016 RMK SH SE/HZ INTER 1900/2200 3000 SHRA BKN010
YBBN,2011-02-02 19:30,153.1292,-27.3917,78.80,75.20,88.75,70.00,2.00,M,30.03,M,6.21,M,FEW,SCT,M,M,1000.00,1500.00,M,M,VCSH,YBBN 021930Z 07002KT 9999 VCSH FEW010 SCT015 26/24 Q1017 RMK SH NE AND S/HZ INTER 1930/2230 3000 SHRA BKN010
YBBN,2011-02-02 19:51,153.1292,-27.3917,78.80,75.20,88.75,50.00,5.00,M,30.03,M,3.73,M,FEW,BKN,M,M,1000.00,1500.00,M,M,-SHRA VCSH,YBBN 021951Z 05005KT 6000 -SHRA VCSH FEW010 BKN015 26/24 Q1017 RMK SH N/HZ FM2030 05010KT 9999 -SHRA SCT015 BKN030 INTER 1951/2251 3000 SHRA BKN010
YBBN,2011-02-02 20:00,153.1292,-27.3917,78.80,75.20,88.75,50.00,6.00,M,30.03,M,3.11,M,FEW,SCT,BKN,FEW,1000.00,1600.00,5800.00,1900.00,-SHRA VCSH,YBBN 022000Z 05006KT 5000 -SHRA VCSH FEW010 SCT016 BKN058 FEW019TCU 26/24 Q1017 RMK SH N/HZ FM2030 05010KT 9999 -SHRA SCT015 BKN030 INTER 2000/2300 3000 SHRA BKN010
