#DEBUG: Format Typ    -> comma
#DEBUG: Time Period   -> 2014-01-20 00:00:00+00:00 2014-01-21 00:00:00+00:00
#DEBUG: Time Zone     -> Etc/UTC
#DEBUG: Data Contact   -> daryl herzmann akrherz@iastate.edu 515-294-5978
#DEBUG: Entries Found -> -1
station,valid,lon,lat,tmpf, dwpf, relh, drct, sknt, p01i, alti, mslp, vsby, gust, skyc1, skyc2, skyc3, skyc4, skyl1, skyl2, skyl3, skyl4, presentwx, metar
YBBN,2014-01-20 00:00,153.1292,-27.3917,82.40,68.00,61.81,10.00,11.00,0.00,29.77,M,6.21,M,FEW,M,M,M,3400.00,M,M,M,M,YBBN 200000Z 01011KT 9999 FEW034 28/20 Q1008 NOSIG
YBBN,2014-01-20 00:30,153.1292,-27.3917,84.20,68.00,58.32,20.00,9.00,0.00,29.77,M,6.21,M,FEW,M,M,M,3400.00,M,M,M,M,YBBN 200030Z 02009KT 9999 FEW034 29/20 Q1008
YBBN,2014-01-20 01:00,153.1292,-27.3917,84.20,68.00,58.32,20.00,11.00,0.00,29.77,M,6.21,M,FEW,M,M,M,3500.00,M,M,M,M,YBBN 200100Z 02011KT 9999 FEW035 29/20 Q1008
YBBN,2014-01-20 01:30,153.1292,-27.3917,84.20,66.20,54.80,40.00,11.00,0.00,29.77,M,6.21,M,FEW,M,M,M,3500.00,M,M,M,M,YBBN 200130Z 04011KT 9999 FEW035 29/19 Q1008
YBBN,2014-01-20 02:00,153.1292,-27.3917,84.20,66.20,54.80,40.00,13.00,0.00,29.77,M,6.21,M,FEW,M,M,M,3500.00,M,M,M,M,YBBN 200200Z 04013KT 9999 FEW035 29/19 Q1008 NOSIG
YBBN,2014-01-20 02:30,153.1292,-27.3917,86.00,66.20,51.72,40.00,11.00,0.00,29.74,M,6.21,M,FEW,M,M,M,3800.00,M,M,M,M,YBBN 200230Z 04011KT 9999 FEW038 30/19 Q1007
YBBN,2014-01-20 03:00,153.1292,-27.3917,87.80,64.40,45.88,30.00,13.00,0.00,29.74,M,6.21,M,FEW,M,M,M,3800.00,M,M,M,M,YBBN 200300Z 03013KT 9999 FEW038 31/18 Q1007 NOSIG
YBBN,2014-01-20 03:30,153.1292,-27.3917,87.80,64.40,45.88,50.00,12.00,0.00,29.74,M,6.21,M,FEW,M,M,M,3800.00,M,M,M,M,YBBN 200330Z 05012KT 9999 FEW038 31/18 Q1007
YBBN,2014-01-20 04:00,153.1292,-27.3917,87.80,64.40,45.88,50.00,12.00,0.00,29.71,M,6.21,M,FEW,M,M,M,3800.00,M,M,M,M,YBBN 200400Z 05012KT 9999 FEW038 31/18 Q1006 NOSIG
YBBN,2014-01-20 04:30,153.1292,-27.3917,87.80,68.00,51.98,40.00,15.00,0.00,29.71,M,6.21,M,FEW,M,M,M,4000.00,M,M,M,M,YBBN 200430Z 04015KT 9999 FEW040 31/20 Q1006
YBBN,2014-01-20 05:00,153.1292,-27.3917,84.20,69.80,62.03,10.00,13.00,0.00,29.71,M,6.21,M,FEW,M,M,M,4000.00,M,M,M,M,YBBN 200500Z 01013KT 9999 FEW040 29/21 Q1006 NOSIG
YBBN,2014-01-20 05:30,153.1292,-27.3917,82.40,71.60,69.90,10.00,17.00,0.00,29.68,M,6.21,M,FEW,M,M,M,4000.00,M,M,M,M,YBBN 200530Z 01017KT 9999 FEW040 28/22 Q1005
YBBN,2014-01-20 06:00,153.1292,-27.3917,82.40,71.60,69.90,10.00,16.00,0.00,29.68,M,6.21,M,FEW,M,M,M,2000.00,M,M,M,M,YBBN 200600Z 01016KT 9999 FEW020 28/22 Q1005 NOSIG
YBBN,2014-01-20 06:30,153.1292,-27.3917,82.40,71.60,69.90,10.00,16.00,0.00,29.68,M,6.21,M,FEW,M,M,M,2000.00,M,M,M,M,YBBN 200630Z 01016KT 9999 FEW020 28/22 Q1005
YBBN,2014-01-20 07:00,153.1292,-27.3917,80.60,71.60,74.11,10.00,16.00,0.00,29.71,M,6.21,M,FEW,M,M,M,2000.00,M,M,M,M,YBBN 200700Z 01016KT 9999 FEW020 27/22 Q1006 NOSIG
YBBN,2014-01-20 07:30,153.1292,-27.3917,80.60,71.60,74.11,10.00,17.00,0.00,29.71,M,6.21,M,FEW,M,M,M,2000.00,M,M,M,M,YBBN 200730Z 01017KT 9999 FEW020 27/22 Q1006
YBBN,2014-01-20 08:00,153.1292,-27.3917,78.80,69.80,73.95,10.00,17.00,0.00,29.71,M,6.21,M,FEW,M,M,M,2000.00,M,M,M,M,YBBN 200800Z 01017KT 9999 FEW020 26/21 Q1006
YBBN,2014-01-20 08:30,153.1292,-27.3917,78.80,71.60,78.62,20.00,17.00,0.00,29.71,M,6.21,M,FEW,SCT,M,M,1800.00,30000.00,M,M,M,YBBN 200830Z 02017KT 9999 FEW018 SCT300 26/22 Q1006 RMK HZ
YBBN,2014-01-20 09:00,153.1292,-27.3917,78.80,71.60,78.62,10.00,16.00,0.00,29.74,M,6.21,M,FEW,BKN,M,M,1400.00,1600.00,M,M,M,YBBN 200900Z 01016KT 9999 FEW014 BKN016 26/22 Q1007 NOSIG
YBBN,2014-01-20 09:30,153.1292,-27.3917,78.80,71.60,78.62,10.00,15.00,0.00,29.74,M,6.21,M,FEW,BKN,M,M,1500.00,1700.00,M,M,M,YBBN 200930Z 01015KT 9999 FEW015 BKN017 26/22 Q1007 RMK HZ
YBBN,2014-01-20 10:00,153.1292,-27.3917,78.80,71.60,78.62,10.00,16.00,0.00,29.77,M,6.21,M,FEW,BKN,M,M,1500.00,1700.00,M,M,M,YBBN 201000Z 01016KT 9999 FEW015 BKN017 26/22 Q1008 NOSIG
YBBN,2014-01-20 10:30,153.1292,-27.3917,78.80,71.60,78.62,360.00,19.00,0.00,29.77,M,6.21,M,FEW,BKN,M,M,1600.00,1800.00,M,M,M,YBBN 201030Z 36019KT 9999 FEW016 BKN018 26/22 Q1008 RMK HZ
YBBN,2014-01-20 11:00,153.1292,-27.3917,78.80,71.60,78.62,360.00,17.00,0.00,29.77,M,6.21,M,FEW,BKN,M,M,1600.00,1800.00,M,M,M,YBBN 201100Z 36017KT 9999 FEW016 BKN018 26/22 Q1008
YBBN,2014-01-20 11:30,153.1292,-27.3917,78.80,71.60,78.62,360.00,16.00,0.00,29.77,M,6.21,M,FEW,BKN,M,M,1500.00,1800.00,M,M,M,YBBN 201130Z 36016KT 9999 FEW015 BKN018 26/22 Q1008 RMK HZ
YBBN,2014-01-20 12:00,153.1292,-27.3917,78.80,71.60,78.62,360.00,13.00,0.00,29.77,M,6.21,M,FEW,BKN,M,M,1400.00,1800.00,M,M,M,YBBN 201200Z 36013KT 9999 FEW014 BKN018 26/22 Q1008
YBBN,2014-01-20 12:30,153.1292,-27.3917,78.80,71.60,78.62,10.00,11.00,0.00,29.80,M,6.21,M,FEW,SCT,BKN,M,1300.00,1600.00,1800.00,M,M,YBBN 201230Z 01011KT 9999 FEW013 SCT016 BKN018 26/22 Q1009 RMK HZ
YBBN,2014-01-20 13:00,153.1292,-27.3917,78.80,71.60,78.62,10.00,13.00,0.00,29.80,M,6.21,M,FEW,SCT,BKN,M,1300.00,1600.00,1800.00,M,M,YBBN 201300Z 01013KT 9999 FEW013 SCT016 BKN018 26/22 Q1009 NOSIG
YBBN,2014-01-20 13:30,153.1292,-27.3917,78.80,71.60,78.62,10.00,13.00,0.00,29.80,M,6.21,M,FEW,SCT,M,M,1400.00,1700.00,M,M,M,YBBN 201330Z 01013KT 9999 FEW014 SCT017 26/22 Q1009 RMK HZ
YBBN,2014-01-20 14:00,153.1292,-27.3917,78.80,71.60,78.62,360.00,11.00,0.00,29.80,M,6.21,M,FEW,BKN,M,M,1400.00,1700.00,M,M,M,YBBN 201400Z 36011KT 9999 FEW014 BKN017 26/22 Q1009
YBBN,2014-01-20 14:30,153.1292,-27.3917,77.00,71.60,83.44,10.00,11.00,0.00,29.80,M,6.21,M,FEW,BKN,M,M,1400.00,1700.00,M,M,M,YBBN 201430Z 01011KT 9999 FEW014 BKN017 25/22 Q1009 RMK HZ
YBBN,2014-01-20 15:00,153.1292,-27.3917,77.00,71.60,83.44,10.00,15.00,0.00,29.74,M,6.21,M,FEW,SCT,M,M,1300.00,1700.00,M,M,M,YBBN 201500Z 01015KT 9999 FEW013 SCT017 25/22 Q1007 NOSIG
YBBN,2014-01-20 15:30,153.1292,-27.3917,77.00,71.60,83.44,10.00,13.00,0.00,29.74,M,6.21,M,FEW,M,M,M,1500.00,M,M,M,M,YBBN 201530Z 01013KT 9999 FEW015 25/22 Q1007
YBBN,2014-01-20 16:00,153.1292,-27.3917,77.00,69.80,78.48,360.00,15.00,0.00,29.74,M,6.21,M,FEW,M,M,M,1500.00,M,M,M,M,YBBN 201600Z 36015KT 9999 FEW015 25/21 Q1007 NOSIG
YBBN,2014-01-20 16:30,153.1292,-27.3917,77.00,69.80,78.48,360.00,14.00,0.00,29.74,M,6.21,M,FEW,M,M,M,1900.00,M,M,M,M,YBBN 201630Z 36014KT 9999 FEW019 25/21 Q1007
YBBN,2014-01-20 17:00,153.1292,-27.3917,77.00,69.80,78.48,350.00,13.00,0.00,29.74,M,6.21,M,FEW,SCT,M,M,1900.00,15000.00,M,M,M,YBBN 201700Z 35013KT 9999 FEW019 SCT150 25/21 Q1007 NOSIG
YBBN,2014-01-20 17:30,153.1292,-27.3917,77.00,69.80,78.48,340.00,9.00,0.00,29.74,M,6.21,M,FEW,SCT,M,M,1800.00,14500.00,M,M,M,YBBN 201730Z 34009KT 9999 FEW018 SCT145 25/21 Q1007
YBBN,2014-01-20 18:00,153.1292,-27.3917,75.20,69.80,83.32,340.00,9.00,0.00,29.77,M,6.21,M,FEW,M,M,M,1800.00,M,M,M,M,YBBN 201800Z 34009KT 9999 FEW018 24/21 Q1008 NOSIG
YBBN,2014-01-20 18:30,153.1292,-27.3917,73.40,69.80,88.51,310.00,5.00,0.00,29.77,M,6.21,M,FEW,M,M,M,1800.00,M,M,M,M,YBBN 201830Z 31005KT 9999 FEW018 23/21 Q1008 RMK FU
YBBN,2014-01-20 19:00,153.1292,-27.3917,73.40,69.80,88.51,310.00,5.00,0.00,29.77,M,6.21,M,FEW,M,M,M,1800.00,M,M,M,M,YBBN 201900Z 31005KT 9999 FEW018 23/21 Q1008 NOSIG
YBBN,2014-01-20 19:30,153.1292,-27.3917,73.40,69.80,88.51,330.00,4.00,0.00,29.80,M,6.21,M,FEW,M,M,M,1800.00,M,M,M,M,YBBN 201930Z 33004KT 9999 FEW018 23/21 Q1009
YBBN,2014-01-20 20:00,153.1292,-27.3917,75.20,69.80,83.32,340.00,9.00,0.00,29.80,M,6.21,M,FEW,M,M,M,1800.00,M,M,M,M,YBBN 202000Z 34009KT 9999 FEW018 24/21 Q1009 NOSIG
YBBN,2014-01-20 20:30,153.1292,-27.3917,77.00,71.60,83.44,340.00,9.00,0.00,29.80,M,6.21,M,FEW,M,M,M,1800.00,M,M,M,M,YBBN 202030Z 34009KT 9999 FEW018 25/22 Q1009
YBBN,2014-01-20 21:00,153.1292,-27.3917,77.00,69.80,78.48,330.00,9.00,0.00,29.83,M,6.21,M,FEW,M,M,M,2000.00,M,M,M,M,YBBN 202100Z 33009KT 9999 FEW020 25/21 Q1010 NOSIG
YBBN,2014-01-20 21:30,153.1292,-27.3917,78.80,69.80,73.95,350.00,9.00,0.00,29.83,M,6.21,M,FEW,M,M,M,2200.00,M,M,M,M,YBBN 202130Z 35009KT 9999 FEW022 26/21 Q1010
YBBN,2014-01-20 22:00,153.1292,-27.3917,80.60,68.00,65.54,350.00,7.00,0.00,29.83,M,6.21,M,FEW,M,M,M,2200.00,M,M,M,M,YBBN 202200Z 35007KT 9999 FEW022 27/20 Q1010 FM0001 01014KT CAVOK
YBBN,2014-01-20 22:30,153.1292,-27.3917,80.60,69.80,69.71,10.00,8.00,0.00,29.83,M,6.21,M,FEW,M,M,M,2200.00,M,M,M,M,YBBN 202230Z 01008KT 9999 FEW022 27/21 Q1010
YBBN,2014-01-20 23:00,153.1292,-27.3917,82.40,69.80,65.74,10.00,10.00,0.00,29.80,M,6.21,M,FEW,M,M,M,2500.00,M,M,M,M,YBBN 202300Z 01010KT 9999 FEW025 28/21 Q1009 NOSIG
YBBN,2014-01-20 23:30,153.1292,-27.3917,82.40,68.00,61.81,10.00,10.00,0.00,29.80,M,6.21,M,FEW,M,M,M,2800.00,M,M,M,M,YBBN 202330Z 01010KT 9999 FEW028 28/20 Q1009
