#DEBUG: Format Typ    -> comma
#DEBUG: Time Period   -> 2014-06-02 00:00:00+00:00 2014-06-03 00:00:00+00:00
#DEBUG: Time Zone     -> Etc/UTC
#DEBUG: Data Contact   -> daryl herzmann akrherz@iastate.edu 515-294-5978
#DEBUG: Entries Found -> -1
station,valid,lon,lat,tmpf, dwpf, relh, drct, sknt, p01i, alti, mslp, vsby, gust, skyc1, skyc2, skyc3, skyc4, skyl1, skyl2, skyl3, skyl4, presentwx, metar
YBBN,2014-06-02 00:00,153.1292,-27.3917,69.80,57.20,64.26,220.00,8.00,0.00,30.09,M,6.21,M,FEW,M,M,M,2000.00,M,M,M,M,YBBN 020000Z 22008KT 9999 FEW020 21/14 Q1019 NOSIG
YBBN,2014-06-02 00:30,153.1292,-27.3917,73.40,59.00,60.67,190.00,4.00,0.00,30.06,M,6.21,M,FEW,M,M,M,2000.00,M,M,M,M,YBBN 020030Z 19004KT 9999 FEW020 23/15 Q1018
YBBN,2014-06-02 01:00,153.1292,-27.3917,73.40,59.00,60.67,290.00,5.00,0.00,30.06,M,6.21,M,FEW,M,M,M,2400.00,M,M,M,M,YBBN 020100Z 29005KT 9999 FEW024 23/15 Q1018 NOSIG
YBBN,2014-06-02 01:30,153.1292,-27.3917,75.20,59.00,57.12,50.00,5.00,0.00,30.06,M,6.21,M,FEW,M,M,M,2400.00,M,M,M,M,YBBN 020130Z 05005KT 9999 FEW024 24/15 Q1018
YBBN,2014-06-02 02:00,153.1292,-27.3917,75.20,59.00,57.12,40.00,6.00,0.00,30.03,M,6.21,M,FEW,M,M,M,2800.00,M,M,M,M,YBBN 020200Z 04006KT 9999 FEW028 24/15 Q1017 NOSIG
YBBN,2014-06-02 02:30,153.1292,-27.3917,75.20,57.20,53.55,20.00,6.00,0.00,30.03,M,6.21,M,FEW,M,M,M,2800.00,M,M,M,M,YBBN 020230Z 02006KT 9999 FEW028 24/14 Q1017
YBBN,2014-06-02 03:00,153.1292,-27.3917,75.20,57.20,53.55,40.00,7.00,0.00,30.03,M,6.21,M,FEW,M,M,M,2800.00,M,M,M,M,YBBN 020300Z 04007KT 9999 FEW028 24/14 Q1017 NOSIG
YBBN,2014-06-02 03:30,153.1292,-27.3917,75.20,59.00,57.12,20.00,7.00,0.00,30.00,M,6.21,M,FEW,M,M,M,3200.00,M,M,M,M,YBBN 020330Z 02007KT 9999 FEW032 24/15 Q1016
YBBN,2014-06-02 04:00,153.1292,-27.3917,75.20,59.00,57.12,30.00,9.00,0.00,30.00,M,6.21,M,FEW,M,M,M,3500.00,M,M,M,M,YBBN 020400Z 03009KT 9999 FEW035 24/15 Q1016 NOSIG
YBBN,2014-06-02 04:30,153.1292,-27.3917,75.20,59.00,57.12,40.00,7.00,0.00,30.00,M,6.21,M,FEW,SCT,M,M,3500.00,30000.00,M,M,M,YBBN 020430Z 04007KT 9999 FEW035 SCT300 24/15 Q1016
YBBN,2014-06-02 05:00,153.1292,-27.3917,73.40,59.00,60.67,40.00,9.00,0.00,30.00,M,6.21,M,FEW,SCT,M,M,3500.00,30000.00,M,M,M,YBBN 020500Z 04009KT 9999 FEW035 SCT300 23/15 Q1016 NOSIG
YBBN,2014-06-02 05:30,153.1292,-27.3917,73.40,60.80,64.69,40.00,9.00,0.00,30.00,M,6.21,M,FEW,M,M,M,3500.00,M,M,M,M,YBBN 020530Z 04009KT 9999 FEW035 23/16 Q1016
YBBN,2014-06-02 06:00,153.1292,-27.3917,71.60,60.80,68.75,40.00,8.00,0.00,30.00,M,6.21,M,FEW,M,M,M,3500.00,M,M,M,M,YBBN 020600Z 04008KT 9999 FEW035 22/16 Q1016 NOSIG
YBBN,2014-06-02 06:30,153.1292,-27.3917,71.60,60.80,68.75,50.00,8.00,0.00,30.00,M,6.21,M,FEW,M,M,M,3200.00,M,M,M,M,YBBN 020630Z 05008KT 9999 FEW032 22/16 Q1016
YBBN,2014-06-02 07:00,153.1292,-27.3917,69.80,62.60,77.90,50.00,6.00,0.00,30.03,M,6.21,M,FEW,M,M,M,3000.00,M,M,M,M,YBBN 020700Z 05006KT 9999 FEW030 21/17 Q1017 NOSIG
YBBN,2014-06-02 07:30,153.1292,-27.3917,66.20,62.60,88.18,20.00,7.00,0.00,30.03,M,6.21,M,FEW,M,M,M,2800.00,M,M,M,M,YBBN 020730Z 02007KT 9999 FEW028 19/17 Q1017
YBBN,2014-06-02 08:00,153.1292,-27.3917,68.00,62.60,82.86,30.00,7.00,0.00,30.03,M,6.21,M,FEW,M,M,M,2800.00,M,M,M,M,YBBN 020800Z 03007KT 9999 FEW028 20/17 Q1017 NOSIG
YBBN,2014-06-02 08:30,153.1292,-27.3917,66.20,62.60,88.18,30.00,6.00,0.00,30.03,M,6.21,M,FEW,M,M,M,2800.00,M,M,M,M,YBBN 020830Z 03006KT 9999 FEW028 19/17 Q1017
YBBN,2014-06-02 09:00,153.1292,-27.3917,66.20,62.60,88.18,10.00,4.00,0.00,30.03,M,6.21,M,FEW,M,M,M,3700.00,M,M,M,M,YBBN 020900Z 01004KT 9999 FEW037 19/17 Q1017 NOSIG
YBBN,2014-06-02 09:30,153.1292,-27.3917,66.20,62.60,88.18,360.00,7.00,0.00,30.03,M,6.21,M,FEW,M,M,M,3700.00,M,M,M,M,YBBN 020930Z 36007KT 9999 FEW037 19/17 Q1017
YBBN,2014-06-02 10:00,153.1292,-27.3917,66.20,64.40,93.92,10.00,4.00,0.00,30.06,M,6.21,M,FEW,SCT,M,M,3500.00,10700.00,M,M,M,YBBN 021000Z 01004KT 9999 FEW035 SCT107 19/18 Q1018 NOSIG
YBBN,2014-06-02 10:30,153.1292,-27.3917,66.20,64.40,93.92,300.00,5.00,0.00,30.06,M,6.21,M,FEW,SCT,M,M,3500.00,10500.00,M,M,M,YBBN 021030Z 30005KT 9999 FEW035 SCT105 19/18 Q1018
YBBN,2014-06-02 11:00,153.1292,-27.3917,66.20,62.60,88.18,280.00,4.00,0.00,30.06,M,6.21,M,FEW,M,M,M,4000.00,M,M,M,M,YBBN 021100Z 28004KT 9999 FEW040 19/17 Q1018 NOSIG
YBBN,2014-06-02 11:30,153.1292,-27.3917,64.40,62.60,93.88,250.00,5.00,0.00,30.06,M,6.21,M,FEW,BKN,M,M,2500.00,14000.00,M,M,M,YBBN 021130Z 25005KT 9999 FEW025 BKN140 18/17 Q1018
YBBN,2014-06-02 12:00,153.1292,-27.3917,66.20,62.60,88.18,230.00,5.00,0.00,30.06,M,6.21,M,BKN,M,M,M,2000.00,M,M,M,M,YBBN 021200Z 23005KT 9999 BKN020 19/17 Q1018 NOSIG
YBBN,2014-06-02 12:30,153.1292,-27.3917,66.20,62.60,88.18,200.00,5.00,0.00,30.06,M,6.21,M,BKN,M,M,M,2000.00,M,M,M,M,YBBN 021230Z 20005KT 9999 BKN020 19/17 Q1018
YBBN,2014-06-02 13:00,153.1292,-27.3917,66.20,62.60,88.18,200.00,5.00,0.00,30.06,M,6.21,M,SCT,BKN,M,M,2000.00,24000.00,M,M,M,YBBN 021300Z 20005KT 9999 SCT020 BKN240 19/17 Q1018 NOSIG
YBBN,2014-06-02 13:30,153.1292,-27.3917,66.20,62.60,88.18,180.00,4.00,0.00,30.06,M,6.21,M,FEW,BKN,M,M,2000.00,4500.00,M,M,M,YBBN 021330Z 18004KT 9999 FEW020 BKN045 19/17 Q1018
YBBN,2014-06-02 14:00,153.1292,-27.3917,66.20,62.60,88.18,200.00,4.00,0.00,30.06,M,6.21,M,FEW,SCT,BKN,M,2000.00,4500.00,24000.00,M,M,YBBN 021400Z 20004KT 9999 FEW020 SCT045 BKN240 19/17 Q1018
YBBN,2014-06-02 14:30,153.1292,-27.3917,64.40,62.60,93.88,210.00,2.00,0.00,30.06,M,6.21,M,FEW,SCT,BKN,M,2000.00,4100.00,14000.00,M,M,YBBN 021430Z 21002KT 9999 FEW020 SCT041 BKN140 18/17 Q1018
YBBN,2014-06-02 15:00,153.1292,-27.3917,64.40,62.60,93.88,0.00,0.00,0.00,30.06,M,6.21,M,FEW,BKN,M,M,4100.00,27000.00,M,M,M,YBBN 021500Z 00000KT 9999 FEW041 BKN270 18/17 Q1018 NOSIG
YBBN,2014-06-02 15:30,153.1292,-27.3917,64.40,62.60,93.88,190.00,2.00,0.00,30.06,M,6.21,M,FEW,BKN,M,M,4100.00,27000.00,M,M,M,YBBN 021530Z 19002KT 9999 FEW041 BKN270 18/17 Q1018
YBBN,2014-06-02 16:00,153.1292,-27.3917,62.60,62.60,100.00,0.00,0.00,0.00,30.06,M,6.21,M,BKN,M,M,M,4100.00,M,M,M,M,YBBN 021600Z 00000KT 9999 BKN041 17/17 Q1018 NOSIG
YBBN,2014-06-02 16:30,153.1292,-27.3917,64.40,60.80,88.09,200.00,2.00,0.00,30.03,M,6.21,M,FEW,BKN,M,M,2600.00,4300.00,M,M,M,YBBN 021630Z 20002KT 9999 FEW026 BKN043 18/16 Q1017
YBBN,2014-06-02 17:00,153.1292,-27.3917,62.60,62.60,100.00,0.00,0.00,0.00,30.03,M,6.21,M,FEW,BKN,M,M,4500.00,30000.00,M,M,M,YBBN 021700Z 00000KT 9999 FEW045 BKN300 17/17 Q1017 NOSIG
YBBN,2014-06-02 17:30,153.1292,-27.3917,62.60,60.80,93.83,240.00,2.00,0.00,30.03,M,6.21,M,FEW,BKN,M,M,4500.00,30000.00,M,M,MIFG,YBBN 021730Z 24002KT 9999 MIFG FEW045 BKN300 17/16 Q1017
YBBN,2014-06-02 18:00,153.1292,-27.3917,62.60,60.80,93.83,270.00,3.00,0.00,30.03,M,6.21,M,FEW,BKN,M,M,4500.00,30000.00,M,M,MIFG,YBBN 021800Z 27003KT 9999 MIFG FEW045 BKN300 17/16 Q1017
YBBN,2014-06-02 18:30,153.1292,-27.3917,60.80,60.80,100.00,260.00,4.00,0.00,30.03,M,6.21,M,FEW,SCT,M,M,4500.00,24000.00,M,M,MIFG,YBBN 021830Z 26004KT 9999 MIFG FEW045 SCT240 16/16 Q1017
YBBN,2014-06-02 19:00,153.1292,-27.3917,60.80,60.80,100.00,180.00,3.00,0.00,30.03,M,6.21,M,FEW,M,M,M,4500.00,M,M,M,MIFG,YBBN 021900Z 18003KT 9999 MIFG FEW045 16/16 Q1017
YBBN,2014-06-02 19:30,153.1292,-27.3917,60.80,60.80,100.00,170.00,1.00,0.00,30.06,M,6.21,M,FEW,M,M,M,4500.00,M,M,M,MIFG,YBBN 021930Z 17001KT 9999 MIFG FEW045 16/16 Q1018
YBBN,2014-06-02 20:00,153.1292,-27.3917,62.60,60.80,93.83,190.00,5.00,0.00,30.06,M,6.21,M,SCT,M,M,M,4500.00,M,M,M,FG,YBBN 022000Z 19005KT 9999 0900S FG SCT045 17/16 Q1018
YBBN,2014-06-02 20:08,153.1292,-27.3917,62.60,60.80,93.83,190.00,5.00,0.00,30.06,M,0.31,M,BKN,M,M,M,4500.00,M,M,M,FG,YBBN 022008Z 19005KT 0500 FG BKN045 17/16 Q1018
YBBN,2014-06-02 20:30,153.1292,-27.3917,62.60,60.80,93.83,200.00,6.00,0.00,30.06,M,0.43,M,VV ,M,M,M,M,M,M,M,FG,YBBN 022030Z 20006KT 0700 FG VV/// 17/16 Q1018
YBBN,2014-06-02 20:38,153.1292,-27.3917,62.60,60.80,93.83,200.00,6.00,0.00,30.06,M,0.62,M,M,M,M,M,M,M,M,M,FG,YBBN 022038Z 20006KT 1000 FG 17/16 Q1018
YBBN,2014-06-02 20:44,153.1292,-27.3917,62.60,62.60,100.00,200.00,7.00,0.00,30.06,M,1.24,M,M,M,M,M,M,M,M,M,FG,YBBN 022044Z 20007KT 2000 FG 17/17 Q1018
YBBN,2014-06-02 21:00,153.1292,-27.3917,62.60,62.60,100.00,200.00,7.00,0.00,30.06,M,1.55,M,M,M,M,M,M,M,M,M,FG,YBBN 022100Z 20007KT 2500 FG 17/17 Q1018
YBBN,2014-06-02 21:14,153.1292,-27.3917,62.60,62.60,100.00,190.00,7.00,0.00,30.06,M,0.62,M,M,M,M,M,M,M,M,M,FG,YBBN 022114Z 19007KT 1000 FG 17/17 Q1018
YBBN,2014-06-02 21:24,153.1292,-27.3917,62.60,62.60,100.00,190.00,5.00,0.00,30.06,M,1.55,M,M,M,M,M,M,M,M,M,BR BCFG,YBBN 022124Z 19005KT 2500 BR BCFG 17/17 Q1018
YBBN,2014-06-02 21:30,153.1292,-27.3917,62.60,62.60,100.00,190.00,4.00,0.00,30.06,M,1.55,M,BKN,M,M,M,100.00,M,M,M,BR BCFG,YBBN 022130Z 19004KT 2500 BR BCFG BKN001 17/17 Q1018
YBBN,2014-06-02 21:46,153.1292,-27.3917,62.60,62.60,100.00,190.00,5.00,0.00,30.09,M,2.17,M,BKN,SCT,M,M,100.00,4500.00,M,M,BR BCFG,YBBN 022146Z 19005KT 3500 BR BCFG BKN001 SCT045 17/17 Q1019
YBBN,2014-06-02 22:00,153.1292,-27.3917,64.40,62.60,93.88,210.00,5.00,0.00,30.09,M,3.11,M,BKN,SCT,M,M,100.00,4500.00,M,M,BR,YBBN 022200Z 21005KT 5000 BR BKN001 SCT045 18/17 Q1019
YBBN,2014-06-02 22:30,153.1292,-27.3917,64.40,62.60,93.88,200.00,7.00,0.00,30.09,M,4.35,M,BKN,BKN,M,M,300.00,4700.00,M,M,M,YBBN 022230Z 20007KT 7000 BKN003 BKN047 18/17 Q1019
YBBN,2014-06-02 22:53,153.1292,-27.3917,66.20,62.60,88.18,210.00,5.00,0.00,30.09,M,4.97,M,SCT,SCT,M,M,400.00,13000.00,M,M,M,YBBN 022253Z 21005KT 8000 SCT004 SCT130 19/17 Q1019
YBBN,2014-06-02 23:00,153.1292,-27.3917,66.20,62.60,88.18,210.00,6.00,0.00,30.09,M,4.97,M,SCT,SCT,M,M,400.00,13000.00,M,M,M,YBBN 022300Z 21006KT 8000 SCT004 SCT130 19/17 Q1019
YBBN,2014-06-02 23:30,153.1292,-27.3917,68.00,62.60,82.86,210.00,7.00,0.00,30.09,M,6.21,M,FEW,SCT,M,M,500.00,13000.00,M,M,M,YBBN 022330Z 21007KT 9999 FEW005 SCT130 20/17 Q1019 RMK HZ
