#DEBUG: Format Typ    -> comma
#DEBUG: Time Period   -> 2013-03-26 00:00:00+00:00 2013-03-27 00:00:00+00:00
#DEBUG: Time Zone     -> Etc/UTC
#DEBUG: Data Contact   -> daryl herzmann akrherz@iastate.edu 515-294-5978
#DEBUG: Entries Found -> -1
station,valid,lon,lat,tmpf, dwpf, relh, drct, sknt, p01i, alti, mslp, vsby, gust, skyc1, skyc2, skyc3, skyc4, skyl1, skyl2, skyl3, skyl4, presentwx, metar
YBBN,2013-03-26 00:00,153.1292,-27.3917,78.80,66.20,65.33,90.00,6.00,0.00,30.09,M,6.21,M,SCT,M,M,M,3000.00,M,M,M,M,YBBN 260000Z 09006KT 9999 SCT030 26/19 Q1019
YBBN,2013-03-26 00:30,153.1292,-27.3917,78.80,68.00,69.52,110.00,7.00,0.00,30.09,M,6.21,M,SCT,M,M,M,3000.00,M,M,M,M,YBBN 260030Z 11007KT 9999 SCT030 26/20 Q1019
YBBN,2013-03-26 01:00,153.1292,-27.3917,78.80,66.20,65.33,100.00,8.00,0.00,30.09,M,6.21,M,SCT,M,M,M,3000.00,M,M,M,M,YBBN 260100Z 10008KT 9999 SCT030 26/19 Q1019
YBBN,2013-03-26 01:30,153.1292,-27.3917,80.60,64.40,57.84,90.00,7.00,0.00,30.06,M,6.21,M,SCT,M,M,M,3000.00,M,M,M,M,YBBN 260130Z 09007KT 9999 SCT030 27/18 Q1018
YBBN,2013-03-26 02:00,153.1292,-27.3917,80.60,62.60,54.30,70.00,9.00,0.00,30.06,M,6.21,M,SCT,M,M,M,3300.00,M,M,M,M,YBBN 260200Z 07009KT 9999 SCT033 27/17 Q1018 NOSIG
YBBN,2013-03-26 02:30,153.1292,-27.3917,80.60,64.40,57.84,70.00,9.00,0.00,30.03,M,6.21,M,SCT,M,M,M,3500.00,M,M,M,M,YBBN 260230Z 07009KT 9999 SCT035 27/18 Q1017
YBBN,2013-03-26 03:00,153.1292,-27.3917,80.60,66.20,61.58,70.00,8.00,0.00,30.03,M,6.21,M,SCT,M,M,M,3500.00,M,M,M,M,YBBN 260300Z 07008KT 9999 SCT035 27/19 Q1017 NOSIG
YBBN,2013-03-26 03:30,153.1292,-27.3917,80.60,64.40,57.84,110.00,7.00,0.00,30.03,M,6.21,M,SCT,M,M,M,3500.00,M,M,M,M,YBBN 260330Z 11007KT 9999 SCT035 27/18 Q1017
YBBN,2013-03-26 04:00,153.1292,-27.3917,80.60,66.20,61.58,120.00,7.00,0.00,30.03,M,6.21,M,SCT,M,M,M,3500.00,M,M,M,M,YBBN 260400Z 12007KT 9999 SCT035 27/19 Q1017
YBBN,2013-03-26 04:30,153.1292,-27.3917,80.60,64.40,57.84,90.00,7.00,0.00,30.03,M,6.21,M,SCT,M,M,M,3500.00,M,M,M,M,YBBN 260430Z 09007KT 9999 SCT035 27/18 Q1017
YBBN,2013-03-26 05:00,153.1292,-27.3917,80.60,64.40,57.84,80.00,7.00,0.00,30.00,M,6.21,M,SCT,M,M,M,3500.00,M,M,M,M,YBBN 260500Z 08007KT 9999 SCT035 27/18 Q1016 NOSIG
YBBN,2013-03-26 05:30,153.1292,-27.3917,78.80,64.40,61.36,110.00,9.00,0.00,30.00,M,6.21,M,SCT,M,M,M,3500.00,M,M,M,M,YBBN 260530Z 11009KT 9999 SCT035 26/18 Q1016
YBBN,2013-03-26 06:00,153.1292,-27.3917,78.80,64.40,61.36,100.00,7.00,0.00,30.00,M,6.21,M,SCT,M,M,M,3500.00,M,M,M,M,YBBN 260600Z 10007KT 9999 SCT035 26/18 Q1016 NOSIG
YBBN,2013-03-26 06:30,153.1292,-27.3917,78.80,64.40,61.36,100.00,7.00,0.00,30.00,M,6.21,M,FEW,SCT,M,M,3500.00,30000.00,M,M,M,YBBN 260630Z 10007KT 9999 FEW035 SCT300 26/18 Q1016
YBBN,2013-03-26 07:00,153.1292,-27.3917,77.00,64.40,65.12,90.00,7.00,0.00,30.03,M,6.21,M,FEW,BKN,M,M,3000.00,30000.00,M,M,M,YBBN 260700Z 09007KT 9999 FEW030 BKN300 25/18 Q1017
YBBN,2013-03-26 07:30,153.1292,-27.3917,77.00,66.20,69.33,100.00,7.00,0.00,30.03,M,6.21,M,FEW,BKN,M,M,2800.00,30000.00,M,M,M,YBBN 260730Z 10007KT 9999 FEW028 BKN300 25/19 Q1017
YBBN,2013-03-26 08:00,153.1292,-27.3917,75.20,66.20,73.61,100.00,7.00,0.00,30.03,M,6.21,M,FEW,BKN,M,M,2800.00,30000.00,M,M,M,YBBN 260800Z 10007KT 9999 FEW028 BKN300 24/19 Q1017 NOSIG
YBBN,2013-03-26 08:30,153.1292,-27.3917,75.20,66.20,73.61,100.00,6.00,0.00,30.03,M,6.21,M,SCT,BKN,M,M,2700.00,30000.00,M,M,M,YBBN 260830Z 10006KT 9999 SCT027 BKN300 24/19 Q1017
YBBN,2013-03-26 09:00,153.1292,-27.3917,75.20,66.20,73.61,100.00,7.00,0.00,30.06,M,6.21,M,FEW,SCT,BKN,M,2000.00,2400.00,30000.00,M,M,YBBN 260900Z 10007KT 9999 FEW020 SCT024 BKN300 24/19 Q1018 NOSIG
YBBN,2013-03-26 09:30,153.1292,-27.3917,75.20,66.20,73.61,100.00,6.00,0.00,30.06,M,6.21,M,FEW,BKN,M,M,2000.00,30000.00,M,M,M,YBBN 260930Z 10006KT 9999 FEW020 BKN300 24/19 Q1018
YBBN,2013-03-26 10:00,153.1292,-27.3917,75.20,66.20,73.61,100.00,6.00,0.00,30.06,M,6.21,M,FEW,SCT,BKN,M,2000.00,2400.00,30000.00,M,M,YBBN 261000Z 10006KT 9999 FEW020 SCT024 BKN300 24/19 Q1018 NOSIG
YBBN,2013-03-26 10:30,153.1292,-27.3917,75.20,66.20,73.61,100.00,6.00,0.00,30.09,M,6.21,M,FEW,SCT,BKN,M,1900.00,2500.00,30000.00,M,M,YBBN 261030Z 10006KT 9999 FEW019 SCT025 BKN300 24/19 Q1019
YBBN,2013-03-26 11:00,153.1292,-27.3917,75.20,66.20,73.61,100.00,5.00,0.00,30.09,M,6.21,M,FEW,SCT,BKN,M,1900.00,2500.00,27000.00,M,M,YBBN 261100Z 10005KT 9999 FEW019 SCT025 BKN270 24/19 Q1019
YBBN,2013-03-26 11:30,153.1292,-27.3917,75.20,66.20,73.61,100.00,5.00,0.00,30.09,M,6.21,M,FEW,BKN,M,M,2000.00,27000.00,M,M,M,YBBN 261130Z 10005KT 9999 FEW020 BKN270 24/19 Q1019
YBBN,2013-03-26 12:00,153.1292,-27.3917,75.20,66.20,73.61,100.00,6.00,0.00,30.09,M,6.21,M,FEW,BKN,M,M,2400.00,27000.00,M,M,M,YBBN 261200Z 10006KT 9999 FEW024 BKN270 24/19 Q1019 NOSIG
YBBN,2013-03-26 12:30,153.1292,-27.3917,75.20,66.20,73.61,90.00,7.00,0.00,30.09,M,6.21,M,FEW,SCT,BKN,M,2000.00,22000.00,27000.00,M,M,YBBN 261230Z 09007KT 9999 FEW020 SCT220 BKN270 24/19 Q1019
YBBN,2013-03-26 13:00,153.1292,-27.3917,75.20,66.20,73.61,90.00,7.00,0.00,30.06,M,6.21,M,FEW,SCT,BKN,M,2000.00,22000.00,27000.00,M,M,YBBN 261300Z 09007KT 9999 FEW020 SCT220 BKN270 24/19 Q1018 NOSIG
YBBN,2013-03-26 13:30,153.1292,-27.3917,75.20,66.20,73.61,100.00,5.00,0.00,30.06,M,6.21,M,FEW,SCT,BKN,M,2000.00,22000.00,27000.00,M,M,YBBN 261330Z 10005KT 9999 FEW020 SCT220 BKN270 24/19 Q1018
YBBN,2013-03-26 14:00,153.1292,-27.3917,73.40,66.20,78.19,110.00,5.00,0.00,30.06,M,6.21,M,FEW,SCT,BKN,M,1900.00,23000.00,28000.00,M,M,YBBN 261400Z 11005KT 9999 FEW019 SCT230 BKN280 23/19 Q1018 NOSIG
YBBN,2013-03-26 14:30,153.1292,-27.3917,75.20,66.20,73.61,110.00,5.00,0.00,30.06,M,6.21,M,FEW,SCT,BKN,M,1900.00,24000.00,28000.00,M,M,YBBN 261430Z 11005KT 9999 FEW019 SCT240 BKN280 24/19 Q1018
YBBN,2013-03-26 15:00,153.1292,-27.3917,75.20,66.20,73.61,130.00,5.00,0.00,30.06,M,6.21,M,FEW,SCT,BKN,M,1900.00,25000.00,30000.00,M,M,YBBN 261500Z 13005KT 9999 FEW019 SCT250 BKN300 24/19 Q1018
YBBN,2013-03-26 15:30,153.1292,-27.3917,73.40,66.20,78.19,170.00,5.00,0.00,30.06,M,6.21,M,FEW,SCT,BKN,M,1600.00,3400.00,25000.00,M,VCSH,YBBN 261530Z 17005KT 9999 VCSH FEW016 SCT034 BKN250 23/19 Q1018 RMK SH NORTH
YBBN,2013-03-26 16:00,153.1292,-27.3917,71.60,66.20,83.09,200.00,5.00,0.00,30.06,M,6.21,M,FEW,SCT,BKN,M,1700.00,3400.00,25000.00,M,VCSH,YBBN 261600Z 20005KT 9999 VCSH FEW017 SCT034 BKN250 22/19 Q1018 NOSIG
YBBN,2013-03-26 16:30,153.1292,-27.3917,69.80,66.20,88.34,200.00,6.00,0.00,30.03,M,6.21,M,FEW,SCT,BKN,M,1800.00,2200.00,25000.00,M,VCSH,YBBN 261630Z 20006KT 9999 VCSH FEW018 SCT022 BKN250 21/19 Q1017
YBBN,2013-03-26 17:00,153.1292,-27.3917,71.60,68.00,88.43,200.00,5.00,0.00,30.03,M,4.97,M,FEW,BKN,M,M,1800.00,25000.00,M,M,-SHRA VCSH,YBBN 261700Z 20005KT 8000 -SHRA VCSH FEW018 BKN250 22/20 Q1017 NOSIG
YBBN,2013-03-26 17:08,153.1292,-27.3917,71.60,66.20,83.09,190.00,5.00,0.00,30.03,M,3.11,M,FEW,SCT,BKN,M,1800.00,2200.00,25000.00,M,-SHRA VCSH,YBBN 261708Z 19005KT 5000 -SHRA VCSH FEW018 SCT022 BKN250 22/19 Q1017
YBBN,2013-03-26 17:30,153.1292,-27.3917,69.80,68.00,94.01,170.00,5.00,0.00,30.03,M,5.59,M,FEW,SCT,BKN,M,1700.00,2000.00,25000.00,M,-SHRA VCSH,YBBN 261730Z 17005KT 9000 -SHRA VCSH FEW017 SCT020 BKN250 21/20 Q1017
YBBN,2013-03-26 18:00,153.1292,-27.3917,69.80,68.00,94.01,190.00,3.00,0.00,30.03,M,3.73,M,FEW,SCT,BKN,M,1600.00,2100.00,28000.00,M,-SHRA VCSH,YBBN 261800Z 19003KT 6000 -SHRA VCSH FEW016 SCT021 BKN280 21/20 Q1017
YBBN,2013-03-26 18:20,153.1292,-27.3917,71.60,68.00,88.43,150.00,3.00,0.00,30.03,M,5.59,M,FEW,SCT,BKN,M,1500.00,2200.00,8000.00,M,-SHRA VCSH,YBBN 261820Z 15003KT 9000 -SHRA VCSH FEW015 SCT022 BKN080 22/20 Q1017
YBBN,2013-03-26 18:30,153.1292,-27.3917,71.60,68.00,88.43,130.00,3.00,0.00,30.03,M,6.21,M,FEW,SCT,BKN,M,1600.00,2200.00,8300.00,M,-SHRA VCSH,YBBN 261830Z 13003KT 9999 -SHRA VCSH FEW016 SCT022 BKN083 22/20 Q1017
YBBN,2013-03-26 19:00,153.1292,-27.3917,69.80,68.00,94.01,170.00,4.00,0.00,30.06,M,6.21,M,FEW,SCT,BKN,M,1700.00,2300.00,24000.00,M,VCSH,YBBN 261900Z 17004KT 9999 VCSH FEW017 SCT023 BKN240 21/20 Q1018 INTER 1900/2200 3000 SHRA BKN014
YBBN,2013-03-26 19:30,153.1292,-27.3917,69.80,68.00,94.01,180.00,1.00,0.00,30.06,M,6.21,M,FEW,SCT,BKN,M,1800.00,2300.00,24000.00,M,M,YBBN 261930Z 18001KT 9999 FEW018 SCT023 BKN240 21/20 Q1018 RMK DIST SH WEST
YBBN,2013-03-26 20:00,153.1292,-27.3917,69.80,68.00,94.01,220.00,4.00,0.00,30.06,M,6.21,M,FEW,SCT,M,M,1800.00,2300.00,M,M,VCSH,YBBN 262000Z 22004KT 9999 VCSH FEW018 SCT023 21/20 Q1018 INTER 2000/2300 3000 SHRA BKN014
YBBN,2013-03-26 20:30,153.1292,-27.3917,69.80,68.00,94.01,200.00,4.00,0.00,30.09,M,6.21,M,FEW,SCT,M,M,1800.00,2200.00,M,M,VCSH,YBBN 262030Z 20004KT 9999 VCSH FEW018 SCT022 21/20 Q1019
YBBN,2013-03-26 21:00,153.1292,-27.3917,71.60,68.00,88.43,210.00,5.00,0.00,30.09,M,6.21,M,FEW,SCT,BKN,M,1800.00,2200.00,30000.00,M,VCSH,YBBN 262100Z 21005KT 9999 VCSH FEW018 SCT022 BKN300 22/20 Q1019
YBBN,2013-03-26 21:30,153.1292,-27.3917,71.60,69.80,94.06,200.00,5.00,0.00,30.09,M,6.21,M,FEW,SCT,M,M,1800.00,2200.00,M,M,VCSH,YBBN 262130Z 20005KT 9999 VCSH FEW018 SCT022 22/21 Q1019
YBBN,2013-03-26 22:00,153.1292,-27.3917,75.20,69.80,83.32,100.00,4.00,0.00,30.09,M,4.97,M,FEW,SCT,M,M,1800.00,2200.00,M,M,VCSH,YBBN 262200Z 10004KT 8000 VCSH FEW018 SCT022 24/21 Q1019 INTER 2200/0100 3000 SHRA BKN014
YBBN,2013-03-26 22:30,153.1292,-27.3917,77.00,68.00,73.78,80.00,9.00,0.00,30.09,M,6.21,M,FEW,SCT,M,M,1800.00,2200.00,M,M,VCSH,YBBN 262230Z 08009KT 9999 VCSH FEW018 SCT022 25/20 Q1019
YBBN,2013-03-26 23:00,153.1292,-27.3917,78.80,68.00,69.52,70.00,8.00,0.00,30.12,M,6.21,M,FEW,SCT,M,M,1800.00,2200.00,M,M,VCSH,YBBN 262300Z 07008KT 9999 VCSH FEW018 SCT022 26/20 Q1020
YBBN,2013-03-26 23:15,153.1292,-27.3917,75.20,69.80,83.32,60.00,10.00,0.00,30.12,M,3.11,M,FEW,SCT,M,M,1700.00,2200.00,M,M,+SHRA,YBBN 262315Z 06010KT 5000 +SHRA FEW017 SCT022 24/21 Q1020
YBBN,2013-03-26 23:30,153.1292,-27.3917,77.00,69.80,78.48,70.00,9.00,0.00,30.12,M,4.97,M,FEW,SCT,M,M,1700.00,2300.00,M,M,VCSH,YBBN 262330Z 07009KT 8000 VCSH FEW017 SCT023 25/21 Q1020 RESHRA
