#DEBUG: Format Typ    -> comma
#DEBUG: Time Period   -> 2012-01-18 00:00:00+00:00 2012-01-19 00:00:00+00:00
#DEBUG: Time Zone     -> Etc/UTC
#DEBUG: Data Contact   -> daryl herzmann akrherz@iastate.edu 515-294-5978
#DEBUG: Entries Found -> -1
station,valid,lon,lat,tmpf, dwpf, relh, drct, sknt, p01i, alti, mslp, vsby, gust, skyc1, skyc2, skyc3, skyc4, skyl1, skyl2, skyl3, skyl4, presentwx, metar
YBBN,2012-01-18 00:00,153.1292,-27.3917,78.80,68.00,69.52,100.00,7.00,M,29.88,M,6.21,M,FEW,BKN,   ,   ,3000.00,5600.00,M,M,M,YBBN 180000Z 10007KT 9999 FEW030 BKN056 26/20 Q1012 INTER 0200/0300 3000 SHRA BKN010
YBBN,2012-01-18 00:30,153.1292,-27.3917,80.60,68.00,65.54,80.00,7.00,M,29.88,M,6.21,M,FEW,SCT,BKN,   ,3000.00,5600.00,9900.00,M,M,YBBN 180030Z 08007KT 9999 FEW030 SCT056 BKN099 27/20 Q1012
YBBN,2012-01-18 01:00,153.1292,-27.3917,80.60,68.00,65.54,80.00,8.00,M,29.88,M,6.21,M,FEW,BKN,   ,   ,3200.00,5600.00,M,M,M,YBBN 180100Z 08008KT 9999 FEW032 BKN056 27/20 Q1012 INTER 0200/0400 3000 SHRA BKN010
YBBN,2012-01-18 01:30,153.1292,-27.3917,80.60,68.00,65.54,80.00,9.00,M,29.88,M,6.21,M,FEW,SCT,BKN,   ,3300.00,5500.00,9500.00,M,M,YBBN 180130Z 08009KT 9999 FEW033 SCT055 BKN095 27/20 Q1012
YBBN,2012-01-18 02:00,153.1292,-27.3917,80.60,68.00,65.54,80.00,9.00,M,29.88,M,6.21,M,FEW,BKN,   ,   ,3300.00,5500.00,M,M,M,YBBN 180200Z 08009KT 9999 FEW033 BKN055 27/20 Q1012
YBBN,2012-01-18 02:30,153.1292,-27.3917,82.40,69.80,65.74,80.00,9.00,M,29.85,M,6.21,M,FEW,BKN,   ,   ,3300.00,5900.00,M,M,M,YBBN 180230Z 08009KT 9999 FEW033 BKN059 28/21 Q1011
YBBN,2012-01-18 03:00,153.1292,-27.3917,82.40,68.00,61.81,80.00,9.00,M,29.85,M,6.21,M,FEW,SCT,   ,   ,3500.00,6300.00,M,M,M,YBBN 180300Z 08009KT 9999 FEW035 SCT063 28/20 Q1011 INTER 0300/0600 3000 SHRA BKN010
YBBN,2012-01-18 03:30,153.1292,-27.3917,82.40,68.00,61.81,30.00,12.00,M,29.85,M,6.21,M,SCT,SCT,   ,   ,2600.00,6000.00,M,M,M,YBBN 180330Z 03012KT 9999 SCT026 SCT060 28/20 Q1011 RMK SHRA TO DIST NW
YBBN,2012-01-18 04:00,153.1292,-27.3917,80.60,69.80,69.71,60.00,10.00,M,29.85,M,6.21,M,SCT,BKN,   ,   ,2600.00,11500.00,M,M,M,YBBN 180400Z 06010KT 9999 SCT026 BKN115 27/21 Q1011
YBBN,2012-01-18 04:30,153.1292,-27.3917,M,M,M,M,M,M,M,M,M,M,   ,   ,   ,   ,M,M,M,M,M,YBBN 180430Z NIL
YBBN,2012-01-18 05:00,153.1292,-27.3917,82.40,71.60,69.90,60.00,12.00,M,29.83,M,6.21,M,FEW,BKN,   ,   ,800.00,11500.00,M,M,M,YBBN 180500Z 06012KT 9999 VCSH FEW008 BKN115 28/22 Q1010 INTER 0500/0800 3000 SHRA BKN010
YBBN,2012-01-18 05:30,153.1292,-27.3917,78.80,73.40,83.55,50.00,13.00,M,29.85,M,6.21,M,SCT,BKN,   ,   ,1100.00,11500.00,M,M,M,YBBN 180530Z 05013KT 9999 SCT011 BKN115 26/23 Q1011
YBBN,2012-01-18 06:00,153.1292,-27.3917,78.80,71.60,78.62,50.00,11.00,M,29.85,M,6.21,M,FEW,BKN,   ,   ,1200.00,12000.00,M,M,M,YBBN 180600Z 05011KT 9999 FEW012 BKN120 26/22 Q1011 INTER 0600/0800 3000 SHRA BKN010
YBBN,2012-01-18 06:30,153.1292,-27.3917,78.80,71.60,78.62,40.00,12.00,M,29.85,M,6.21,M,SCT,SCT,   ,   ,1400.00,12000.00,M,M,M,YBBN 180630Z 04012KT 9999 SCT014 SCT120 26/22 Q1011
YBBN,2012-01-18 07:00,153.1292,-27.3917,77.00,69.80,78.48,60.00,10.00,M,29.85,M,6.21,M,FEW,BKN,   ,   ,1400.00,2500.00,M,M,M,YBBN 180700Z 06010KT 9999 FEW014 BKN025 25/21 Q1011 NOSIG
YBBN,2012-01-18 07:30,153.1292,-27.3917,75.20,71.60,88.59,70.00,8.00,M,29.88,M,6.21,M,FEW,SCT,BKN,   ,1400.00,2300.00,3000.00,M,-DZ,YBBN 180730Z 07008KT 9999 -DZ FEW014 SCT023 BKN030 24/22 Q1012
YBBN,2012-01-18 08:00,153.1292,-27.3917,75.20,71.60,88.59,70.00,7.00,M,29.88,M,6.21,M,SCT,BKN,   ,   ,1200.00,2000.00,M,M,-DZ,YBBN 180800Z 07007KT 9999 -DZ SCT012 BKN020 24/22 Q1012
YBBN,2012-01-18 08:30,153.1292,-27.3917,75.20,71.60,88.59,80.00,5.00,M,29.88,M,6.21,M,FEW,BKN,   ,   ,1200.00,2800.00,M,M,M,YBBN 180830Z 08005KT 9999 FEW012 BKN028 24/22 Q1012
YBBN,2012-01-18 09:00,153.1292,-27.3917,75.20,71.60,88.59,70.00,5.00,M,29.88,M,6.21,M,FEW,BKN,   ,   ,1400.00,2500.00,M,M,M,YBBN 180900Z 07005KT 9999 FEW014 BKN025 24/22 Q1012
YBBN,2012-01-18 09:30,153.1292,-27.3917,75.20,71.60,88.59,80.00,4.00,M,29.91,M,6.21,M,FEW,BKN,   ,   ,1400.00,2300.00,M,M,M,YBBN 180930Z 08004KT 9999 FEW014 BKN023 24/22 Q1013
YBBN,2012-01-18 10:00,153.1292,-27.3917,75.20,71.60,88.59,80.00,5.00,M,29.91,M,6.21,M,FEW,BKN,   ,   ,1300.00,2000.00,M,M,M,YBBN 181000Z 08005KT 9999 FEW013 BKN020 24/22 Q1013
YBBN,2012-01-18 10:30,153.1292,-27.3917,75.20,69.80,83.32,110.00,7.00,M,29.91,M,6.21,M,FEW,SCT,   ,   ,1300.00,1800.00,M,M,M,YBBN 181030Z 11007KT 9999 FEW013 SCT018 24/21 Q1013
YBBN,2012-01-18 11:00,153.1292,-27.3917,75.20,69.80,83.32,130.00,5.00,M,29.91,M,6.21,M,FEW,SCT,   ,   ,1300.00,2000.00,M,M,M,YBBN 181100Z 13005KT 9999 FEW013 SCT020 24/21 Q1013 NOSIG
YBBN,2012-01-18 11:30,153.1292,-27.3917,75.20,69.80,83.32,120.00,4.00,M,29.94,M,6.21,M,FEW,   ,   ,   ,1700.00,M,M,M,M,YBBN 181130Z 12004KT 9999 FEW017 24/21 Q1014
YBBN,2012-01-18 12:00,153.1292,-27.3917,75.20,69.80,83.32,130.00,5.00,M,29.94,M,6.21,M,FEW,   ,   ,   ,1800.00,M,M,M,M,YBBN 181200Z 13005KT 9999 FEW018 24/21 Q1014
YBBN,2012-01-18 12:30,153.1292,-27.3917,75.20,69.80,83.32,160.00,5.00,M,29.91,M,6.21,M,FEW,   ,   ,   ,1600.00,M,M,M,M,YBBN 181230Z 16005KT 9999 FEW016 24/21 Q1013
YBBN,2012-01-18 13:00,153.1292,-27.3917,75.20,69.80,83.32,140.00,4.00,M,29.91,M,6.21,M,FEW,   ,   ,   ,1600.00,M,M,M,M,YBBN 181300Z 14004KT 9999 FEW016 24/21 Q1013
YBBN,2012-01-18 13:30,153.1292,-27.3917,73.40,69.80,88.51,170.00,5.00,M,29.91,M,6.21,M,FEW,   ,   ,   ,1600.00,M,M,M,M,YBBN 181330Z 17005KT 9999 FEW016 23/21 Q1013
YBBN,2012-01-18 14:00,153.1292,-27.3917,73.40,69.80,88.51,200.00,4.00,M,29.91,M,6.21,M,FEW,   ,   ,   ,1600.00,M,M,M,M,YBBN 181400Z 20004KT 9999 FEW016 23/21 Q1013
YBBN,2012-01-18 14:30,153.1292,-27.3917,71.60,69.80,94.06,180.00,6.00,M,29.88,M,6.21,M,FEW,   ,   ,   ,1600.00,M,M,M,M,YBBN 181430Z 18006KT 9999 FEW016 22/21 Q1012
YBBN,2012-01-18 15:00,153.1292,-27.3917,73.40,69.80,88.51,210.00,5.00,M,29.88,M,6.21,M,   ,   ,   ,   ,M,M,M,M,M,YBBN 181500Z 21005KT CAVOK 23/21 Q1012
YBBN,2012-01-18 15:30,153.1292,-27.3917,71.60,68.00,88.43,180.00,6.00,M,29.88,M,6.21,M,   ,   ,   ,   ,M,M,M,M,M,YBBN 181530Z 18006KT CAVOK 22/20 Q1012
YBBN,2012-01-18 16:00,153.1292,-27.3917,71.60,68.00,88.43,180.00,5.00,M,29.88,M,6.21,M,   ,   ,   ,   ,M,M,M,M,M,YBBN 181600Z 18005KT CAVOK 22/20 Q1012
YBBN,2012-01-18 16:30,153.1292,-27.3917,71.60,68.00,88.43,160.00,5.00,M,29.85,M,6.21,M,   ,   ,   ,   ,M,M,M,M,M,YBBN 181630Z 16005KT CAVOK 22/20 Q1011
YBBN,2012-01-18 17:00,153.1292,-27.3917,71.60,68.00,88.43,180.00,4.00,M,29.85,M,6.21,M,   ,   ,   ,   ,M,M,M,M,M,YBBN 181700Z 18004KT CAVOK 22/20 Q1011
YBBN,2012-01-18 17:30,153.1292,-27.3917,69.80,68.00,94.01,220.00,5.00,M,29.85,M,6.21,M,   ,   ,   ,   ,M,M,M,M,M,YBBN 181730Z 22005KT CAVOK 21/20 Q1011
YBBN,2012-01-18 18:00,153.1292,-27.3917,69.80,68.00,94.01,210.00,6.00,M,29.85,M,6.21,M,   ,   ,   ,   ,M,M,M,M,M,YBBN 181800Z 21006KT CAVOK 21/20 Q1011
YBBN,2012-01-18 18:30,153.1292,-27.3917,69.80,68.00,94.01,230.00,4.00,M,29.88,M,6.21,M,FEW,   ,   ,   ,2000.00,M,M,M,M,YBBN 181830Z 23004KT 9999 FEW020 21/20 Q1012
YBBN,2012-01-18 19:00,153.1292,-27.3917,68.00,66.20,93.97,210.00,5.00,M,29.88,M,6.21,M,FEW,   ,   ,   ,2000.00,M,M,M,M,YBBN 181900Z 21005KT 9999 FEW020 20/19 Q1012
YBBN,2012-01-18 19:30,153.1292,-27.3917,69.80,68.00,94.01,230.00,5.00,M,29.88,M,6.21,M,FEW,   ,   ,   ,2000.00,M,M,M,M,YBBN 181930Z 23005KT 9999 FEW020 21/20 Q1012
YBBN,2012-01-18 20:00,153.1292,-27.3917,71.60,68.00,88.43,230.00,4.00,M,29.91,M,6.21,M,FEW,   ,   ,   ,3000.00,M,M,M,M,YBBN 182000Z 23004KT 9999 FEW030 22/20 Q1013
YBBN,2012-01-18 20:30,153.1292,-27.3917,73.40,68.00,83.21,210.00,6.00,M,29.91,M,6.21,M,FEW,   ,   ,   ,3000.00,M,M,M,M,YBBN 182030Z 21006KT 9999 FEW030 23/20 Q1013
YBBN,2012-01-18 21:00,153.1292,-27.3917,75.20,68.00,78.34,210.00,6.00,M,29.91,M,6.21,M,FEW,   ,   ,   ,2500.00,M,M,M,M,YBBN 182100Z 21006KT 9999 FEW025 24/20 Q1013
YBBN,2012-01-18 21:30,153.1292,-27.3917,77.00,68.00,73.78,200.00,5.00,M,29.91,M,6.21,M,FEW,SCT,   ,   ,2500.00,6000.00,M,M,M,YBBN 182130Z 20005KT 9999 FEW025 SCT060 25/20 Q1013
YBBN,2012-01-18 22:00,153.1292,-27.3917,78.80,68.00,69.52,160.00,7.00,M,29.91,M,6.21,M,FEW,   ,   ,   ,2800.00,M,M,M,M,YBBN 182200Z 16007KT 9999 FEW028 26/20 Q1013
YBBN,2012-01-18 22:30,153.1292,-27.3917,82.40,69.80,65.74,110.00,7.00,M,29.91,M,6.21,M,FEW,   ,   ,   ,2800.00,M,M,M,M,YBBN 182230Z 11007KT 9999 FEW028 28/21 Q1013
YBBN,2012-01-18 23:00,153.1292,-27.3917,78.80,68.00,69.52,100.00,6.00,M,29.94,M,6.21,M,SCT,SCT,   ,   ,2600.00,24000.00,M,M,M,YBBN 182300Z 10006KT 9999 SCT026 SCT240 26/20 Q1014
YBBN,2012-01-18 23:30,153.1292,-27.3917,80.60,68.00,65.54,90.00,8.00,M,29.91,M,6.21,M,SCT,   ,   ,   ,2800.00,M,M,M,M,YBBN 182330Z 09008KT 9999 SCT028 27/20 Q1013
