#DEBUG: Format Typ    -> comma
#DEBUG: Time Period   -> 2011-11-14 00:00:00+00:00 2011-11-15 00:00:00+00:00
#DEBUG: Time Zone     -> Etc/UTC
#DEBUG: Data Contact   -> daryl herzmann akrherz@iastate.edu 515-294-5978
#DEBUG: Entries Found -> -1
station,valid,lon,lat,tmpf, dwpf, relh, drct, sknt, p01i, alti, mslp, vsby, gust, skyc1, skyc2, skyc3, skyc4, skyl1, skyl2, skyl3, skyl4, presentwx, metar
YBBN,2011-11-14 00:00,153.1292,-27.3917,80.60,66.20,61.58,20.00,15.00,M,30.00,M,6.21,M,FEW,M,M,M,2800.00,M,M,M,M,YBBN 140000Z 02015KT 9999 FEW028 27/19 Q1016 NOSIG
YBBN,2011-11-14 00:30,153.1292,-27.3917,80.60,64.40,57.84,40.00,15.00,M,30.00,M,6.21,M,FEW,M,M,M,3000.00,M,M,M,M,YBBN 140030Z 04015KT 9999 FEW030 27/18 Q1016
YBBN,2011-11-14 01:00,153.1292,-27.3917,80.60,66.20,61.58,30.00,18.00,M,29.97,M,6.21,M,FEW,M,M,M,3000.00,M,M,M,M,YBBN 140100Z 03018KT 9999 FEW030 27/19 Q1015 NOSIG
YBBN,2011-11-14 01:30,153.1292,-27.3917,80.60,66.20,61.58,30.00,19.00,M,29.97,M,6.21,M,FEW,M,M,M,3500.00,M,M,M,M,YBBN 140130Z 03019KT 9999 FEW035 27/19 Q1015
YBBN,2011-11-14 02:00,153.1292,-27.3917,78.80,64.40,61.36,30.00,19.00,M,29.94,M,6.21,M,FEW,M,M,M,3800.00,M,M,M,M,YBBN 140200Z 03019KT 9999 FEW038 26/18 Q1014 NOSIG
YBBN,2011-11-14 02:30,153.1292,-27.3917,80.60,66.20,61.58,20.00,20.00,M,29.94,M,6.21,M,FEW,M,M,M,4000.00,M,M,M,M,YBBN 140230Z 02020KT 9999 FEW040 27/19 Q1014
YBBN,2011-11-14 03:00,153.1292,-27.3917,78.80,66.20,65.33,20.00,20.00,M,29.94,M,6.21,M,FEW,M,M,M,4000.00,M,M,M,M,YBBN 140300Z 02020KT 9999 FEW040 26/19 Q1014 NOSIG
YBBN,2011-11-14 03:30,153.1292,-27.3917,80.60,66.20,61.58,20.00,21.00,M,29.91,M,6.21,M,FEW,M,M,M,4000.00,M,M,M,M,YBBN 140330Z 02021KT 9999 FEW040 27/19 Q1013
YBBN,2011-11-14 04:00,153.1292,-27.3917,78.80,66.20,65.33,20.00,23.00,M,29.91,M,6.21,M,FEW,M,M,M,3500.00,M,M,M,M,YBBN 140400Z 02023KT 9999 FEW035 26/19 Q1013
YBBN,2011-11-14 04:30,153.1292,-27.3917,78.80,66.20,65.33,20.00,22.00,M,29.91,M,6.21,M,FEW,M,M,M,3500.00,M,M,M,M,YBBN 140430Z 02022KT 9999 FEW035 26/19 Q1013
YBBN,2011-11-14 05:00,153.1292,-27.3917,78.80,66.20,65.33,20.00,20.00,M,29.91,M,6.21,M,FEW,M,M,M,3500.00,M,M,M,M,YBBN 140500Z 02020KT 9999 FEW035 26/19 Q1013 NOSIG
YBBN,2011-11-14 05:30,153.1292,-27.3917,78.80,66.20,65.33,10.00,19.00,M,29.91,M,6.21,M,FEW,M,M,M,3500.00,M,M,M,M,YBBN 140530Z 01019KT 9999 FEW035 26/19 Q1013
YBBN,2011-11-14 06:00,153.1292,-27.3917,77.00,66.20,69.33,10.00,19.00,M,29.91,M,6.21,M,FEW,M,M,M,4500.00,M,M,M,M,YBBN 140600Z 01019KT 9999 FEW045 25/19 Q1013 NOSIG
YBBN,2011-11-14 06:30,153.1292,-27.3917,77.00,66.20,69.33,20.00,19.00,M,29.91,M,6.21,M,M,M,M,M,M,M,M,M,M,YBBN 140630Z 02019KT CAVOK 25/19 Q1013
YBBN,2011-11-14 07:00,153.1292,-27.3917,77.00,66.20,69.33,10.00,18.00,M,29.91,M,6.21,M,M,M,M,M,M,M,M,M,M,YBBN 140700Z 01018KT CAVOK 25/19 Q1013 NOSIG
YBBN,2011-11-14 07:30,153.1292,-27.3917,75.20,68.00,78.34,10.00,19.00,M,29.91,M,6.21,M,M,M,M,M,M,M,M,M,M,YBBN 140730Z 01019KT CAVOK 24/20 Q1013
YBBN,2011-11-14 08:00,153.1292,-27.3917,75.20,68.00,78.34,10.00,19.00,M,29.94,M,6.21,M,FEW,M,M,M,1500.00,M,M,M,M,YBBN 140800Z 01019KT 9999 FEW015 24/20 Q1014 NOSIG
YBBN,2011-11-14 08:30,153.1292,-27.3917,75.20,68.00,78.34,10.00,18.00,M,29.94,M,6.21,M,FEW,M,M,M,1500.00,M,M,M,M,YBBN 140830Z 01018KT 9999 FEW015 24/20 Q1014
YBBN,2011-11-14 09:00,153.1292,-27.3917,75.20,68.00,78.34,10.00,17.00,M,29.94,M,6.21,M,FEW,M,M,M,1500.00,M,M,M,M,YBBN 140900Z 01017KT 9999 FEW015 24/20 Q1014 NOSIG
YBBN,2011-11-14 09:30,153.1292,-27.3917,75.20,68.00,78.34,10.00,18.00,M,29.97,M,6.21,M,FEW,M,M,M,1500.00,M,M,M,M,YBBN 140930Z 01018KT 9999 FEW015 24/20 Q1015
YBBN,2011-11-14 10:00,153.1292,-27.3917,75.20,68.00,78.34,10.00,18.00,M,29.97,M,6.21,M,FEW,M,M,M,1500.00,M,M,M,M,YBBN 141000Z 01018KT 9999 FEW015 24/20 Q1015
YBBN,2011-11-14 10:30,153.1292,-27.3917,75.20,68.00,78.34,10.00,18.00,M,29.97,M,6.21,M,FEW,M,M,M,1500.00,M,M,M,M,YBBN 141030Z 01018KT 9999 FEW015 24/20 Q1015
YBBN,2011-11-14 11:00,153.1292,-27.3917,75.20,68.00,78.34,10.00,19.00,M,29.97,M,6.21,M,FEW,M,M,M,1500.00,M,M,M,M,YBBN 141100Z 01019KT 9999 FEW015 24/20 Q1015 NOSIG
YBBN,2011-11-14 11:30,153.1292,-27.3917,73.40,68.00,83.21,10.00,17.00,M,29.97,M,6.21,M,FEW,M,M,M,1500.00,M,M,M,M,YBBN 141130Z 01017KT 9999 FEW015 23/20 Q1015
YBBN,2011-11-14 12:00,153.1292,-27.3917,73.40,68.00,83.21,10.00,17.00,M,30.00,M,6.21,M,FEW,M,M,M,1500.00,M,M,M,M,YBBN 141200Z 01017KT 9999 FEW015 23/20 Q1016 NOSIG
YBBN,2011-11-14 12:30,153.1292,-27.3917,73.40,66.20,78.19,360.00,16.00,M,30.00,M,6.21,M,M,M,M,M,M,M,M,M,M,YBBN 141230Z 36016KT CAVOK 23/19 Q1016
YBBN,2011-11-14 13:00,153.1292,-27.3917,73.40,66.20,78.19,360.00,15.00,M,30.00,M,6.21,M,M,M,M,M,M,M,M,M,M,YBBN 141300Z 36015KT CAVOK 23/19 Q1016 NOSIG
YBBN,2011-11-14 13:30,153.1292,-27.3917,73.40,66.20,78.19,360.00,13.00,M,29.97,M,6.21,M,M,M,M,M,M,M,M,M,M,YBBN 141330Z 36013KT CAVOK 23/19 Q1015
YBBN,2011-11-14 14:00,153.1292,-27.3917,73.40,66.20,78.19,360.00,11.00,M,29.97,M,6.21,M,M,M,M,M,M,M,M,M,M,YBBN 141400Z 36011KT CAVOK 23/19 Q1015 NOSIG
YBBN,2011-11-14 14:30,153.1292,-27.3917,71.60,66.20,83.09,360.00,11.00,M,29.97,M,6.21,M,M,M,M,M,M,M,M,M,M,YBBN 141430Z 36011KT CAVOK 22/19 Q1015
YBBN,2011-11-14 15:00,153.1292,-27.3917,71.60,64.40,78.04,360.00,11.00,M,29.94,M,6.21,M,M,M,M,M,M,M,M,M,M,YBBN 141500Z 36011KT CAVOK 22/18 Q1014
YBBN,2011-11-14 15:30,153.1292,-27.3917,71.60,64.40,78.04,360.00,10.00,M,29.94,M,6.21,M,M,M,M,M,M,M,M,M,M,YBBN 141530Z 36010KT CAVOK 22/18 Q1014
YBBN,2011-11-14 16:00,153.1292,-27.3917,71.60,64.40,78.04,350.00,8.00,M,29.94,M,6.21,M,M,M,M,M,M,M,M,M,M,YBBN 141600Z 35008KT CAVOK 22/18 Q1014 NOSIG
YBBN,2011-11-14 16:30,153.1292,-27.3917,68.00,64.40,88.26,340.00,6.00,M,29.94,M,6.21,M,M,M,M,M,M,M,M,M,M,YBBN 141630Z 34006KT CAVOK 20/18 Q1014
YBBN,2011-11-14 17:00,153.1292,-27.3917,68.00,62.60,82.86,310.00,4.00,M,29.94,M,6.21,M,M,M,M,M,M,M,M,M,M,YBBN 141700Z 31004KT CAVOK 20/17 Q1014 NOSIG
YBBN,2011-11-14 17:30,153.1292,-27.3917,68.00,62.60,82.86,250.00,1.00,M,29.97,M,6.21,M,M,M,M,M,M,M,M,M,M,YBBN 141730Z 25001KT CAVOK 20/17 Q1015
YBBN,2011-11-14 18:00,153.1292,-27.3917,66.20,60.80,82.74,0.00,0.00,M,29.97,M,6.21,M,M,M,M,M,M,M,M,M,M,YBBN 141800Z 00000KT CAVOK 19/16 Q1015 NOSIG
YBBN,2011-11-14 18:30,153.1292,-27.3917,66.20,60.80,82.74,310.00,2.00,M,29.97,M,6.21,M,M,M,M,M,M,M,M,M,M,YBBN 141830Z 31002KT CAVOK 19/16 Q1015
YBBN,2011-11-14 19:00,153.1292,-27.3917,66.20,60.80,82.74,280.00,1.00,M,30.00,M,6.21,M,M,M,M,M,M,M,M,M,M,YBBN 141900Z 28001KT CAVOK 19/16 Q1016 NOSIG
YBBN,2011-11-14 19:30,153.1292,-27.3917,68.00,62.60,82.86,270.00,4.00,M,30.00,M,6.21,M,M,M,M,M,M,M,M,M,M,YBBN 141930Z 27004KT CAVOK 20/17 Q1016
YBBN,2011-11-14 20:00,153.1292,-27.3917,69.80,64.40,82.98,300.00,5.00,M,30.00,M,6.21,M,M,M,M,M,M,M,M,M,M,YBBN 142000Z 30005KT CAVOK 21/18 Q1016 NOSIG
YBBN,2011-11-14 20:30,153.1292,-27.3917,73.40,62.60,68.94,330.00,6.00,M,30.03,M,6.21,M,M,M,M,M,M,M,M,M,M,YBBN 142030Z 33006KT CAVOK 23/17 Q1017
YBBN,2011-11-14 21:00,153.1292,-27.3917,75.20,62.60,64.91,350.00,5.00,M,30.03,M,6.21,M,M,M,M,M,M,M,M,M,M,YBBN 142100Z 35005KT CAVOK 24/17 Q1017 NOSIG
YBBN,2011-11-14 21:30,153.1292,-27.3917,77.00,60.80,57.36,350.00,6.00,M,30.03,M,6.21,M,M,M,M,M,M,M,M,M,M,YBBN 142130Z 35006KT CAVOK 25/16 Q1017
YBBN,2011-11-14 22:00,153.1292,-27.3917,78.80,62.60,57.60,10.00,7.00,M,30.03,M,6.21,M,M,M,M,M,M,M,M,M,M,YBBN 142200Z 01007KT CAVOK 26/17 Q1017 NOSIG
YBBN,2011-11-14 22:30,153.1292,-27.3917,80.60,64.40,57.84,20.00,7.00,M,30.03,M,6.21,M,M,M,M,M,M,M,M,M,M,YBBN 142230Z 02007KT CAVOK 27/18 Q1017
YBBN,2011-11-14 23:00,153.1292,-27.3917,80.60,60.80,50.95,30.00,8.00,M,30.03,M,6.21,M,M,M,M,M,M,M,M,M,M,YBBN 142300Z 03008KT CAVOK 27/16 Q1017 NOSIG
YBBN,2011-11-14 23:30,153.1292,-27.3917,82.40,62.60,51.21,40.00,9.00,M,30.03,M,6.21,M,M,M,M,M,M,M,M,M,M,YBBN 142330Z 04009KT CAVOK 28/17 Q1017
