#DEBUG: Format Typ    -> comma
#DEBUG: Time Period   -> 2014-11-01 00:00:00+00:00 2014-11-02 00:00:00+00:00
#DEBUG: Time Zone     -> Etc/UTC
#DEBUG: Data Contact   -> daryl herzmann akrherz@iastate.edu 515-294-5978
#DEBUG: Entries Found -> -1
station,valid,lon,lat,tmpf, dwpf, relh, drct, sknt, p01i, alti, mslp, vsby, gust, skyc1, skyc2, skyc3, skyc4, skyl1, skyl2, skyl3, skyl4, presentwx, metar
YBBN,2014-11-01 00:00,153.1292,-27.3917,80.60,64.40,57.84,360.00,13.00,0.00,29.97,M,6.21,M,SCT,SCT,M,M,3000.00,17000.00,M,M,M,YBBN 010000Z 36013KT 9999 SCT030 SCT170 27/18 Q1015 NOSIG
YBBN,2014-11-01 00:30,153.1292,-27.3917,82.40,64.40,54.55,10.00,14.00,0.00,29.94,M,6.21,M,FEW,BKN,M,M,3500.00,22000.00,M,M,M,YBBN 010030Z 01014KT 9999 FEW035 BKN220 28/18 Q1014
YBBN,2014-11-01 01:00,153.1292,-27.3917,80.60,66.20,61.58,20.00,19.00,0.00,29.91,M,6.21,M,FEW,BKN,M,M,2000.00,22000.00,M,M,M,YBBN 010100Z 02019KT 9999 FEW020 BKN220 27/19 Q1013
YBBN,2014-11-01 01:30,153.1292,-27.3917,80.60,66.20,61.58,20.00,18.00,0.00,29.91,M,6.21,M,FEW,SCT,M,M,3300.00,17000.00,M,M,M,YBBN 010130Z 02018KT 9999 FEW033 SCT170 27/19 Q1013
YBBN,2014-11-01 02:00,153.1292,-27.3917,80.60,68.00,65.54,20.00,20.00,0.00,29.88,M,6.21,M,FEW,SCT,M,M,3300.00,17000.00,M,M,M,YBBN 010200Z 02020KT 9999 FEW033 SCT170 27/20 Q1012
YBBN,2014-11-01 02:30,153.1292,-27.3917,80.60,68.00,65.54,20.00,22.00,0.00,29.88,M,6.21,M,FEW,SCT,M,M,3500.00,18000.00,M,M,M,YBBN 010230Z 02022KT 9999 FEW035 SCT180 27/20 Q1012
YBBN,2014-11-01 03:00,153.1292,-27.3917,78.80,66.20,65.33,10.00,21.00,0.00,29.85,M,6.21,M,FEW,M,M,M,3200.00,M,M,M,M,YBBN 010300Z 01021KT 9999 FEW032 26/19 Q1011 NOSIG
YBBN,2014-11-01 03:30,153.1292,-27.3917,80.60,66.20,61.58,10.00,23.00,0.00,29.85,M,6.21,M,FEW,M,M,M,3300.00,M,M,M,M,YBBN 010330Z 01023KT 9999 FEW033 27/19 Q1011
YBBN,2014-11-01 04:00,153.1292,-27.3917,80.60,68.00,65.54,20.00,24.00,0.00,29.83,M,6.21,M,FEW,M,M,M,3500.00,M,M,M,M,YBBN 010400Z 02024KT 9999 FEW035 27/20 Q1010
YBBN,2014-11-01 04:30,153.1292,-27.3917,80.60,68.00,65.54,10.00,24.00,0.00,29.80,M,6.21,M,FEW,M,M,M,3500.00,M,M,M,M,YBBN 010430Z 01024KT 9999 FEW035 27/20 Q1009 RMK HZ
YBBN,2014-11-01 05:00,153.1292,-27.3917,80.60,66.20,61.58,10.00,22.00,0.00,29.80,M,6.21,M,FEW,M,M,M,3700.00,M,M,M,M,YBBN 010500Z 01022KT 9999 FEW037 27/19 Q1009 NOSIG
YBBN,2014-11-01 05:30,153.1292,-27.3917,78.80,66.20,65.33,10.00,23.00,0.00,29.80,M,6.21,M,FEW,M,M,M,3700.00,M,M,M,M,YBBN 010530Z 01023KT 9999 FEW037 26/19 Q1009 RMK HZ
YBBN,2014-11-01 06:00,153.1292,-27.3917,78.80,68.00,69.52,10.00,23.00,0.00,29.77,M,6.21,M,FEW,M,M,M,3700.00,M,M,M,M,YBBN 010600Z 01023KT 9999 FEW037 26/20 Q1008 NOSIG
YBBN,2014-11-01 06:30,153.1292,-27.3917,77.00,68.00,73.78,10.00,23.00,0.00,29.77,M,6.21,M,M,M,M,M,M,M,M,M,M,YBBN 010630Z 01023KT CAVOK 25/20 Q1008 RMK HZ
YBBN,2014-11-01 07:00,153.1292,-27.3917,77.00,68.00,73.78,10.00,23.00,0.00,29.77,M,6.21,M,M,M,M,M,M,M,M,M,M,YBBN 010700Z 01023KT CAVOK 25/20 Q1008
YBBN,2014-11-01 07:30,153.1292,-27.3917,75.20,68.00,78.34,360.00,23.00,0.00,29.77,M,6.21,M,M,M,M,M,M,M,M,M,M,YBBN 010730Z 36023KT CAVOK 24/20 Q1008 RMK HZ
YBBN,2014-11-01 08:00,153.1292,-27.3917,75.20,68.00,78.34,360.00,21.00,0.00,29.80,M,6.21,M,M,M,M,M,M,M,M,M,M,YBBN 010800Z 36021KT CAVOK 24/20 Q1009 NOSIG
YBBN,2014-11-01 08:30,153.1292,-27.3917,75.20,68.00,78.34,10.00,22.00,0.00,29.80,M,6.21,M,M,M,M,M,M,M,M,M,M,YBBN 010830Z 01022KT CAVOK 24/20 Q1009
YBBN,2014-11-01 09:00,153.1292,-27.3917,77.00,66.20,69.33,360.00,22.00,0.00,29.80,M,6.21,M,M,M,M,M,M,M,M,M,M,YBBN 010900Z 36022KT CAVOK 25/19 Q1009
YBBN,2014-11-01 09:30,153.1292,-27.3917,77.00,66.20,69.33,10.00,23.00,0.00,29.80,M,6.21,M,M,M,M,M,M,M,M,M,M,YBBN 010930Z 01023KT CAVOK 25/19 Q1009
YBBN,2014-11-01 10:00,153.1292,-27.3917,77.00,66.20,69.33,360.00,21.00,0.00,29.80,M,6.21,M,M,M,M,M,M,M,M,M,M,YBBN 011000Z 36021KT CAVOK 25/19 Q1009
YBBN,2014-11-01 10:30,153.1292,-27.3917,75.20,68.00,78.34,360.00,20.00,0.00,29.80,M,6.21,M,M,M,M,M,M,M,M,M,M,YBBN 011030Z 36020KT CAVOK 24/20 Q1009
YBBN,2014-11-01 11:00,153.1292,-27.3917,75.20,66.20,73.61,360.00,19.00,0.00,29.83,M,6.21,31.00,M,M,M,M,M,M,M,M,M,YBBN 011100Z 36019G31KT CAVOK 24/19 Q1010
YBBN,2014-11-01 11:30,153.1292,-27.3917,75.20,66.20,73.61,360.00,18.00,0.00,29.83,M,6.21,M,M,M,M,M,M,M,M,M,M,YBBN 011130Z 36018KT CAVOK 24/19 Q1010
YBBN,2014-11-01 12:00,153.1292,-27.3917,75.20,66.20,73.61,360.00,18.00,0.00,29.83,M,6.21,M,M,M,M,M,M,M,M,M,M,YBBN 011200Z 36018KT CAVOK 24/19 Q1010 INTER 1300/1500 3000 SHRA BKN015
YBBN,2014-11-01 12:30,153.1292,-27.3917,75.20,64.40,69.14,360.00,19.00,0.00,29.83,M,6.21,M,M,M,M,M,M,M,M,M,M,YBBN 011230Z 36019KT CAVOK 24/18 Q1010
YBBN,2014-11-01 13:00,153.1292,-27.3917,75.20,64.40,69.14,330.00,12.00,0.00,29.88,M,6.21,M,M,M,M,M,M,M,M,M,M,YBBN 011300Z 33012KT CAVOK 24/18 Q1012
YBBN,2014-11-01 13:30,153.1292,-27.3917,75.20,64.40,69.14,230.00,7.00,0.00,29.91,M,6.21,M,M,M,M,M,M,M,M,M,M,YBBN 011330Z 23007KT CAVOK 24/18 Q1013 RMK 6AC120
YBBN,2014-11-01 14:00,153.1292,-27.3917,77.00,64.40,65.12,230.00,11.00,0.00,29.88,M,6.21,M,M,M,M,M,M,M,M,M,M,YBBN 011400Z 23011KT CAVOK 25/18 Q1012
YBBN,2014-11-01 14:30,153.1292,-27.3917,75.20,64.40,69.14,230.00,7.00,0.00,29.85,M,6.21,M,M,M,M,M,M,M,M,M,M,YBBN 011430Z 23007KT CAVOK 24/18 Q1011 RMK 6AC150
YBBN,2014-11-01 15:00,153.1292,-27.3917,73.40,66.20,78.19,280.00,2.00,0.00,29.85,M,6.21,M,SCT,BKN,M,M,6600.00,12000.00,M,M,-SHRA,YBBN 011500Z 28002KT 9999 -SHRA SCT066 BKN120 23/19 Q1011
YBBN,2014-11-01 15:30,153.1292,-27.3917,71.60,68.00,88.43,10.00,6.00,0.00,29.83,M,6.21,M,M,M,M,M,M,M,M,M,M,YBBN 011530Z 01006KT CAVOK 22/20 Q1010 RMK 6AC160
YBBN,2014-11-01 16:00,153.1292,-27.3917,73.40,68.00,83.21,10.00,10.00,0.00,29.83,M,6.21,M,M,M,M,M,M,M,M,M,M,YBBN 011600Z 01010KT CAVOK 23/20 Q1010
YBBN,2014-11-01 16:30,153.1292,-27.3917,71.60,66.20,83.09,360.00,10.00,0.00,29.83,M,6.21,M,M,M,M,M,M,M,M,M,M,YBBN 011630Z 36010KT CAVOK 22/19 Q1010
YBBN,2014-11-01 17:00,153.1292,-27.3917,73.40,68.00,83.21,360.00,13.00,0.00,29.83,M,6.21,M,M,M,M,M,M,M,M,M,M,YBBN 011700Z 36013KT CAVOK 23/20 Q1010
YBBN,2014-11-01 17:30,153.1292,-27.3917,71.60,66.20,83.09,360.00,12.00,0.00,29.83,M,6.21,M,M,M,M,M,M,M,M,M,M,YBBN 011730Z 36012KT CAVOK 22/19 Q1010
YBBN,2014-11-01 18:00,153.1292,-27.3917,71.60,66.20,83.09,350.00,10.00,0.00,29.83,M,6.21,M,M,M,M,M,M,M,M,M,M,YBBN 011800Z 35010KT CAVOK 22/19 Q1010
YBBN,2014-11-01 18:30,153.1292,-27.3917,71.60,66.20,83.09,340.00,9.00,0.00,29.85,M,6.21,M,M,M,M,M,M,M,M,M,M,YBBN 011830Z 34009KT CAVOK 22/19 Q1011
YBBN,2014-11-01 19:00,153.1292,-27.3917,71.60,64.40,78.04,330.00,7.00,0.00,29.85,M,6.21,M,M,M,M,M,M,M,M,M,M,YBBN 011900Z 33007KT CAVOK 22/18 Q1011
YBBN,2014-11-01 19:30,153.1292,-27.3917,69.80,64.40,82.98,270.00,4.00,0.00,29.88,M,6.21,M,M,M,M,M,M,M,M,M,M,YBBN 011930Z 27004KT CAVOK 21/18 Q1012
YBBN,2014-11-01 20:00,153.1292,-27.3917,71.60,64.40,78.04,260.00,6.00,0.00,29.88,M,6.21,M,M,M,M,M,M,M,M,M,M,YBBN 012000Z 26006KT CAVOK 22/18 Q1012
YBBN,2014-11-01 20:30,153.1292,-27.3917,73.40,64.40,73.44,240.00,5.00,0.00,29.91,M,6.21,M,M,M,M,M,M,M,M,M,M,YBBN 012030Z 24005KT CAVOK 23/18 Q1013
YBBN,2014-11-01 21:00,153.1292,-27.3917,75.20,64.40,69.14,240.00,1.00,0.00,29.91,M,6.21,M,M,M,M,M,M,M,M,M,M,YBBN 012100Z 24001KT CAVOK 24/18 Q1013
YBBN,2014-11-01 21:30,153.1292,-27.3917,75.20,64.40,69.14,200.00,4.00,0.00,29.91,M,6.21,M,M,M,M,M,M,M,M,M,M,YBBN 012130Z 20004KT CAVOK 24/18 Q1013 RMK 6AC190
YBBN,2014-11-01 22:00,153.1292,-27.3917,77.00,66.20,69.33,160.00,4.00,0.00,29.94,M,6.21,M,M,M,M,M,M,M,M,M,M,YBBN 012200Z 16004KT CAVOK 25/19 Q1014
YBBN,2014-11-01 22:30,153.1292,-27.3917,78.80,62.60,57.60,160.00,3.00,0.00,29.94,M,6.21,M,FEW,SCT,BKN,M,2500.00,18000.00,27000.00,M,M,YBBN 012230Z 16003KT 9999 FEW025 SCT180 BKN270 26/17 Q1014
YBBN,2014-11-01 23:00,153.1292,-27.3917,82.40,64.40,54.55,110.00,9.00,0.00,29.94,M,6.21,M,FEW,SCT,M,M,2500.00,25000.00,M,M,M,YBBN 012300Z 11009KT 9999 FEW025 SCT250 28/18 Q1014
YBBN,2014-11-01 23:30,153.1292,-27.3917,78.80,66.20,65.33,110.00,14.00,0.00,29.94,M,6.21,M,FEW,SCT,M,M,2700.00,29000.00,M,M,M,YBBN 012330Z 11014KT 9999 FEW027 SCT290 26/19 Q1014 RMK HZ
