#DEBUG: Format Typ    -> comma
#DEBUG: Time Period   -> 2014-11-10 00:00:00+00:00 2014-11-11 00:00:00+00:00
#DEBUG: Time Zone     -> Etc/UTC
#DEBUG: Data Contact   -> daryl herzmann akrherz@iastate.edu 515-294-5978
#DEBUG: Entries Found -> -1
station,valid,lon,lat,tmpf, dwpf, relh, drct, sknt, p01i, alti, mslp, vsby, gust, skyc1, skyc2, skyc3, skyc4, skyl1, skyl2, skyl3, skyl4, presentwx, metar
YBBN,2014-11-10 00:00,153.1292,-27.3917,78.80,60.80,54.05,10.00,10.00,0.00,30.09,M,6.21,M,FEW,M,M,M,3200.00,M,M,M,M,YBBN 100000Z 01010KT 9999 FEW032 26/16 Q1019
YBBN,2014-11-10 00:30,153.1292,-27.3917,78.80,60.80,54.05,20.00,9.00,0.00,30.06,M,6.21,M,FEW,M,M,M,3500.00,M,M,M,M,YBBN 100030Z 02009KT 9999 FEW035 26/16 Q1018
YBBN,2014-11-10 01:00,153.1292,-27.3917,78.80,60.80,54.05,10.00,10.00,0.00,30.06,M,6.21,M,FEW,M,M,M,3500.00,M,M,M,M,YBBN 100100Z 01010KT 9999 FEW035 26/16 Q1018 NOSIG
YBBN,2014-11-10 01:30,153.1292,-27.3917,80.60,60.80,50.95,10.00,11.00,0.00,30.03,M,6.21,M,FEW,SCT,M,M,3500.00,30000.00,M,M,M,YBBN 100130Z 01011KT 9999 FEW035 SCT300 27/16 Q1017
YBBN,2014-11-10 02:00,153.1292,-27.3917,78.80,59.00,50.69,30.00,12.00,0.00,30.03,M,6.21,M,FEW,SCT,M,M,3500.00,30000.00,M,M,M,YBBN 100200Z 03012KT 9999 FEW035 SCT300 26/15 Q1017 NOSIG
YBBN,2014-11-10 02:30,153.1292,-27.3917,78.80,59.00,50.69,30.00,14.00,0.00,30.03,M,6.21,M,FEW,BKN,M,M,3500.00,30000.00,M,M,M,YBBN 100230Z 03014KT 9999 FEW035 BKN300 26/15 Q1017
YBBN,2014-11-10 03:00,153.1292,-27.3917,80.60,60.80,50.95,20.00,14.00,0.00,30.00,M,6.21,M,FEW,BKN,M,M,3500.00,30000.00,M,M,M,YBBN 100300Z 02014KT 9999 FEW035 BKN300 27/16 Q1016 NOSIG
YBBN,2014-11-10 03:30,153.1292,-27.3917,78.80,60.80,54.05,20.00,15.00,0.00,30.00,M,6.21,M,FEW,BKN,M,M,3500.00,30000.00,M,M,M,YBBN 100330Z 02015KT 9999 FEW035 BKN300 26/16 Q1016
YBBN,2014-11-10 04:00,153.1292,-27.3917,80.60,62.60,54.30,20.00,14.00,0.00,30.00,M,6.21,M,FEW,BKN,M,M,3800.00,30000.00,M,M,M,YBBN 100400Z 02014KT 9999 FEW038 BKN300 27/17 Q1016 NOSIG
YBBN,2014-11-10 04:30,153.1292,-27.3917,78.80,62.60,57.60,30.00,15.00,0.00,29.97,M,6.21,M,FEW,BKN,M,M,3800.00,30000.00,M,M,M,YBBN 100430Z 03015KT 9999 FEW038 BKN300 26/17 Q1015
YBBN,2014-11-10 05:00,153.1292,-27.3917,78.80,62.60,57.60,10.00,16.00,0.00,29.97,M,6.21,M,FEW,BKN,M,M,4000.00,30000.00,M,M,M,YBBN 100500Z 01016KT 9999 FEW040 BKN300 26/17 Q1015 NOSIG
YBBN,2014-11-10 05:30,153.1292,-27.3917,77.00,62.60,61.13,10.00,16.00,0.00,29.97,M,6.21,M,FEW,BKN,M,M,4000.00,30000.00,M,M,M,YBBN 100530Z 01016KT 9999 FEW040 BKN300 25/17 Q1015
YBBN,2014-11-10 06:00,153.1292,-27.3917,77.00,62.60,61.13,10.00,16.00,0.00,29.97,M,6.21,M,FEW,BKN,M,M,1500.00,30000.00,M,M,M,YBBN 100600Z 01016KT 9999 FEW015 BKN300 25/17 Q1015 NOSIG
YBBN,2014-11-10 06:30,153.1292,-27.3917,75.20,62.60,64.91,10.00,16.00,0.00,29.97,M,6.21,M,FEW,BKN,M,M,1500.00,30000.00,M,M,M,YBBN 100630Z 01016KT 9999 FEW015 BKN300 24/17 Q1015
YBBN,2014-11-10 07:00,153.1292,-27.3917,75.20,64.40,69.14,10.00,16.00,0.00,30.00,M,6.21,M,FEW,BKN,M,M,1700.00,30000.00,M,M,M,YBBN 100700Z 01016KT 9999 FEW017 BKN300 24/18 Q1016 NOSIG
YBBN,2014-11-10 07:30,153.1292,-27.3917,73.40,62.60,68.94,10.00,15.00,0.00,30.00,M,6.21,M,FEW,BKN,M,M,1700.00,30000.00,M,M,M,YBBN 100730Z 01015KT 9999 FEW017 BKN300 23/17 Q1016
YBBN,2014-11-10 08:00,153.1292,-27.3917,73.40,64.40,73.44,10.00,15.00,0.00,30.00,M,6.21,M,FEW,BKN,M,M,1700.00,30000.00,M,M,M,YBBN 100800Z 01015KT 9999 FEW017 BKN300 23/18 Q1016 NOSIG
YBBN,2014-11-10 08:30,153.1292,-27.3917,73.40,62.60,68.94,10.00,15.00,0.00,30.00,M,6.21,M,FEW,BKN,M,M,1900.00,30000.00,M,M,M,YBBN 100830Z 01015KT 9999 FEW019 BKN300 23/17 Q1016
YBBN,2014-11-10 09:00,153.1292,-27.3917,73.40,62.60,68.94,10.00,13.00,0.00,30.00,M,6.21,M,FEW,BKN,M,M,1900.00,30000.00,M,M,M,YBBN 100900Z 01013KT 9999 FEW019 BKN300 23/17 Q1016 NOSIG
YBBN,2014-11-10 09:30,153.1292,-27.3917,73.40,64.40,73.44,10.00,14.00,0.00,30.00,M,6.21,M,FEW,SCT,BKN,M,1900.00,2200.00,30000.00,M,M,YBBN 100930Z 01014KT 9999 FEW019 SCT022 BKN300 23/18 Q1016
YBBN,2014-11-10 10:00,153.1292,-27.3917,73.40,62.60,68.94,360.00,13.00,0.00,30.00,M,6.21,M,FEW,SCT,M,M,1900.00,2300.00,M,M,M,YBBN 101000Z 36013KT 9999 FEW019 SCT023 23/17 Q1016 NOSIG
YBBN,2014-11-10 10:30,153.1292,-27.3917,73.40,62.60,68.94,10.00,15.00,0.00,30.00,M,6.21,M,FEW,BKN,M,M,1900.00,2300.00,M,M,M,YBBN 101030Z 01015KT 9999 FEW019 BKN023 23/17 Q1016
YBBN,2014-11-10 11:00,153.1292,-27.3917,73.40,62.60,68.94,360.00,13.00,0.00,30.00,M,6.21,M,FEW,SCT,BKN,M,2000.00,2300.00,30000.00,M,M,YBBN 101100Z 36013KT 9999 FEW020 SCT023 BKN300 23/17 Q1016 NOSIG
YBBN,2014-11-10 11:30,153.1292,-27.3917,71.60,62.60,73.27,360.00,14.00,0.00,30.00,M,6.21,M,FEW,SCT,BKN,M,2000.00,2300.00,30000.00,M,M,YBBN 101130Z 36014KT 9999 FEW020 SCT023 BKN300 22/17 Q1016
YBBN,2014-11-10 12:00,153.1292,-27.3917,71.60,62.60,73.27,360.00,15.00,0.00,30.00,M,6.21,M,FEW,BKN,M,M,2200.00,30000.00,M,M,M,YBBN 101200Z 36015KT 9999 FEW022 BKN300 22/17 Q1016 NOSIG
YBBN,2014-11-10 12:30,153.1292,-27.3917,71.60,62.60,73.27,360.00,13.00,0.00,30.00,M,6.21,M,FEW,SCT,M,M,2200.00,30000.00,M,M,M,YBBN 101230Z 36013KT 9999 FEW022 SCT300 22/17 Q1016
YBBN,2014-11-10 13:00,153.1292,-27.3917,71.60,62.60,73.27,360.00,13.00,0.00,30.00,M,6.21,M,FEW,SCT,M,M,2200.00,30000.00,M,M,M,YBBN 101300Z 36013KT 9999 FEW022 SCT300 22/17 Q1016 NOSIG
YBBN,2014-11-10 13:30,153.1292,-27.3917,71.60,62.60,73.27,340.00,12.00,0.00,30.00,M,6.21,M,FEW,SCT,M,M,2300.00,30000.00,M,M,M,YBBN 101330Z 34012KT 9999 FEW023 SCT300 22/17 Q1016
YBBN,2014-11-10 14:00,153.1292,-27.3917,69.80,62.60,77.90,320.00,7.00,0.00,30.00,M,6.21,M,FEW,SCT,M,M,2300.00,12500.00,M,M,M,YBBN 101400Z 32007KT 9999 FEW023 SCT125 21/17 Q1016 NOSIG
YBBN,2014-11-10 14:30,153.1292,-27.3917,69.80,62.60,77.90,340.00,10.00,0.00,30.00,M,6.21,M,FEW,M,M,M,2400.00,M,M,M,M,YBBN 101430Z 34010KT 9999 FEW024 21/17 Q1016
YBBN,2014-11-10 15:00,153.1292,-27.3917,69.80,62.60,77.90,340.00,11.00,0.00,29.97,M,6.21,M,M,M,M,M,M,M,M,M,M,YBBN 101500Z 34011KT CAVOK 21/17 Q1015 NOSIG
YBBN,2014-11-10 15:30,153.1292,-27.3917,69.80,62.60,77.90,340.00,9.00,0.00,29.97,M,6.21,M,M,M,M,M,M,M,M,M,M,YBBN 101530Z 34009KT CAVOK 21/17 Q1015
YBBN,2014-11-10 16:00,153.1292,-27.3917,69.80,62.60,77.90,350.00,10.00,0.00,29.97,M,6.21,M,M,M,M,M,M,M,M,M,M,YBBN 101600Z 35010KT CAVOK 21/17 Q1015 NOSIG
YBBN,2014-11-10 16:30,153.1292,-27.3917,68.00,62.60,82.86,350.00,9.00,0.00,29.97,M,6.21,M,M,M,M,M,M,M,M,M,M,YBBN 101630Z 35009KT CAVOK 20/17 Q1015
YBBN,2014-11-10 17:00,153.1292,-27.3917,69.80,60.80,73.09,350.00,9.00,0.00,29.97,M,6.21,M,FEW,SCT,M,M,1900.00,30000.00,M,M,M,YBBN 101700Z 35009KT 9999 FEW019 SCT300 21/16 Q1015 NOSIG
YBBN,2014-11-10 17:30,153.1292,-27.3917,69.80,60.80,73.09,350.00,11.00,0.00,29.97,M,6.21,M,M,M,M,M,M,M,M,M,M,YBBN 101730Z 35011KT CAVOK 21/16 Q1015
YBBN,2014-11-10 18:00,153.1292,-27.3917,68.00,62.60,82.86,340.00,9.00,0.00,29.97,M,6.21,M,FEW,BKN,M,M,2300.00,2700.00,M,M,M,YBBN 101800Z 34009KT 9999 FEW023 BKN027 20/17 Q1015 NOSIG
YBBN,2014-11-10 18:30,153.1292,-27.3917,68.00,62.60,82.86,250.00,6.00,0.00,30.00,M,6.21,M,FEW,BKN,M,M,2300.00,2800.00,M,M,M,YBBN 101830Z 25006KT 9999 FEW023 BKN028 20/17 Q1016
YBBN,2014-11-10 19:00,153.1292,-27.3917,68.00,62.60,82.86,260.00,4.00,0.00,30.00,M,6.21,M,FEW,BKN,M,M,2500.00,2900.00,M,M,M,YBBN 101900Z 26004KT 9999 FEW025 BKN029 20/17 Q1016 NOSIG
YBBN,2014-11-10 19:30,153.1292,-27.3917,69.80,62.60,77.90,310.00,3.00,0.00,30.00,M,6.21,M,FEW,BKN,M,M,2500.00,2900.00,M,M,M,YBBN 101930Z 31003KT 9999 FEW025 BKN029 21/17 Q1016
YBBN,2014-11-10 20:00,153.1292,-27.3917,69.80,62.60,77.90,290.00,5.00,0.00,30.00,M,6.21,M,FEW,BKN,M,M,2500.00,3000.00,M,M,M,YBBN 102000Z 29005KT 9999 FEW025 BKN030 21/17 Q1016 NOSIG
YBBN,2014-11-10 20:30,153.1292,-27.3917,71.60,62.60,73.27,320.00,5.00,0.00,30.00,M,6.21,M,FEW,BKN,M,M,2500.00,3100.00,M,M,M,YBBN 102030Z 32005KT 9999 FEW025 BKN031 22/17 Q1016
YBBN,2014-11-10 21:00,153.1292,-27.3917,73.40,62.60,68.94,340.00,8.00,0.00,30.03,M,6.21,M,FEW,M,M,M,2500.00,M,M,M,M,YBBN 102100Z 34008KT 9999 FEW025 23/17 Q1017 NOSIG
YBBN,2014-11-10 21:30,153.1292,-27.3917,73.40,62.60,68.94,350.00,8.00,0.00,30.03,M,6.21,M,FEW,M,M,M,2500.00,M,M,M,M,YBBN 102130Z 35008KT 9999 FEW025 23/17 Q1017
YBBN,2014-11-10 22:00,153.1292,-27.3917,75.20,62.60,64.91,360.00,9.00,0.00,30.03,M,6.21,M,FEW,M,M,M,2500.00,M,M,M,M,YBBN 102200Z 36009KT 9999 FEW025 24/17 Q1017 FM2300 02014KT 9999 FEW035
YBBN,2014-11-10 22:30,153.1292,-27.3917,75.20,62.60,64.91,10.00,11.00,0.00,30.00,M,6.21,M,FEW,M,M,M,2500.00,M,M,M,M,YBBN 102230Z 01011KT 9999 FEW025 24/17 Q1016
YBBN,2014-11-10 23:00,153.1292,-27.3917,77.00,62.60,61.13,10.00,12.00,0.00,30.00,M,6.21,M,FEW,M,M,M,2800.00,M,M,M,M,YBBN 102300Z 01012KT 9999 FEW028 25/17 Q1016 NOSIG
YBBN,2014-11-10 23:30,153.1292,-27.3917,77.00,64.40,65.12,360.00,12.00,0.00,30.00,M,6.21,M,FEW,M,M,M,2800.00,M,M,M,M,YBBN 102330Z 36012KT 9999 FEW028 25/18 Q1016
