#DEBUG: Format Typ    -> comma
#DEBUG: Time Period   -> 2015-08-03 00:00:00+00:00 2015-08-04 00:00:00+00:00
#DEBUG: Time Zone     -> Etc/UTC
#DEBUG: Data Contact   -> daryl herzmann akrherz@iastate.edu 515-294-5978
#DEBUG: Entries Found -> -1
station,valid,lon,lat,tmpf, dwpf, relh, drct, sknt, p01i, alti, mslp, vsby, gust, skyc1, skyc2, skyc3, skyc4, skyl1, skyl2, skyl3, skyl4, presentwx, metar
YBBN,2015-08-03 00:00,153.1292,-27.3917,69.80,57.20,64.26,340.00,9.00,0.00,30.09,M,6.21,M,M,M,M,M,M,M,M,M,M,YBBN 030000Z 34009KT CAVOK 21/14 Q1019
YBBN,2015-08-03 00:30,153.1292,-27.3917,69.80,57.20,64.26,360.00,9.00,0.00,30.06,M,6.21,M,M,M,M,M,M,M,M,M,M,YBBN 030030Z 36009KT CAVOK 21/14 Q1018
YBBN,2015-08-03 01:00,153.1292,-27.3917,69.80,55.40,60.21,360.00,11.00,0.00,30.06,M,6.21,M,M,M,M,M,M,M,M,M,M,YBBN 030100Z 36011KT CAVOK 21/13 Q1018 NOSIG
YBBN,2015-08-03 01:30,153.1292,-27.3917,73.40,57.20,56.88,10.00,12.00,0.00,30.03,M,6.21,M,M,M,M,M,M,M,M,M,M,YBBN 030130Z 01012KT CAVOK 23/14 Q1017
YBBN,2015-08-03 02:00,153.1292,-27.3917,71.60,57.20,60.44,20.00,11.00,0.00,30.00,M,6.21,M,M,M,M,M,M,M,M,M,M,YBBN 030200Z 02011KT CAVOK 22/14 Q1016 NOSIG
YBBN,2015-08-03 02:30,153.1292,-27.3917,73.40,57.20,56.88,30.00,10.00,0.00,30.00,M,6.21,M,M,M,M,M,M,M,M,M,M,YBBN 030230Z 03010KT CAVOK 23/14 Q1016 RMK SMOKE TO NW
YBBN,2015-08-03 03:00,153.1292,-27.3917,73.40,60.80,64.69,20.00,11.00,0.00,29.97,M,6.21,M,M,M,M,M,M,M,M,M,M,YBBN 030300Z 02011KT CAVOK 23/16 Q1015
YBBN,2015-08-03 03:30,153.1292,-27.3917,73.40,60.80,64.69,20.00,14.00,0.00,29.97,M,6.21,M,M,M,M,M,M,M,M,M,M,YBBN 030330Z 02014KT CAVOK 23/16 Q1015
YBBN,2015-08-03 04:00,153.1292,-27.3917,73.40,62.60,68.94,20.00,14.00,0.00,29.94,M,6.21,M,M,M,M,M,M,M,M,M,M,YBBN 030400Z 02014KT CAVOK 23/17 Q1014 NOSIG
YBBN,2015-08-03 04:30,153.1292,-27.3917,73.40,62.60,68.94,10.00,14.00,0.00,29.94,M,6.21,M,M,M,M,M,M,M,M,M,M,YBBN 030430Z 01014KT CAVOK 23/17 Q1014
YBBN,2015-08-03 05:00,153.1292,-27.3917,71.60,62.60,73.27,20.00,13.00,0.00,29.94,M,6.21,M,M,M,M,M,M,M,M,M,M,YBBN 030500Z 02013KT CAVOK 22/17 Q1014
YBBN,2015-08-03 05:30,153.1292,-27.3917,71.60,62.60,73.27,20.00,13.00,0.00,29.94,M,6.21,M,M,M,M,M,M,M,M,M,M,YBBN 030530Z 02013KT CAVOK 22/17 Q1014
YBBN,2015-08-03 06:00,153.1292,-27.3917,71.60,62.60,73.27,20.00,13.00,0.00,29.94,M,6.21,M,M,M,M,M,M,M,M,M,M,YBBN 030600Z 02013KT CAVOK 22/17 Q1014
YBBN,2015-08-03 06:30,153.1292,-27.3917,69.80,62.60,77.90,20.00,13.00,0.00,29.94,M,6.21,M,M,M,M,M,M,M,M,M,M,YBBN 030630Z 02013KT CAVOK 21/17 Q1014
YBBN,2015-08-03 07:00,153.1292,-27.3917,68.00,62.60,82.86,20.00,12.00,0.00,29.94,M,6.21,M,M,M,M,M,M,M,M,M,M,YBBN 030700Z 02012KT CAVOK 20/17 Q1014
YBBN,2015-08-03 07:30,153.1292,-27.3917,66.20,62.60,88.18,20.00,12.00,0.00,29.94,M,6.21,M,M,M,M,M,M,M,M,M,M,YBBN 030730Z 02012KT CAVOK 19/17 Q1014
YBBN,2015-08-03 08:00,153.1292,-27.3917,66.20,62.60,88.18,10.00,10.00,0.00,29.97,M,6.21,M,M,M,M,M,M,M,M,M,M,YBBN 030800Z 01010KT CAVOK 19/17 Q1015 NOSIG
YBBN,2015-08-03 08:30,153.1292,-27.3917,64.40,62.60,93.88,10.00,8.00,0.00,29.97,M,6.21,M,M,M,M,M,M,M,M,M,M,YBBN 030830Z 01008KT CAVOK 18/17 Q1015
YBBN,2015-08-03 09:00,153.1292,-27.3917,64.40,60.80,88.09,360.00,6.00,0.00,30.00,M,6.21,M,M,M,M,M,M,M,M,M,M,YBBN 030900Z 36006KT CAVOK 18/16 Q1016
YBBN,2015-08-03 09:30,153.1292,-27.3917,64.40,60.80,88.09,20.00,7.00,0.00,29.97,M,6.21,M,M,M,M,M,M,M,M,M,M,YBBN 030930Z 02007KT CAVOK 18/16 Q1015
YBBN,2015-08-03 10:00,153.1292,-27.3917,62.60,60.80,93.83,10.00,4.00,0.00,30.00,M,6.21,M,M,M,M,M,M,M,M,M,M,YBBN 031000Z 01004KT CAVOK 17/16 Q1016 NOSIG
YBBN,2015-08-03 10:30,153.1292,-27.3917,64.40,60.80,88.09,0.00,0.00,0.00,30.00,M,6.21,M,M,M,M,M,M,M,M,M,M,YBBN 031030Z 00000KT CAVOK 18/16 Q1016
YBBN,2015-08-03 11:00,153.1292,-27.3917,66.20,53.60,63.82,270.00,6.00,0.00,30.00,M,6.21,M,M,M,M,M,M,M,M,M,M,YBBN 031100Z 27006KT CAVOK 19/12 Q1016 NOSIG
YBBN,2015-08-03 11:30,153.1292,-27.3917,62.60,51.80,67.75,270.00,6.00,0.00,30.00,M,6.21,M,M,M,M,M,M,M,M,M,M,YBBN 031130Z 27006KT CAVOK 17/11 Q1016
YBBN,2015-08-03 12:00,153.1292,-27.3917,62.60,48.20,59.26,230.00,5.00,0.00,30.00,M,6.21,M,M,M,M,M,M,M,M,M,M,YBBN 031200Z 23005KT CAVOK 17/09 Q1016 NOSIG
YBBN,2015-08-03 12:30,153.1292,-27.3917,59.00,50.00,72.01,220.00,6.00,0.00,30.00,M,6.21,M,M,M,M,M,M,M,M,M,M,YBBN 031230Z 22006KT CAVOK 15/10 Q1016
YBBN,2015-08-03 13:00,153.1292,-27.3917,62.60,48.20,59.26,250.00,11.00,0.00,30.00,M,6.21,M,M,M,M,M,M,M,M,M,M,YBBN 031300Z 25011KT CAVOK 17/09 Q1016 NOSIG
YBBN,2015-08-03 13:30,153.1292,-27.3917,62.60,46.40,55.37,260.00,9.00,0.00,30.00,M,6.21,M,M,M,M,M,M,M,M,M,M,YBBN 031330Z 26009KT CAVOK 17/08 Q1016 RMK 2AC115 5AC140
YBBN,2015-08-03 14:00,153.1292,-27.3917,62.60,44.60,51.72,250.00,14.00,0.00,30.00,M,6.21,M,M,M,M,M,M,M,M,M,M,YBBN 031400Z 25014KT CAVOK 17/07 Q1016 NOSIG
YBBN,2015-08-03 14:30,153.1292,-27.3917,62.60,42.80,48.28,240.00,15.00,0.00,30.00,M,6.21,M,M,M,M,M,M,M,M,M,M,YBBN 031430Z 24015KT CAVOK 17/06 Q1016 RMK 6AC150
YBBN,2015-08-03 15:00,153.1292,-27.3917,60.80,42.80,51.45,230.00,13.00,0.00,30.00,M,6.21,M,M,M,M,M,M,M,M,M,M,YBBN 031500Z 23013KT CAVOK 16/06 Q1016 NOSIG
YBBN,2015-08-03 15:30,153.1292,-27.3917,60.80,41.00,48.00,220.00,9.00,0.00,30.00,M,6.21,M,M,M,M,M,M,M,M,M,M,YBBN 031530Z 22009KT CAVOK 16/05 Q1016 RMK 1AC130 5AC150
YBBN,2015-08-03 16:00,153.1292,-27.3917,59.00,41.00,51.18,230.00,7.00,0.00,30.00,M,6.21,M,M,M,M,M,M,M,M,M,M,YBBN 031600Z 23007KT CAVOK 15/05 Q1016
YBBN,2015-08-03 16:30,153.1292,-27.3917,55.40,41.00,58.27,240.00,8.00,0.00,30.00,M,6.21,M,M,M,M,M,M,M,M,M,M,YBBN 031630Z 24008KT CAVOK 13/05 Q1016
YBBN,2015-08-03 17:00,153.1292,-27.3917,57.20,41.00,54.60,270.00,5.00,0.00,30.00,M,6.21,M,M,M,M,M,M,M,M,M,M,YBBN 031700Z 27005KT CAVOK 14/05 Q1016 NOSIG
YBBN,2015-08-03 17:30,153.1292,-27.3917,55.40,41.00,58.27,230.00,7.00,0.00,30.00,M,6.21,M,M,M,M,M,M,M,M,M,M,YBBN 031730Z 23007KT CAVOK 13/05 Q1016 RMK 2AC130 4 AC180
YBBN,2015-08-03 18:00,153.1292,-27.3917,57.20,41.00,54.60,200.00,5.00,0.00,30.00,M,6.21,M,M,M,M,M,M,M,M,M,M,YBBN 031800Z 20005KT CAVOK 14/05 Q1016 RMK 1AC130 6AC150
YBBN,2015-08-03 18:30,153.1292,-27.3917,55.40,42.80,62.46,220.00,8.00,0.00,30.03,M,6.21,M,FEW,BKN,M,M,3000.00,13000.00,M,M,M,YBBN 031830Z 22008KT 9999 FEW030 BKN130 13/06 Q1017
YBBN,2015-08-03 19:00,153.1292,-27.3917,57.20,41.00,54.60,200.00,7.00,0.00,30.03,M,6.21,M,FEW,BKN,M,M,3000.00,12000.00,M,M,-SHRA,YBBN 031900Z 20007KT 9999 -SHRA FEW030 BKN120 14/05 Q1017 NOSIG
YBBN,2015-08-03 19:30,153.1292,-27.3917,57.20,41.00,54.60,210.00,7.00,0.00,30.03,M,6.21,M,FEW,SCT,BKN,M,2900.00,4100.00,13000.00,M,M,YBBN 031930Z 21007KT 9999 FEW029 SCT041 BKN130 14/05 Q1017
YBBN,2015-08-03 20:00,153.1292,-27.3917,55.40,42.80,62.46,220.00,7.00,0.00,30.06,M,6.21,M,SCT,BKN,M,M,3900.00,13000.00,M,M,M,YBBN 032000Z 22007KT 9999 SCT039 BKN130 13/06 Q1018 NOSIG
YBBN,2015-08-03 20:30,153.1292,-27.3917,55.40,41.00,58.27,200.00,6.00,0.00,30.06,M,6.21,M,FEW,BKN,M,M,3800.00,13000.00,M,M,M,YBBN 032030Z 20006KT 9999 FEW038 BKN130 13/05 Q1018
YBBN,2015-08-03 21:00,153.1292,-27.3917,53.60,41.00,62.23,210.00,8.00,0.00,30.06,M,6.21,M,FEW,SCT,M,M,4300.00,13000.00,M,M,M,YBBN 032100Z 21008KT 9999 FEW043 SCT130 12/05 Q1018
YBBN,2015-08-03 21:30,153.1292,-27.3917,57.20,41.00,54.60,200.00,8.00,0.00,30.06,M,6.21,M,FEW,SCT,M,M,3800.00,14000.00,M,M,M,YBBN 032130Z 20008KT 9999 FEW038 SCT140 14/05 Q1018
YBBN,2015-08-03 22:00,153.1292,-27.3917,59.00,41.00,51.18,210.00,9.00,0.00,30.09,M,6.21,M,SCT,M,M,M,3800.00,M,M,M,M,YBBN 032200Z 21009KT 9999 SCT038 15/05 Q1019
YBBN,2015-08-03 22:30,153.1292,-27.3917,62.60,39.20,42.00,200.00,10.00,0.00,30.09,M,6.21,M,SCT,M,M,M,3700.00,M,M,M,M,YBBN 032230Z 20010KT 9999 SCT037 17/04 Q1019
YBBN,2015-08-03 23:00,153.1292,-27.3917,62.60,39.20,42.00,210.00,12.00,0.00,30.09,M,6.21,M,SCT,M,M,M,4000.00,M,M,M,M,YBBN 032300Z 21012KT 9999 SCT040 17/04 Q1019
YBBN,2015-08-03 23:30,153.1292,-27.3917,64.40,41.00,42.28,200.00,11.00,0.00,30.09,M,6.21,M,SCT,M,M,M,4500.00,M,M,M,M,YBBN 032330Z 20011KT 9999 SCT045 18/05 Q1019
