#DEBUG: Format Typ    -> comma
#DEBUG: Time Period   -> 2015-08-05 00:00:00+00:00 2015-08-06 00:00:00+00:00
#DEBUG: Time Zone     -> Etc/UTC
#DEBUG: Data Contact   -> daryl herzmann akrherz@iastate.edu 515-294-5978
#DEBUG: Entries Found -> -1
station,valid,lon,lat,tmpf, dwpf, relh, drct, sknt, p01i, alti, mslp, vsby, gust, skyc1, skyc2, skyc3, skyc4, skyl1, skyl2, skyl3, skyl4, presentwx, metar
YBBN,2015-08-05 00:00,153.1292,-27.3917,57.20,26.60,30.69,230.00,16.00,0.00,30.00,M,6.21,M,M,M,M,M,M,M,M,M,M,YBBN 050000Z 23016KT CAVOK 14/M03 Q1016
YBBN,2015-08-05 00:30,153.1292,-27.3917,57.20,24.80,28.48,230.00,15.00,0.00,30.00,M,6.21,M,M,M,M,M,M,M,M,M,M,YBBN 050030Z 23015KT CAVOK 14/M04 Q1016
YBBN,2015-08-05 01:00,153.1292,-27.3917,60.80,24.80,25.04,230.00,13.00,0.00,30.00,M,6.21,M,M,M,M,M,M,M,M,M,M,YBBN 050100Z 23013KT CAVOK 16/M04 Q1016 NOSIG
YBBN,2015-08-05 01:30,153.1292,-27.3917,62.60,23.00,21.79,240.00,11.00,0.00,29.97,M,6.21,M,NCD,M,M,M,M,M,M,M,//,YBBN 050130Z AUTO 24011KT 9999 // NCD 17/M05 Q1015
YBBN,2015-08-05 02:00,153.1292,-27.3917,64.40,24.80,22.06,260.00,12.00,0.00,29.97,M,6.21,M,NCD,M,M,M,M,M,M,M,//,YBBN 050200Z AUTO 26012KT 9999 // NCD 18/M04 Q1015
YBBN,2015-08-05 02:30,153.1292,-27.3917,64.40,23.00,20.46,260.00,11.00,0.00,29.94,M,6.21,M,NCD,M,M,M,M,M,M,M,//,YBBN 050230Z AUTO 26011KT 9999 // NCD 18/M05 Q1014
YBBN,2015-08-05 03:00,153.1292,-27.3917,64.40,23.00,20.46,230.00,11.00,0.00,29.94,M,6.21,M,M,M,M,M,M,M,M,M,M,YBBN 050300Z 23011KT CAVOK 18/M05 Q1014 NOSIG
YBBN,2015-08-05 03:30,153.1292,-27.3917,64.40,21.20,18.96,260.00,14.00,0.00,29.91,M,6.21,M,M,M,M,M,M,M,M,M,M,YBBN 050330Z 26014KT CAVOK 18/M06 Q1013
YBBN,2015-08-05 04:00,153.1292,-27.3917,64.40,23.00,20.46,260.00,14.00,0.00,29.91,M,6.21,M,M,M,M,M,M,M,M,M,M,YBBN 050400Z 26014KT CAVOK 18/M05 Q1013
YBBN,2015-08-05 04:30,153.1292,-27.3917,64.40,21.20,18.96,250.00,12.00,0.00,29.91,M,6.21,M,M,M,M,M,M,M,M,M,M,YBBN 050430Z 25012KT CAVOK 18/M06 Q1013
YBBN,2015-08-05 05:00,153.1292,-27.3917,64.40,21.20,18.96,260.00,14.00,0.00,29.91,M,6.21,M,M,M,M,M,M,M,M,M,M,YBBN 050500Z 26014KT CAVOK 18/M06 Q1013 NOSIG
YBBN,2015-08-05 05:30,153.1292,-27.3917,64.40,23.00,20.46,260.00,15.00,0.00,29.91,M,6.21,M,M,M,M,M,M,M,M,M,M,YBBN 050530Z 26015KT CAVOK 18/M05 Q1013
YBBN,2015-08-05 06:00,153.1292,-27.3917,64.40,23.00,20.46,250.00,18.00,0.00,29.91,M,6.21,M,M,M,M,M,M,M,M,M,M,YBBN 050600Z 25018KT CAVOK 18/M05 Q1013 NOSIG
YBBN,2015-08-05 06:30,153.1292,-27.3917,62.60,23.00,21.79,250.00,18.00,0.00,29.91,M,6.21,M,M,M,M,M,M,M,M,M,M,YBBN 050630Z 25018KT CAVOK 17/M05 Q1013
YBBN,2015-08-05 07:00,153.1292,-27.3917,60.80,24.80,25.04,260.00,19.00,0.00,29.91,M,6.21,M,M,M,M,M,M,M,M,M,M,YBBN 050700Z 26019KT CAVOK 16/M04 Q1013 NOSIG
YBBN,2015-08-05 07:30,153.1292,-27.3917,59.00,26.60,28.77,250.00,19.00,0.00,29.94,M,6.21,M,M,M,M,M,M,M,M,M,M,YBBN 050730Z 25019KT CAVOK 15/M03 Q1014
YBBN,2015-08-05 08:00,153.1292,-27.3917,59.00,28.40,30.98,250.00,12.00,0.00,29.94,M,6.21,M,M,M,M,M,M,M,M,M,M,YBBN 050800Z 25012KT CAVOK 15/M02 Q1014 NOSIG
YBBN,2015-08-05 08:30,153.1292,-27.3917,59.00,26.60,28.77,250.00,13.00,0.00,29.94,M,6.21,M,M,M,M,M,M,M,M,M,M,YBBN 050830Z 25013KT CAVOK 15/M03 Q1014
YBBN,2015-08-05 09:00,153.1292,-27.3917,57.20,28.40,33.05,250.00,16.00,0.00,29.97,M,6.21,M,M,M,M,M,M,M,M,M,M,YBBN 050900Z 25016KT CAVOK 14/M02 Q1015 NOSIG
YBBN,2015-08-05 09:30,153.1292,-27.3917,57.20,28.40,33.05,250.00,17.00,0.00,29.97,M,6.21,M,M,M,M,M,M,M,M,M,M,YBBN 050930Z 25017KT CAVOK 14/M02 Q1015
YBBN,2015-08-05 10:00,153.1292,-27.3917,55.40,28.40,35.28,250.00,17.00,0.00,29.97,M,6.21,M,M,M,M,M,M,M,M,M,M,YBBN 051000Z 25017KT CAVOK 13/M02 Q1015 NOSIG
YBBN,2015-08-05 10:30,153.1292,-27.3917,55.40,28.40,35.28,250.00,18.00,0.00,29.97,M,6.21,M,M,M,M,M,M,M,M,M,M,YBBN 051030Z 25018KT CAVOK 13/M02 Q1015
YBBN,2015-08-05 11:00,153.1292,-27.3917,53.60,30.20,40.54,240.00,14.00,0.00,30.00,M,6.21,M,M,M,M,M,M,M,M,M,M,YBBN 051100Z 24014KT CAVOK 12/M01 Q1016 NOSIG
YBBN,2015-08-05 11:30,153.1292,-27.3917,53.60,30.20,40.54,240.00,15.00,0.00,30.00,M,6.21,M,M,M,M,M,M,M,M,M,M,YBBN 051130Z 24015KT CAVOK 12/M01 Q1016
YBBN,2015-08-05 12:00,153.1292,-27.3917,53.60,30.20,40.54,240.00,15.00,0.00,30.00,M,6.21,M,M,M,M,M,M,M,M,M,M,YBBN 051200Z 24015KT CAVOK 12/M01 Q1016 NOSIG
YBBN,2015-08-05 12:30,153.1292,-27.3917,51.80,32.00,46.59,250.00,17.00,0.00,30.00,M,6.21,M,M,M,M,M,M,M,M,M,M,YBBN 051230Z 25017KT CAVOK 11/00 Q1016
YBBN,2015-08-05 13:00,153.1292,-27.3917,51.80,32.00,46.59,250.00,17.00,0.00,30.00,M,6.21,M,M,M,M,M,M,M,M,M,M,YBBN 051300Z 25017KT CAVOK 11/00 Q1016
YBBN,2015-08-05 13:30,153.1292,-27.3917,51.80,32.00,46.59,250.00,19.00,0.00,30.00,M,6.21,M,M,M,M,M,M,M,M,M,M,YBBN 051330Z 25019KT CAVOK 11/00 Q1016
YBBN,2015-08-05 14:00,153.1292,-27.3917,51.80,32.00,46.59,240.00,12.00,0.00,30.00,M,6.21,M,M,M,M,M,M,M,M,M,M,YBBN 051400Z 24012KT CAVOK 11/00 Q1016
YBBN,2015-08-05 14:30,153.1292,-27.3917,51.80,32.00,46.59,240.00,12.00,0.00,30.00,M,6.21,M,M,M,M,M,M,M,M,M,M,YBBN 051430Z 24012KT CAVOK 11/00 Q1016
YBBN,2015-08-05 15:00,153.1292,-27.3917,50.00,33.80,53.54,230.00,11.00,0.00,30.00,M,6.21,M,M,M,M,M,M,M,M,M,M,YBBN 051500Z 23011KT CAVOK 10/01 Q1016
YBBN,2015-08-05 15:30,153.1292,-27.3917,50.00,32.00,49.81,230.00,13.00,0.00,30.00,M,6.21,M,M,M,M,M,M,M,M,M,M,YBBN 051530Z 23013KT CAVOK 10/00 Q1016
YBBN,2015-08-05 16:00,153.1292,-27.3917,48.20,33.80,57.26,230.00,13.00,0.00,30.00,M,6.21,M,M,M,M,M,M,M,M,M,M,YBBN 051600Z 23013KT CAVOK 09/01 Q1016
YBBN,2015-08-05 16:30,153.1292,-27.3917,50.00,33.80,53.54,240.00,15.00,0.00,29.97,M,6.21,M,M,M,M,M,M,M,M,M,M,YBBN 051630Z 24015KT CAVOK 10/01 Q1015
YBBN,2015-08-05 17:00,153.1292,-27.3917,46.40,33.80,61.28,230.00,9.00,0.00,29.97,M,6.21,M,M,M,M,M,M,M,M,M,M,YBBN 051700Z 23009KT CAVOK 08/01 Q1015 NOSIG
YBBN,2015-08-05 17:30,153.1292,-27.3917,44.60,33.80,65.61,270.00,5.00,0.00,30.00,M,6.21,M,M,M,M,M,M,M,M,M,M,YBBN 051730Z 27005KT CAVOK 07/01 Q1016
YBBN,2015-08-05 18:00,153.1292,-27.3917,44.60,33.80,65.61,280.00,2.00,0.00,30.00,M,6.21,M,M,M,M,M,M,M,M,M,M,YBBN 051800Z 28002KT CAVOK 07/01 Q1016
YBBN,2015-08-05 18:30,153.1292,-27.3917,41.00,33.80,75.33,20.00,1.00,0.00,30.00,M,6.21,M,M,M,M,M,M,M,M,M,M,YBBN 051830Z 02001KT CAVOK 05/01 Q1016
YBBN,2015-08-05 19:00,153.1292,-27.3917,42.80,33.80,70.28,40.00,3.00,0.00,30.00,M,6.21,M,M,M,M,M,M,M,M,M,M,YBBN 051900Z 04003KT CAVOK 06/01 Q1016 NOSIG
YBBN,2015-08-05 19:30,153.1292,-27.3917,42.80,33.80,70.28,40.00,1.00,0.00,30.00,M,6.21,M,M,M,M,M,M,M,M,M,M,YBBN 051930Z 04001KT CAVOK 06/01 Q1016
YBBN,2015-08-05 20:00,153.1292,-27.3917,41.00,33.80,75.33,0.00,0.00,0.00,30.03,M,6.21,M,M,M,M,M,M,M,M,M,M,YBBN 052000Z 00000KT CAVOK 05/01 Q1017 NOSIG
YBBN,2015-08-05 20:30,153.1292,-27.3917,41.00,33.80,75.33,230.00,3.00,0.00,30.03,M,6.21,M,M,M,M,M,M,M,M,M,M,YBBN 052030Z 23003KT CAVOK 05/01 Q1017
YBBN,2015-08-05 21:00,153.1292,-27.3917,46.40,33.80,61.28,260.00,5.00,0.00,30.03,M,6.21,M,M,M,M,M,M,M,M,M,M,YBBN 052100Z 26005KT CAVOK 08/01 Q1017 NOSIG
YBBN,2015-08-05 21:30,153.1292,-27.3917,50.00,35.60,57.52,250.00,6.00,0.00,30.03,M,6.21,M,M,M,M,M,M,M,M,M,M,YBBN 052130Z 25006KT CAVOK 10/02 Q1017
YBBN,2015-08-05 22:00,153.1292,-27.3917,51.80,35.60,53.81,250.00,7.00,0.00,30.03,M,6.21,M,M,M,M,M,M,M,M,M,M,YBBN 052200Z 25007KT CAVOK 11/02 Q1017 NOSIG
YBBN,2015-08-05 22:30,153.1292,-27.3917,55.40,33.80,43.90,250.00,9.00,0.00,30.03,M,6.21,M,M,M,M,M,M,M,M,M,M,YBBN 052230Z 25009KT CAVOK 13/01 Q1017
YBBN,2015-08-05 23:00,153.1292,-27.3917,57.20,33.80,41.13,240.00,9.00,0.00,30.03,M,6.21,M,M,M,M,M,M,M,M,M,M,YBBN 052300Z 24009KT CAVOK 14/01 Q1017
YBBN,2015-08-05 23:30,153.1292,-27.3917,59.00,32.00,35.87,240.00,9.00,0.00,30.03,M,6.21,M,M,M,M,M,M,M,M,M,M,YBBN 052330Z 24009KT CAVOK 15/00 Q1017
