#DEBUG: Format Typ    -> comma
#DEBUG: Time Period   -> 2014-10-20 00:00:00+00:00 2014-10-21 00:00:00+00:00
#DEBUG: Time Zone     -> Etc/UTC
#DEBUG: Data Contact   -> daryl herzmann akrherz@iastate.edu 515-294-5978
#DEBUG: Entries Found -> -1
station,valid,lon,lat,tmpf, dwpf, relh, drct, sknt, p01i, alti, mslp, vsby, gust, skyc1, skyc2, skyc3, skyc4, skyl1, skyl2, skyl3, skyl4, presentwx, metar
YBBN,2014-10-20 00:00,153.1292,-27.3917,71.60,53.60,53.03,20.00,8.00,0.00,30.27,M,6.21,M,FEW,M,M,M,2500.00,M,M,M,M,YBBN 200000Z 02008KT 9999 FEW025 22/12 Q1025 NOSIG
YBBN,2014-10-20 00:30,153.1292,-27.3917,73.40,53.60,49.90,30.00,9.00,0.00,30.27,M,6.21,M,FEW,M,M,M,3500.00,M,M,M,M,YBBN 200030Z 03009KT 9999 FEW035 23/12 Q1025
YBBN,2014-10-20 01:00,153.1292,-27.3917,73.40,51.80,46.71,10.00,10.00,0.00,30.24,M,6.21,M,FEW,M,M,M,3500.00,M,M,M,M,YBBN 200100Z 01010KT 9999 FEW035 23/11 Q1024 NOSIG
YBBN,2014-10-20 01:30,153.1292,-27.3917,75.20,53.60,46.98,10.00,10.00,0.00,30.24,M,6.21,M,FEW,M,M,M,4000.00,M,M,M,M,YBBN 200130Z 01010KT 9999 FEW040 24/12 Q1024
YBBN,2014-10-20 02:00,153.1292,-27.3917,73.40,53.60,49.90,20.00,10.00,0.00,30.21,M,6.21,M,FEW,M,M,M,4000.00,M,M,M,M,YBBN 200200Z 02010KT 9999 FEW040 23/12 Q1023 NOSIG
YBBN,2014-10-20 02:30,153.1292,-27.3917,73.40,53.60,49.90,20.00,11.00,0.00,30.21,M,6.21,M,FEW,M,M,M,4200.00,M,M,M,M,YBBN 200230Z 02011KT 9999 FEW042 23/12 Q1023
YBBN,2014-10-20 03:00,153.1292,-27.3917,75.20,51.80,43.97,30.00,11.00,0.00,30.18,M,6.21,M,FEW,M,M,M,4300.00,M,M,M,M,YBBN 200300Z 03011KT 9999 FEW043 24/11 Q1022 NOSIG
YBBN,2014-10-20 04:30,153.1292,-27.3917,75.20,55.40,50.17,30.00,11.00,0.00,30.18,M,6.21,M,FEW,M,M,M,4000.00,M,M,M,M,YBBN 200430Z 03011KT 9999 FEW040 24/13 Q1022
YBBN,2014-10-20 05:00,153.1292,-27.3917,73.40,55.40,53.29,40.00,11.00,0.00,30.15,M,6.21,M,FEW,M,M,M,3500.00,M,M,M,M,YBBN 200500Z 04011KT 9999 FEW035 23/13 Q1021
YBBN,2014-10-20 05:30,153.1292,-27.3917,73.40,55.40,53.29,40.00,11.00,0.00,30.18,M,6.21,M,FEW,M,M,M,3500.00,M,M,M,M,YBBN 200530Z 04011KT 9999 FEW035 23/13 Q1022
YBBN,2014-10-20 06:00,153.1292,-27.3917,73.40,55.40,53.29,40.00,9.00,0.00,30.18,M,6.21,M,FEW,M,M,M,3500.00,M,M,M,M,YBBN 200600Z 04009KT 9999 FEW035 23/13 Q1022 NOSIG
YBBN,2014-10-20 06:30,153.1292,-27.3917,71.60,57.20,60.44,30.00,9.00,0.00,30.18,M,6.21,M,M,M,M,M,M,M,M,M,M,YBBN 200630Z 03009KT CAVOK 22/14 Q1022
YBBN,2014-10-20 07:00,153.1292,-27.3917,71.60,55.40,56.63,50.00,7.00,0.00,30.18,M,6.21,M,M,M,M,M,M,M,M,M,M,YBBN 200700Z 05007KT CAVOK 22/13 Q1022 NOSIG
YBBN,2014-10-20 07:30,153.1292,-27.3917,71.60,55.40,56.63,60.00,7.00,0.00,30.21,M,6.21,M,M,M,M,M,M,M,M,M,M,YBBN 200730Z 06007KT CAVOK 22/13 Q1023
YBBN,2014-10-20 08:00,153.1292,-27.3917,69.80,55.40,60.21,70.00,7.00,0.00,30.21,M,6.21,M,M,M,M,M,M,M,M,M,M,YBBN 200800Z 07007KT CAVOK 21/13 Q1023 NOSIG
YBBN,2014-10-20 08:30,153.1292,-27.3917,69.80,55.40,60.21,70.00,6.00,0.00,30.24,M,6.21,M,M,M,M,M,M,M,M,M,M,YBBN 200830Z 07006KT CAVOK 21/13 Q1024
YBBN,2014-10-20 09:00,153.1292,-27.3917,69.80,55.40,60.21,80.00,5.00,0.00,30.27,M,6.21,M,M,M,M,M,M,M,M,M,M,YBBN 200900Z 08005KT CAVOK 21/13 Q1025 NOSIG
YBBN,2014-10-20 09:30,153.1292,-27.3917,69.80,55.40,60.21,100.00,5.00,0.00,30.27,M,6.21,M,M,M,M,M,M,M,M,M,M,YBBN 200930Z 10005KT CAVOK 21/13 Q1025
YBBN,2014-10-20 10:00,153.1292,-27.3917,69.80,55.40,60.21,110.00,6.00,0.00,30.30,M,6.21,M,M,M,M,M,M,M,M,M,M,YBBN 201000Z 11006KT CAVOK 21/13 Q1026 NOSIG
YBBN,2014-10-20 10:30,153.1292,-27.3917,69.80,55.40,60.21,110.00,5.00,0.00,30.30,M,6.21,M,FEW,M,M,M,4500.00,M,M,M,M,YBBN 201030Z 11005KT 9999 FEW045 21/13 Q1026
YBBN,2014-10-20 11:00,153.1292,-27.3917,68.00,55.40,64.04,140.00,6.00,0.00,30.30,M,6.21,M,FEW,M,M,M,4000.00,M,M,M,M,YBBN 201100Z 14006KT 9999 FEW040 20/13 Q1026 NOSIG
YBBN,2014-10-20 11:30,153.1292,-27.3917,68.00,55.40,64.04,170.00,5.00,0.00,30.30,M,6.21,M,FEW,M,M,M,4000.00,M,M,M,M,YBBN 201130Z 17005KT 9999 FEW040 20/13 Q1026
YBBN,2014-10-20 12:00,153.1292,-27.3917,68.00,57.20,68.35,160.00,6.00,0.00,30.30,M,6.21,M,FEW,M,M,M,2500.00,M,M,M,M,YBBN 201200Z 16006KT 9999 FEW025 20/14 Q1026 NOSIG
YBBN,2014-10-20 12:30,153.1292,-27.3917,66.20,55.40,68.15,170.00,5.00,0.00,30.30,M,6.21,M,FEW,M,M,M,3500.00,M,M,M,M,YBBN 201230Z 17005KT 9999 FEW035 19/13 Q1026
YBBN,2014-10-20 13:00,153.1292,-27.3917,66.20,55.40,68.15,170.00,3.00,0.00,30.30,M,6.21,M,FEW,M,M,M,3500.00,M,M,M,M,YBBN 201300Z 17003KT 9999 FEW035 19/13 Q1026 NOSIG
YBBN,2014-10-20 13:30,153.1292,-27.3917,64.40,55.40,72.56,190.00,6.00,0.00,30.30,M,6.21,M,FEW,M,M,M,2000.00,M,M,M,M,YBBN 201330Z 19006KT 9999 FEW020 18/13 Q1026
YBBN,2014-10-20 14:00,153.1292,-27.3917,64.40,55.40,72.56,180.00,5.00,0.00,30.30,M,6.21,M,FEW,M,M,M,3500.00,M,M,M,M,YBBN 201400Z 18005KT 9999 FEW035 18/13 Q1026 NOSIG
YBBN,2014-10-20 14:30,153.1292,-27.3917,64.40,55.40,72.56,160.00,5.00,0.00,30.30,M,6.21,M,FEW,M,M,M,3500.00,M,M,M,M,YBBN 201430Z 16005KT 9999 FEW035 18/13 Q1026
YBBN,2014-10-20 15:00,153.1292,-27.3917,64.40,57.20,77.45,160.00,4.00,0.00,30.27,M,6.21,M,FEW,M,M,M,3000.00,M,M,M,M,YBBN 201500Z 16004KT 9999 FEW030 18/14 Q1025
YBBN,2014-10-20 15:30,153.1292,-27.3917,64.40,57.20,77.45,160.00,3.00,0.00,30.27,M,6.21,M,FEW,M,M,M,4500.00,M,M,M,M,YBBN 201530Z 16003KT 9999 FEW045 18/14 Q1025
YBBN,2014-10-20 16:00,153.1292,-27.3917,64.40,57.20,77.45,150.00,2.00,0.00,30.27,M,6.21,M,FEW,M,M,M,3500.00,M,M,M,M,YBBN 201600Z 15002KT 9999 FEW035 18/14 Q1025 NOSIG
YBBN,2014-10-20 16:30,153.1292,-27.3917,64.40,57.20,77.45,160.00,4.00,0.00,30.27,M,6.21,M,FEW,SCT,M,M,3500.00,6400.00,M,M,M,YBBN 201630Z 16004KT 9999 FEW035 SCT064 18/14 Q1025
YBBN,2014-10-20 17:00,153.1292,-27.3917,66.20,59.00,77.60,160.00,4.00,0.00,30.27,M,6.21,M,FEW,SCT,BKN,M,1800.00,3200.00,6400.00,M,VCSH,YBBN 201700Z 16004KT 9999 VCSH FEW018 SCT032 BKN064 19/15 Q1025
YBBN,2014-10-20 17:30,153.1292,-27.3917,66.20,60.80,82.74,120.00,4.00,0.00,30.24,M,6.21,M,FEW,SCT,M,M,2500.00,6500.00,M,M,-DZ,YBBN 201730Z 12004KT 9999 -DZ FEW025 SCT065 19/16 Q1024
YBBN,2014-10-20 18:00,153.1292,-27.3917,68.00,60.80,77.75,130.00,6.00,0.00,30.24,M,6.21,M,FEW,SCT,M,M,2400.00,3400.00,M,M,VCSH,YBBN 201800Z 13006KT 9999 VCSH FEW024 SCT034 20/16 Q1024
YBBN,2014-10-20 18:30,153.1292,-27.3917,66.20,62.60,88.18,130.00,5.00,0.00,30.27,M,6.21,M,FEW,BKN,M,M,3200.00,6200.00,M,M,VCSH,YBBN 201830Z 13005KT 9999 VCSH FEW032 BKN062 19/17 Q1025
YBBN,2014-10-20 19:00,153.1292,-27.3917,66.20,62.60,88.18,140.00,7.00,0.00,30.27,M,6.21,M,FEW,SCT,BKN,M,1800.00,2400.00,3500.00,M,VCSH,YBBN 201900Z 14007KT 9999 VCSH FEW018 SCT024 BKN035 19/17 Q1025 INTER 2000/2200 4000 SHRA BKN017
YBBN,2014-10-20 19:13,153.1292,-27.3917,64.40,60.80,88.09,160.00,10.00,0.00,30.27,M,4.35,M,FEW,SCT,BKN,M,1800.00,2200.00,3000.00,M,-RA,YBBN 201913Z 16010KT 7000 -RA FEW018 SCT022 BKN030 18/16 Q1025
YBBN,2014-10-20 19:30,153.1292,-27.3917,64.40,60.80,88.09,180.00,8.00,0.00,30.27,M,6.21,M,FEW,SCT,BKN,M,1800.00,2500.00,3800.00,M,-DZ,YBBN 201930Z 18008KT 9999 -DZ FEW018 SCT025 BKN038 18/16 Q1025
YBBN,2014-10-20 20:00,153.1292,-27.3917,64.40,60.80,88.09,150.00,6.00,0.00,30.30,M,6.21,M,FEW,SCT,BKN,M,1800.00,3500.00,6000.00,M,VCSH,YBBN 202000Z 15006KT 9999 VCSH FEW018 SCT035 BKN060 18/16 Q1026
YBBN,2014-10-20 20:30,153.1292,-27.3917,66.20,60.80,82.74,150.00,9.00,0.00,30.30,M,6.21,M,FEW,SCT,BKN,M,1100.00,1800.00,3500.00,M,-DZ,YBBN 202030Z 15009KT 9999 -DZ FEW011 SCT018 BKN035 19/16 Q1026
YBBN,2014-10-20 20:42,153.1292,-27.3917,66.20,62.60,88.18,150.00,12.00,0.00,30.30,M,3.73,M,SCT,SCT,BKN,M,1000.00,1800.00,3500.00,M,DZ,YBBN 202042Z 15012KT 6000 DZ SCT010 SCT018 BKN035 19/17 Q1026
YBBN,2014-10-20 21:00,153.1292,-27.3917,66.20,62.60,88.18,140.00,9.00,0.00,30.30,M,4.97,M,SCT,SCT,BKN,M,1000.00,1800.00,3500.00,M,-DZ,YBBN 202100Z 14009KT 8000 -DZ SCT010 SCT018 BKN035 19/17 Q1026
YBBN,2014-10-20 21:30,153.1292,-27.3917,68.00,60.80,77.75,140.00,7.00,0.00,30.30,M,6.21,M,FEW,SCT,BKN,M,1000.00,1800.00,3400.00,M,VCSH,YBBN 202130Z 14007KT 9999 VCSH FEW010 SCT018 BKN034 20/16 Q1026
YBBN,2014-10-20 22:00,153.1292,-27.3917,69.80,57.20,64.26,150.00,9.00,0.00,30.33,M,6.21,M,FEW,SCT,BKN,M,1500.00,2000.00,3800.00,M,VCSH,YBBN 202200Z 15009KT 9999 VCSH FEW015 SCT020 BKN038 21/14 Q1027
YBBN,2014-10-20 22:30,153.1292,-27.3917,69.80,55.40,60.21,150.00,11.00,0.00,30.33,M,6.21,M,FEW,SCT,BKN,M,1500.00,2000.00,4000.00,M,M,YBBN 202230Z 15011KT 9999 FEW015 SCT020 BKN040 21/13 Q1027
YBBN,2014-10-20 23:00,153.1292,-27.3917,71.60,53.60,53.03,150.00,11.00,0.00,30.33,M,6.21,23.00,FEW,SCT,BKN,M,1800.00,2200.00,4000.00,M,VCSH,YBBN 202300Z 15011G23KT 9999 VCSH FEW018 SCT022 BKN040 22/12 Q1027 NOSIG
YBBN,2014-10-20 23:30,153.1292,-27.3917,73.40,53.60,49.90,130.00,13.00,0.00,30.30,M,6.21,M,FEW,SCT,BKN,M,1800.00,2200.00,4500.00,M,VCSH,YBBN 202330Z 13013KT 9999 VCSH FEW018 SCT022 BKN045 23/12 Q1026
