#DEBUG: Format Typ    -> comma
#DEBUG: Time Period   -> 2012-02-04 00:00:00+00:00 2012-02-05 00:00:00+00:00
#DEBUG: Time Zone     -> Etc/UTC
#DEBUG: Data Contact   -> daryl herzmann akrherz@iastate.edu 515-294-5978
#DEBUG: Entries Found -> -1
station,valid,lon,lat,tmpf, dwpf, relh, drct, sknt, p01i, alti, mslp, vsby, gust, skyc1, skyc2, skyc3, skyc4, skyl1, skyl2, skyl3, skyl4, presentwx, metar
YBBN,2012-02-04 00:00,153.1292,-27.3917,78.80,62.60,57.60,100.00,7.00,0.00,29.62,M,6.21,M,SCT,M,M,M,3200.00,M,M,M,M,YBBN 040000Z 10007KT 9999 SCT032 26/17 Q1003 NOSIG
YBBN,2012-02-04 00:30,153.1292,-27.3917,80.60,62.60,54.30,90.00,6.00,0.00,29.62,M,6.21,M,FEW,M,M,M,3200.00,M,M,M,M,YBBN 040030Z 09006KT 9999 FEW032 27/17 Q1003
YBBN,2012-02-04 01:00,153.1292,-27.3917,78.80,62.60,57.60,70.00,8.00,0.00,29.62,M,6.21,M,FEW,SCT,M,M,3200.00,6000.00,M,M,M,YBBN 040100Z 07008KT 9999 FEW032 SCT060 26/17 Q1003 NOSIG
YBBN,2012-02-04 01:30,153.1292,-27.3917,80.60,66.20,61.58,80.00,8.00,0.00,29.59,M,6.21,M,FEW,SCT,M,M,3200.00,6500.00,M,M,M,YBBN 040130Z 08008KT 9999 FEW032 SCT065 27/19 Q1002
YBBN,2012-02-04 02:00,153.1292,-27.3917,78.80,64.40,61.36,90.00,8.00,0.00,29.59,M,6.21,M,FEW,SCT,M,M,3200.00,6000.00,M,M,M,YBBN 040200Z 09008KT 9999 FEW032 SCT060 26/18 Q1002 NOSIG
YBBN,2012-02-04 02:30,153.1292,-27.3917,78.80,64.40,61.36,100.00,8.00,0.00,29.59,M,6.21,M,SCT,SCT,M,M,3200.00,6000.00,M,M,M,YBBN 040230Z 10008KT 9999 SCT032 SCT060 26/18 Q1002
YBBN,2012-02-04 03:00,153.1292,-27.3917,78.80,64.40,61.36,90.00,9.00,0.00,29.59,M,6.21,M,FEW,BKN,M,M,3300.00,6000.00,M,M,M,YBBN 040300Z 09009KT 9999 FEW033 BKN060 26/18 Q1002
YBBN,2012-02-04 03:30,153.1292,-27.3917,80.60,60.80,50.95,90.00,7.00,0.00,29.56,M,6.21,M,FEW,BKN,M,M,3300.00,6000.00,M,M,M,YBBN 040330Z 09007KT 9999 FEW033 BKN060 27/16 Q1001
YBBN,2012-02-04 04:00,153.1292,-27.3917,80.60,62.60,54.30,90.00,8.00,0.00,29.56,M,6.21,M,FEW,BKN,M,M,3300.00,7000.00,M,M,M,YBBN 040400Z 09008KT 9999 FEW033 BKN070 27/17 Q1001
YBBN,2012-02-04 04:30,153.1292,-27.3917,82.40,62.60,51.21,90.00,8.00,0.00,29.56,M,6.21,M,FEW,BKN,M,M,3300.00,7500.00,M,M,M,YBBN 040430Z 09008KT 9999 FEW033 BKN075 28/17 Q1001
YBBN,2012-02-04 05:00,153.1292,-27.3917,80.60,60.80,50.95,100.00,9.00,0.00,29.56,M,6.21,M,FEW,SCT,BKN,M,3000.00,6000.00,7600.00,M,M,YBBN 040500Z 10009KT 9999 FEW030 SCT060 BKN076 27/16 Q1001 NOSIG
YBBN,2012-02-04 05:30,153.1292,-27.3917,80.60,64.40,57.84,100.00,8.00,0.00,29.56,M,6.21,M,FEW,SCT,BKN,M,3000.00,6000.00,8000.00,M,M,YBBN 040530Z 10008KT 9999 FEW030 SCT060 BKN080 27/18 Q1001
YBBN,2012-02-04 06:00,153.1292,-27.3917,80.60,62.60,54.30,90.00,8.00,0.00,29.56,M,6.21,M,FEW,BKN,M,M,1800.00,8000.00,M,M,M,YBBN 040600Z 09008KT 9999 FEW018 BKN080 27/17 Q1001
YBBN,2012-02-04 06:30,153.1292,-27.3917,80.60,66.20,61.58,100.00,9.00,0.00,29.56,M,6.21,M,FEW,SCT,M,M,3000.00,8000.00,M,M,M,YBBN 040630Z 10009KT 9999 FEW030 SCT080 27/19 Q1001
YBBN,2012-02-04 07:00,153.1292,-27.3917,78.80,64.40,61.36,90.00,9.00,0.00,29.56,M,6.21,M,FEW,M,M,M,2800.00,M,M,M,M,YBBN 040700Z 09009KT 9999 FEW028 26/18 Q1001 NOSIG
YBBN,2012-02-04 07:30,153.1292,-27.3917,78.80,66.20,65.33,100.00,7.00,0.00,29.56,M,6.21,M,FEW,M,M,M,2800.00,M,M,M,M,YBBN 040730Z 10007KT 9999 FEW028 26/19 Q1001
YBBN,2012-02-04 08:00,153.1292,-27.3917,77.00,64.40,65.12,90.00,6.00,0.00,29.59,M,6.21,M,FEW,M,M,M,2800.00,M,M,M,M,YBBN 040800Z 09006KT 9999 FEW028 25/18 Q1002
YBBN,2012-02-04 08:30,153.1292,-27.3917,77.00,62.60,61.13,90.00,6.00,0.00,29.59,M,6.21,M,FEW,M,M,M,2500.00,M,M,M,M,YBBN 040830Z 09006KT 9999 FEW025 25/17 Q1002
YBBN,2012-02-04 09:00,153.1292,-27.3917,75.20,64.40,69.14,100.00,5.00,0.00,29.59,M,6.21,M,FEW,M,M,M,2200.00,M,M,M,M,YBBN 040900Z 10005KT 9999 FEW022 24/18 Q1002 NOSIG
YBBN,2012-02-04 09:30,153.1292,-27.3917,75.20,64.40,69.14,100.00,4.00,0.00,29.62,M,6.21,M,M,M,M,M,M,M,M,M,M,YBBN 040930Z 10004KT CAVOK 24/18 Q1003
YBBN,2012-02-04 10:00,153.1292,-27.3917,75.20,64.40,69.14,100.00,4.00,0.00,29.62,M,6.21,M,M,M,M,M,M,M,M,M,M,YBBN 041000Z 10004KT CAVOK 24/18 Q1003 NOSIG
YBBN,2012-02-04 10:30,153.1292,-27.3917,75.20,64.40,69.14,90.00,4.00,0.00,29.62,M,6.21,M,M,M,M,M,M,M,M,M,M,YBBN 041030Z 09004KT CAVOK 24/18 Q1003
YBBN,2012-02-04 11:00,153.1292,-27.3917,73.40,66.20,78.19,0.00,0.00,0.00,29.62,M,6.21,M,M,M,M,M,M,M,M,M,M,YBBN 041100Z 00000KT CAVOK 23/19 Q1003 NOSIG
YBBN,2012-02-04 11:30,153.1292,-27.3917,73.40,66.20,78.19,110.00,2.00,0.00,29.62,M,6.21,M,M,M,M,M,M,M,M,M,M,YBBN 041130Z 11002KT CAVOK 23/19 Q1003
YBBN,2012-02-04 12:00,153.1292,-27.3917,73.40,66.20,78.19,130.00,3.00,0.00,29.62,M,6.21,M,M,M,M,M,M,M,M,M,M,YBBN 041200Z 13003KT CAVOK 23/19 Q1003
YBBN,2012-02-04 12:30,153.1292,-27.3917,73.40,66.20,78.19,0.00,0.00,0.00,29.62,M,6.21,M,M,M,M,M,M,M,M,M,M,YBBN 041230Z 00000KT CAVOK 23/19 Q1003
YBBN,2012-02-04 13:00,153.1292,-27.3917,71.60,66.20,83.09,0.00,0.00,0.00,29.62,M,6.21,M,FEW,M,M,M,2500.00,M,M,M,M,YBBN 041300Z 00000KT 9999 FEW025 22/19 Q1003 NOSIG
YBBN,2012-02-04 13:30,153.1292,-27.3917,71.60,66.20,83.09,240.00,3.00,0.00,29.62,M,6.21,M,FEW,M,M,M,2500.00,M,M,M,M,YBBN 041330Z 24003KT 9999 FEW025 22/19 Q1003
YBBN,2012-02-04 14:00,153.1292,-27.3917,71.60,66.20,83.09,220.00,4.00,0.00,29.62,M,6.21,M,FEW,M,M,M,2500.00,M,M,M,M,YBBN 041400Z 22004KT 9999 FEW025 22/19 Q1003 NOSIG
YBBN,2012-02-04 14:30,153.1292,-27.3917,69.80,66.20,88.34,230.00,3.00,0.00,29.59,M,6.21,M,M,M,M,M,M,M,M,M,M,YBBN 041430Z 23003KT CAVOK 21/19 Q1002
YBBN,2012-02-04 15:00,153.1292,-27.3917,69.80,66.20,88.34,230.00,4.00,0.00,29.59,M,6.21,M,M,M,M,M,M,M,M,M,M,YBBN 041500Z 23004KT CAVOK 21/19 Q1002 NOSIG
YBBN,2012-02-04 15:30,153.1292,-27.3917,71.60,66.20,83.09,210.00,4.00,0.00,29.59,M,6.21,M,M,M,M,M,M,M,M,M,M,YBBN 041530Z 21004KT CAVOK 22/19 Q1002
YBBN,2012-02-04 16:00,153.1292,-27.3917,69.80,66.20,88.34,200.00,4.00,0.00,29.59,M,6.21,M,M,M,M,M,M,M,M,M,M,YBBN 041600Z 20004KT CAVOK 21/19 Q1002
YBBN,2012-02-04 16:30,153.1292,-27.3917,69.80,66.20,88.34,200.00,4.00,0.00,29.59,M,6.21,M,M,M,M,M,M,M,M,M,M,YBBN 041630Z 20004KT CAVOK 21/19 Q1002
YBBN,2012-02-04 17:00,153.1292,-27.3917,68.00,66.20,93.97,220.00,4.00,0.00,29.59,M,6.21,M,M,M,M,M,M,M,M,M,M,YBBN 041700Z 22004KT CAVOK 20/19 Q1002 NOSIG
YBBN,2012-02-04 17:30,153.1292,-27.3917,68.00,66.20,93.97,250.00,3.00,0.00,29.59,M,6.21,M,FEW,SCT,M,M,3200.00,11000.00,M,M,M,YBBN 041730Z 25003KT 9999 FEW032 SCT110 20/19 Q1002
YBBN,2012-02-04 18:00,153.1292,-27.3917,69.80,66.20,88.34,210.00,4.00,0.00,29.59,M,6.21,M,BKN,M,M,M,2600.00,M,M,M,M,YBBN 041800Z 21004KT 9999 BKN026 21/19 Q1002 NOSIG
YBBN,2012-02-04 18:30,153.1292,-27.3917,69.80,66.20,88.34,220.00,4.00,0.00,29.59,M,6.21,M,BKN,M,M,M,2600.00,M,M,M,M,YBBN 041830Z 22004KT 9999 BKN026 21/19 Q1002
YBBN,2012-02-04 19:00,153.1292,-27.3917,69.80,68.00,94.01,230.00,5.00,0.00,29.59,M,6.21,M,BKN,M,M,M,2800.00,M,M,M,M,YBBN 041900Z 23005KT 9999 BKN028 21/20 Q1002
YBBN,2012-02-04 19:30,153.1292,-27.3917,69.80,68.00,94.01,230.00,3.00,0.00,29.59,M,6.21,M,SCT,M,M,M,2800.00,M,M,M,M,YBBN 041930Z 23003KT 9999 SCT028 21/20 Q1002
YBBN,2012-02-04 20:00,153.1292,-27.3917,69.80,66.20,88.34,0.00,0.00,0.00,29.62,M,6.21,M,SCT,M,M,M,3000.00,M,M,M,M,YBBN 042000Z 00000KT 9999 SCT030 21/19 Q1003
YBBN,2012-02-04 20:30,153.1292,-27.3917,71.60,68.00,88.43,260.00,4.00,0.00,29.62,M,6.21,M,FEW,SCT,M,M,2000.00,7000.00,M,M,M,YBBN 042030Z 26004KT 9999 FEW020 SCT070 22/20 Q1003
YBBN,2012-02-04 21:00,153.1292,-27.3917,71.60,68.00,88.43,270.00,5.00,0.00,29.62,M,6.21,M,FEW,SCT,M,M,2300.00,7000.00,M,M,M,YBBN 042100Z 27005KT 9999 FEW023 SCT070 22/20 Q1003
YBBN,2012-02-04 21:30,153.1292,-27.3917,73.40,68.00,83.21,220.00,5.00,0.00,29.62,M,6.21,M,FEW,M,M,M,2300.00,M,M,M,M,YBBN 042130Z 22005KT 9999 FEW023 23/20 Q1003
YBBN,2012-02-04 22:00,153.1292,-27.3917,75.20,66.20,73.61,220.00,5.00,0.00,29.62,M,6.21,M,FEW,M,M,M,2000.00,M,M,M,M,YBBN 042200Z 22005KT 9999 FEW020 24/19 Q1003
YBBN,2012-02-04 22:30,153.1292,-27.3917,77.00,66.20,69.33,90.00,3.00,0.00,29.62,M,6.21,M,FEW,M,M,M,2400.00,M,M,M,M,YBBN 042230Z 09003KT 9999 FEW024 25/19 Q1003
YBBN,2012-02-04 23:00,153.1292,-27.3917,77.00,66.20,69.33,120.00,5.00,0.00,29.62,M,6.21,M,SCT,M,M,M,2400.00,M,M,M,M,YBBN 042300Z 12005KT 9999 SCT024 25/19 Q1003
YBBN,2012-02-04 23:30,153.1292,-27.3917,78.80,66.20,65.33,140.00,2.00,0.00,29.62,M,6.21,M,SCT,M,M,M,2800.00,M,M,M,M,YBBN 042330Z 14002KT 9999 SCT028 26/19 Q1003
