#DEBUG: Format Typ    -> comma
#DEBUG: Time Period   -> 2013-10-02 00:00:00+00:00 2013-10-03 00:00:00+00:00
#DEBUG: Time Zone     -> Etc/UTC
#DEBUG: Data Contact   -> daryl herzmann akrherz@iastate.edu 515-294-5978
#DEBUG: Entries Found -> -1
station,valid,lon,lat,tmpf, dwpf, relh, drct, sknt, p01i, alti, mslp, vsby, gust, skyc1, skyc2, skyc3, skyc4, skyl1, skyl2, skyl3, skyl4, presentwx, metar
YBBN,2013-10-02 00:00,153.1292,-27.3917,75.20,57.20,53.55,360.00,8.00,0.00,30.00,M,6.21,M,FEW,M,M,M,2300.00,M,M,M,M,YBBN 020000Z 36008KT 9999 FEW023 24/14 Q1016 NOSIG
YBBN,2013-10-02 00:30,153.1292,-27.3917,75.20,59.00,57.12,30.00,11.00,0.00,30.00,M,6.21,M,FEW,M,M,M,2500.00,M,M,M,M,YBBN 020030Z 03011KT 9999 FEW025 24/15 Q1016
YBBN,2013-10-02 01:00,153.1292,-27.3917,77.00,57.20,50.43,10.00,9.00,0.00,30.00,M,6.21,M,FEW,M,M,M,2600.00,M,M,M,M,YBBN 020100Z 01009KT 9999 FEW026 25/14 Q1016
YBBN,2013-10-02 01:30,153.1292,-27.3917,78.80,59.00,50.69,10.00,9.00,0.00,29.97,M,6.21,M,FEW,M,M,M,3000.00,M,M,M,M,YBBN 020130Z 01009KT 9999 FEW030 26/15 Q1015
YBBN,2013-10-02 02:00,153.1292,-27.3917,78.80,59.00,50.69,20.00,11.00,0.00,29.97,M,6.21,M,FEW,M,M,M,3200.00,M,M,M,M,YBBN 020200Z 02011KT 9999 FEW032 26/15 Q1015
YBBN,2013-10-02 02:30,153.1292,-27.3917,80.60,59.00,47.79,30.00,13.00,0.00,29.94,M,6.21,M,FEW,M,M,M,3500.00,M,M,M,M,YBBN 020230Z 03013KT 9999 FEW035 27/15 Q1014
YBBN,2013-10-02 03:00,153.1292,-27.3917,78.80,59.00,50.69,30.00,15.00,0.00,29.94,M,6.21,M,FEW,M,M,M,3700.00,M,M,M,M,YBBN 020300Z 03015KT 9999 FEW037 26/15 Q1014
YBBN,2013-10-02 03:30,153.1292,-27.3917,80.60,57.20,44.80,30.00,14.00,0.00,29.91,M,6.21,M,FEW,M,M,M,4000.00,M,M,M,M,YBBN 020330Z 03014KT 9999 FEW040 27/14 Q1013
YBBN,2013-10-02 04:00,153.1292,-27.3917,78.80,57.20,47.52,30.00,13.00,0.00,29.91,M,6.21,M,FEW,M,M,M,4200.00,M,M,M,M,YBBN 020400Z 03013KT 9999 FEW042 26/14 Q1013
YBBN,2013-10-02 04:30,153.1292,-27.3917,80.60,53.60,39.30,40.00,13.00,0.00,29.88,M,6.21,M,FEW,M,M,M,4500.00,M,M,M,M,YBBN 020430Z 04013KT 9999 FEW045 27/12 Q1012
YBBN,2013-10-02 05:00,153.1292,-27.3917,78.80,59.00,50.69,30.00,13.00,0.00,29.88,M,6.21,M,FEW,M,M,M,4700.00,M,M,M,M,YBBN 020500Z 03013KT 9999 FEW047 26/15 Q1012
YBBN,2013-10-02 05:30,153.1292,-27.3917,77.00,60.80,57.36,10.00,13.00,0.00,29.88,M,6.21,M,FEW,M,M,M,4800.00,M,M,M,M,YBBN 020530Z 01013KT 9999 FEW048 25/16 Q1012
YBBN,2013-10-02 06:00,153.1292,-27.3917,77.00,60.80,57.36,10.00,13.00,0.00,29.88,M,6.21,M,FEW,M,M,M,4500.00,M,M,M,M,YBBN 020600Z 01013KT 9999 FEW045 25/16 Q1012
YBBN,2013-10-02 06:30,153.1292,-27.3917,75.20,62.60,64.91,10.00,14.00,0.00,29.88,M,6.21,M,FEW,M,M,M,4300.00,M,M,M,M,YBBN 020630Z 01014KT 9999 FEW043 24/17 Q1012
YBBN,2013-10-02 07:00,153.1292,-27.3917,73.40,62.60,68.94,10.00,13.00,0.00,29.88,M,6.21,M,FEW,M,M,M,4200.00,M,M,M,M,YBBN 020700Z 01013KT 9999 FEW042 23/17 Q1012 NOSIG
YBBN,2013-10-02 07:30,153.1292,-27.3917,73.40,64.40,73.44,10.00,13.00,0.00,29.88,M,6.21,M,FEW,M,M,M,4000.00,M,M,M,M,YBBN 020730Z 01013KT 9999 FEW040 23/18 Q1012
YBBN,2013-10-02 08:00,153.1292,-27.3917,71.60,64.40,78.04,10.00,13.00,0.00,29.91,M,6.21,M,FEW,M,M,M,4000.00,M,M,M,M,YBBN 020800Z 01013KT 9999 FEW040 22/18 Q1013
YBBN,2013-10-02 08:30,153.1292,-27.3917,71.60,64.40,78.04,360.00,14.00,0.00,29.91,M,6.21,M,FEW,M,M,M,4000.00,M,M,M,M,YBBN 020830Z 36014KT 9999 FEW040 22/18 Q1013
YBBN,2013-10-02 09:00,153.1292,-27.3917,71.60,64.40,78.04,10.00,14.00,0.00,29.91,M,6.21,M,FEW,M,M,M,4000.00,M,M,M,M,YBBN 020900Z 01014KT 9999 FEW040 22/18 Q1013
YBBN,2013-10-02 09:30,153.1292,-27.3917,71.60,64.40,78.04,360.00,10.00,0.00,29.91,M,6.21,M,M,M,M,M,M,M,M,M,M,YBBN 020930Z 36010KT CAVOK 22/18 Q1013
YBBN,2013-10-02 10:00,153.1292,-27.3917,71.60,64.40,78.04,360.00,12.00,0.00,29.91,M,6.21,M,M,M,M,M,M,M,M,M,M,YBBN 021000Z 36012KT CAVOK 22/18 Q1013 NOSIG
YBBN,2013-10-02 10:30,153.1292,-27.3917,71.60,66.20,83.09,360.00,11.00,0.00,29.91,M,6.21,M,M,M,M,M,M,M,M,M,M,YBBN 021030Z 36011KT CAVOK 22/19 Q1013
YBBN,2013-10-02 11:00,153.1292,-27.3917,71.60,66.20,83.09,360.00,12.00,0.00,29.91,M,6.21,M,M,M,M,M,M,M,M,M,M,YBBN 021100Z 36012KT CAVOK 22/19 Q1013 NOSIG
YBBN,2013-10-02 11:30,153.1292,-27.3917,71.60,66.20,83.09,360.00,10.00,0.00,29.91,M,6.21,M,M,M,M,M,M,M,M,M,M,YBBN 021130Z 36010KT CAVOK 22/19 Q1013
YBBN,2013-10-02 12:00,153.1292,-27.3917,71.60,66.20,83.09,10.00,9.00,0.00,29.91,M,6.21,M,M,M,M,M,M,M,M,M,M,YBBN 021200Z 01009KT CAVOK 22/19 Q1013 NOSIG
YBBN,2013-10-02 12:30,153.1292,-27.3917,71.60,68.00,88.43,10.00,12.00,0.00,29.91,M,6.21,M,FEW,M,M,M,3000.00,M,M,M,M,YBBN 021230Z 01012KT 9999 FEW030 22/20 Q1013
YBBN,2013-10-02 13:00,153.1292,-27.3917,71.60,68.00,88.43,360.00,12.00,0.00,29.91,M,6.21,M,M,M,M,M,M,M,M,M,M,YBBN 021300Z 36012KT CAVOK 22/20 Q1013 NOSIG
YBBN,2013-10-02 13:30,153.1292,-27.3917,71.60,68.00,88.43,360.00,13.00,0.00,29.88,M,6.21,M,M,M,M,M,M,M,M,M,M,YBBN 021330Z 36013KT CAVOK 22/20 Q1012
YBBN,2013-10-02 14:00,153.1292,-27.3917,69.80,66.20,88.34,360.00,12.00,0.00,29.88,M,6.21,M,M,M,M,M,M,M,M,M,M,YBBN 021400Z 36012KT CAVOK 21/19 Q1012 NOSIG
YBBN,2013-10-02 14:30,153.1292,-27.3917,69.80,66.20,88.34,350.00,9.00,0.00,29.88,M,6.21,M,M,M,M,M,M,M,M,M,M,YBBN 021430Z 35009KT CAVOK 21/19 Q1012
YBBN,2013-10-02 15:00,153.1292,-27.3917,68.00,66.20,93.97,350.00,9.00,0.00,29.88,M,6.21,M,M,M,M,M,M,M,M,M,M,YBBN 021500Z 35009KT CAVOK 20/19 Q1012 NOSIG
YBBN,2013-10-02 15:30,153.1292,-27.3917,69.80,64.40,82.98,360.00,11.00,0.00,29.85,M,6.21,M,M,M,M,M,M,M,M,M,M,YBBN 021530Z 36011KT CAVOK 21/18 Q1011
YBBN,2013-10-02 16:00,153.1292,-27.3917,69.80,66.20,88.34,360.00,10.00,0.00,29.85,M,6.21,M,M,M,M,M,M,M,M,M,M,YBBN 021600Z 36010KT CAVOK 21/19 Q1011 NOSIG
YBBN,2013-10-02 16:30,153.1292,-27.3917,68.00,64.40,88.26,360.00,11.00,0.00,29.85,M,6.21,M,M,M,M,M,M,M,M,M,M,YBBN 021630Z 36011KT CAVOK 20/18 Q1011
YBBN,2013-10-02 17:00,153.1292,-27.3917,66.20,64.40,93.92,360.00,11.00,0.00,29.85,M,6.21,M,M,M,M,M,M,M,M,M,M,YBBN 021700Z 36011KT CAVOK 19/18 Q1011
YBBN,2013-10-02 17:30,153.1292,-27.3917,64.40,62.60,93.88,250.00,4.00,0.00,29.85,M,6.21,M,M,M,M,M,M,M,M,M,M,YBBN 021730Z 25004KT CAVOK 18/17 Q1011
YBBN,2013-10-02 18:00,153.1292,-27.3917,64.40,62.60,93.88,240.00,4.00,0.00,29.85,M,6.21,M,M,M,M,M,M,M,M,M,M,YBBN 021800Z 24004KT CAVOK 18/17 Q1011
YBBN,2013-10-02 18:30,153.1292,-27.3917,64.40,62.60,93.88,260.00,2.00,0.00,29.85,M,6.21,M,M,M,M,M,M,M,M,M,M,YBBN 021830Z 26002KT CAVOK 18/17 Q1011
YBBN,2013-10-02 19:00,153.1292,-27.3917,62.60,62.60,100.00,240.00,4.00,0.00,29.85,M,6.21,M,FEW,BKN,M,M,3000.00,9500.00,M,M,M,YBBN 021900Z 24004KT 9999 FEW030 BKN095 17/17 Q1011
YBBN,2013-10-02 19:30,153.1292,-27.3917,64.40,62.60,93.88,260.00,5.00,0.00,29.88,M,6.21,M,FEW,BKN,M,M,2000.00,9800.00,M,M,M,YBBN 021930Z 26005KT 9999 FEW020 BKN098 18/17 Q1012
YBBN,2013-10-02 20:00,153.1292,-27.3917,64.40,62.60,93.88,270.00,3.00,0.00,29.85,M,6.21,M,M,M,M,M,M,M,M,M,M,YBBN 022000Z 27003KT CAVOK 18/17 Q1011 NOSIG
YBBN,2013-10-02 20:30,153.1292,-27.3917,66.20,64.40,93.92,350.00,5.00,0.00,29.88,M,6.21,M,FEW,SCT,M,M,4000.00,10000.00,M,M,M,YBBN 022030Z 35005KT 9999 FEW040 SCT100 19/18 Q1012
YBBN,2013-10-02 21:00,153.1292,-27.3917,69.80,66.20,88.34,340.00,8.00,0.00,29.88,M,6.21,M,FEW,SCT,M,M,4000.00,10000.00,M,M,M,YBBN 022100Z 34008KT 9999 FEW040 SCT100 21/19 Q1012 NOSIG
YBBN,2013-10-02 21:30,153.1292,-27.3917,73.40,66.20,78.19,350.00,10.00,0.00,29.88,M,6.21,M,FEW,M,M,M,4000.00,M,M,M,M,YBBN 022130Z 35010KT 9999 FEW040 23/19 Q1012
YBBN,2013-10-02 22:00,153.1292,-27.3917,75.20,64.40,69.14,330.00,9.00,0.00,29.88,M,6.21,M,FEW,SCT,M,M,4500.00,10000.00,M,M,M,YBBN 022200Z 33009KT 9999 FEW045 SCT100 24/18 Q1012 NOSIG
YBBN,2013-10-02 22:30,153.1292,-27.3917,77.00,64.40,65.12,340.00,12.00,0.00,29.88,M,6.21,M,FEW,M,M,M,4500.00,M,M,M,M,YBBN 022230Z 34012KT 9999 FEW045 25/18 Q1012
YBBN,2013-10-02 23:00,153.1292,-27.3917,78.80,64.40,61.36,350.00,11.00,0.00,29.88,M,6.21,M,FEW,M,M,M,4500.00,M,M,M,M,YBBN 022300Z 35011KT 9999 FEW045 26/18 Q1012 NOSIG
YBBN,2013-10-02 23:30,153.1292,-27.3917,82.40,62.60,51.21,340.00,12.00,0.00,29.85,M,6.21,M,FEW,M,M,M,3500.00,M,M,M,M,YBBN 022330Z 34012KT 9999 FEW035 28/17 Q1011
YBBN,2013-10-02 23:43,153.1292,-27.3917,82.40,60.80,48.05,300.00,20.00,0.00,29.85,M,6.21,M,FEW,M,M,M,3500.00,M,M,M,M,YBBN 022343Z 30020KT 9999 FEW035 28/16 Q1011
YBBN,2013-10-02 23:54,153.1292,-27.3917,84.20,60.80,45.34,360.00,11.00,0.00,29.85,M,6.21,M,FEW,M,M,M,3500.00,M,M,M,M,YBBN 022354Z 36011KT 9999 FEW035 29/16 Q1011
