#DEBUG: Format Typ    -> comma
#DEBUG: Time Period   -> 2015-07-15 00:00:00+00:00 2015-07-16 00:00:00+00:00
#DEBUG: Time Zone     -> Etc/UTC
#DEBUG: Data Contact   -> daryl herzmann akrherz@iastate.edu 515-294-5978
#DEBUG: Entries Found -> -1
station,valid,lon,lat,tmpf, dwpf, relh, drct, sknt, p01i, alti, mslp, vsby, gust, skyc1, skyc2, skyc3, skyc4, skyl1, skyl2, skyl3, skyl4, presentwx, metar
YBBN,2015-07-15 00:00,153.1292,-27.3917,57.20,39.20,50.91,240.00,6.00,0.00,30.12,M,6.21,M,M,M,M,M,M,M,M,M,M,YBBN 150000Z 24006KT CAVOK 14/04 Q1020
YBBN,2015-07-15 00:30,153.1292,-27.3917,57.20,37.40,47.44,210.00,7.00,0.00,30.12,M,6.21,M,M,M,M,M,M,M,M,M,M,YBBN 150030Z 21007KT CAVOK 14/03 Q1020
YBBN,2015-07-15 01:00,153.1292,-27.3917,59.00,37.40,44.47,220.00,6.00,0.00,30.12,M,6.21,M,M,M,M,M,M,M,M,M,M,YBBN 150100Z 22006KT CAVOK 15/03 Q1020
YBBN,2015-07-15 01:30,153.1292,-27.3917,60.80,37.40,41.71,230.00,6.00,0.00,30.09,M,6.21,M,M,M,M,M,M,M,M,M,M,YBBN 150130Z 23006KT CAVOK 16/03 Q1019
YBBN,2015-07-15 02:00,153.1292,-27.3917,62.60,37.40,39.14,240.00,4.00,0.00,30.09,M,6.21,M,M,M,M,M,M,M,M,M,M,YBBN 150200Z 24004KT CAVOK 17/03 Q1019
YBBN,2015-07-15 02:30,153.1292,-27.3917,60.80,37.40,41.71,10.00,6.00,0.00,30.06,M,6.21,M,M,M,M,M,M,M,M,M,M,YBBN 150230Z 01006KT CAVOK 16/03 Q1018
YBBN,2015-07-15 03:00,153.1292,-27.3917,60.80,39.20,44.76,20.00,5.00,0.00,30.03,M,6.21,M,M,M,M,M,M,M,M,M,M,YBBN 150300Z 02005KT CAVOK 16/04 Q1017 NOSIG
YBBN,2015-07-15 03:30,153.1292,-27.3917,62.60,37.40,39.14,350.00,6.00,0.00,30.03,M,6.21,M,M,M,M,M,M,M,M,M,M,YBBN 150330Z 35006KT CAVOK 17/03 Q1017
YBBN,2015-07-15 04:00,153.1292,-27.3917,62.60,39.20,42.00,10.00,8.00,0.00,30.00,M,6.21,M,M,M,M,M,M,M,M,M,M,YBBN 150400Z 01008KT CAVOK 17/04 Q1016 NOSIG
YBBN,2015-07-15 04:30,153.1292,-27.3917,60.80,39.20,44.76,360.00,8.00,0.00,30.03,M,6.21,M,M,M,M,M,M,M,M,M,M,YBBN 150430Z 36008KT CAVOK 16/04 Q1017
YBBN,2015-07-15 05:00,153.1292,-27.3917,60.80,39.20,44.76,10.00,7.00,0.00,30.03,M,6.21,M,M,M,M,M,M,M,M,M,M,YBBN 150500Z 01007KT CAVOK 16/04 Q1017 NOSIG
YBBN,2015-07-15 05:30,153.1292,-27.3917,59.00,41.00,51.18,10.00,7.00,0.00,30.00,M,6.21,M,M,M,M,M,M,M,M,M,M,YBBN 150530Z 01007KT CAVOK 15/05 Q1016
YBBN,2015-07-15 06:00,153.1292,-27.3917,59.00,42.80,54.86,20.00,6.00,0.00,30.03,M,6.21,M,M,M,M,M,M,M,M,M,M,YBBN 150600Z 02006KT CAVOK 15/06 Q1017 NOSIG
YBBN,2015-07-15 06:30,153.1292,-27.3917,59.00,44.60,58.77,350.00,6.00,0.00,30.03,M,6.21,M,M,M,M,M,M,M,M,M,M,YBBN 150630Z 35006KT CAVOK 15/07 Q1017
YBBN,2015-07-15 07:00,153.1292,-27.3917,57.20,41.00,54.60,340.00,5.00,0.00,30.03,M,6.21,M,M,M,M,M,M,M,M,M,M,YBBN 150700Z 34005KT CAVOK 14/05 Q1017
YBBN,2015-07-15 07:30,153.1292,-27.3917,55.40,42.80,62.46,350.00,5.00,0.00,30.03,M,6.21,M,M,M,M,M,M,M,M,M,M,YBBN 150730Z 35005KT CAVOK 13/06 Q1017
YBBN,2015-07-15 08:00,153.1292,-27.3917,55.40,44.60,66.91,360.00,4.00,0.00,30.03,M,6.21,M,M,M,M,M,M,M,M,M,M,YBBN 150800Z 36004KT CAVOK 13/07 Q1017
YBBN,2015-07-15 08:30,153.1292,-27.3917,55.40,44.60,66.91,360.00,6.00,0.00,30.03,M,6.21,M,M,M,M,M,M,M,M,M,M,YBBN 150830Z 36006KT CAVOK 13/07 Q1017
YBBN,2015-07-15 09:00,153.1292,-27.3917,53.60,44.60,71.45,360.00,7.00,0.00,30.06,M,6.21,M,M,M,M,M,M,M,M,M,M,YBBN 150900Z 36007KT CAVOK 12/07 Q1018
YBBN,2015-07-15 09:30,153.1292,-27.3917,55.40,44.60,66.91,350.00,7.00,0.00,30.06,M,6.21,M,M,M,M,M,M,M,M,M,M,YBBN 150930Z 35007KT CAVOK 13/07 Q1018
YBBN,2015-07-15 10:00,153.1292,-27.3917,53.60,46.40,76.50,320.00,6.00,0.00,30.06,M,6.21,M,M,M,M,M,M,M,M,M,M,YBBN 151000Z 32006KT CAVOK 12/08 Q1018 NOSIG
YBBN,2015-07-15 10:30,153.1292,-27.3917,53.60,44.60,71.45,320.00,7.00,0.00,30.06,M,6.21,M,M,M,M,M,M,M,M,M,M,YBBN 151030Z 32007KT CAVOK 12/07 Q1018
YBBN,2015-07-15 11:00,153.1292,-27.3917,51.80,44.60,76.34,310.00,3.00,0.00,30.06,M,6.21,M,M,M,M,M,M,M,M,M,M,YBBN 151100Z 31003KT CAVOK 11/07 Q1018 NOSIG
YBBN,2015-07-15 11:30,153.1292,-27.3917,51.80,42.80,71.26,290.00,4.00,0.00,30.06,M,6.21,M,M,M,M,M,M,M,M,M,M,YBBN 151130Z 29004KT CAVOK 11/06 Q1018
YBBN,2015-07-15 12:00,153.1292,-27.3917,51.80,42.80,71.26,270.00,3.00,0.00,30.06,M,6.21,M,M,M,M,M,M,M,M,M,M,YBBN 151200Z 27003KT CAVOK 11/06 Q1018 NOSIG
YBBN,2015-07-15 12:30,153.1292,-27.3917,50.00,42.80,76.18,270.00,4.00,0.00,30.06,M,6.21,M,M,M,M,M,M,M,M,M,M,YBBN 151230Z 27004KT CAVOK 10/06 Q1018
YBBN,2015-07-15 13:00,153.1292,-27.3917,50.00,42.80,76.18,250.00,4.00,0.00,30.06,M,6.21,M,M,M,M,M,M,M,M,M,M,YBBN 151300Z 25004KT CAVOK 10/06 Q1018
YBBN,2015-07-15 13:30,153.1292,-27.3917,48.20,42.80,81.47,250.00,3.00,0.00,30.06,M,6.21,M,M,M,M,M,M,M,M,M,M,YBBN 151330Z 25003KT CAVOK 09/06 Q1018
YBBN,2015-07-15 14:00,153.1292,-27.3917,46.40,42.80,87.19,250.00,3.00,0.00,30.06,M,6.21,M,M,M,M,M,M,M,M,M,M,YBBN 151400Z 25003KT CAVOK 08/06 Q1018
YBBN,2015-07-15 14:30,153.1292,-27.3917,46.40,41.00,81.34,240.00,3.00,0.00,30.06,M,6.21,M,SCT,M,M,M,2000.00,M,M,M,M,YBBN 151430Z 24003KT 9999 SCT020 08/05 Q1018
YBBN,2015-07-15 15:00,153.1292,-27.3917,46.40,41.00,81.34,210.00,4.00,0.00,30.06,M,6.21,M,M,M,M,M,M,M,M,M,M,YBBN 151500Z 21004KT CAVOK 08/05 Q1018
YBBN,2015-07-15 15:30,153.1292,-27.3917,46.40,42.80,87.19,0.00,0.00,0.00,30.06,M,6.21,M,M,M,M,M,M,M,M,M,M,YBBN 151530Z 00000KT CAVOK 08/06 Q1018 RMK 5AC190
YBBN,2015-07-15 16:00,153.1292,-27.3917,44.60,41.00,87.09,220.00,5.00,0.00,30.06,M,6.21,M,M,M,M,M,M,M,M,M,M,YBBN 151600Z 22005KT CAVOK 07/05 Q1018
YBBN,2015-07-15 16:30,153.1292,-27.3917,46.40,42.80,87.19,220.00,5.00,0.00,30.06,M,6.21,M,M,M,M,M,M,M,M,M,M,YBBN 151630Z 22005KT CAVOK 08/06 Q1018
YBBN,2015-07-15 17:00,153.1292,-27.3917,44.60,42.80,93.35,220.00,5.00,0.00,30.06,M,6.21,M,M,M,M,M,M,M,M,M,M,YBBN 151700Z 22005KT CAVOK 07/06 Q1018
YBBN,2015-07-15 17:30,153.1292,-27.3917,44.60,42.80,93.35,210.00,4.00,0.00,30.03,M,6.21,M,M,M,M,M,M,M,M,M,M,YBBN 151730Z 21004KT CAVOK 07/06 Q1017
YBBN,2015-07-15 18:00,153.1292,-27.3917,42.80,41.00,93.30,210.00,4.00,0.00,30.03,M,6.21,M,M,M,M,M,M,M,M,M,M,YBBN 151800Z 21004KT CAVOK 06/05 Q1017 NOSIG
YBBN,2015-07-15 18:30,153.1292,-27.3917,44.60,41.00,87.09,230.00,6.00,0.00,30.03,M,6.21,M,M,M,M,M,M,M,M,M,M,YBBN 151830Z 23006KT CAVOK 07/05 Q1017
YBBN,2015-07-15 19:00,153.1292,-27.3917,46.40,42.80,87.19,220.00,5.00,0.00,30.03,M,6.21,M,M,M,M,M,M,M,M,M,M,YBBN 151900Z 22005KT CAVOK 08/06 Q1017 NOSIG
YBBN,2015-07-15 19:30,153.1292,-27.3917,46.40,42.80,87.19,0.00,0.00,0.00,30.06,M,6.21,M,M,M,M,M,M,M,M,M,M,YBBN 151930Z 00000KT CAVOK 08/06 Q1018 RMK 6AC180
YBBN,2015-07-15 20:00,153.1292,-27.3917,46.40,42.80,87.19,200.00,6.00,0.00,30.06,M,6.21,M,M,M,M,M,M,M,M,M,M,YBBN 152000Z 20006KT CAVOK 08/06 Q1018 NOSIG
YBBN,2015-07-15 20:30,153.1292,-27.3917,46.40,42.80,87.19,210.00,4.00,0.00,30.06,M,6.21,M,M,M,M,M,M,M,M,M,M,YBBN 152030Z 21004KT CAVOK 08/06 Q1018 RMK 7AC180
YBBN,2015-07-15 21:00,153.1292,-27.3917,46.40,42.80,87.19,0.00,0.00,0.00,30.06,M,6.21,M,M,M,M,M,M,M,M,M,M,YBBN 152100Z 00000KT CAVOK 08/06 Q1018 NOSIG
YBBN,2015-07-15 21:30,153.1292,-27.3917,48.20,42.80,81.47,180.00,5.00,0.00,30.09,M,6.21,M,M,M,M,M,M,M,M,M,M,YBBN 152130Z 18005KT CAVOK 09/06 Q1019 RMK VIRGA 7AC180
YBBN,2015-07-15 22:00,153.1292,-27.3917,48.20,44.60,87.28,190.00,5.00,0.00,30.09,M,6.21,M,M,M,M,M,M,M,M,M,M,YBBN 152200Z 19005KT CAVOK 09/07 Q1019 NOSIG
YBBN,2015-07-15 22:30,153.1292,-27.3917,50.00,44.60,81.61,200.00,6.00,0.00,30.09,M,6.21,M,M,M,M,M,M,M,M,M,M,YBBN 152230Z 20006KT CAVOK 10/07 Q1019 RMK 5AC165 5AC180
YBBN,2015-07-15 23:00,153.1292,-27.3917,50.00,44.60,81.61,190.00,5.00,0.00,30.09,M,6.21,M,M,M,M,M,M,M,M,M,M,YBBN 152300Z 19005KT CAVOK 10/07 Q1019
YBBN,2015-07-15 23:30,153.1292,-27.3917,51.80,44.60,76.34,200.00,6.00,0.00,30.09,M,6.21,M,M,M,M,M,M,M,M,M,M,YBBN 152330Z 20006KT CAVOK 11/07 Q1019 RMK 5AC180
