#DEBUG: Format Typ    -> comma
#DEBUG: Time Period   -> 2012-10-18 00:00:00+00:00 2012-10-19 00:00:00+00:00
#DEBUG: Time Zone     -> Etc/UTC
#DEBUG: Data Contact   -> daryl herzmann akrherz@iastate.edu 515-294-5978
#DEBUG: Entries Found -> -1
station,valid,lon,lat,tmpf, dwpf, relh, drct, sknt, p01i, alti, mslp, vsby, gust, skyc1, skyc2, skyc3, skyc4, skyl1, skyl2, skyl3, skyl4, presentwx, metar
YBBN,2012-10-18 00:00,153.1292,-27.3917,77.00,62.60,61.13,80.00,9.00,0.00,30.12,M,6.21,M,SCT,M,M,M,3000.00,M,M,M,M,YBBN 180000Z 08009KT 9999 SCT030 25/17 Q1020 NOSIG
YBBN,2012-10-18 00:30,153.1292,-27.3917,77.00,60.80,57.36,90.00,10.00,0.00,30.12,M,6.21,M,FEW,M,M,M,3500.00,M,M,M,M,YBBN 180030Z 09010KT 9999 FEW035 25/16 Q1020 RMK HAZE
YBBN,2012-10-18 01:00,153.1292,-27.3917,78.80,60.80,54.05,60.00,11.00,0.00,30.09,M,6.21,M,FEW,M,M,M,3800.00,M,M,M,M,YBBN 180100Z 06011KT 9999 FEW038 26/16 Q1019 RMK HAZE
YBBN,2012-10-18 01:30,153.1292,-27.3917,77.00,62.60,61.13,60.00,12.00,0.00,30.09,M,6.21,M,FEW,M,M,M,3500.00,M,M,M,M,YBBN 180130Z 06012KT 9999 FEW035 25/17 Q1019 RMK HAZE
YBBN,2012-10-18 02:00,153.1292,-27.3917,78.80,64.40,61.36,60.00,14.00,0.00,30.09,M,6.21,M,FEW,M,M,M,3500.00,M,M,M,M,YBBN 180200Z 06014KT 9999 FEW035 26/18 Q1019 RMK HAZE
YBBN,2012-10-18 02:30,153.1292,-27.3917,77.00,62.60,61.13,60.00,14.00,0.00,30.06,M,6.21,M,FEW,M,M,M,4000.00,M,M,M,M,YBBN 180230Z 06014KT 9999 FEW040 25/17 Q1018 RMK HAZE
YBBN,2012-10-18 03:00,153.1292,-27.3917,77.00,64.40,65.12,60.00,14.00,0.00,30.06,M,6.21,M,FEW,M,M,M,3500.00,M,M,M,M,YBBN 180300Z 06014KT 9999 FEW035 25/18 Q1018 NOSIG
YBBN,2012-10-18 03:30,153.1292,-27.3917,77.00,64.40,65.12,60.00,15.00,0.00,30.06,M,6.21,M,FEW,M,M,M,3500.00,M,M,M,M,YBBN 180330Z 06015KT 9999 FEW035 25/18 Q1018
YBBN,2012-10-18 04:00,153.1292,-27.3917,77.00,64.40,65.12,60.00,14.00,0.00,30.06,M,6.21,M,FEW,M,M,M,3500.00,M,M,M,M,YBBN 180400Z 06014KT 9999 FEW035 25/18 Q1018 NOSIG
YBBN,2012-10-18 04:30,153.1292,-27.3917,77.00,64.40,65.12,50.00,15.00,0.00,30.06,M,6.21,M,FEW,SCT,M,M,3500.00,30000.00,M,M,M,YBBN 180430Z 05015KT 9999 FEW035 SCT300 25/18 Q1018
YBBN,2012-10-18 05:00,153.1292,-27.3917,77.00,64.40,65.12,60.00,13.00,0.00,30.03,M,6.21,M,FEW,SCT,M,M,3200.00,30000.00,M,M,M,YBBN 180500Z 06013KT 9999 FEW032 SCT300 25/18 Q1017
YBBN,2012-10-18 05:30,153.1292,-27.3917,77.00,66.20,69.33,60.00,13.00,0.00,30.06,M,6.21,M,FEW,SCT,M,M,2500.00,30000.00,M,M,M,YBBN 180530Z 06013KT 9999 FEW025 SCT300 25/19 Q1018 RMK HAZE
YBBN,2012-10-18 06:00,153.1292,-27.3917,75.20,66.20,73.61,70.00,13.00,0.00,30.06,M,6.21,M,SCT,SCT,M,M,2200.00,30000.00,M,M,M,YBBN 180600Z 07013KT 9999 SCT022 SCT300 24/19 Q1018 NOSIG
YBBN,2012-10-18 06:30,153.1292,-27.3917,73.40,66.20,78.19,60.00,12.00,0.00,30.06,M,6.21,M,SCT,SCT,M,M,2200.00,30000.00,M,M,M,YBBN 180630Z 06012KT 9999 SCT022 SCT300 23/19 Q1018 RMK HAZE
YBBN,2012-10-18 07:00,153.1292,-27.3917,73.40,64.40,73.44,40.00,9.00,0.00,30.06,M,6.21,M,FEW,SCT,M,M,1500.00,2400.00,M,M,M,YBBN 180700Z 04009KT 9999 FEW015 SCT024 23/18 Q1018 NOSIG
YBBN,2012-10-18 07:30,153.1292,-27.3917,73.40,64.40,73.44,40.00,10.00,0.00,30.06,M,6.21,M,FEW,SCT,BKN,M,1500.00,2200.00,4000.00,M,M,YBBN 180730Z 04010KT 9999 FEW015 SCT022 BKN040 23/18 Q1018
YBBN,2012-10-18 08:00,153.1292,-27.3917,73.40,64.40,73.44,50.00,9.00,0.00,30.09,M,6.21,M,FEW,SCT,BKN,M,1800.00,4000.00,30000.00,M,M,YBBN 180800Z 05009KT 9999 FEW018 SCT040 BKN300 23/18 Q1019 TEMPO 1000/1100 BKN010
YBBN,2012-10-18 08:30,153.1292,-27.3917,71.60,64.40,78.04,50.00,8.00,0.00,30.09,M,6.21,M,SCT,BKN,M,M,2000.00,4200.00,M,M,M,YBBN 180830Z 05008KT 9999 SCT020 BKN042 22/18 Q1019
YBBN,2012-10-18 09:00,153.1292,-27.3917,73.40,64.40,73.44,50.00,7.00,0.00,30.09,M,6.21,M,SCT,BKN,M,M,2000.00,3500.00,M,M,M,YBBN 180900Z 05007KT 9999 SCT020 BKN035 23/18 Q1019 TEMPO 1000/1200 BKN010
YBBN,2012-10-18 09:30,153.1292,-27.3917,73.40,60.80,64.69,50.00,5.00,0.00,30.12,M,6.21,M,FEW,BKN,M,M,2000.00,3800.00,M,M,M,YBBN 180930Z 05005KT 9999 FEW020 BKN038 23/16 Q1020
YBBN,2012-10-18 10:00,153.1292,-27.3917,71.60,62.60,73.27,50.00,5.00,0.00,30.12,M,6.21,M,FEW,BKN,M,M,2000.00,3600.00,M,M,M,YBBN 181000Z 05005KT 9999 FEW020 BKN036 22/17 Q1020 TEMPO 1000/1300 BKN010
YBBN,2012-10-18 10:30,153.1292,-27.3917,71.60,62.60,73.27,40.00,5.00,0.00,30.12,M,6.21,M,FEW,SCT,BKN,M,2000.00,3500.00,4200.00,M,M,YBBN 181030Z 04005KT 9999 FEW020 SCT035 BKN042 22/17 Q1020
YBBN,2012-10-18 11:00,153.1292,-27.3917,71.60,62.60,73.27,30.00,5.00,0.00,30.12,M,6.21,M,FEW,BKN,BKN,M,2000.00,3200.00,4500.00,M,M,YBBN 181100Z 03005KT 9999 FEW020 BKN032 BKN045 22/17 Q1020 TEMPO 1130/1400 8000 -DZ BKN010
YBBN,2012-10-18 11:30,153.1292,-27.3917,71.60,62.60,73.27,50.00,4.00,0.00,30.12,M,6.21,M,BKN,BKN,M,M,2500.00,4500.00,M,M,M,YBBN 181130Z 05004KT 9999 BKN025 BKN045 22/17 Q1020
YBBN,2012-10-18 12:30,153.1292,-27.3917,69.80,64.40,82.98,50.00,3.00,0.00,30.15,M,6.21,M,FEW,BKN,BKN,M,2500.00,3500.00,4500.00,M,M,YBBN 181230Z 05003KT 9999 FEW025 BKN035 BKN045 21/18 Q1021
YBBN,2012-10-18 13:00,153.1292,-27.3917,71.60,64.40,78.04,50.00,4.00,0.00,30.15,M,6.21,M,FEW,BKN,M,M,2000.00,2700.00,M,M,M,YBBN 181300Z 05004KT 9999 FEW020 BKN027 22/18 Q1021 NOSIG
YBBN,2012-10-18 13:30,153.1292,-27.3917,71.60,64.40,78.04,10.00,5.00,0.00,30.12,M,6.21,M,FEW,BKN,M,M,2700.00,3300.00,M,M,M,YBBN 181330Z 01005KT 9999 FEW027 BKN033 22/18 Q1020
YBBN,2012-10-18 14:00,153.1292,-27.3917,71.60,64.40,78.04,10.00,6.00,0.00,30.12,M,6.21,M,FEW,BKN,M,M,2500.00,3500.00,M,M,M,YBBN 181400Z 01006KT 9999 FEW025 BKN035 22/18 Q1020
YBBN,2012-10-18 14:30,153.1292,-27.3917,71.60,62.60,73.27,360.00,7.00,0.00,30.12,M,6.21,M,FEW,BKN,M,M,2500.00,3500.00,M,M,M,YBBN 181430Z 36007KT 9999 FEW025 BKN035 22/17 Q1020
YBBN,2012-10-18 15:00,153.1292,-27.3917,71.60,62.60,73.27,360.00,9.00,0.00,30.12,M,6.21,M,BKN,M,M,M,3700.00,M,M,M,M,YBBN 181500Z 36009KT 9999 BKN037 22/17 Q1020 NOSIG
YBBN,2012-10-18 15:30,153.1292,-27.3917,69.80,62.60,77.90,360.00,8.00,0.00,30.12,M,6.21,M,BKN,M,M,M,4000.00,M,M,M,M,YBBN 181530Z 36008KT 9999 BKN040 21/17 Q1020
YBBN,2012-10-18 16:00,153.1292,-27.3917,69.80,62.60,77.90,10.00,9.00,0.00,30.09,M,6.21,M,FEW,SCT,M,M,2500.00,4000.00,M,M,M,YBBN 181600Z 01009KT 9999 FEW025 SCT040 21/17 Q1019 NOSIG
YBBN,2012-10-18 16:30,153.1292,-27.3917,68.00,62.60,82.86,330.00,5.00,0.00,30.09,M,6.21,M,FEW,M,M,M,2000.00,M,M,M,M,YBBN 181630Z 33005KT 9999 FEW020 20/17 Q1019
YBBN,2012-10-18 17:00,153.1292,-27.3917,66.20,62.60,88.18,290.00,4.00,0.00,30.09,M,6.21,M,FEW,M,M,M,2000.00,M,M,M,M,YBBN 181700Z 29004KT 9999 FEW020 19/17 Q1019 NOSIG
YBBN,2012-10-18 17:30,153.1292,-27.3917,66.20,62.60,88.18,310.00,5.00,0.00,30.09,M,6.21,M,FEW,M,M,M,2000.00,M,M,M,M,YBBN 181730Z 31005KT 9999 FEW020 19/17 Q1019
YBBN,2012-10-18 18:00,153.1292,-27.3917,66.20,62.60,88.18,300.00,5.00,0.00,30.09,M,6.21,M,M,M,M,M,M,M,M,M,M,YBBN 181800Z 30005KT CAVOK 19/17 Q1019
YBBN,2012-10-18 18:30,153.1292,-27.3917,66.20,62.60,88.18,290.00,5.00,0.00,30.09,M,6.21,M,FEW,M,M,M,2000.00,M,M,M,M,YBBN 181830Z 29005KT 9999 FEW020 19/17 Q1019
YBBN,2012-10-18 19:00,153.1292,-27.3917,62.60,60.80,93.83,350.00,5.00,0.00,30.09,M,6.21,M,FEW,M,M,M,2000.00,M,M,M,M,YBBN 181900Z 35005KT 9999 FEW020 17/16 Q1019 NOSIG
YBBN,2012-10-18 19:30,153.1292,-27.3917,64.40,60.80,88.09,310.00,5.00,0.00,30.09,M,6.21,M,FEW,M,M,M,2000.00,M,M,M,M,YBBN 181930Z 31005KT 9999 FEW020 18/16 Q1019
YBBN,2012-10-18 20:00,153.1292,-27.3917,68.00,62.60,82.86,310.00,5.00,0.00,30.09,M,6.21,M,FEW,M,M,M,2000.00,M,M,M,M,YBBN 182000Z 31005KT 9999 FEW020 20/17 Q1019 NOSIG
YBBN,2012-10-18 20:30,153.1292,-27.3917,69.80,62.60,77.90,320.00,7.00,0.00,30.12,M,6.21,M,FEW,M,M,M,2000.00,M,M,M,M,YBBN 182030Z 32007KT 9999 FEW020 21/17 Q1020
YBBN,2012-10-18 21:00,153.1292,-27.3917,71.60,62.60,73.27,330.00,10.00,0.00,30.12,M,6.21,M,FEW,M,M,M,2000.00,M,M,M,M,YBBN 182100Z 33010KT 9999 FEW020 22/17 Q1020 NOSIG
YBBN,2012-10-18 21:30,153.1292,-27.3917,73.40,60.80,64.69,340.00,9.00,0.00,30.12,M,6.21,M,FEW,M,M,M,2000.00,M,M,M,M,YBBN 182130Z 34009KT 9999 FEW020 23/16 Q1020
YBBN,2012-10-18 22:00,153.1292,-27.3917,73.40,60.80,64.69,340.00,10.00,0.00,30.12,M,6.21,M,FEW,M,M,M,2000.00,M,M,M,M,YBBN 182200Z 34010KT 9999 FEW020 23/16 Q1020
YBBN,2012-10-18 22:30,153.1292,-27.3917,75.20,60.80,60.90,340.00,10.00,0.00,30.12,M,6.21,M,FEW,M,M,M,2000.00,M,M,M,M,YBBN 182230Z 34010KT 9999 FEW020 24/16 Q1020
YBBN,2012-10-18 23:00,153.1292,-27.3917,75.20,59.00,57.12,360.00,10.00,0.00,30.12,M,6.21,M,FEW,M,M,M,2500.00,M,M,M,M,YBBN 182300Z 36010KT 9999 FEW025 24/15 Q1020 NOSIG
YBBN,2012-10-18 23:30,153.1292,-27.3917,77.00,59.00,53.80,360.00,11.00,0.00,30.12,M,6.21,M,FEW,M,M,M,2500.00,M,M,M,M,YBBN 182330Z 36011KT 9999 FEW025 25/15 Q1020
