#DEBUG: Format Typ    -> comma
#DEBUG: Time Period   -> 2012-01-16 00:00:00+00:00 2012-01-17 00:00:00+00:00
#DEBUG: Time Zone     -> Etc/UTC
#DEBUG: Data Contact   -> daryl herzmann akrherz@iastate.edu 515-294-5978
#DEBUG: Entries Found -> -1
station,valid,lon,lat,tmpf, dwpf, relh, drct, sknt, p01i, alti, mslp, vsby, gust, skyc1, skyc2, skyc3, skyc4, skyl1, skyl2, skyl3, skyl4, presentwx, metar
YBBN,2012-01-16 00:00,153.1292,-27.3917,69.80,68.00,94.01,100.00,9.00,M,30.00,M,1.86,M,FEW,SCT,BKN,   ,1600.00,2400.00,4200.00,M,-RA VCSH,YBBN 160000Z 10009KT 3000 -RA VCSH FEW016 SCT024 BKN042 21/20 Q1016
YBBN,2012-01-16 00:09,153.1292,-27.3917,69.80,66.20,88.34,100.00,9.00,M,30.00,M,3.11,M,FEW,BKN,   ,   ,1400.00,4500.00,M,M,-RA VCSH,YBBN 160009Z 10009KT 5000 -RA VCSH FEW014 BKN045 21/19 Q1016
YBBN,2012-01-16 00:30,153.1292,-27.3917,69.80,64.40,82.98,120.00,9.00,M,30.00,M,6.21,M,FEW,SCT,BKN,   ,1500.00,3500.00,5500.00,M,VCSH,YBBN 160030Z 12009KT 9999 VCSH FEW015 SCT035 BKN055 21/18 Q1016
YBBN,2012-01-16 01:00,153.1292,-27.3917,73.40,66.20,78.19,90.00,8.00,M,30.00,M,6.21,M,FEW,BKN,   ,   ,1500.00,5600.00,M,M,-RA VCSH,YBBN 160100Z 09008KT 9999 5000N -RA VCSH FEW015 BKN056 23/19 Q1016
YBBN,2012-01-16 01:30,153.1292,-27.3917,73.40,68.00,83.21,100.00,8.00,M,29.97,M,4.35,M,FEW,SCT,BKN,   ,2000.00,2400.00,4500.00,M,-SHRA VCSH,YBBN 160130Z 10008KT 7000 -SHRA VCSH FEW020 SCT024 BKN045 23/20 Q1015
YBBN,2012-01-16 02:00,153.1292,-27.3917,71.60,66.20,83.09,100.00,13.00,M,29.97,M,6.21,M,FEW,BKN,   ,   ,2000.00,4500.00,M,M,VCSH,YBBN 160200Z 10013KT 9999 VCSH FEW020 BKN045 22/19 Q1015
YBBN,2012-01-16 02:30,153.1292,-27.3917,73.40,66.20,78.19,100.00,11.00,M,29.97,M,6.21,M,FEW,BKN,   ,   ,3000.00,4500.00,M,M,-SHRA VCSH,YBBN 160230Z 10011KT 9999 -SHRA VCSH FEW030 BKN045 23/19 Q1015
YBBN,2012-01-16 03:00,153.1292,-27.3917,73.40,64.40,73.44,110.00,13.00,M,29.97,M,6.21,M,FEW,SCT,BKN,   ,1700.00,3500.00,4500.00,M,VCSH,YBBN 160300Z 11013KT 9999 VCSH FEW017 SCT035 BKN045 23/18 Q1015
YBBN,2012-01-16 03:30,153.1292,-27.3917,M,M,M,M,M,M,M,M,M,M,   ,   ,   ,   ,M,M,M,M,M,YBBN 160330Z NIL
YBBN,2012-01-16 03:44,153.1292,-27.3917,71.60,66.20,83.09,130.00,12.00,M,29.97,M,3.11,M,FEW,SCT,BKN,   ,1300.00,3000.00,4200.00,M,-RA VCSH,YBBN 160344Z 13012KT 5000 -RA VCSH FEW013 SCT030 BKN042 22/19 Q1015
YBBN,2012-01-16 03:47,153.1292,-27.3917,69.80,66.20,88.34,120.00,13.00,M,29.97,M,1.86,M,FEW,SCT,BKN,   ,1300.00,2500.00,4000.00,M,-RA VCSH,YBBN 160347Z 12013KT 3000 -RA VCSH FEW013 SCT025 BKN040 21/19 Q1015
YBBN,2012-01-16 04:00,153.1292,-27.3917,69.80,68.00,94.01,130.00,13.00,M,29.97,M,1.86,M,FEW,SCT,BKN,   ,1000.00,2500.00,4000.00,M,-RA VCSH,YBBN 160400Z 13013KT 3000 -RA VCSH FEW010 SCT025 BKN040 21/20 Q1015
YBBN,2012-01-16 04:10,153.1292,-27.3917,69.80,66.20,88.34,140.00,14.00,M,29.97,M,4.35,26.00,FEW,SCT,BKN,   ,1000.00,2500.00,4000.00,M,VCSH,YBBN 160410Z 14014G26KT 7000 VCSH FEW010 SCT025 BKN040 21/19 Q1015
YBBN,2012-01-16 04:18,153.1292,-27.3917,69.80,66.20,88.34,150.00,12.00,M,29.97,M,6.21,22.00,FEW,BKN,   ,   ,800.00,3600.00,M,M,VCSH,YBBN 160418Z 15012G22KT 9999 VCSH FEW008 BKN036 21/19 Q1015
YBBN,2012-01-16 04:30,153.1292,-27.3917,71.60,66.20,83.09,150.00,12.00,M,29.97,M,6.21,M,FEW,SCT,BKN,   ,1000.00,3000.00,3800.00,M,VCSH,YBBN 160430Z 15012KT 9999 VCSH FEW010 SCT030 BKN038 22/19 Q1015
YBBN,2012-01-16 04:49,153.1292,-27.3917,71.60,68.00,88.43,170.00,8.00,M,29.97,M,3.73,M,FEW,SCT,BKN,   ,1200.00,3000.00,4000.00,M,-SHRA VCSH,YBBN 160449Z 17008KT 6000 -SHRA VCSH FEW012 SCT030 BKN040 22/20 Q1015
YBBN,2012-01-16 05:00,153.1292,-27.3917,71.60,68.00,88.43,160.00,10.00,M,29.97,M,6.21,M,FEW,SCT,BKN,   ,1500.00,3000.00,4000.00,M,M,YBBN 160500Z 16010KT 9999 VCSH FEW015 SCT030 BKN040 22/20 Q1015 TEMPO 0500/0800 12015G35KT 3000 SHRA BKN012 FM0500 MOD TURB BLW 5000FT
YBBN,2012-01-16 05:16,153.1292,-27.3917,73.40,66.20,78.19,100.00,15.00,M,29.94,M,6.21,25.00,FEW,BKN,   ,   ,2000.00,4800.00,M,M,VCSH,YBBN 160516Z 10015G25KT 9999 VCSH FEW020 BKN048 23/19 Q1014
YBBN,2012-01-16 05:30,153.1292,-27.3917,73.40,66.20,78.19,110.00,14.00,M,29.94,M,6.21,M,FEW,BKN,   ,   ,2000.00,4800.00,M,M,VCSH,YBBN 160530Z 11014KT 9999 VCSH FEW020 BKN048 23/19 Q1014
YBBN,2012-01-16 05:55,153.1292,-27.3917,71.60,64.40,78.04,100.00,15.00,M,29.94,M,6.21,25.00,FEW,BKN,   ,   ,2100.00,4000.00,M,M,VCSH,YBBN 160555Z 10015G25KT 9999 VCSH FEW021 BKN040 22/18 Q1014
YBBN,2012-01-16 06:00,153.1292,-27.3917,71.60,64.40,78.04,100.00,15.00,M,29.94,M,6.21,26.00,SCT,BKN,   ,   ,2100.00,3800.00,M,M,VCSH,YBBN 160600Z 10015G26KT 9999 VCSH SCT021 BKN038 22/18 Q1014
YBBN,2012-01-16 06:30,153.1292,-27.3917,71.60,64.40,78.04,120.00,14.00,M,29.94,M,6.21,M,SCT,BKN,   ,   ,2100.00,4000.00,M,M,M,YBBN 160630Z 12014KT 9999 SCT021 BKN040 22/18 Q1014
YBBN,2012-01-16 07:00,153.1292,-27.3917,71.60,60.80,68.75,150.00,13.00,M,29.97,M,6.21,M,FEW,BKN,   ,   ,2500.00,3000.00,M,M,M,YBBN 160700Z 15013KT 9999 FEW025 BKN030 22/16 Q1015
YBBN,2012-01-16 07:30,153.1292,-27.3917,71.60,60.80,68.75,130.00,11.00,M,29.97,M,6.21,M,FEW,BKN,   ,   ,2500.00,3300.00,M,M,M,YBBN 160730Z 13011KT 9999 FEW025 BKN033 22/16 Q1015
YBBN,2012-01-16 07:53,153.1292,-27.3917,71.60,64.40,78.04,130.00,11.00,M,29.97,M,3.11,M,FEW,BKN,   ,   ,2000.00,2800.00,M,M,-SHRA VCSH,YBBN 160753Z 13011KT 5000 -SHRA VCSH FEW020 BKN028 22/18 Q1015
YBBN,2012-01-16 08:00,153.1292,-27.3917,69.80,64.40,82.98,130.00,13.00,M,29.97,M,1.86,M,FEW,BKN,   ,   ,1500.00,2500.00,M,M,-RA VCSH,YBBN 160800Z 13013KT 3000 -RA VCSH FEW015 BKN025 21/18 Q1015
YBBN,2012-01-16 08:16,153.1292,-27.3917,68.00,66.20,93.97,150.00,10.00,M,30.00,M,0.93,M,FEW,SCT,BKN,   ,1000.00,1400.00,2500.00,M,-SHRADZ VCSH,YBBN 160816Z 15010KT 1500 -SHRADZ VCSH FEW010 SCT014 BKN025 20/19 Q1016
YBBN,2012-01-16 08:30,153.1292,-27.3917,68.00,66.20,93.97,170.00,10.00,M,30.00,M,1.55,M,SCT,BKN,   ,   ,900.00,1200.00,M,M,SHRADZ VCSH,YBBN 160830Z 17010KT 2500 SHRADZ VCSH SCT009 BKN012 20/19 Q1016
YBBN,2012-01-16 08:40,153.1292,-27.3917,68.00,66.20,93.97,140.00,11.00,M,30.00,M,1.55,M,SCT,BKN,   ,   ,900.00,1200.00,M,M,SHRA VCSH,YBBN 160840Z 14011KT 2500 1500S SHRA VCSH SCT009 BKN012 20/19 Q1016
YBBN,2012-01-16 09:00,153.1292,-27.3917,68.00,66.20,93.97,160.00,11.00,M,30.00,M,0.93,M,FEW,BKN,   ,   ,500.00,900.00,M,M,SHRA VCSH,YBBN 160900Z 16011KT 1500 SHRA VCSH FEW005 BKN009 20/19 Q1016
YBBN,2012-01-16 09:19,153.1292,-27.3917,68.00,68.00,100.00,160.00,6.00,M,30.00,M,0.50,M,SCT,BKN,   ,   ,500.00,900.00,M,M,+SHRA VCSH,YBBN 160919Z 16006KT 0800 +SHRA VCSH SCT005 BKN009 20/20 Q1016
YBBN,2012-01-16 09:30,153.1292,-27.3917,68.00,68.00,100.00,120.00,11.00,M,30.00,M,1.86,M,FEW,BKN,   ,   ,500.00,900.00,M,M,SHRA VCSH,YBBN 160930Z 12011KT 3000 SHRA VCSH FEW005 BKN009 20/20 Q1016 RESHRA
YBBN,2012-01-16 09:59,153.1292,-27.3917,68.00,66.20,93.97,160.00,10.00,M,30.00,M,2.49,M,FEW,SCT,BKN,   ,500.00,900.00,3000.00,M,SHRA,YBBN 160959Z 16010KT 4000 SHRA FEW005 SCT009 BKN030 20/19 Q1016
YBBN,2012-01-16 10:00,153.1292,-27.3917,68.00,66.20,93.97,160.00,11.00,M,30.00,M,2.49,M,FEW,SCT,BKN,   ,500.00,900.00,3000.00,M,SHRA VCSH,YBBN 161000Z 16011KT 4000 SHRA VCSH FEW005 SCT009 BKN030 20/19 Q1016
YBBN,2012-01-16 10:30,153.1292,-27.3917,68.00,66.20,93.97,170.00,12.00,M,30.00,M,3.11,M,FEW,SCT,BKN,   ,700.00,1000.00,2700.00,M,-SHRA VCSH,YBBN 161030Z 17012KT 5000 -SHRA VCSH FEW007 SCT010 BKN027 20/19 Q1016
YBBN,2012-01-16 10:51,153.1292,-27.3917,66.20,66.20,100.00,170.00,11.00,M,30.00,M,1.86,M,FEW,SCT,BKN,   ,700.00,1200.00,4300.00,M,SHRA VCSH,YBBN 161051Z 17011KT 3000 SHRA VCSH FEW007 SCT012 BKN043 19/19 Q1016
YBBN,2012-01-16 11:00,153.1292,-27.3917,68.00,66.20,93.97,170.00,8.00,M,30.00,M,1.86,M,FEW,SCT,BKN,   ,600.00,1000.00,3200.00,M,SHRA VCSH,YBBN 161100Z 17008KT 3000 SHRA VCSH FEW006 SCT010 BKN032 20/19 Q1016
YBBN,2012-01-16 11:30,153.1292,-27.3917,68.00,68.00,100.00,90.00,9.00,M,30.00,M,3.11,M,FEW,SCT,BKN,   ,200.00,700.00,3000.00,M,-SHRA VCSH,YBBN 161130Z 09009KT 5000 -SHRA VCSH FEW002 SCT007 BKN030 20/20 Q1016 RESHRA
YBBN,2012-01-16 12:00,153.1292,-27.3917,68.00,66.20,93.97,110.00,7.00,M,30.00,M,3.11,M,FEW,SCT,BKN,   ,700.00,1800.00,3800.00,M,SHRA VCSH,YBBN 161200Z 11007KT 5000 SHRA VCSH FEW007 SCT018 BKN038 20/19 Q1016
YBBN,2012-01-16 12:23,153.1292,-27.3917,69.80,68.00,94.01,80.00,7.00,M,30.00,M,3.73,M,SCT,SCT,BKN,   ,500.00,1000.00,5000.00,M,-SHRADZ VCSH,YBBN 161223Z 08007KT 6000 -SHRADZ VCSH SCT005 SCT010 BKN050 21/20 Q1016
YBBN,2012-01-16 12:30,153.1292,-27.3917,69.80,68.00,94.01,90.00,6.00,M,30.00,M,3.73,M,FEW,SCT,BKN,   ,300.00,1000.00,7800.00,M,-SHRADZ VCSH,YBBN 161230Z 09006KT 6000 -SHRADZ VCSH FEW003 SCT010 BKN078 21/20 Q1016
YBBN,2012-01-16 13:00,153.1292,-27.3917,68.00,68.00,100.00,200.00,6.00,M,30.00,M,3.73,M,FEW,SCT,BKN,   ,200.00,700.00,7300.00,M,-DZ VCSH,YBBN 161300Z 20006KT 6000 -DZ VCSH FEW002 SCT007 BKN073 20/20 Q1016
YBBN,2012-01-16 13:30,153.1292,-27.3917,68.00,68.00,100.00,180.00,7.00,M,29.97,M,3.11,M,FEW,SCT,BKN,   ,700.00,1300.00,4800.00,M,SHRA VCSH,YBBN 161330Z 18007KT 5000 SHRA VCSH FEW007 SCT013 BKN048 20/20 Q1015
YBBN,2012-01-16 13:35,153.1292,-27.3917,69.80,68.00,94.01,120.00,6.00,M,30.00,M,1.86,M,SCT,SCT,BKN,   ,700.00,1100.00,4800.00,M,+SHRA VCSH,YBBN 161335Z 12006KT 3000 1500S +SHRA VCSH SCT007 SCT011 BKN048 21/20 Q1016
YBBN,2012-01-16 14:00,153.1292,-27.3917,69.80,68.00,94.01,110.00,6.00,M,29.97,M,3.11,M,FEW,SCT,BKN,   ,600.00,1000.00,3200.00,M,SHRA VCSH,YBBN 161400Z 11006KT 5000 SHRA VCSH FEW006 SCT010 BKN032 21/20 Q1015 RESHRA
YBBN,2012-01-16 14:12,153.1292,-27.3917,69.80,68.00,94.01,90.00,7.00,M,29.97,M,1.55,M,FEW,SCT,BKN,   ,400.00,1000.00,3000.00,M,+SHRA VCSH,YBBN 161412Z 09007KT 2500 +SHRA VCSH FEW004 SCT010 BKN030 21/20 Q1015
YBBN,2012-01-16 14:30,153.1292,-27.3917,69.80,68.00,94.01,130.00,6.00,M,29.97,M,3.11,M,FEW,SCT,BKN,   ,600.00,1200.00,3200.00,M,-SHRADZ VCSH,YBBN 161430Z 13006KT 5000 -SHRADZ VCSH FEW006 SCT012 BKN032 21/20 Q1015 RESHRA
YBBN,2012-01-16 15:00,153.1292,-27.3917,69.80,68.00,94.01,130.00,6.00,M,29.97,M,3.73,M,FEW,SCT,BKN,   ,600.00,1300.00,4400.00,M,-SHRADZ VCSH,YBBN 161500Z 13006KT 6000 -SHRADZ VCSH FEW006 SCT013 BKN044 21/20 Q1015
YBBN,2012-01-16 15:13,153.1292,-27.3917,69.80,68.00,94.01,170.00,6.00,M,29.94,M,4.97,M,FEW,BKN,   ,   ,400.00,900.00,M,M,-DZ VCSH,YBBN 161513Z 17006KT 8000 -DZ VCSH FEW004 BKN009 21/20 Q1014
YBBN,2012-01-16 15:30,153.1292,-27.3917,68.00,68.00,100.00,190.00,7.00,M,29.94,M,5.59,M,FEW,SCT,BKN,   ,600.00,900.00,3800.00,M,-DZ VCSH,YBBN 161530Z 19007KT 9000 -DZ VCSH FEW006 SCT009 BKN038 20/20 Q1014
YBBN,2012-01-16 16:00,153.1292,-27.3917,68.00,68.00,100.00,180.00,9.00,M,29.94,M,3.11,M,FEW,SCT,BKN,   ,400.00,900.00,3700.00,M,SHRA VCSH,YBBN 161600Z 18009KT 5000 SHRA VCSH FEW004 SCT009 BKN037 20/20 Q1014
YBBN,2012-01-16 16:30,153.1292,-27.3917,69.80,68.00,94.01,170.00,5.00,M,29.94,M,3.73,M,SCT,SCT,BKN,   ,200.00,700.00,2800.00,M,-SHRADZ VCSH,YBBN 161630Z 17005KT 6000 -SHRADZ VCSH SCT002 SCT007 BKN028 21/20 Q1014 RESHRA
YBBN,2012-01-16 16:53,153.1292,-27.3917,69.80,68.00,94.01,210.00,6.00,M,29.94,M,1.86,M,FEW,SCT,BKN,   ,200.00,700.00,2700.00,M,SHRA VCSH,YBBN 161653Z 21006KT 3000 SHRA VCSH FEW002 SCT007 BKN027 21/20 Q1014
YBBN,2012-01-16 17:00,153.1292,-27.3917,69.80,68.00,94.01,200.00,7.00,M,29.91,M,1.55,M,FEW,SCT,BKN,   ,200.00,700.00,2700.00,M,SHRA VCSH,YBBN 161700Z 20007KT 2500 SHRA VCSH FEW002 SCT007 BKN027 21/20 Q1013
YBBN,2012-01-16 17:10,153.1292,-27.3917,69.80,68.00,94.01,160.00,7.00,M,29.94,M,0.93,M,FEW,SCT,BKN,   ,300.00,800.00,2700.00,M,+SHRA VCSH,YBBN 161710Z 16007KT 1500 +SHRA VCSH FEW003 SCT008 BKN027 21/20 Q1014
YBBN,2012-01-16 17:24,153.1292,-27.3917,69.80,68.00,94.01,140.00,8.00,M,29.94,M,3.11,M,FEW,SCT,BKN,   ,500.00,1200.00,4300.00,M,SHRA VCSH,YBBN 161724Z 14008KT 5000 SHRA VCSH FEW005 SCT012 BKN043 21/20 Q1014
YBBN,2012-01-16 17:30,153.1292,-27.3917,69.80,69.80,100.00,130.00,7.00,M,29.91,M,3.73,M,FEW,SCT,BKN,   ,300.00,1600.00,3600.00,M,-SHRA VCSH,YBBN 161730Z 13007KT 6000 -SHRA VCSH FEW003 SCT016 BKN036 21/21 Q1013 RESHRA
YBBN,2012-01-16 18:00,153.1292,-27.3917,71.60,69.80,94.06,100.00,8.00,M,29.94,M,4.97,M,FEW,SCT,BKN,   ,300.00,700.00,3800.00,M,-SHRA VCSH,YBBN 161800Z 10008KT 8000 -SHRA VCSH FEW003 SCT007 BKN038 22/21 Q1014
YBBN,2012-01-16 18:12,153.1292,-27.3917,69.80,68.00,94.01,100.00,9.00,M,29.94,M,3.73,M,FEW,SCT,BKN,   ,300.00,700.00,4300.00,M,-SHRA VCSH,YBBN 161812Z 10009KT 6000 -SHRA VCSH FEW003 SCT007 BKN043 21/20 Q1014
YBBN,2012-01-16 18:30,153.1292,-27.3917,69.80,68.00,94.01,160.00,5.00,M,29.94,M,4.97,M,FEW,SCT,BKN,   ,300.00,1600.00,17500.00,M,-DZ VCSH,YBBN 161830Z 16005KT 8000 -DZ VCSH FEW003 SCT016 BKN175 21/20 Q1014
YBBN,2012-01-16 19:00,153.1292,-27.3917,69.80,69.80,100.00,100.00,7.00,M,29.94,M,3.73,M,FEW,SCT,BKN,   ,500.00,1600.00,5400.00,M,-SHRA VCSH,YBBN 161900Z 10007KT 6000 -SHRA VCSH FEW005 SCT016 BKN054 21/21 Q1014
YBBN,2012-01-16 19:11,153.1292,-27.3917,69.80,69.80,100.00,100.00,9.00,M,29.94,M,3.11,M,FEW,SCT,BKN,   ,600.00,1700.00,4300.00,M,-SHRA VCSH,YBBN 161911Z 10009KT 5000 -SHRA VCSH FEW006 SCT017 BKN043 21/21 Q1014
YBBN,2012-01-16 19:22,153.1292,-27.3917,71.60,68.00,88.43,100.00,8.00,M,29.94,M,1.55,M,FEW,SCT,BKN,   ,600.00,1400.00,4300.00,M,SHRA VCSH,YBBN 161922Z 10008KT 2500 SHRA VCSH FEW006 SCT014 BKN043 22/20 Q1014
YBBN,2012-01-16 19:30,153.1292,-27.3917,69.80,69.80,100.00,110.00,8.00,M,29.94,M,3.11,M,SCT,SCT,BKN,   ,600.00,1300.00,3800.00,M,SHRA VCSH,YBBN 161930Z 11008KT 5000 3000S SHRA VCSH SCT006 SCT013 BKN038 21/21 Q1014
YBBN,2012-01-16 19:46,153.1292,-27.3917,69.80,68.00,94.01,130.00,7.00,M,29.94,M,3.73,M,FEW,SCT,BKN,   ,300.00,1400.00,15500.00,M,-SHRA VCSH,YBBN 161946Z 13007KT 6000 -SHRA VCSH FEW003 SCT014 BKN155 21/20 Q1014
YBBN,2012-01-16 20:00,153.1292,-27.3917,71.60,69.80,94.06,110.00,6.00,M,29.94,M,3.73,M,FEW,SCT,BKN,   ,300.00,1200.00,4000.00,M,-SHRA VCSH,YBBN 162000Z 11006KT 6000 -SHRA VCSH FEW003 SCT012 BKN040 22/21 Q1014
YBBN,2012-01-16 20:30,153.1292,-27.3917,71.60,69.80,94.06,150.00,6.00,M,29.97,M,4.97,M,FEW,BKN,   ,   ,1200.00,3700.00,M,M,-SHRA VCSH,YBBN 162030Z 15006KT 8000 -SHRA VCSH FEW012 BKN037 22/21 Q1015
YBBN,2012-01-16 20:36,153.1292,-27.3917,71.60,69.80,94.06,160.00,5.00,M,29.97,M,3.11,M,FEW,BKN,   ,   ,1000.00,3700.00,M,M,-SHRA VCSH,YBBN 162036Z 16005KT 5000 -SHRA VCSH FEW010 BKN037 22/21 Q1015
YBBN,2012-01-16 20:47,153.1292,-27.3917,71.60,69.80,94.06,130.00,8.00,M,29.97,M,1.86,M,FEW,SCT,BKN,   ,1000.00,2300.00,3700.00,M,-SHRA VCSH,YBBN 162047Z 13008KT 3000 -SHRA VCSH FEW010 SCT023 BKN037 22/21 Q1015
YBBN,2012-01-16 21:00,153.1292,-27.3917,69.80,68.00,94.01,140.00,9.00,M,29.97,M,2.17,M,FEW,BKN,   ,   ,800.00,2100.00,M,M,-SHRA VCSH,YBBN 162100Z 14009KT 3500 -SHRA VCSH FEW008 BKN021 21/20 Q1015
YBBN,2012-01-16 21:15,153.1292,-27.3917,69.80,68.00,94.01,140.00,10.00,M,29.97,M,3.11,M,FEW,SCT,BKN,   ,800.00,2500.00,5000.00,M,-SHRA VCSH,YBBN 162115Z 14010KT 5000 -SHRA VCSH FEW008 SCT025 BKN050 21/20 Q1015
YBBN,2012-01-16 21:30,153.1292,-27.3917,69.80,68.00,94.01,150.00,8.00,M,29.97,M,1.86,M,FEW,SCT,BKN,   ,800.00,3000.00,5500.00,M,SHRA VCSH,YBBN 162130Z 15008KT 3000 SHRA VCSH FEW008 SCT030 BKN055 21/20 Q1015
YBBN,2012-01-16 21:40,153.1292,-27.3917,71.60,69.80,94.06,150.00,6.00,M,29.97,M,3.11,M,FEW,SCT,BKN,   ,1200.00,2400.00,5000.00,M,-SHRA VCSH,YBBN 162140Z 15006KT 5000 -SHRA VCSH FEW012 SCT024 BKN050 22/21 Q1015
YBBN,2012-01-16 22:00,153.1292,-27.3917,69.80,68.00,94.01,100.00,10.00,M,29.97,M,3.11,M,FEW,SCT,BKN,   ,1200.00,2800.00,5500.00,M,-SHRA VCSH,YBBN 162200Z 10010KT 5000 -SHRA VCSH FEW012 SCT028 BKN055 21/20 Q1015
YBBN,2012-01-16 22:30,153.1292,-27.3917,71.60,69.80,94.06,100.00,8.00,M,30.00,M,3.11,M,FEW,SCT,BKN,   ,800.00,2500.00,5500.00,M,-SHRA VCSH,YBBN 162230Z 10008KT 5000 -SHRA VCSH FEW008 SCT025 BKN055 22/21 Q1016
YBBN,2012-01-16 23:00,153.1292,-27.3917,71.60,68.00,88.43,110.00,9.00,M,30.00,M,3.11,M,FEW,SCT,BKN,   ,500.00,2500.00,4000.00,M,-RA VCSH,YBBN 162300Z 11009KT 5000 -RA VCSH FEW005 SCT025 BKN040 22/20 Q1016
YBBN,2012-01-16 23:30,153.1292,-27.3917,71.60,68.00,88.43,110.00,8.00,M,30.00,M,3.11,M,FEW,SCT,BKN,   ,500.00,2800.00,5500.00,M,-RA VCSH,YBBN 162330Z 11008KT 5000 -RA VCSH FEW005 SCT028 BKN055 22/20 Q1016
