#DEBUG: Format Typ    -> comma
#DEBUG: Time Period   -> 2013-03-28 00:00:00+00:00 2013-03-29 00:00:00+00:00
#DEBUG: Time Zone     -> Etc/UTC
#DEBUG: Data Contact   -> daryl herzmann akrherz@iastate.edu 515-294-5978
#DEBUG: Entries Found -> -1
station,valid,lon,lat,tmpf, dwpf, relh, drct, sknt, p01i, alti, mslp, vsby, gust, skyc1, skyc2, skyc3, skyc4, skyl1, skyl2, skyl3, skyl4, presentwx, metar
YBBN,2013-03-28 00:00,153.1292,-27.3917,77.00,66.20,69.33,60.00,5.00,0.00,30.09,M,6.21,M,FEW,SCT,M,M,2600.00,3600.00,M,M,M,YBBN 280000Z 06005KT 9999 FEW026 SCT036 25/19 Q1019 INTER 0000/0200 4000 SHRA BKN015
YBBN,2013-03-28 00:30,153.1292,-27.3917,77.00,64.40,65.12,80.00,6.00,0.00,30.09,M,6.21,M,FEW,SCT,M,M,2600.00,3800.00,M,M,VCSH,YBBN 280030Z 08006KT 9999 VCSH FEW026 SCT038 25/18 Q1019
YBBN,2013-03-28 01:00,153.1292,-27.3917,77.00,64.40,65.12,60.00,7.00,0.00,30.09,M,6.21,M,FEW,SCT,M,M,2600.00,3800.00,M,M,VCSH,YBBN 280100Z 06007KT 9999 VCSH FEW026 SCT038 25/18 Q1019 INTER 0100/0200 4000 SHRA BKN015
YBBN,2013-03-28 01:30,153.1292,-27.3917,78.80,64.40,61.36,80.00,8.00,0.00,30.06,M,6.21,M,FEW,SCT,M,M,3000.00,3800.00,M,M,M,YBBN 280130Z 08008KT 9999 FEW030 SCT038 26/18 Q1018
YBBN,2013-03-28 02:00,153.1292,-27.3917,78.80,64.40,61.36,80.00,6.00,0.00,30.06,M,6.21,M,FEW,SCT,M,M,3000.00,4000.00,M,M,M,YBBN 280200Z 08006KT 9999 FEW030 SCT040 26/18 Q1018
YBBN,2013-03-28 02:30,153.1292,-27.3917,78.80,62.60,57.60,80.00,7.00,0.00,30.06,M,6.21,M,FEW,SCT,M,M,4200.00,4600.00,M,M,M,YBBN 280230Z 08007KT 9999 FEW042 SCT046 26/17 Q1018
YBBN,2013-03-28 03:00,153.1292,-27.3917,78.80,62.60,57.60,50.00,9.00,0.00,30.03,M,6.21,M,FEW,SCT,M,M,3100.00,4800.00,M,M,M,YBBN 280300Z 05009KT 9999 FEW031 SCT048 26/17 Q1017 NOSIG
YBBN,2013-03-28 03:30,153.1292,-27.3917,78.80,64.40,61.36,50.00,9.00,0.00,30.03,M,6.21,M,FEW,SCT,M,M,3100.00,6000.00,M,M,M,YBBN 280330Z 05009KT 9999 FEW031 SCT060 26/18 Q1017
YBBN,2013-03-28 04:00,153.1292,-27.3917,78.80,64.40,61.36,60.00,7.00,0.00,30.03,M,6.21,M,FEW,SCT,M,M,3100.00,6100.00,M,M,M,YBBN 280400Z 06007KT 9999 FEW031 SCT061 26/18 Q1017
YBBN,2013-03-28 04:30,153.1292,-27.3917,78.80,64.40,61.36,50.00,8.00,0.00,30.00,M,6.21,M,FEW,M,M,M,3100.00,M,M,M,M,YBBN 280430Z 05008KT 9999 FEW031 26/18 Q1016
YBBN,2013-03-28 05:00,153.1292,-27.3917,78.80,64.40,61.36,60.00,7.00,0.00,30.00,M,6.21,M,FEW,M,M,M,3300.00,M,M,M,M,YBBN 280500Z 06007KT 9999 FEW033 26/18 Q1016
YBBN,2013-03-28 05:30,153.1292,-27.3917,78.80,64.40,61.36,70.00,7.00,0.00,30.00,M,6.21,M,FEW,M,M,M,3300.00,M,M,M,M,YBBN 280530Z 07007KT 9999 FEW033 26/18 Q1016
YBBN,2013-03-28 06:00,153.1292,-27.3917,78.80,64.40,61.36,70.00,8.00,0.00,30.00,M,6.21,M,FEW,M,M,M,3200.00,M,M,M,M,YBBN 280600Z 07008KT 9999 FEW032 26/18 Q1016
YBBN,2013-03-28 06:30,153.1292,-27.3917,77.00,64.40,65.12,70.00,7.00,0.00,30.00,M,6.21,M,FEW,M,M,M,3000.00,M,M,M,M,YBBN 280630Z 07007KT 9999 FEW030 25/18 Q1016
YBBN,2013-03-28 07:00,153.1292,-27.3917,77.00,62.60,61.13,60.00,8.00,0.00,30.00,M,6.21,M,FEW,M,M,M,2500.00,M,M,M,M,YBBN 280700Z 06008KT 9999 FEW025 25/17 Q1016
YBBN,2013-03-28 07:30,153.1292,-27.3917,75.20,62.60,64.91,60.00,7.00,0.00,30.00,M,6.21,M,FEW,M,M,M,2500.00,M,M,M,M,YBBN 280730Z 06007KT 9999 FEW025 24/17 Q1016
YBBN,2013-03-28 08:00,153.1292,-27.3917,75.20,62.60,64.91,60.00,6.00,0.00,30.00,M,6.21,M,FEW,M,M,M,2500.00,M,M,M,M,YBBN 280800Z 06006KT 9999 FEW025 24/17 Q1016
YBBN,2013-03-28 08:30,153.1292,-27.3917,75.20,62.60,64.91,60.00,6.00,0.00,30.00,M,6.21,M,FEW,M,M,M,3000.00,M,M,M,M,YBBN 280830Z 06006KT 9999 FEW030 24/17 Q1016
YBBN,2013-03-28 09:00,153.1292,-27.3917,73.40,62.60,68.94,70.00,4.00,0.00,30.03,M,6.21,M,FEW,M,M,M,3000.00,M,M,M,M,YBBN 280900Z 07004KT 9999 FEW030 23/17 Q1017 NOSIG
YBBN,2013-03-28 09:30,153.1292,-27.3917,73.40,66.20,78.19,90.00,4.00,0.00,30.06,M,6.21,M,FEW,M,M,M,2500.00,M,M,M,M,YBBN 280930Z 09004KT 9999 FEW025 23/19 Q1018
YBBN,2013-03-28 10:00,153.1292,-27.3917,73.40,66.20,78.19,80.00,3.00,0.00,30.06,M,6.21,M,FEW,M,M,M,2500.00,M,M,M,M,YBBN 281000Z 08003KT 9999 FEW025 23/19 Q1018 NOSIG
YBBN,2013-03-28 10:30,153.1292,-27.3917,71.60,64.40,78.04,30.00,4.00,0.00,30.06,M,6.21,M,FEW,M,M,M,2500.00,M,M,M,M,YBBN 281030Z 03004KT 9999 FEW025 22/18 Q1018
YBBN,2013-03-28 11:00,153.1292,-27.3917,71.60,66.20,83.09,50.00,3.00,0.00,30.06,M,6.21,M,FEW,M,M,M,2500.00,M,M,M,M,YBBN 281100Z 05003KT 9999 FEW025 22/19 Q1018
YBBN,2013-03-28 11:30,153.1292,-27.3917,71.60,64.40,78.04,60.00,3.00,0.00,30.06,M,6.21,M,FEW,M,M,M,2000.00,M,M,M,M,YBBN 281130Z 06003KT 9999 FEW020 22/18 Q1018
YBBN,2013-03-28 12:00,153.1292,-27.3917,71.60,66.20,83.09,20.00,2.00,0.00,30.03,M,6.21,M,FEW,M,M,M,2400.00,M,M,M,M,YBBN 281200Z 02002KT 9999 FEW024 22/19 Q1017
YBBN,2013-03-28 12:30,153.1292,-27.3917,69.80,66.20,88.34,0.00,0.00,0.00,30.03,M,6.21,M,FEW,M,M,M,2400.00,M,M,M,M,YBBN 281230Z 00000KT 9999 FEW024 21/19 Q1017
YBBN,2013-03-28 13:00,153.1292,-27.3917,69.80,66.20,88.34,0.00,0.00,0.00,30.03,M,6.21,M,FEW,M,M,M,2400.00,M,M,M,M,YBBN 281300Z 00000KT 9999 FEW024 21/19 Q1017 NOSIG
YBBN,2013-03-28 13:30,153.1292,-27.3917,69.80,66.20,88.34,240.00,4.00,0.00,30.03,M,6.21,M,FEW,M,M,M,2500.00,M,M,M,M,YBBN 281330Z 24004KT 9999 FEW025 21/19 Q1017
YBBN,2013-03-28 14:00,153.1292,-27.3917,69.80,64.40,82.98,250.00,4.00,0.00,30.00,M,6.21,M,FEW,M,M,M,2500.00,M,M,M,M,YBBN 281400Z 25004KT 9999 FEW025 21/18 Q1016 NOSIG
YBBN,2013-03-28 14:30,153.1292,-27.3917,68.00,64.40,88.26,250.00,2.00,0.00,30.00,M,6.21,M,FEW,M,M,M,2500.00,M,M,M,M,YBBN 281430Z 25002KT 9999 FEW025 20/18 Q1016
YBBN,2013-03-28 15:00,153.1292,-27.3917,68.00,64.40,88.26,240.00,4.00,0.00,30.00,M,6.21,M,SCT,M,M,M,2500.00,M,M,M,M,YBBN 281500Z 24004KT 9999 SCT025 20/18 Q1016 NOSIG
YBBN,2013-03-28 15:30,153.1292,-27.3917,68.00,64.40,88.26,250.00,4.00,0.00,29.97,M,6.21,M,SCT,M,M,M,2200.00,M,M,M,M,YBBN 281530Z 25004KT 9999 SCT022 20/18 Q1015
YBBN,2013-03-28 16:00,153.1292,-27.3917,68.00,64.40,88.26,220.00,6.00,0.00,29.97,M,6.21,M,SCT,SCT,M,M,2200.00,3500.00,M,M,M,YBBN 281600Z 22006KT 9999 SCT022 SCT035 20/18 Q1015
YBBN,2013-03-28 16:30,153.1292,-27.3917,69.80,64.40,82.98,250.00,5.00,0.00,29.97,M,6.21,M,SCT,SCT,M,M,2200.00,3000.00,M,M,-DZ,YBBN 281630Z 25005KT 9999 -DZ SCT022 SCT030 21/18 Q1015
YBBN,2013-03-28 17:00,153.1292,-27.3917,68.00,66.20,93.97,220.00,5.00,0.00,29.97,M,6.21,M,FEW,SCT,M,M,2000.00,3500.00,M,M,M,YBBN 281700Z 22005KT 9999 FEW020 SCT035 20/19 Q1015 NOSIG
YBBN,2013-03-28 17:30,153.1292,-27.3917,68.00,64.40,88.26,200.00,4.00,0.00,29.94,M,6.21,M,FEW,M,M,M,2000.00,M,M,M,M,YBBN 281730Z 20004KT 9999 FEW020 20/18 Q1014
YBBN,2013-03-28 18:00,153.1292,-27.3917,66.20,64.40,93.92,210.00,6.00,0.00,29.94,M,6.21,M,FEW,M,M,M,1400.00,M,M,M,M,YBBN 281800Z 21006KT 9999 FEW014 19/18 Q1014 NOSIG
YBBN,2013-03-28 18:30,153.1292,-27.3917,66.20,64.40,93.92,210.00,7.00,0.00,29.94,M,6.21,M,FEW,M,M,M,1400.00,M,M,M,M,YBBN 281830Z 21007KT 9999 FEW014 19/18 Q1014
YBBN,2013-03-28 19:00,153.1292,-27.3917,66.20,62.60,88.18,200.00,4.00,0.00,29.94,M,6.21,M,FEW,M,M,M,1400.00,M,M,M,M,YBBN 281900Z 20004KT 9999 FEW014 19/17 Q1014
YBBN,2013-03-28 19:30,153.1292,-27.3917,66.20,62.60,88.18,190.00,4.00,0.00,29.94,M,6.21,M,FEW,M,M,M,1400.00,M,M,M,M,YBBN 281930Z 19004KT 9999 FEW014 19/17 Q1014
YBBN,2013-03-28 20:00,153.1292,-27.3917,64.40,62.60,93.88,200.00,5.00,0.00,29.97,M,6.21,M,M,M,M,M,M,M,M,M,M,YBBN 282000Z 20005KT CAVOK 18/17 Q1015
YBBN,2013-03-28 20:30,153.1292,-27.3917,66.20,64.40,93.92,200.00,6.00,0.00,29.97,M,6.21,M,M,M,M,M,M,M,M,M,M,YBBN 282030Z 20006KT CAVOK 19/18 Q1015
YBBN,2013-03-28 21:00,153.1292,-27.3917,68.00,64.40,88.26,210.00,1.00,0.00,29.97,M,6.21,M,M,M,M,M,M,M,M,M,M,YBBN 282100Z 21001KT CAVOK 20/18 Q1015
YBBN,2013-03-28 21:30,153.1292,-27.3917,69.80,64.40,82.98,200.00,6.00,0.00,29.97,M,6.21,M,M,M,M,M,M,M,M,M,M,YBBN 282130Z 20006KT CAVOK 21/18 Q1015
YBBN,2013-03-28 22:00,153.1292,-27.3917,71.60,66.20,83.09,210.00,8.00,0.00,30.00,M,6.21,M,M,M,M,M,M,M,M,M,M,YBBN 282200Z 21008KT CAVOK 22/19 Q1016
YBBN,2013-03-28 22:30,153.1292,-27.3917,73.40,66.20,78.19,230.00,4.00,0.00,29.97,M,6.21,M,M,M,M,M,M,M,M,M,M,YBBN 282230Z 23004KT CAVOK 23/19 Q1015
YBBN,2013-03-28 23:00,153.1292,-27.3917,77.00,64.40,65.12,260.00,5.00,0.00,29.97,M,6.21,M,M,M,M,M,M,M,M,M,M,YBBN 282300Z 26005KT CAVOK 25/18 Q1015 NOSIG
YBBN,2013-03-28 23:30,153.1292,-27.3917,77.00,62.60,61.13,280.00,5.00,0.00,29.97,M,6.21,M,FEW,M,M,M,3500.00,M,M,M,M,YBBN 282330Z 28005KT 9999 FEW035 25/17 Q1015
