#DEBUG: Format Typ    -> comma
#DEBUG: Time Period   -> 2016-05-02 00:00:00+00:00 2016-05-03 00:00:00+00:00
#DEBUG: Time Zone     -> Etc/UTC
#DEBUG: Data Contact   -> daryl herzmann akrherz@iastate.edu 515-294-5978
#DEBUG: Entries Found -> -1
station,valid,lon,lat,tmpf, dwpf, relh, drct, sknt, p01i, alti, mslp, vsby, gust, skyc1, skyc2, skyc3, skyc4, skyl1, skyl2, skyl3, skyl4, presentwx, metar
YBBN,2016-05-02 00:00,153.1292,-27.3917,75.20,69.80,83.32,200.00,5.00,0.00,30.03,M,6.21,M,FEW,SCT,BKN,M,1700.00,20000.00,25000.00,M,M,YBBN 020000Z 20005KT 9999 FEW017 SCT200 BKN250 24/21 Q1017 NOSIG
YBBN,2016-05-02 00:30,153.1292,-27.3917,77.00,69.80,78.48,130.00,6.00,0.00,30.00,M,6.21,M,SCT,BKN,M,M,1000.00,27000.00,M,M,M,YBBN 020030Z 13006KT 9999 SCT010 BKN270 25/21 Q1016 NOSIG
YBBN,2016-05-02 01:00,153.1292,-27.3917,77.00,69.80,78.48,120.00,5.00,0.00,30.00,M,6.21,M,SCT,BKN,M,M,1600.00,27000.00,M,M,M,YBBN 020100Z 12005KT 070V200 9999 SCT016 BKN270 25/21 Q1016 NOSIG
YBBN,2016-05-02 01:30,153.1292,-27.3917,78.80,68.00,69.52,120.00,5.00,0.00,29.97,M,6.21,M,BKN,BKN,M,M,1800.00,27000.00,M,M,M,YBBN 020130Z 12005KT 070V170 9999 BKN018 BKN270 26/20 Q1015 NOSIG
YBBN,2016-05-02 02:00,153.1292,-27.3917,78.80,69.80,73.95,100.00,6.00,0.00,29.97,M,6.21,M,SCT,BKN,M,M,2400.00,27000.00,M,M,M,YBBN 020200Z 10006KT 060V180 9999 SCT024 BKN270 26/21 Q1015
YBBN,2016-05-02 02:30,153.1292,-27.3917,78.80,69.80,73.95,90.00,7.00,0.00,29.94,M,6.21,M,SCT,BKN,M,M,2500.00,27000.00,M,M,M,YBBN 020230Z 09007KT 9999 SCT025 BKN270 26/21 Q1014 NOSIG
YBBN,2016-05-02 03:00,153.1292,-27.3917,77.00,69.80,78.48,100.00,6.00,0.00,29.94,M,6.21,M,SCT,BKN,M,M,2600.00,27000.00,M,M,M,YBBN 020300Z 10006KT 9999 SCT026 BKN270 25/21 Q1014
YBBN,2016-05-02 03:30,153.1292,-27.3917,77.00,68.00,73.78,110.00,7.00,0.00,29.94,M,6.21,M,SCT,BKN,M,M,2400.00,25000.00,M,M,M,YBBN 020330Z 11007KT 9999 SCT024 BKN250 25/20 Q1014 NOSIG
YBBN,2016-05-02 04:00,153.1292,-27.3917,77.00,68.00,73.78,110.00,8.00,0.00,29.91,M,6.21,M,SCT,BKN,M,M,2600.00,25000.00,M,M,M,YBBN 020400Z 11008KT 9999 SCT026 BKN250 25/20 Q1013
YBBN,2016-05-02 04:30,153.1292,-27.3917,77.00,68.00,73.78,110.00,7.00,0.00,29.91,M,6.21,M,FEW,BKN,M,M,2600.00,25000.00,M,M,M,YBBN 020430Z 11007KT 9999 FEW026 BKN250 25/20 Q1013 NOSIG
YBBN,2016-05-02 05:00,153.1292,-27.3917,77.00,68.00,73.78,90.00,8.00,0.00,29.91,M,6.21,M,FEW,SCT,BKN,M,2600.00,22000.00,25000.00,M,M,YBBN 020500Z 09008KT 9999 FEW026 SCT220 BKN250 25/20 Q1013
YBBN,2016-05-02 05:30,153.1292,-27.3917,77.00,66.20,69.33,100.00,6.00,0.00,29.91,M,6.21,M,FEW,SCT,BKN,M,2600.00,17000.00,25000.00,M,M,YBBN 020530Z 10006KT 9999 FEW026 SCT170 BKN250 25/19 Q1013 NOSIG
YBBN,2016-05-02 06:00,153.1292,-27.3917,75.20,68.00,78.34,100.00,5.00,0.00,29.91,M,6.21,M,FEW,BKN,BKN,M,2500.00,22000.00,25000.00,M,M,YBBN 020600Z 10005KT 9999 FEW025 BKN220 BKN250 24/20 Q1013 NOSIG
YBBN,2016-05-02 06:30,153.1292,-27.3917,75.20,68.00,78.34,80.00,4.00,0.00,29.94,M,6.21,M,FEW,BKN,BKN,M,2300.00,22000.00,25000.00,M,M,YBBN 020630Z 08004KT 9999 FEW023 BKN220 BKN250 24/20 Q1014 NOSIG
YBBN,2016-05-02 07:00,153.1292,-27.3917,75.20,69.80,83.32,70.00,4.00,0.00,29.94,M,6.21,M,FEW,BKN,M,M,2000.00,21000.00,M,M,M,YBBN 020700Z 07004KT 9999 FEW020 BKN210 24/21 Q1014 NOSIG
YBBN,2016-05-02 08:00,153.1292,-27.3917,73.40,69.80,88.51,70.00,3.00,0.00,29.97,M,6.21,M,FEW,SCT,BKN,M,2000.00,19000.00,22000.00,M,M,YBBN 020800Z 07003KT 9999 FEW020 SCT190 BKN220 23/21 Q1015
YBBN,2016-05-02 11:00,153.1292,-27.3917,73.40,69.80,88.51,150.00,4.00,0.00,29.97,M,6.21,M,FEW,SCT,BKN,M,1600.00,5200.00,15000.00,M,-SHRA,YBBN 021100Z 15004KT 9999 -SHRA FEW016 SCT052 BKN150 23/21 Q1015
YBBN,2016-05-02 12:00,153.1292,-27.3917,71.60,69.80,94.06,180.00,1.00,0.00,29.97,M,6.21,M,FEW,SCT,BKN,M,1500.00,4400.00,12500.00,M,VCSH,YBBN 021200Z 18001KT 9999 VCSH FEW015 SCT044 BKN125 22/21 Q1015
YBBN,2016-05-02 13:00,153.1292,-27.3917,71.60,69.80,94.06,0.00,0.00,0.00,29.97,M,6.21,M,FEW,SCT,BKN,M,1600.00,4200.00,9800.00,M,VCSH,YBBN 021300Z 00000KT 9999 VCSH FEW016 SCT042 BKN098 22/21 Q1015
YBBN,2016-05-02 13:30,153.1292,-27.3917,71.60,69.80,94.06,0.00,0.00,0.00,29.94,M,3.73,M,FEW,SCT,BKN,M,1400.00,2800.00,12000.00,M,SHRA VCTS,YBBN 021330Z 00000KT 6000 SHRA VCTS FEW014 SCT028CB BKN120 22/21 Q1014
YBBN,2016-05-02 14:00,153.1292,-27.3917,71.60,69.80,94.06,80.00,1.00,0.00,29.97,M,1.55,M,FEW,SCT,BKN,FEW,1300.00,2000.00,5200.00,3000.00,+SHRA VCTS,YBBN 021400Z 08001KT 2500 +SHRA VCTS FEW013 SCT020 BKN052 FEW030CB 22/21 Q1015
YBBN,2016-05-02 14:17,153.1292,-27.3917,69.80,69.80,100.00,250.00,11.00,0.00,29.97,M,0.93,M,FEW,SCT,BKN,M,500.00,1000.00,3200.00,M,+SHRA,YBBN 021417Z 25011KT 1500 +SHRA FEW005 SCT010 BKN032 21/21 Q1015
YBBN,2016-05-02 14:22,153.1292,-27.3917,69.80,68.00,94.01,200.00,7.00,0.00,29.97,M,3.11,M,FEW,BKN,BKN,M,300.00,1000.00,3200.00,M,SHRA,YBBN 021422Z 20007KT 190V250 5000 SHRA FEW003 BKN010 BKN032 21/20 Q1015 RESHRA
YBBN,2016-05-02 14:30,153.1292,-27.3917,69.80,69.80,100.00,70.00,2.00,0.00,29.97,M,4.97,M,FEW,SCT,BKN,M,300.00,1200.00,3200.00,M,SHRA,YBBN 021430Z 07002KT 8000 SHRA FEW003 SCT012 BKN032 21/21 Q1015
YBBN,2016-05-02 15:00,153.1292,-27.3917,69.80,69.80,100.00,150.00,4.00,0.00,29.94,M,6.21,M,FEW,SCT,BKN,M,300.00,1600.00,8800.00,M,M,YBBN 021500Z 15004KT 120V180 9999 FEW003 SCT016 BKN088 21/21 Q1014 RESHRA
YBBN,2016-05-02 16:00,153.1292,-27.3917,69.80,68.00,94.01,70.00,3.00,0.00,29.91,M,6.21,M,FEW,SCT,BKN,M,800.00,1700.00,12000.00,M,VCSH,YBBN 021600Z 07003KT 9999 VCSH FEW008 SCT017 BKN120 21/20 Q1013
YBBN,2016-05-02 16:30,153.1292,-27.3917,69.80,68.00,94.01,120.00,4.00,0.00,29.91,M,6.21,M,FEW,BKN,BKN,M,700.00,1400.00,14000.00,M,M,YBBN 021630Z 12004KT 9999 FEW007 BKN014 BKN140 21/20 Q1013
YBBN,2016-05-02 16:47,153.1292,-27.3917,69.80,69.80,100.00,110.00,1.00,0.00,29.91,M,6.21,M,FEW,BKN,M,M,500.00,1200.00,M,M,VCSH,YBBN 021647Z 11001KT 9999 VCSH FEW005 BKN012 21/21 Q1013
YBBN,2016-05-02 17:00,153.1292,-27.3917,69.80,69.80,100.00,120.00,2.00,0.00,29.91,M,6.21,M,FEW,SCT,BKN,M,500.00,900.00,1200.00,M,VCSH,YBBN 021700Z 12002KT 9999 VCSH FEW005 SCT009 BKN012 21/21 Q1013
YBBN,2016-05-02 17:30,153.1292,-27.3917,69.80,69.80,100.00,300.00,4.00,0.00,29.91,M,6.21,M,SCT,SCT,BKN,M,600.00,1400.00,5200.00,M,VCSH,YBBN 021730Z 30004KT 9999 VCSH SCT006 SCT014 BKN052 21/21 Q1013
YBBN,2016-05-02 18:00,153.1292,-27.3917,69.80,69.80,100.00,230.00,4.00,0.00,29.91,M,6.21,M,FEW,SCT,BKN,M,600.00,5400.00,8200.00,M,VCSH,YBBN 021800Z 23004KT 9999 VCSH FEW006 SCT054 BKN082 21/21 Q1013
YBBN,2016-05-02 18:30,153.1292,-27.3917,69.80,69.80,100.00,250.00,4.00,0.00,29.91,M,6.21,M,FEW,BKN,BKN,M,300.00,1200.00,2800.00,M,M,YBBN 021830Z 25004KT 9999 FEW003 BKN012 BKN028 21/21 Q1013
YBBN,2016-05-02 18:48,153.1292,-27.3917,69.80,69.80,100.00,250.00,5.00,0.00,29.91,M,6.21,M,SCT,BKN,M,M,300.00,900.00,M,M,M,YBBN 021848Z 25005KT 9999 SCT003 BKN009 21/21 Q1013
YBBN,2016-05-02 19:00,153.1292,-27.3917,68.00,68.00,100.00,230.00,7.00,0.00,29.91,M,6.21,M,SCT,SCT,BKN,M,400.00,1000.00,2700.00,M,M,YBBN 021900Z 23007KT 9999 SCT004 SCT010 BKN027 20/20 Q1013
YBBN,2016-05-02 19:30,153.1292,-27.3917,68.00,66.20,93.97,200.00,6.00,0.00,29.91,M,6.21,M,FEW,BKN,M,M,500.00,1400.00,M,M,M,YBBN 021930Z 20006KT 9999 FEW005 BKN014 20/19 Q1013
YBBN,2016-05-02 20:00,153.1292,-27.3917,68.00,66.20,93.97,200.00,7.00,0.00,29.91,M,5.59,M,FEW,BKN,M,M,700.00,1400.00,M,M,M,YBBN 022000Z 20007KT 9000 FEW007 BKN014 20/19 Q1013
YBBN,2016-05-02 20:30,153.1292,-27.3917,66.20,66.20,100.00,200.00,5.00,0.00,29.94,M,5.59,M,FEW,BKN,M,M,900.00,30000.00,M,M,M,YBBN 022030Z 20005KT 9000 FEW009 BKN300 19/19 Q1014
YBBN,2016-05-02 21:00,153.1292,-27.3917,66.20,66.20,100.00,200.00,6.00,0.00,29.94,M,4.97,M,FEW,BKN,BKN,M,200.00,900.00,30000.00,M,M,YBBN 022100Z 20006KT 8000 FEW002 BKN009 BKN300 19/19 Q1014
YBBN,2016-05-02 21:30,153.1292,-27.3917,66.20,66.20,100.00,210.00,7.00,0.00,29.94,M,3.11,M,SCT,OVC,M,M,100.00,300.00,M,M,BR,YBBN 022130Z 21007KT 5000 BR SCT001 OVC003 19/19 Q1014
YBBN,2016-05-02 21:42,153.1292,-27.3917,66.20,66.20,100.00,210.00,7.00,0.00,29.94,M,1.55,M,OVC,M,M,M,100.00,M,M,M,PRFG,YBBN 022142Z 21007KT 2500 PRFG OVC001 19/19 Q1014
YBBN,2016-05-02 22:00,153.1292,-27.3917,68.00,66.20,93.97,210.00,8.00,0.00,29.94,M,5.59,M,SCT,OVC,M,M,200.00,400.00,M,M,M,YBBN 022200Z 21008KT 9000 SCT002 OVC004 20/19 Q1014
YBBN,2016-05-02 22:30,153.1292,-27.3917,68.00,68.00,100.00,230.00,7.00,0.00,29.94,M,6.21,M,SCT,BKN,M,M,300.00,500.00,M,M,M,YBBN 022230Z 23007KT 9999 SCT003 BKN005 20/20 Q1014
YBBN,2016-05-02 23:00,153.1292,-27.3917,69.80,68.00,94.01,250.00,7.00,0.00,29.94,M,6.21,M,FEW,BKN,M,M,400.00,30000.00,M,M,M,YBBN 022300Z 25007KT 9999 FEW004 BKN300 21/20 Q1014
YBBN,2016-05-02 23:30,153.1292,-27.3917,73.40,66.20,78.19,230.00,7.00,0.00,29.94,M,6.21,M,FEW,BKN,M,M,900.00,25000.00,M,M,M,YBBN 022330Z 23007KT 9999 FEW009 BKN250 23/19 Q1014 NOSIG
