#DEBUG: Format Typ    -> comma
#DEBUG: Time Period   -> 2014-01-19 00:00:00+00:00 2014-01-20 00:00:00+00:00
#DEBUG: Time Zone     -> Etc/UTC
#DEBUG: Data Contact   -> daryl herzmann akrherz@iastate.edu 515-294-5978
#DEBUG: Entries Found -> -1
station,valid,lon,lat,tmpf, dwpf, relh, drct, sknt, p01i, alti, mslp, vsby, gust, skyc1, skyc2, skyc3, skyc4, skyl1, skyl2, skyl3, skyl4, presentwx, metar
YBBN,2014-01-19 00:00,153.1292,-27.3917,78.80,62.60,57.60,210.00,6.00,0.00,29.80,M,6.21,M,SCT,M,M,M,4500.00,M,M,M,M,YBBN 190000Z 21006KT 9999 SCT045 26/17 Q1009 NOSIG
YBBN,2014-01-19 00:30,153.1292,-27.3917,80.60,64.40,57.84,340.00,9.00,0.00,29.77,M,6.21,M,SCT,M,M,M,4000.00,M,M,M,M,YBBN 190030Z 34009KT 9999 SCT040 27/18 Q1008
YBBN,2014-01-19 01:00,153.1292,-27.3917,82.40,64.40,54.55,40.00,8.00,0.00,29.77,M,6.21,M,SCT,M,M,M,4200.00,M,M,M,M,YBBN 190100Z 04008KT 9999 SCT042 28/18 Q1008 NOSIG
YBBN,2014-01-19 01:30,153.1292,-27.3917,84.20,62.60,48.32,40.00,7.00,0.00,29.77,M,6.21,M,FEW,M,M,M,4800.00,M,M,M,M,YBBN 190130Z 04007KT 9999 FEW048 29/17 Q1008
YBBN,2014-01-19 02:00,153.1292,-27.3917,84.20,60.80,45.34,40.00,10.00,0.00,29.74,M,6.21,M,M,M,M,M,M,M,M,M,M,YBBN 190200Z 04010KT CAVOK 29/16 Q1007 NOSIG
YBBN,2014-01-19 02:30,153.1292,-27.3917,84.20,64.40,51.47,30.00,13.00,0.00,29.74,M,6.21,M,FEW,M,M,M,4800.00,M,M,M,M,YBBN 190230Z 03013KT 9999 FEW048 29/18 Q1007
YBBN,2014-01-19 03:00,153.1292,-27.3917,84.20,62.60,48.32,50.00,10.00,0.00,29.74,M,6.21,M,M,M,M,M,M,M,M,M,M,YBBN 190300Z 05010KT CAVOK 29/17 Q1007 NOSIG
YBBN,2014-01-19 03:30,153.1292,-27.3917,84.20,62.60,48.32,70.00,11.00,0.00,29.74,M,6.21,M,FEW,M,M,M,4800.00,M,M,M,M,YBBN 190330Z 07011KT 9999 FEW048 29/17 Q1007
YBBN,2014-01-19 04:00,153.1292,-27.3917,82.40,60.80,48.05,60.00,10.00,0.00,29.71,M,6.21,M,FEW,M,M,M,4800.00,M,M,M,M,YBBN 190400Z 06010KT 9999 FEW048 28/16 Q1006
YBBN,2014-01-19 04:30,153.1292,-27.3917,82.40,64.40,54.55,60.00,12.00,0.00,29.71,M,6.21,M,FEW,M,M,M,4500.00,M,M,M,M,YBBN 190430Z 06012KT 9999 FEW045 28/18 Q1006
YBBN,2014-01-19 05:00,153.1292,-27.3917,82.40,64.40,54.55,60.00,13.00,0.00,29.71,M,6.21,M,FEW,M,M,M,4200.00,M,M,M,M,YBBN 190500Z 06013KT 9999 FEW042 28/18 Q1006 NOSIG
YBBN,2014-01-19 05:30,153.1292,-27.3917,82.40,64.40,54.55,60.00,13.00,0.00,29.71,M,6.21,M,FEW,M,M,M,4200.00,M,M,M,M,YBBN 190530Z 06013KT 9999 FEW042 28/18 Q1006
YBBN,2014-01-19 06:00,153.1292,-27.3917,80.60,64.40,57.84,60.00,13.00,0.00,29.71,M,6.21,M,FEW,M,M,M,3800.00,M,M,M,M,YBBN 190600Z 06013KT 9999 FEW038 27/18 Q1006 NOSIG
YBBN,2014-01-19 06:30,153.1292,-27.3917,80.60,64.40,57.84,50.00,12.00,0.00,29.71,M,6.21,M,M,M,M,M,M,M,M,M,M,YBBN 190630Z 05012KT CAVOK 27/18 Q1006
YBBN,2014-01-19 07:00,153.1292,-27.3917,80.60,64.40,57.84,50.00,10.00,0.00,29.71,M,6.21,M,FEW,M,M,M,3500.00,M,M,M,M,YBBN 190700Z 05010KT 9999 FEW035 27/18 Q1006 NOSIG
YBBN,2014-01-19 07:30,153.1292,-27.3917,78.80,64.40,61.36,50.00,9.00,0.00,29.71,M,6.21,M,FEW,M,M,M,3500.00,M,M,M,M,YBBN 190730Z 05009KT 9999 FEW035 26/18 Q1006
YBBN,2014-01-19 08:00,153.1292,-27.3917,78.80,64.40,61.36,40.00,10.00,0.00,29.71,M,6.21,M,FEW,SCT,M,M,3500.00,26000.00,M,M,M,YBBN 190800Z 04010KT 9999 FEW035 SCT260 26/18 Q1006 NOSIG
YBBN,2014-01-19 08:30,153.1292,-27.3917,77.00,64.40,65.12,50.00,9.00,0.00,29.74,M,6.21,M,FEW,SCT,M,M,2800.00,26000.00,M,M,M,YBBN 190830Z 05009KT 9999 FEW028 SCT260 25/18 Q1007 RMK DIST FU W/NW
YBBN,2014-01-19 09:00,153.1292,-27.3917,77.00,64.40,65.12,40.00,8.00,0.00,29.74,M,6.21,M,FEW,SCT,M,M,2800.00,26000.00,M,M,M,YBBN 190900Z 04008KT 9999 FEW028 SCT260 25/18 Q1007
YBBN,2014-01-19 09:30,153.1292,-27.3917,75.20,64.40,69.14,30.00,8.00,0.00,29.74,M,6.21,M,FEW,SCT,M,M,2600.00,26000.00,M,M,M,YBBN 190930Z 03008KT 9999 FEW026 SCT260 24/18 Q1007 RMK DIST FU W/NW
YBBN,2014-01-19 10:00,153.1292,-27.3917,73.40,66.20,78.19,30.00,7.00,0.00,29.77,M,6.21,M,FEW,SCT,M,M,2400.00,26000.00,M,M,M,YBBN 191000Z 03007KT 9999 FEW024 SCT260 23/19 Q1008 NOSIG
YBBN,2014-01-19 10:30,153.1292,-27.3917,73.40,66.20,78.19,30.00,7.00,0.00,29.77,M,6.21,M,FEW,SCT,M,M,2400.00,26000.00,M,M,M,YBBN 191030Z 03007KT 9999 FEW024 SCT260 23/19 Q1008
YBBN,2014-01-19 11:00,153.1292,-27.3917,73.40,66.20,78.19,20.00,8.00,0.00,29.77,M,6.21,M,FEW,SCT,M,M,2400.00,26000.00,M,M,M,YBBN 191100Z 02008KT 9999 FEW024 SCT260 23/19 Q1008 NOSIG
YBBN,2014-01-19 11:30,153.1292,-27.3917,73.40,66.20,78.19,20.00,8.00,0.00,29.77,M,6.21,M,FEW,SCT,M,M,2500.00,26000.00,M,M,M,YBBN 191130Z 02008KT 9999 FEW025 SCT260 23/19 Q1008
YBBN,2014-01-19 12:00,153.1292,-27.3917,73.40,66.20,78.19,10.00,9.00,0.00,29.77,M,6.21,M,FEW,SCT,M,M,2200.00,25000.00,M,M,M,YBBN 191200Z 01009KT 9999 FEW022 SCT250 23/19 Q1008
YBBN,2014-01-19 12:30,153.1292,-27.3917,73.40,66.20,78.19,360.00,7.00,0.00,29.77,M,6.21,M,FEW,SCT,M,M,2200.00,25000.00,M,M,M,YBBN 191230Z 36007KT 9999 FEW022 SCT250 23/19 Q1008 RMK FU
YBBN,2014-01-19 13:00,153.1292,-27.3917,73.40,66.20,78.19,360.00,6.00,0.00,29.80,M,6.21,M,FEW,BKN,M,M,1900.00,2500.00,M,M,M,YBBN 191300Z 36006KT 9999 FEW019 BKN025 23/19 Q1009
YBBN,2014-01-19 13:30,153.1292,-27.3917,75.20,66.20,73.61,350.00,7.00,0.00,29.77,M,6.21,M,FEW,BKN,M,M,1900.00,2500.00,M,M,M,YBBN 191330Z 35007KT 9999 FEW019 BKN025 24/19 Q1008 RMK FU
YBBN,2014-01-19 14:00,153.1292,-27.3917,75.20,66.20,73.61,360.00,7.00,0.00,29.77,M,6.21,M,FEW,SCT,M,M,1900.00,2600.00,M,M,M,YBBN 191400Z 36007KT 9999 FEW019 SCT026 24/19 Q1008
YBBN,2014-01-19 14:30,153.1292,-27.3917,73.40,68.00,83.21,340.00,6.00,0.00,29.77,M,6.21,M,FEW,SCT,M,M,2000.00,2600.00,M,M,M,YBBN 191430Z 34006KT 9999 FEW020 SCT026 23/20 Q1008 RMK FU
YBBN,2014-01-19 15:00,153.1292,-27.3917,73.40,66.20,78.19,300.00,7.00,0.00,29.74,M,6.21,M,FEW,SCT,M,M,1900.00,2600.00,M,M,M,YBBN 191500Z 30007KT 9999 FEW019 SCT026 23/19 Q1007 NOSIG
YBBN,2014-01-19 15:30,153.1292,-27.3917,73.40,66.20,78.19,300.00,5.00,0.00,29.74,M,6.21,M,FEW,SCT,M,M,1900.00,25000.00,M,M,M,YBBN 191530Z 30005KT 9999 FEW019 SCT250 23/19 Q1007 RMK VIS RED TO 10KM W/SW DUE SMOKE
YBBN,2014-01-19 16:00,153.1292,-27.3917,71.60,66.20,83.09,290.00,4.00,0.00,29.74,M,6.21,M,FEW,SCT,M,M,2700.00,25000.00,M,M,M,YBBN 191600Z 29004KT 9999 FEW027 SCT250 22/19 Q1007 NOSIG
YBBN,2014-01-19 16:30,153.1292,-27.3917,69.80,66.20,88.34,300.00,5.00,0.00,29.74,M,6.21,M,FEW,SCT,M,M,2200.00,25000.00,M,M,M,YBBN 191630Z 30005KT 9999 FEW022 SCT250 21/19 Q1007 RMK FU
YBBN,2014-01-19 17:00,153.1292,-27.3917,71.60,66.20,83.09,300.00,5.00,0.00,29.74,M,6.21,M,FEW,M,M,M,1800.00,M,M,M,M,YBBN 191700Z 30005KT 9999 FEW018 22/19 Q1007 NOSIG
YBBN,2014-01-19 17:30,153.1292,-27.3917,71.60,66.20,83.09,330.00,4.00,0.00,29.74,M,6.21,M,FEW,M,M,M,1900.00,M,M,M,M,YBBN 191730Z 33004KT 9999 FEW019 22/19 Q1007
YBBN,2014-01-19 18:00,153.1292,-27.3917,71.60,66.20,83.09,270.00,4.00,0.00,29.74,M,6.21,M,FEW,M,M,M,2800.00,M,M,M,M,YBBN 191800Z 27004KT 9999 FEW028 22/19 Q1007 NOSIG
YBBN,2014-01-19 18:30,153.1292,-27.3917,69.80,66.20,88.34,0.00,0.00,0.00,29.74,M,6.21,M,FEW,M,M,M,2200.00,M,M,M,M,YBBN 191830Z 00000KT 9999 FEW022 21/19 Q1007
YBBN,2014-01-19 19:00,153.1292,-27.3917,69.80,66.20,88.34,310.00,1.00,0.00,29.74,M,6.21,M,FEW,M,M,M,2300.00,M,M,M,M,YBBN 191900Z 31001KT 9999 FEW023 21/19 Q1007 NOSIG
YBBN,2014-01-19 19:30,153.1292,-27.3917,69.80,66.20,88.34,0.00,0.00,0.00,29.77,M,6.21,M,FEW,M,M,M,2800.00,M,M,M,M,YBBN 191930Z 00000KT 9999 FEW028 21/19 Q1008
YBBN,2014-01-19 20:00,153.1292,-27.3917,71.60,66.20,83.09,280.00,5.00,0.00,29.77,M,6.21,M,FEW,M,M,M,2400.00,M,M,M,M,YBBN 192000Z 28005KT 9999 FEW024 22/19 Q1008 NOSIG
YBBN,2014-01-19 20:30,153.1292,-27.3917,73.40,66.20,78.19,300.00,4.00,0.00,29.77,M,6.21,M,FEW,M,M,M,2400.00,M,M,M,M,YBBN 192030Z 30004KT 9999 FEW024 23/19 Q1008
YBBN,2014-01-19 21:00,153.1292,-27.3917,75.20,66.20,73.61,310.00,6.00,0.00,29.80,M,6.21,M,FEW,M,M,M,2500.00,M,M,M,M,YBBN 192100Z 31006KT 9999 FEW025 24/19 Q1009 NOSIG
YBBN,2014-01-19 21:30,153.1292,-27.3917,77.00,66.20,69.33,300.00,5.00,0.00,29.80,M,6.21,M,FEW,M,M,M,2500.00,M,M,M,M,YBBN 192130Z 30005KT 9999 FEW025 25/19 Q1009
YBBN,2014-01-19 22:00,153.1292,-27.3917,78.80,66.20,65.33,320.00,5.00,0.00,29.80,M,6.21,M,FEW,M,M,M,2500.00,M,M,M,M,YBBN 192200Z 32005KT 9999 FEW025 26/19 Q1009
YBBN,2014-01-19 22:30,153.1292,-27.3917,80.60,66.20,61.58,280.00,6.00,0.00,29.80,M,6.21,M,FEW,M,M,M,2900.00,M,M,M,M,YBBN 192230Z 28006KT 9999 FEW029 27/19 Q1009
YBBN,2014-01-19 23:00,153.1292,-27.3917,82.40,64.40,54.55,320.00,5.00,0.00,29.80,M,6.21,M,FEW,M,M,M,2900.00,M,M,M,M,YBBN 192300Z 32005KT 9999 FEW029 28/18 Q1009 NOSIG
YBBN,2014-01-19 23:30,153.1292,-27.3917,82.40,68.00,61.81,360.00,10.00,0.00,29.80,M,6.21,M,SCT,M,M,M,3400.00,M,M,M,M,YBBN 192330Z 36010KT 9999 SCT034 28/20 Q1009
