#DEBUG: Format Typ    -> comma
#DEBUG: Time Period   -> 2013-12-05 00:00:00+00:00 2013-12-06 00:00:00+00:00
#DEBUG: Time Zone     -> Etc/UTC
#DEBUG: Data Contact   -> daryl herzmann akrherz@iastate.edu 515-294-5978
#DEBUG: Entries Found -> -1
station,valid,lon,lat,tmpf, dwpf, relh, drct, sknt, p01i, alti, mslp, vsby, gust, skyc1, skyc2, skyc3, skyc4, skyl1, skyl2, skyl3, skyl4, presentwx, metar
YBBN,2013-12-05 00:00,153.1292,-27.3917,82.40,62.60,51.21,10.00,10.00,0.00,29.62,M,6.21,M,M,M,M,M,M,M,M,M,M,YBBN 050000Z 01010KT CAVOK 28/17 Q1003 FM0030 33016G29KT 9999 SCT045 BKN120
YBBN,2013-12-05 00:30,153.1292,-27.3917,82.40,64.40,54.55,10.00,15.00,0.00,29.62,M,6.21,M,M,M,M,M,M,M,M,M,M,YBBN 050030Z 01015KT CAVOK 28/18 Q1003
YBBN,2013-12-05 01:00,153.1292,-27.3917,82.40,68.00,61.81,20.00,16.00,0.00,29.59,M,6.21,M,M,M,M,M,M,M,M,M,M,YBBN 050100Z 02016KT CAVOK 28/20 Q1002 NOSIG
YBBN,2013-12-05 01:30,153.1292,-27.3917,82.40,68.00,61.81,10.00,17.00,0.00,29.59,M,6.21,M,M,M,M,M,M,M,M,M,M,YBBN 050130Z 01017KT CAVOK 28/20 Q1002
YBBN,2013-12-05 02:00,153.1292,-27.3917,82.40,69.80,65.74,20.00,16.00,0.00,29.59,M,6.21,M,M,M,M,M,M,M,M,M,M,YBBN 050200Z 02016KT CAVOK 28/21 Q1002
YBBN,2013-12-05 02:30,153.1292,-27.3917,84.20,69.80,62.03,10.00,17.00,0.00,29.56,M,6.21,M,M,M,M,M,M,M,M,M,M,YBBN 050230Z 01017KT CAVOK 29/21 Q1001
YBBN,2013-12-05 03:00,153.1292,-27.3917,82.40,68.00,61.81,10.00,19.00,0.00,29.56,M,6.21,M,M,M,M,M,M,M,M,M,M,YBBN 050300Z 01019KT CAVOK 28/20 Q1001
YBBN,2013-12-05 03:30,153.1292,-27.3917,82.40,68.00,61.81,20.00,19.00,0.00,29.53,M,6.21,M,M,M,M,M,M,M,M,M,M,YBBN 050330Z 02019KT CAVOK 28/20 Q1000
YBBN,2013-12-05 04:00,153.1292,-27.3917,82.40,69.80,65.74,10.00,20.00,0.00,29.53,M,6.21,M,M,M,M,M,M,M,M,M,M,YBBN 050400Z 01020KT CAVOK 28/21 Q1000 NOSIG
YBBN,2013-12-05 04:30,153.1292,-27.3917,82.40,69.80,65.74,20.00,21.00,0.00,29.50,M,6.21,M,M,M,M,M,M,M,M,M,M,YBBN 050430Z 02021KT CAVOK 28/21 Q0999 RMK HAZE
YBBN,2013-12-05 05:00,153.1292,-27.3917,78.80,68.00,69.52,20.00,21.00,0.00,29.50,M,6.21,M,M,M,M,M,M,M,M,M,M,YBBN 050500Z 02021KT CAVOK 26/20 Q0999 NOSIG
YBBN,2013-12-05 05:30,153.1292,-27.3917,78.80,69.80,73.95,20.00,19.00,0.00,29.50,M,6.21,M,M,M,M,M,M,M,M,M,M,YBBN 050530Z 02019KT CAVOK 26/21 Q0999 RMK TCU TOPS TO SE  HAZE
YBBN,2013-12-05 06:00,153.1292,-27.3917,78.80,68.00,69.52,10.00,20.00,0.00,29.47,M,6.21,M,FEW,SCT,BKN,M,4000.00,5500.00,28000.00,M,VCTS,YBBN 050600Z 01020KT 9999 VCTS FEW040 SCT055CB BKN280 26/20 Q0998
YBBN,2013-12-05 06:10,153.1292,-27.3917,78.80,68.00,69.52,10.00,19.00,0.00,29.53,M,6.21,M,FEW,SCT,BKN,M,4000.00,5500.00,30000.00,M,TS,YBBN 050610Z 01019KT 9999 TS FEW040 SCT055CB BKN300 26/20 Q1000 RETS
YBBN,2013-12-05 06:13,153.1292,-27.3917,80.60,68.00,65.54,360.00,18.00,0.00,29.56,M,0.93,28.00,FEW,SCT,M,M,4000.00,5500.00,M,M,-TSRA,YBBN 050613Z 36018G28KT 1500 -TSRA FEW040 SCT055CB 27/20 Q1001
YBBN,2013-12-05 06:14,153.1292,-27.3917,78.80,69.80,73.95,230.00,21.00,0.00,29.59,M,0.75,M,FEW,BKN,M,M,3000.00,5500.00,M,M,TSRA,YBBN 050614Z 23021KT 1200 TSRA FEW030 BKN055CB 26/21 Q1002
YBBN,2013-12-05 06:17,153.1292,-27.3917,75.20,71.60,88.59,230.00,21.00,0.00,29.59,M,0.50,32.00,FEW,BKN,M,M,2700.00,5000.00,M,M,+TSRA,YBBN 050617Z 23021G32KT 0800 +TSRA FEW027 BKN050CB 24/22 Q1002
YBBN,2013-12-05 06:20,153.1292,-27.3917,75.20,71.60,88.59,220.00,19.00,0.00,29.59,M,1.12,32.00,FEW,BKN,M,M,2500.00,5000.00,M,M,+TSRA,YBBN 050620Z 22019G32KT 1800 +TSRA FEW025 BKN050CB 24/22 Q1002
YBBN,2013-12-05 06:30,153.1292,-27.3917,75.20,73.40,94.14,170.00,7.00,0.00,29.56,M,6.21,M,FEW,SCT,FEW,M,2500.00,3000.00,3000.00,M,-SHRA,YBBN 050630Z 17007KT 9999 -SHRA FEW025 SCT030 FEW030CB 24/23 Q1001 RETS
YBBN,2013-12-05 07:00,153.1292,-27.3917,75.20,73.40,94.14,40.00,7.00,0.00,29.56,M,6.21,M,FEW,SCT,BKN,FEW,2500.00,4000.00,7500.00,3000.00,VCSH,YBBN 050700Z 04007KT 9999 VCSH FEW025 SCT040 BKN075 FEW030CB 24/23 Q1001 INTER 0800/0820 3000 SHRA BKN018
YBBN,2013-12-05 07:30,153.1292,-27.3917,75.20,71.60,88.59,40.00,4.00,0.00,29.59,M,6.21,M,FEW,SCT,BKN,FEW,2000.00,3000.00,7100.00,3000.00,-SHRA,YBBN 050730Z 04004KT 9999 -SHRA FEW020 SCT030 BKN071 FEW030TCU 24/22 Q1002
YBBN,2013-12-05 08:00,153.1292,-27.3917,77.00,71.60,83.44,30.00,3.00,0.00,29.59,M,6.21,M,FEW,SCT,M,M,2000.00,6900.00,M,M,-DZ,YBBN 050800Z 03003KT 9999 -DZ FEW020 SCT069 25/22 Q1002
YBBN,2013-12-05 08:30,153.1292,-27.3917,77.00,71.60,83.44,310.00,5.00,0.00,29.62,M,6.21,M,FEW,BKN,M,M,2000.00,19000.00,M,M,M,YBBN 050830Z 31005KT 9999 FEW020 BKN190 25/22 Q1003
YBBN,2013-12-05 09:00,153.1292,-27.3917,77.00,69.80,78.48,290.00,6.00,0.00,29.62,M,6.21,M,FEW,BKN,M,M,2000.00,20000.00,M,M,M,YBBN 050900Z 29006KT 9999 FEW020 BKN200 25/21 Q1003 NOSIG
YBBN,2013-12-05 09:30,153.1292,-27.3917,77.00,66.20,69.33,240.00,10.00,0.00,29.65,M,6.21,M,FEW,SCT,M,M,2000.00,20000.00,M,M,M,YBBN 050930Z 24010KT 9999 FEW020 SCT200 25/19 Q1004
YBBN,2013-12-05 10:00,153.1292,-27.3917,75.20,62.60,64.91,300.00,5.00,0.00,29.65,M,6.21,M,M,M,M,M,M,M,M,M,M,YBBN 051000Z 30005KT CAVOK 24/17 Q1004
YBBN,2013-12-05 10:30,153.1292,-27.3917,75.20,62.60,64.91,310.00,6.00,0.00,29.68,M,6.21,M,M,M,M,M,M,M,M,M,M,YBBN 051030Z 31006KT CAVOK 24/17 Q1005
YBBN,2013-12-05 11:00,153.1292,-27.3917,75.20,57.20,53.55,270.00,7.00,0.00,29.68,M,6.21,M,M,M,M,M,M,M,M,M,M,YBBN 051100Z 27007KT CAVOK 24/14 Q1005 NOSIG
YBBN,2013-12-05 11:30,153.1292,-27.3917,77.00,55.40,47.25,260.00,5.00,0.00,29.68,M,6.21,M,M,M,M,M,M,M,M,M,M,YBBN 051130Z 26005KT CAVOK 25/13 Q1005
YBBN,2013-12-05 12:00,153.1292,-27.3917,75.20,53.60,46.98,260.00,3.00,0.00,29.71,M,6.21,M,M,M,M,M,M,M,M,M,M,YBBN 051200Z 26003KT CAVOK 24/12 Q1006 NOSIG
YBBN,2013-12-05 12:30,153.1292,-27.3917,69.80,57.20,64.26,330.00,4.00,0.00,29.71,M,6.21,M,M,M,M,M,M,M,M,M,M,YBBN 051230Z 33004KT CAVOK 21/14 Q1006
YBBN,2013-12-05 13:00,153.1292,-27.3917,69.80,57.20,64.26,310.00,6.00,0.00,29.71,M,6.21,M,M,M,M,M,M,M,M,M,M,YBBN 051300Z 31006KT CAVOK 21/14 Q1006 NOSIG
YBBN,2013-12-05 13:30,153.1292,-27.3917,73.40,53.60,49.90,290.00,7.00,0.00,29.74,M,6.21,M,M,M,M,M,M,M,M,M,M,YBBN 051330Z 29007KT CAVOK 23/12 Q1007
YBBN,2013-12-05 14:00,153.1292,-27.3917,71.60,50.00,46.43,230.00,9.00,0.00,29.74,M,6.21,M,M,M,M,M,M,M,M,M,M,YBBN 051400Z 23009KT CAVOK 22/10 Q1007 NOSIG
YBBN,2013-12-05 14:30,153.1292,-27.3917,69.80,48.20,46.16,220.00,11.00,0.00,29.77,M,6.21,M,M,M,M,M,M,M,M,M,M,YBBN 051430Z 22011KT CAVOK 21/09 Q1008
YBBN,2013-12-05 15:00,153.1292,-27.3917,68.00,46.40,45.88,220.00,10.00,0.00,29.77,M,6.21,M,M,M,M,M,M,M,M,M,M,YBBN 051500Z 22010KT CAVOK 20/08 Q1008 NOSIG
YBBN,2013-12-05 15:30,153.1292,-27.3917,66.20,46.40,48.83,230.00,9.00,0.00,29.77,M,6.21,M,M,M,M,M,M,M,M,M,M,YBBN 051530Z 23009KT CAVOK 19/08 Q1008
YBBN,2013-12-05 16:00,153.1292,-27.3917,64.40,44.60,48.55,210.00,8.00,0.00,29.77,M,6.21,M,M,M,M,M,M,M,M,M,M,YBBN 051600Z 21008KT CAVOK 18/07 Q1008
YBBN,2013-12-05 16:30,153.1292,-27.3917,66.20,42.80,42.57,240.00,10.00,0.00,29.77,M,6.21,M,M,M,M,M,M,M,M,M,M,YBBN 051630Z 24010KT CAVOK 19/06 Q1008
YBBN,2013-12-05 17:00,153.1292,-27.3917,62.60,44.60,51.72,230.00,8.00,0.00,29.80,M,6.21,M,M,M,M,M,M,M,M,M,M,YBBN 051700Z 23008KT CAVOK 17/07 Q1009 NOSIG
YBBN,2013-12-05 17:30,153.1292,-27.3917,66.20,41.00,39.72,210.00,8.00,0.00,29.80,M,6.21,M,M,M,M,M,M,M,M,M,M,YBBN 051730Z 21008KT CAVOK 19/05 Q1009
YBBN,2013-12-05 18:00,153.1292,-27.3917,60.80,46.40,59.01,220.00,7.00,0.00,29.80,M,6.21,M,M,M,M,M,M,M,M,M,M,YBBN 051800Z 22007KT CAVOK 16/08 Q1009 NOSIG
YBBN,2013-12-05 18:30,153.1292,-27.3917,60.80,46.40,59.01,230.00,8.00,0.00,29.83,M,6.21,M,M,M,M,M,M,M,M,M,M,YBBN 051830Z 23008KT CAVOK 16/08 Q1010
YBBN,2013-12-05 19:00,153.1292,-27.3917,59.00,46.40,62.92,220.00,11.00,0.00,29.85,M,6.21,M,M,M,M,M,M,M,M,M,M,YBBN 051900Z 22011KT CAVOK 15/08 Q1011
YBBN,2013-12-05 19:30,153.1292,-27.3917,62.60,42.80,48.28,220.00,10.00,0.00,29.85,M,6.21,M,M,M,M,M,M,M,M,M,M,YBBN 051930Z 22010KT CAVOK 17/06 Q1011
YBBN,2013-12-05 20:00,153.1292,-27.3917,66.20,37.40,34.51,210.00,10.00,0.00,29.88,M,6.21,M,M,M,M,M,M,M,M,M,M,YBBN 052000Z 21010KT CAVOK 19/03 Q1012 NOSIG
YBBN,2013-12-05 20:30,153.1292,-27.3917,66.20,37.40,34.51,200.00,9.00,0.00,29.88,M,6.21,M,M,M,M,M,M,M,M,M,M,YBBN 052030Z 20009KT CAVOK 19/03 Q1012
YBBN,2013-12-05 21:00,153.1292,-27.3917,68.00,33.80,28.11,200.00,9.00,0.00,29.91,M,6.21,M,M,M,M,M,M,M,M,M,M,YBBN 052100Z 20009KT CAVOK 20/01 Q1013
YBBN,2013-12-05 21:30,153.1292,-27.3917,69.80,30.20,22.86,200.00,10.00,0.00,29.91,M,6.21,M,M,M,M,M,M,M,M,M,M,YBBN 052130Z 20010KT CAVOK 21/M01 Q1013
YBBN,2013-12-05 22:00,153.1292,-27.3917,71.60,30.20,21.50,200.00,10.00,0.00,29.91,M,6.21,M,M,M,M,M,M,M,M,M,M,YBBN 052200Z 20010KT CAVOK 22/M01 Q1013 NOSIG
YBBN,2013-12-05 22:30,153.1292,-27.3917,71.60,32.00,23.13,200.00,9.00,0.00,29.91,M,6.21,M,M,M,M,M,M,M,M,M,M,YBBN 052230Z 20009KT CAVOK 22/M00 Q1013
YBBN,2013-12-05 23:00,153.1292,-27.3917,73.40,30.20,20.23,210.00,10.00,0.00,29.91,M,6.21,M,M,M,M,M,M,M,M,M,M,YBBN 052300Z 21010KT CAVOK 23/M01 Q1013 NOSIG
YBBN,2013-12-05 23:30,153.1292,-27.3917,73.40,26.60,17.46,210.00,12.00,0.00,29.91,M,6.21,M,M,M,M,M,M,M,M,M,M,YBBN 052330Z 21012KT CAVOK 23/M03 Q1013
