#DEBUG: Format Typ    -> comma
#DEBUG: Time Period   -> 2010-11-21 00:00:00+00:00 2010-11-22 00:00:00+00:00
#DEBUG: Time Zone     -> Etc/UTC
#DEBUG: Data Contact   -> daryl herzmann akrherz@iastate.edu 515-294-5978
#DEBUG: Entries Found -> -1
station,valid,lon,lat,tmpf, dwpf, relh, drct, sknt, p01i, alti, mslp, vsby, gust, skyc1, skyc2, skyc3, skyc4, skyl1, skyl2, skyl3, skyl4, presentwx, metar
YBBN,2010-11-21 00:00,153.1292,-27.3917,75.20,57.20,53.55,130.00,13.00,M,30.15,M,6.21,M,SCT,SCT,BKN,M,4000.00,6500.00,25000.00,M,M,YBBN 210000Z 13013KT 9999 SCT040 SCT065 BKN250 24/14 Q1021 NOSIG
YBBN,2010-11-21 00:30,153.1292,-27.3917,75.20,57.20,53.55,130.00,12.00,M,30.15,M,6.21,M,FEW,BKN,M,M,4000.00,25000.00,M,M,M,YBBN 210030Z 13012KT 9999 FEW040 BKN250 24/14 Q1021 NOSIG
YBBN,2010-11-21 01:00,153.1292,-27.3917,75.20,57.20,53.55,130.00,11.00,M,30.15,M,6.21,21.00,FEW,SCT,BKN,M,4000.00,18000.00,25000.00,M,M,YBBN 210100Z 13011G21KT 9999 FEW040 SCT180 BKN250 24/14 Q1021 NOSIG
YBBN,2010-11-21 01:30,153.1292,-27.3917,77.00,55.40,47.25,130.00,11.00,M,30.15,M,6.21,M,FEW,BKN,M,M,4000.00,25000.00,M,M,M,YBBN 210130Z 13011KT 9999 FEW040 BKN250 25/13 Q1021 NOSIG
YBBN,2010-11-21 02:00,153.1292,-27.3917,75.20,55.40,50.17,130.00,12.00,M,30.15,M,6.21,M,SCT,BKN,M,M,4000.00,25000.00,M,M,M,YBBN 210200Z 13012KT 9999 SCT040 BKN250 24/13 Q1021 NOSIG
YBBN,2010-11-21 02:30,153.1292,-27.3917,73.40,55.40,53.29,120.00,11.00,M,30.15,M,6.21,M,SCT,SCT,BKN,M,4000.00,18000.00,25000.00,M,M,YBBN 210230Z 12011KT 9999 SCT040 SCT180 BKN250 23/13 Q1021 NOSIG
YBBN,2010-11-21 03:00,153.1292,-27.3917,75.20,55.40,50.17,130.00,10.00,M,30.15,M,6.21,M,FEW,SCT,BKN,M,4000.00,16000.00,25000.00,M,M,YBBN 210300Z 13010KT 9999 FEW040 SCT160 BKN250 24/13 Q1021 NOSIG
YBBN,2010-11-21 03:30,153.1292,-27.3917,75.20,55.40,50.17,130.00,10.00,M,30.15,M,6.21,M,FEW,SCT,BKN,M,4000.00,15000.00,25000.00,M,M,YBBN 210330Z 13010KT 9999 FEW040 SCT150 BKN250 24/13 Q1021 NOSIG
YBBN,2010-11-21 04:00,153.1292,-27.3917,73.40,53.60,49.90,150.00,10.00,M,30.12,M,6.21,M,FEW,SCT,BKN,M,4000.00,15000.00,25000.00,M,M,YBBN 210400Z 15010KT 9999 FEW040 SCT150 BKN250 23/12 Q1020 NOSIG
YBBN,2010-11-21 04:30,153.1292,-27.3917,75.20,55.40,50.17,130.00,11.00,M,30.12,M,6.21,M,FEW,SCT,BKN,M,4000.00,15000.00,25000.00,M,M,YBBN 210430Z 13011KT 9999 FEW040 SCT150 BKN250 24/13 Q1020 NOSIG
YBBN,2010-11-21 05:00,153.1292,-27.3917,75.20,57.20,53.55,130.00,11.00,M,30.12,M,6.21,M,FEW,BKN,M,M,4000.00,18000.00,M,M,M,YBBN 210500Z 13011KT 9999 FEW040 BKN180 24/14 Q1020 NOSIG
YBBN,2010-11-21 05:30,153.1292,-27.3917,73.40,55.40,53.29,130.00,9.00,M,30.12,M,6.21,M,FEW,BKN,M,M,4000.00,17500.00,M,M,M,YBBN 210530Z 13009KT 9999 FEW040 BKN175 23/13 Q1020 NOSIG
YBBN,2010-11-21 06:00,153.1292,-27.3917,73.40,57.20,56.88,150.00,9.00,M,30.09,M,6.21,M,FEW,BKN,M,M,4000.00,17000.00,M,M,M,YBBN 210600Z 15009KT 9999 FEW040 BKN170 23/14 Q1019 NOSIG
YBBN,2010-11-21 06:30,153.1292,-27.3917,71.60,59.00,64.48,140.00,9.00,M,30.09,M,6.21,M,SCT,BKN,M,M,4000.00,17000.00,M,M,M,YBBN 210630Z 14009KT 9999 SCT040 BKN170 22/15 Q1019 NOSIG
YBBN,2010-11-21 07:00,153.1292,-27.3917,69.80,60.80,73.09,110.00,7.00,M,30.09,M,6.21,M,SCT,BKN,M,M,3500.00,6500.00,M,M,VCSH,YBBN 210700Z 11007KT 9999 VCSH SCT035 BKN065 21/16 Q1019 NOSIG
YBBN,2010-11-21 07:30,153.1292,-27.3917,71.60,59.00,64.48,160.00,8.00,M,30.09,M,6.21,M,SCT,SCT,BKN,M,3000.00,6500.00,16000.00,M,M,YBBN 210730Z 16008KT 9999 SCT030 SCT065 BKN160 22/15 Q1019 NOSIG
YBBN,2010-11-21 08:00,153.1292,-27.3917,71.60,59.00,64.48,160.00,8.00,M,30.12,M,6.21,M,SCT,SCT,BKN,M,3000.00,7000.00,16000.00,M,VCSH,YBBN 210800Z 16008KT 9999 VCSH SCT030 SCT070 BKN160 22/15 Q1020 NOSIG
YBBN,2010-11-21 08:16,153.1292,-27.3917,69.80,62.60,77.90,130.00,9.00,M,30.12,M,6.21,M,M,M,M,M,M,M,M,M,// //////,YBBN 210816Z 13009KT //// // ////// 21/17 Q1020 RMK VIS:6000 FM0816 13010KT 9999 -SHRA SCT030
YBBN,2010-11-21 08:30,153.1292,-27.3917,69.80,62.60,77.90,130.00,7.00,M,30.12,M,6.21,M,BKN,BKN,M,M,2800.00,3600.00,M,M,-SHRA,YBBN 210830Z 13007KT 9999 -SHRA BKN028 BKN036 21/17 Q1020 NOSIG
YBBN,2010-11-21 09:00,153.1292,-27.3917,68.00,60.80,77.75,160.00,6.00,M,30.12,M,6.21,M,FEW,SCT,BKN,M,2600.00,4100.00,16000.00,M,M,YBBN 210900Z 16006KT 9999 FEW026 SCT041 BKN160 20/16 Q1020 NOSIG
YBBN,2010-11-21 09:30,153.1292,-27.3917,69.80,60.80,73.09,160.00,6.00,M,30.12,M,6.21,M,FEW,BKN,M,M,2600.00,16000.00,M,M,M,YBBN 210930Z 16006KT 9999 FEW026 BKN160 21/16 Q1020 NOSIG
YBBN,2010-11-21 10:00,153.1292,-27.3917,69.80,60.80,73.09,180.00,7.00,M,30.12,M,6.21,M,SCT,BKN,M,M,2800.00,5000.00,M,M,-SHRA,YBBN 211000Z 18007KT 9999 -SHRA SCT028 BKN050 21/16 Q1020 NOSIG
YBBN,2010-11-21 10:30,153.1292,-27.3917,68.00,60.80,77.75,190.00,7.00,M,30.15,M,4.97,M,BKN,BKN,M,M,3000.00,4100.00,M,M,-SHRA,YBBN 211030Z 19007KT 8000 -SHRA BKN030 BKN041 20/16 Q1021 NOSIG
YBBN,2010-11-21 11:00,153.1292,-27.3917,68.00,62.60,82.86,150.00,4.00,M,30.15,M,6.21,M,SCT,BKN,M,M,3000.00,6900.00,M,M,M,YBBN 211100Z 15004KT 9999 SCT030 BKN069 20/17 Q1021 NOSIG
YBBN,2010-11-21 11:30,153.1292,-27.3917,68.00,60.80,77.75,180.00,5.00,M,30.15,M,6.21,M,SCT,SCT,BKN,M,3000.00,4600.00,16000.00,M,M,YBBN 211130Z 18005KT 9999 SCT030 SCT046 BKN160 20/16 Q1021 NOSIG
YBBN,2010-11-21 12:00,153.1292,-27.3917,68.00,60.80,77.75,170.00,5.00,M,30.15,M,6.21,M,FEW,SCT,BKN,M,3000.00,4500.00,16000.00,M,M,YBBN 211200Z 17005KT 9999 FEW030 SCT045 BKN160 20/16 Q1021 NOSIG
YBBN,2010-11-21 12:30,153.1292,-27.3917,68.00,60.80,77.75,190.00,6.00,M,30.15,M,6.21,M,FEW,BKN,M,M,3000.00,17000.00,M,M,M,YBBN 211230Z 19006KT 9999 FEW030 BKN170 20/16 Q1021 NOSIG
YBBN,2010-11-21 13:00,153.1292,-27.3917,66.20,59.00,77.60,210.00,7.00,M,30.15,M,6.21,M,FEW,SCT,M,M,2000.00,17000.00,M,M,M,YBBN 211300Z 21007KT 9999 FEW020 SCT170 19/15 Q1021 NOSIG
YBBN,2010-11-21 13:30,153.1292,-27.3917,66.20,57.20,72.74,190.00,6.00,M,30.12,M,6.21,M,FEW,BKN,M,M,3000.00,17000.00,M,M,M,YBBN 211330Z 19006KT 9999 FEW030 BKN170 19/14 Q1020 NOSIG
YBBN,2010-11-21 14:00,153.1292,-27.3917,66.20,59.00,77.60,180.00,5.00,M,30.12,M,6.21,M,FEW,BKN,M,M,3000.00,17000.00,M,M,M,YBBN 211400Z 18005KT 9999 FEW030 BKN170 19/15 Q1020 NOSIG
YBBN,2010-11-21 14:30,153.1292,-27.3917,66.20,57.20,72.74,180.00,6.00,M,30.09,M,6.21,M,FEW,SCT,BKN,M,3000.00,5400.00,17000.00,M,M,YBBN 211430Z 18006KT 9999 FEW030 SCT054 BKN170 19/14 Q1019 NOSIG
YBBN,2010-11-21 15:00,153.1292,-27.3917,66.20,57.20,72.74,190.00,7.00,M,30.09,M,6.21,M,FEW,M,M,M,3000.00,M,M,M,M,YBBN 211500Z 19007KT 9999 FEW030 19/14 Q1019 NOSIG
YBBN,2010-11-21 15:30,153.1292,-27.3917,66.20,57.20,72.74,180.00,10.00,M,30.09,M,6.21,M,FEW,M,M,M,3000.00,M,M,M,M,YBBN 211530Z 18010KT 9999 FEW030 19/14 Q1019 NOSIG
YBBN,2010-11-21 16:00,153.1292,-27.3917,66.20,59.00,77.60,180.00,9.00,M,30.09,M,6.21,M,FEW,M,M,M,3000.00,M,M,M,M,YBBN 211600Z 18009KT 9999 FEW030 19/15 Q1019 NOSIG
YBBN,2010-11-21 16:30,153.1292,-27.3917,64.40,59.00,82.62,180.00,8.00,M,30.06,M,6.21,M,FEW,M,M,M,3000.00,M,M,M,M,YBBN 211630Z 18008KT 9999 FEW030 18/15 Q1018 NOSIG
YBBN,2010-11-21 20:52,153.1292,-27.3917,69.80,64.40,82.98,120.00,7.00,M,30.12,M,5.59,M,FEW,SCT,BKN,M,1000.00,3500.00,6000.00,M,-SHRA VCSH,YBBN 212052Z 12007KT 9000 -SHRA VCSH FEW010 SCT035 BKN060 21/18 Q1020 RMK CLEARING INTER 2052/2352 3000 SHRA BKN015
