#DEBUG: Format Typ    -> comma
#DEBUG: Time Period   -> 2013-01-28 00:00:00+00:00 2013-01-29 00:00:00+00:00
#DEBUG: Time Zone     -> Etc/UTC
#DEBUG: Data Contact   -> daryl herzmann akrherz@iastate.edu 515-294-5978
#DEBUG: Entries Found -> -1
station,valid,lon,lat,tmpf, dwpf, relh, drct, sknt, p01i, alti, mslp, vsby, gust, skyc1, skyc2, skyc3, skyc4, skyl1, skyl2, skyl3, skyl4, presentwx, metar
YBBN,2013-01-28 00:00,153.1292,-27.3917,77.00,75.20,94.19,50.00,25.00,0.00,29.50,M,6.21,M,FEW,BKN,OVC,M,1700.00,3400.00,4500.00,M,-SHRA,YBBN 280000Z 05025KT 9999 -SHRA FEW017 BKN034 OVC045 25/24 Q0999
YBBN,2013-01-28 00:30,153.1292,-27.3917,77.00,73.40,88.67,40.00,22.00,0.00,29.50,M,5.59,M,FEW,SCT,BKN,M,1000.00,2400.00,3700.00,M,-SHRA,YBBN 280030Z 04022KT 9000 -SHRA FEW010 SCT024 BKN037 25/23 Q0999
YBBN,2013-01-28 01:00,153.1292,-27.3917,80.60,75.20,83.66,30.00,21.00,0.00,29.47,M,6.21,M,FEW,BKN,M,M,1200.00,6100.00,M,M,VCSH,YBBN 280100Z 03021KT 9999 VCSH FEW012 BKN061 27/24 Q0998
YBBN,2013-01-28 01:30,153.1292,-27.3917,82.40,75.20,78.90,30.00,21.00,0.00,29.47,M,6.21,M,FEW,BKN,BKN,M,1500.00,6500.00,27000.00,M,VCSH,YBBN 280130Z 03021KT 9999 VCSH FEW015 BKN065 BKN270 28/24 Q0998
YBBN,2013-01-28 01:47,153.1292,-27.3917,80.60,73.40,78.76,30.00,24.00,0.00,29.47,M,6.21,34.00,FEW,BKN,BKN,M,1500.00,5400.00,27000.00,M,VCSH,YBBN 280147Z 03024G34KT 9999 VCSH FEW015 BKN054 BKN270 27/23 Q0998
YBBN,2013-01-28 02:00,153.1292,-27.3917,80.60,73.40,78.76,30.00,22.00,0.00,29.47,M,6.21,M,FEW,BKN,M,M,1500.00,5800.00,M,M,VCSH,YBBN 280200Z 03022KT 9999 VCSH FEW015 BKN058 27/23 Q0998
YBBN,2013-01-28 02:30,153.1292,-27.3917,82.40,75.20,78.90,30.00,19.00,0.00,29.47,M,6.21,M,FEW,BKN,M,M,1700.00,5400.00,M,M,VCSH,YBBN 280230Z 03019KT 9999 VCSH FEW017 BKN054 28/24 Q0998
YBBN,2013-01-28 03:00,153.1292,-27.3917,82.40,75.20,78.90,30.00,18.00,0.00,29.47,M,6.21,M,FEW,BKN,M,M,1500.00,5200.00,M,M,VCSH,YBBN 280300Z 03018KT 9999 VCSH FEW015 BKN052 28/24 Q0998
YBBN,2013-01-28 03:30,153.1292,-27.3917,82.40,75.20,78.90,20.00,19.00,0.00,29.47,M,6.21,M,FEW,SCT,M,M,1700.00,5900.00,M,M,VCSH,YBBN 280330Z 02019KT 9999 VCSH FEW017 SCT059 28/24 Q0998
YBBN,2013-01-28 04:00,153.1292,-27.3917,82.40,75.20,78.90,20.00,21.00,0.00,29.47,M,6.21,M,FEW,BKN,M,M,1700.00,7100.00,M,M,VCSH,YBBN 280400Z 02021KT 9999 VCSH FEW017 BKN071 28/24 Q0998 RMK DB READ FROM SCREEN
YBBN,2013-01-28 04:30,153.1292,-27.3917,82.40,73.40,74.28,20.00,22.00,0.00,29.47,M,6.21,M,FEW,BKN,M,M,2500.00,6900.00,M,M,VCSH,YBBN 280430Z 02022KT 9999 VCSH FEW025 BKN069 28/23 Q0998 RMK DB READ FROM SCREEN
YBBN,2013-01-28 05:00,153.1292,-27.3917,80.60,73.40,78.76,20.00,21.00,0.00,29.47,M,6.21,M,FEW,BKN,M,M,2500.00,5400.00,M,M,VCSH,YBBN 280500Z 02021KT 9999 VCSH FEW025 BKN054 27/23 Q0998 RMK DB READ FROM SCREEN
YBBN,2013-01-28 05:30,153.1292,-27.3917,80.60,73.40,78.76,30.00,21.00,0.00,29.47,M,6.21,M,FEW,BKN,M,M,2500.00,5600.00,M,M,VCSH,YBBN 280530Z 03021KT 9999 VCSH FEW025 BKN056 27/23 Q0998
YBBN,2013-01-28 06:00,153.1292,-27.3917,78.80,73.40,83.55,20.00,21.00,0.00,29.47,M,6.21,M,FEW,BKN,M,M,1500.00,4900.00,M,M,VCSH,YBBN 280600Z 02021KT 9999 VCSH FEW015 BKN049 26/23 Q0998 RMK DB READ FROM SCREEN
YBBN,2013-01-28 06:30,153.1292,-27.3917,78.80,73.40,83.55,20.00,20.00,0.00,29.47,M,6.21,M,FEW,SCT,OVC,M,1500.00,3900.00,4700.00,M,VCSH,YBBN 280630Z 02020KT 9999 VCSH FEW015 SCT039 OVC047 26/23 Q0998
YBBN,2013-01-28 07:00,153.1292,-27.3917,M,M,M,20.00,21.00,0.00,29.50,M,3.11,M,FEW,BKN,M,M,1500.00,3700.00,M,M,-SHRA,YBBN 280700Z 02021KT 5000 -SHRA FEW015 BKN037 ///// Q0999
YBBN,2013-01-28 07:30,153.1292,-27.3917,77.00,73.40,88.67,20.00,22.00,0.00,29.50,M,3.73,M,FEW,SCT,OVC,M,1500.00,3300.00,4200.00,M,-SHRA,YBBN 280730Z 02022KT 6000 -SHRA FEW015 SCT033 OVC042 25/23 Q0999
YBBN,2013-01-28 08:00,153.1292,-27.3917,75.20,73.40,94.14,20.00,19.00,0.00,29.53,M,2.49,M,SCT,SCT,BKN,M,1000.00,1700.00,4000.00,M,-SHRA,YBBN 280800Z 02019KT 4000 -SHRA SCT010 SCT017 BKN040 24/23 Q1000
YBBN,2013-01-28 08:30,153.1292,-27.3917,75.20,73.40,94.14,20.00,21.00,0.00,29.53,M,5.59,M,FEW,BKN,BKN,M,1200.00,2500.00,5000.00,M,-DZ,YBBN 280830Z 02021KT 9000 -DZ FEW012 BKN025 BKN050 24/23 Q1000
YBBN,2013-01-28 09:00,153.1292,-27.3917,77.00,73.40,88.67,20.00,21.00,0.00,29.53,M,6.21,M,FEW,SCT,BKN,M,1200.00,4000.00,5000.00,M,M,YBBN 280900Z 02021KT 9999 FEW012 SCT040 BKN050 25/23 Q1000
YBBN,2013-01-28 09:30,153.1292,-27.3917,77.00,73.40,88.67,20.00,17.00,0.00,29.56,M,6.21,M,FEW,BKN,BKN,M,1200.00,4000.00,5000.00,M,M,YBBN 280930Z 02017KT 9999 FEW012 BKN040 BKN050 25/23 Q1001
YBBN,2013-01-28 10:00,153.1292,-27.3917,77.00,73.40,88.67,10.00,17.00,0.00,29.56,M,6.21,M,BKN,M,M,M,4100.00,M,M,M,M,YBBN 281000Z 01017KT 9999 BKN041 25/23 Q1001
YBBN,2013-01-28 10:30,153.1292,-27.3917,78.80,73.40,83.55,10.00,16.00,0.00,29.56,M,6.21,M,FEW,SCT,BKN,M,1200.00,4000.00,5000.00,M,-DZ,YBBN 281030Z 01016KT 9999 -DZ FEW012 SCT040 BKN050 26/23 Q1001
YBBN,2013-01-28 11:00,153.1292,-27.3917,77.00,73.40,88.67,360.00,14.00,0.00,29.59,M,5.59,M,SCT,SCT,BKN,M,1500.00,3000.00,4500.00,M,DZ,YBBN 281100Z 36014KT 9000 DZ SCT015 SCT030 BKN045 25/23 Q1002
YBBN,2013-01-28 11:30,153.1292,-27.3917,75.20,73.40,94.14,360.00,12.00,0.00,29.59,M,3.11,M,FEW,BKN,BKN,M,1500.00,2200.00,3000.00,M,-SHRA,YBBN 281130Z 36012KT 5000 -SHRA FEW015 BKN022 BKN030 24/23 Q1002
YBBN,2013-01-28 12:00,153.1292,-27.3917,75.20,73.40,94.14,350.00,12.00,0.00,29.59,M,3.73,M,BKN,BKN,M,M,1800.00,2400.00,M,M,+DZ,YBBN 281200Z 35012KT 6000 +DZ BKN018 BKN024 24/23 Q1002
YBBN,2013-01-28 12:30,153.1292,-27.3917,77.00,75.20,94.19,10.00,14.00,0.00,29.59,M,6.21,M,FEW,BKN,BKN,M,1800.00,3500.00,7000.00,M,M,YBBN 281230Z 01014KT 9999 FEW018 BKN035 BKN070 25/24 Q1002
YBBN,2013-01-28 13:00,153.1292,-27.3917,77.00,75.20,94.19,10.00,13.00,0.00,29.59,M,6.21,M,FEW,BKN,M,M,700.00,4000.00,M,M,M,YBBN 281300Z 01013KT 9999 FEW007 BKN040 25/24 Q1002
YBBN,2013-01-28 13:14,153.1292,-27.3917,77.00,75.20,94.19,360.00,14.00,0.00,29.59,M,6.21,M,FEW,BKN,BKN,M,500.00,700.00,4000.00,M,M,YBBN 281314Z 36014KT 9999 FEW005 BKN007 BKN040 25/24 Q1002
YBBN,2013-01-28 13:30,153.1292,-27.3917,77.00,75.20,94.19,350.00,11.00,0.00,29.59,M,6.21,M,BKN,SCT,BKN,M,700.00,3000.00,4000.00,M,M,YBBN 281330Z 35011KT 9999 BKN007 SCT030 BKN040 25/24 Q1002
YBBN,2013-01-28 14:00,153.1292,-27.3917,75.20,75.20,100.00,350.00,9.00,0.00,29.59,M,6.21,M,BKN,BKN,M,M,700.00,5000.00,M,M,M,YBBN 281400Z 35009KT 9999 BKN007 BKN050 24/24 Q1002
YBBN,2013-01-28 14:30,153.1292,-27.3917,75.20,75.20,100.00,350.00,6.00,0.00,29.56,M,6.21,M,FEW,SCT,BKN,M,700.00,4000.00,6000.00,M,M,YBBN 281430Z 35006KT 9999 FEW007 SCT040 BKN060 24/24 Q1001
YBBN,2013-01-28 15:00,153.1292,-27.3917,75.20,73.40,94.14,340.00,7.00,0.00,29.56,M,6.21,M,FEW,SCT,M,M,700.00,11500.00,M,M,M,YBBN 281500Z 34007KT 9999 FEW007 SCT115 24/23 Q1001
YBBN,2013-01-28 15:30,153.1292,-27.3917,75.20,73.40,94.14,340.00,7.00,0.00,29.56,M,6.21,M,FEW,M,M,M,900.00,M,M,M,M,YBBN 281530Z 34007KT 9999 FEW009 24/23 Q1001
YBBN,2013-01-28 16:00,153.1292,-27.3917,73.40,73.40,100.00,330.00,7.00,0.00,29.56,M,6.21,M,FEW,M,M,M,700.00,M,M,M,M,YBBN 281600Z 33007KT 9999 FEW007 23/23 Q1001
YBBN,2013-01-28 16:30,153.1292,-27.3917,73.40,73.40,100.00,340.00,7.00,0.00,29.56,M,6.21,M,M,M,M,M,M,M,M,M,M,YBBN 281630Z 34007KT CAVOK 23/23 Q1001
YBBN,2013-01-28 17:00,153.1292,-27.3917,73.40,73.40,100.00,320.00,7.00,0.00,29.56,M,6.21,M,M,M,M,M,M,M,M,M,M,YBBN 281700Z 32007KT CAVOK 23/23 Q1001
YBBN,2013-01-28 17:30,153.1292,-27.3917,73.40,71.60,94.10,330.00,5.00,0.00,29.56,M,6.21,M,M,M,M,M,M,M,M,M,M,YBBN 281730Z 33005KT CAVOK 23/22 Q1001
YBBN,2013-01-28 18:00,153.1292,-27.3917,73.40,71.60,94.10,330.00,6.00,0.00,29.56,M,6.21,M,M,M,M,M,M,M,M,M,M,YBBN 281800Z 33006KT CAVOK 23/22 Q1001
YBBN,2013-01-28 18:30,153.1292,-27.3917,73.40,71.60,94.10,320.00,7.00,0.00,29.56,M,6.21,M,M,M,M,M,M,M,M,M,M,YBBN 281830Z 32007KT CAVOK 23/22 Q1001
YBBN,2013-01-28 19:00,153.1292,-27.3917,73.40,71.60,94.10,330.00,8.00,0.00,29.59,M,6.21,M,M,M,M,M,M,M,M,M,M,YBBN 281900Z 33008KT CAVOK 23/22 Q1002
YBBN,2013-01-28 19:30,153.1292,-27.3917,73.40,71.60,94.10,330.00,7.00,0.00,29.59,M,6.21,M,M,M,M,M,M,M,M,M,M,YBBN 281930Z 33007KT CAVOK 23/22 Q1002
YBBN,2013-01-28 20:00,153.1292,-27.3917,73.40,71.60,94.10,320.00,5.00,0.00,29.62,M,3.73,M,FEW,M,M,M,2500.00,M,M,M,BCFG,YBBN 282000Z 32005KT 6000 BCFG FEW025 23/22 Q1003
YBBN,2013-01-28 20:30,153.1292,-27.3917,75.20,73.40,94.14,350.00,7.00,0.00,29.62,M,5.59,M,FEW,M,M,M,800.00,M,M,M,VCFG,YBBN 282030Z 35007KT 9000 VCFG FEW008 24/23 Q1003
YBBN,2013-01-28 21:00,153.1292,-27.3917,77.00,73.40,88.67,340.00,8.00,0.00,29.62,M,6.21,M,FEW,M,M,M,800.00,M,M,M,M,YBBN 282100Z 34008KT 9999 FEW008 25/23 Q1003
YBBN,2013-01-28 21:30,153.1292,-27.3917,78.80,73.40,83.55,330.00,8.00,0.00,29.65,M,6.21,M,FEW,M,M,M,1000.00,M,M,M,M,YBBN 282130Z 33008KT 9999 FEW010 26/23 Q1004
YBBN,2013-01-28 22:00,153.1292,-27.3917,80.60,73.40,78.76,350.00,9.00,0.00,29.65,M,6.21,M,FEW,M,M,M,1000.00,M,M,M,M,YBBN 282200Z 35009KT 9999 FEW010 27/23 Q1004
YBBN,2013-01-28 22:30,153.1292,-27.3917,82.40,73.40,74.28,20.00,9.00,0.00,29.65,M,6.21,M,FEW,M,M,M,1000.00,M,M,M,M,YBBN 282230Z 02009KT 9999 FEW010 28/23 Q1004
YBBN,2013-01-28 23:00,153.1292,-27.3917,80.60,73.40,78.76,10.00,10.00,0.00,29.65,M,6.21,M,BKN,M,M,M,2200.00,M,M,M,M,YBBN 282300Z 01010KT 9999 BKN022 27/23 Q1004 NOSIG
YBBN,2013-01-28 23:30,153.1292,-27.3917,82.40,73.40,74.28,10.00,8.00,0.00,29.65,M,6.21,M,BKN,M,M,M,2800.00,M,M,M,M,YBBN 282330Z 01008KT 9999 BKN028 28/23 Q1004
