#DEBUG: Format Typ    -> comma
#DEBUG: Time Period   -> 2014-01-11 00:00:00+00:00 2014-01-12 00:00:00+00:00
#DEBUG: Time Zone     -> Etc/UTC
#DEBUG: Data Contact   -> daryl herzmann akrherz@iastate.edu 515-294-5978
#DEBUG: Entries Found -> -1
station,valid,lon,lat,tmpf, dwpf, relh, drct, sknt, p01i, alti, mslp, vsby, gust, skyc1, skyc2, skyc3, skyc4, skyl1, skyl2, skyl3, skyl4, presentwx, metar
YBBN,2014-01-11 00:00,153.1292,-27.3917,80.60,60.80,50.95,110.00,7.00,0.00,30.06,M,6.21,M,FEW,SCT,M,M,3000.00,6300.00,M,M,M,YBBN 110000Z 11007KT 9999 FEW030 SCT063 27/16 Q1018 NOSIG
YBBN,2014-01-11 00:30,153.1292,-27.3917,80.60,60.80,50.95,90.00,7.00,0.00,30.06,M,6.21,M,BKN,M,M,M,3200.00,M,M,M,M,YBBN 110030Z 09007KT 9999 BKN032 27/16 Q1018
YBBN,2014-01-11 01:00,153.1292,-27.3917,80.60,60.80,50.95,120.00,8.00,0.00,30.06,M,6.21,M,BKN,M,M,M,3300.00,M,M,M,M,YBBN 110100Z 12008KT 9999 BKN033 27/16 Q1018 NOSIG
YBBN,2014-01-11 01:30,153.1292,-27.3917,80.60,62.60,54.30,100.00,9.00,0.00,30.03,M,6.21,M,BKN,M,M,M,3300.00,M,M,M,M,YBBN 110130Z 10009KT 9999 BKN033 27/17 Q1017
YBBN,2014-01-11 02:00,153.1292,-27.3917,80.60,62.60,54.30,90.00,9.00,0.00,30.03,M,6.21,M,BKN,M,M,M,3300.00,M,M,M,M,YBBN 110200Z 09009KT 9999 BKN033 27/17 Q1017 NOSIG
YBBN,2014-01-11 02:30,153.1292,-27.3917,80.60,62.60,54.30,80.00,9.00,0.00,30.03,M,6.21,M,SCT,M,M,M,3300.00,M,M,M,M,YBBN 110230Z 08009KT 9999 SCT033 27/17 Q1017
YBBN,2014-01-11 03:00,153.1292,-27.3917,82.40,60.80,48.05,90.00,9.00,0.00,30.00,M,6.21,M,SCT,M,M,M,3500.00,M,M,M,M,YBBN 110300Z 09009KT 9999 SCT035 28/16 Q1016 NOSIG
YBBN,2014-01-11 03:30,153.1292,-27.3917,82.40,62.60,51.21,110.00,9.00,0.00,30.00,M,6.21,M,SCT,M,M,M,3500.00,M,M,M,M,YBBN 110330Z 11009KT 9999 SCT035 28/17 Q1016
YBBN,2014-01-11 04:00,153.1292,-27.3917,82.40,60.80,48.05,110.00,9.00,0.00,30.00,M,6.21,M,FEW,M,M,M,3500.00,M,M,M,M,YBBN 110400Z 11009KT 9999 FEW035 28/16 Q1016 NOSIG
YBBN,2014-01-11 04:30,153.1292,-27.3917,82.40,60.80,48.05,80.00,9.00,0.00,29.97,M,6.21,M,FEW,M,M,M,3500.00,M,M,M,M,YBBN 110430Z 08009KT 9999 FEW035 28/16 Q1015
YBBN,2014-01-11 05:00,153.1292,-27.3917,82.40,60.80,48.05,90.00,8.00,0.00,29.97,M,6.21,M,FEW,M,M,M,3500.00,M,M,M,M,YBBN 110500Z 09008KT 9999 FEW035 28/16 Q1015 NOSIG
YBBN,2014-01-11 05:30,153.1292,-27.3917,82.40,62.60,51.21,60.00,12.00,0.00,29.97,M,6.21,M,FEW,M,M,M,3500.00,M,M,M,M,YBBN 110530Z 06012KT 9999 FEW035 28/17 Q1015
YBBN,2014-01-11 06:00,153.1292,-27.3917,80.60,64.40,57.84,70.00,12.00,0.00,29.97,M,6.21,M,FEW,M,M,M,3500.00,M,M,M,M,YBBN 110600Z 07012KT 9999 FEW035 27/18 Q1015 NOSIG
YBBN,2014-01-11 06:30,153.1292,-27.3917,78.80,64.40,61.36,60.00,13.00,0.00,29.97,M,6.21,M,FEW,M,M,M,3800.00,M,M,M,M,YBBN 110630Z 06013KT 9999 FEW038 26/18 Q1015
YBBN,2014-01-11 07:00,153.1292,-27.3917,78.80,64.40,61.36,60.00,13.00,0.00,29.97,M,6.21,M,FEW,M,M,M,3800.00,M,M,M,M,YBBN 110700Z 06013KT 9999 FEW038 26/18 Q1015
YBBN,2014-01-11 07:30,153.1292,-27.3917,78.80,62.60,57.60,60.00,12.00,0.00,29.97,M,6.21,M,FEW,M,M,M,4000.00,M,M,M,M,YBBN 110730Z 06012KT 9999 FEW040 26/17 Q1015
YBBN,2014-01-11 08:00,153.1292,-27.3917,77.00,64.40,65.12,70.00,12.00,0.00,29.97,M,6.21,M,FEW,M,M,M,4000.00,M,M,M,M,YBBN 110800Z 07012KT 9999 FEW040 25/18 Q1015 NOSIG
YBBN,2014-01-11 08:30,153.1292,-27.3917,77.00,62.60,61.13,70.00,8.00,0.00,30.00,M,6.21,M,FEW,M,M,M,4000.00,M,M,M,M,YBBN 110830Z 07008KT 9999 FEW040 25/17 Q1016
YBBN,2014-01-11 09:00,153.1292,-27.3917,77.00,62.60,61.13,70.00,7.00,0.00,30.00,M,6.21,M,SCT,M,M,M,3500.00,M,M,M,M,YBBN 110900Z 07007KT 9999 SCT035 25/17 Q1016 NOSIG
YBBN,2014-01-11 09:30,153.1292,-27.3917,75.20,64.40,69.14,70.00,8.00,0.00,30.00,M,6.21,M,SCT,M,M,M,3500.00,M,M,M,M,YBBN 110930Z 07008KT 9999 SCT035 24/18 Q1016
YBBN,2014-01-11 10:00,153.1292,-27.3917,75.20,66.20,73.61,70.00,8.00,0.00,30.00,M,6.21,M,FEW,SCT,M,M,2300.00,3500.00,M,M,M,YBBN 111000Z 07008KT 9999 FEW023 SCT035 24/19 Q1016
YBBN,2014-01-11 10:30,153.1292,-27.3917,75.20,66.20,73.61,50.00,9.00,0.00,30.00,M,6.21,M,FEW,SCT,M,M,2500.00,3500.00,M,M,M,YBBN 111030Z 05009KT 9999 FEW025 SCT035 24/19 Q1016
YBBN,2014-01-11 11:00,153.1292,-27.3917,75.20,66.20,73.61,50.00,8.00,0.00,30.03,M,6.21,M,FEW,SCT,M,M,2500.00,3300.00,M,M,M,YBBN 111100Z 05008KT 9999 FEW025 SCT033 24/19 Q1017
YBBN,2014-01-11 11:30,153.1292,-27.3917,75.20,64.40,69.14,50.00,7.00,0.00,30.03,M,6.21,M,FEW,SCT,M,M,2500.00,3200.00,M,M,M,YBBN 111130Z 05007KT 9999 FEW025 SCT032 24/18 Q1017
YBBN,2014-01-11 12:00,153.1292,-27.3917,75.20,66.20,73.61,50.00,7.00,0.00,30.03,M,6.21,M,FEW,SCT,M,M,2200.00,2800.00,M,M,M,YBBN 111200Z 05007KT 9999 FEW022 SCT028 24/19 Q1017 NOSIG
YBBN,2014-01-11 12:30,153.1292,-27.3917,73.40,64.40,73.44,50.00,7.00,0.00,30.00,M,6.21,M,SCT,M,M,M,3100.00,M,M,M,M,YBBN 111230Z 05007KT 9999 SCT031 23/18 Q1016
YBBN,2014-01-11 13:00,153.1292,-27.3917,73.40,64.40,73.44,50.00,5.00,0.00,30.00,M,6.21,M,SCT,M,M,M,3100.00,M,M,M,M,YBBN 111300Z 05005KT 9999 SCT031 23/18 Q1016
YBBN,2014-01-11 13:30,153.1292,-27.3917,71.60,64.40,78.04,50.00,4.00,0.00,30.00,M,6.21,M,FEW,M,M,M,3100.00,M,M,M,M,YBBN 111330Z 05004KT 9999 FEW031 22/18 Q1016
YBBN,2014-01-11 14:00,153.1292,-27.3917,71.60,64.40,78.04,60.00,5.00,0.00,30.00,M,6.21,M,FEW,M,M,M,3000.00,M,M,M,M,YBBN 111400Z 06005KT 9999 FEW030 22/18 Q1016
YBBN,2014-01-11 14:30,153.1292,-27.3917,71.60,64.40,78.04,60.00,4.00,0.00,29.97,M,6.21,M,FEW,M,M,M,3000.00,M,M,M,M,YBBN 111430Z 06004KT 9999 FEW030 22/18 Q1015
YBBN,2014-01-11 15:00,153.1292,-27.3917,71.60,64.40,78.04,50.00,4.00,0.00,29.97,M,6.21,M,FEW,M,M,M,3000.00,M,M,M,M,YBBN 111500Z 05004KT 9999 FEW030 22/18 Q1015 NOSIG
YBBN,2014-01-11 15:30,153.1292,-27.3917,69.80,64.40,82.98,50.00,3.00,0.00,29.97,M,6.21,M,FEW,M,M,M,3000.00,M,M,M,M,YBBN 111530Z 05003KT 9999 FEW030 21/18 Q1015
YBBN,2014-01-11 16:00,153.1292,-27.3917,69.80,64.40,82.98,0.00,0.00,0.00,29.97,M,6.21,M,FEW,M,M,M,3000.00,M,M,M,M,YBBN 111600Z 00000KT 9999 FEW030 21/18 Q1015 NOSIG
YBBN,2014-01-11 16:30,153.1292,-27.3917,69.80,66.20,88.34,190.00,4.00,0.00,29.94,M,6.21,M,FEW,M,M,M,3000.00,M,M,M,M,YBBN 111630Z 19004KT 9999 FEW030 21/19 Q1014
YBBN,2014-01-11 17:00,153.1292,-27.3917,68.00,64.40,88.26,190.00,5.00,0.00,29.94,M,6.21,M,FEW,M,M,M,3000.00,M,M,M,M,YBBN 111700Z 19005KT 9999 FEW030 20/18 Q1014
YBBN,2014-01-11 17:30,153.1292,-27.3917,69.80,64.40,82.98,190.00,5.00,0.00,29.94,M,6.21,M,FEW,M,M,M,3000.00,M,M,M,M,YBBN 111730Z 19005KT 9999 FEW030 21/18 Q1014
YBBN,2014-01-11 18:00,153.1292,-27.3917,69.80,64.40,82.98,190.00,5.00,0.00,29.94,M,6.21,M,FEW,M,M,M,3000.00,M,M,M,M,YBBN 111800Z 19005KT 9999 FEW030 21/18 Q1014
YBBN,2014-01-11 18:30,153.1292,-27.3917,68.00,64.40,88.26,200.00,6.00,0.00,29.97,M,6.21,M,FEW,M,M,M,2700.00,M,M,M,M,YBBN 111830Z 20006KT 9999 FEW027 20/18 Q1015
YBBN,2014-01-11 19:00,153.1292,-27.3917,68.00,64.40,88.26,200.00,7.00,0.00,29.97,M,6.21,M,FEW,M,M,M,2700.00,M,M,M,M,YBBN 111900Z 20007KT 9999 FEW027 20/18 Q1015
YBBN,2014-01-11 19:30,153.1292,-27.3917,68.00,62.60,82.86,200.00,7.00,0.00,29.97,M,6.21,M,FEW,M,M,M,2700.00,M,M,M,M,YBBN 111930Z 20007KT 9999 FEW027 20/17 Q1015
YBBN,2014-01-11 20:00,153.1292,-27.3917,69.80,64.40,82.98,210.00,6.00,0.00,30.00,M,6.21,M,FEW,M,M,M,2700.00,M,M,M,M,YBBN 112000Z 21006KT 9999 FEW027 21/18 Q1016 NOSIG
YBBN,2014-01-11 20:30,153.1292,-27.3917,71.60,64.40,78.04,200.00,8.00,0.00,30.00,M,6.21,M,FEW,M,M,M,3000.00,M,M,M,M,YBBN 112030Z 20008KT 9999 FEW030 22/18 Q1016
YBBN,2014-01-11 21:00,153.1292,-27.3917,73.40,64.40,73.44,210.00,7.00,0.00,30.00,M,6.21,M,FEW,M,M,M,3200.00,M,M,M,M,YBBN 112100Z 21007KT 9999 FEW032 23/18 Q1016 NOSIG
YBBN,2014-01-11 21:30,153.1292,-27.3917,75.20,64.40,69.14,210.00,6.00,0.00,30.00,M,6.21,M,FEW,M,M,M,3500.00,M,M,M,M,YBBN 112130Z 21006KT 9999 FEW035 24/18 Q1016
YBBN,2014-01-11 22:00,153.1292,-27.3917,77.00,62.60,61.13,180.00,6.00,0.00,30.00,M,6.21,M,FEW,M,M,M,3100.00,M,M,M,M,YBBN 112200Z 18006KT 9999 FEW031 25/17 Q1016 NOSIG
YBBN,2014-01-11 22:30,153.1292,-27.3917,77.00,62.60,61.13,160.00,6.00,0.00,30.00,M,6.21,M,FEW,SCT,M,M,3000.00,6500.00,M,M,M,YBBN 112230Z 16006KT 9999 FEW030 SCT065 25/17 Q1016
YBBN,2014-01-11 23:00,153.1292,-27.3917,78.80,62.60,57.60,80.00,7.00,0.00,30.00,M,6.21,M,SCT,M,M,M,3200.00,M,M,M,M,YBBN 112300Z 08007KT 9999 SCT032 26/17 Q1016 NOSIG
YBBN,2014-01-11 23:30,153.1292,-27.3917,77.00,64.40,65.12,100.00,8.00,0.00,30.00,M,6.21,M,SCT,M,M,M,3200.00,M,M,M,M,YBBN 112330Z 10008KT 9999 SCT032 25/18 Q1016
