#DEBUG: Format Typ    -> comma
#DEBUG: Time Period   -> 2013-03-08 00:00:00+00:00 2013-03-09 00:00:00+00:00
#DEBUG: Time Zone     -> Etc/UTC
#DEBUG: Data Contact   -> daryl herzmann akrherz@iastate.edu 515-294-5978
#DEBUG: Entries Found -> -1
station,valid,lon,lat,tmpf, dwpf, relh, drct, sknt, p01i, alti, mslp, vsby, gust, skyc1, skyc2, skyc3, skyc4, skyl1, skyl2, skyl3, skyl4, presentwx, metar
YBBN,2013-03-08 00:00,153.1292,-27.3917,78.80,62.60,57.60,130.00,10.00,0.00,30.06,M,6.21,M,SCT,BKN,M,M,3500.00,6500.00,M,M,M,YBBN 080000Z 13010KT 9999 SCT035 BKN065 26/17 Q1018 NOSIG
YBBN,2013-03-08 00:30,153.1292,-27.3917,80.60,60.80,50.95,130.00,11.00,0.00,30.06,M,6.21,M,FEW,BKN,M,M,3500.00,6500.00,M,M,M,YBBN 080030Z 13011KT 9999 FEW035 BKN065 27/16 Q1018
YBBN,2013-03-08 01:00,153.1292,-27.3917,80.60,62.60,54.30,130.00,10.00,0.00,30.06,M,6.21,M,FEW,BKN,M,M,3500.00,6500.00,M,M,M,YBBN 080100Z 13010KT 9999 FEW035 BKN065 27/17 Q1018 NOSIG
YBBN,2013-03-08 01:30,153.1292,-27.3917,80.60,59.00,47.79,130.00,9.00,0.00,30.06,M,6.21,M,SCT,M,M,M,3500.00,M,M,M,M,YBBN 080130Z 13009KT 9999 SCT035 27/15 Q1018
YBBN,2013-03-08 02:00,153.1292,-27.3917,80.60,60.80,50.95,130.00,11.00,0.00,30.03,M,6.21,M,SCT,BKN,M,M,3500.00,6500.00,M,M,M,YBBN 080200Z 13011KT 9999 SCT035 BKN065 27/16 Q1017 NOSIG
YBBN,2013-03-08 02:30,153.1292,-27.3917,78.80,62.60,57.60,110.00,11.00,0.00,30.03,M,6.21,M,FEW,BKN,M,M,3500.00,6500.00,M,M,M,YBBN 080230Z 11011KT 9999 FEW035 BKN065 26/17 Q1017
YBBN,2013-03-08 03:00,153.1292,-27.3917,77.00,64.40,65.12,100.00,12.00,0.00,30.03,M,6.21,M,FEW,SCT,BKN,M,2800.00,3500.00,6000.00,M,-DZ,YBBN 080300Z 10012KT 9999 -DZ FEW028 SCT035 BKN060 25/18 Q1017
YBBN,2013-03-08 03:30,153.1292,-27.3917,78.80,66.20,65.33,110.00,8.00,0.00,30.00,M,6.21,M,FEW,SCT,BKN,M,2800.00,3200.00,6000.00,M,VCSH,YBBN 080330Z 11008KT 9999 VCSH FEW028 SCT032 BKN060 26/19 Q1016
YBBN,2013-03-08 03:50,153.1292,-27.3917,71.60,66.20,83.09,120.00,11.00,0.00,30.03,M,4.35,M,FEW,BKN,BKN,M,2500.00,3200.00,6000.00,M,-SHRA,YBBN 080350Z 12011KT 7000 3000N -SHRA FEW025 BKN032 BKN060 22/19 Q1017
YBBN,2013-03-08 04:00,153.1292,-27.3917,71.60,68.00,88.43,130.00,4.00,0.00,30.03,M,4.97,M,FEW,SCT,BKN,M,1700.00,3200.00,6000.00,M,-SHRA,YBBN 080400Z 13004KT 8000 -SHRA FEW017 SCT032 BKN060 22/20 Q1017
YBBN,2013-03-08 04:30,153.1292,-27.3917,73.40,68.00,83.21,180.00,4.00,0.00,30.00,M,6.21,M,FEW,BKN,M,M,3200.00,6000.00,M,M,M,YBBN 080430Z 18004KT 9999 FEW032 BKN060 23/20 Q1016
YBBN,2013-03-08 05:00,153.1292,-27.3917,78.80,68.00,69.52,130.00,11.00,0.00,30.00,M,6.21,M,FEW,BKN,M,M,3200.00,6500.00,M,M,M,YBBN 080500Z 13011KT 9999 FEW032 BKN065 26/20 Q1016
YBBN,2013-03-08 05:30,153.1292,-27.3917,78.80,64.40,61.36,130.00,8.00,0.00,30.00,M,6.21,M,FEW,BKN,M,M,2500.00,7000.00,M,M,M,YBBN 080530Z 13008KT 9999 FEW025 BKN070 26/18 Q1016 RMK LINE OF SHOWERS APPROACHING FROM THE EAST
YBBN,2013-03-08 05:46,153.1292,-27.3917,73.40,68.00,83.21,120.00,12.00,0.00,30.00,M,4.97,M,FEW,SCT,BKN,M,2000.00,2500.00,6000.00,M,-SHRA,YBBN 080546Z 12012KT 8000 3000E -SHRA FEW020 SCT025 BKN060 23/20 Q1016
YBBN,2013-03-08 06:00,153.1292,-27.3917,71.60,68.00,88.43,120.00,13.00,0.00,30.00,M,1.74,M,FEW,SCT,BKN,M,1400.00,2500.00,6000.00,M,DZ,YBBN 080600Z 12013KT 2800 DZ FEW014 SCT025 BKN060 22/20 Q1016
YBBN,2013-03-08 06:20,153.1292,-27.3917,71.60,68.00,88.43,110.00,8.00,0.00,30.00,M,6.21,M,FEW,SCT,BKN,M,1400.00,4500.00,6000.00,M,VCSH,YBBN 080620Z 11008KT 9999 VCSH FEW014 SCT045 BKN060 22/20 Q1016
YBBN,2013-03-08 06:30,153.1292,-27.3917,71.60,68.00,88.43,100.00,7.00,0.00,30.00,M,6.21,M,FEW,SCT,BKN,M,1400.00,2000.00,5000.00,M,-SHRA,YBBN 080630Z 10007KT 9999 3000NW -SHRA FEW014 SCT020 BKN050 22/20 Q1016
YBBN,2013-03-08 07:00,153.1292,-27.3917,73.40,68.00,83.21,140.00,5.00,0.00,30.00,M,6.21,M,FEW,SCT,BKN,M,1500.00,5000.00,6500.00,M,M,YBBN 080700Z 14005KT 9999 FEW015 SCT050 BKN065 23/20 Q1016
YBBN,2013-03-08 07:30,153.1292,-27.3917,73.40,68.00,83.21,110.00,6.00,0.00,30.00,M,6.21,M,FEW,BKN,M,M,2200.00,7000.00,M,M,M,YBBN 080730Z 11006KT 9999 FEW022 BKN070 23/20 Q1016
YBBN,2013-03-08 08:00,153.1292,-27.3917,73.40,68.00,83.21,100.00,7.00,0.00,30.03,M,6.21,M,FEW,BKN,M,M,2200.00,7500.00,M,M,M,YBBN 080800Z 10007KT 9999 FEW022 BKN075 23/20 Q1017 INTER 0800/1100 3000 SHRA BKN015
YBBN,2013-03-08 08:30,153.1292,-27.3917,73.40,68.00,83.21,100.00,9.00,0.00,30.03,M,6.21,M,SCT,BKN,M,M,2000.00,7600.00,M,M,VCSH,YBBN 080830Z 10009KT 9999 VCSH SCT020 BKN076 23/20 Q1017
YBBN,2013-03-08 09:00,153.1292,-27.3917,69.80,68.00,94.01,100.00,8.00,0.00,30.03,M,6.21,M,FEW,BKN,BKN,M,1600.00,3000.00,5500.00,M,VCSH,YBBN 080900Z 10008KT 9999 VCSH FEW016 BKN030 BKN055 21/20 Q1017
YBBN,2013-03-08 09:35,153.1292,-27.3917,69.80,68.00,94.01,150.00,10.00,0.00,30.06,M,4.97,M,FEW,SCT,OVC,M,1100.00,4100.00,4900.00,M,-SHRA,YBBN 080935Z 15010KT 8000 5000S -SHRA FEW011 SCT041 OVC049 21/20 Q1018
YBBN,2013-03-08 10:00,153.1292,-27.3917,69.80,68.00,94.01,140.00,6.00,0.00,30.06,M,3.11,M,FEW,SCT,BKN,M,1500.00,1900.00,3300.00,M,-SHRA,YBBN 081000Z 14006KT 5000 -SHRA FEW015 SCT019 BKN033 21/20 Q1018
YBBN,2013-03-08 10:30,153.1292,-27.3917,69.80,68.00,94.01,150.00,6.00,0.00,30.06,M,6.21,M,FEW,BKN,BKN,M,1300.00,2500.00,3800.00,M,VCSH,YBBN 081030Z 15006KT 9999 VCSH FEW013 BKN025 BKN038 21/20 Q1018
YBBN,2013-03-08 11:00,153.1292,-27.3917,69.80,68.00,94.01,180.00,5.00,0.00,30.06,M,6.21,M,FEW,SCT,BKN,M,3000.00,5800.00,7100.00,M,VCSH,YBBN 081100Z 18005KT 9999 VCSH FEW030 SCT058 BKN071 21/20 Q1018
YBBN,2013-03-08 11:30,153.1292,-27.3917,69.80,68.00,94.01,150.00,6.00,0.00,30.06,M,6.21,M,FEW,SCT,OVC,M,1600.00,4600.00,6800.00,M,VCSH,YBBN 081130Z 15006KT 9999 VCSH FEW016 SCT046 OVC068 21/20 Q1018
YBBN,2013-03-08 12:00,153.1292,-27.3917,71.60,68.00,88.43,130.00,6.00,0.00,30.06,M,6.21,M,FEW,SCT,BKN,M,3000.00,5500.00,7000.00,M,M,YBBN 081200Z 13006KT 9999 FEW030 SCT055 BKN070 22/20 Q1018
YBBN,2013-03-08 12:30,153.1292,-27.3917,73.40,66.20,78.19,110.00,6.00,0.00,30.06,M,6.21,M,FEW,BKN,M,M,3000.00,5500.00,M,M,M,YBBN 081230Z 11006KT 9999 FEW030 BKN055 23/19 Q1018
YBBN,2013-03-08 13:00,153.1292,-27.3917,73.40,64.40,73.44,120.00,7.00,0.00,30.06,M,6.21,M,FEW,SCT,BKN,M,3000.00,5900.00,7000.00,M,M,YBBN 081300Z 12007KT 9999 FEW030 SCT059 BKN070 23/18 Q1018
YBBN,2013-03-08 13:30,153.1292,-27.3917,71.60,68.00,88.43,120.00,8.00,0.00,30.06,M,6.21,M,SCT,SCT,BKN,M,3000.00,4200.00,7000.00,M,M,YBBN 081330Z 12008KT 9999 SCT030 SCT042 BKN070 22/20 Q1018
YBBN,2013-03-08 14:00,153.1292,-27.3917,71.60,66.20,83.09,130.00,7.00,0.00,30.06,M,6.21,M,SCT,BKN,M,M,3000.00,6700.00,M,M,M,YBBN 081400Z 13007KT 9999 SCT030 BKN067 22/19 Q1018 INTER 1400/1700 3000 SHRA BKN015
YBBN,2013-03-08 14:30,153.1292,-27.3917,73.40,66.20,78.19,120.00,6.00,0.00,30.03,M,6.21,M,FEW,BKN,M,M,2800.00,6700.00,M,M,M,YBBN 081430Z 12006KT 9999 FEW028 BKN067 23/19 Q1017
YBBN,2013-03-08 15:00,153.1292,-27.3917,73.40,64.40,73.44,130.00,6.00,0.00,30.03,M,6.21,M,FEW,BKN,M,M,3000.00,6500.00,M,M,M,YBBN 081500Z 13006KT 9999 FEW030 BKN065 23/18 Q1017
YBBN,2013-03-08 15:30,153.1292,-27.3917,71.60,64.40,78.04,110.00,5.00,0.00,30.03,M,6.21,M,FEW,SCT,M,M,3000.00,6400.00,M,M,M,YBBN 081530Z 11005KT 9999 FEW030 SCT064 22/18 Q1017
YBBN,2013-03-08 16:00,153.1292,-27.3917,69.80,66.20,88.34,120.00,4.00,0.00,30.00,M,6.21,M,FEW,SCT,BKN,M,3000.00,4700.00,6400.00,M,M,YBBN 081600Z 12004KT 9999 FEW030 SCT047 BKN064 21/19 Q1016
YBBN,2013-03-08 16:30,153.1292,-27.3917,69.80,66.20,88.34,150.00,5.00,0.00,30.00,M,6.21,M,FEW,SCT,BKN,M,3000.00,5700.00,6900.00,M,M,YBBN 081630Z 15005KT 9999 FEW030 SCT057 BKN069 21/19 Q1016
YBBN,2013-03-08 17:00,153.1292,-27.3917,69.80,66.20,88.34,170.00,6.00,0.00,30.00,M,6.21,M,FEW,BKN,M,M,3000.00,6900.00,M,M,M,YBBN 081700Z 17006KT 9999 FEW030 BKN069 21/19 Q1016
YBBN,2013-03-08 17:30,153.1292,-27.3917,69.80,66.20,88.34,160.00,5.00,0.00,30.00,M,6.21,M,SCT,SCT,BKN,M,2600.00,3100.00,7000.00,M,-SHRA,YBBN 081730Z 16005KT 9999 -SHRA SCT026 SCT031 BKN070 21/19 Q1016
YBBN,2013-03-08 18:00,153.1292,-27.3917,69.80,66.20,88.34,160.00,6.00,0.00,30.00,M,6.21,M,FEW,BKN,BKN,M,1400.00,3000.00,5600.00,M,VCSH,YBBN 081800Z 16006KT 9999 VCSH FEW014 BKN030 BKN056 21/19 Q1016 INTER 1800/2100 3000 SHRA BKN015
YBBN,2013-03-08 18:30,153.1292,-27.3917,69.80,66.20,88.34,100.00,6.00,0.00,30.00,M,6.21,M,FEW,SCT,BKN,M,1600.00,2600.00,4300.00,M,VCSH,YBBN 081830Z 10006KT 9999 VCSH FEW016 SCT026 BKN043 21/19 Q1016
YBBN,2013-03-08 19:00,153.1292,-27.3917,68.00,66.20,93.97,150.00,6.00,0.00,30.03,M,6.21,M,SCT,BKN,M,M,3000.00,4800.00,M,M,VCSH,YBBN 081900Z 15006KT 9999 VCSH SCT030 BKN048 20/19 Q1017
YBBN,2013-03-08 19:30,153.1292,-27.3917,68.00,66.20,93.97,170.00,5.00,0.00,30.03,M,6.21,M,FEW,BKN,BKN,M,1900.00,4100.00,5700.00,M,VCSH,YBBN 081930Z 17005KT 9999 VCSH FEW019 BKN041 BKN057 20/19 Q1017
YBBN,2013-03-08 20:00,153.1292,-27.3917,68.00,66.20,93.97,190.00,6.00,0.00,30.03,M,6.21,M,FEW,SCT,BKN,M,2000.00,4600.00,5600.00,M,VCSH,YBBN 082000Z 19006KT 9999 VCSH FEW020 SCT046 BKN056 20/19 Q1017 INTER 2000/2300 3000 SHRA BKN015
YBBN,2013-03-08 20:30,153.1292,-27.3917,69.80,66.20,88.34,190.00,6.00,0.00,30.03,M,6.21,M,FEW,SCT,BKN,M,2500.00,5000.00,6500.00,M,M,YBBN 082030Z 19006KT 9999 FEW025 SCT050 BKN065 21/19 Q1017
YBBN,2013-03-08 21:00,153.1292,-27.3917,69.80,66.20,88.34,190.00,6.00,0.00,30.06,M,6.21,M,FEW,BKN,BKN,M,2000.00,4500.00,6000.00,M,M,YBBN 082100Z 19006KT 9999 FEW020 BKN045 BKN060 21/19 Q1018
YBBN,2013-03-08 21:30,153.1292,-27.3917,69.80,66.20,88.34,190.00,6.00,0.00,30.06,M,6.21,M,SCT,SCT,BKN,M,2800.00,5000.00,6500.00,M,M,YBBN 082130Z 19006KT 9999 SCT028 SCT050 BKN065 21/19 Q1018
YBBN,2013-03-08 22:00,153.1292,-27.3917,73.40,68.00,83.21,160.00,7.00,0.00,30.06,M,6.21,M,SCT,BKN,M,M,2800.00,6500.00,M,M,M,YBBN 082200Z 16007KT 9999 SCT028 BKN065 23/20 Q1018
YBBN,2013-03-08 22:30,153.1292,-27.3917,73.40,68.00,83.21,150.00,7.00,0.00,30.06,M,6.21,M,FEW,BKN,BKN,M,2400.00,2800.00,6500.00,M,VCSH,YBBN 082230Z 15007KT 9999 VCSH FEW024 BKN028 BKN065 23/20 Q1018
YBBN,2013-03-08 23:00,153.1292,-27.3917,77.00,66.20,69.33,100.00,10.00,0.00,30.06,M,6.21,M,FEW,SCT,BKN,M,2000.00,2500.00,6500.00,M,M,YBBN 082300Z 10010KT 9999 FEW020 SCT025 BKN065 25/19 Q1018
YBBN,2013-03-08 23:30,153.1292,-27.3917,77.00,64.40,65.12,110.00,9.00,0.00,30.06,M,6.21,M,FEW,BKN,M,M,3000.00,7000.00,M,M,M,YBBN 082330Z 11009KT 9999 FEW030 BKN070 25/18 Q1018
