#DEBUG: Format Typ    -> comma
#DEBUG: Time Period   -> 2015-12-25 00:00:00+00:00 2015-12-26 00:00:00+00:00
#DEBUG: Time Zone     -> Etc/UTC
#DEBUG: Data Contact   -> daryl herzmann akrherz@iastate.edu 515-294-5978
#DEBUG: Entries Found -> -1
station,valid,lon,lat,tmpf, dwpf, relh, drct, sknt, p01i, alti, mslp, vsby, gust, skyc1, skyc2, skyc3, skyc4, skyl1, skyl2, skyl3, skyl4, presentwx, metar
YBBN,2015-12-25 00:00,153.1292,-27.3917,78.80,64.40,61.36,170.00,9.00,0.00,29.91,M,6.21,M,BKN,SCT,BKN,M,2900.00,4200.00,12000.00,M,M,YBBN 250000Z 17009KT 9999 BKN029 SCT042 BKN120 26/18 Q1013
YBBN,2015-12-25 01:00,153.1292,-27.3917,80.60,66.20,61.58,210.00,9.00,0.00,29.91,M,6.21,M,SCT,SCT,BKN,M,3100.00,4400.00,12000.00,M,M,YBBN 250100Z 21009KT 9999 SCT031 SCT044 BKN120 27/19 Q1013
YBBN,2015-12-25 02:00,153.1292,-27.3917,77.00,64.40,65.12,170.00,7.00,0.00,29.88,M,6.21,M,SCT,BKN,M,M,2500.00,3300.00,M,M,M,YBBN 250200Z 17007KT 130V190 9999 SCT025 BKN033 25/18 Q1012
YBBN,2015-12-25 03:00,153.1292,-27.3917,78.80,64.40,61.36,120.00,10.00,0.00,29.88,M,6.21,M,SCT,BKN,M,M,3300.00,12000.00,M,M,M,YBBN 250300Z 12010KT 9999 SCT033 BKN120 26/18 Q1012
YBBN,2015-12-25 04:30,153.1292,-27.3917,78.80,62.60,57.60,110.00,11.00,0.00,29.85,M,6.21,M,SCT,BKN,M,M,3500.00,11000.00,M,M,M,YBBN 250430Z 11011KT 9999 SCT035 BKN110 26/17 Q1011
YBBN,2015-12-25 05:00,153.1292,-27.3917,78.80,64.40,61.36,110.00,11.00,0.00,29.85,M,6.21,M,SCT,BKN,M,M,3500.00,5400.00,M,M,M,YBBN 250500Z 11011KT 9999 SCT035 BKN054 26/18 Q1011
YBBN,2015-12-25 06:00,153.1292,-27.3917,77.00,64.40,65.12,110.00,11.00,0.00,29.85,M,6.21,M,FEW,M,M,M,3000.00,M,M,M,M,YBBN 250600Z 11011KT 9999 FEW030 25/18 Q1011
YBBN,2015-12-25 06:30,153.1292,-27.3917,77.00,64.40,65.12,110.00,10.00,0.00,29.85,M,6.21,M,FEW,M,M,M,2500.00,M,M,M,M,YBBN 250630Z 11010KT 9999 FEW025 25/18 Q1011 NOSIG
YBBN,2015-12-25 07:00,153.1292,-27.3917,77.00,66.20,69.33,120.00,11.00,0.00,29.85,M,6.21,M,FEW,M,M,M,2000.00,M,M,M,M,YBBN 250700Z 12011KT 9999 FEW020 25/19 Q1011
YBBN,2015-12-25 07:30,153.1292,-27.3917,77.00,66.20,69.33,110.00,9.00,0.00,29.85,M,6.21,M,FEW,M,M,M,2000.00,M,M,M,M,YBBN 250730Z 11009KT 9999 FEW020 25/19 Q1011 NOSIG
YBBN,2015-12-25 08:00,153.1292,-27.3917,75.20,64.40,69.14,130.00,9.00,0.00,29.85,M,6.21,M,FEW,M,M,M,2000.00,M,M,M,M,YBBN 250800Z 13009KT 9999 FEW020 24/18 Q1011 NOSIG
YBBN,2015-12-25 08:30,153.1292,-27.3917,73.40,64.40,73.44,140.00,8.00,0.00,29.85,M,6.21,M,FEW,M,M,M,2000.00,M,M,M,M,YBBN 250830Z 14008KT 9999 FEW020 23/18 Q1011 NOSIG
YBBN,2015-12-25 09:00,153.1292,-27.3917,73.40,64.40,73.44,150.00,6.00,0.00,29.88,M,6.21,M,FEW,M,M,M,2000.00,M,M,M,M,YBBN 250900Z 15006KT 9999 FEW020 23/18 Q1012
YBBN,2015-12-25 09:30,153.1292,-27.3917,73.40,64.40,73.44,160.00,6.00,0.00,29.88,M,6.21,M,FEW,M,M,M,2000.00,M,M,M,M,YBBN 250930Z 16006KT 9999 FEW020 23/18 Q1012 NOSIG
YBBN,2015-12-25 10:00,153.1292,-27.3917,71.60,64.40,78.04,170.00,5.00,0.00,29.88,M,6.21,M,FEW,M,M,M,2000.00,M,M,M,M,YBBN 251000Z 17005KT 9999 FEW020 22/18 Q1012 NOSIG
YBBN,2015-12-25 10:30,153.1292,-27.3917,71.60,64.40,78.04,150.00,4.00,0.00,29.88,M,6.21,M,FEW,M,M,M,2000.00,M,M,M,M,YBBN 251030Z 15004KT 9999 FEW020 22/18 Q1012 NOSIG
YBBN,2015-12-25 11:00,153.1292,-27.3917,71.60,64.40,78.04,170.00,4.00,0.00,29.88,M,6.21,M,FEW,M,M,M,2000.00,M,M,M,M,YBBN 251100Z 17004KT 9999 FEW020 22/18 Q1012
YBBN,2015-12-25 11:30,153.1292,-27.3917,69.80,64.40,82.98,190.00,4.00,0.00,29.91,M,6.21,M,FEW,M,M,M,2000.00,M,M,M,M,YBBN 251130Z 19004KT 9999 FEW020 21/18 Q1013 NOSIG
YBBN,2015-12-25 12:00,153.1292,-27.3917,69.80,64.40,82.98,200.00,4.00,0.00,29.91,M,6.21,M,FEW,M,M,M,2000.00,M,M,M,M,YBBN 251200Z 20004KT 9999 FEW020 21/18 Q1013
YBBN,2015-12-25 12:30,153.1292,-27.3917,69.80,64.40,82.98,170.00,3.00,0.00,29.91,M,6.21,M,FEW,M,M,M,2000.00,M,M,M,M,YBBN 251230Z 17003KT 9999 FEW020 21/18 Q1013 NOSIG
YBBN,2015-12-25 13:00,153.1292,-27.3917,68.00,62.60,82.86,210.00,5.00,0.00,29.88,M,6.21,M,FEW,M,M,M,2000.00,M,M,M,M,YBBN 251300Z 21005KT 9999 FEW020 20/17 Q1012 NOSIG
YBBN,2015-12-25 13:30,153.1292,-27.3917,68.00,62.60,82.86,190.00,3.00,0.00,29.88,M,6.21,M,FEW,M,M,M,2000.00,M,M,M,M,YBBN 251330Z 19003KT 9999 FEW020 20/17 Q1012
YBBN,2015-12-25 14:00,153.1292,-27.3917,69.80,62.60,77.90,200.00,2.00,0.00,29.88,M,6.21,M,FEW,M,M,M,2000.00,M,M,M,M,YBBN 251400Z 20002KT 9999 FEW020 21/17 Q1012
YBBN,2015-12-25 14:30,153.1292,-27.3917,68.00,62.60,82.86,230.00,4.00,0.00,29.85,M,6.21,M,FEW,M,M,M,2000.00,M,M,M,M,YBBN 251430Z 23004KT 9999 FEW020 20/17 Q1011 NOSIG
YBBN,2015-12-25 15:00,153.1292,-27.3917,68.00,62.60,82.86,200.00,4.00,0.00,29.85,M,6.21,M,FEW,M,M,M,2000.00,M,M,M,M,YBBN 251500Z 20004KT 9999 FEW020 20/17 Q1011 NOSIG
YBBN,2015-12-25 15:30,153.1292,-27.3917,66.20,62.60,88.18,210.00,3.00,0.00,29.85,M,6.21,M,FEW,M,M,M,2000.00,M,M,M,M,YBBN 251530Z 21003KT 9999 FEW020 19/17 Q1011 NOSIG
YBBN,2015-12-25 16:00,153.1292,-27.3917,66.20,62.60,88.18,200.00,5.00,0.00,29.83,M,6.21,M,FEW,M,M,M,2000.00,M,M,M,M,YBBN 251600Z 20005KT 9999 FEW020 19/17 Q1010 NOSIG
YBBN,2015-12-25 16:30,153.1292,-27.3917,66.20,62.60,88.18,220.00,5.00,0.00,29.83,M,6.21,M,FEW,M,M,M,2000.00,M,M,M,M,YBBN 251630Z 22005KT 9999 FEW020 19/17 Q1010 NOSIG
YBBN,2015-12-25 17:00,153.1292,-27.3917,66.20,62.60,88.18,210.00,3.00,0.00,29.83,M,6.21,M,M,M,M,M,M,M,M,M,M,YBBN 251700Z 21003KT CAVOK 19/17 Q1010 NOSIG
YBBN,2015-12-25 17:30,153.1292,-27.3917,66.20,62.60,88.18,240.00,5.00,0.00,29.85,M,6.21,M,M,M,M,M,M,M,M,M,M,YBBN 251730Z 24005KT CAVOK 19/17 Q1011 NOSIG
YBBN,2015-12-25 18:00,153.1292,-27.3917,64.40,62.60,93.88,210.00,5.00,0.00,29.85,M,6.21,M,FEW,M,M,M,2000.00,M,M,M,M,YBBN 251800Z 21005KT 9999 FEW020 18/17 Q1011 NOSIG
YBBN,2015-12-25 18:30,153.1292,-27.3917,66.20,62.60,88.18,220.00,5.00,0.00,29.85,M,6.21,M,FEW,M,M,M,2000.00,M,M,M,M,YBBN 251830Z 22005KT 9999 FEW020 19/17 Q1011 NOSIG
YBBN,2015-12-25 19:00,153.1292,-27.3917,66.20,62.60,88.18,200.00,5.00,0.00,29.85,M,6.21,M,FEW,M,M,M,4500.00,M,M,M,M,YBBN 251900Z 20005KT 9999 FEW045 19/17 Q1011
YBBN,2015-12-25 19:30,153.1292,-27.3917,66.20,62.60,88.18,210.00,6.00,0.00,29.85,M,6.21,M,FEW,M,M,M,4500.00,M,M,M,M,YBBN 251930Z 21006KT 9999 FEW045 19/17 Q1011 NOSIG
YBBN,2015-12-25 20:00,153.1292,-27.3917,68.00,64.40,88.26,210.00,8.00,0.00,29.88,M,6.21,M,FEW,M,M,M,4500.00,M,M,M,M,YBBN 252000Z 21008KT 9999 FEW045 20/18 Q1012 NOSIG
YBBN,2015-12-25 21:00,153.1292,-27.3917,73.40,62.60,68.94,200.00,8.00,0.00,29.88,M,6.21,M,FEW,M,M,M,4500.00,M,M,M,M,YBBN 252100Z 20008KT 9999 FEW045 23/17 Q1012
YBBN,2015-12-25 23:00,153.1292,-27.3917,78.80,64.40,61.36,20.00,6.00,0.00,29.88,M,6.21,M,SCT,M,M,M,3200.00,M,M,M,M,YBBN 252300Z 02006KT 350V050 9999 SCT032 26/18 Q1012 NOSIG
YBBN,2015-12-25 23:30,153.1292,-27.3917,80.60,64.40,57.84,40.00,7.00,0.00,29.88,M,6.21,M,SCT,M,M,M,3200.00,M,M,M,M,YBBN 252330Z 04007KT 9999 SCT032 27/18 Q1012 NOSIG
