#DEBUG: Format Typ    -> comma
#DEBUG: Time Period   -> 2011-11-18 00:00:00+00:00 2011-11-19 00:00:00+00:00
#DEBUG: Time Zone     -> Etc/UTC
#DEBUG: Data Contact   -> daryl herzmann akrherz@iastate.edu 515-294-5978
#DEBUG: Entries Found -> -1
station,valid,lon,lat,tmpf, dwpf, relh, drct, sknt, p01i, alti, mslp, vsby, gust, skyc1, skyc2, skyc3, skyc4, skyl1, skyl2, skyl3, skyl4, presentwx, metar
YBBN,2011-11-18 00:00,153.1292,-27.3917,78.80,64.40,61.36,10.00,8.00,M,30.06,M,6.21,M,SCT,BKN,M,M,3000.00,24000.00,M,M,M,YBBN 180000Z 01008KT 9999 SCT030 BKN240 26/18 Q1018 NOSIG
YBBN,2011-11-18 00:30,153.1292,-27.3917,78.80,62.60,57.60,20.00,10.00,M,30.06,M,6.21,M,SCT,BKN,M,M,2800.00,22000.00,M,M,M,YBBN 180030Z 02010KT 9999 SCT028 BKN220 26/17 Q1018
YBBN,2011-11-18 01:00,153.1292,-27.3917,78.80,62.60,57.60,30.00,10.00,M,30.06,M,6.21,M,FEW,BKN,M,M,3000.00,24000.00,M,M,M,YBBN 180100Z 03010KT 9999 FEW030 BKN240 26/17 Q1018 NOSIG
YBBN,2011-11-18 01:30,153.1292,-27.3917,78.80,62.60,57.60,20.00,9.00,M,30.03,M,6.21,M,FEW,BKN,M,M,3200.00,25000.00,M,M,M,YBBN 180130Z 02009KT 9999 FEW032 BKN250 26/17 Q1017
YBBN,2011-11-18 02:00,153.1292,-27.3917,78.80,62.60,57.60,10.00,7.00,M,30.03,M,6.21,M,FEW,BKN,M,M,2300.00,25000.00,M,M,M,YBBN 180200Z 01007KT 9999 FEW023 BKN250 26/17 Q1017 NOSIG
YBBN,2011-11-18 03:00,153.1292,-27.3917,78.80,62.60,57.60,360.00,7.00,M,30.03,M,6.21,M,FEW,BKN,M,M,3500.00,25000.00,M,M,M,YBBN 180300Z 36007KT 9999 FEW035 BKN250 26/17 Q1017 NOSIG
YBBN,2011-11-18 03:30,153.1292,-27.3917,78.80,62.60,57.60,40.00,10.00,M,30.00,M,6.21,M,FEW,BKN,M,M,3500.00,25000.00,M,M,M,YBBN 180330Z 04010KT 9999 FEW035 BKN250 26/17 Q1016
YBBN,2011-11-18 04:00,153.1292,-27.3917,78.80,62.60,57.60,10.00,12.00,M,30.00,M,6.21,M,FEW,BKN,M,M,3500.00,25000.00,M,M,M,YBBN 180400Z 01012KT 9999 FEW035 BKN250 26/17 Q1016 NOSIG
YBBN,2011-11-18 04:30,153.1292,-27.3917,77.00,64.40,65.12,20.00,12.00,M,30.00,M,6.21,M,FEW,BKN,M,M,3500.00,25000.00,M,M,M,YBBN 180430Z 02012KT 9999 FEW035 BKN250 25/18 Q1016
YBBN,2011-11-18 05:00,153.1292,-27.3917,80.60,64.40,57.84,20.00,13.00,M,29.97,M,6.21,M,FEW,BKN,M,M,3500.00,25000.00,M,M,M,YBBN 180500Z 02013KT 9999 FEW035 BKN250 27/18 Q1015
YBBN,2011-11-18 05:30,153.1292,-27.3917,78.80,64.40,61.36,20.00,13.00,M,29.97,M,6.21,M,FEW,BKN,M,M,3500.00,25000.00,M,M,M,YBBN 180530Z 02013KT 9999 FEW035 BKN250 26/18 Q1015
YBBN,2011-11-18 06:00,153.1292,-27.3917,78.80,64.40,61.36,30.00,12.00,M,29.97,M,6.21,M,FEW,BKN,M,M,3500.00,24000.00,M,M,M,YBBN 180600Z 03012KT 9999 FEW035 BKN240 26/18 Q1015 NOSIG
YBBN,2011-11-18 06:30,153.1292,-27.3917,77.00,64.40,65.12,20.00,12.00,M,29.97,M,6.21,M,FEW,BKN,M,M,3500.00,24000.00,M,M,M,YBBN 180630Z 02012KT 9999 FEW035 BKN240 25/18 Q1015
YBBN,2011-11-18 07:00,153.1292,-27.3917,77.00,64.40,65.12,20.00,11.00,M,29.97,M,6.21,M,FEW,SCT,M,M,3500.00,18000.00,M,M,M,YBBN 180700Z 02011KT 9999 FEW035 SCT180 25/18 Q1015 NOSIG
YBBN,2011-11-18 07:30,153.1292,-27.3917,75.20,62.60,64.91,10.00,10.00,M,30.00,M,6.21,M,M,M,M,M,M,M,M,M,M,YBBN 180730Z 01010KT CAVOK 24/17 Q1016
YBBN,2011-11-18 08:00,153.1292,-27.3917,75.20,62.60,64.91,10.00,10.00,M,30.00,M,6.21,M,M,M,M,M,M,M,M,M,M,YBBN 180800Z 01010KT CAVOK 24/17 Q1016 NOSIG
YBBN,2011-11-18 08:30,153.1292,-27.3917,73.40,62.60,68.94,10.00,11.00,M,30.00,M,6.21,M,M,M,M,M,M,M,M,M,M,YBBN 180830Z 01011KT CAVOK 23/17 Q1016
YBBN,2011-11-18 09:00,153.1292,-27.3917,71.60,62.60,73.27,10.00,11.00,M,30.00,M,6.21,M,M,M,M,M,M,M,M,M,M,YBBN 180900Z 01011KT CAVOK 22/17 Q1016 NOSIG
YBBN,2011-11-18 09:30,153.1292,-27.3917,71.60,62.60,73.27,10.00,10.00,M,30.00,M,6.21,M,M,M,M,M,M,M,M,M,M,YBBN 180930Z 01010KT CAVOK 22/17 Q1016
YBBN,2011-11-18 10:00,153.1292,-27.3917,71.60,62.60,73.27,10.00,9.00,M,30.03,M,6.21,M,M,M,M,M,M,M,M,M,M,YBBN 181000Z 01009KT CAVOK 22/17 Q1017 NOSIG
YBBN,2011-11-18 10:30,153.1292,-27.3917,69.80,62.60,77.90,10.00,8.00,M,30.03,M,6.21,M,M,M,M,M,M,M,M,M,M,YBBN 181030Z 01008KT CAVOK 21/17 Q1017
YBBN,2011-11-18 11:00,153.1292,-27.3917,69.80,62.60,77.90,10.00,7.00,M,30.03,M,6.21,M,M,M,M,M,M,M,M,M,M,YBBN 181100Z 01007KT CAVOK 21/17 Q1017 NOSIG
YBBN,2011-11-18 11:30,153.1292,-27.3917,69.80,62.60,77.90,20.00,7.00,M,30.06,M,6.21,M,M,M,M,M,M,M,M,M,M,YBBN 181130Z 02007KT CAVOK 21/17 Q1018
YBBN,2011-11-18 12:00,153.1292,-27.3917,69.80,62.60,77.90,30.00,7.00,M,30.03,M,6.21,M,M,M,M,M,M,M,M,M,M,YBBN 181200Z 03007KT CAVOK 21/17 Q1017 NOSIG
YBBN,2011-11-18 12:30,153.1292,-27.3917,69.80,62.60,77.90,40.00,8.00,M,30.03,M,6.21,M,FEW,M,M,M,1500.00,M,M,M,M,YBBN 181230Z 04008KT 9999 FEW015 21/17 Q1017
YBBN,2011-11-18 13:00,153.1292,-27.3917,69.80,62.60,77.90,30.00,8.00,M,30.03,M,6.21,M,FEW,M,M,M,1500.00,M,M,M,M,YBBN 181300Z 03008KT 9999 FEW015 21/17 Q1017 NOSIG
YBBN,2011-11-18 13:30,153.1292,-27.3917,69.80,62.60,77.90,30.00,10.00,M,30.03,M,6.21,M,FEW,M,M,M,2500.00,M,M,M,M,YBBN 181330Z 03010KT 9999 FEW025 21/17 Q1017
YBBN,2011-11-18 14:00,153.1292,-27.3917,71.60,62.60,73.27,30.00,9.00,M,30.03,M,6.21,M,FEW,M,M,M,1500.00,M,M,M,M,YBBN 181400Z 03009KT 9999 FEW015 22/17 Q1017 NOSIG
YBBN,2011-11-18 14:30,153.1292,-27.3917,69.80,62.60,77.90,20.00,8.00,M,30.03,M,6.21,M,FEW,M,M,M,2500.00,M,M,M,M,YBBN 181430Z 02008KT 9999 FEW025 21/17 Q1017
YBBN,2011-11-18 15:00,153.1292,-27.3917,69.80,62.60,77.90,20.00,8.00,M,30.03,M,6.21,M,FEW,M,M,M,2500.00,M,M,M,M,YBBN 181500Z 02008KT 9999 FEW025 21/17 Q1017 NOSIG
YBBN,2011-11-18 15:30,153.1292,-27.3917,68.00,60.80,77.75,40.00,6.00,M,30.00,M,6.21,M,FEW,M,M,M,2500.00,M,M,M,M,YBBN 181530Z 04006KT 9999 FEW025 20/16 Q1016
YBBN,2011-11-18 16:00,153.1292,-27.3917,68.00,62.60,82.86,10.00,5.00,M,30.00,M,6.21,M,SCT,M,M,M,2800.00,M,M,M,M,YBBN 181600Z 01005KT 9999 SCT028 20/17 Q1016 NOSIG
YBBN,2011-11-18 16:30,153.1292,-27.3917,68.00,62.60,82.86,250.00,5.00,M,30.00,M,6.21,M,BKN,M,M,M,4000.00,M,M,M,M,YBBN 181630Z 25005KT 9999 BKN040 20/17 Q1016
YBBN,2011-11-18 17:00,153.1292,-27.3917,68.00,62.60,82.86,230.00,5.00,M,30.00,M,6.21,M,FEW,BKN,M,M,3000.00,4000.00,M,M,M,YBBN 181700Z 23005KT 9999 FEW030 BKN040 20/17 Q1016 NOSIG
YBBN,2011-11-18 17:30,153.1292,-27.3917,68.00,62.60,82.86,240.00,2.00,M,30.03,M,6.21,M,FEW,BKN,M,M,3000.00,4000.00,M,M,M,YBBN 181730Z 24002KT 9999 FEW030 BKN040 20/17 Q1017
YBBN,2011-11-18 18:00,153.1292,-27.3917,68.00,62.60,82.86,220.00,6.00,M,30.03,M,6.21,M,FEW,BKN,M,M,3000.00,4000.00,M,M,M,YBBN 181800Z 22006KT 9999 FEW030 BKN040 20/17 Q1017 NOSIG
YBBN,2011-11-18 18:30,153.1292,-27.3917,68.00,64.40,88.26,210.00,3.00,M,30.03,M,6.21,M,FEW,BKN,M,M,3000.00,4000.00,M,M,M,YBBN 181830Z 21003KT 9999 FEW030 BKN040 20/18 Q1017
YBBN,2011-11-18 19:00,153.1292,-27.3917,68.00,62.60,82.86,220.00,4.00,M,30.03,M,6.21,M,FEW,SCT,M,M,3000.00,4500.00,M,M,M,YBBN 181900Z 22004KT 9999 FEW030 SCT045 20/17 Q1017 NOSIG
YBBN,2011-11-18 19:30,153.1292,-27.3917,68.00,64.40,88.26,0.00,0.00,M,30.06,M,6.21,M,FEW,SCT,M,M,3000.00,4500.00,M,M,M,YBBN 181930Z 00000KT 9999 FEW030 SCT045 20/18 Q1018
YBBN,2011-11-18 20:00,153.1292,-27.3917,69.80,64.40,82.98,230.00,5.00,M,30.06,M,6.21,M,BKN,M,M,M,3000.00,M,M,M,M,YBBN 182000Z 23005KT 9999 BKN030 21/18 Q1018 NOSIG
YBBN,2011-11-18 20:30,153.1292,-27.3917,71.60,64.40,78.04,220.00,4.00,M,30.06,M,6.21,M,SCT,M,M,M,3000.00,M,M,M,M,YBBN 182030Z 22004KT 9999 SCT030 22/18 Q1018
YBBN,2011-11-18 21:00,153.1292,-27.3917,73.40,64.40,73.44,250.00,4.00,M,30.09,M,6.21,M,SCT,M,M,M,2700.00,M,M,M,M,YBBN 182100Z 25004KT 9999 SCT027 23/18 Q1019 NOSIG
YBBN,2011-11-18 21:30,153.1292,-27.3917,75.20,62.60,64.91,20.00,5.00,M,30.09,M,6.21,M,SCT,M,M,M,2500.00,M,M,M,M,YBBN 182130Z 02005KT 9999 SCT025 24/17 Q1019
YBBN,2011-11-18 22:00,153.1292,-27.3917,77.00,60.80,57.36,50.00,7.00,M,30.09,M,6.21,M,SCT,M,M,M,3000.00,M,M,M,M,YBBN 182200Z 05007KT 9999 SCT030 25/16 Q1019 NOSIG
YBBN,2011-11-18 22:30,153.1292,-27.3917,78.80,62.60,57.60,50.00,11.00,M,30.09,M,6.21,M,SCT,M,M,M,3000.00,M,M,M,M,YBBN 182230Z 05011KT 9999 SCT030 26/17 Q1019
YBBN,2011-11-18 23:00,153.1292,-27.3917,78.80,62.60,57.60,30.00,10.00,M,30.09,M,6.21,M,SCT,M,M,M,3000.00,M,M,M,M,YBBN 182300Z 03010KT 9999 SCT030 26/17 Q1019 NOSIG
YBBN,2011-11-18 23:30,153.1292,-27.3917,78.80,62.60,57.60,30.00,8.00,M,30.09,M,6.21,M,SCT,M,M,M,3200.00,M,M,M,M,YBBN 182330Z 03008KT 9999 SCT032 26/17 Q1019
