#DEBUG: Format Typ    -> comma
#DEBUG: Time Period   -> 2015-10-25 00:00:00+00:00 2015-10-26 00:00:00+00:00
#DEBUG: Time Zone     -> Etc/UTC
#DEBUG: Data Contact   -> daryl herzmann akrherz@iastate.edu 515-294-5978
#DEBUG: Entries Found -> -1
station,valid,lon,lat,tmpf, dwpf, relh, drct, sknt, p01i, alti, mslp, vsby, gust, skyc1, skyc2, skyc3, skyc4, skyl1, skyl2, skyl3, skyl4, presentwx, metar
YBBN,2015-10-25 00:00,153.1292,-27.3917,73.40,59.00,60.67,50.00,7.00,0.00,30.24,M,6.21,M,SCT,BKN,M,M,3000.00,4300.00,M,M,M,YBBN 250000Z 05007KT 020V080 9999 SCT030 BKN043 23/15 Q1024
YBBN,2015-10-25 00:30,153.1292,-27.3917,75.20,59.00,57.12,50.00,9.00,0.00,30.21,M,6.21,M,SCT,BKN,M,M,3100.00,4400.00,M,M,M,YBBN 250030Z 05009KT 9999 SCT031 BKN044 24/15 Q1023
YBBN,2015-10-25 01:00,153.1292,-27.3917,75.20,59.00,57.12,50.00,8.00,0.00,30.21,M,6.21,M,SCT,BKN,M,M,3200.00,4500.00,M,M,M,YBBN 250100Z 05008KT 9999 SCT032 BKN045 24/15 Q1023
YBBN,2015-10-25 01:30,153.1292,-27.3917,75.20,60.80,60.90,40.00,10.00,0.00,30.18,M,6.21,M,SCT,BKN,M,M,3300.00,4500.00,M,M,M,YBBN 250130Z 04010KT 9999 SCT033 BKN045 24/16 Q1022
YBBN,2015-10-25 02:00,153.1292,-27.3917,73.40,60.80,64.69,30.00,11.00,0.00,30.18,M,6.21,M,SCT,BKN,M,M,2900.00,4600.00,M,M,M,YBBN 250200Z 03011KT 9999 SCT029 BKN046 23/16 Q1022
YBBN,2015-10-25 02:30,153.1292,-27.3917,75.20,62.60,64.91,30.00,11.00,0.00,30.18,M,6.21,M,SCT,BKN,M,M,2900.00,4600.00,M,M,M,YBBN 250230Z 03011KT 9999 SCT029 BKN046 24/17 Q1022
YBBN,2015-10-25 03:00,153.1292,-27.3917,77.00,60.80,57.36,40.00,11.00,0.00,30.18,M,6.21,M,SCT,BKN,M,M,2900.00,5000.00,M,M,M,YBBN 250300Z 04011KT 9999 SCT029 BKN050 25/16 Q1022
YBBN,2015-10-25 03:30,153.1292,-27.3917,75.20,62.60,64.91,40.00,11.00,0.00,30.15,M,6.21,M,SCT,BKN,M,M,3000.00,6000.00,M,M,M,YBBN 250330Z 04011KT 9999 SCT030 BKN060 24/17 Q1021
YBBN,2015-10-25 04:00,153.1292,-27.3917,75.20,60.80,60.90,40.00,13.00,0.00,30.15,M,6.21,M,FEW,SCT,BKN,M,3200.00,6000.00,33000.00,M,M,YBBN 250400Z 04013KT 9999 FEW032 SCT060 BKN330 24/16 Q1021
YBBN,2015-10-25 04:30,153.1292,-27.3917,75.20,60.80,60.90,30.00,13.00,0.00,30.15,M,6.21,M,FEW,BKN,M,M,3200.00,33000.00,M,M,M,YBBN 250430Z 03013KT 9999 FEW032 BKN330 24/16 Q1021
YBBN,2015-10-25 05:00,153.1292,-27.3917,75.20,60.80,60.90,40.00,13.00,0.00,30.15,M,6.21,M,FEW,BKN,M,M,2000.00,33000.00,M,M,M,YBBN 250500Z 04013KT 9999 FEW020 BKN330 24/16 Q1021
YBBN,2015-10-25 05:30,153.1292,-27.3917,73.40,60.80,64.69,40.00,12.00,0.00,30.15,M,6.21,M,FEW,BKN,M,M,2800.00,33000.00,M,M,M,YBBN 250530Z 04012KT 9999 FEW028 BKN330 23/16 Q1021
YBBN,2015-10-25 06:00,153.1292,-27.3917,73.40,60.80,64.69,50.00,12.00,0.00,30.12,M,6.21,M,FEW,BKN,M,M,2900.00,33000.00,M,M,M,YBBN 250600Z 05012KT 9999 FEW029 BKN330 23/16 Q1020
YBBN,2015-10-25 06:30,153.1292,-27.3917,73.40,62.60,68.94,40.00,11.00,0.00,30.15,M,6.21,M,SCT,BKN,M,M,2900.00,33000.00,M,M,M,YBBN 250630Z 04011KT 9999 SCT029 BKN330 23/17 Q1021
YBBN,2015-10-25 07:00,153.1292,-27.3917,73.40,60.80,64.69,30.00,11.00,0.00,30.15,M,6.21,M,SCT,BKN,M,M,2900.00,32000.00,M,M,M,YBBN 250700Z 03011KT 9999 SCT029 BKN320 23/16 Q1021
YBBN,2015-10-25 07:30,153.1292,-27.3917,71.60,60.80,68.75,40.00,10.00,0.00,30.15,M,6.21,M,FEW,SCT,BKN,M,2800.00,3000.00,32000.00,M,M,YBBN 250730Z 04010KT 9999 FEW028 SCT030 BKN320 22/16 Q1021
YBBN,2015-10-25 08:00,153.1292,-27.3917,71.60,60.80,68.75,20.00,11.00,0.00,30.15,M,6.21,M,FEW,SCT,BKN,M,2800.00,3000.00,31000.00,M,M,YBBN 250800Z 02011KT 9999 FEW028 SCT030 BKN310 22/16 Q1021
YBBN,2015-10-25 08:30,153.1292,-27.3917,69.80,62.60,77.90,10.00,13.00,0.00,30.18,M,6.21,M,FEW,SCT,BKN,M,2000.00,2700.00,30000.00,M,M,YBBN 250830Z 01013KT 9999 FEW020 SCT027 BKN300 21/17 Q1022
YBBN,2015-10-25 09:00,153.1292,-27.3917,69.80,62.60,77.90,10.00,11.00,0.00,30.18,M,6.21,M,FEW,BKN,M,M,2500.00,22000.00,M,M,M,YBBN 250900Z 01011KT 9999 FEW025 BKN220 21/17 Q1022
YBBN,2015-10-25 09:30,153.1292,-27.3917,69.80,62.60,77.90,10.00,10.00,0.00,30.18,M,6.21,M,FEW,BKN,M,M,2400.00,22000.00,M,M,M,YBBN 250930Z 01010KT 9999 FEW024 BKN220 21/17 Q1022
YBBN,2015-10-25 10:00,153.1292,-27.3917,69.80,60.80,73.09,10.00,10.00,0.00,30.21,M,6.21,M,FEW,BKN,M,M,2300.00,24000.00,M,M,M,YBBN 251000Z 01010KT 9999 FEW023 BKN240 21/16 Q1023
YBBN,2015-10-25 10:30,153.1292,-27.3917,69.80,62.60,77.90,10.00,9.00,0.00,30.21,M,6.21,M,FEW,BKN,M,M,2400.00,24000.00,M,M,M,YBBN 251030Z 01009KT 9999 FEW024 BKN240 21/17 Q1023
YBBN,2015-10-25 11:00,153.1292,-27.3917,69.80,62.60,77.90,10.00,9.00,0.00,30.21,M,6.21,M,FEW,SCT,M,M,2400.00,24000.00,M,M,M,YBBN 251100Z 01009KT 9999 FEW024 SCT240 21/17 Q1023
YBBN,2015-10-25 11:30,153.1292,-27.3917,69.80,62.60,77.90,360.00,10.00,0.00,30.21,M,6.21,M,SCT,M,M,M,2400.00,M,M,M,M,YBBN 251130Z 36010KT 9999 SCT024 21/17 Q1023
YBBN,2015-10-25 12:00,153.1292,-27.3917,69.80,62.60,77.90,10.00,9.00,0.00,30.21,M,6.21,M,SCT,M,M,M,2400.00,M,M,M,M,YBBN 251200Z 01009KT 9999 SCT024 21/17 Q1023
YBBN,2015-10-25 12:30,153.1292,-27.3917,69.80,62.60,77.90,10.00,9.00,0.00,30.18,M,6.21,M,SCT,M,M,M,2400.00,M,M,M,M,YBBN 251230Z 01009KT 9999 SCT024 21/17 Q1022
YBBN,2015-10-25 13:00,153.1292,-27.3917,69.80,62.60,77.90,10.00,9.00,0.00,30.18,M,6.21,M,BKN,M,M,M,2400.00,M,M,M,M,YBBN 251300Z 01009KT 9999 BKN024 21/17 Q1022
YBBN,2015-10-25 13:30,153.1292,-27.3917,69.80,62.60,77.90,10.00,9.00,0.00,30.18,M,6.21,M,BKN,M,M,M,2400.00,M,M,M,M,YBBN 251330Z 01009KT 9999 BKN024 21/17 Q1022
YBBN,2015-10-25 14:00,153.1292,-27.3917,68.00,62.60,82.86,280.00,4.00,0.00,30.15,M,6.21,M,BKN,M,M,M,2200.00,M,M,M,M,YBBN 251400Z 28004KT 260V350 9999 BKN022 20/17 Q1021
YBBN,2015-10-25 14:30,153.1292,-27.3917,68.00,62.60,82.86,290.00,5.00,0.00,30.15,M,6.21,M,BKN,M,M,M,3200.00,M,M,M,M,YBBN 251430Z 29005KT 9999 BKN032 20/17 Q1021
YBBN,2015-10-25 15:00,153.1292,-27.3917,68.00,62.60,82.86,320.00,5.00,0.00,30.15,M,6.21,M,BKN,M,M,M,3200.00,M,M,M,M,YBBN 251500Z 32005KT 9999 BKN032 20/17 Q1021 NOSIG
YBBN,2015-10-25 15:30,153.1292,-27.3917,68.00,62.60,82.86,310.00,6.00,0.00,30.15,M,6.21,M,SCT,M,M,M,3400.00,M,M,M,M,YBBN 251530Z 31006KT 9999 SCT034 20/17 Q1021 RMK LIGHTNING SEEN SW
YBBN,2015-10-25 16:00,153.1292,-27.3917,68.00,62.60,82.86,290.00,5.00,0.00,30.12,M,6.21,M,SCT,M,M,M,3500.00,M,M,M,M,YBBN 251600Z 29005KT 9999 SCT035 20/17 Q1020
YBBN,2015-10-25 16:30,153.1292,-27.3917,66.20,62.60,88.18,0.00,0.00,0.00,30.12,M,6.21,M,FEW,SCT,M,M,3500.00,9000.00,M,M,M,YBBN 251630Z 00000KT 9999 FEW035 SCT090 19/17 Q1020
YBBN,2015-10-25 17:00,153.1292,-27.3917,66.20,62.60,88.18,0.00,0.00,0.00,30.12,M,6.21,M,FEW,BKN,M,M,3500.00,8500.00,M,M,M,YBBN 251700Z 00000KT 9999 FEW035 BKN085 19/17 Q1020
YBBN,2015-10-25 17:30,153.1292,-27.3917,66.20,62.60,88.18,0.00,0.00,0.00,30.12,M,6.21,M,FEW,SCT,M,M,3000.00,8500.00,M,M,M,YBBN 251730Z 00000KT 9999 FEW030 SCT085 19/17 Q1020 RMK LIGHTNING SEEN WEST
YBBN,2015-10-25 18:00,153.1292,-27.3917,64.40,62.60,93.88,0.00,0.00,0.00,30.12,M,6.21,M,FEW,SCT,M,M,3500.00,8700.00,M,M,M,YBBN 251800Z 00000KT 9999 FEW035 SCT087 18/17 Q1020
YBBN,2015-10-25 18:30,153.1292,-27.3917,64.40,62.60,93.88,0.00,0.00,0.00,30.15,M,6.21,M,FEW,BKN,M,M,3000.00,11000.00,M,M,M,YBBN 251830Z 00000KT 9999 FEW030 BKN110 18/17 Q1021
YBBN,2015-10-25 19:00,153.1292,-27.3917,64.40,60.80,88.09,270.00,5.00,0.00,30.15,M,6.21,M,FEW,SCT,BKN,M,2500.00,8500.00,11500.00,M,M,YBBN 251900Z 27005KT 9999 FEW025 SCT085 BKN115 18/16 Q1021 NOSIG
YBBN,2015-10-25 19:30,153.1292,-27.3917,64.40,60.80,88.09,230.00,6.00,0.00,30.15,M,6.21,M,M,M,M,M,M,M,M,M,M,YBBN 251930Z 23006KT CAVOK 18/16 Q1021
YBBN,2015-10-25 20:00,153.1292,-27.3917,66.20,62.60,88.18,250.00,6.00,0.00,30.15,M,6.21,M,M,M,M,M,M,M,M,M,M,YBBN 252000Z 25006KT CAVOK 19/17 Q1021
YBBN,2015-10-25 20:30,153.1292,-27.3917,69.80,60.80,73.09,240.00,6.00,0.00,30.18,M,6.21,M,FEW,SCT,BKN,M,2500.00,11000.00,30000.00,M,VCSH,YBBN 252030Z 24006KT 9999 VCSH FEW025 SCT110 BKN300 21/16 Q1022
YBBN,2015-10-25 21:00,153.1292,-27.3917,69.80,62.60,77.90,270.00,3.00,0.00,30.15,M,6.21,M,NSC,M,M,M,M,M,M,M,VCSH,YBBN 252100Z 27003KT 9999 VCSH NSC 21/17 Q1021
YBBN,2015-10-25 21:30,153.1292,-27.3917,71.60,62.60,73.27,350.00,7.00,0.00,30.18,M,6.21,M,FEW,SCT,BKN,M,3000.00,12500.00,30000.00,M,VCSH,YBBN 252130Z 35007KT 9999 VCSH FEW030 SCT125 BKN300 22/17 Q1022
YBBN,2015-10-25 22:00,153.1292,-27.3917,71.60,62.60,73.27,340.00,9.00,0.00,30.18,M,6.21,M,FEW,SCT,BKN,M,2500.00,12000.00,30000.00,M,M,YBBN 252200Z 34009KT 9999 FEW025 SCT120 BKN300 22/17 Q1022
YBBN,2015-10-25 22:30,153.1292,-27.3917,75.20,64.40,69.14,330.00,9.00,0.00,30.18,M,6.21,M,FEW,SCT,M,M,2500.00,30000.00,M,M,M,YBBN 252230Z 33009KT 9999 FEW025 SCT300 24/18 Q1022
YBBN,2015-10-25 23:00,153.1292,-27.3917,75.20,62.60,64.91,350.00,9.00,0.00,30.15,M,6.21,M,FEW,SCT,M,M,2500.00,30000.00,M,M,M,YBBN 252300Z 35009KT 9999 FEW025 SCT300 24/17 Q1021 NOSIG
YBBN,2015-10-25 23:30,153.1292,-27.3917,75.20,62.60,64.91,360.00,9.00,0.00,30.15,M,6.21,M,FEW,M,M,M,2800.00,M,M,M,M,YBBN 252330Z 36009KT 9999 FEW028 24/17 Q1021
