#DEBUG: Format Typ    -> comma
#DEBUG: Time Period   -> 2011-12-20 00:00:00+00:00 2011-12-21 00:00:00+00:00
#DEBUG: Time Zone     -> Etc/UTC
#DEBUG: Data Contact   -> daryl herzmann akrherz@iastate.edu 515-294-5978
#DEBUG: Entries Found -> -1
station,valid,lon,lat,tmpf, dwpf, relh, drct, sknt, p01i, alti, mslp, vsby, gust, skyc1, skyc2, skyc3, skyc4, skyl1, skyl2, skyl3, skyl4, presentwx, metar
YBBN,2011-12-20 00:00,153.1292,-27.3917,78.80,60.80,54.05,10.00,7.00,M,29.91,M,6.21,M,FEW,M,M,M,3500.00,M,M,M,M,YBBN 200000Z 01007KT 9999 FEW035 26/16 Q1013 NOSIG
YBBN,2011-12-20 00:30,153.1292,-27.3917,78.80,60.80,54.05,20.00,9.00,M,29.91,M,6.21,M,FEW,M,M,M,3800.00,M,M,M,M,YBBN 200030Z 02009KT 9999 FEW038 26/16 Q1013
YBBN,2011-12-20 01:00,153.1292,-27.3917,78.80,57.20,47.52,20.00,9.00,M,29.91,M,6.21,M,FEW,M,M,M,3800.00,M,M,M,M,YBBN 200100Z 02009KT 9999 FEW038 26/14 Q1013 NOSIG
YBBN,2011-12-20 01:30,153.1292,-27.3917,78.80,57.20,47.52,40.00,11.00,M,29.88,M,6.21,M,FEW,M,M,M,3800.00,M,M,M,M,YBBN 200130Z 04011KT 9999 FEW038 26/14 Q1012
YBBN,2011-12-20 02:00,153.1292,-27.3917,80.60,60.80,50.95,40.00,12.00,M,29.88,M,6.21,M,FEW,SCT,M,M,3800.00,8000.00,M,M,M,YBBN 200200Z 04012KT 9999 FEW038 SCT080 27/16 Q1012 NOSIG
YBBN,2011-12-20 02:30,153.1292,-27.3917,78.80,57.20,47.52,40.00,12.00,M,29.88,M,6.21,M,FEW,SCT,M,M,3800.00,8000.00,M,M,M,YBBN 200230Z 04012KT 9999 FEW038 SCT080 26/14 Q1012
YBBN,2011-12-20 03:00,153.1292,-27.3917,80.60,60.80,50.95,30.00,14.00,M,29.88,M,6.21,M,FEW,SCT,M,M,3800.00,8000.00,M,M,M,YBBN 200300Z 03014KT 9999 FEW038 SCT080 27/16 Q1012 NOSIG
YBBN,2011-12-20 03:30,153.1292,-27.3917,78.80,59.00,50.69,30.00,13.00,M,29.88,M,6.21,M,FEW,SCT,M,M,3800.00,8000.00,M,M,M,YBBN 200330Z 03013KT 9999 FEW038 SCT080 26/15 Q1012
YBBN,2011-12-20 04:00,153.1292,-27.3917,78.80,60.80,54.05,30.00,14.00,M,29.88,M,6.21,M,FEW,SCT,M,M,3500.00,8000.00,M,M,M,YBBN 200400Z 03014KT 9999 FEW035 SCT080 26/16 Q1012 NOSIG
YBBN,2011-12-20 04:30,153.1292,-27.3917,77.00,60.80,57.36,20.00,13.00,M,29.85,M,6.21,M,FEW,SCT,M,M,3500.00,8000.00,M,M,M,YBBN 200430Z 02013KT 9999 FEW035 SCT080 25/16 Q1011
YBBN,2011-12-20 05:00,153.1292,-27.3917,77.00,62.60,61.13,20.00,15.00,M,29.85,M,6.21,M,FEW,SCT,M,M,3500.00,8000.00,M,M,M,YBBN 200500Z 02015KT 9999 FEW035 SCT080 25/17 Q1011
YBBN,2011-12-20 05:30,153.1292,-27.3917,78.80,60.80,54.05,20.00,14.00,M,29.85,M,6.21,M,FEW,SCT,M,M,3500.00,8000.00,M,M,M,YBBN 200530Z 02014KT 9999 FEW035 SCT080 26/16 Q1011
YBBN,2011-12-20 06:00,153.1292,-27.3917,77.00,60.80,57.36,20.00,14.00,M,29.85,M,6.21,M,FEW,M,M,M,3500.00,M,M,M,M,YBBN 200600Z 02014KT 9999 FEW035 25/16 Q1011
YBBN,2011-12-20 06:30,153.1292,-27.3917,77.00,60.80,57.36,10.00,14.00,M,29.85,M,6.21,M,FEW,M,M,M,3500.00,M,M,M,M,YBBN 200630Z 01014KT 9999 FEW035 25/16 Q1011
YBBN,2011-12-20 07:00,153.1292,-27.3917,77.00,60.80,57.36,20.00,14.00,M,29.85,M,6.21,M,FEW,M,M,M,3500.00,M,M,M,M,YBBN 200700Z 02014KT 9999 FEW035 25/16 Q1011 NOSIG
YBBN,2011-12-20 07:30,153.1292,-27.3917,77.00,62.60,61.13,10.00,14.00,M,29.85,M,6.21,M,FEW,M,M,M,3200.00,M,M,M,M,YBBN 200730Z 01014KT 9999 FEW032 25/17 Q1011
YBBN,2011-12-20 08:00,153.1292,-27.3917,75.20,62.60,64.91,10.00,14.00,M,29.88,M,6.21,M,FEW,M,M,M,3200.00,M,M,M,M,YBBN 200800Z 01014KT 9999 FEW032 24/17 Q1012
YBBN,2011-12-20 08:30,153.1292,-27.3917,75.20,62.60,64.91,20.00,13.00,M,29.88,M,6.21,M,FEW,M,M,M,3000.00,M,M,M,M,YBBN 200830Z 02013KT 9999 FEW030 24/17 Q1012
YBBN,2011-12-20 09:00,153.1292,-27.3917,73.40,62.60,68.94,20.00,12.00,M,29.88,M,6.21,M,FEW,M,M,M,3000.00,M,M,M,M,YBBN 200900Z 02012KT 9999 FEW030 23/17 Q1012 NOSIG
YBBN,2011-12-20 09:30,153.1292,-27.3917,73.40,62.60,68.94,20.00,11.00,M,29.91,M,6.21,M,FEW,M,M,M,4000.00,M,M,M,M,YBBN 200930Z 02011KT 9999 FEW040 23/17 Q1013
YBBN,2011-12-20 10:00,153.1292,-27.3917,73.40,62.60,68.94,30.00,11.00,M,29.91,M,6.21,M,FEW,M,M,M,4500.00,M,M,M,M,YBBN 201000Z 03011KT 9999 FEW045 23/17 Q1013 NOSIG
YBBN,2011-12-20 10:30,153.1292,-27.3917,73.40,64.40,73.44,40.00,9.00,M,29.91,M,6.21,M,FEW,M,M,M,4500.00,M,M,M,M,YBBN 201030Z 04009KT 9999 FEW045 23/18 Q1013
YBBN,2011-12-20 11:00,153.1292,-27.3917,73.40,62.60,68.94,40.00,8.00,M,29.94,M,6.21,M,M,M,M,M,M,M,M,M,M,YBBN 201100Z 04008KT CAVOK 23/17 Q1014 NOSIG
YBBN,2011-12-20 11:30,153.1292,-27.3917,71.60,64.40,78.04,40.00,9.00,M,29.94,M,6.21,M,M,M,M,M,M,M,M,M,M,YBBN 201130Z 04009KT CAVOK 22/18 Q1014
YBBN,2011-12-20 12:00,153.1292,-27.3917,71.60,64.40,78.04,40.00,8.00,M,29.94,M,6.21,M,M,M,M,M,M,M,M,M,M,YBBN 201200Z 04008KT CAVOK 22/18 Q1014 NOSIG
YBBN,2011-12-20 12:30,153.1292,-27.3917,71.60,62.60,73.27,30.00,7.00,M,29.94,M,6.21,M,FEW,M,M,M,4000.00,M,M,M,M,YBBN 201230Z 03007KT 9999 FEW040 22/17 Q1014
YBBN,2011-12-20 13:00,153.1292,-27.3917,71.60,64.40,78.04,40.00,4.00,M,29.94,M,6.21,M,SCT,M,M,M,2700.00,M,M,M,M,YBBN 201300Z 04004KT 9999 SCT027 22/18 Q1014 NOSIG
YBBN,2011-12-20 13:30,153.1292,-27.3917,71.60,64.40,78.04,30.00,6.00,M,29.94,M,6.21,M,SCT,M,M,M,2800.00,M,M,M,M,YBBN 201330Z 03006KT 9999 SCT028 22/18 Q1014
YBBN,2011-12-20 14:00,153.1292,-27.3917,71.60,64.40,78.04,40.00,5.00,M,29.91,M,6.21,M,FEW,SCT,M,M,2700.00,8200.00,M,M,M,YBBN 201400Z 04005KT 9999 FEW027 SCT082 22/18 Q1013 NOSIG
YBBN,2011-12-20 14:30,153.1292,-27.3917,71.60,66.20,83.09,50.00,5.00,M,29.91,M,6.21,M,FEW,SCT,M,M,3000.00,9000.00,M,M,M,YBBN 201430Z 05005KT 9999 FEW030 SCT090 22/19 Q1013
YBBN,2011-12-20 15:00,153.1292,-27.3917,73.40,66.20,78.19,60.00,6.00,M,29.91,M,6.21,M,FEW,SCT,M,M,3000.00,9500.00,M,M,M,YBBN 201500Z 06006KT 9999 FEW030 SCT095 23/19 Q1013 NOSIG
YBBN,2011-12-20 15:30,153.1292,-27.3917,73.40,66.20,78.19,60.00,6.00,M,29.91,M,6.21,M,FEW,M,M,M,3500.00,M,M,M,M,YBBN 201530Z 06006KT 9999 FEW035 23/19 Q1013
YBBN,2011-12-20 16:00,153.1292,-27.3917,73.40,66.20,78.19,50.00,7.00,M,29.88,M,6.21,M,FEW,M,M,M,3500.00,M,M,M,M,YBBN 201600Z 05007KT 9999 FEW035 23/19 Q1012 NOSIG
YBBN,2011-12-20 16:30,153.1292,-27.3917,73.40,66.20,78.19,40.00,8.00,M,29.88,M,6.21,M,FEW,SCT,M,M,2500.00,4700.00,M,M,M,YBBN 201630Z 04008KT 9999 FEW025 SCT047 23/19 Q1012
YBBN,2011-12-20 17:00,153.1292,-27.3917,73.40,64.40,73.44,50.00,7.00,M,29.88,M,6.21,M,FEW,SCT,M,M,2500.00,5000.00,M,M,M,YBBN 201700Z 05007KT 9999 FEW025 SCT050 23/18 Q1012 NOSIG
YBBN,2011-12-20 17:30,153.1292,-27.3917,71.60,66.20,83.09,50.00,7.00,M,29.88,M,6.21,M,FEW,SCT,M,M,2500.00,13400.00,M,M,M,YBBN 201730Z 05007KT 9999 FEW025 SCT134 22/19 Q1012
YBBN,2011-12-20 18:00,153.1292,-27.3917,71.60,66.20,83.09,50.00,5.00,M,29.91,M,6.21,M,FEW,SCT,M,M,2500.00,13000.00,M,M,M,YBBN 201800Z 05005KT 9999 FEW025 SCT130 22/19 Q1013 NOSIG
YBBN,2011-12-20 18:30,153.1292,-27.3917,69.80,64.40,82.98,50.00,5.00,M,29.91,M,6.21,M,FEW,SCT,M,M,2500.00,4500.00,M,M,M,YBBN 201830Z 05005KT 9999 FEW025 SCT045 21/18 Q1013
YBBN,2011-12-20 19:00,153.1292,-27.3917,71.60,66.20,83.09,50.00,4.00,M,29.91,M,6.21,M,FEW,BKN,M,M,2500.00,4500.00,M,M,M,YBBN 201900Z 05004KT 9999 FEW025 BKN045 22/19 Q1013 NOSIG
YBBN,2011-12-20 19:30,153.1292,-27.3917,71.60,66.20,83.09,60.00,4.00,M,29.91,M,6.21,M,FEW,BKN,M,M,2500.00,4700.00,M,M,M,YBBN 201930Z 06004KT 9999 FEW025 BKN047 22/19 Q1013
YBBN,2011-12-20 20:00,153.1292,-27.3917,73.40,66.20,78.19,50.00,5.00,M,29.94,M,6.21,M,FEW,BKN,M,M,2500.00,4500.00,M,M,M,YBBN 202000Z 05005KT 9999 FEW025 BKN045 23/19 Q1014 NOSIG
YBBN,2011-12-20 20:30,153.1292,-27.3917,71.60,66.20,83.09,90.00,5.00,M,29.94,M,5.59,M,SCT,BKN,M,M,2200.00,4500.00,M,M,-SHRA VCSH,YBBN 202030Z 09005KT 9000 -SHRA VCSH SCT022 BKN045 22/19 Q1014
YBBN,2011-12-20 21:18,153.1292,-27.3917,73.40,66.20,78.19,200.00,3.00,M,29.94,M,5.59,M,SCT,SCT,M,M,2200.00,4000.00,M,M,-SHRA VCSH,YBBN 202118Z 20003KT 9000 -SHRA VCSH SCT022 SCT040 23/19 Q1014 RMK CLEARING FM2120 09005KT 9999 -SHRA SCT025 BKN045
YBBN,2011-12-20 21:30,153.1292,-27.3917,77.00,66.20,69.33,100.00,1.00,M,29.94,M,5.59,M,FEW,SCT,M,M,1800.00,2200.00,M,M,VCSH,YBBN 202130Z 10001KT 9000 VCSH FEW018 SCT022 25/19 Q1014
YBBN,2011-12-20 22:00,153.1292,-27.3917,77.00,64.40,65.12,80.00,7.00,M,29.97,M,6.21,M,FEW,SCT,M,M,1800.00,2200.00,M,M,M,YBBN 202200Z 08007KT 9999 FEW018 SCT022 25/18 Q1015 NOSIG
YBBN,2011-12-20 22:30,153.1292,-27.3917,78.80,64.40,61.36,80.00,7.00,M,29.97,M,6.21,M,FEW,SCT,M,M,1800.00,2200.00,M,M,VCSH,YBBN 202230Z 08007KT 9999 VCSH FEW018 SCT022 26/18 Q1015
YBBN,2011-12-20 23:00,153.1292,-27.3917,78.80,64.40,61.36,60.00,9.00,M,29.97,M,6.21,M,FEW,SCT,M,M,1800.00,2500.00,M,M,M,YBBN 202300Z 06009KT 9999 FEW018 SCT025 26/18 Q1015 NOSIG
YBBN,2011-12-20 23:30,153.1292,-27.3917,78.80,64.40,61.36,70.00,8.00,M,29.97,M,6.21,M,FEW,SCT,M,M,1500.00,2500.00,M,M,M,YBBN 202330Z 07008KT 9999 FEW015 SCT025 26/18 Q1015
