#DEBUG: Format Typ    -> comma
#DEBUG: Time Period   -> 2011-12-18 00:00:00+00:00 2011-12-19 00:00:00+00:00
#DEBUG: Time Zone     -> Etc/UTC
#DEBUG: Data Contact   -> daryl herzmann akrherz@iastate.edu 515-294-5978
#DEBUG: Entries Found -> -1
station,valid,lon,lat,tmpf, dwpf, relh, drct, sknt, p01i, alti, mslp, vsby, gust, skyc1, skyc2, skyc3, skyc4, skyl1, skyl2, skyl3, skyl4, presentwx, metar
YBBN,2011-12-18 00:30,153.1292,-27.3917,71.60,59.00,64.48,100.00,9.00,M,30.06,M,5.59,M,FEW,BKN,BKN,M,1500.00,2500.00,5000.00,M,-SHRA VCSH,YBBN 180030Z 10009KT 9000 -SHRA VCSH FEW015 BKN025 BKN050 22/15 Q1018
YBBN,2011-12-18 01:00,153.1292,-27.3917,73.40,59.00,60.67,100.00,8.00,M,30.06,M,6.21,M,FEW,SCT,BKN,M,1800.00,2800.00,4500.00,M,VCSH,YBBN 180100Z 10008KT 9999 VCSH FEW018 SCT028 BKN045 23/15 Q1018 NOSIG
YBBN,2011-12-18 01:30,153.1292,-27.3917,71.60,60.80,68.75,20.00,9.00,M,30.03,M,6.21,M,FEW,SCT,BKN,M,2200.00,2800.00,4000.00,M,VCSH,YBBN 180130Z 02009KT 9999 VCSH FEW022 SCT028 BKN040 22/16 Q1017
YBBN,2011-12-18 02:00,153.1292,-27.3917,73.40,57.20,56.88,100.00,10.00,M,30.03,M,6.21,M,FEW,SCT,BKN,M,2000.00,2500.00,4000.00,M,VCSH,YBBN 180200Z 10010KT 9999 VCSH FEW020 SCT025 BKN040 23/14 Q1017 NOSIG
YBBN,2011-12-18 02:30,153.1292,-27.3917,73.40,55.40,53.29,100.00,8.00,M,30.03,M,6.21,M,FEW,SCT,BKN,M,2000.00,2500.00,4000.00,M,VCSH,YBBN 180230Z 10008KT 9999 VCSH FEW020 SCT025 BKN040 23/13 Q1017
YBBN,2011-12-18 03:00,153.1292,-27.3917,73.40,55.40,53.29,100.00,7.00,M,30.00,M,6.21,M,SCT,BKN,M,M,2800.00,4500.00,M,M,VCSH,YBBN 180300Z 10007KT 9999 VCSH SCT028 BKN045 23/13 Q1016 NOSIG
YBBN,2011-12-18 03:30,153.1292,-27.3917,73.40,55.40,53.29,110.00,7.00,M,30.00,M,6.21,M,SCT,BKN,M,M,2800.00,4800.00,M,M,VCSH,YBBN 180330Z 11007KT 9999 VCSH SCT028 BKN048 23/13 Q1016
YBBN,2011-12-18 04:00,153.1292,-27.3917,75.20,55.40,50.17,90.00,7.00,M,30.00,M,6.21,M,SCT,BKN,M,M,2800.00,5000.00,M,M,M,YBBN 180400Z 09007KT 9999 SCT028 BKN050 24/13 Q1016 NOSIG
YBBN,2011-12-18 04:30,153.1292,-27.3917,73.40,53.60,49.90,90.00,8.00,M,30.00,M,6.21,M,SCT,BKN,M,M,2800.00,5500.00,M,M,M,YBBN 180430Z 09008KT 9999 SCT028 BKN055 23/12 Q1016
YBBN,2011-12-18 05:00,153.1292,-27.3917,75.20,55.40,50.17,90.00,8.00,M,30.00,M,6.21,M,SCT,BKN,M,M,2800.00,5500.00,M,M,M,YBBN 180500Z 09008KT 9999 SCT028 BKN055 24/13 Q1016 NOSIG
YBBN,2011-12-18 05:30,153.1292,-27.3917,73.40,55.40,53.29,70.00,9.00,M,30.00,M,6.21,M,SCT,BKN,M,M,2800.00,5500.00,M,M,M,YBBN 180530Z 07009KT 9999 SCT028 BKN055 23/13 Q1016
YBBN,2011-12-18 06:00,153.1292,-27.3917,75.20,53.60,46.98,80.00,8.00,M,29.97,M,6.21,M,FEW,SCT,BKN,M,3000.00,6000.00,24000.00,M,M,YBBN 180600Z 08008KT 9999 FEW030 SCT060 BKN240 24/12 Q1015 NOSIG
YBBN,2011-12-18 06:30,153.1292,-27.3917,73.40,53.60,49.90,70.00,9.00,M,29.97,M,6.21,M,FEW,SCT,BKN,M,3000.00,6000.00,24000.00,M,M,YBBN 180630Z 07009KT 9999 FEW030 SCT060 BKN240 23/12 Q1015
YBBN,2011-12-18 07:00,153.1292,-27.3917,75.20,53.60,46.98,70.00,8.00,M,30.00,M,6.21,M,FEW,SCT,BKN,M,3500.00,6000.00,24000.00,M,M,YBBN 180700Z 07008KT 9999 FEW035 SCT060 BKN240 24/12 Q1016
YBBN,2011-12-18 07:30,153.1292,-27.3917,73.40,55.40,53.29,70.00,8.00,M,30.00,M,6.21,M,FEW,SCT,BKN,M,3000.00,6000.00,24000.00,M,M,YBBN 180730Z 07008KT 9999 FEW030 SCT060 BKN240 23/13 Q1016
YBBN,2011-12-18 08:00,153.1292,-27.3917,73.40,55.40,53.29,90.00,8.00,M,30.00,M,6.21,M,FEW,SCT,BKN,M,3000.00,12500.00,24000.00,M,M,YBBN 180800Z 09008KT 9999 FEW030 SCT125 BKN240 23/13 Q1016 NOSIG
YBBN,2011-12-18 08:30,153.1292,-27.3917,71.60,55.40,56.63,90.00,7.00,M,30.00,M,6.21,M,FEW,BKN,M,M,3000.00,14000.00,M,M,M,YBBN 180830Z 09007KT 9999 FEW030 BKN140 22/13 Q1016
YBBN,2011-12-18 09:00,153.1292,-27.3917,71.60,55.40,56.63,80.00,7.00,M,30.00,M,6.21,M,FEW,BKN,M,M,3000.00,14000.00,M,M,M,YBBN 180900Z 08007KT 9999 FEW030 BKN140 22/13 Q1016
YBBN,2011-12-18 09:30,153.1292,-27.3917,71.60,55.40,56.63,80.00,6.00,M,30.03,M,6.21,M,FEW,BKN,M,M,3000.00,14000.00,M,M,M,YBBN 180930Z 08006KT 9999 FEW030 BKN140 22/13 Q1017
YBBN,2011-12-18 10:00,153.1292,-27.3917,71.60,55.40,56.63,80.00,5.00,M,30.03,M,6.21,M,FEW,BKN,M,M,3000.00,6200.00,M,M,M,YBBN 181000Z 08005KT 9999 FEW030 BKN062 22/13 Q1017 NOSIG
YBBN,2011-12-18 10:30,153.1292,-27.3917,69.80,55.40,60.21,70.00,5.00,M,30.03,M,6.21,M,FEW,BKN,M,M,3000.00,6200.00,M,M,M,YBBN 181030Z 07005KT 9999 FEW030 BKN062 21/13 Q1017
YBBN,2011-12-18 11:00,153.1292,-27.3917,69.80,57.20,64.26,80.00,5.00,M,30.03,M,6.21,M,FEW,SCT,M,M,3000.00,4200.00,M,M,M,YBBN 181100Z 08005KT 9999 FEW030 SCT042 21/14 Q1017 NOSIG
YBBN,2011-12-18 11:30,153.1292,-27.3917,69.80,57.20,64.26,90.00,3.00,M,30.03,M,6.21,M,FEW,M,M,M,4200.00,M,M,M,M,YBBN 181130Z 09003KT 9999 FEW042 21/14 Q1017
YBBN,2011-12-18 12:00,153.1292,-27.3917,69.80,59.00,68.55,90.00,4.00,M,30.00,M,6.21,M,FEW,M,M,M,3000.00,M,M,M,M,YBBN 181200Z 09004KT 9999 FEW030 21/15 Q1016 NOSIG
YBBN,2011-12-18 12:30,153.1292,-27.3917,68.00,59.00,72.92,90.00,4.00,M,30.00,M,6.21,M,FEW,M,M,M,3000.00,M,M,M,M,YBBN 181230Z 09004KT 9999 FEW030 20/15 Q1016
YBBN,2011-12-18 13:00,153.1292,-27.3917,68.00,59.00,72.92,90.00,4.00,M,30.00,M,6.21,M,FEW,M,M,M,3000.00,M,M,M,M,YBBN 181300Z 09004KT 9999 FEW030 20/15 Q1016 NOSIG
YBBN,2011-12-18 13:30,153.1292,-27.3917,69.80,59.00,68.55,90.00,5.00,M,30.00,M,6.21,M,FEW,BKN,M,M,3000.00,5500.00,M,M,M,YBBN 181330Z 09005KT 9999 FEW030 BKN055 21/15 Q1016
YBBN,2011-12-18 14:00,153.1292,-27.3917,69.80,57.20,64.26,80.00,5.00,M,29.97,M,6.21,M,FEW,M,M,M,3000.00,M,M,M,M,YBBN 181400Z 08005KT 9999 FEW030 21/14 Q1015 NOSIG
YBBN,2011-12-18 14:30,153.1292,-27.3917,66.20,59.00,77.60,40.00,4.00,M,29.97,M,6.21,M,FEW,M,M,M,3000.00,M,M,M,M,YBBN 181430Z 04004KT 9999 FEW030 19/15 Q1015
YBBN,2011-12-18 15:00,153.1292,-27.3917,64.40,59.00,82.62,30.00,1.00,M,29.97,M,6.21,M,FEW,M,M,M,3000.00,M,M,M,M,YBBN 181500Z 03001KT 9999 FEW030 18/15 Q1015 NOSIG
YBBN,2011-12-18 15:30,153.1292,-27.3917,64.40,59.00,82.62,230.00,5.00,M,29.97,M,6.21,M,FEW,M,M,M,3700.00,M,M,M,M,YBBN 181530Z 23005KT 9999 FEW037 18/15 Q1015
YBBN,2011-12-18 16:00,153.1292,-27.3917,66.20,59.00,77.60,180.00,5.00,M,29.97,M,6.21,M,BKN,M,M,M,3700.00,M,M,M,M,YBBN 181600Z 18005KT 9999 BKN037 19/15 Q1015 NOSIG
YBBN,2011-12-18 16:30,153.1292,-27.3917,68.00,60.80,77.75,210.00,5.00,M,29.94,M,6.21,M,BKN,M,M,M,4100.00,M,M,M,M,YBBN 181630Z 21005KT 9999 BKN041 20/16 Q1014
YBBN,2011-12-18 17:00,153.1292,-27.3917,66.20,60.80,82.74,230.00,4.00,M,29.94,M,6.21,M,BKN,BKN,M,M,4700.00,30000.00,M,M,M,YBBN 181700Z 23004KT 9999 BKN047 BKN300 19/16 Q1014 NOSIG
YBBN,2011-12-18 17:30,153.1292,-27.3917,66.20,60.80,82.74,240.00,3.00,M,29.94,M,6.21,M,FEW,BKN,M,M,4700.00,27000.00,M,M,M,YBBN 181730Z 24003KT 9999 FEW047 BKN270 19/16 Q1014
YBBN,2011-12-18 18:00,153.1292,-27.3917,64.40,60.80,88.09,240.00,4.00,M,29.94,M,6.21,M,FEW,BKN,M,M,3000.00,27000.00,M,M,M,YBBN 181800Z 24004KT 9999 FEW030 BKN270 18/16 Q1014 NOSIG
YBBN,2011-12-18 18:30,153.1292,-27.3917,64.40,59.00,82.62,230.00,5.00,M,29.94,M,6.21,M,FEW,BKN,M,M,3000.00,27000.00,M,M,M,YBBN 181830Z 23005KT 9999 FEW030 BKN270 18/15 Q1014
YBBN,2011-12-18 19:00,153.1292,-27.3917,64.40,59.00,82.62,200.00,5.00,M,29.97,M,6.21,M,FEW,BKN,M,M,3000.00,27000.00,M,M,M,YBBN 181900Z 20005KT 9999 FEW030 BKN270 18/15 Q1015 NOSIG
YBBN,2011-12-18 19:30,153.1292,-27.3917,64.40,59.00,82.62,300.00,5.00,M,29.97,M,6.21,M,FEW,BKN,M,M,3000.00,27000.00,M,M,M,YBBN 181930Z 30005KT 9999 FEW030 BKN270 18/15 Q1015
YBBN,2011-12-18 20:00,153.1292,-27.3917,66.20,60.80,82.74,250.00,6.00,M,29.97,M,6.21,M,FEW,BKN,M,M,3000.00,27000.00,M,M,M,YBBN 182000Z 25006KT 9999 FEW030 BKN270 19/16 Q1015 NOSIG
YBBN,2011-12-18 20:30,153.1292,-27.3917,68.00,59.00,72.92,200.00,5.00,M,29.97,M,6.21,M,FEW,SCT,BKN,M,3000.00,5500.00,27000.00,M,M,YBBN 182030Z 20005KT 9999 FEW030 SCT055 BKN270 20/15 Q1015
YBBN,2011-12-18 21:00,153.1292,-27.3917,69.80,59.00,68.55,210.00,4.00,M,29.97,M,6.21,M,FEW,BKN,M,M,3000.00,27000.00,M,M,M,YBBN 182100Z 21004KT 9999 FEW030 BKN270 21/15 Q1015 NOSIG
YBBN,2011-12-18 21:30,153.1292,-27.3917,71.60,60.80,68.75,170.00,4.00,M,29.97,M,6.21,M,FEW,BKN,M,M,3000.00,27000.00,M,M,M,YBBN 182130Z 17004KT 9999 FEW030 BKN270 22/16 Q1015
YBBN,2011-12-18 22:00,153.1292,-27.3917,73.40,60.80,64.69,110.00,4.00,M,29.97,M,6.21,M,FEW,BKN,M,M,3000.00,27000.00,M,M,M,YBBN 182200Z 11004KT 9999 FEW030 BKN270 23/16 Q1015 NOSIG
YBBN,2011-12-18 22:30,153.1292,-27.3917,73.40,60.80,64.69,130.00,5.00,M,29.97,M,6.21,M,FEW,BKN,M,M,3000.00,27000.00,M,M,M,YBBN 182230Z 13005KT 9999 FEW030 BKN270 23/16 Q1015
YBBN,2011-12-18 23:00,153.1292,-27.3917,73.40,59.00,60.67,110.00,4.00,M,29.97,M,6.21,M,FEW,SCT,BKN,M,3000.00,25000.00,27000.00,M,M,YBBN 182300Z 11004KT 9999 FEW030 SCT250 BKN270 23/15 Q1015 NOSIG
YBBN,2011-12-18 23:30,153.1292,-27.3917,75.20,59.00,57.12,60.00,5.00,M,29.97,M,6.21,M,FEW,SCT,BKN,M,3000.00,25000.00,27000.00,M,M,YBBN 182330Z 06005KT 9999 FEW030 SCT250 BKN270 24/15 Q1015
