#DEBUG: Format Typ    -> comma
#DEBUG: Time Period   -> 2010-10-20 00:00:00+00:00 2010-10-21 00:00:00+00:00
#DEBUG: Time Zone     -> Etc/UTC
#DEBUG: Data Contact   -> daryl herzmann akrherz@iastate.edu 515-294-5978
#DEBUG: Entries Found -> -1
station,valid,lon,lat,tmpf, dwpf, relh, drct, sknt, p01i, alti, mslp, vsby, gust, skyc1, skyc2, skyc3, skyc4, skyl1, skyl2, skyl3, skyl4, presentwx, metar
YBBN,2010-10-20 00:30,153.1292,-27.3917,68.00,60.80,77.75,130.00,6.00,M,30.30,M,6.21,M,FEW,SCT,BKN,M,900.00,2500.00,6600.00,M,VCSH,YBBN 200030Z 13006KT 9999 VCSH FEW009 SCT025 BKN066 20/16 Q1026 NOSIG
YBBN,2010-10-20 01:00,153.1292,-27.3917,69.80,60.80,73.09,110.00,6.00,M,30.30,M,6.21,M,FEW,BKN,M,M,2500.00,3400.00,M,M,VCSH,YBBN 200100Z 11006KT 9999 VCSH FEW025 BKN034 21/16 Q1026 NOSIG
YBBN,2010-10-20 01:30,153.1292,-27.3917,68.00,60.80,77.75,50.00,9.00,M,30.27,M,6.21,M,SCT,BKN,M,M,2500.00,4900.00,M,M,VCSH,YBBN 200130Z 05009KT 9999 VCSH SCT025 BKN049 20/16 Q1025 NOSIG
YBBN,2010-10-20 06:00,153.1292,-27.3917,68.00,57.20,68.35,120.00,8.00,M,30.24,M,6.21,M,FEW,BKN,M,M,3000.00,5300.00,M,M,M,YBBN 200600Z 12008KT 9999 FEW030 BKN053 20/14 Q1024 NOSIG
YBBN,2010-10-20 06:30,153.1292,-27.3917,68.00,57.20,68.35,120.00,8.00,M,30.24,M,6.21,M,FEW,BKN,M,M,3000.00,7600.00,M,M,M,YBBN 200630Z 12008KT 9999 FEW030 BKN076 20/14 Q1024 NOSIG
YBBN,2010-10-20 07:00,153.1292,-27.3917,68.00,55.40,64.04,110.00,9.00,M,30.27,M,6.21,M,FEW,SCT,M,M,3000.00,7400.00,M,M,M,YBBN 200700Z 11009KT 9999 FEW030 SCT074 20/13 Q1025 NOSIG
YBBN,2010-10-20 07:30,153.1292,-27.3917,68.00,55.40,64.04,110.00,9.00,M,30.27,M,6.21,M,FEW,M,M,M,3000.00,M,M,M,M,YBBN 200730Z 11009KT 9999 FEW030 20/13 Q1025 NOSIG
YBBN,2010-10-20 08:00,153.1292,-27.3917,68.00,57.20,68.35,110.00,7.00,M,30.27,M,6.21,M,BKN,M,M,M,3500.00,M,M,M,M,YBBN 200800Z 11007KT 9999 BKN035 20/14 Q1025 NOSIG
YBBN,2010-10-20 08:30,153.1292,-27.3917,68.00,55.40,64.04,110.00,7.00,M,30.27,M,6.21,M,FEW,BKN,M,M,3200.00,4400.00,M,M,M,YBBN 200830Z 11007KT 9999 FEW032 BKN044 20/13 Q1025 NOSIG
YBBN,2010-10-20 09:00,153.1292,-27.3917,68.00,55.40,64.04,110.00,8.00,M,30.27,M,6.21,M,FEW,BKN,M,M,3200.00,5000.00,M,M,M,YBBN 200900Z 11008KT 9999 FEW032 BKN050 20/13 Q1025 NOSIG
YBBN,2010-10-20 09:30,153.1292,-27.3917,66.20,57.20,72.74,110.00,6.00,M,30.30,M,6.21,M,FEW,SCT,M,M,3200.00,5000.00,M,M,M,YBBN 200930Z 11006KT 9999 FEW032 SCT050 19/14 Q1026 NOSIG
YBBN,2010-10-20 10:00,153.1292,-27.3917,66.20,55.40,68.15,110.00,6.00,M,30.30,M,6.21,M,FEW,M,M,M,3200.00,M,M,M,M,YBBN 201000Z 11006KT 9999 FEW032 19/13 Q1026 NOSIG
YBBN,2010-10-20 10:30,153.1292,-27.3917,66.20,55.40,68.15,110.00,6.00,M,30.30,M,6.21,M,FEW,M,M,M,2800.00,M,M,M,M,YBBN 201030Z 11006KT 9999 FEW028 19/13 Q1026 NOSIG
YBBN,2010-10-20 11:00,153.1292,-27.3917,66.20,57.20,72.74,100.00,7.00,M,30.30,M,6.21,M,FEW,M,M,M,2800.00,M,M,M,M,YBBN 201100Z 10007KT 9999 FEW028 19/14 Q1026 NOSIG
YBBN,2010-10-20 11:30,153.1292,-27.3917,66.20,55.40,68.15,110.00,5.00,M,30.30,M,6.21,M,FEW,BKN,M,M,2800.00,4200.00,M,M,M,YBBN 201130Z 11005KT 9999 FEW028 BKN042 19/13 Q1026 NOSIG
YBBN,2010-10-20 12:00,153.1292,-27.3917,66.20,55.40,68.15,110.00,6.00,M,30.30,M,6.21,M,FEW,BKN,M,M,2800.00,4000.00,M,M,M,YBBN 201200Z 11006KT 9999 FEW028 BKN040 19/13 Q1026 NOSIG
YBBN,2010-10-20 12:30,153.1292,-27.3917,66.20,55.40,68.15,110.00,5.00,M,30.30,M,6.21,M,FEW,BKN,M,M,2800.00,4000.00,M,M,M,YBBN 201230Z 11005KT 9999 FEW028 BKN040 19/13 Q1026 NOSIG
YBBN,2010-10-20 13:00,153.1292,-27.3917,66.20,55.40,68.15,110.00,6.00,M,30.30,M,6.21,M,FEW,BKN,M,M,2800.00,4000.00,M,M,M,YBBN 201300Z 11006KT 9999 FEW028 BKN040 19/13 Q1026 NOSIG
YBBN,2010-10-20 13:30,153.1292,-27.3917,66.20,55.40,68.15,110.00,6.00,M,30.27,M,6.21,M,FEW,BKN,M,M,2800.00,4000.00,M,M,VCSH,YBBN 201330Z 11006KT 9999 VCSH FEW028 BKN040 19/13 Q1025 NOSIG
YBBN,2010-10-20 14:00,153.1292,-27.3917,66.20,55.40,68.15,110.00,6.00,M,30.27,M,6.21,M,FEW,BKN,M,M,2800.00,4200.00,M,M,M,YBBN 201400Z 11006KT 9999 FEW028 BKN042 19/13 Q1025 NOSIG
YBBN,2010-10-20 14:30,153.1292,-27.3917,66.20,55.40,68.15,120.00,6.00,M,30.27,M,6.21,M,FEW,BKN,M,M,2800.00,4200.00,M,M,M,YBBN 201430Z 12006KT 9999 FEW028 BKN042 19/13 Q1025 NOSIG
YBBN,2010-10-20 15:00,153.1292,-27.3917,66.20,53.60,63.82,110.00,7.00,M,30.27,M,6.21,M,FEW,BKN,M,M,2800.00,4200.00,M,M,M,YBBN 201500Z 11007KT 9999 FEW028 BKN042 19/12 Q1025 NOSIG
YBBN,2010-10-20 15:30,153.1292,-27.3917,66.20,55.40,68.15,120.00,6.00,M,30.24,M,6.21,M,FEW,BKN,M,M,2800.00,4300.00,M,M,M,YBBN 201530Z 12006KT 9999 FEW028 BKN043 19/13 Q1024 NOSIG
YBBN,2010-10-20 16:00,153.1292,-27.3917,66.20,53.60,63.82,120.00,7.00,M,30.24,M,6.21,M,FEW,BKN,M,M,2800.00,4600.00,M,M,M,YBBN 201600Z 12007KT 9999 FEW028 BKN046 19/12 Q1024 NOSIG
YBBN,2010-10-20 16:30,153.1292,-27.3917,64.40,57.20,77.45,160.00,5.00,M,30.24,M,6.21,M,FEW,BKN,M,M,2800.00,4600.00,M,M,M,YBBN 201630Z 16005KT 9999 FEW028 BKN046 18/14 Q1024 NOSIG
YBBN,2010-10-20 17:00,153.1292,-27.3917,64.40,57.20,77.45,170.00,5.00,M,30.21,M,6.21,M,FEW,BKN,M,M,2800.00,4600.00,M,M,M,YBBN 201700Z 17005KT 9999 FEW028 BKN046 18/14 Q1023 NOSIG
YBBN,2010-10-20 17:30,153.1292,-27.3917,66.20,55.40,68.15,150.00,5.00,M,30.21,M,6.21,M,FEW,BKN,M,M,2800.00,4700.00,M,M,M,YBBN 201730Z 15005KT 9999 FEW028 BKN047 19/13 Q1023 NOSIG
YBBN,2010-10-20 18:00,153.1292,-27.3917,64.40,57.20,77.45,170.00,5.00,M,30.24,M,6.21,M,FEW,BKN,M,M,2800.00,4800.00,M,M,M,YBBN 201800Z 17005KT 9999 FEW028 BKN048 18/14 Q1024 NOSIG
YBBN,2010-10-20 18:30,153.1292,-27.3917,64.40,55.40,72.56,200.00,3.00,M,30.24,M,6.21,M,FEW,BKN,M,M,2800.00,4800.00,M,M,M,YBBN 201830Z 20003KT 9999 FEW028 BKN048 18/13 Q1024 NOSIG
YBBN,2010-10-20 19:00,153.1292,-27.3917,62.60,55.40,77.29,180.00,5.00,M,30.24,M,6.21,M,FEW,BKN,M,M,2800.00,5000.00,M,M,M,YBBN 201900Z 18005KT 9999 FEW028 BKN050 17/13 Q1024 NOSIG
YBBN,2010-10-20 19:30,153.1292,-27.3917,64.40,55.40,72.56,200.00,3.00,M,30.27,M,6.21,M,FEW,SCT,M,M,2800.00,5000.00,M,M,M,YBBN 201930Z 20003KT 9999 FEW028 SCT050 18/13 Q1025 NOSIG
YBBN,2010-10-20 20:00,153.1292,-27.3917,64.40,55.40,72.56,200.00,1.00,M,30.27,M,6.21,M,FEW,M,M,M,2800.00,M,M,M,M,YBBN 202000Z 20001KT 9999 FEW028 18/13 Q1025 NOSIG
YBBN,2010-10-20 20:30,153.1292,-27.3917,66.20,55.40,68.15,210.00,4.00,M,30.27,M,6.21,M,FEW,SCT,M,M,3000.00,26000.00,M,M,M,YBBN 202030Z 21004KT 9999 FEW030 SCT260 19/13 Q1025 NOSIG
YBBN,2010-10-20 21:00,153.1292,-27.3917,66.20,57.20,72.74,180.00,4.00,M,30.27,M,6.21,M,FEW,SCT,M,M,3000.00,24000.00,M,M,M,YBBN 202100Z 18004KT 9999 FEW030 SCT240 19/14 Q1025 NOSIG
YBBN,2010-10-20 21:30,153.1292,-27.3917,68.00,55.40,64.04,170.00,5.00,M,30.27,M,6.21,M,FEW,SCT,M,M,3200.00,24000.00,M,M,M,YBBN 202130Z 17005KT 9999 FEW032 SCT240 20/13 Q1025 NOSIG
YBBN,2010-10-20 22:00,153.1292,-27.3917,69.80,53.60,56.38,160.00,5.00,M,30.30,M,6.21,M,FEW,SCT,M,M,3000.00,24000.00,M,M,M,YBBN 202200Z 16005KT 9999 FEW030 SCT240 21/12 Q1026 NOSIG
YBBN,2010-10-20 22:30,153.1292,-27.3917,69.80,50.00,49.37,130.00,6.00,M,30.27,M,6.21,M,SCT,BKN,M,M,2800.00,24000.00,M,M,M,YBBN 202230Z 13006KT 9999 SCT028 BKN240 21/10 Q1025 NOSIG
YBBN,2010-10-20 23:00,153.1292,-27.3917,69.80,51.80,52.77,130.00,5.00,M,30.30,M,6.21,M,SCT,BKN,M,M,3000.00,4700.00,M,M,M,YBBN 202300Z 13005KT 9999 SCT030 BKN047 21/11 Q1026 NOSIG
YBBN,2010-10-20 23:30,153.1292,-27.3917,69.80,51.80,52.77,130.00,6.00,M,30.27,M,6.21,M,FEW,BKN,M,M,3000.00,4900.00,M,M,M,YBBN 202330Z 13006KT 9999 FEW030 BKN049 21/11 Q1025 NOSIG
