#DEBUG: Format Typ    -> comma
#DEBUG: Time Period   -> 2014-12-21 00:00:00+00:00 2014-12-22 00:00:00+00:00
#DEBUG: Time Zone     -> Etc/UTC
#DEBUG: Data Contact   -> daryl herzmann akrherz@iastate.edu 515-294-5978
#DEBUG: Entries Found -> -1
station,valid,lon,lat,tmpf, dwpf, relh, drct, sknt, p01i, alti, mslp, vsby, gust, skyc1, skyc2, skyc3, skyc4, skyl1, skyl2, skyl3, skyl4, presentwx, metar
YBBN,2014-12-21 00:00,153.1292,-27.3917,78.80,62.60,57.60,60.00,8.00,0.00,30.06,M,6.21,M,FEW,SCT,M,M,3200.00,7200.00,M,M,M,YBBN 210000Z 06008KT 9999 FEW032 SCT072 26/17 Q1018 NOSIG
YBBN,2014-12-21 00:30,153.1292,-27.3917,78.80,64.40,61.36,30.00,8.00,0.00,30.06,M,6.21,M,FEW,SCT,M,M,3200.00,7500.00,M,M,M,YBBN 210030Z 03008KT 9999 FEW032 SCT075 26/18 Q1018
YBBN,2014-12-21 01:00,153.1292,-27.3917,80.60,64.40,57.84,30.00,9.00,0.00,30.06,M,6.21,M,FEW,BKN,M,M,3200.00,7800.00,M,M,M,YBBN 210100Z 03009KT 9999 FEW032 BKN078 27/18 Q1018 NOSIG
YBBN,2014-12-21 01:30,153.1292,-27.3917,80.60,60.80,50.95,40.00,9.00,0.00,30.03,M,6.21,M,FEW,BKN,M,M,3200.00,8000.00,M,M,M,YBBN 210130Z 04009KT 9999 FEW032 BKN080 27/16 Q1017
YBBN,2014-12-21 02:00,153.1292,-27.3917,78.80,62.60,57.60,60.00,9.00,0.00,30.03,M,6.21,M,FEW,BKN,M,M,3200.00,8000.00,M,M,M,YBBN 210200Z 06009KT 9999 FEW032 BKN080 26/17 Q1017 NOSIG
YBBN,2014-12-21 02:30,153.1292,-27.3917,80.60,64.40,57.84,70.00,10.00,0.00,30.03,M,6.21,M,FEW,BKN,M,M,3400.00,8000.00,M,M,M,YBBN 210230Z 07010KT 9999 FEW034 BKN080 27/18 Q1017
YBBN,2014-12-21 03:00,153.1292,-27.3917,78.80,64.40,61.36,60.00,10.00,0.00,30.00,M,6.21,M,FEW,BKN,M,M,3400.00,8000.00,M,M,M,YBBN 210300Z 06010KT 9999 FEW034 BKN080 26/18 Q1016 NOSIG
YBBN,2014-12-21 03:30,153.1292,-27.3917,80.60,64.40,57.84,60.00,11.00,0.00,30.00,M,6.21,M,FEW,SCT,M,M,3400.00,7500.00,M,M,M,YBBN 210330Z 06011KT 9999 FEW034 SCT075 27/18 Q1016
YBBN,2014-12-21 04:00,153.1292,-27.3917,78.80,64.40,61.36,50.00,12.00,0.00,30.00,M,6.21,M,FEW,SCT,M,M,3400.00,7500.00,M,M,M,YBBN 210400Z 05012KT 9999 FEW034 SCT075 26/18 Q1016 NOSIG
YBBN,2014-12-21 04:30,153.1292,-27.3917,80.60,62.60,54.30,50.00,10.00,0.00,30.00,M,6.21,M,FEW,M,M,M,3400.00,M,M,M,M,YBBN 210430Z 05010KT 9999 FEW034 27/17 Q1016
YBBN,2014-12-21 05:00,153.1292,-27.3917,80.60,64.40,57.84,60.00,10.00,0.00,29.97,M,6.21,M,FEW,M,M,M,3400.00,M,M,M,M,YBBN 210500Z 06010KT 9999 FEW034 27/18 Q1015 NOSIG
YBBN,2014-12-21 05:30,153.1292,-27.3917,78.80,64.40,61.36,70.00,10.00,0.00,29.97,M,6.21,M,FEW,M,M,M,3200.00,M,M,M,M,YBBN 210530Z 07010KT 9999 FEW032 26/18 Q1015
YBBN,2014-12-21 06:00,153.1292,-27.3917,78.80,64.40,61.36,60.00,11.00,0.00,29.97,M,6.21,M,FEW,M,M,M,3200.00,M,M,M,M,YBBN 210600Z 06011KT 9999 FEW032 26/18 Q1015 NOSIG
YBBN,2014-12-21 06:30,153.1292,-27.3917,78.80,64.40,61.36,60.00,11.00,0.00,29.97,M,6.21,M,FEW,M,M,M,3200.00,M,M,M,M,YBBN 210630Z 06011KT 9999 FEW032 26/18 Q1015
YBBN,2014-12-21 07:00,153.1292,-27.3917,77.00,62.60,61.13,60.00,11.00,0.00,29.97,M,6.21,M,FEW,M,M,M,3200.00,M,M,M,M,YBBN 210700Z 06011KT 9999 FEW032 25/17 Q1015 NOSIG
YBBN,2014-12-21 07:30,153.1292,-27.3917,77.00,62.60,61.13,60.00,11.00,0.00,29.97,M,6.21,M,FEW,M,M,M,3200.00,M,M,M,M,YBBN 210730Z 06011KT 9999 FEW032 25/17 Q1015
YBBN,2014-12-21 08:00,153.1292,-27.3917,75.20,62.60,64.91,60.00,10.00,0.00,30.00,M,6.21,M,FEW,SCT,M,M,2800.00,4000.00,M,M,M,YBBN 210800Z 06010KT 9999 FEW028 SCT040 24/17 Q1016 NOSIG
YBBN,2014-12-21 08:30,153.1292,-27.3917,75.20,62.60,64.91,70.00,8.00,0.00,30.00,M,6.21,M,FEW,BKN,M,M,2800.00,3300.00,M,M,M,YBBN 210830Z 07008KT 9999 FEW028 BKN033 24/17 Q1016
YBBN,2014-12-21 09:00,153.1292,-27.3917,75.20,62.60,64.91,70.00,8.00,0.00,30.03,M,6.21,M,FEW,BKN,M,M,2800.00,3500.00,M,M,VCSH,YBBN 210900Z 07008KT 9999 VCSH FEW028 BKN035 24/17 Q1017
YBBN,2014-12-21 09:30,153.1292,-27.3917,75.20,62.60,64.91,80.00,8.00,0.00,30.03,M,6.21,M,FEW,SCT,BKN,M,2000.00,2900.00,3700.00,M,M,YBBN 210930Z 08008KT 9999 FEW020 SCT029 BKN037 24/17 Q1017
YBBN,2014-12-21 10:00,153.1292,-27.3917,75.20,62.60,64.91,80.00,8.00,0.00,30.03,M,6.21,M,FEW,BKN,M,M,3000.00,3700.00,M,M,M,YBBN 211000Z 08008KT 9999 FEW030 BKN037 24/17 Q1017
YBBN,2014-12-21 10:30,153.1292,-27.3917,75.20,62.60,64.91,80.00,8.00,0.00,30.03,M,6.21,M,FEW,OVC,M,M,3000.00,3900.00,M,M,M,YBBN 211030Z 08008KT 9999 FEW030 OVC039 24/17 Q1017
YBBN,2014-12-21 11:00,153.1292,-27.3917,75.20,62.60,64.91,80.00,7.00,0.00,30.03,M,6.21,M,FEW,OVC,M,M,3000.00,4000.00,M,M,M,YBBN 211100Z 08007KT 9999 FEW030 OVC040 24/17 Q1017
YBBN,2014-12-21 11:30,153.1292,-27.3917,75.20,62.60,64.91,70.00,7.00,0.00,30.03,M,6.21,M,SCT,OVC,M,M,3000.00,4300.00,M,M,M,YBBN 211130Z 07007KT 9999 SCT030 OVC043 24/17 Q1017
YBBN,2014-12-21 12:00,153.1292,-27.3917,75.20,60.80,60.90,80.00,8.00,0.00,30.06,M,6.21,M,SCT,OVC,M,M,3500.00,4500.00,M,M,M,YBBN 211200Z 08008KT 9999 SCT035 OVC045 24/16 Q1018
YBBN,2014-12-21 12:30,153.1292,-27.3917,75.20,60.80,60.90,90.00,7.00,0.00,30.06,M,6.21,M,BKN,OVC,M,M,3900.00,4700.00,M,M,M,YBBN 211230Z 09007KT 9999 BKN039 OVC047 24/16 Q1018
YBBN,2014-12-21 13:00,153.1292,-27.3917,75.20,60.80,60.90,90.00,7.00,0.00,30.06,M,6.21,M,FEW,SCT,OVC,M,3000.00,3900.00,4700.00,M,M,YBBN 211300Z 09007KT 9999 FEW030 SCT039 OVC047 24/16 Q1018 NOSIG
YBBN,2014-12-21 13:30,153.1292,-27.3917,73.40,60.80,64.69,80.00,6.00,0.00,30.06,M,6.21,M,FEW,SCT,OVC,M,3000.00,3800.00,4700.00,M,M,YBBN 211330Z 08006KT 9999 FEW030 SCT038 OVC047 23/16 Q1018
YBBN,2014-12-21 14:00,153.1292,-27.3917,73.40,60.80,64.69,90.00,7.00,0.00,30.03,M,6.21,M,FEW,M,M,M,4000.00,M,M,M,M,YBBN 211400Z 09007KT 9999 FEW040 23/16 Q1017
YBBN,2014-12-21 14:30,153.1292,-27.3917,73.40,60.80,64.69,90.00,8.00,0.00,30.03,M,6.21,M,FEW,BKN,M,M,4000.00,5200.00,M,M,M,YBBN 211430Z 09008KT 9999 FEW040 BKN052 23/16 Q1017
YBBN,2014-12-21 15:00,153.1292,-27.3917,73.40,60.80,64.69,90.00,7.00,0.00,30.00,M,6.21,M,FEW,BKN,M,M,3000.00,5000.00,M,M,M,YBBN 211500Z 09007KT 9999 FEW030 BKN050 23/16 Q1016 NOSIG
YBBN,2014-12-21 15:30,153.1292,-27.3917,73.40,60.80,64.69,90.00,7.00,0.00,30.00,M,6.21,M,FEW,SCT,M,M,3000.00,4800.00,M,M,M,YBBN 211530Z 09007KT 9999 FEW030 SCT048 23/16 Q1016
YBBN,2014-12-21 16:00,153.1292,-27.3917,73.40,62.60,68.94,80.00,5.00,0.00,30.00,M,6.21,M,FEW,SCT,M,M,3000.00,3500.00,M,M,M,YBBN 211600Z 08005KT 9999 FEW030 SCT035 23/17 Q1016
YBBN,2014-12-21 16:30,153.1292,-27.3917,73.40,60.80,64.69,100.00,6.00,0.00,29.97,M,6.21,M,FEW,SCT,M,M,3500.00,5000.00,M,M,M,YBBN 211630Z 10006KT 9999 FEW035 SCT050 23/16 Q1015
YBBN,2014-12-21 17:00,153.1292,-27.3917,71.60,60.80,68.75,90.00,5.00,0.00,29.97,M,6.21,M,FEW,M,M,M,3000.00,M,M,M,M,YBBN 211700Z 09005KT 9999 FEW030 22/16 Q1015
YBBN,2014-12-21 17:30,153.1292,-27.3917,71.60,60.80,68.75,110.00,2.00,0.00,29.97,M,6.21,M,FEW,M,M,M,3000.00,M,M,M,M,YBBN 211730Z 11002KT 9999 FEW030 22/16 Q1015
YBBN,2014-12-21 18:00,153.1292,-27.3917,71.60,60.80,68.75,100.00,4.00,0.00,29.97,M,6.21,M,FEW,M,M,M,2800.00,M,M,M,M,YBBN 211800Z 10004KT 9999 FEW028 22/16 Q1015 NOSIG
YBBN,2014-12-21 18:30,153.1292,-27.3917,71.60,60.80,68.75,110.00,5.00,0.00,29.97,M,6.21,M,FEW,M,M,M,3200.00,M,M,M,M,YBBN 211830Z 11005KT 9999 FEW032 22/16 Q1015
YBBN,2014-12-21 19:00,153.1292,-27.3917,71.60,60.80,68.75,110.00,4.00,0.00,30.00,M,6.21,M,SCT,M,M,M,3200.00,M,M,M,M,YBBN 211900Z 11004KT 9999 SCT032 22/16 Q1016
YBBN,2014-12-21 19:30,153.1292,-27.3917,69.80,62.60,77.90,120.00,4.00,0.00,30.00,M,6.21,M,SCT,SCT,M,M,3200.00,35000.00,M,M,M,YBBN 211930Z 12004KT 9999 SCT032 SCT350 21/17 Q1016
YBBN,2014-12-21 20:00,153.1292,-27.3917,69.80,62.60,77.90,210.00,5.00,0.00,30.03,M,6.21,M,SCT,M,M,M,3200.00,M,M,M,M,YBBN 212000Z 21005KT 9999 SCT032 21/17 Q1017 NOSIG
YBBN,2014-12-21 20:30,153.1292,-27.3917,73.40,62.60,68.94,150.00,4.00,0.00,30.03,M,6.21,M,FEW,M,M,M,3000.00,M,M,M,M,YBBN 212030Z 15004KT 9999 FEW030 23/17 Q1017
YBBN,2014-12-21 21:00,153.1292,-27.3917,75.20,64.40,69.14,160.00,5.00,0.00,30.03,M,6.21,M,SCT,M,M,M,2900.00,M,M,M,M,YBBN 212100Z 16005KT 9999 SCT029 24/18 Q1017 NOSIG
YBBN,2014-12-21 21:30,153.1292,-27.3917,75.20,62.60,64.91,130.00,6.00,0.00,30.03,M,6.21,M,SCT,M,M,M,2900.00,M,M,M,M,YBBN 212130Z 13006KT 9999 SCT029 24/17 Q1017
YBBN,2014-12-21 22:00,153.1292,-27.3917,77.00,62.60,61.13,130.00,7.00,0.00,30.03,M,6.21,M,BKN,M,M,M,3000.00,M,M,M,M,YBBN 212200Z 13007KT 9999 BKN030 25/17 Q1017 NOSIG
YBBN,2014-12-21 22:30,153.1292,-27.3917,78.80,60.80,54.05,110.00,10.00,0.00,30.03,M,6.21,M,SCT,M,M,M,3200.00,M,M,M,M,YBBN 212230Z 11010KT 9999 SCT032 26/16 Q1017
YBBN,2014-12-21 23:00,153.1292,-27.3917,78.80,60.80,54.05,110.00,10.00,0.00,30.06,M,6.21,M,FEW,M,M,M,3200.00,M,M,M,M,YBBN 212300Z 11010KT 9999 FEW032 26/16 Q1018
YBBN,2014-12-21 23:30,153.1292,-27.3917,78.80,59.00,50.69,110.00,10.00,0.00,30.06,M,6.21,M,FEW,M,M,M,3300.00,M,M,M,M,YBBN 212330Z 11010KT 9999 FEW033 26/15 Q1018
