#DEBUG: Format Typ    -> comma
#DEBUG: Time Period   -> 2014-11-07 00:00:00+00:00 2014-11-08 00:00:00+00:00
#DEBUG: Time Zone     -> Etc/UTC
#DEBUG: Data Contact   -> daryl herzmann akrherz@iastate.edu 515-294-5978
#DEBUG: Entries Found -> -1
station,valid,lon,lat,tmpf, dwpf, relh, drct, sknt, p01i, alti, mslp, vsby, gust, skyc1, skyc2, skyc3, skyc4, skyl1, skyl2, skyl3, skyl4, presentwx, metar
YBBN,2014-11-07 00:00,153.1292,-27.3917,78.80,62.60,57.60,10.00,11.00,0.00,30.00,M,6.21,M,SCT,SCT,M,M,2400.00,4000.00,M,M,M,YBBN 070000Z 01011KT 9999 SCT024 SCT040 26/17 Q1016 NOSIG
YBBN,2014-11-07 00:30,153.1292,-27.3917,78.80,64.40,61.36,20.00,11.00,0.00,30.00,M,6.21,M,SCT,BKN,M,M,2500.00,4600.00,M,M,M,YBBN 070030Z 02011KT 9999 SCT025 BKN046 26/18 Q1016
YBBN,2014-11-07 01:00,153.1292,-27.3917,80.60,66.20,61.58,30.00,11.00,0.00,30.00,M,6.21,M,SCT,BKN,M,M,2800.00,5000.00,M,M,M,YBBN 070100Z 03011KT 9999 SCT028 BKN050 27/19 Q1016 NOSIG
YBBN,2014-11-07 01:30,153.1292,-27.3917,78.80,64.40,61.36,30.00,12.00,0.00,30.00,M,6.21,M,SCT,BKN,M,M,2800.00,5200.00,M,M,M,YBBN 070130Z 03012KT 9999 SCT028 BKN052 26/18 Q1016
YBBN,2014-11-07 02:00,153.1292,-27.3917,78.80,64.40,61.36,30.00,13.00,0.00,30.00,M,6.21,M,SCT,SCT,M,M,3000.00,5400.00,M,M,M,YBBN 070200Z 03013KT 9999 SCT030 SCT054 26/18 Q1016 NOSIG
YBBN,2014-11-07 02:30,153.1292,-27.3917,78.80,66.20,65.33,30.00,13.00,0.00,30.00,M,6.21,M,FEW,BKN,M,M,3000.00,32000.00,M,M,M,YBBN 070230Z 03013KT 9999 FEW030 BKN320 26/19 Q1016
YBBN,2014-11-07 03:00,153.1292,-27.3917,80.60,62.60,54.30,20.00,13.00,0.00,29.97,M,6.21,M,FEW,BKN,M,M,3500.00,32000.00,M,M,M,YBBN 070300Z 02013KT 9999 FEW035 BKN320 27/17 Q1015 NOSIG
YBBN,2014-11-07 03:30,153.1292,-27.3917,80.60,64.40,57.84,20.00,13.00,0.00,29.97,M,6.21,M,FEW,BKN,M,M,3500.00,32000.00,M,M,M,YBBN 070330Z 02013KT 9999 FEW035 BKN320 27/18 Q1015
YBBN,2014-11-07 04:00,153.1292,-27.3917,80.60,62.60,54.30,20.00,13.00,0.00,29.97,M,6.21,M,FEW,BKN,M,M,3500.00,32000.00,M,M,M,YBBN 070400Z 02013KT 9999 FEW035 BKN320 27/17 Q1015 NOSIG
YBBN,2014-11-07 04:30,153.1292,-27.3917,80.60,62.60,54.30,30.00,11.00,0.00,29.97,M,6.21,M,FEW,BKN,M,M,3500.00,32000.00,M,M,M,YBBN 070430Z 03011KT 9999 FEW035 BKN320 27/17 Q1015
YBBN,2014-11-07 05:00,153.1292,-27.3917,78.80,66.20,65.33,30.00,10.00,0.00,29.97,M,6.21,M,FEW,BKN,M,M,3500.00,32000.00,M,M,M,YBBN 070500Z 03010KT 9999 FEW035 BKN320 26/19 Q1015 NOSIG
YBBN,2014-11-07 05:30,153.1292,-27.3917,78.80,66.20,65.33,40.00,9.00,0.00,29.97,M,6.21,M,FEW,BKN,M,M,3500.00,32000.00,M,M,M,YBBN 070530Z 04009KT 9999 FEW035 BKN320 26/19 Q1015
YBBN,2014-11-07 06:00,153.1292,-27.3917,77.00,66.20,69.33,40.00,10.00,0.00,29.97,M,6.21,M,FEW,BKN,M,M,3500.00,32000.00,M,M,M,YBBN 070600Z 04010KT 9999 FEW035 BKN320 25/19 Q1015 NOSIG
YBBN,2014-11-07 06:30,153.1292,-27.3917,77.00,64.40,65.12,50.00,9.00,0.00,30.00,M,6.21,M,FEW,BKN,M,M,2200.00,32000.00,M,M,M,YBBN 070630Z 05009KT 9999 FEW022 BKN320 25/18 Q1016
YBBN,2014-11-07 07:00,153.1292,-27.3917,77.00,64.40,65.12,70.00,9.00,0.00,30.00,M,6.21,M,FEW,SCT,BKN,M,2000.00,3200.00,32000.00,M,M,YBBN 070700Z 07009KT 9999 FEW020 SCT032 BKN320 25/18 Q1016
YBBN,2014-11-07 07:30,153.1292,-27.3917,75.20,64.40,69.14,60.00,10.00,0.00,30.00,M,6.21,M,FEW,SCT,BKN,M,1500.00,2200.00,32000.00,M,M,YBBN 070730Z 06010KT 9999 FEW015 SCT022 BKN320 24/18 Q1016
YBBN,2014-11-07 08:00,153.1292,-27.3917,75.20,66.20,73.61,100.00,8.00,0.00,30.03,M,6.21,M,FEW,SCT,BKN,M,1500.00,2200.00,32000.00,M,M,YBBN 070800Z 10008KT 9999 FEW015 SCT022 BKN320 24/19 Q1017 NOSIG
YBBN,2014-11-07 08:30,153.1292,-27.3917,73.40,66.20,78.19,120.00,10.00,0.00,30.03,M,6.21,M,FEW,SCT,BKN,M,1500.00,2200.00,32000.00,M,M,YBBN 070830Z 12010KT 9999 FEW015 SCT022 BKN320 23/19 Q1017
YBBN,2014-11-07 09:00,153.1292,-27.3917,73.40,64.40,73.44,120.00,10.00,0.00,30.06,M,6.21,M,FEW,BKN,BKN,M,1800.00,3300.00,32000.00,M,M,YBBN 070900Z 12010KT 9999 FEW018 BKN033 BKN320 23/18 Q1018
YBBN,2014-11-07 09:30,153.1292,-27.3917,73.40,66.20,78.19,110.00,9.00,0.00,30.06,M,6.21,M,FEW,BKN,M,M,2000.00,32000.00,M,M,M,YBBN 070930Z 11009KT 9999 FEW020 BKN320 23/19 Q1018
YBBN,2014-11-07 10:00,153.1292,-27.3917,73.40,68.00,83.21,130.00,7.00,0.00,30.09,M,6.21,M,FEW,BKN,M,M,1700.00,32000.00,M,M,M,YBBN 071000Z 13007KT 9999 FEW017 BKN320 23/20 Q1019
YBBN,2014-11-07 10:30,153.1292,-27.3917,73.40,68.00,83.21,140.00,8.00,0.00,30.09,M,6.21,M,FEW,BKN,M,M,1500.00,32000.00,M,M,M,YBBN 071030Z 14008KT 9999 FEW015 BKN320 23/20 Q1019
YBBN,2014-11-07 11:00,153.1292,-27.3917,71.60,66.20,83.09,150.00,6.00,0.00,30.09,M,6.21,M,FEW,BKN,M,M,1500.00,32000.00,M,M,M,YBBN 071100Z 15006KT 9999 FEW015 BKN320 22/19 Q1019
YBBN,2014-11-07 11:30,153.1292,-27.3917,71.60,66.20,83.09,150.00,8.00,0.00,30.12,M,6.21,M,FEW,BKN,M,M,1500.00,32000.00,M,M,M,YBBN 071130Z 15008KT 9999 FEW015 BKN320 22/19 Q1020
YBBN,2014-11-07 12:00,153.1292,-27.3917,71.60,66.20,83.09,150.00,7.00,0.00,30.12,M,6.21,M,FEW,BKN,M,M,1500.00,32000.00,M,M,M,YBBN 071200Z 15007KT 9999 FEW015 BKN320 22/19 Q1020
YBBN,2014-11-07 12:30,153.1292,-27.3917,71.60,66.20,83.09,160.00,6.00,0.00,30.12,M,6.21,M,FEW,SCT,BKN,M,1500.00,1700.00,3000.00,M,VCSH,YBBN 071230Z 16006KT 9999 VCSH FEW015 SCT017 BKN030 22/19 Q1020
YBBN,2014-11-07 13:00,153.1292,-27.3917,71.60,66.20,83.09,160.00,5.00,0.00,30.12,M,6.21,M,FEW,SCT,BKN,M,1500.00,2000.00,3000.00,M,SHRA,YBBN 071300Z 16005KT 9999 SHRA FEW015 SCT020 BKN030 22/19 Q1020
YBBN,2014-11-07 13:30,153.1292,-27.3917,71.60,66.20,83.09,150.00,5.00,0.00,30.12,M,6.21,M,FEW,SCT,BKN,M,1500.00,2000.00,3000.00,M,-SHRA,YBBN 071330Z 15005KT 9999 -SHRA FEW015 SCT020 BKN030 22/19 Q1020
YBBN,2014-11-07 14:00,153.1292,-27.3917,71.60,66.20,83.09,170.00,5.00,0.00,30.12,M,6.21,M,FEW,SCT,BKN,M,1500.00,3400.00,38000.00,M,M,YBBN 071400Z 17005KT 9999 FEW015 SCT034 BKN380 22/19 Q1020 NOSIG
YBBN,2014-11-07 14:30,153.1292,-27.3917,71.60,66.20,83.09,170.00,8.00,0.00,30.09,M,6.21,M,FEW,SCT,BKN,M,1500.00,3500.00,32000.00,M,-SHRA,YBBN 071430Z 17008KT 9999 -SHRA FEW015 SCT035 BKN320 22/19 Q1019
YBBN,2014-11-07 15:00,153.1292,-27.3917,69.80,66.20,88.34,170.00,7.00,0.00,30.09,M,6.21,M,FEW,SCT,BKN,M,1500.00,2000.00,4500.00,M,-SHRA,YBBN 071500Z 17007KT 9999 -SHRA FEW015 SCT020 BKN045 21/19 Q1019
YBBN,2014-11-07 15:30,153.1292,-27.3917,69.80,66.20,88.34,150.00,9.00,0.00,30.09,M,6.21,M,FEW,SCT,BKN,M,1500.00,4300.00,11500.00,M,M,YBBN 071530Z 15009KT 9999 FEW015 SCT043 BKN115 21/19 Q1019
YBBN,2014-11-07 16:00,153.1292,-27.3917,69.80,66.20,88.34,160.00,6.00,0.00,30.09,M,6.21,M,FEW,SCT,BKN,M,1500.00,3000.00,11500.00,M,-SHRA,YBBN 071600Z 16006KT 9999 -SHRA FEW015 SCT030 BKN115 21/19 Q1019
YBBN,2014-11-07 16:30,153.1292,-27.3917,69.80,66.20,88.34,150.00,5.00,0.00,30.09,M,6.21,M,FEW,SCT,BKN,M,1500.00,2000.00,3500.00,M,-SHRA,YBBN 071630Z 15005KT 9999 -SHRA FEW015 SCT020 BKN035 21/19 Q1019
YBBN,2014-11-07 17:00,153.1292,-27.3917,69.80,64.40,82.98,170.00,8.00,0.00,30.09,M,6.21,M,FEW,SCT,BKN,M,1500.00,2000.00,3500.00,M,M,YBBN 071700Z 17008KT 9999 FEW015 SCT020 BKN035 21/18 Q1019
YBBN,2014-11-07 17:30,153.1292,-27.3917,69.80,64.40,82.98,170.00,6.00,0.00,30.09,M,6.21,M,FEW,SCT,BKN,M,2000.00,3200.00,5000.00,M,M,YBBN 071730Z 17006KT 9999 FEW020 SCT032 BKN050 21/18 Q1019
YBBN,2014-11-07 18:00,153.1292,-27.3917,69.80,64.40,82.98,170.00,7.00,0.00,30.09,M,6.21,M,SCT,BKN,M,M,3800.00,6500.00,M,M,M,YBBN 071800Z 17007KT 9999 SCT038 BKN065 21/18 Q1019
YBBN,2014-11-07 18:30,153.1292,-27.3917,69.80,62.60,77.90,160.00,6.00,0.00,30.09,M,6.21,M,FEW,SCT,M,M,2000.00,4000.00,M,M,M,YBBN 071830Z 16006KT 9999 FEW020 SCT040 21/17 Q1019
YBBN,2014-11-07 19:00,153.1292,-27.3917,68.00,62.60,82.86,160.00,6.00,0.00,30.09,M,6.21,M,FEW,SCT,M,M,2000.00,6500.00,M,M,M,YBBN 071900Z 16006KT 9999 FEW020 SCT065 20/17 Q1019
YBBN,2014-11-07 19:30,153.1292,-27.3917,69.80,62.60,77.90,160.00,6.00,0.00,30.12,M,6.21,M,FEW,SCT,M,M,1500.00,6500.00,M,M,M,YBBN 071930Z 16006KT 9999 FEW015 SCT065 21/17 Q1020
YBBN,2014-11-07 20:00,153.1292,-27.3917,69.80,62.60,77.90,150.00,7.00,0.00,30.12,M,6.21,M,FEW,SCT,M,M,1500.00,5000.00,M,M,M,YBBN 072000Z 15007KT 9999 FEW015 SCT050 21/17 Q1020
YBBN,2014-11-07 20:30,153.1292,-27.3917,71.60,62.60,73.27,150.00,7.00,0.00,30.12,M,6.21,M,FEW,SCT,M,M,1600.00,5000.00,M,M,M,YBBN 072030Z 15007KT 9999 FEW016 SCT050 22/17 Q1020
YBBN,2014-11-07 21:00,153.1292,-27.3917,71.60,60.80,68.75,150.00,7.00,0.00,30.12,M,6.21,M,FEW,SCT,M,M,1800.00,5000.00,M,M,M,YBBN 072100Z 15007KT 9999 FEW018 SCT050 22/16 Q1020 NOSIG
YBBN,2014-11-07 21:30,153.1292,-27.3917,75.20,60.80,60.90,140.00,8.00,0.00,30.15,M,6.21,M,FEW,SCT,M,M,2200.00,6000.00,M,M,M,YBBN 072130Z 14008KT 9999 FEW022 SCT060 24/16 Q1021
YBBN,2014-11-07 22:00,153.1292,-27.3917,75.20,59.00,57.12,140.00,7.00,0.00,30.15,M,6.21,M,FEW,SCT,M,M,2200.00,6000.00,M,M,M,YBBN 072200Z 14007KT 9999 FEW022 SCT060 24/15 Q1021 NOSIG
YBBN,2014-11-07 22:30,153.1292,-27.3917,75.20,59.00,57.12,110.00,10.00,0.00,30.15,M,6.21,M,FEW,M,M,M,2400.00,M,M,M,M,YBBN 072230Z 11010KT 9999 FEW024 24/15 Q1021
YBBN,2014-11-07 23:00,153.1292,-27.3917,77.00,60.80,57.36,110.00,9.00,0.00,30.15,M,6.21,M,FEW,M,M,M,2500.00,M,M,M,M,YBBN 072300Z 11009KT 9999 FEW025 25/16 Q1021 NOSIG
YBBN,2014-11-07 23:30,153.1292,-27.3917,77.00,60.80,57.36,100.00,9.00,0.00,30.15,M,6.21,M,FEW,M,M,M,2500.00,M,M,M,M,YBBN 072330Z 10009KT 9999 FEW025 25/16 Q1021
