#DEBUG: Format Typ    -> comma
#DEBUG: Time Period   -> 2011-03-21 00:00:00+00:00 2011-03-22 00:00:00+00:00
#DEBUG: Time Zone     -> Etc/UTC
#DEBUG: Data Contact   -> daryl herzmann akrherz@iastate.edu 515-294-5978
#DEBUG: Entries Found -> -1
station,valid,lon,lat,tmpf, dwpf, relh, drct, sknt, p01i, alti, mslp, vsby, gust, skyc1, skyc2, skyc3, skyc4, skyl1, skyl2, skyl3, skyl4, presentwx, metar
YBBN,2011-03-21 00:00,153.1292,-27.3917,80.60,71.60,74.11,190.00,4.00,M,29.68,M,6.21,M,FEW,BKN,M,M,1500.00,2100.00,M,M,M,YBBN 210000Z 19004KT 9999 FEW015 BKN021 27/22 Q1005 NOSIG
YBBN,2011-03-21 00:30,153.1292,-27.3917,80.60,71.60,74.11,200.00,3.00,M,29.65,M,6.21,M,FEW,SCT,M,M,1700.00,2300.00,M,M,M,YBBN 210030Z 20003KT 9999 FEW017 SCT023 27/22 Q1004 NOSIG
YBBN,2011-03-21 01:00,153.1292,-27.3917,80.60,71.60,74.11,150.00,4.00,M,29.65,M,6.21,M,BKN,M,M,M,1900.00,M,M,M,M,YBBN 210100Z 15004KT 9999 BKN019 27/22 Q1004 NOSIG
YBBN,2011-03-21 01:30,153.1292,-27.3917,80.60,71.60,74.11,350.00,6.00,M,29.65,M,6.21,M,BKN,M,M,M,1900.00,M,M,M,M,YBBN 210130Z 35006KT 9999 BKN019 27/22 Q1004 NOSIG
YBBN,2011-03-21 02:00,153.1292,-27.3917,82.40,71.60,69.90,100.00,5.00,M,29.65,M,6.21,M,SCT,SCT,M,M,2000.00,4200.00,M,M,M,YBBN 210200Z 10005KT 9999 SCT020 SCT042 28/22 Q1004 NOSIG
YBBN,2011-03-21 02:30,153.1292,-27.3917,82.40,71.60,69.90,50.00,7.00,M,29.62,M,6.21,M,FEW,BKN,M,M,2500.00,4100.00,M,M,M,YBBN 210230Z 05007KT 9999 FEW025 BKN041 28/22 Q1003 NOSIG
YBBN,2011-03-21 03:00,153.1292,-27.3917,84.20,71.60,65.95,80.00,4.00,M,29.62,M,6.21,M,FEW,SCT,M,M,2500.00,4300.00,M,M,M,YBBN 210300Z 08004KT 9999 FEW025 SCT043 29/22 Q1003 NOSIG
YBBN,2011-03-21 03:30,153.1292,-27.3917,82.40,71.60,69.90,30.00,8.00,M,29.59,M,6.21,M,FEW,SCT,M,M,2500.00,4300.00,M,M,M,YBBN 210330Z 03008KT 9999 FEW025 SCT043 28/22 Q1002 NOSIG
YBBN,2011-03-21 04:00,153.1292,-27.3917,82.40,73.40,74.28,30.00,8.00,M,29.59,M,6.21,M,FEW,SCT,M,M,2500.00,4300.00,M,M,M,YBBN 210400Z 03008KT 9999 FEW025 SCT043 28/23 Q1002 NOSIG
YBBN,2011-03-21 04:30,153.1292,-27.3917,82.40,73.40,74.28,40.00,8.00,M,29.59,M,6.21,M,FEW,SCT,M,M,2500.00,4500.00,M,M,M,YBBN 210430Z 04008KT 9999 FEW025 SCT045 28/23 Q1002 NOSIG
YBBN,2011-03-21 05:00,153.1292,-27.3917,82.40,75.20,78.90,50.00,8.00,M,29.59,M,6.21,M,FEW,BKN,M,M,2500.00,4900.00,M,M,M,YBBN 210500Z 05008KT 9999 FEW025 BKN049 28/24 Q1002 NOSIG
YBBN,2011-03-21 05:30,153.1292,-27.3917,82.40,73.40,74.28,60.00,7.00,M,29.59,M,6.21,M,FEW,SCT,M,M,2500.00,5000.00,M,M,M,YBBN 210530Z 06007KT 9999 FEW025 SCT050 28/23 Q1002 NOSIG
YBBN,2011-03-21 06:00,153.1292,-27.3917,82.40,73.40,74.28,50.00,7.00,M,29.59,M,6.21,M,FEW,SCT,M,M,2500.00,5500.00,M,M,M,YBBN 210600Z 05007KT 9999 FEW025 SCT055 28/23 Q1002 NOSIG
YBBN,2011-03-21 06:30,153.1292,-27.3917,82.40,75.20,78.90,40.00,8.00,M,29.59,M,6.21,M,FEW,M,M,M,1600.00,M,M,M,M,YBBN 210630Z 04008KT 9999 FEW016 28/24 Q1002 NOSIG
YBBN,2011-03-21 07:00,153.1292,-27.3917,80.60,73.40,78.76,80.00,6.00,M,29.59,M,6.21,M,FEW,M,M,M,1600.00,M,M,M,M,YBBN 210700Z 08006KT 9999 FEW016 27/23 Q1002 NOSIG
YBBN,2011-03-21 07:30,153.1292,-27.3917,80.60,73.40,78.76,80.00,4.00,M,29.59,M,6.21,M,FEW,M,M,M,1600.00,M,M,M,M,YBBN 210730Z 08004KT 9999 FEW016 27/23 Q1002 NOSIG
YBBN,2011-03-21 08:00,153.1292,-27.3917,78.80,73.40,83.55,70.00,5.00,M,29.59,M,6.21,M,FEW,M,M,M,1600.00,M,M,M,M,YBBN 210800Z 07005KT 9999 FEW016 26/23 Q1002 NOSIG
YBBN,2011-03-21 08:30,153.1292,-27.3917,78.80,73.40,83.55,70.00,5.00,M,29.59,M,6.21,M,FEW,M,M,M,1600.00,M,M,M,M,YBBN 210830Z 07005KT 9999 FEW016 26/23 Q1002 NOSIG
YBBN,2011-03-21 09:00,153.1292,-27.3917,78.80,73.40,83.55,70.00,4.00,M,29.62,M,6.21,M,FEW,M,M,M,1600.00,M,M,M,M,YBBN 210900Z 07004KT 9999 FEW016 26/23 Q1003 NOSIG
YBBN,2011-03-21 09:30,153.1292,-27.3917,78.80,75.20,88.75,70.00,5.00,M,29.62,M,6.21,M,FEW,M,M,M,2000.00,M,M,M,M,YBBN 210930Z 07005KT 9999 FEW020 26/24 Q1003 NOSIG
YBBN,2011-03-21 10:00,153.1292,-27.3917,77.00,75.20,94.19,80.00,4.00,M,29.65,M,6.21,M,FEW,M,M,M,1800.00,M,M,M,M,YBBN 211000Z 08004KT 9999 FEW018 25/24 Q1004 NOSIG
YBBN,2011-03-21 10:30,153.1292,-27.3917,77.00,73.40,88.67,60.00,2.00,M,29.65,M,6.21,M,FEW,M,M,M,1800.00,M,M,M,M,YBBN 211030Z 06002KT 9999 FEW018 25/23 Q1004 NOSIG
YBBN,2011-03-21 11:00,153.1292,-27.3917,77.00,73.40,88.67,0.00,0.00,M,29.65,M,6.21,M,FEW,M,M,M,1600.00,M,M,M,M,YBBN 211100Z 00000KT 9999 FEW016 25/23 Q1004 NOSIG
YBBN,2011-03-21 11:30,153.1292,-27.3917,77.00,73.40,88.67,60.00,1.00,M,29.65,M,6.21,M,FEW,M,M,M,1600.00,M,M,M,M,YBBN 211130Z 06001KT 9999 FEW016 25/23 Q1004 NOSIG
YBBN,2011-03-21 12:00,153.1292,-27.3917,75.20,75.20,100.00,360.00,4.00,M,29.65,M,6.21,M,FEW,M,M,M,1600.00,M,M,M,M,YBBN 211200Z 36004KT 9999 FEW016 24/24 Q1004 NOSIG
YBBN,2011-03-21 12:30,153.1292,-27.3917,77.00,75.20,94.19,20.00,3.00,M,29.62,M,6.21,M,FEW,M,M,M,1600.00,M,M,M,M,YBBN 211230Z 02003KT 9999 FEW016 25/24 Q1003 NOSIG
YBBN,2011-03-21 13:00,153.1292,-27.3917,75.20,73.40,94.14,10.00,5.00,M,29.62,M,6.21,M,FEW,M,M,M,1600.00,M,M,M,M,YBBN 211300Z 01005KT 9999 FEW016 24/23 Q1003 NOSIG
YBBN,2011-03-21 13:30,153.1292,-27.3917,77.00,75.20,94.19,320.00,6.00,M,29.62,M,6.21,M,FEW,SCT,M,M,1000.00,2200.00,M,M,M,YBBN 211330Z 32006KT 9999 FEW010 SCT022 25/24 Q1003 NOSIG
YBBN,2011-03-21 14:00,153.1292,-27.3917,77.00,75.20,94.19,310.00,6.00,M,29.62,M,6.21,M,FEW,BKN,M,M,1000.00,2400.00,M,M,M,YBBN 211400Z 31006KT 9999 FEW010 BKN024 25/24 Q1003 NOSIG
YBBN,2011-03-21 14:30,153.1292,-27.3917,75.20,75.20,100.00,310.00,5.00,M,29.62,M,6.21,M,FEW,M,M,M,1000.00,M,M,M,M,YBBN 211430Z 31005KT 9999 FEW010 24/24 Q1003 NOSIG
YBBN,2011-03-21 15:00,153.1292,-27.3917,75.20,75.20,100.00,320.00,5.00,M,29.62,M,6.21,M,FEW,M,M,M,1400.00,M,M,M,M,YBBN 211500Z 32005KT 9999 FEW014 24/24 Q1003 NOSIG
YBBN,2011-03-21 15:30,153.1292,-27.3917,75.20,73.40,94.14,300.00,4.00,M,29.59,M,6.21,M,FEW,M,M,M,3500.00,M,M,M,M,YBBN 211530Z 30004KT 9999 FEW035 24/23 Q1002 NOSIG
YBBN,2011-03-21 16:00,153.1292,-27.3917,75.20,73.40,94.14,280.00,3.00,M,29.59,M,6.21,M,M,M,M,M,M,M,M,M,M,YBBN 211600Z 28003KT CAVOK 24/23 Q1002 NOSIG
YBBN,2011-03-21 16:30,153.1292,-27.3917,75.20,73.40,94.14,0.00,0.00,M,29.56,M,6.21,M,M,M,M,M,M,M,M,M,M,YBBN 211630Z 00000KT CAVOK 24/23 Q1001 NOSIG
YBBN,2011-03-21 17:00,153.1292,-27.3917,73.40,73.40,100.00,330.00,3.00,M,29.56,M,6.21,M,M,M,M,M,M,M,M,M,M,YBBN 211700Z 33003KT CAVOK 23/23 Q1001 NOSIG
YBBN,2011-03-21 17:30,153.1292,-27.3917,73.40,73.40,100.00,330.00,4.00,M,29.56,M,6.21,M,M,M,M,M,M,M,M,M,M,YBBN 211730Z 33004KT CAVOK 23/23 Q1001 RMK 6AC090 NOSIG
YBBN,2011-03-21 18:00,153.1292,-27.3917,73.40,73.40,100.00,310.00,4.00,M,29.56,M,6.21,M,M,M,M,M,M,M,M,M,M,YBBN 211800Z 31004KT CAVOK 23/23 Q1001 RMK 7AC080 NOSIG
YBBN,2011-03-21 18:30,153.1292,-27.3917,75.20,73.40,94.14,240.00,2.00,M,29.56,M,6.21,M,M,M,M,M,M,M,M,M,M,YBBN 211830Z 24002KT CAVOK 24/23 Q1001 RMK 7AC090 NOSIG
YBBN,2011-03-21 19:00,153.1292,-27.3917,75.20,73.40,94.14,0.00,0.00,M,29.56,M,6.21,M,M,M,M,M,M,M,M,M,M,YBBN 211900Z 00000KT CAVOK 24/23 Q1001 RMK 7AC087 NOSIG
YBBN,2011-03-21 19:30,153.1292,-27.3917,75.20,73.40,94.14,320.00,3.00,M,29.56,M,6.21,M,M,M,M,M,M,M,M,M,M,YBBN 211930Z 32003KT CAVOK 24/23 Q1001 RMK 7AC090 NOSIG
YBBN,2011-03-21 20:00,153.1292,-27.3917,75.20,73.40,94.14,270.00,4.00,M,29.56,M,6.21,M,FEW,BKN,M,M,1800.00,9000.00,M,M,M,YBBN 212000Z 27004KT 9999 FEW018 BKN090 24/23 Q1001 NOSIG
YBBN,2011-03-21 20:30,153.1292,-27.3917,75.20,73.40,94.14,260.00,2.00,M,29.59,M,6.21,M,FEW,BKN,M,M,2000.00,8700.00,M,M,M,YBBN 212030Z 26002KT 9999 FEW020 BKN087 24/23 Q1002 NOSIG
YBBN,2011-03-21 21:00,153.1292,-27.3917,77.00,75.20,94.19,210.00,5.00,M,29.59,M,6.21,M,FEW,BKN,M,M,2000.00,8500.00,M,M,M,YBBN 212100Z 21005KT 9999 FEW020 BKN085 25/24 Q1002 NOSIG
YBBN,2011-03-21 21:30,153.1292,-27.3917,77.00,73.40,88.67,220.00,1.00,M,29.59,M,6.21,M,FEW,BKN,M,M,2000.00,8500.00,M,M,M,YBBN 212130Z 22001KT 9999 FEW020 BKN085 25/23 Q1002 NOSIG
YBBN,2011-03-21 22:00,153.1292,-27.3917,78.80,73.40,83.55,0.00,0.00,M,29.62,M,6.21,M,FEW,BKN,M,M,2000.00,8500.00,M,M,M,YBBN 212200Z 00000KT 9999 FEW020 BKN085 26/23 Q1003 NOSIG
YBBN,2011-03-21 22:30,153.1292,-27.3917,78.80,75.20,88.75,100.00,2.00,M,29.62,M,6.21,M,FEW,BKN,M,M,2000.00,8300.00,M,M,M,YBBN 212230Z 10002KT 9999 FEW020 BKN083 26/24 Q1003 NOSIG
YBBN,2011-03-21 23:00,153.1292,-27.3917,80.60,75.20,83.66,0.00,0.00,M,29.62,M,6.21,M,FEW,BKN,M,M,1800.00,8500.00,M,M,M,YBBN 212300Z 00000KT 9999 FEW018 BKN085 27/24 Q1003 NOSIG
YBBN,2011-03-21 23:30,153.1292,-27.3917,82.40,75.20,78.90,0.00,0.00,M,29.62,M,6.21,M,FEW,BKN,M,M,2000.00,8500.00,M,M,M,YBBN 212330Z 00000KT 9999 FEW020 BKN085 28/24 Q1003 NOSIG
