#DEBUG: Format Typ    -> comma
#DEBUG: Time Period   -> 2014-08-24 00:00:00+00:00 2014-08-25 00:00:00+00:00
#DEBUG: Time Zone     -> Etc/UTC
#DEBUG: Data Contact   -> daryl herzmann akrherz@iastate.edu 515-294-5978
#DEBUG: Entries Found -> -1
station,valid,lon,lat,tmpf, dwpf, relh, drct, sknt, p01i, alti, mslp, vsby, gust, skyc1, skyc2, skyc3, skyc4, skyl1, skyl2, skyl3, skyl4, presentwx, metar
YBBN,2014-08-24 00:00,153.1292,-27.3917,62.60,59.00,88.00,160.00,12.00,0.00,30.21,M,6.21,24.00,SCT,BKN,M,M,3200.00,3800.00,M,M,M,YBBN 240000Z 16012G24KT 9999 SCT032 BKN038 17/15 Q1023
YBBN,2014-08-24 00:30,153.1292,-27.3917,66.20,57.20,72.74,170.00,12.00,0.00,30.21,M,6.21,M,FEW,SCT,BKN,M,3500.00,4700.00,5500.00,M,VCSH,YBBN 240030Z 17012KT 9999 VCSH FEW035 SCT047 BKN055 19/14 Q1023
YBBN,2014-08-24 01:00,153.1292,-27.3917,66.20,55.40,68.15,160.00,11.00,0.00,30.21,M,6.21,M,SCT,BKN,M,M,3800.00,5100.00,M,M,M,YBBN 240100Z 16011KT 9999 SCT038 BKN051 19/13 Q1023
YBBN,2014-08-24 01:30,153.1292,-27.3917,68.00,53.60,59.97,160.00,11.00,0.00,30.18,M,6.21,22.00,FEW,BKN,BKN,M,1800.00,3000.00,5300.00,M,VCSH,YBBN 240130Z 16011G22KT 9999 VCSH FEW018 BKN030 BKN053 20/12 Q1022
YBBN,2014-08-24 02:00,153.1292,-27.3917,68.00,55.40,64.04,130.00,10.00,0.00,30.18,M,6.21,M,SCT,BKN,M,M,3100.00,5300.00,M,M,M,YBBN 240200Z 13010KT 9999 SCT031 BKN053 20/13 Q1022
YBBN,2014-08-24 02:30,153.1292,-27.3917,68.00,53.60,59.97,140.00,9.00,0.00,30.15,M,6.21,M,SCT,SCT,M,M,3600.00,4300.00,M,M,M,YBBN 240230Z 14009KT 9999 SCT036 SCT043 20/12 Q1021
YBBN,2014-08-24 03:00,153.1292,-27.3917,71.60,50.00,46.43,160.00,10.00,0.00,30.15,M,6.21,M,SCT,SCT,M,M,3500.00,12000.00,M,M,M,YBBN 240300Z 16010KT 9999 SCT035 SCT120 22/10 Q1021
YBBN,2014-08-24 03:30,153.1292,-27.3917,69.80,48.20,46.16,160.00,9.00,0.00,30.12,M,6.21,M,SCT,BKN,BKN,M,4000.00,5300.00,11000.00,M,M,YBBN 240330Z 16009KT 9999 SCT040 BKN053 BKN110 21/09 Q1020
YBBN,2014-08-24 04:00,153.1292,-27.3917,69.80,50.00,49.37,160.00,9.00,0.00,30.12,M,6.21,M,SCT,BKN,BKN,M,4800.00,7500.00,11500.00,M,M,YBBN 240400Z 16009KT 9999 SCT048 BKN075 BKN115 21/10 Q1020
YBBN,2014-08-24 04:30,153.1292,-27.3917,69.80,48.20,46.16,140.00,9.00,0.00,30.12,M,6.21,M,FEW,BKN,BKN,M,4800.00,7200.00,12000.00,M,M,YBBN 240430Z 14009KT 9999 FEW048 BKN072 BKN120 21/09 Q1020
YBBN,2014-08-24 05:00,153.1292,-27.3917,71.60,50.00,46.43,130.00,9.00,0.00,30.12,M,6.21,M,FEW,SCT,BKN,M,4800.00,6700.00,7900.00,M,M,YBBN 240500Z 13009KT 9999 FEW048 SCT067 BKN079 22/10 Q1020
YBBN,2014-08-24 05:30,153.1292,-27.3917,69.80,50.00,49.37,130.00,9.00,0.00,30.12,M,6.21,M,FEW,SCT,M,M,4800.00,6700.00,M,M,M,YBBN 240530Z 13009KT 9999 FEW048 SCT067 21/10 Q1020
YBBN,2014-08-24 06:00,153.1292,-27.3917,69.80,53.60,56.38,110.00,8.00,0.00,30.12,M,6.21,M,FEW,SCT,M,M,4800.00,7500.00,M,M,M,YBBN 240600Z 11008KT 9999 FEW048 SCT075 21/12 Q1020
YBBN,2014-08-24 06:30,153.1292,-27.3917,69.80,51.80,52.77,120.00,8.00,0.00,30.12,M,6.21,M,FEW,SCT,M,M,4800.00,10500.00,M,M,M,YBBN 240630Z 12008KT 9999 FEW048 SCT105 21/11 Q1020
YBBN,2014-08-24 07:00,153.1292,-27.3917,68.00,53.60,59.97,130.00,8.00,0.00,30.12,M,6.21,M,M,M,M,M,M,M,M,M,M,YBBN 240700Z 13008KT CAVOK 20/12 Q1020 NOSIG
YBBN,2014-08-24 07:30,153.1292,-27.3917,66.20,51.80,59.74,130.00,8.00,0.00,30.15,M,6.21,M,M,M,M,M,M,M,M,M,M,YBBN 240730Z 13008KT CAVOK 19/11 Q1021
YBBN,2014-08-24 08:00,153.1292,-27.3917,66.20,51.80,59.74,130.00,6.00,0.00,30.15,M,6.21,M,M,M,M,M,M,M,M,M,M,YBBN 240800Z 13006KT CAVOK 19/11 Q1021 NOSIG
YBBN,2014-08-24 08:30,153.1292,-27.3917,64.40,51.80,63.60,140.00,7.00,0.00,30.15,M,6.21,M,M,M,M,M,M,M,M,M,M,YBBN 240830Z 14007KT CAVOK 18/11 Q1021
YBBN,2014-08-24 09:00,153.1292,-27.3917,64.40,53.60,67.95,140.00,7.00,0.00,30.15,M,6.21,M,M,M,M,M,M,M,M,M,M,YBBN 240900Z 14007KT CAVOK 18/12 Q1021
YBBN,2014-08-24 09:30,153.1292,-27.3917,62.60,51.80,67.75,170.00,7.00,0.00,30.18,M,6.21,M,M,M,M,M,M,M,M,M,M,YBBN 240930Z 17007KT CAVOK 17/11 Q1022
YBBN,2014-08-24 10:00,153.1292,-27.3917,62.60,51.80,67.75,170.00,7.00,0.00,30.18,M,6.21,M,M,M,M,M,M,M,M,M,M,YBBN 241000Z 17007KT CAVOK 17/11 Q1022 NOSIG
YBBN,2014-08-24 10:30,153.1292,-27.3917,60.80,51.80,72.20,180.00,6.00,0.00,30.18,M,6.21,M,M,M,M,M,M,M,M,M,M,YBBN 241030Z 18006KT CAVOK 16/11 Q1022
YBBN,2014-08-24 11:00,153.1292,-27.3917,60.80,50.00,67.54,190.00,6.00,0.00,30.18,M,6.21,M,M,M,M,M,M,M,M,M,M,YBBN 241100Z 19006KT CAVOK 16/10 Q1022 NOSIG
YBBN,2014-08-24 11:30,153.1292,-27.3917,59.00,50.00,72.01,200.00,7.00,0.00,30.18,M,6.21,M,M,M,M,M,M,M,M,M,M,YBBN 241130Z 20007KT CAVOK 15/10 Q1022
YBBN,2014-08-24 12:00,153.1292,-27.3917,57.20,50.00,76.82,200.00,7.00,0.00,30.18,M,6.21,M,M,M,M,M,M,M,M,M,M,YBBN 241200Z 20007KT CAVOK 14/10 Q1022
YBBN,2014-08-24 12:30,153.1292,-27.3917,57.20,50.00,76.82,200.00,8.00,0.00,30.15,M,6.21,M,M,M,M,M,M,M,M,M,M,YBBN 241230Z 20008KT CAVOK 14/10 Q1021
YBBN,2014-08-24 13:00,153.1292,-27.3917,57.20,50.00,76.82,210.00,9.00,0.00,30.15,M,6.21,M,M,M,M,M,M,M,M,M,M,YBBN 241300Z 21009KT CAVOK 14/10 Q1021
YBBN,2014-08-24 13:30,153.1292,-27.3917,57.20,50.00,76.82,200.00,8.00,0.00,30.15,M,6.21,M,M,M,M,M,M,M,M,M,M,YBBN 241330Z 20008KT CAVOK 14/10 Q1021
YBBN,2014-08-24 14:00,153.1292,-27.3917,55.40,50.00,81.99,200.00,7.00,0.00,30.15,M,6.21,M,M,M,M,M,M,M,M,M,M,YBBN 241400Z 20007KT CAVOK 13/10 Q1021
YBBN,2014-08-24 14:30,153.1292,-27.3917,55.40,50.00,81.99,210.00,8.00,0.00,30.15,M,6.21,M,M,M,M,M,M,M,M,M,M,YBBN 241430Z 21008KT CAVOK 13/10 Q1021
YBBN,2014-08-24 15:00,153.1292,-27.3917,57.20,50.00,76.82,200.00,9.00,0.00,30.15,M,6.21,M,FEW,M,M,M,2500.00,M,M,M,M,YBBN 241500Z 20009KT 9999 FEW025 14/10 Q1021
YBBN,2014-08-24 15:30,153.1292,-27.3917,55.40,50.00,81.99,200.00,8.00,0.00,30.12,M,6.21,M,M,M,M,M,M,M,M,M,M,YBBN 241530Z 20008KT CAVOK 13/10 Q1020
YBBN,2014-08-24 16:00,153.1292,-27.3917,55.40,51.80,87.65,200.00,8.00,0.00,30.12,M,6.21,M,FEW,M,M,M,3800.00,M,M,M,M,YBBN 241600Z 20008KT 9999 FEW038 13/11 Q1020
YBBN,2014-08-24 16:30,153.1292,-27.3917,57.20,51.80,82.12,200.00,9.00,0.00,30.12,M,6.21,M,FEW,M,M,M,3800.00,M,M,M,M,YBBN 241630Z 20009KT 9999 FEW038 14/11 Q1020
YBBN,2014-08-24 17:00,153.1292,-27.3917,57.20,51.80,82.12,200.00,9.00,0.00,30.09,M,6.21,M,M,M,M,M,M,M,M,M,M,YBBN 241700Z 20009KT CAVOK 14/11 Q1019
YBBN,2014-08-24 17:30,153.1292,-27.3917,57.20,51.80,82.12,200.00,10.00,0.00,30.09,M,6.21,M,M,M,M,M,M,M,M,M,M,YBBN 241730Z 20010KT CAVOK 14/11 Q1019
YBBN,2014-08-24 18:00,153.1292,-27.3917,57.20,51.80,82.12,200.00,10.00,0.00,30.09,M,6.21,M,M,M,M,M,M,M,M,M,M,YBBN 241800Z 20010KT CAVOK 14/11 Q1019 NOSIG
YBBN,2014-08-24 18:30,153.1292,-27.3917,57.20,51.80,82.12,200.00,9.00,0.00,30.09,M,6.21,M,FEW,M,M,M,4900.00,M,M,M,M,YBBN 241830Z 20009KT 9999 FEW049 14/11 Q1019
YBBN,2014-08-24 19:00,153.1292,-27.3917,55.40,51.80,87.65,200.00,10.00,0.00,30.09,M,6.21,M,FEW,M,M,M,4900.00,M,M,M,M,YBBN 241900Z 20010KT 9999 FEW049 13/11 Q1019
YBBN,2014-08-24 19:30,153.1292,-27.3917,55.40,51.80,87.65,200.00,8.00,0.00,30.12,M,6.21,M,FEW,M,M,M,4900.00,M,M,M,M,YBBN 241930Z 20008KT 9999 FEW049 13/11 Q1020
YBBN,2014-08-24 20:00,153.1292,-27.3917,55.40,51.80,87.65,200.00,10.00,0.00,30.12,M,6.21,M,FEW,M,M,M,3400.00,M,M,M,M,YBBN 242000Z 20010KT 9999 FEW034 13/11 Q1020 NOSIG
YBBN,2014-08-24 20:30,153.1292,-27.3917,57.20,51.80,82.12,200.00,10.00,0.00,30.12,M,6.21,M,FEW,M,M,M,3400.00,M,M,M,M,YBBN 242030Z 20010KT 9999 FEW034 14/11 Q1020
YBBN,2014-08-24 21:00,153.1292,-27.3917,59.00,51.80,76.98,200.00,10.00,0.00,30.12,M,6.21,M,FEW,M,M,M,3400.00,M,M,M,M,YBBN 242100Z 20010KT 9999 FEW034 15/11 Q1020 NOSIG
YBBN,2014-08-24 21:30,153.1292,-27.3917,59.00,51.80,76.98,200.00,12.00,0.00,30.15,M,6.21,M,FEW,M,M,M,2200.00,M,M,M,M,YBBN 242130Z 20012KT 9999 FEW022 15/11 Q1021
YBBN,2014-08-24 22:00,153.1292,-27.3917,60.80,53.60,77.14,200.00,15.00,0.00,30.15,M,6.21,M,FEW,M,M,M,2200.00,M,M,M,M,YBBN 242200Z 20015KT 9999 FEW022 16/12 Q1021 NOSIG
YBBN,2014-08-24 22:30,153.1292,-27.3917,62.60,53.60,72.38,210.00,15.00,0.00,30.15,M,6.21,M,FEW,M,M,M,2200.00,M,M,M,M,YBBN 242230Z 21015KT 9999 FEW022 17/12 Q1021
YBBN,2014-08-24 23:00,153.1292,-27.3917,66.20,53.60,63.82,200.00,13.00,0.00,30.15,M,6.21,M,FEW,M,M,M,2500.00,M,M,M,M,YBBN 242300Z 20013KT 9999 FEW025 19/12 Q1021 NOSIG
YBBN,2014-08-24 23:30,153.1292,-27.3917,68.00,53.60,59.97,190.00,11.00,0.00,30.15,M,6.21,M,FEW,M,M,M,2500.00,M,M,M,M,YBBN 242330Z 19011KT 9999 FEW025 20/12 Q1021
