#DEBUG: Format Typ    -> comma
#DEBUG: Time Period   -> 2010-11-10 00:00:00+00:00 2010-11-11 00:00:00+00:00
#DEBUG: Time Zone     -> Etc/UTC
#DEBUG: Data Contact   -> daryl herzmann akrherz@iastate.edu 515-294-5978
#DEBUG: Entries Found -> -1
station,valid,lon,lat,tmpf, dwpf, relh, drct, sknt, p01i, alti, mslp, vsby, gust, skyc1, skyc2, skyc3, skyc4, skyl1, skyl2, skyl3, skyl4, presentwx, metar
YBBN,2010-11-10 00:00,153.1292,-27.3917,75.20,62.60,64.91,50.00,9.00,M,30.21,M,6.21,M,FEW,M,M,M,3000.00,M,M,M,M,YBBN 100000Z 05009KT 9999 FEW030 24/17 Q1023 NOSIG
YBBN,2010-11-10 00:30,153.1292,-27.3917,77.00,62.60,61.13,50.00,8.00,M,30.21,M,6.21,M,FEW,M,M,M,3000.00,M,M,M,M,YBBN 100030Z 05008KT 9999 FEW030 25/17 Q1023 NOSIG
YBBN,2010-11-10 01:00,153.1292,-27.3917,77.00,62.60,61.13,50.00,9.00,M,30.21,M,6.21,M,SCT,M,M,M,3000.00,M,M,M,M,YBBN 100100Z 05009KT 9999 SCT030 25/17 Q1023 NOSIG
YBBN,2010-11-10 01:30,153.1292,-27.3917,75.20,59.00,57.12,70.00,9.00,M,30.18,M,6.21,M,SCT,SCT,M,M,3000.00,7000.00,M,M,M,YBBN 100130Z 07009KT 9999 SCT030 SCT070 24/15 Q1022 NOSIG
YBBN,2010-11-10 02:00,153.1292,-27.3917,77.00,62.60,61.13,60.00,9.00,M,30.18,M,6.21,M,FEW,BKN,M,M,3000.00,7000.00,M,M,M,YBBN 100200Z 06009KT 9999 FEW030 BKN070 25/17 Q1022 NOSIG
YBBN,2010-11-10 02:30,153.1292,-27.3917,75.20,62.60,64.91,80.00,11.00,M,30.18,M,6.21,M,FEW,BKN,M,M,3000.00,7000.00,M,M,M,YBBN 100230Z 08011KT 9999 FEW030 BKN070 24/17 Q1022 NOSIG
YBBN,2010-11-10 03:00,153.1292,-27.3917,75.20,60.80,60.90,80.00,11.00,M,30.18,M,6.21,M,FEW,BKN,M,M,3000.00,7000.00,M,M,M,YBBN 100300Z 08011KT 9999 FEW030 BKN070 24/16 Q1022 NOSIG
YBBN,2010-11-10 03:30,153.1292,-27.3917,75.20,60.80,60.90,70.00,13.00,M,30.15,M,6.21,M,FEW,BKN,M,M,3000.00,7300.00,M,M,M,YBBN 100330Z 07013KT 9999 FEW030 BKN073 24/16 Q1021 NOSIG
YBBN,2010-11-10 04:00,153.1292,-27.3917,75.20,62.60,64.91,80.00,9.00,M,30.15,M,6.21,M,FEW,BKN,M,M,3000.00,7100.00,M,M,M,YBBN 100400Z 08009KT 9999 FEW030 BKN071 24/17 Q1021 NOSIG
YBBN,2010-11-10 04:30,153.1292,-27.3917,75.20,62.60,64.91,80.00,9.00,M,30.12,M,6.21,M,FEW,BKN,BKN,M,3000.00,7300.00,30000.00,M,M,YBBN 100430Z 08009KT 9999 FEW030 BKN073 BKN300 24/17 Q1020 NOSIG
YBBN,2010-11-10 05:00,153.1292,-27.3917,75.20,60.80,60.90,50.00,12.00,M,30.12,M,6.21,M,FEW,SCT,BKN,M,3000.00,7000.00,30000.00,M,M,YBBN 100500Z 05012KT 9999 FEW030 SCT070 BKN300 24/16 Q1020 NOSIG
YBBN,2010-11-10 05:30,153.1292,-27.3917,75.20,60.80,60.90,50.00,11.00,M,30.12,M,6.21,M,FEW,BKN,M,M,3000.00,6000.00,M,M,M,YBBN 100530Z 05011KT 9999 FEW030 BKN060 24/16 Q1020 NOSIG
YBBN,2010-11-10 06:00,153.1292,-27.3917,75.20,59.00,57.12,50.00,11.00,M,30.12,M,6.21,M,FEW,SCT,BKN,M,3000.00,4900.00,30000.00,M,M,YBBN 100600Z 05011KT 9999 FEW030 SCT049 BKN300 24/15 Q1020 NOSIG
YBBN,2010-11-10 06:30,153.1292,-27.3917,73.40,60.80,64.69,50.00,10.00,M,30.12,M,6.21,M,FEW,BKN,BKN,M,3000.00,6700.00,30000.00,M,M,YBBN 100630Z 05010KT 9999 FEW030 BKN067 BKN300 23/16 Q1020 NOSIG
YBBN,2010-11-10 07:00,153.1292,-27.3917,73.40,60.80,64.69,60.00,9.00,M,30.12,M,6.21,M,FEW,BKN,M,M,3000.00,6900.00,M,M,M,YBBN 100700Z 06009KT 9999 FEW030 BKN069 23/16 Q1020 NOSIG
YBBN,2010-11-10 07:30,153.1292,-27.3917,73.40,59.00,60.67,60.00,8.00,M,30.12,M,6.21,M,FEW,BKN,M,M,1200.00,6700.00,M,M,M,YBBN 100730Z 06008KT 9999 FEW012 BKN067 23/15 Q1020 NOSIG
YBBN,2010-11-10 08:00,153.1292,-27.3917,73.40,60.80,64.69,60.00,9.00,M,30.12,M,6.21,M,FEW,BKN,M,M,1500.00,6500.00,M,M,M,YBBN 100800Z 06009KT 9999 FEW015 BKN065 23/16 Q1020 NOSIG
YBBN,2010-11-10 08:30,153.1292,-27.3917,71.60,60.80,68.75,50.00,9.00,M,30.12,M,6.21,M,FEW,BKN,M,M,2400.00,34000.00,M,M,M,YBBN 100830Z 05009KT 9999 FEW024 BKN340 22/16 Q1020 NOSIG
YBBN,2010-11-10 09:00,153.1292,-27.3917,71.60,60.80,68.75,50.00,8.00,M,30.12,M,6.21,M,FEW,BKN,M,M,2400.00,34000.00,M,M,M,YBBN 100900Z 05008KT 9999 FEW024 BKN340 22/16 Q1020 NOSIG
YBBN,2010-11-10 09:30,153.1292,-27.3917,71.60,62.60,73.27,40.00,8.00,M,30.12,M,6.21,M,FEW,BKN,M,M,2400.00,34000.00,M,M,M,YBBN 100930Z 04008KT 9999 FEW024 BKN340 22/17 Q1020 NOSIG
YBBN,2010-11-10 10:00,153.1292,-27.3917,69.80,62.60,77.90,50.00,8.00,M,30.12,M,6.21,M,FEW,BKN,M,M,2200.00,34000.00,M,M,M,YBBN 101000Z 05008KT 9999 FEW022 BKN340 21/17 Q1020 NOSIG
YBBN,2010-11-10 10:30,153.1292,-27.3917,69.80,62.60,77.90,50.00,7.00,M,30.12,M,6.21,M,FEW,BKN,M,M,2200.00,34000.00,M,M,M,YBBN 101030Z 05007KT 9999 FEW022 BKN340 21/17 Q1020 NOSIG
YBBN,2010-11-10 11:00,153.1292,-27.3917,69.80,62.60,77.90,50.00,6.00,M,30.12,M,6.21,M,FEW,BKN,M,M,2200.00,34000.00,M,M,M,YBBN 101100Z 05006KT 9999 FEW022 BKN340 21/17 Q1020 NOSIG
YBBN,2010-11-10 11:30,153.1292,-27.3917,69.80,62.60,77.90,50.00,5.00,M,30.12,M,6.21,M,FEW,BKN,M,M,2200.00,34000.00,M,M,M,YBBN 101130Z 05005KT 9999 FEW022 BKN340 21/17 Q1020 NOSIG
YBBN,2010-11-10 12:00,153.1292,-27.3917,69.80,62.60,77.90,70.00,5.00,M,30.12,M,6.21,M,FEW,BKN,M,M,2200.00,36000.00,M,M,M,YBBN 101200Z 07005KT 9999 FEW022 BKN360 21/17 Q1020 NOSIG
YBBN,2010-11-10 12:30,153.1292,-27.3917,68.00,62.60,82.86,60.00,4.00,M,30.12,M,6.21,M,SCT,BKN,M,M,2200.00,36000.00,M,M,M,YBBN 101230Z 06004KT 9999 SCT022 BKN360 20/17 Q1020 NOSIG
YBBN,2010-11-10 13:00,153.1292,-27.3917,69.80,62.60,77.90,80.00,3.00,M,30.12,M,6.21,M,SCT,BKN,M,M,2200.00,38000.00,M,M,M,YBBN 101300Z 08003KT 9999 SCT022 BKN380 21/17 Q1020 NOSIG
YBBN,2010-11-10 13:30,153.1292,-27.3917,69.80,62.60,77.90,80.00,1.00,M,30.12,M,6.21,M,SCT,SCT,M,M,2200.00,38000.00,M,M,M,YBBN 101330Z 08001KT 9999 SCT022 SCT380 21/17 Q1020 NOSIG
YBBN,2010-11-10 14:00,153.1292,-27.3917,68.00,62.60,82.86,80.00,3.00,M,30.12,M,6.21,M,FEW,SCT,M,M,2200.00,38000.00,M,M,M,YBBN 101400Z 08003KT 9999 FEW022 SCT380 20/17 Q1020 NOSIG
YBBN,2010-11-10 14:30,153.1292,-27.3917,68.00,62.60,82.86,90.00,3.00,M,30.09,M,6.21,M,FEW,SCT,M,M,2200.00,38000.00,M,M,M,YBBN 101430Z 09003KT 9999 FEW022 SCT380 20/17 Q1019 NOSIG
YBBN,2010-11-10 15:00,153.1292,-27.3917,68.00,60.80,77.75,80.00,2.00,M,30.09,M,6.21,M,FEW,SCT,M,M,2200.00,38000.00,M,M,M,YBBN 101500Z 08002KT 9999 FEW022 SCT380 20/16 Q1019 NOSIG
YBBN,2010-11-10 15:30,153.1292,-27.3917,64.40,60.80,88.09,0.00,0.00,M,30.06,M,6.21,M,FEW,SCT,M,M,2200.00,38000.00,M,M,M,YBBN 101530Z 00000KT 9999 FEW022 SCT380 18/16 Q1018 NOSIG
YBBN,2010-11-10 16:00,153.1292,-27.3917,64.40,62.60,93.88,0.00,0.00,M,30.06,M,6.21,M,FEW,SCT,M,M,2200.00,38000.00,M,M,M,YBBN 101600Z 00000KT 9999 FEW022 SCT380 18/17 Q1018 NOSIG
YBBN,2010-11-10 16:30,153.1292,-27.3917,64.40,60.80,88.09,220.00,4.00,M,30.06,M,6.21,M,FEW,SCT,M,M,2200.00,38000.00,M,M,M,YBBN 101630Z 22004KT 9999 FEW022 SCT380 18/16 Q1018 NOSIG
YBBN,2010-11-10 17:00,153.1292,-27.3917,64.40,62.60,93.88,200.00,5.00,M,30.06,M,6.21,M,FEW,SCT,M,M,2200.00,38000.00,M,M,M,YBBN 101700Z 20005KT 9999 FEW022 SCT380 18/17 Q1018 NOSIG
YBBN,2010-11-10 17:30,153.1292,-27.3917,64.40,62.60,93.88,220.00,6.00,M,30.06,M,6.21,M,SCT,SCT,M,M,2200.00,38000.00,M,M,M,YBBN 101730Z 22006KT 9999 SCT022 SCT380 18/17 Q1018 NOSIG
YBBN,2010-11-10 18:00,153.1292,-27.3917,64.40,62.60,93.88,210.00,6.00,M,30.06,M,6.21,M,FEW,SCT,M,M,2200.00,3000.00,M,M,M,YBBN 101800Z 21006KT 9999 FEW022 SCT030 18/17 Q1018 NOSIG
YBBN,2010-11-10 18:30,153.1292,-27.3917,64.40,62.60,93.88,220.00,6.00,M,30.06,M,6.21,M,FEW,SCT,M,M,2200.00,3000.00,M,M,M,YBBN 101830Z 22006KT 9999 FEW022 SCT030 18/17 Q1018 NOSIG
YBBN,2010-11-10 19:00,153.1292,-27.3917,64.40,62.60,93.88,220.00,7.00,M,30.06,M,6.21,M,FEW,SCT,M,M,2000.00,3800.00,M,M,M,YBBN 101900Z 22007KT 9999 FEW020 SCT038 18/17 Q1018 NOSIG
YBBN,2010-11-10 19:30,153.1292,-27.3917,64.40,62.60,93.88,220.00,6.00,M,30.06,M,6.21,M,FEW,M,M,M,2400.00,M,M,M,M,YBBN 101930Z 22006KT 9999 FEW024 18/17 Q1018 NOSIG
YBBN,2010-11-10 20:00,153.1292,-27.3917,66.20,62.60,88.18,220.00,7.00,M,30.06,M,6.21,M,FEW,M,M,M,2400.00,M,M,M,M,YBBN 102000Z 22007KT 9999 FEW024 19/17 Q1018 NOSIG
YBBN,2010-11-10 20:30,153.1292,-27.3917,68.00,62.60,82.86,220.00,7.00,M,30.06,M,6.21,M,FEW,M,M,M,2400.00,M,M,M,M,YBBN 102030Z 22007KT 9999 FEW024 20/17 Q1018 NOSIG
YBBN,2010-11-10 21:00,153.1292,-27.3917,69.80,62.60,77.90,220.00,5.00,M,30.06,M,6.21,M,FEW,SCT,M,M,2400.00,35000.00,M,M,M,YBBN 102100Z 22005KT 9999 FEW024 SCT350 21/17 Q1018 NOSIG
YBBN,2010-11-10 21:30,153.1292,-27.3917,73.40,62.60,68.94,180.00,2.00,M,30.06,M,6.21,M,FEW,SCT,M,M,2400.00,35000.00,M,M,M,YBBN 102130Z 18002KT 9999 FEW024 SCT350 23/17 Q1018 NOSIG
YBBN,2010-11-10 22:00,153.1292,-27.3917,73.40,62.60,68.94,60.00,3.00,M,30.06,M,6.21,M,FEW,SCT,M,M,2400.00,35000.00,M,M,M,YBBN 102200Z 06003KT 9999 FEW024 SCT350 23/17 Q1018 NOSIG
YBBN,2010-11-10 22:30,153.1292,-27.3917,75.20,62.60,64.91,60.00,5.00,M,30.06,M,6.21,M,FEW,SCT,M,M,2400.00,35000.00,M,M,M,YBBN 102230Z 06005KT 9999 FEW024 SCT350 24/17 Q1018 NOSIG
YBBN,2010-11-10 23:00,153.1292,-27.3917,75.20,62.60,64.91,60.00,7.00,M,30.06,M,6.21,M,FEW,SCT,M,M,2600.00,35000.00,M,M,M,YBBN 102300Z 06007KT 9999 FEW026 SCT350 24/17 Q1018 NOSIG
YBBN,2010-11-10 23:30,153.1292,-27.3917,77.00,62.60,61.13,80.00,6.00,M,30.06,M,6.21,M,SCT,SCT,M,M,2800.00,18000.00,M,M,M,YBBN 102330Z 08006KT 9999 SCT028 SCT180 25/17 Q1018 NOSIG
