#DEBUG: Format Typ    -> comma
#DEBUG: Time Period   -> 2015-11-02 00:00:00+00:00 2015-11-03 00:00:00+00:00
#DEBUG: Time Zone     -> Etc/UTC
#DEBUG: Data Contact   -> daryl herzmann akrherz@iastate.edu 515-294-5978
#DEBUG: Entries Found -> -1
station,valid,lon,lat,tmpf, dwpf, relh, drct, sknt, p01i, alti, mslp, vsby, gust, skyc1, skyc2, skyc3, skyc4, skyl1, skyl2, skyl3, skyl4, presentwx, metar
YBBN,2015-11-02 00:00,153.1292,-27.3917,77.00,62.60,61.13,20.00,11.00,0.00,30.06,M,6.21,M,FEW,M,M,M,3000.00,M,M,M,M,YBBN 020000Z 02011KT 9999 FEW030 25/17 Q1018
YBBN,2015-11-02 00:30,153.1292,-27.3917,77.00,62.60,61.13,20.00,11.00,0.00,30.03,M,6.21,M,FEW,M,M,M,3200.00,M,M,M,M,YBBN 020030Z 02011KT 9999 FEW032 25/17 Q1017
YBBN,2015-11-02 01:00,153.1292,-27.3917,78.80,64.40,61.36,40.00,15.00,0.00,30.00,M,6.21,M,FEW,M,M,M,3500.00,M,M,M,M,YBBN 020100Z 04015KT 9999 FEW035 26/18 Q1016
YBBN,2015-11-02 01:30,153.1292,-27.3917,78.80,66.20,65.33,20.00,17.00,0.00,30.00,M,6.21,M,FEW,M,M,M,3500.00,M,M,M,M,YBBN 020130Z 02017KT 9999 FEW035 26/19 Q1016
YBBN,2015-11-02 02:00,153.1292,-27.3917,77.00,66.20,69.33,20.00,17.00,0.00,30.00,M,6.21,M,FEW,SCT,M,M,3500.00,25000.00,M,M,M,YBBN 020200Z 02017KT 9999 FEW035 SCT250 25/19 Q1016
YBBN,2015-11-02 02:30,153.1292,-27.3917,77.00,64.40,65.12,20.00,19.00,0.00,29.97,M,6.21,M,FEW,SCT,M,M,4000.00,25000.00,M,M,M,YBBN 020230Z 02019KT 9999 FEW040 SCT250 25/18 Q1015
YBBN,2015-11-02 03:00,153.1292,-27.3917,78.80,66.20,65.33,20.00,19.00,0.00,29.94,M,6.21,M,FEW,SCT,M,M,4000.00,25000.00,M,M,M,YBBN 020300Z 02019KT 9999 FEW040 SCT250 26/19 Q1014
YBBN,2015-11-02 03:30,153.1292,-27.3917,77.00,66.20,69.33,20.00,19.00,0.00,29.94,M,6.21,M,FEW,M,M,M,3500.00,M,M,M,M,YBBN 020330Z 02019KT 9999 FEW035 25/19 Q1014
YBBN,2015-11-02 04:00,153.1292,-27.3917,77.00,64.40,65.12,10.00,20.00,0.00,29.94,M,6.21,M,FEW,M,M,M,3200.00,M,M,M,M,YBBN 020400Z 01020KT 9999 FEW032 25/18 Q1014
YBBN,2015-11-02 04:30,153.1292,-27.3917,77.00,66.20,69.33,20.00,19.00,0.00,29.94,M,6.21,M,FEW,M,M,M,3000.00,M,M,M,M,YBBN 020430Z 02019KT 9999 FEW030 25/19 Q1014
YBBN,2015-11-02 05:00,153.1292,-27.3917,77.00,66.20,69.33,20.00,19.00,0.00,29.94,M,6.21,M,FEW,M,M,M,3500.00,M,M,M,M,YBBN 020500Z 02019KT 9999 FEW035 25/19 Q1014 NOSIG
YBBN,2015-11-02 05:30,153.1292,-27.3917,75.20,66.20,73.61,20.00,19.00,0.00,29.94,M,6.21,M,FEW,M,M,M,3200.00,M,M,M,M,YBBN 020530Z 02019KT 9999 FEW032 24/19 Q1014
YBBN,2015-11-02 06:00,153.1292,-27.3917,75.20,66.20,73.61,20.00,20.00,0.00,29.94,M,6.21,M,FEW,M,M,M,3500.00,M,M,M,M,YBBN 020600Z 02020KT 9999 FEW035 24/19 Q1014 NOSIG
YBBN,2015-11-02 06:30,153.1292,-27.3917,75.20,66.20,73.61,10.00,21.00,0.00,29.94,M,6.21,M,FEW,M,M,M,3200.00,M,M,M,M,YBBN 020630Z 01021KT 9999 FEW032 24/19 Q1014
YBBN,2015-11-02 07:00,153.1292,-27.3917,75.20,66.20,73.61,10.00,20.00,0.00,29.94,M,6.21,M,FEW,M,M,M,3000.00,M,M,M,M,YBBN 020700Z 01020KT 9999 FEW030 24/19 Q1014
YBBN,2015-11-02 07:30,153.1292,-27.3917,73.40,66.20,78.19,10.00,19.00,0.00,29.94,M,6.21,M,M,M,M,M,M,M,M,M,M,YBBN 020730Z 01019KT CAVOK 23/19 Q1014 RMK HAZE
YBBN,2015-11-02 08:00,153.1292,-27.3917,73.40,66.20,78.19,10.00,17.00,0.00,29.94,M,6.21,M,M,M,M,M,M,M,M,M,M,YBBN 020800Z 01017KT CAVOK 23/19 Q1014
YBBN,2015-11-02 08:30,153.1292,-27.3917,73.40,66.20,78.19,10.00,17.00,0.00,29.97,M,6.21,M,M,M,M,M,M,M,M,M,M,YBBN 020830Z 01017KT CAVOK 23/19 Q1015 RMK HAZE
YBBN,2015-11-02 09:00,153.1292,-27.3917,73.40,66.20,78.19,360.00,17.00,0.00,29.97,M,6.21,M,M,M,M,M,M,M,M,M,M,YBBN 020900Z 36017KT CAVOK 23/19 Q1015
YBBN,2015-11-02 09:30,153.1292,-27.3917,73.40,66.20,78.19,10.00,17.00,0.00,29.97,M,6.21,M,M,M,M,M,M,M,M,M,M,YBBN 020930Z 01017KT CAVOK 23/19 Q1015 RMK HAZE
YBBN,2015-11-02 10:00,153.1292,-27.3917,73.40,66.20,78.19,360.00,16.00,0.00,30.00,M,6.21,M,M,M,M,M,M,M,M,M,M,YBBN 021000Z 36016KT CAVOK 23/19 Q1016
YBBN,2015-11-02 10:30,153.1292,-27.3917,73.40,66.20,78.19,360.00,15.00,0.00,30.00,M,6.21,M,M,M,M,M,M,M,M,M,M,YBBN 021030Z 36015KT CAVOK 23/19 Q1016 RMK HAZE
YBBN,2015-11-02 11:00,153.1292,-27.3917,73.40,66.20,78.19,10.00,17.00,0.00,30.00,M,6.21,28.00,M,M,M,M,M,M,M,M,M,YBBN 021100Z 01017G28KT CAVOK 23/19 Q1016
YBBN,2015-11-02 11:30,153.1292,-27.3917,73.40,68.00,83.21,360.00,16.00,0.00,30.00,M,6.21,M,M,M,M,M,M,M,M,M,M,YBBN 021130Z 36016KT CAVOK 23/20 Q1016 RMK HAZE
YBBN,2015-11-02 12:00,153.1292,-27.3917,73.40,66.20,78.19,360.00,15.00,0.00,30.00,M,6.21,M,M,M,M,M,M,M,M,M,M,YBBN 021200Z 36015KT CAVOK 23/19 Q1016 RMK HAZE
YBBN,2015-11-02 12:30,153.1292,-27.3917,71.60,66.20,83.09,360.00,16.00,0.00,30.00,M,6.21,M,M,M,M,M,M,M,M,M,M,YBBN 021230Z 36016KT CAVOK 22/19 Q1016 RMK HAZE
YBBN,2015-11-02 13:00,153.1292,-27.3917,71.60,64.40,78.04,360.00,15.00,0.00,30.03,M,6.21,M,M,M,M,M,M,M,M,M,M,YBBN 021300Z 36015KT CAVOK 22/18 Q1017 RMK HAZE
YBBN,2015-11-02 13:30,153.1292,-27.3917,71.60,62.60,73.27,360.00,16.00,0.00,30.00,M,6.21,M,M,M,M,M,M,M,M,M,M,YBBN 021330Z 36016KT CAVOK 22/17 Q1016
YBBN,2015-11-02 14:00,153.1292,-27.3917,71.60,62.60,73.27,360.00,15.00,0.00,30.00,M,6.21,M,M,M,M,M,M,M,M,M,M,YBBN 021400Z 36015KT CAVOK 22/17 Q1016
YBBN,2015-11-02 14:30,153.1292,-27.3917,71.60,62.60,73.27,350.00,13.00,0.00,30.00,M,6.21,M,M,M,M,M,M,M,M,M,M,YBBN 021430Z 35013KT CAVOK 22/17 Q1016
YBBN,2015-11-02 15:00,153.1292,-27.3917,69.80,62.60,77.90,350.00,11.00,0.00,29.97,M,6.21,M,M,M,M,M,M,M,M,M,M,YBBN 021500Z 35011KT CAVOK 21/17 Q1015 NOSIG
YBBN,2015-11-02 15:30,153.1292,-27.3917,68.00,62.60,82.86,340.00,9.00,0.00,29.97,M,6.21,M,M,M,M,M,M,M,M,M,M,YBBN 021530Z 34009KT CAVOK 20/17 Q1015
YBBN,2015-11-02 16:00,153.1292,-27.3917,68.00,62.60,82.86,330.00,7.00,0.00,29.97,M,6.21,M,M,M,M,M,M,M,M,M,M,YBBN 021600Z 33007KT CAVOK 20/17 Q1015
YBBN,2015-11-02 16:30,153.1292,-27.3917,68.00,62.60,82.86,340.00,1.00,0.00,29.97,M,6.21,M,M,M,M,M,M,M,M,M,M,YBBN 021630Z 34001KT CAVOK 20/17 Q1015
YBBN,2015-11-02 17:00,153.1292,-27.3917,66.20,60.80,82.74,290.00,3.00,0.00,29.97,M,6.21,M,M,M,M,M,M,M,M,M,M,YBBN 021700Z 29003KT CAVOK 19/16 Q1015
YBBN,2015-11-02 17:30,153.1292,-27.3917,66.20,60.80,82.74,250.00,1.00,0.00,29.97,M,6.21,M,M,M,M,M,M,M,M,M,M,YBBN 021730Z 25001KT CAVOK 19/16 Q1015
YBBN,2015-11-02 18:00,153.1292,-27.3917,66.20,60.80,82.74,270.00,4.00,0.00,29.97,M,6.21,M,M,M,M,M,M,M,M,M,M,YBBN 021800Z 27004KT 250V320 CAVOK 19/16 Q1015
YBBN,2015-11-02 18:30,153.1292,-27.3917,64.40,60.80,88.09,320.00,5.00,0.00,29.97,M,6.21,M,M,M,M,M,M,M,M,M,M,YBBN 021830Z 32005KT CAVOK 18/16 Q1015
YBBN,2015-11-02 19:00,153.1292,-27.3917,64.40,60.80,88.09,260.00,5.00,0.00,29.97,M,6.21,M,M,M,M,M,M,M,M,M,M,YBBN 021900Z 26005KT CAVOK 18/16 Q1015
YBBN,2015-11-02 19:30,153.1292,-27.3917,66.20,62.60,88.18,260.00,5.00,0.00,30.00,M,6.21,M,M,M,M,M,M,M,M,M,M,YBBN 021930Z 26005KT CAVOK 19/17 Q1016 RMK HAZE
YBBN,2015-11-02 20:00,153.1292,-27.3917,68.00,62.60,82.86,340.00,4.00,0.00,30.00,M,6.21,M,M,M,M,M,M,M,M,M,M,YBBN 022000Z 34004KT CAVOK 20/17 Q1016 NOSIG
YBBN,2015-11-02 20:30,153.1292,-27.3917,69.80,62.60,77.90,350.00,7.00,0.00,30.00,M,6.21,M,M,M,M,M,M,M,M,M,M,YBBN 022030Z 35007KT CAVOK 21/17 Q1016
YBBN,2015-11-02 21:00,153.1292,-27.3917,71.60,62.60,73.27,330.00,7.00,0.00,30.00,M,6.21,M,M,M,M,M,M,M,M,M,M,YBBN 022100Z 33007KT CAVOK 22/17 Q1016
YBBN,2015-11-02 21:30,153.1292,-27.3917,75.20,62.60,64.91,340.00,7.00,0.00,30.00,M,6.21,M,M,M,M,M,M,M,M,M,M,YBBN 022130Z 34007KT CAVOK 24/17 Q1016
YBBN,2015-11-02 22:00,153.1292,-27.3917,75.20,64.40,69.14,360.00,7.00,0.00,30.00,M,6.21,M,M,M,M,M,M,M,M,M,M,YBBN 022200Z 36007KT CAVOK 24/18 Q1016
YBBN,2015-11-02 22:30,153.1292,-27.3917,75.20,62.60,64.91,360.00,8.00,0.00,30.00,M,6.21,M,M,M,M,M,M,M,M,M,M,YBBN 022230Z 36008KT CAVOK 24/17 Q1016
YBBN,2015-11-02 23:00,153.1292,-27.3917,77.00,62.60,61.13,30.00,10.00,0.00,29.97,M,6.21,M,M,M,M,M,M,M,M,M,M,YBBN 022300Z 03010KT CAVOK 25/17 Q1015
YBBN,2015-11-02 23:30,153.1292,-27.3917,77.00,62.60,61.13,10.00,10.00,0.00,29.97,M,6.21,M,M,M,M,M,M,M,M,M,M,YBBN 022330Z 01010KT CAVOK 25/17 Q1015
