#DEBUG: Format Typ    -> comma
#DEBUG: Time Period   -> 2011-10-16 00:00:00+00:00 2011-10-17 00:00:00+00:00
#DEBUG: Time Zone     -> Etc/UTC
#DEBUG: Data Contact   -> daryl herzmann akrherz@iastate.edu 515-294-5978
#DEBUG: Entries Found -> -1
station,valid,lon,lat,tmpf, dwpf, relh, drct, sknt, p01i, alti, mslp, vsby, gust, skyc1, skyc2, skyc3, skyc4, skyl1, skyl2, skyl3, skyl4, presentwx, metar
YBBN,2011-10-16 00:00,153.1292,-27.3917,77.00,60.80,57.36,220.00,7.00,M,29.91,M,6.21,M,FEW,M,M,M,2500.00,M,M,M,M,YBBN 160000Z 22007KT 9999 FEW025 25/16 Q1013 NOSIG
YBBN,2011-10-16 00:30,153.1292,-27.3917,77.00,62.60,61.13,110.00,6.00,M,29.91,M,6.21,M,FEW,M,M,M,2800.00,M,M,M,M,YBBN 160030Z 11006KT 9999 FEW028 25/17 Q1013
YBBN,2011-10-16 01:00,153.1292,-27.3917,78.80,60.80,54.05,100.00,6.00,M,29.91,M,6.21,M,FEW,M,M,M,3000.00,M,M,M,M,YBBN 160100Z 10006KT 9999 FEW030 26/16 Q1013 NOSIG
YBBN,2011-10-16 01:30,153.1292,-27.3917,78.80,60.80,54.05,100.00,6.00,M,29.91,M,6.21,M,FEW,M,M,M,3000.00,M,M,M,M,YBBN 160130Z 10006KT 9999 FEW030 26/16 Q1013
YBBN,2011-10-16 02:00,153.1292,-27.3917,78.80,59.00,50.69,80.00,8.00,M,29.91,M,6.21,M,FEW,M,M,M,3000.00,M,M,M,M,YBBN 160200Z 08008KT 9999 FEW030 26/15 Q1013 NOSIG
YBBN,2011-10-16 02:30,153.1292,-27.3917,80.60,59.00,47.79,70.00,9.00,M,29.91,M,6.21,M,FEW,M,M,M,3000.00,M,M,M,M,YBBN 160230Z 07009KT 9999 FEW030 27/15 Q1013
YBBN,2011-10-16 03:00,153.1292,-27.3917,78.80,62.60,57.60,30.00,10.00,M,29.91,M,6.21,M,FEW,M,M,M,3200.00,M,M,M,M,YBBN 160300Z 03010KT 9999 FEW032 26/17 Q1013 NOSIG
YBBN,2011-10-16 03:30,153.1292,-27.3917,78.80,62.60,57.60,40.00,12.00,M,29.91,M,6.21,M,FEW,M,M,M,3500.00,M,M,M,M,YBBN 160330Z 04012KT 9999 FEW035 26/17 Q1013
YBBN,2011-10-16 04:00,153.1292,-27.3917,78.80,60.80,54.05,50.00,12.00,M,29.91,M,6.21,M,FEW,M,M,M,3500.00,M,M,M,M,YBBN 160400Z 05012KT 9999 FEW035 26/16 Q1013 NOSIG
YBBN,2011-10-16 04:30,153.1292,-27.3917,78.80,64.40,61.36,30.00,11.00,M,29.91,M,6.21,M,FEW,M,M,M,3500.00,M,M,M,M,YBBN 160430Z 03011KT 9999 FEW035 26/18 Q1013
YBBN,2011-10-16 05:00,153.1292,-27.3917,77.00,62.60,61.13,50.00,13.00,M,29.91,M,6.21,M,FEW,M,M,M,3500.00,M,M,M,M,YBBN 160500Z 05013KT 9999 FEW035 25/17 Q1013 NOSIG
YBBN,2011-10-16 05:30,153.1292,-27.3917,77.00,62.60,61.13,60.00,11.00,M,29.91,M,6.21,M,FEW,M,M,M,3500.00,M,M,M,M,YBBN 160530Z 06011KT 9999 FEW035 25/17 Q1013
YBBN,2011-10-16 06:00,153.1292,-27.3917,77.00,59.00,53.80,60.00,9.00,M,29.91,M,6.21,M,FEW,M,M,M,3500.00,M,M,M,M,YBBN 160600Z 06009KT 9999 FEW035 25/15 Q1013 NOSIG
YBBN,2011-10-16 06:30,153.1292,-27.3917,77.00,55.40,47.25,70.00,7.00,M,29.91,M,6.21,M,FEW,M,M,M,3500.00,M,M,M,M,YBBN 160630Z 07007KT 9999 FEW035 25/13 Q1013
YBBN,2011-10-16 07:00,153.1292,-27.3917,75.20,57.20,53.55,70.00,7.00,M,29.94,M,6.21,M,FEW,M,M,M,3500.00,M,M,M,M,YBBN 160700Z 07007KT 9999 FEW035 24/14 Q1014 NOSIG
YBBN,2011-10-16 07:30,153.1292,-27.3917,75.20,57.20,53.55,70.00,6.00,M,29.94,M,6.21,M,FEW,M,M,M,3800.00,M,M,M,M,YBBN 160730Z 07006KT 9999 FEW038 24/14 Q1014
YBBN,2011-10-16 08:00,153.1292,-27.3917,73.40,59.00,60.67,70.00,5.00,M,29.97,M,6.21,M,FEW,SCT,M,M,4500.00,35000.00,M,M,M,YBBN 160800Z 07005KT 9999 FEW045 SCT350 23/15 Q1015 NOSIG
YBBN,2011-10-16 08:30,153.1292,-27.3917,71.60,60.80,68.75,70.00,4.00,M,29.97,M,6.21,M,FEW,SCT,M,M,4500.00,35000.00,M,M,M,YBBN 160830Z 07004KT 9999 FEW045 SCT350 22/16 Q1015
YBBN,2011-10-16 09:00,153.1292,-27.3917,71.60,62.60,73.27,80.00,2.00,M,29.97,M,6.21,M,M,M,M,M,M,M,M,M,M,YBBN 160900Z 08002KT CAVOK 22/17 Q1015 NOSIG
YBBN,2011-10-16 09:30,153.1292,-27.3917,69.80,62.60,77.90,80.00,1.00,M,30.00,M,6.21,M,M,M,M,M,M,M,M,M,M,YBBN 160930Z 08001KT CAVOK 21/17 Q1016
YBBN,2011-10-16 10:00,153.1292,-27.3917,69.80,62.60,77.90,70.00,3.00,M,30.00,M,6.21,M,M,M,M,M,M,M,M,M,M,YBBN 161000Z 07003KT CAVOK 21/17 Q1016 NOSIG
YBBN,2011-10-16 10:30,153.1292,-27.3917,68.00,62.60,82.86,60.00,2.00,M,30.03,M,6.21,M,M,M,M,M,M,M,M,M,M,YBBN 161030Z 06002KT CAVOK 20/17 Q1017
YBBN,2011-10-16 11:00,153.1292,-27.3917,68.00,62.60,82.86,60.00,4.00,M,30.03,M,6.21,M,M,M,M,M,M,M,M,M,M,YBBN 161100Z 06004KT CAVOK 20/17 Q1017 NOSIG
YBBN,2011-10-16 11:30,153.1292,-27.3917,68.00,62.60,82.86,100.00,4.00,M,30.06,M,6.21,M,M,M,M,M,M,M,M,M,M,YBBN 161130Z 10004KT CAVOK 20/17 Q1018
YBBN,2011-10-16 12:00,153.1292,-27.3917,66.20,62.60,88.18,0.00,0.00,M,30.06,M,6.21,M,M,M,M,M,M,M,M,M,M,YBBN 161200Z 00000KT CAVOK 19/17 Q1018 NOSIG
YBBN,2011-10-16 12:30,153.1292,-27.3917,68.00,62.60,82.86,100.00,2.00,M,30.06,M,6.21,M,M,M,M,M,M,M,M,M,M,YBBN 161230Z 10002KT CAVOK 20/17 Q1018
YBBN,2011-10-16 13:00,153.1292,-27.3917,68.00,64.40,88.26,130.00,4.00,M,30.09,M,6.21,M,M,M,M,M,M,M,M,M,M,YBBN 161300Z 13004KT CAVOK 20/18 Q1019 NOSIG
YBBN,2011-10-16 13:30,153.1292,-27.3917,69.80,64.40,82.98,150.00,4.00,M,30.09,M,6.21,M,M,M,M,M,M,M,M,M,M,YBBN 161330Z 15004KT CAVOK 21/18 Q1019 RMK 5SC080
YBBN,2011-10-16 14:00,153.1292,-27.3917,68.00,64.40,88.26,150.00,3.00,M,30.09,M,6.21,M,FEW,BKN,M,M,3400.00,6000.00,M,M,M,YBBN 161400Z 15003KT 9999 FEW034 BKN060 20/18 Q1019 NOSIG
YBBN,2011-10-16 14:30,153.1292,-27.3917,68.00,64.40,88.26,190.00,4.00,M,30.09,M,6.21,M,FEW,BKN,M,M,3600.00,6000.00,M,M,M,YBBN 161430Z 19004KT 9999 FEW036 BKN060 20/18 Q1019
YBBN,2011-10-16 15:00,153.1292,-27.3917,69.80,64.40,82.98,160.00,6.00,M,30.09,M,6.21,M,FEW,BKN,M,M,3600.00,6000.00,M,M,M,YBBN 161500Z 16006KT 9999 FEW036 BKN060 21/18 Q1019 NOSIG
YBBN,2011-10-16 15:30,153.1292,-27.3917,69.80,64.40,82.98,150.00,6.00,M,30.09,M,6.21,M,FEW,BKN,M,M,3600.00,6000.00,M,M,M,YBBN 161530Z 15006KT 9999 FEW036 BKN060 21/18 Q1019
YBBN,2011-10-16 16:00,153.1292,-27.3917,69.80,64.40,82.98,170.00,6.00,M,30.09,M,6.21,M,FEW,BKN,M,M,3600.00,6000.00,M,M,M,YBBN 161600Z 17006KT 9999 FEW036 BKN060 21/18 Q1019 NOSIG
YBBN,2011-10-16 16:30,153.1292,-27.3917,69.80,64.40,82.98,150.00,8.00,M,30.09,M,6.21,M,FEW,BKN,M,M,2400.00,5500.00,M,M,M,YBBN 161630Z 15008KT 9999 FEW024 BKN055 21/18 Q1019
YBBN,2011-10-16 17:00,153.1292,-27.3917,69.80,64.40,82.98,150.00,9.00,M,30.09,M,6.21,M,FEW,BKN,M,M,2400.00,6000.00,M,M,M,YBBN 161700Z 15009KT 9999 FEW024 BKN060 21/18 Q1019 NOSIG
YBBN,2011-10-16 17:30,153.1292,-27.3917,69.80,62.60,77.90,170.00,7.00,M,30.12,M,6.21,M,FEW,BKN,M,M,2400.00,6400.00,M,M,VCSH,YBBN 161730Z 17007KT 9999 VCSH FEW024 BKN064 21/17 Q1020
YBBN,2011-10-16 18:00,153.1292,-27.3917,69.80,62.60,77.90,170.00,7.00,M,30.12,M,6.21,M,FEW,SCT,BKN,M,2400.00,4000.00,6400.00,M,VCSH,YBBN 161800Z 17007KT 9999 VCSH FEW024 SCT040 BKN064 21/17 Q1020 NOSIG
YBBN,2011-10-16 18:30,153.1292,-27.3917,69.80,62.60,77.90,160.00,7.00,M,30.12,M,6.21,M,FEW,SCT,BKN,M,2400.00,4500.00,6400.00,M,VCSH,YBBN 161830Z 16007KT 9999 VCSH FEW024 SCT045 BKN064 21/17 Q1020
YBBN,2011-10-16 19:00,153.1292,-27.3917,69.80,62.60,77.90,160.00,8.00,M,30.15,M,6.21,M,FEW,SCT,BKN,M,2400.00,6000.00,8000.00,M,M,YBBN 161900Z 16008KT 9999 FEW024 SCT060 BKN080 21/17 Q1021 NOSIG
YBBN,2011-10-16 19:30,153.1292,-27.3917,69.80,62.60,77.90,160.00,7.00,M,30.15,M,6.21,M,FEW,BKN,M,M,2400.00,6000.00,M,M,M,YBBN 161930Z 16007KT 9999 FEW024 BKN060 21/17 Q1021
YBBN,2011-10-16 20:00,153.1292,-27.3917,69.80,60.80,73.09,140.00,9.00,M,30.18,M,6.21,M,FEW,SCT,BKN,M,2400.00,6000.00,10000.00,M,M,YBBN 162000Z 14009KT 9999 FEW024 SCT060 BKN100 21/16 Q1022 NOSIG
YBBN,2011-10-16 20:30,153.1292,-27.3917,71.60,60.80,68.75,140.00,10.00,M,30.18,M,6.21,M,FEW,SCT,BKN,M,2500.00,6500.00,10000.00,M,M,YBBN 162030Z 14010KT 9999 FEW025 SCT065 BKN100 22/16 Q1022
YBBN,2011-10-16 21:00,153.1292,-27.3917,71.60,60.80,68.75,130.00,12.00,M,30.21,M,6.21,M,FEW,BKN,BKN,M,2500.00,6500.00,26000.00,M,M,YBBN 162100Z 13012KT 9999 FEW025 BKN065 BKN260 22/16 Q1023 NOSIG
YBBN,2011-10-16 21:30,153.1292,-27.3917,71.60,60.80,68.75,120.00,11.00,M,30.24,M,5.59,M,SCT,BKN,M,M,2500.00,6200.00,M,M,VCSH,YBBN 162130Z 12011KT 9000 VCSH SCT025 BKN062 22/16 Q1024
YBBN,2011-10-16 22:00,153.1292,-27.3917,71.60,59.00,64.48,130.00,11.00,M,30.24,M,6.21,21.00,SCT,BKN,M,M,2600.00,6200.00,M,M,M,YBBN 162200Z 13011G21KT 9999 SCT026 BKN062 22/15 Q1024 NOSIG
YBBN,2011-10-16 22:30,153.1292,-27.3917,71.60,59.00,64.48,110.00,11.00,M,30.27,M,6.21,M,SCT,SCT,BKN,M,2600.00,3500.00,6000.00,M,-SHRA,YBBN 162230Z 11011KT 9999 -SHRA SCT026 SCT035 BKN060 22/15 Q1025
YBBN,2011-10-16 23:00,153.1292,-27.3917,71.60,59.00,64.48,140.00,11.00,M,30.27,M,6.21,M,SCT,SCT,BKN,M,2800.00,4000.00,5600.00,M,-SHRA,YBBN 162300Z 14011KT 9999 -SHRA SCT028 SCT040 BKN056 22/15 Q1025 NOSIG
YBBN,2011-10-16 23:30,153.1292,-27.3917,73.40,60.80,64.69,150.00,10.00,M,30.30,M,6.21,M,SCT,BKN,M,M,2800.00,5000.00,M,M,VCSH,YBBN 162330Z 15010KT 9999 VCSH SCT028 BKN050 23/16 Q1026
