#DEBUG: Format Typ    -> comma
#DEBUG: Time Period   -> 2011-12-12 00:00:00+00:00 2011-12-13 00:00:00+00:00
#DEBUG: Time Zone     -> Etc/UTC
#DEBUG: Data Contact   -> daryl herzmann akrherz@iastate.edu 515-294-5978
#DEBUG: Entries Found -> -1
station,valid,lon,lat,tmpf, dwpf, relh, drct, sknt, p01i, alti, mslp, vsby, gust, skyc1, skyc2, skyc3, skyc4, skyl1, skyl2, skyl3, skyl4, presentwx, metar
YBBN,2011-12-12 00:00,153.1292,-27.3917,82.40,69.80,65.74,200.00,4.00,M,29.56,M,6.21,M,FEW,BKN,FEW,M,2200.00,2700.00,2800.00,M,M,YBBN 120000Z 20004KT 9999 FEW022 BKN027 FEW028TCU 28/21 Q1001 NOSIG
YBBN,2011-12-12 00:30,153.1292,-27.3917,80.60,69.80,69.71,30.00,8.00,M,29.56,M,6.21,M,FEW,BKN,FEW,M,2300.00,2900.00,3000.00,M,M,YBBN 120030Z 03008KT 9999 FEW023 BKN029 FEW030TCU 27/21 Q1001 RMK DIST SH WEST
YBBN,2011-12-12 01:00,153.1292,-27.3917,82.40,71.60,69.90,30.00,8.00,M,29.56,M,6.21,M,FEW,BKN,FEW,M,2400.00,3200.00,3300.00,M,M,YBBN 120100Z 03008KT 9999 FEW024 BKN032 FEW033TCU 28/22 Q1001 RMK DIST SH W/SW
YBBN,2011-12-12 01:30,153.1292,-27.3917,82.40,69.80,65.74,50.00,10.00,M,29.53,M,3.73,M,FEW,BKN,FEW,M,2200.00,3500.00,3600.00,M,SHRA VCSH,YBBN 120130Z 05010KT 6000 SHRA VCSH FEW022 BKN035 FEW036CB 28/21 Q1000 RMK CB AND SH NW FM0145 04010KT 9999 SCT035
YBBN,2011-12-12 01:42,153.1292,-27.3917,80.60,69.80,69.71,40.00,10.00,M,29.56,M,3.11,M,FEW,SCT,BKN,FEW,1700.00,3500.00,4600.00,3600.00,SHRA VCSH,YBBN 120142Z 04010KT 5000 SHRA VCSH FEW017 SCT035 BKN046 FEW036CB 27/21 Q1001 RMK CB AND SH N/NW FM0200 04010KT 9999 SCT035
YBBN,2011-12-12 02:00,153.1292,-27.3917,78.80,73.40,83.55,360.00,8.00,M,29.56,M,2.49,M,FEW,SCT,BKN,FEW,1700.00,3500.00,4400.00,3600.00,+SHRA VCSH,YBBN 120200Z 36008KT 4000 +SHRA VCSH FEW017 SCT035 BKN044 FEW036CB 26/23 Q1001 RMK CB AND +SH NE/E FM0200 02010KT 9999 SCT035
YBBN,2011-12-12 02:08,153.1292,-27.3917,78.80,73.40,83.55,20.00,7.00,M,29.56,M,3.73,M,FEW,SCT,FEW,M,1800.00,3500.00,3600.00,M,SHRA VCSH,YBBN 120208Z 02007KT 6000 SHRA VCSH FEW018 SCT035 FEW036CB 26/23 Q1001 RESHRA RMK CB AND SH EAST FM0210 02010KT 9999 SCT035
YBBN,2011-12-12 02:22,153.1292,-27.3917,80.60,75.20,83.66,50.00,4.00,M,29.53,M,6.21,M,FEW,SCT,FEW,M,1700.00,3700.00,3800.00,M,VCSH,YBBN 120222Z 05004KT 9999 VCSH FEW017 SCT037 FEW038CB 27/24 Q1000 RMK CB AND SH N/W NOSIG
YBBN,2011-12-12 02:30,153.1292,-27.3917,82.40,71.60,69.90,30.00,3.00,M,29.53,M,6.21,M,FEW,SCT,FEW,M,2200.00,3800.00,3900.00,M,VCSH,YBBN 120230Z 03003KT 9999 VCSH FEW022 SCT038 FEW039CB 28/22 Q1000 RMK CB WEST
YBBN,2011-12-12 03:00,153.1292,-27.3917,82.40,73.40,74.28,30.00,12.00,M,29.53,M,6.21,M,BKN,SCT,M,M,4000.00,5800.00,M,M,M,YBBN 120300Z 03012KT 9999 BKN040 SCT058 28/23 Q1000 RMK DIST SH W/NE
YBBN,2011-12-12 03:30,153.1292,-27.3917,82.40,71.60,69.90,20.00,10.00,M,29.53,M,6.21,M,FEW,SCT,FEW,M,2500.00,4000.00,4100.00,M,VCSH,YBBN 120330Z 02010KT 9999 VCSH FEW025 SCT040 FEW041CB 28/22 Q1000 RMK CB NE
YBBN,2011-12-12 04:00,153.1292,-27.3917,80.60,73.40,78.76,20.00,13.00,M,29.53,M,6.21,M,SCT,FEW,M,M,4200.00,4300.00,M,M,M,YBBN 120400Z 02013KT 9999 SCT042 FEW043TCU 27/23 Q1000 NOSIG
YBBN,2011-12-12 04:30,153.1292,-27.3917,87.80,64.40,45.88,320.00,6.00,M,29.50,M,6.21,M,FEW,FEW,M,M,4300.00,4400.00,M,M,M,YBBN 120430Z 32006KT 9999 FEW043 FEW044CB 31/18 Q0999 RMK CB AND +SH NORTH
YBBN,2011-12-12 05:00,153.1292,-27.3917,89.60,59.00,35.81,260.00,14.00,M,29.50,M,6.21,M,FEW,SCT,FEW,M,2500.00,4400.00,4500.00,M,M,YBBN 120500Z 26014KT 9999 FEW025 SCT044 FEW045CB 32/15 Q0999 RMK DIST CB AND +SH NE
YBBN,2011-12-12 05:30,153.1292,-27.3917,89.60,60.80,38.18,30.00,5.00,M,29.50,M,6.21,M,FEW,FEW,M,M,4500.00,4700.00,M,M,M,YBBN 120530Z 03005KT 9999 FEW045 FEW047TCU 32/16 Q0999 RMK DIST CB NE
YBBN,2011-12-12 06:00,153.1292,-27.3917,89.60,59.00,35.81,260.00,12.00,M,29.47,M,6.21,M,FEW,FEW,M,M,4300.00,4500.00,M,M,M,YBBN 120600Z 26012KT 9999 FEW043 FEW045TCU 32/15 Q0998 RMK DIST CB TOPS NE
YBBN,2011-12-12 06:30,153.1292,-27.3917,89.60,59.00,35.81,260.00,14.00,M,29.47,M,6.21,M,FEW,M,M,M,4000.00,M,M,M,M,YBBN 120630Z 26014KT 9999 FEW040 32/15 Q0998 WS RWY19 RMK MOD O/SHOOT WS RWY19 AT 300FT NOSIG
YBBN,2011-12-12 07:00,153.1292,-27.3917,87.80,57.20,35.53,270.00,14.00,M,29.47,M,6.21,M,FEW,M,M,M,4000.00,M,M,M,M,YBBN 120700Z 27014KT 9999 FEW040 31/14 Q0998 WS RWY19 RMK MOD O/SHOOT WS RWY 19 NOSIG
YBBN,2011-12-12 07:30,153.1292,-27.3917,87.80,55.40,33.29,240.00,13.00,M,29.50,M,6.21,M,FEW,M,M,M,4000.00,M,M,M,M,YBBN 120730Z 24013KT 9999 FEW040 31/13 Q0999
YBBN,2011-12-12 08:00,153.1292,-27.3917,86.00,57.20,37.62,250.00,12.00,M,29.50,M,6.21,M,FEW,M,M,M,3500.00,M,M,M,M,YBBN 120800Z 25012KT 9999 FEW035 30/14 Q0999 NOSIG
YBBN,2011-12-12 08:30,153.1292,-27.3917,84.20,57.20,39.86,260.00,10.00,M,29.53,M,6.21,M,FEW,M,M,M,3000.00,M,M,M,M,YBBN 120830Z 26010KT 9999 FEW030 29/14 Q1000
YBBN,2011-12-12 09:00,153.1292,-27.3917,82.40,57.20,42.25,260.00,7.00,M,29.53,M,6.21,M,FEW,M,M,M,3000.00,M,M,M,M,YBBN 120900Z 26007KT 9999 FEW030 28/14 Q1000 NOSIG
YBBN,2011-12-12 09:30,153.1292,-27.3917,80.60,59.00,47.79,300.00,5.00,M,29.56,M,6.21,M,FEW,M,M,M,3000.00,M,M,M,M,YBBN 120930Z 30005KT 9999 FEW030 27/15 Q1001
YBBN,2011-12-12 10:30,153.1292,-27.3917,77.00,69.80,78.48,130.00,8.00,M,29.59,M,6.21,M,M,M,M,M,M,M,M,M,M,YBBN 121030Z 13008KT CAVOK 25/21 Q1002
YBBN,2011-12-12 11:30,153.1292,-27.3917,73.40,66.20,78.19,150.00,7.00,M,29.62,M,6.21,M,FEW,M,M,M,2500.00,M,M,M,M,YBBN 121130Z 15007KT 9999 FEW025 23/19 Q1003
YBBN,2011-12-12 12:30,153.1292,-27.3917,71.60,64.40,78.04,180.00,5.00,M,29.65,M,6.21,M,M,M,M,M,M,M,M,M,M,YBBN 121230Z 18005KT CAVOK 22/18 Q1004
YBBN,2011-12-12 13:00,153.1292,-27.3917,71.60,64.40,78.04,150.00,7.00,M,29.65,M,6.21,M,M,M,M,M,M,M,M,M,M,YBBN 121300Z 15007KT CAVOK 22/18 Q1004 NOSIG
YBBN,2011-12-12 13:30,153.1292,-27.3917,71.60,66.20,83.09,140.00,5.00,M,29.65,M,6.21,M,M,M,M,M,M,M,M,M,M,YBBN 121330Z 14005KT CAVOK 22/19 Q1004
YBBN,2011-12-12 14:00,153.1292,-27.3917,71.60,64.40,78.04,150.00,7.00,M,29.65,M,6.21,M,M,M,M,M,M,M,M,M,M,YBBN 121400Z 15007KT CAVOK 22/18 Q1004 NOSIG
YBBN,2011-12-12 14:30,153.1292,-27.3917,71.60,64.40,78.04,160.00,5.00,M,29.62,M,6.21,M,M,M,M,M,M,M,M,M,M,YBBN 121430Z 16005KT CAVOK 22/18 Q1003
YBBN,2011-12-12 15:00,153.1292,-27.3917,69.80,64.40,82.98,170.00,5.00,M,29.62,M,6.21,M,M,M,M,M,M,M,M,M,M,YBBN 121500Z 17005KT CAVOK 21/18 Q1003 NOSIG
YBBN,2011-12-12 15:30,153.1292,-27.3917,69.80,64.40,82.98,170.00,5.00,M,29.62,M,6.21,M,M,M,M,M,M,M,M,M,M,YBBN 121530Z 17005KT CAVOK 21/18 Q1003
YBBN,2011-12-12 16:00,153.1292,-27.3917,69.80,62.60,77.90,180.00,5.00,M,29.65,M,6.21,M,M,M,M,M,M,M,M,M,M,YBBN 121600Z 18005KT CAVOK 21/17 Q1004 NOSIG
YBBN,2011-12-12 16:30,153.1292,-27.3917,69.80,62.60,77.90,150.00,4.00,M,29.65,M,6.21,M,SCT,M,M,M,1800.00,M,M,M,M,YBBN 121630Z 15004KT 9999 SCT018 21/17 Q1004
YBBN,2011-12-12 17:00,153.1292,-27.3917,69.80,62.60,77.90,170.00,5.00,M,29.65,M,6.21,M,FEW,M,M,M,2000.00,M,M,M,M,YBBN 121700Z 17005KT 9999 FEW020 21/17 Q1004 NOSIG
YBBN,2011-12-12 17:30,153.1292,-27.3917,69.80,62.60,77.90,190.00,3.00,M,29.65,M,6.21,M,FEW,M,M,M,2000.00,M,M,M,M,YBBN 121730Z 19003KT 9999 FEW020 21/17 Q1004
YBBN,2011-12-12 18:00,153.1292,-27.3917,68.00,62.60,82.86,170.00,2.00,M,29.65,M,6.21,M,FEW,M,M,M,2000.00,M,M,M,M,YBBN 121800Z 17002KT 9999 FEW020 20/17 Q1004 NOSIG
YBBN,2011-12-12 18:30,153.1292,-27.3917,66.20,62.60,88.18,220.00,3.00,M,29.65,M,6.21,M,FEW,M,M,M,2000.00,M,M,M,M,YBBN 121830Z 22003KT 9999 FEW020 19/17 Q1004
YBBN,2011-12-12 19:00,153.1292,-27.3917,66.20,62.60,88.18,30.00,4.00,M,29.68,M,6.21,M,FEW,M,M,M,2000.00,M,M,M,M,YBBN 121900Z 03004KT 9999 FEW020 19/17 Q1005 NOSIG
YBBN,2011-12-12 19:30,153.1292,-27.3917,68.00,62.60,82.86,220.00,5.00,M,29.68,M,6.21,M,FEW,M,M,M,2000.00,M,M,M,M,YBBN 121930Z 22005KT 9999 FEW020 20/17 Q1005
YBBN,2011-12-12 20:00,153.1292,-27.3917,71.60,62.60,73.27,220.00,3.00,M,29.68,M,6.21,M,FEW,M,M,M,2000.00,M,M,M,M,YBBN 122000Z 22003KT 9999 FEW020 22/17 Q1005 NOSIG
YBBN,2011-12-12 20:30,153.1292,-27.3917,73.40,62.60,68.94,0.00,0.00,M,29.71,M,6.21,M,FEW,M,M,M,2200.00,M,M,M,M,YBBN 122030Z 00000KT 9999 FEW022 23/17 Q1006
YBBN,2011-12-12 21:00,153.1292,-27.3917,73.40,62.60,68.94,170.00,3.00,M,29.71,M,6.21,M,FEW,M,M,M,2300.00,M,M,M,M,YBBN 122100Z 17003KT 9999 FEW023 23/17 Q1006 NOSIG
YBBN,2011-12-12 21:30,153.1292,-27.3917,75.20,62.60,64.91,150.00,4.00,M,29.71,M,6.21,M,FEW,M,M,M,2400.00,M,M,M,M,YBBN 122130Z 15004KT 9999 FEW024 24/17 Q1006
YBBN,2011-12-12 22:00,153.1292,-27.3917,75.20,64.40,69.14,100.00,5.00,M,29.71,M,6.21,M,FEW,M,M,M,2500.00,M,M,M,M,YBBN 122200Z 10005KT 9999 FEW025 24/18 Q1006 NOSIG
YBBN,2011-12-12 22:30,153.1292,-27.3917,77.00,64.40,65.12,110.00,4.00,M,29.71,M,6.21,M,FEW,M,M,M,2500.00,M,M,M,M,YBBN 122230Z 11004KT 9999 FEW025 25/18 Q1006
YBBN,2011-12-12 23:00,153.1292,-27.3917,77.00,64.40,65.12,130.00,5.00,M,29.71,M,6.21,M,FEW,M,M,M,2600.00,M,M,M,M,YBBN 122300Z 13005KT 9999 FEW026 25/18 Q1006 NOSIG
YBBN,2011-12-12 23:30,153.1292,-27.3917,78.80,64.40,61.36,80.00,7.00,M,29.71,M,6.21,M,FEW,M,M,M,2600.00,M,M,M,M,YBBN 122330Z 08007KT 9999 FEW026 26/18 Q1006
