#DEBUG: Format Typ    -> comma
#DEBUG: Time Period   -> 2010-12-10 00:00:00+00:00 2010-12-11 00:00:00+00:00
#DEBUG: Time Zone     -> Etc/UTC
#DEBUG: Data Contact   -> daryl herzmann akrherz@iastate.edu 515-294-5978
#DEBUG: Entries Found -> -1
station,valid,lon,lat,tmpf, dwpf, relh, drct, sknt, p01i, alti, mslp, vsby, gust, skyc1, skyc2, skyc3, skyc4, skyl1, skyl2, skyl3, skyl4, presentwx, metar
YBBN,2010-12-10 00:00,153.1292,-27.3917,82.40,69.80,65.74,10.00,10.00,M,29.88,M,6.21,M,SCT,M,M,M,2500.00,M,M,M,M,YBBN 100000Z 01010KT 9999 SCT025 28/21 Q1012 NOSIG
YBBN,2010-12-10 00:30,153.1292,-27.3917,82.40,69.80,65.74,20.00,11.00,M,29.88,M,6.21,M,SCT,M,M,M,2800.00,M,M,M,M,YBBN 100030Z 02011KT 9999 SCT028 28/21 Q1012 NOSIG
YBBN,2010-12-10 01:00,153.1292,-27.3917,82.40,73.40,74.28,30.00,14.00,M,29.88,M,6.21,M,SCT,M,M,M,2800.00,M,M,M,M,YBBN 100100Z 03014KT 9999 SCT028 28/23 Q1012 NOSIG
YBBN,2010-12-10 01:30,153.1292,-27.3917,80.60,69.80,69.71,30.00,15.00,M,29.85,M,6.21,M,FEW,M,M,M,2800.00,M,M,M,M,YBBN 100130Z 03015KT 9999 FEW028 27/21 Q1011 NOSIG
YBBN,2010-12-10 02:00,153.1292,-27.3917,80.60,71.60,74.11,20.00,16.00,M,29.85,M,6.21,M,FEW,M,M,M,3200.00,M,M,M,M,YBBN 100200Z 02016KT 9999 FEW032 27/22 Q1011 NOSIG
YBBN,2010-12-10 02:30,153.1292,-27.3917,80.60,71.60,74.11,30.00,18.00,M,29.83,M,6.21,M,FEW,M,M,M,3200.00,M,M,M,M,YBBN 100230Z 03018KT 9999 FEW032 27/22 Q1010 NOSIG
YBBN,2010-12-10 03:00,153.1292,-27.3917,80.60,71.60,74.11,20.00,19.00,M,29.83,M,6.21,M,FEW,M,M,M,3200.00,M,M,M,M,YBBN 100300Z 02019KT 9999 FEW032 27/22 Q1010 NOSIG
YBBN,2010-12-10 03:30,153.1292,-27.3917,80.60,73.40,78.76,20.00,18.00,M,29.80,M,6.21,M,FEW,M,M,M,3200.00,M,M,M,M,YBBN 100330Z 02018KT 9999 FEW032 27/23 Q1009 NOSIG
YBBN,2010-12-10 04:00,153.1292,-27.3917,80.60,71.60,74.11,20.00,19.00,M,29.80,M,6.21,M,FEW,SCT,M,M,3200.00,28000.00,M,M,M,YBBN 100400Z 02019KT 9999 FEW032 SCT280 27/22 Q1009 NOSIG
YBBN,2010-12-10 04:30,153.1292,-27.3917,80.60,71.60,74.11,20.00,19.00,M,29.77,M,6.21,M,FEW,SCT,M,M,3200.00,28000.00,M,M,M,YBBN 100430Z 02019KT 9999 FEW032 SCT280 27/22 Q1008 NOSIG
YBBN,2010-12-10 05:00,153.1292,-27.3917,80.60,73.40,78.76,20.00,19.00,M,29.77,M,6.21,M,FEW,SCT,M,M,3200.00,28000.00,M,M,M,YBBN 100500Z 02019KT 9999 FEW032 SCT280 27/23 Q1008 NOSIG
YBBN,2010-12-10 05:30,153.1292,-27.3917,80.60,71.60,74.11,10.00,19.00,M,29.77,M,6.21,M,FEW,SCT,M,M,3200.00,28000.00,M,M,M,YBBN 100530Z 01019KT 9999 FEW032 SCT280 27/22 Q1008 NOSIG
YBBN,2010-12-10 06:00,153.1292,-27.3917,80.60,71.60,74.11,20.00,18.00,M,29.74,M,6.21,M,FEW,SCT,M,M,3200.00,28000.00,M,M,M,YBBN 100600Z 02018KT 9999 FEW032 SCT280 27/22 Q1007 NOSIG
YBBN,2010-12-10 06:30,153.1292,-27.3917,78.80,71.60,78.62,20.00,19.00,M,29.74,M,6.21,M,FEW,SCT,M,M,3200.00,28000.00,M,M,M,YBBN 100630Z 02019KT 9999 FEW032 SCT280 26/22 Q1007 NOSIG
YBBN,2010-12-10 07:00,153.1292,-27.3917,78.80,71.60,78.62,10.00,18.00,M,29.77,M,6.21,M,FEW,SCT,M,M,3200.00,28000.00,M,M,M,YBBN 100700Z 01018KT 9999 FEW032 SCT280 26/22 Q1008 NOSIG
YBBN,2010-12-10 07:30,153.1292,-27.3917,78.80,71.60,78.62,10.00,18.00,M,29.77,M,6.21,M,FEW,BKN,M,M,3200.00,28000.00,M,M,M,YBBN 100730Z 01018KT 9999 FEW032 BKN280 26/22 Q1008 NOSIG
YBBN,2010-12-10 08:00,153.1292,-27.3917,77.00,71.60,83.44,10.00,16.00,M,29.77,M,6.21,M,FEW,BKN,M,M,3200.00,28000.00,M,M,M,YBBN 100800Z 01016KT 9999 FEW032 BKN280 25/22 Q1008 NOSIG
YBBN,2010-12-10 08:30,153.1292,-27.3917,77.00,71.60,83.44,10.00,18.00,M,29.77,M,6.21,M,FEW,BKN,M,M,1800.00,28000.00,M,M,M,YBBN 100830Z 01018KT 9999 FEW018 BKN280 25/22 Q1008 NOSIG
YBBN,2010-12-10 09:00,153.1292,-27.3917,77.00,71.60,83.44,10.00,17.00,M,29.77,M,6.21,M,FEW,BKN,M,M,1800.00,28000.00,M,M,M,YBBN 100900Z 01017KT 9999 FEW018 BKN280 25/22 Q1008 NOSIG
YBBN,2010-12-10 09:30,153.1292,-27.3917,77.00,71.60,83.44,10.00,17.00,M,29.80,M,6.21,M,FEW,BKN,M,M,1500.00,26000.00,M,M,M,YBBN 100930Z 01017KT 9999 FEW015 BKN260 25/22 Q1009 NOSIG
YBBN,2010-12-10 10:00,153.1292,-27.3917,77.00,71.60,83.44,360.00,16.00,M,29.80,M,6.21,M,FEW,SCT,BKN,M,1200.00,8500.00,26000.00,M,M,YBBN 101000Z 36016KT 9999 FEW012 SCT085 BKN260 25/22 Q1009 NOSIG
YBBN,2010-12-10 10:30,153.1292,-27.3917,77.00,71.60,83.44,10.00,15.00,M,29.77,M,6.21,M,FEW,SCT,BKN,M,1200.00,6400.00,26000.00,M,M,YBBN 101030Z 01015KT 9999 FEW012 SCT064 BKN260 25/22 Q1008 NOSIG
YBBN,2010-12-10 11:00,153.1292,-27.3917,77.00,71.60,83.44,10.00,15.00,M,29.77,M,6.21,M,FEW,SCT,BKN,M,1200.00,6800.00,26000.00,M,M,YBBN 101100Z 01015KT 9999 FEW012 SCT068 BKN260 25/22 Q1008 NOSIG
YBBN,2010-12-10 11:30,153.1292,-27.3917,77.00,71.60,83.44,10.00,16.00,M,29.77,M,6.21,M,FEW,BKN,BKN,M,1200.00,6800.00,26000.00,M,M,YBBN 101130Z 01016KT 9999 FEW012 BKN068 BKN260 25/22 Q1008 NOSIG
YBBN,2010-12-10 12:00,153.1292,-27.3917,77.00,71.60,83.44,10.00,17.00,M,29.77,M,6.21,M,FEW,SCT,BKN,M,1200.00,6800.00,9600.00,M,M,YBBN 101200Z 01017KT 9999 FEW012 SCT068 BKN096 25/22 Q1008 NOSIG
YBBN,2010-12-10 12:30,153.1292,-27.3917,77.00,71.60,83.44,360.00,17.00,M,29.77,M,6.21,M,FEW,SCT,BKN,M,1200.00,6800.00,9800.00,M,M,YBBN 101230Z 36017KT 9999 FEW012 SCT068 BKN098 25/22 Q1008 NOSIG
YBBN,2010-12-10 13:00,153.1292,-27.3917,77.00,71.60,83.44,360.00,17.00,M,29.77,M,6.21,M,FEW,BKN,BKN,M,1200.00,10000.00,32000.00,M,M,YBBN 101300Z 36017KT 9999 FEW012 BKN100 BKN320 25/22 Q1008 NOSIG
YBBN,2010-12-10 13:30,153.1292,-27.3917,77.00,71.60,83.44,360.00,16.00,M,29.74,M,6.21,M,FEW,BKN,BKN,M,1200.00,10000.00,32000.00,M,M,YBBN 101330Z 36016KT 9999 FEW012 BKN100 BKN320 25/22 Q1007 NOSIG
YBBN,2010-12-10 14:00,153.1292,-27.3917,77.00,69.80,78.48,360.00,15.00,M,29.77,M,6.21,M,FEW,SCT,BKN,M,1200.00,6200.00,10000.00,M,M,YBBN 101400Z 36015KT 9999 FEW012 SCT062 BKN100 25/21 Q1008 NOSIG
YBBN,2010-12-10 14:30,153.1292,-27.3917,77.00,69.80,78.48,360.00,12.00,M,29.74,M,6.21,M,FEW,SCT,BKN,M,1200.00,6200.00,10000.00,M,M,YBBN 101430Z 36012KT 9999 FEW012 SCT062 BKN100 25/21 Q1007 NOSIG
YBBN,2010-12-10 15:00,153.1292,-27.3917,75.20,69.80,83.32,360.00,12.00,M,29.74,M,6.21,M,FEW,BKN,BKN,M,1200.00,5800.00,10000.00,M,M,YBBN 101500Z 36012KT 9999 FEW012 BKN058 BKN100 24/21 Q1007 NOSIG
YBBN,2010-12-10 15:30,153.1292,-27.3917,75.20,69.80,83.32,360.00,11.00,M,29.74,M,6.21,M,FEW,SCT,BKN,M,1200.00,6400.00,10000.00,M,M,YBBN 101530Z 36011KT 9999 FEW012 SCT064 BKN100 24/21 Q1007 NOSIG
YBBN,2010-12-10 16:00,153.1292,-27.3917,75.20,69.80,83.32,360.00,14.00,M,29.71,M,6.21,M,FEW,BKN,BKN,M,1200.00,6400.00,10000.00,M,M,YBBN 101600Z 36014KT 9999 FEW012 BKN064 BKN100 24/21 Q1006 NOSIG
YBBN,2010-12-10 16:30,153.1292,-27.3917,75.20,69.80,83.32,360.00,13.00,M,29.71,M,6.21,M,FEW,SCT,BKN,M,1200.00,6400.00,10000.00,M,M,YBBN 101630Z 36013KT 9999 FEW012 SCT064 BKN100 24/21 Q1006 NOSIG
YBBN,2010-12-10 17:00,153.1292,-27.3917,75.20,69.80,83.32,360.00,13.00,M,29.71,M,6.21,M,FEW,BKN,M,M,1200.00,10000.00,M,M,M,YBBN 101700Z 36013KT 9999 FEW012 BKN100 24/21 Q1006 NOSIG
YBBN,2010-12-10 17:30,153.1292,-27.3917,75.20,69.80,83.32,360.00,12.00,M,29.71,M,6.21,M,M,M,M,M,M,M,M,M,M,YBBN 101730Z 36012KT CAVOK 24/21 Q1006 RMK 7AC100 NOSIG
YBBN,2010-12-10 18:00,153.1292,-27.3917,75.20,69.80,83.32,360.00,13.00,M,29.71,M,6.21,M,FEW,BKN,M,M,1500.00,10000.00,M,M,M,YBBN 101800Z 36013KT 9999 FEW015 BKN100 24/21 Q1006 NOSIG
YBBN,2010-12-10 18:30,153.1292,-27.3917,75.20,69.80,83.32,350.00,11.00,M,29.74,M,6.21,M,FEW,BKN,M,M,1800.00,10000.00,M,M,M,YBBN 101830Z 35011KT 9999 FEW018 BKN100 24/21 Q1007 NOSIG
YBBN,2010-12-10 19:00,153.1292,-27.3917,75.20,69.80,83.32,360.00,10.00,M,29.74,M,6.21,M,FEW,SCT,BKN,M,1800.00,4000.00,10000.00,M,M,YBBN 101900Z 36010KT 9999 FEW018 SCT040 BKN100 24/21 Q1007 NOSIG
YBBN,2010-12-10 19:30,153.1292,-27.3917,75.20,69.80,83.32,360.00,9.00,M,29.74,M,6.21,M,FEW,SCT,BKN,M,1800.00,4000.00,10000.00,M,M,YBBN 101930Z 36009KT 9999 FEW018 SCT040 BKN100 24/21 Q1007 NOSIG
YBBN,2010-12-10 20:00,153.1292,-27.3917,77.00,71.60,83.44,360.00,10.00,M,29.74,M,6.21,M,FEW,SCT,BKN,M,2000.00,4000.00,10000.00,M,M,YBBN 102000Z 36010KT 9999 FEW020 SCT040 BKN100 25/22 Q1007 NOSIG
YBBN,2010-12-10 20:30,153.1292,-27.3917,77.00,71.60,83.44,360.00,10.00,M,29.77,M,6.21,M,FEW,SCT,BKN,M,2000.00,4000.00,10000.00,M,M,YBBN 102030Z 36010KT 9999 FEW020 SCT040 BKN100 25/22 Q1008 NOSIG
YBBN,2010-12-10 21:00,153.1292,-27.3917,78.80,71.60,78.62,360.00,11.00,M,29.77,M,6.21,M,FEW,SCT,BKN,M,2000.00,4000.00,10000.00,M,M,YBBN 102100Z 36011KT 9999 FEW020 SCT040 BKN100 26/22 Q1008 NOSIG
YBBN,2010-12-10 21:30,153.1292,-27.3917,78.80,71.60,78.62,360.00,10.00,M,29.77,M,6.21,M,FEW,SCT,BKN,M,2000.00,4500.00,10000.00,M,M,YBBN 102130Z 36010KT 9999 FEW020 SCT045 BKN100 26/22 Q1008 NOSIG
YBBN,2010-12-10 22:00,153.1292,-27.3917,78.80,71.60,78.62,10.00,10.00,M,29.77,M,6.21,M,FEW,SCT,BKN,M,2000.00,4500.00,10000.00,M,M,YBBN 102200Z 01010KT 9999 FEW020 SCT045 BKN100 26/22 Q1008 NOSIG
YBBN,2010-12-10 22:30,153.1292,-27.3917,78.80,71.60,78.62,10.00,11.00,M,29.77,M,6.21,M,FEW,SCT,BKN,M,2000.00,7500.00,10000.00,M,M,YBBN 102230Z 01011KT 9999 FEW020 SCT075 BKN100 26/22 Q1008 NOSIG
YBBN,2010-12-10 23:00,153.1292,-27.3917,80.60,71.60,74.11,10.00,13.00,M,29.77,M,6.21,M,FEW,BKN,M,M,2000.00,10000.00,M,M,M,YBBN 102300Z 01013KT 9999 FEW020 BKN100 27/22 Q1008 NOSIG
YBBN,2010-12-10 23:30,153.1292,-27.3917,80.60,73.40,78.76,360.00,13.00,M,29.74,M,6.21,M,FEW,SCT,M,M,2400.00,10000.00,M,M,M,YBBN 102330Z 36013KT 9999 FEW024 SCT100 27/23 Q1007 NOSIG
