#DEBUG: Format Typ    -> comma
#DEBUG: Time Period   -> 2016-02-24 00:00:00+00:00 2016-02-25 00:00:00+00:00
#DEBUG: Time Zone     -> Etc/UTC
#DEBUG: Data Contact   -> daryl herzmann akrherz@iastate.edu 515-294-5978
#DEBUG: Entries Found -> -1
station,valid,lon,lat,tmpf, dwpf, relh, drct, sknt, p01i, alti, mslp, vsby, gust, skyc1, skyc2, skyc3, skyc4, skyl1, skyl2, skyl3, skyl4, presentwx, metar
YBBN,2016-02-24 00:00,153.1292,-27.3917,82.40,59.00,45.07,110.00,8.00,0.00,30.03,M,6.21,M,FEW,M,M,M,4800.00,M,M,M,M,YBBN 240000Z 11008KT 080V150 9999 FEW048 28/15 Q1017 NOSIG
YBBN,2016-02-24 00:30,153.1292,-27.3917,82.40,60.80,48.05,120.00,9.00,0.00,30.03,M,6.21,M,FEW,M,M,M,4800.00,M,M,M,M,YBBN 240030Z 12009KT 9999 FEW048 28/16 Q1017 NOSIG
YBBN,2016-02-24 01:00,153.1292,-27.3917,84.20,60.80,45.34,110.00,9.00,0.00,30.03,M,6.21,M,M,M,M,M,M,M,M,M,M,YBBN 240100Z 11009KT CAVOK 29/16 Q1017 NOSIG
YBBN,2016-02-24 01:30,153.1292,-27.3917,84.20,60.80,45.34,110.00,9.00,0.00,30.00,M,6.21,M,FEW,M,M,M,4800.00,M,M,M,M,YBBN 240130Z 11009KT 9999 FEW048 29/16 Q1016 NOSIG
YBBN,2016-02-24 02:00,153.1292,-27.3917,84.20,62.60,48.32,110.00,10.00,0.00,30.00,M,6.21,M,FEW,M,M,M,4800.00,M,M,M,M,YBBN 240200Z 11010KT 9999 FEW048 29/17 Q1016 NOSIG
YBBN,2016-02-24 02:30,153.1292,-27.3917,82.40,62.60,51.21,90.00,9.00,0.00,30.00,M,6.21,M,FEW,M,M,M,4800.00,M,M,M,M,YBBN 240230Z 09009KT 9999 FEW048 28/17 Q1016 NOSIG
YBBN,2016-02-24 03:00,153.1292,-27.3917,82.40,64.40,54.55,100.00,9.00,0.00,29.97,M,6.21,M,FEW,M,M,M,4500.00,M,M,M,M,YBBN 240300Z 10009KT 9999 FEW045 28/18 Q1015 NOSIG
YBBN,2016-02-24 03:30,153.1292,-27.3917,84.20,62.60,48.32,90.00,10.00,0.00,29.97,M,6.21,M,FEW,M,M,M,4500.00,M,M,M,M,YBBN 240330Z 09010KT 9999 FEW045 29/17 Q1015 NOSIG
YBBN,2016-02-24 04:00,153.1292,-27.3917,82.40,62.60,51.21,80.00,12.00,0.00,29.97,M,6.21,M,FEW,M,M,M,4300.00,M,M,M,M,YBBN 240400Z 08012KT 9999 FEW043 28/17 Q1015 NOSIG
YBBN,2016-02-24 04:30,153.1292,-27.3917,84.20,64.40,51.47,90.00,10.00,0.00,29.97,M,6.21,M,FEW,M,M,M,4300.00,M,M,M,M,YBBN 240430Z 09010KT 9999 FEW043 29/18 Q1015 NOSIG
YBBN,2016-02-24 05:00,153.1292,-27.3917,82.40,64.40,54.55,90.00,9.00,0.00,29.94,M,6.21,M,FEW,M,M,M,4000.00,M,M,M,M,YBBN 240500Z 09009KT 9999 FEW040 28/18 Q1014 NOSIG
YBBN,2016-02-24 05:30,153.1292,-27.3917,84.20,66.20,54.80,100.00,9.00,0.00,29.94,M,6.21,M,FEW,M,M,M,4000.00,M,M,M,M,YBBN 240530Z 10009KT 9999 FEW040 29/19 Q1014 NOSIG
YBBN,2016-02-24 06:00,153.1292,-27.3917,80.60,66.20,61.58,80.00,8.00,0.00,29.94,M,6.21,M,FEW,M,M,M,3500.00,M,M,M,M,YBBN 240600Z 08008KT 9999 FEW035 27/19 Q1014 NOSIG
YBBN,2016-02-24 06:30,153.1292,-27.3917,80.60,64.40,57.84,80.00,10.00,0.00,29.94,M,6.21,M,FEW,M,M,M,3500.00,M,M,M,M,YBBN 240630Z 08010KT 9999 FEW035 27/18 Q1014 NOSIG
YBBN,2016-02-24 07:00,153.1292,-27.3917,80.60,66.20,61.58,80.00,9.00,0.00,29.97,M,6.21,M,FEW,M,M,M,3200.00,M,M,M,M,YBBN 240700Z 08009KT 9999 FEW032 27/19 Q1015 NOSIG
YBBN,2016-02-24 10:00,153.1292,-27.3917,77.00,66.20,69.33,90.00,6.00,0.00,30.00,M,6.21,M,SCT,M,M,M,2700.00,M,M,M,M,YBBN 241000Z 09006KT 9999 SCT027 25/19 Q1016
YBBN,2016-02-24 10:30,153.1292,-27.3917,77.00,66.20,69.33,80.00,6.00,0.00,30.00,M,6.21,M,SCT,M,M,M,2900.00,M,M,M,M,YBBN 241030Z 08006KT 9999 SCT029 25/19 Q1016
YBBN,2016-02-24 12:30,153.1292,-27.3917,75.20,64.40,69.14,90.00,5.00,0.00,30.03,M,6.21,M,FEW,M,M,M,2900.00,M,M,M,M,YBBN 241230Z 09005KT 9999 FEW029 24/18 Q1017 NOSIG
YBBN,2016-02-24 13:00,153.1292,-27.3917,75.20,64.40,69.14,90.00,5.00,0.00,30.03,M,6.21,M,FEW,M,M,M,2900.00,M,M,M,M,YBBN 241300Z 09005KT 9999 FEW029 24/18 Q1017 NOSIG
YBBN,2016-02-24 13:30,153.1292,-27.3917,75.20,64.40,69.14,90.00,5.00,0.00,30.00,M,6.21,M,FEW,M,M,M,2900.00,M,M,M,M,YBBN 241330Z 09005KT 9999 FEW029 24/18 Q1016 NOSIG
YBBN,2016-02-24 14:00,153.1292,-27.3917,75.20,64.40,69.14,90.00,5.00,0.00,30.00,M,6.21,M,FEW,M,M,M,2900.00,M,M,M,M,YBBN 241400Z 09005KT 9999 FEW029 24/18 Q1016 NOSIG
YBBN,2016-02-24 14:30,153.1292,-27.3917,75.20,64.40,69.14,90.00,5.00,0.00,30.00,M,6.21,M,FEW,M,M,M,2900.00,M,M,M,M,YBBN 241430Z 09005KT 9999 FEW029 24/18 Q1016 NOSIG
YBBN,2016-02-24 15:00,153.1292,-27.3917,73.40,64.40,73.44,90.00,4.00,0.00,30.00,M,6.21,M,FEW,M,M,M,2700.00,M,M,M,M,YBBN 241500Z 09004KT 9999 FEW027 23/18 Q1016
YBBN,2016-02-24 15:30,153.1292,-27.3917,73.40,64.40,73.44,90.00,4.00,0.00,30.00,M,6.21,M,FEW,M,M,M,2700.00,M,M,M,M,YBBN 241530Z 09004KT 9999 FEW027 23/18 Q1016 NOSIG
YBBN,2016-02-24 16:00,153.1292,-27.3917,73.40,64.40,73.44,100.00,4.00,0.00,29.97,M,6.21,M,FEW,M,M,M,2700.00,M,M,M,M,YBBN 241600Z 10004KT 9999 FEW027 23/18 Q1015 NOSIG
YBBN,2016-02-24 16:30,153.1292,-27.3917,71.60,64.40,78.04,110.00,4.00,0.00,29.97,M,6.21,M,FEW,M,M,M,2300.00,M,M,M,M,YBBN 241630Z 11004KT 9999 FEW023 22/18 Q1015 NOSIG
YBBN,2016-02-24 17:00,153.1292,-27.3917,71.60,64.40,78.04,190.00,2.00,0.00,29.97,M,6.21,M,FEW,M,M,M,2000.00,M,M,M,M,YBBN 241700Z 19002KT 9999 FEW020 22/18 Q1015 NOSIG
YBBN,2016-02-24 17:30,153.1292,-27.3917,71.60,66.20,83.09,190.00,4.00,0.00,29.97,M,6.21,M,FEW,M,M,M,2000.00,M,M,M,M,YBBN 241730Z 19004KT 9999 FEW020 22/19 Q1015 NOSIG
YBBN,2016-02-24 18:00,153.1292,-27.3917,71.60,66.20,83.09,180.00,4.00,0.00,29.97,M,6.21,M,FEW,M,M,M,2000.00,M,M,M,M,YBBN 241800Z 18004KT 9999 FEW020 22/19 Q1015
YBBN,2016-02-24 18:30,153.1292,-27.3917,71.60,66.20,83.09,0.00,0.00,0.00,29.97,M,6.21,M,FEW,M,M,M,2000.00,M,M,M,M,YBBN 241830Z 00000KT 9999 FEW020 22/19 Q1015 NOSIG
YBBN,2016-02-24 19:00,153.1292,-27.3917,69.80,64.40,82.98,180.00,4.00,0.00,29.97,M,6.21,M,FEW,M,M,M,2000.00,M,M,M,M,YBBN 241900Z 18004KT 9999 FEW020 21/18 Q1015
YBBN,2016-02-24 19:30,153.1292,-27.3917,69.80,64.40,82.98,190.00,5.00,0.00,30.00,M,6.21,M,FEW,M,M,M,2000.00,M,M,M,M,YBBN 241930Z 19005KT 9999 FEW020 21/18 Q1016 NOSIG
YBBN,2016-02-24 20:00,153.1292,-27.3917,68.00,64.40,88.26,200.00,5.00,0.00,30.00,M,6.21,M,FEW,M,M,M,2000.00,M,M,M,M,YBBN 242000Z 20005KT 9999 FEW020 20/18 Q1016 NOSIG
YBBN,2016-02-24 20:30,153.1292,-27.3917,69.80,66.20,88.34,200.00,7.00,0.00,30.00,M,6.21,M,FEW,M,M,M,2200.00,M,M,M,M,YBBN 242030Z 20007KT 9999 FEW022 21/19 Q1016 NOSIG
YBBN,2016-02-24 21:00,153.1292,-27.3917,73.40,66.20,78.19,210.00,7.00,0.00,30.00,M,6.21,M,FEW,M,M,M,2200.00,M,M,M,M,YBBN 242100Z 21007KT 9999 FEW022 23/19 Q1016
YBBN,2016-02-24 21:30,153.1292,-27.3917,77.00,64.40,65.12,210.00,6.00,0.00,30.00,M,6.21,M,FEW,M,M,M,2400.00,M,M,M,M,YBBN 242130Z 21006KT 9999 FEW024 25/18 Q1016 NOSIG
YBBN,2016-02-24 22:00,153.1292,-27.3917,78.80,64.40,61.36,180.00,6.00,0.00,30.00,M,6.21,M,FEW,M,M,M,2800.00,M,M,M,M,YBBN 242200Z 18006KT 150V210 9999 FEW028 26/18 Q1016
YBBN,2016-02-24 22:30,153.1292,-27.3917,78.80,64.40,61.36,150.00,5.00,0.00,30.00,M,6.21,M,SCT,M,M,M,2900.00,M,M,M,M,YBBN 242230Z 15005KT 120V190 9999 SCT029 26/18 Q1016 NOSIG
YBBN,2016-02-24 23:00,153.1292,-27.3917,80.60,62.60,54.30,150.00,6.00,0.00,30.00,M,6.21,M,SCT,M,M,M,3200.00,M,M,M,M,YBBN 242300Z 15006KT 100V180 9999 SCT032 27/17 Q1016 NOSIG
YBBN,2016-02-24 23:30,153.1292,-27.3917,82.40,62.60,51.21,140.00,6.00,0.00,30.00,M,6.21,M,FEW,M,M,M,3500.00,M,M,M,M,YBBN 242330Z 14006KT 100V180 9999 FEW035 28/17 Q1016 NOSIG
