#DEBUG: Format Typ    -> comma
#DEBUG: Time Period   -> 2015-05-25 00:00:00+00:00 2015-05-26 00:00:00+00:00
#DEBUG: Time Zone     -> Etc/UTC
#DEBUG: Data Contact   -> daryl herzmann akrherz@iastate.edu 515-294-5978
#DEBUG: Entries Found -> -1
station,valid,lon,lat,tmpf, dwpf, relh, drct, sknt, p01i, alti, mslp, vsby, gust, skyc1, skyc2, skyc3, skyc4, skyl1, skyl2, skyl3, skyl4, presentwx, metar
YBBN,2015-05-25 00:00,153.1292,-27.3917,68.00,55.40,64.04,180.00,7.00,0.00,30.42,M,6.21,M,FEW,M,M,M,2500.00,M,M,M,M,YBBN 250000Z 18007KT 9999 FEW025 20/13 Q1030 NOSIG
YBBN,2015-05-25 00:30,153.1292,-27.3917,69.80,55.40,60.21,160.00,6.00,0.00,30.42,M,6.21,M,FEW,M,M,M,2500.00,M,M,M,M,YBBN 250030Z 16006KT 9999 FEW025 21/13 Q1030
YBBN,2015-05-25 01:00,153.1292,-27.3917,69.80,55.40,60.21,140.00,7.00,0.00,30.42,M,6.21,M,FEW,SCT,M,M,3000.00,25000.00,M,M,M,YBBN 250100Z 14007KT 9999 FEW030 SCT250 21/13 Q1030 NOSIG
YBBN,2015-05-25 01:30,153.1292,-27.3917,71.60,55.40,56.63,130.00,7.00,0.00,30.39,M,6.21,M,SCT,SCT,M,M,3000.00,25000.00,M,M,M,YBBN 250130Z 13007KT 9999 SCT030 SCT250 22/13 Q1029
YBBN,2015-05-25 02:00,153.1292,-27.3917,71.60,53.60,53.03,110.00,8.00,0.00,30.39,M,6.21,M,SCT,SCT,M,M,3200.00,25000.00,M,M,M,YBBN 250200Z 11008KT 9999 SCT032 SCT250 22/12 Q1029 NOSIG
YBBN,2015-05-25 02:30,153.1292,-27.3917,71.60,53.60,53.03,110.00,10.00,0.00,30.36,M,6.21,M,SCT,SCT,M,M,3200.00,25000.00,M,M,M,YBBN 250230Z 11010KT 9999 SCT032 SCT250 22/12 Q1028
YBBN,2015-05-25 03:00,153.1292,-27.3917,71.60,55.40,56.63,120.00,9.00,0.00,30.36,M,6.21,M,FEW,SCT,M,M,3600.00,25000.00,M,M,M,YBBN 250300Z 12009KT 9999 FEW036 SCT250 22/13 Q1028 NOSIG
YBBN,2015-05-25 03:30,153.1292,-27.3917,71.60,55.40,56.63,120.00,9.00,0.00,30.36,M,6.21,M,FEW,SCT,M,M,3600.00,25000.00,M,M,M,YBBN 250330Z 12009KT 9999 FEW036 SCT250 22/13 Q1028
YBBN,2015-05-25 04:00,153.1292,-27.3917,71.60,53.60,53.03,120.00,10.00,0.00,30.33,M,6.21,M,FEW,SCT,M,M,3400.00,25000.00,M,M,M,YBBN 250400Z 12010KT 9999 FEW034 SCT250 22/12 Q1027 NOSIG
YBBN,2015-05-25 04:30,153.1292,-27.3917,69.80,53.60,56.38,120.00,9.00,0.00,30.33,M,6.21,M,FEW,M,M,M,3200.00,M,M,M,M,YBBN 250430Z 12009KT 9999 FEW032 21/12 Q1027
YBBN,2015-05-25 05:00,153.1292,-27.3917,69.80,53.60,56.38,130.00,7.00,0.00,30.33,M,6.21,M,FEW,BKN,M,M,3200.00,25000.00,M,M,M,YBBN 250500Z 13007KT 9999 FEW032 BKN250 21/12 Q1027
YBBN,2015-05-25 05:30,153.1292,-27.3917,69.80,53.60,56.38,130.00,8.00,0.00,30.33,M,6.21,M,FEW,SCT,M,M,3200.00,25000.00,M,M,M,YBBN 250530Z 13008KT 9999 FEW032 SCT250 21/12 Q1027
YBBN,2015-05-25 06:00,153.1292,-27.3917,69.80,53.60,56.38,120.00,7.00,0.00,30.36,M,6.21,M,FEW,SCT,M,M,3200.00,25000.00,M,M,M,YBBN 250600Z 12007KT 9999 FEW032 SCT250 21/12 Q1028 NOSIG
YBBN,2015-05-25 06:30,153.1292,-27.3917,68.00,53.60,59.97,130.00,7.00,0.00,30.36,M,6.21,M,FEW,SCT,M,M,3000.00,6500.00,M,M,M,YBBN 250630Z 13007KT 9999 FEW030 SCT065 20/12 Q1028
YBBN,2015-05-25 07:00,153.1292,-27.3917,68.00,53.60,59.97,120.00,5.00,0.00,30.36,M,6.21,M,FEW,SCT,M,M,2800.00,6400.00,M,M,M,YBBN 250700Z 12005KT 9999 FEW028 SCT064 20/12 Q1028
YBBN,2015-05-25 07:30,153.1292,-27.3917,68.00,53.60,59.97,130.00,5.00,0.00,30.36,M,6.21,M,FEW,SCT,M,M,2800.00,6400.00,M,M,M,YBBN 250730Z 13005KT 9999 FEW028 SCT064 20/12 Q1028
YBBN,2015-05-25 08:00,153.1292,-27.3917,66.20,55.40,68.15,140.00,5.00,0.00,30.36,M,6.21,M,FEW,M,M,M,2800.00,M,M,M,M,YBBN 250800Z 14005KT 9999 FEW028 19/13 Q1028 NOSIG
YBBN,2015-05-25 08:30,153.1292,-27.3917,66.20,55.40,68.15,150.00,4.00,0.00,30.36,M,6.21,M,FEW,M,M,M,2600.00,M,M,M,M,YBBN 250830Z 15004KT 9999 FEW026 19/13 Q1028
YBBN,2015-05-25 09:00,153.1292,-27.3917,64.40,55.40,72.56,150.00,4.00,0.00,30.36,M,6.21,M,FEW,SCT,M,M,2500.00,6000.00,M,M,M,YBBN 250900Z 15004KT 9999 FEW025 SCT060 18/13 Q1028 NOSIG
YBBN,2015-05-25 09:30,153.1292,-27.3917,64.40,55.40,72.56,170.00,4.00,0.00,30.39,M,6.21,M,M,M,M,M,M,M,M,M,M,YBBN 250930Z 17004KT CAVOK 18/13 Q1029
YBBN,2015-05-25 10:00,153.1292,-27.3917,62.60,55.40,77.29,170.00,4.00,0.00,30.39,M,6.21,M,FEW,M,M,M,2300.00,M,M,M,M,YBBN 251000Z 17004KT 9999 FEW023 17/13 Q1029
YBBN,2015-05-25 10:30,153.1292,-27.3917,62.60,53.60,72.38,180.00,5.00,0.00,30.39,M,6.21,M,M,M,M,M,M,M,M,M,M,YBBN 251030Z 18005KT CAVOK 17/12 Q1029
YBBN,2015-05-25 11:00,153.1292,-27.3917,62.60,53.60,72.38,190.00,5.00,0.00,30.39,M,6.21,M,M,M,M,M,M,M,M,M,M,YBBN 251100Z 19005KT CAVOK 17/12 Q1029
YBBN,2015-05-25 11:30,153.1292,-27.3917,60.80,53.60,77.14,190.00,5.00,0.00,30.39,M,6.21,M,M,M,M,M,M,M,M,M,M,YBBN 251130Z 19005KT CAVOK 16/12 Q1029
YBBN,2015-05-25 12:00,153.1292,-27.3917,60.80,53.60,77.14,200.00,4.00,0.00,30.39,M,6.21,M,VV ,M,M,M,M,M,M,M,M,YBBN 251200Z 20004KT 9999 VV/// 16/12 Q1029
YBBN,2015-05-25 12:30,153.1292,-27.3917,59.00,53.60,82.25,200.00,6.00,0.00,30.39,M,6.21,M,M,M,M,M,M,M,M,M,M,YBBN 251230Z 20006KT CAVOK 15/12 Q1029
YBBN,2015-05-25 13:00,153.1292,-27.3917,59.00,53.60,82.25,210.00,7.00,0.00,30.39,M,6.21,M,M,M,M,M,M,M,M,M,M,YBBN 251300Z 21007KT CAVOK 15/12 Q1029
YBBN,2015-05-25 13:30,153.1292,-27.3917,59.00,53.60,82.25,210.00,7.00,0.00,30.36,M,6.21,M,M,M,M,M,M,M,M,M,M,YBBN 251330Z 21007KT CAVOK 15/12 Q1028
YBBN,2015-05-25 14:00,153.1292,-27.3917,59.00,53.60,82.25,200.00,6.00,0.00,30.36,M,6.21,M,M,M,M,M,M,M,M,M,M,YBBN 251400Z 20006KT CAVOK 15/12 Q1028
YBBN,2015-05-25 14:30,153.1292,-27.3917,57.20,53.60,87.74,210.00,7.00,0.00,30.36,M,6.21,M,M,M,M,M,M,M,M,M,M,YBBN 251430Z 21007KT CAVOK 14/12 Q1028
YBBN,2015-05-25 15:00,153.1292,-27.3917,59.00,53.60,82.25,190.00,7.00,0.00,30.36,M,6.21,M,M,M,M,M,M,M,M,M,M,YBBN 251500Z 19007KT CAVOK 15/12 Q1028
YBBN,2015-05-25 15:30,153.1292,-27.3917,57.20,53.60,87.74,210.00,7.00,0.00,30.36,M,6.21,M,M,M,M,M,M,M,M,M,M,YBBN 251530Z 21007KT CAVOK 14/12 Q1028
YBBN,2015-05-25 16:00,153.1292,-27.3917,55.40,53.60,93.65,210.00,8.00,0.00,30.33,M,6.21,M,M,M,M,M,M,M,M,M,M,YBBN 251600Z 21008KT CAVOK 13/12 Q1027
YBBN,2015-05-25 16:30,153.1292,-27.3917,57.20,53.60,87.74,200.00,8.00,0.00,30.36,M,6.21,M,M,M,M,M,M,M,M,M,M,YBBN 251630Z 20008KT CAVOK 14/12 Q1028
YBBN,2015-05-25 17:00,153.1292,-27.3917,57.20,53.60,87.74,200.00,8.00,0.00,30.33,M,6.21,M,M,M,M,M,M,M,M,M,M,YBBN 251700Z 20008KT CAVOK 14/12 Q1027 NOSIG
YBBN,2015-05-25 17:30,153.1292,-27.3917,55.40,53.60,93.65,210.00,7.00,0.00,30.33,M,6.21,M,M,M,M,M,M,M,M,M,M,YBBN 251730Z 21007KT CAVOK 13/12 Q1027
YBBN,2015-05-25 18:00,153.1292,-27.3917,57.20,53.60,87.74,200.00,9.00,0.00,30.33,M,6.21,M,M,M,M,M,M,M,M,M,M,YBBN 251800Z 20009KT CAVOK 14/12 Q1027
YBBN,2015-05-25 18:30,153.1292,-27.3917,55.40,51.80,87.65,210.00,8.00,0.00,30.33,M,6.21,M,M,M,M,M,M,M,M,M,M,YBBN 251830Z 21008KT CAVOK 13/11 Q1027
YBBN,2015-05-25 19:00,153.1292,-27.3917,55.40,51.80,87.65,200.00,7.00,0.00,30.33,M,6.21,M,M,M,M,M,M,M,M,M,M,YBBN 251900Z 20007KT CAVOK 13/11 Q1027 NOSIG
YBBN,2015-05-25 19:30,153.1292,-27.3917,55.40,51.80,87.65,200.00,8.00,0.00,30.33,M,6.21,M,FEW,M,M,M,2500.00,M,M,M,M,YBBN 251930Z 20008KT 9999 FEW025 13/11 Q1027
YBBN,2015-05-25 20:00,153.1292,-27.3917,55.40,51.80,87.65,210.00,8.00,0.00,30.36,M,6.21,M,FEW,SCT,M,M,2500.00,35000.00,M,M,M,YBBN 252000Z 21008KT 9999 FEW025 SCT350 13/11 Q1028
YBBN,2015-05-25 20:30,153.1292,-27.3917,55.40,51.80,87.65,210.00,8.00,0.00,30.36,M,6.21,M,FEW,SCT,M,M,2500.00,35000.00,M,M,M,YBBN 252030Z 21008KT 9999 FEW025 SCT350 13/11 Q1028
YBBN,2015-05-25 21:00,153.1292,-27.3917,55.40,51.80,87.65,200.00,9.00,0.00,30.36,M,6.21,M,FEW,SCT,M,M,2500.00,26000.00,M,M,M,YBBN 252100Z 20009KT 9999 FEW025 SCT260 13/11 Q1028
YBBN,2015-05-25 21:30,153.1292,-27.3917,57.20,53.60,87.74,200.00,9.00,0.00,30.36,M,6.21,M,FEW,SCT,BKN,M,2500.00,5400.00,28000.00,M,M,YBBN 252130Z 20009KT 9999 FEW025 SCT054 BKN280 14/12 Q1028
YBBN,2015-05-25 22:00,153.1292,-27.3917,59.00,53.60,82.25,210.00,10.00,0.00,30.36,M,6.21,M,FEW,BKN,M,M,2800.00,26000.00,M,M,M,YBBN 252200Z 21010KT 9999 FEW028 BKN260 15/12 Q1028 NOSIG
YBBN,2015-05-25 22:30,153.1292,-27.3917,60.80,53.60,77.14,210.00,11.00,0.00,30.36,M,6.21,M,FEW,BKN,M,M,2800.00,26000.00,M,M,M,YBBN 252230Z 21011KT 9999 FEW028 BKN260 16/12 Q1028
YBBN,2015-05-25 23:00,153.1292,-27.3917,62.60,53.60,72.38,210.00,10.00,0.00,30.36,M,6.21,M,FEW,BKN,M,M,2600.00,26000.00,M,M,M,YBBN 252300Z 21010KT 9999 FEW026 BKN260 17/12 Q1028 NOSIG
YBBN,2015-05-25 23:30,153.1292,-27.3917,64.40,53.60,67.95,200.00,8.00,0.00,30.36,M,6.21,M,FEW,BKN,M,M,2800.00,26000.00,M,M,M,YBBN 252330Z 20008KT 9999 FEW028 BKN260 18/12 Q1028
