#DEBUG: Format Typ    -> comma
#DEBUG: Time Period   -> 2013-03-07 00:00:00+00:00 2013-03-08 00:00:00+00:00
#DEBUG: Time Zone     -> Etc/UTC
#DEBUG: Data Contact   -> daryl herzmann akrherz@iastate.edu 515-294-5978
#DEBUG: Entries Found -> -1
station,valid,lon,lat,tmpf, dwpf, relh, drct, sknt, p01i, alti, mslp, vsby, gust, skyc1, skyc2, skyc3, skyc4, skyl1, skyl2, skyl3, skyl4, presentwx, metar
YBBN,2013-03-07 00:00,153.1292,-27.3917,78.80,64.40,61.36,130.00,9.00,0.00,30.03,M,6.21,M,SCT,M,M,M,3000.00,M,M,M,M,YBBN 070000Z 13009KT 9999 SCT030 26/18 Q1017 INTER 0000/0300 3000 SHRA BKN015
YBBN,2013-03-07 00:30,153.1292,-27.3917,78.80,62.60,57.60,120.00,11.00,0.00,30.03,M,6.21,M,SCT,M,M,M,3000.00,M,M,M,M,YBBN 070030Z 12011KT 9999 SCT030 26/17 Q1017
YBBN,2013-03-07 01:00,153.1292,-27.3917,78.80,62.60,57.60,130.00,10.00,0.00,30.00,M,6.21,M,FEW,M,M,M,3000.00,M,M,M,M,YBBN 070100Z 13010KT 9999 FEW030 26/17 Q1016
YBBN,2013-03-07 01:30,153.1292,-27.3917,M,M,M,130.00,12.00,0.00,M,M,6.21,M,SCT,M,M,M,3000.00,M,M,M,M,YBBN 070130Z 13012KT 9999 SCT030 Q////
YBBN,2013-03-07 02:00,153.1292,-27.3917,78.80,64.40,61.36,110.00,9.00,0.00,30.00,M,6.21,M,SCT,M,M,M,3000.00,M,M,M,M,YBBN 070200Z 11009KT 9999 SCT030 26/18 Q1016
YBBN,2013-03-07 02:30,153.1292,-27.3917,78.80,62.60,57.60,100.00,10.00,0.00,30.00,M,6.21,M,FEW,M,M,M,3000.00,M,M,M,M,YBBN 070230Z 10010KT 9999 FEW030 26/17 Q1016
YBBN,2013-03-07 03:00,153.1292,-27.3917,78.80,62.60,57.60,90.00,10.00,0.00,29.97,M,6.21,M,SCT,M,M,M,3000.00,M,M,M,M,YBBN 070300Z 09010KT 9999 SCT030 26/17 Q1015
YBBN,2013-03-07 03:30,153.1292,-27.3917,80.60,62.60,54.30,120.00,9.00,0.00,29.97,M,6.21,M,FEW,M,M,M,3000.00,M,M,M,M,YBBN 070330Z 12009KT 9999 FEW030 27/17 Q1015
YBBN,2013-03-07 04:00,153.1292,-27.3917,80.60,62.60,54.30,90.00,11.00,0.00,29.97,M,6.21,M,SCT,M,M,M,3500.00,M,M,M,M,YBBN 070400Z 09011KT 9999 SCT035 27/17 Q1015
YBBN,2013-03-07 04:30,153.1292,-27.3917,78.80,64.40,61.36,100.00,10.00,0.00,29.97,M,6.21,M,SCT,M,M,M,3500.00,M,M,M,M,YBBN 070430Z 10010KT 9999 SCT035 26/18 Q1015
YBBN,2013-03-07 05:00,153.1292,-27.3917,78.80,64.40,61.36,120.00,10.00,0.00,29.97,M,6.21,M,SCT,M,M,M,3500.00,M,M,M,M,YBBN 070500Z 12010KT 9999 SCT035 26/18 Q1015
YBBN,2013-03-07 05:30,153.1292,-27.3917,78.80,64.40,61.36,120.00,11.00,0.00,29.97,M,6.21,M,SCT,M,M,M,3500.00,M,M,M,M,YBBN 070530Z 12011KT 9999 SCT035 26/18 Q1015
YBBN,2013-03-07 06:00,153.1292,-27.3917,77.00,66.20,69.33,130.00,10.00,0.00,29.97,M,4.97,M,SCT,M,M,M,3200.00,M,M,M,VCSH,YBBN 070600Z 13010KT 8000 VCSH SCT032 25/19 Q1015
YBBN,2013-03-07 06:30,153.1292,-27.3917,75.20,66.20,73.61,130.00,7.00,0.00,29.97,M,6.21,M,FEW,SCT,M,M,3200.00,7000.00,M,M,VCSH,YBBN 070630Z 13007KT 9999 VCSH FEW032 SCT070 24/19 Q1015
YBBN,2013-03-07 07:00,153.1292,-27.3917,75.20,66.20,73.61,130.00,9.00,0.00,29.97,M,6.21,M,FEW,BKN,M,M,3000.00,7000.00,M,M,VCSH,YBBN 070700Z 13009KT 9999 VCSH FEW030 BKN070 24/19 Q1015
YBBN,2013-03-07 07:30,153.1292,-27.3917,75.20,64.40,69.14,130.00,8.00,0.00,29.97,M,4.97,M,FEW,BKN,M,M,2800.00,6800.00,M,M,VCSH,YBBN 070730Z 13008KT 8000 VCSH FEW028 BKN068 24/18 Q1015
YBBN,2013-03-07 08:00,153.1292,-27.3917,73.40,66.20,78.19,130.00,8.00,0.00,30.00,M,4.97,M,FEW,SCT,BKN,M,1300.00,2400.00,6800.00,M,VCSH,YBBN 070800Z 13008KT 8000 VCSH FEW013 SCT024 BKN068 23/19 Q1016 NOSIG
YBBN,2013-03-07 08:30,153.1292,-27.3917,71.60,66.20,83.09,150.00,7.00,0.00,30.00,M,6.21,M,FEW,BKN,M,M,2000.00,6100.00,M,M,VCSH,YBBN 070830Z 15007KT 9999 VCSH FEW020 BKN061 22/19 Q1016
YBBN,2013-03-07 09:00,153.1292,-27.3917,71.60,66.20,83.09,170.00,7.00,0.00,30.03,M,6.21,M,M,M,M,M,M,M,M,M,M,YBBN 070900Z 17007KT CAVOK 22/19 Q1017
YBBN,2013-03-07 09:30,153.1292,-27.3917,71.60,66.20,83.09,170.00,7.00,0.00,30.03,M,6.21,M,FEW,BKN,M,M,3500.00,6800.00,M,M,M,YBBN 070930Z 17007KT 9999 FEW035 BKN068 22/19 Q1017
YBBN,2013-03-07 10:00,153.1292,-27.3917,69.80,68.00,94.01,170.00,6.00,0.00,30.03,M,6.21,M,FEW,BKN,M,M,2000.00,6600.00,M,M,M,YBBN 071000Z 17006KT 9999 FEW020 BKN066 21/20 Q1017 NOSIG
YBBN,2013-03-07 10:30,153.1292,-27.3917,69.80,68.00,94.01,160.00,5.00,0.00,30.06,M,6.21,M,FEW,BKN,M,M,2000.00,6600.00,M,M,M,YBBN 071030Z 16005KT 9999 FEW020 BKN066 21/20 Q1018
YBBN,2013-03-07 11:00,153.1292,-27.3917,69.80,68.00,94.01,170.00,5.00,0.00,30.06,M,6.21,M,FEW,SCT,BKN,M,2000.00,3300.00,6600.00,M,-SHRA,YBBN 071100Z 17005KT 9999 -SHRA FEW020 SCT033 BKN066 21/20 Q1018 NOSIG
YBBN,2013-03-07 11:30,153.1292,-27.3917,69.80,68.00,94.01,170.00,6.00,0.00,30.06,M,6.21,M,FEW,BKN,M,M,2200.00,6600.00,M,M,M,YBBN 071130Z 17006KT 9999 FEW022 BKN066 21/20 Q1018
YBBN,2013-03-07 12:00,153.1292,-27.3917,69.80,66.20,88.34,170.00,4.00,0.00,30.06,M,6.21,M,FEW,M,M,M,2500.00,M,M,M,M,YBBN 071200Z 17004KT 9999 FEW025 21/19 Q1018
YBBN,2013-03-07 12:30,153.1292,-27.3917,69.80,66.20,88.34,160.00,3.00,0.00,30.06,M,6.21,M,FEW,SCT,M,M,3000.00,6600.00,M,M,M,YBBN 071230Z 16003KT 9999 FEW030 SCT066 21/19 Q1018
YBBN,2013-03-07 13:00,153.1292,-27.3917,68.00,68.00,100.00,160.00,4.00,0.00,30.06,M,6.21,M,FEW,M,M,M,3000.00,M,M,M,M,YBBN 071300Z 16004KT 9999 FEW030 20/20 Q1018 INTER 1500/1700 3000 SHRA BKN015
YBBN,2013-03-07 13:30,153.1292,-27.3917,69.80,66.20,88.34,160.00,3.00,0.00,30.03,M,6.21,M,FEW,BKN,M,M,3200.00,5600.00,M,M,M,YBBN 071330Z 16003KT 9999 FEW032 BKN056 21/19 Q1017
YBBN,2013-03-07 14:00,153.1292,-27.3917,69.80,66.20,88.34,100.00,8.00,0.00,30.03,M,6.21,M,FEW,M,M,M,3200.00,M,M,M,M,YBBN 071400Z 10008KT 9999 FEW032 21/19 Q1017 INTER 1500/1700 3000 SHRA BKN015
YBBN,2013-03-07 14:30,153.1292,-27.3917,73.40,64.40,73.44,110.00,8.00,0.00,30.03,M,6.21,M,M,M,M,M,M,M,M,M,M,YBBN 071430Z 11008KT CAVOK 23/18 Q1017
YBBN,2013-03-07 15:00,153.1292,-27.3917,71.60,66.20,83.09,110.00,6.00,0.00,30.03,M,6.21,M,FEW,BKN,M,M,3200.00,6400.00,M,M,M,YBBN 071500Z 11006KT 9999 FEW032 BKN064 22/19 Q1017 NOSIG
YBBN,2013-03-07 15:30,153.1292,-27.3917,69.80,64.40,82.98,110.00,8.00,0.00,30.00,M,6.21,M,FEW,BKN,M,M,3500.00,6200.00,M,M,M,YBBN 071530Z 11008KT 9999 FEW035 BKN062 21/18 Q1016
YBBN,2013-03-07 16:00,153.1292,-27.3917,73.40,60.80,64.69,110.00,7.00,0.00,30.00,M,6.21,M,FEW,BKN,M,M,3500.00,5900.00,M,M,M,YBBN 071600Z 11007KT 9999 FEW035 BKN059 23/16 Q1016
YBBN,2013-03-07 16:30,153.1292,-27.3917,73.40,64.40,73.44,90.00,8.00,0.00,30.00,M,6.21,M,FEW,BKN,M,M,3500.00,5800.00,M,M,M,YBBN 071630Z 09008KT 9999 FEW035 BKN058 23/18 Q1016
YBBN,2013-03-07 17:00,153.1292,-27.3917,73.40,62.60,68.94,110.00,7.00,0.00,30.00,M,6.21,M,FEW,BKN,M,M,3800.00,6000.00,M,M,M,YBBN 071700Z 11007KT 9999 FEW038 BKN060 23/17 Q1016 NOSIG
YBBN,2013-03-07 17:30,153.1292,-27.3917,69.80,64.40,82.98,120.00,6.00,0.00,30.00,M,6.21,M,FEW,BKN,M,M,3800.00,6200.00,M,M,M,YBBN 071730Z 12006KT 9999 FEW038 BKN062 21/18 Q1016
YBBN,2013-03-07 18:00,153.1292,-27.3917,69.80,64.40,82.98,110.00,7.00,0.00,30.00,M,6.21,M,FEW,BKN,M,M,3200.00,6500.00,M,M,M,YBBN 071800Z 11007KT 9999 FEW032 BKN065 21/18 Q1016 INTER 2000/2100 3000 SHRA BKN015
YBBN,2013-03-07 18:30,153.1292,-27.3917,68.00,64.40,88.26,130.00,7.00,0.00,30.00,M,6.21,M,FEW,BKN,M,M,3200.00,6500.00,M,M,M,YBBN 071830Z 13007KT 9999 FEW032 BKN065 20/18 Q1016
YBBN,2013-03-07 19:00,153.1292,-27.3917,69.80,64.40,82.98,200.00,6.00,0.00,30.00,M,6.21,M,FEW,BKN,M,M,2800.00,6300.00,M,M,M,YBBN 071900Z 20006KT 9999 FEW028 BKN063 21/18 Q1016
YBBN,2013-03-07 19:30,153.1292,-27.3917,69.80,64.40,82.98,200.00,6.00,0.00,30.03,M,6.21,M,FEW,BKN,M,M,2800.00,6300.00,M,M,M,YBBN 071930Z 20006KT 9999 FEW028 BKN063 21/18 Q1017
YBBN,2013-03-07 20:00,153.1292,-27.3917,68.00,64.40,88.26,200.00,6.00,0.00,30.03,M,6.21,M,FEW,SCT,M,M,3000.00,6500.00,M,M,M,YBBN 072000Z 20006KT 9999 FEW030 SCT065 20/18 Q1017
YBBN,2013-03-07 20:30,153.1292,-27.3917,68.00,66.20,93.97,210.00,6.00,0.00,30.03,M,6.21,M,FEW,BKN,M,M,3000.00,6500.00,M,M,M,YBBN 072030Z 21006KT 9999 FEW030 BKN065 20/19 Q1017
YBBN,2013-03-07 21:00,153.1292,-27.3917,69.80,66.20,88.34,200.00,8.00,0.00,30.06,M,6.21,M,FEW,BKN,M,M,3000.00,6500.00,M,M,M,YBBN 072100Z 20008KT 9999 FEW030 BKN065 21/19 Q1018
YBBN,2013-03-07 21:30,153.1292,-27.3917,71.60,64.40,78.04,200.00,7.00,0.00,30.06,M,6.21,M,M,M,M,M,M,M,M,M,M,YBBN 072130Z 20007KT CAVOK 22/18 Q1018 RMK 6SC065
YBBN,2013-03-07 22:00,153.1292,-27.3917,75.20,64.40,69.14,170.00,7.00,0.00,30.06,M,6.21,M,M,M,M,M,M,M,M,M,M,YBBN 072200Z 17007KT CAVOK 24/18 Q1018 NOSIG
YBBN,2013-03-07 22:30,153.1292,-27.3917,77.00,64.40,65.12,150.00,7.00,0.00,30.06,M,6.21,M,FEW,BKN,M,M,3000.00,6500.00,M,M,M,YBBN 072230Z 15007KT 9999 FEW030 BKN065 25/18 Q1018
YBBN,2013-03-07 23:00,153.1292,-27.3917,78.80,62.60,57.60,140.00,7.00,0.00,30.06,M,6.21,M,FEW,BKN,M,M,3000.00,6500.00,M,M,M,YBBN 072300Z 14007KT 9999 FEW030 BKN065 26/17 Q1018
YBBN,2013-03-07 23:30,153.1292,-27.3917,78.80,62.60,57.60,130.00,8.00,0.00,30.06,M,6.21,M,FEW,BKN,M,M,3000.00,6500.00,M,M,M,YBBN 072330Z 13008KT 9999 FEW030 BKN065 26/17 Q1018
