#DEBUG: Format Typ    -> comma
#DEBUG: Time Period   -> 2011-12-05 00:00:00+00:00 2011-12-06 00:00:00+00:00
#DEBUG: Time Zone     -> Etc/UTC
#DEBUG: Data Contact   -> daryl herzmann akrherz@iastate.edu 515-294-5978
#DEBUG: Entries Found -> -1
station,valid,lon,lat,tmpf, dwpf, relh, drct, sknt, p01i, alti, mslp, vsby, gust, skyc1, skyc2, skyc3, skyc4, skyl1, skyl2, skyl3, skyl4, presentwx, metar
YBBN,2011-12-05 00:00,153.1292,-27.3917,73.40,57.20,56.88,140.00,15.00,M,29.97,M,6.21,M,SCT,SCT,BKN,M,3500.00,7500.00,22000.00,M,M,YBBN 050000Z 14015KT 9999 SCT035 SCT075 BKN220 23/14 Q1015
YBBN,2011-12-05 00:30,153.1292,-27.3917,73.40,55.40,53.29,140.00,14.00,M,29.97,M,6.21,25.00,SCT,SCT,BKN,M,3500.00,7000.00,22000.00,M,M,YBBN 050030Z 14014G25KT 9999 SCT035 SCT070 BKN220 23/13 Q1015
YBBN,2011-12-05 01:00,153.1292,-27.3917,77.00,55.40,47.25,140.00,14.00,M,29.94,M,6.21,M,SCT,BKN,M,M,4000.00,22000.00,M,M,M,YBBN 050100Z 14014KT 9999 SCT040 BKN220 25/13 Q1014
YBBN,2011-12-05 01:07,153.1292,-27.3917,75.20,55.40,50.17,130.00,15.00,M,29.94,M,6.21,27.00,SCT,BKN,M,M,4000.00,22000.00,M,M,M,YBBN 050107Z 13015G27KT 9999 SCT040 BKN220 24/13 Q1014 NOSIG
YBBN,2011-12-05 01:33,153.1292,-27.3917,75.20,57.20,53.55,130.00,15.00,M,29.94,M,6.21,26.00,SCT,BKN,M,M,3800.00,22000.00,M,M,M,YBBN 050133Z 13015G26KT 9999 SCT038 BKN220 24/14 Q1014 NOSIG
YBBN,2011-12-05 02:00,153.1292,-27.3917,75.20,57.20,53.55,140.00,14.00,M,29.94,M,6.21,M,SCT,BKN,M,M,3500.00,22000.00,M,M,M,YBBN 050200Z 14014KT 9999 SCT035 BKN220 24/14 Q1014 NOSIG
YBBN,2011-12-05 02:30,153.1292,-27.3917,77.00,57.20,50.43,140.00,15.00,M,29.94,M,6.21,M,SCT,SCT,BKN,M,3800.00,9000.00,22000.00,M,M,YBBN 050230Z 14015KT 9999 SCT038 SCT090 BKN220 25/14 Q1014
YBBN,2011-12-05 02:45,153.1292,-27.3917,75.20,57.20,53.55,140.00,15.00,M,29.91,M,6.21,26.00,SCT,SCT,BKN,M,3400.00,9000.00,22000.00,M,M,YBBN 050245Z 14015G26KT 9999 SCT034 SCT090 BKN220 24/14 Q1013 NOSIG
YBBN,2011-12-05 03:00,153.1292,-27.3917,75.20,57.20,53.55,140.00,14.00,M,29.91,M,6.21,25.00,SCT,BKN,M,M,3800.00,22000.00,M,M,M,YBBN 050300Z 14014G25KT 9999 SCT038 BKN220 24/14 Q1013 NOSIG
YBBN,2011-12-05 03:36,153.1292,-27.3917,73.40,57.20,56.88,140.00,15.00,M,29.91,M,6.21,25.00,SCT,BKN,M,M,3800.00,22000.00,M,M,M,YBBN 050336Z 14015G25KT 9999 SCT038 BKN220 23/14 Q1013 NOSIG
YBBN,2011-12-05 04:00,153.1292,-27.3917,73.40,57.20,56.88,130.00,15.00,M,29.91,M,6.21,26.00,SCT,SCT,BKN,M,3800.00,8100.00,22000.00,M,M,YBBN 050400Z 13015G26KT 9999 SCT038 SCT081 BKN220 23/14 Q1013 NOSIG
YBBN,2011-12-05 04:30,153.1292,-27.3917,73.40,59.00,60.67,130.00,14.00,M,29.91,M,6.21,24.00,FEW,SCT,BKN,M,2000.00,3500.00,22000.00,M,M,YBBN 050430Z 13014G24KT 9999 FEW020 SCT035 BKN220 23/15 Q1013
YBBN,2011-12-05 05:00,153.1292,-27.3917,71.60,57.20,60.44,130.00,14.00,M,29.91,M,6.21,M,FEW,SCT,BKN,M,2500.00,4500.00,22000.00,M,M,YBBN 050500Z 13014KT 9999 FEW025 SCT045 BKN220 22/14 Q1013 NOSIG
YBBN,2011-12-05 05:16,153.1292,-27.3917,71.60,55.40,56.63,130.00,15.00,M,29.91,M,6.21,25.00,FEW,SCT,BKN,M,3500.00,5000.00,22000.00,M,M,YBBN 050516Z 13015G25KT 9999 FEW035 SCT050 BKN220 22/13 Q1013 NOSIG
YBBN,2011-12-05 05:30,153.1292,-27.3917,71.60,57.20,60.44,130.00,14.00,M,29.91,M,6.21,M,FEW,SCT,BKN,M,3500.00,5500.00,22000.00,M,M,YBBN 050530Z 13014KT 9999 FEW035 SCT055 BKN220 22/14 Q1013
YBBN,2011-12-05 06:00,153.1292,-27.3917,71.60,57.20,60.44,130.00,15.00,M,29.91,M,6.21,M,FEW,SCT,BKN,M,3500.00,5800.00,22000.00,M,M,YBBN 050600Z 13015KT 9999 FEW035 SCT058 BKN220 22/14 Q1013 NOSIG
YBBN,2011-12-05 06:30,153.1292,-27.3917,71.60,57.20,60.44,130.00,13.00,M,29.91,M,6.21,M,FEW,BKN,BKN,M,3500.00,6000.00,22000.00,M,M,YBBN 050630Z 13013KT 9999 FEW035 BKN060 BKN220 22/14 Q1013
YBBN,2011-12-05 07:00,153.1292,-27.3917,69.80,57.20,64.26,140.00,13.00,M,29.94,M,6.21,M,FEW,BKN,BKN,M,3500.00,6400.00,22000.00,M,M,YBBN 050700Z 14013KT 9999 FEW035 BKN064 BKN220 21/14 Q1014
YBBN,2011-12-05 07:30,153.1292,-27.3917,69.80,57.20,64.26,150.00,13.00,M,29.94,M,6.21,M,FEW,BKN,M,M,3500.00,6200.00,M,M,M,YBBN 050730Z 15013KT 9999 FEW035 BKN062 21/14 Q1014
YBBN,2011-12-05 08:00,153.1292,-27.3917,69.80,57.20,64.26,150.00,12.00,M,29.94,M,6.21,23.00,FEW,BKN,BKN,M,3500.00,6200.00,22000.00,M,M,YBBN 050800Z 15012G23KT 9999 FEW035 BKN062 BKN220 21/14 Q1014 NOSIG
YBBN,2011-12-05 08:30,153.1292,-27.3917,68.00,57.20,68.35,150.00,10.00,M,29.97,M,6.21,20.00,FEW,BKN,M,M,3000.00,6200.00,M,M,M,YBBN 050830Z 15010G20KT 9999 FEW030 BKN062 20/14 Q1015
YBBN,2011-12-05 09:30,153.1292,-27.3917,68.00,57.20,68.35,150.00,11.00,M,30.00,M,6.21,M,FEW,BKN,M,M,2000.00,6200.00,M,M,M,YBBN 050930Z 15011KT 9999 FEW020 BKN062 20/14 Q1016
YBBN,2011-12-05 10:30,153.1292,-27.3917,68.00,57.20,68.35,160.00,8.00,M,30.00,M,6.21,M,FEW,BKN,M,M,2000.00,6400.00,M,M,M,YBBN 051030Z 16008KT 9999 FEW020 BKN064 20/14 Q1016
YBBN,2011-12-05 11:30,153.1292,-27.3917,66.20,57.20,72.74,160.00,8.00,M,30.00,M,6.21,M,FEW,BKN,BKN,M,1800.00,4000.00,9500.00,M,-RA,YBBN 051130Z 16008KT 9999 -RA FEW018 BKN040 BKN095 19/14 Q1016
YBBN,2011-12-05 13:00,153.1292,-27.3917,64.40,57.20,77.45,180.00,9.00,M,29.97,M,6.21,M,FEW,BKN,M,M,1800.00,12000.00,M,M,M,YBBN 051300Z 18009KT 9999 FEW018 BKN120 18/14 Q1015
YBBN,2011-12-05 13:30,153.1292,-27.3917,64.40,57.20,77.45,200.00,9.00,M,30.00,M,6.21,M,FEW,SCT,BKN,M,1800.00,3000.00,12000.00,M,M,YBBN 051330Z 20009KT 9999 FEW018 SCT030 BKN120 18/14 Q1016
YBBN,2011-12-05 14:00,153.1292,-27.3917,64.40,57.20,77.45,170.00,8.00,M,29.97,M,6.21,M,FEW,BKN,M,M,1800.00,4000.00,M,M,M,YBBN 051400Z 17008KT 9999 FEW018 BKN040 18/14 Q1015 NOSIG
YBBN,2011-12-05 14:30,153.1292,-27.3917,64.40,55.40,72.56,170.00,9.00,M,29.94,M,6.21,M,FEW,BKN,M,M,1800.00,5000.00,M,M,M,YBBN 051430Z 17009KT 9999 FEW018 BKN050 18/13 Q1014
YBBN,2011-12-05 15:00,153.1292,-27.3917,64.40,55.40,72.56,170.00,8.00,M,29.94,M,6.21,M,BKN,BKN,M,M,4000.00,18000.00,M,M,M,YBBN 051500Z 17008KT 9999 BKN040 BKN180 18/13 Q1014 NOSIG
YBBN,2011-12-05 15:30,153.1292,-27.3917,64.40,55.40,72.56,170.00,8.00,M,29.94,M,6.21,M,M,M,M,M,M,M,M,M,M,YBBN 051530Z 17008KT CAVOK 18/13 Q1014
YBBN,2011-12-05 16:00,153.1292,-27.3917,66.20,53.60,63.82,180.00,9.00,M,29.91,M,6.21,M,BKN,BKN,M,M,4300.00,10000.00,M,M,M,YBBN 051600Z 18009KT 9999 BKN043 BKN100 19/12 Q1013 NOSIG
YBBN,2011-12-05 16:30,153.1292,-27.3917,64.40,55.40,72.56,170.00,10.00,M,29.91,M,6.21,M,M,M,M,M,M,M,M,M,M,YBBN 051630Z 17010KT CAVOK 18/13 Q1013 RMK 5SC050 6AC100
YBBN,2011-12-05 17:00,153.1292,-27.3917,66.20,53.60,63.82,180.00,9.00,M,29.91,M,6.21,M,BKN,BKN,M,M,3800.00,10000.00,M,M,M,YBBN 051700Z 18009KT 9999 BKN038 BKN100 19/12 Q1013 NOSIG
YBBN,2011-12-05 17:30,153.1292,-27.3917,66.20,53.60,63.82,180.00,9.00,M,29.94,M,6.21,M,BKN,M,M,M,4000.00,M,M,M,M,YBBN 051730Z 18009KT 9999 BKN040 19/12 Q1014
YBBN,2011-12-05 18:00,153.1292,-27.3917,66.20,53.60,63.82,170.00,10.00,M,29.94,M,6.21,M,M,M,M,M,M,M,M,M,M,YBBN 051800Z 17010KT CAVOK 19/12 Q1014 RMK 7SC050
YBBN,2011-12-05 18:30,153.1292,-27.3917,66.20,53.60,63.82,170.00,9.00,M,29.94,M,6.21,M,BKN,M,M,M,4200.00,M,M,M,M,YBBN 051830Z 17009KT 9999 BKN042 19/12 Q1014
YBBN,2011-12-05 19:00,153.1292,-27.3917,66.20,53.60,63.82,170.00,8.00,M,29.94,M,6.21,M,FEW,BKN,BKN,M,1800.00,4200.00,9200.00,M,M,YBBN 051900Z 17008KT 9999 FEW018 BKN042 BKN092 19/12 Q1014 NOSIG
YBBN,2011-12-05 19:30,153.1292,-27.3917,66.20,51.80,59.74,160.00,8.00,M,29.94,M,6.21,M,FEW,BKN,BKN,M,1800.00,4700.00,9400.00,M,M,YBBN 051930Z 16008KT 9999 FEW018 BKN047 BKN094 19/11 Q1014
YBBN,2011-12-05 20:00,153.1292,-27.3917,66.20,51.80,59.74,180.00,9.00,M,29.97,M,6.21,M,FEW,BKN,M,M,1800.00,4500.00,M,M,M,YBBN 052000Z 18009KT 9999 FEW018 BKN045 19/11 Q1015 NOSIG
YBBN,2011-12-05 20:30,153.1292,-27.3917,66.20,51.80,59.74,160.00,9.00,M,29.97,M,6.21,M,FEW,BKN,M,M,2000.00,4500.00,M,M,M,YBBN 052030Z 16009KT 9999 FEW020 BKN045 19/11 Q1015
YBBN,2011-12-05 21:00,153.1292,-27.3917,68.00,51.80,56.13,170.00,8.00,M,29.97,M,6.21,M,FEW,BKN,M,M,2500.00,4400.00,M,M,M,YBBN 052100Z 17008KT 9999 FEW025 BKN044 20/11 Q1015 NOSIG
YBBN,2011-12-05 21:30,153.1292,-27.3917,68.00,53.60,59.97,170.00,8.00,M,29.97,M,6.21,M,FEW,BKN,M,M,2500.00,4400.00,M,M,M,YBBN 052130Z 17008KT 9999 FEW025 BKN044 20/12 Q1015
YBBN,2011-12-05 22:00,153.1292,-27.3917,69.80,51.80,52.77,150.00,8.00,M,29.97,M,6.21,M,FEW,BKN,BKN,M,3000.00,4100.00,9100.00,M,M,YBBN 052200Z 15008KT 9999 FEW030 BKN041 BKN091 21/11 Q1015 NOSIG
YBBN,2011-12-05 22:30,153.1292,-27.3917,69.80,53.60,56.38,150.00,10.00,M,29.97,M,6.21,M,FEW,BKN,M,M,3000.00,4300.00,M,M,M,YBBN 052230Z 15010KT 9999 FEW030 BKN043 21/12 Q1015
YBBN,2011-12-05 23:00,153.1292,-27.3917,69.80,53.60,56.38,150.00,10.00,M,29.97,M,6.21,M,FEW,BKN,M,M,3500.00,4100.00,M,M,M,YBBN 052300Z 15010KT 9999 FEW035 BKN041 21/12 Q1015 NOSIG
YBBN,2011-12-05 23:30,153.1292,-27.3917,69.80,53.60,56.38,140.00,11.00,M,29.97,M,6.21,M,FEW,BKN,M,M,3500.00,4200.00,M,M,M,YBBN 052330Z 14011KT 9999 FEW035 BKN042 21/12 Q1015
