#DEBUG: Format Typ    -> comma
#DEBUG: Time Period   -> 2013-09-12 00:00:00+00:00 2013-09-13 00:00:00+00:00
#DEBUG: Time Zone     -> Etc/UTC
#DEBUG: Data Contact   -> daryl herzmann akrherz@iastate.edu 515-294-5978
#DEBUG: Entries Found -> -1
station,valid,lon,lat,tmpf, dwpf, relh, drct, sknt, p01i, alti, mslp, vsby, gust, skyc1, skyc2, skyc3, skyc4, skyl1, skyl2, skyl3, skyl4, presentwx, metar
YBBN,2013-09-12 00:00,153.1292,-27.3917,78.80,53.60,41.69,190.00,6.00,0.00,29.94,M,6.21,M,M,M,M,M,M,M,M,M,M,YBBN 120000Z 19006KT CAVOK 26/12 Q1014 NOSIG
YBBN,2013-09-12 00:30,153.1292,-27.3917,80.60,51.80,36.79,240.00,3.00,0.00,29.91,M,6.21,M,M,M,M,M,M,M,M,M,M,YBBN 120030Z 24003KT CAVOK 27/11 Q1013
YBBN,2013-09-12 01:00,153.1292,-27.3917,82.40,50.00,32.46,30.00,9.00,0.00,29.88,M,6.21,M,M,M,M,M,M,M,M,M,M,YBBN 120100Z 03009KT CAVOK 28/10 Q1012 NOSIG
YBBN,2013-09-12 01:30,153.1292,-27.3917,78.80,62.60,57.60,30.00,9.00,0.00,29.88,M,6.21,M,FEW,M,M,M,4500.00,M,M,M,M,YBBN 120130Z 03009KT 9999 FEW045 26/17 Q1012
YBBN,2013-09-12 02:00,153.1292,-27.3917,78.80,57.20,47.52,30.00,10.00,0.00,29.88,M,6.21,M,FEW,M,M,M,4800.00,M,M,M,M,YBBN 120200Z 03010KT 9999 FEW048 26/14 Q1012 NOSIG
YBBN,2013-09-12 02:30,153.1292,-27.3917,77.00,64.40,65.12,40.00,13.00,0.00,29.85,M,6.21,M,FEW,M,M,M,3500.00,M,M,M,M,YBBN 120230Z 04013KT 9999 FEW035 25/18 Q1011
YBBN,2013-09-12 03:00,153.1292,-27.3917,77.00,64.40,65.12,50.00,13.00,0.00,29.85,M,6.21,M,FEW,M,M,M,3200.00,M,M,M,M,YBBN 120300Z 05013KT 9999 FEW032 25/18 Q1011 NOSIG
YBBN,2013-09-12 03:30,153.1292,-27.3917,77.00,64.40,65.12,50.00,12.00,0.00,29.85,M,6.21,M,FEW,M,M,M,3200.00,M,M,M,M,YBBN 120330Z 05012KT 9999 FEW032 25/18 Q1011
YBBN,2013-09-12 04:00,153.1292,-27.3917,77.00,64.40,65.12,50.00,13.00,0.00,29.85,M,6.21,M,FEW,M,M,M,3200.00,M,M,M,M,YBBN 120400Z 05013KT 9999 FEW032 25/18 Q1011
YBBN,2013-09-12 04:30,153.1292,-27.3917,75.20,66.20,73.61,70.00,13.00,0.00,29.83,M,6.21,M,FEW,M,M,M,3000.00,M,M,M,M,YBBN 120430Z 07013KT 9999 FEW030 24/19 Q1010
YBBN,2013-09-12 05:00,153.1292,-27.3917,75.20,66.20,73.61,80.00,11.00,0.00,29.83,M,6.21,M,FEW,M,M,M,2800.00,M,M,M,M,YBBN 120500Z 08011KT 9999 FEW028 24/19 Q1010 NOSIG
YBBN,2013-09-12 05:30,153.1292,-27.3917,73.40,64.40,73.44,70.00,12.00,0.00,29.83,M,6.21,M,FEW,M,M,M,2800.00,M,M,M,M,YBBN 120530Z 07012KT 9999 FEW028 23/18 Q1010
YBBN,2013-09-12 06:00,153.1292,-27.3917,73.40,60.80,64.69,70.00,12.00,0.00,29.85,M,6.21,M,FEW,M,M,M,3200.00,M,M,M,M,YBBN 120600Z 07012KT 9999 FEW032 23/16 Q1011
YBBN,2013-09-12 06:30,153.1292,-27.3917,73.40,62.60,68.94,70.00,10.00,0.00,29.85,M,6.21,M,FEW,M,M,M,3000.00,M,M,M,M,YBBN 120630Z 07010KT 9999 FEW030 23/17 Q1011
YBBN,2013-09-12 07:00,153.1292,-27.3917,71.60,64.40,78.04,70.00,9.00,0.00,29.85,M,6.21,M,FEW,M,M,M,2800.00,M,M,M,M,YBBN 120700Z 07009KT 9999 FEW028 22/18 Q1011
YBBN,2013-09-12 07:30,153.1292,-27.3917,69.80,64.40,82.98,60.00,9.00,0.00,29.85,M,6.21,M,FEW,M,M,M,2500.00,M,M,M,M,YBBN 120730Z 06009KT 9999 FEW025 21/18 Q1011
YBBN,2013-09-12 08:00,153.1292,-27.3917,69.80,64.40,82.98,60.00,9.00,0.00,29.88,M,6.21,M,M,M,M,M,M,M,M,M,M,YBBN 120800Z 06009KT CAVOK 21/18 Q1012 NOSIG
YBBN,2013-09-12 08:30,153.1292,-27.3917,69.80,64.40,82.98,70.00,5.00,0.00,29.88,M,6.21,M,FEW,M,M,M,3000.00,M,M,M,M,YBBN 120830Z 07005KT 9999 FEW030 21/18 Q1012
YBBN,2013-09-12 09:00,153.1292,-27.3917,69.80,64.40,82.98,80.00,5.00,0.00,29.88,M,6.21,M,FEW,M,M,M,3000.00,M,M,M,M,YBBN 120900Z 08005KT 9999 FEW030 21/18 Q1012
YBBN,2013-09-12 09:30,153.1292,-27.3917,68.00,64.40,88.26,100.00,5.00,0.00,29.88,M,6.21,M,FEW,M,M,M,3000.00,M,M,M,M,YBBN 120930Z 10005KT 9999 FEW030 20/18 Q1012
YBBN,2013-09-12 10:00,153.1292,-27.3917,68.00,64.40,88.26,120.00,3.00,0.00,29.88,M,6.21,M,M,M,M,M,M,M,M,M,M,YBBN 121000Z 12003KT CAVOK 20/18 Q1012
YBBN,2013-09-12 10:30,153.1292,-27.3917,66.20,64.40,93.92,160.00,1.00,0.00,29.91,M,6.21,M,M,M,M,M,M,M,M,M,M,YBBN 121030Z 16001KT CAVOK 19/18 Q1013
YBBN,2013-09-12 11:00,153.1292,-27.3917,66.20,64.40,93.92,0.00,0.00,0.00,29.91,M,6.21,M,FEW,M,M,M,2700.00,M,M,M,M,YBBN 121100Z 00000KT 9999 FEW027 19/18 Q1013 RMK HAZE
YBBN,2013-09-12 11:30,153.1292,-27.3917,66.20,62.60,88.18,190.00,4.00,0.00,29.91,M,6.21,M,FEW,M,M,M,2700.00,M,M,M,M,YBBN 121130Z 19004KT 9999 FEW027 19/17 Q1013 RMK HAZE
YBBN,2013-09-12 12:00,153.1292,-27.3917,66.20,62.60,88.18,170.00,2.00,0.00,29.91,M,6.21,M,FEW,M,M,M,2700.00,M,M,M,M,YBBN 121200Z 17002KT 9999 FEW027 19/17 Q1013 RMK HAZE
YBBN,2013-09-12 12:30,153.1292,-27.3917,64.40,62.60,93.88,0.00,0.00,0.00,29.91,M,6.21,M,FEW,M,M,M,2700.00,M,M,M,M,YBBN 121230Z 00000KT 9999 FEW027 18/17 Q1013 RMK HAZE
YBBN,2013-09-12 13:00,153.1292,-27.3917,64.40,62.60,93.88,190.00,5.00,0.00,29.91,M,6.21,M,FEW,M,M,M,2500.00,M,M,M,M,YBBN 121300Z 19005KT 9999 FEW025 18/17 Q1013 RMK HAZE
YBBN,2013-09-12 13:30,153.1292,-27.3917,64.40,62.60,93.88,200.00,5.00,0.00,29.91,M,6.21,M,FEW,M,M,M,1900.00,M,M,M,M,YBBN 121330Z 20005KT 9999 FEW019 18/17 Q1013 RMK HAZE
YBBN,2013-09-12 14:00,153.1292,-27.3917,62.60,60.80,93.83,200.00,5.00,0.00,29.91,M,6.21,M,FEW,M,M,M,1900.00,M,M,M,M,YBBN 121400Z 20005KT 9999 FEW019 17/16 Q1013 NOSIG
YBBN,2013-09-12 14:30,153.1292,-27.3917,64.40,62.60,93.88,190.00,5.00,0.00,29.91,M,6.21,M,M,M,M,M,M,M,M,M,M,YBBN 121430Z 19005KT CAVOK 18/17 Q1013 RMK HAZE
YBBN,2013-09-12 15:00,153.1292,-27.3917,62.60,60.80,93.83,210.00,2.00,0.00,29.91,M,6.21,M,M,M,M,M,M,M,M,M,M,YBBN 121500Z 21002KT CAVOK 17/16 Q1013 NOSIG
YBBN,2013-09-12 15:30,153.1292,-27.3917,60.80,59.00,93.79,220.00,5.00,0.00,29.91,M,6.21,M,M,M,M,M,M,M,M,M,M,YBBN 121530Z 22005KT CAVOK 16/15 Q1013 RMK HAZE
YBBN,2013-09-12 16:00,153.1292,-27.3917,60.80,60.80,100.00,250.00,5.00,0.00,29.91,M,6.21,M,M,M,M,M,M,M,M,M,M,YBBN 121600Z 25005KT CAVOK 16/16 Q1013 NOSIG
YBBN,2013-09-12 16:30,153.1292,-27.3917,60.80,59.00,93.79,220.00,5.00,0.00,29.94,M,6.21,M,M,M,M,M,M,M,M,M,M,YBBN 121630Z 22005KT CAVOK 16/15 Q1014 RMK MIST
YBBN,2013-09-12 17:00,153.1292,-27.3917,62.60,62.60,100.00,210.00,6.00,0.00,29.91,M,6.21,M,M,M,M,M,M,M,M,M,M,YBBN 121700Z 21006KT CAVOK 17/17 Q1013 NOSIG
YBBN,2013-09-12 17:30,153.1292,-27.3917,64.40,62.60,93.88,340.00,3.00,0.00,29.91,M,6.21,M,M,M,M,M,M,M,M,M,M,YBBN 121730Z 34003KT CAVOK 18/17 Q1013 RMK HAZE
YBBN,2013-09-12 18:00,153.1292,-27.3917,62.60,60.80,93.83,0.00,0.00,0.00,29.91,M,6.21,M,M,M,M,M,M,M,M,M,M,YBBN 121800Z 00000KT CAVOK 17/16 Q1013 RMK HAZE
YBBN,2013-09-12 18:30,153.1292,-27.3917,62.60,60.80,93.83,160.00,1.00,0.00,29.94,M,6.21,M,SCT,M,M,M,10000.00,M,M,M,-RA,YBBN 121830Z 16001KT 9999 -RA SCT100 17/16 Q1014 RMK HAZE
YBBN,2013-09-12 19:00,153.1292,-27.3917,62.60,62.60,100.00,360.00,1.00,0.00,29.94,M,6.21,M,SCT,M,M,M,10000.00,M,M,M,VCSH,YBBN 121900Z 36001KT 9999 VCSH SCT100 17/17 Q1014 NOSIG
YBBN,2013-09-12 19:30,153.1292,-27.3917,62.60,62.60,100.00,200.00,5.00,0.00,29.97,M,6.21,M,M,M,M,M,M,M,M,M,M,YBBN 121930Z 20005KT CAVOK 17/17 Q1015 RMK 7AC110
YBBN,2013-09-12 20:00,153.1292,-27.3917,62.60,62.60,100.00,360.00,5.00,0.00,29.97,M,6.21,M,BKN,M,M,M,11000.00,M,M,M,VCSH,YBBN 122000Z 36005KT 9999 VCSH BKN110 17/17 Q1015 RMK MIST
YBBN,2013-09-12 20:30,153.1292,-27.3917,64.40,62.60,93.88,350.00,2.00,0.00,29.97,M,5.59,M,BKN,M,M,M,14000.00,M,M,M,M,YBBN 122030Z 35002KT 9000 BKN140 18/17 Q1015 RMK FU
YBBN,2013-09-12 21:00,153.1292,-27.3917,64.40,62.60,93.88,110.00,4.00,0.00,30.00,M,5.59,M,BKN,M,M,M,14000.00,M,M,M,M,YBBN 122100Z 11004KT 9000 BKN140 18/17 Q1016 RMK FU
YBBN,2013-09-12 21:30,153.1292,-27.3917,66.20,64.40,93.92,170.00,4.00,0.00,30.00,M,5.59,M,BKN,M,M,M,14000.00,M,M,M,M,YBBN 122130Z 17004KT 9000 BKN140 19/18 Q1016 RMK FU
YBBN,2013-09-12 22:00,153.1292,-27.3917,68.00,64.40,88.26,0.00,0.00,0.00,30.00,M,5.59,M,SCT,M,M,M,14000.00,M,M,M,M,YBBN 122200Z 00000KT 9000 SCT140 20/18 Q1016 RMK FU
YBBN,2013-09-12 22:30,153.1292,-27.3917,73.40,60.80,64.69,210.00,2.00,0.00,30.03,M,6.21,M,M,M,M,M,M,M,M,M,M,YBBN 122230Z 21002KT CAVOK 23/16 Q1017
YBBN,2013-09-12 23:00,153.1292,-27.3917,75.20,57.20,53.55,110.00,7.00,0.00,30.03,M,6.21,M,FEW,M,M,M,2500.00,M,M,M,M,YBBN 122300Z 11007KT 9999 FEW025 24/14 Q1017
YBBN,2013-09-12 23:30,153.1292,-27.3917,73.40,62.60,68.94,110.00,8.00,0.00,30.03,M,6.21,M,FEW,M,M,M,2500.00,M,M,M,M,YBBN 122330Z 11008KT 9999 FEW025 23/17 Q1017
