#DEBUG: Format Typ    -> comma
#DEBUG: Time Period   -> 2013-01-29 00:00:00+00:00 2013-01-30 00:00:00+00:00
#DEBUG: Time Zone     -> Etc/UTC
#DEBUG: Data Contact   -> daryl herzmann akrherz@iastate.edu 515-294-5978
#DEBUG: Entries Found -> -1
station,valid,lon,lat,tmpf, dwpf, relh, drct, sknt, p01i, alti, mslp, vsby, gust, skyc1, skyc2, skyc3, skyc4, skyl1, skyl2, skyl3, skyl4, presentwx, metar
YBBN,2013-01-29 00:00,153.1292,-27.3917,84.20,71.60,65.95,360.00,7.00,0.00,29.65,M,6.21,M,BKN,M,M,M,3200.00,M,M,M,M,YBBN 290000Z 36007KT 9999 BKN032 29/22 Q1004 NOSIG
YBBN,2013-01-29 00:30,153.1292,-27.3917,86.00,71.60,62.25,20.00,10.00,0.00,29.65,M,6.21,M,BKN,M,M,M,3500.00,M,M,M,M,YBBN 290030Z 02010KT 9999 BKN035 30/22 Q1004
YBBN,2013-01-29 01:00,153.1292,-27.3917,86.00,73.40,66.15,20.00,9.00,0.00,29.65,M,6.21,M,BKN,M,M,M,3800.00,M,M,M,M,YBBN 290100Z 02009KT 9999 BKN038 30/23 Q1004 NOSIG
YBBN,2013-01-29 01:30,153.1292,-27.3917,86.00,75.20,70.27,30.00,9.00,0.00,29.65,M,6.21,M,SCT,M,M,M,2700.00,M,M,M,M,YBBN 290130Z 03009KT 9999 SCT027 30/24 Q1004
YBBN,2013-01-29 02:00,153.1292,-27.3917,86.00,75.20,70.27,30.00,10.00,0.00,29.65,M,6.21,M,SCT,M,M,M,2500.00,M,M,M,M,YBBN 290200Z 03010KT 9999 SCT025 30/24 Q1004
YBBN,2013-01-29 02:30,153.1292,-27.3917,86.00,75.20,70.27,30.00,10.00,0.00,29.65,M,6.21,M,FEW,M,M,M,2500.00,M,M,M,M,YBBN 290230Z 03010KT 9999 FEW025 30/24 Q1004
YBBN,2013-01-29 03:00,153.1292,-27.3917,86.00,73.40,66.15,20.00,12.00,0.00,29.65,M,6.21,M,FEW,M,M,M,2700.00,M,M,M,M,YBBN 290300Z 02012KT 9999 FEW027 30/23 Q1004 NOSIG
YBBN,2013-01-29 03:30,153.1292,-27.3917,86.00,75.20,70.27,20.00,13.00,0.00,29.62,M,6.21,M,FEW,M,M,M,3000.00,M,M,M,M,YBBN 290330Z 02013KT 9999 FEW030 30/24 Q1003
YBBN,2013-01-29 04:00,153.1292,-27.3917,86.00,75.20,70.27,20.00,13.00,0.00,29.62,M,6.21,M,FEW,M,M,M,3000.00,M,M,M,M,YBBN 290400Z 02013KT 9999 FEW030 30/24 Q1003 NOSIG
YBBN,2013-01-29 04:30,153.1292,-27.3917,86.00,75.20,70.27,30.00,13.00,0.00,29.62,M,6.21,M,FEW,M,M,M,3500.00,M,M,M,M,YBBN 290430Z 03013KT 9999 FEW035 30/24 Q1003
YBBN,2013-01-29 05:00,153.1292,-27.3917,86.00,75.20,70.27,20.00,11.00,0.00,29.62,M,6.21,M,FEW,M,M,M,3800.00,M,M,M,M,YBBN 290500Z 02011KT 9999 FEW038 30/24 Q1003 NOSIG
YBBN,2013-01-29 05:30,153.1292,-27.3917,86.00,75.20,70.27,20.00,11.00,0.00,29.62,M,6.21,M,FEW,M,M,M,3800.00,M,M,M,M,YBBN 290530Z 02011KT 9999 FEW038 30/24 Q1003
YBBN,2013-01-29 06:00,153.1292,-27.3917,86.00,75.20,70.27,10.00,11.00,0.00,29.62,M,6.21,M,FEW,M,M,M,3800.00,M,M,M,M,YBBN 290600Z 01011KT 9999 FEW038 30/24 Q1003
YBBN,2013-01-29 06:30,153.1292,-27.3917,84.20,77.00,79.04,20.00,11.00,0.00,29.62,M,6.21,M,FEW,M,M,M,3800.00,M,M,M,M,YBBN 290630Z 02011KT 9999 FEW038 29/25 Q1003
YBBN,2013-01-29 07:00,153.1292,-27.3917,84.20,77.00,79.04,10.00,12.00,0.00,29.62,M,6.21,M,FEW,M,M,M,3800.00,M,M,M,M,YBBN 290700Z 01012KT 9999 FEW038 29/25 Q1003
YBBN,2013-01-29 07:30,153.1292,-27.3917,82.40,75.20,78.90,10.00,12.00,0.00,29.65,M,6.21,M,FEW,M,M,M,3800.00,M,M,M,M,YBBN 290730Z 01012KT 9999 FEW038 28/24 Q1004
YBBN,2013-01-29 08:00,153.1292,-27.3917,82.40,75.20,78.90,10.00,12.00,0.00,29.65,M,6.21,M,FEW,M,M,M,3800.00,M,M,M,M,YBBN 290800Z 01012KT 9999 FEW038 28/24 Q1004
YBBN,2013-01-29 08:30,153.1292,-27.3917,80.60,75.20,83.66,10.00,11.00,0.00,29.68,M,6.21,M,FEW,M,M,M,4000.00,M,M,M,M,YBBN 290830Z 01011KT 9999 FEW040 27/24 Q1005
YBBN,2013-01-29 09:00,153.1292,-27.3917,80.60,77.00,88.83,10.00,11.00,0.00,29.68,M,6.21,M,FEW,M,M,M,600.00,M,M,M,M,YBBN 290900Z 01011KT 9999 FEW006 27/25 Q1005 NOSIG
YBBN,2013-01-29 09:30,153.1292,-27.3917,80.60,77.00,88.83,10.00,11.00,0.00,29.71,M,6.21,M,FEW,M,M,M,800.00,M,M,M,M,YBBN 290930Z 01011KT 9999 FEW008 27/25 Q1006
YBBN,2013-01-29 10:00,153.1292,-27.3917,78.80,77.00,94.23,10.00,9.00,0.00,29.74,M,6.21,M,SCT,M,M,M,800.00,M,M,M,M,YBBN 291000Z 01009KT 9999 SCT008 26/25 Q1007
YBBN,2013-01-29 10:09,153.1292,-27.3917,80.60,78.80,94.27,10.00,10.00,0.00,29.74,M,6.21,M,SCT,BKN,M,M,800.00,1200.00,M,M,//,YBBN 291009Z AUTO 01010KT 9999 // SCT008 BKN012 27/26 Q1007
YBBN,2013-01-29 10:15,153.1292,-27.3917,80.60,78.80,94.27,10.00,10.00,0.00,29.74,M,6.21,M,SCT,BKN,M,M,800.00,1200.00,M,M,M,YBBN 291015Z 01010KT 9999 SCT008 BKN012 27/26 Q1007
YBBN,2013-01-29 10:30,153.1292,-27.3917,80.60,78.80,94.27,10.00,9.00,0.00,29.74,M,6.21,M,FEW,BKN,M,M,600.00,800.00,M,M,M,YBBN 291030Z 01009KT 9999 FEW006 BKN008 27/26 Q1007
YBBN,2013-01-29 11:00,153.1292,-27.3917,80.60,78.80,94.27,10.00,9.00,0.00,29.74,M,6.21,M,FEW,BKN,BKN,M,600.00,1400.00,1900.00,M,M,YBBN 291100Z 01009KT 9999 FEW006 BKN014 BKN019 27/26 Q1007
YBBN,2013-01-29 11:30,153.1292,-27.3917,80.60,78.80,94.27,20.00,9.00,0.00,29.74,M,6.21,M,FEW,BKN,M,M,600.00,1600.00,M,M,M,YBBN 291130Z 02009KT 9999 FEW006 BKN016 27/26 Q1007
YBBN,2013-01-29 12:00,153.1292,-27.3917,78.80,77.00,94.23,40.00,7.00,0.00,29.74,M,6.21,M,BKN,BKN,M,M,600.00,1600.00,M,M,M,YBBN 291200Z 04007KT 9999 BKN006 BKN016 26/25 Q1007
YBBN,2013-01-29 12:30,153.1292,-27.3917,78.80,77.00,94.23,30.00,8.00,0.00,29.74,M,6.21,M,FEW,BKN,M,M,600.00,1900.00,M,M,M,YBBN 291230Z 03008KT 9999 FEW006 BKN019 26/25 Q1007
YBBN,2013-01-29 13:00,153.1292,-27.3917,78.80,77.00,94.23,40.00,7.00,0.00,29.74,M,6.21,M,FEW,M,M,M,800.00,M,M,M,M,YBBN 291300Z 04007KT 9999 FEW008 26/25 Q1007
YBBN,2013-01-29 13:30,153.1292,-27.3917,78.80,77.00,94.23,30.00,7.00,0.00,29.74,M,6.21,M,FEW,M,M,M,800.00,M,M,M,M,YBBN 291330Z 03007KT 9999 FEW008 26/25 Q1007
YBBN,2013-01-29 14:00,153.1292,-27.3917,78.80,77.00,94.23,50.00,6.00,0.00,29.74,M,6.21,M,FEW,SCT,M,M,600.00,1500.00,M,M,M,YBBN 291400Z 05006KT 9999 FEW006 SCT015 26/25 Q1007
YBBN,2013-01-29 14:30,153.1292,-27.3917,78.80,77.00,94.23,50.00,6.00,0.00,29.74,M,6.21,M,FEW,M,M,M,600.00,M,M,M,M,YBBN 291430Z 05006KT 9999 FEW006 26/25 Q1007
YBBN,2013-01-29 15:00,153.1292,-27.3917,78.80,77.00,94.23,50.00,7.00,0.00,29.74,M,6.21,M,FEW,M,M,M,600.00,M,M,M,M,YBBN 291500Z 05007KT 9999 FEW006 26/25 Q1007 TEMPO 1500/1800 BKN005
YBBN,2013-01-29 15:30,153.1292,-27.3917,78.80,77.00,94.23,50.00,6.00,0.00,29.71,M,6.21,M,FEW,M,M,M,800.00,M,M,M,M,YBBN 291530Z 05006KT 9999 FEW008 26/25 Q1006
YBBN,2013-01-29 16:00,153.1292,-27.3917,78.80,77.00,94.23,60.00,5.00,0.00,29.71,M,6.21,M,FEW,M,M,M,900.00,M,M,M,M,YBBN 291600Z 06005KT 9999 FEW009 26/25 Q1006
YBBN,2013-01-29 16:30,153.1292,-27.3917,78.80,77.00,94.23,70.00,4.00,0.00,29.71,M,6.21,M,FEW,BKN,M,M,900.00,1600.00,M,M,M,YBBN 291630Z 07004KT 9999 FEW009 BKN016 26/25 Q1006
YBBN,2013-01-29 16:39,153.1292,-27.3917,78.80,77.00,94.23,100.00,4.00,0.00,29.74,M,6.21,M,FEW,BKN,M,M,9000.00,1200.00,M,M,M,YBBN 291639Z 10004KT 9999 FEW090 BKN012 26/25 Q1007
YBBN,2013-01-29 17:00,153.1292,-27.3917,78.80,77.00,94.23,110.00,4.00,0.00,29.74,M,6.21,M,FEW,SCT,M,M,900.00,2000.00,M,M,M,YBBN 291700Z 11004KT 9999 FEW009 SCT020 26/25 Q1007
YBBN,2013-01-29 17:30,153.1292,-27.3917,78.80,77.00,94.23,130.00,1.00,0.00,29.74,M,6.21,M,FEW,SCT,M,M,1100.00,2000.00,M,M,M,YBBN 291730Z 13001KT 9999 FEW011 SCT020 26/25 Q1007
YBBN,2013-01-29 17:58,153.1292,-27.3917,77.00,77.00,100.00,80.00,4.00,0.00,29.74,M,6.21,M,BKN,M,M,M,800.00,M,M,M,M,YBBN 291758Z 08004KT 9999 BKN008 25/25 Q1007
YBBN,2013-01-29 18:00,153.1292,-27.3917,77.00,77.00,100.00,80.00,4.00,0.00,29.74,M,6.21,M,FEW,BKN,M,M,800.00,1200.00,M,M,M,YBBN 291800Z 08004KT 9999 FEW008 BKN012 25/25 Q1007
YBBN,2013-01-29 18:30,153.1292,-27.3917,77.00,77.00,100.00,90.00,5.00,0.00,29.74,M,6.21,M,FEW,SCT,M,M,800.00,2500.00,M,M,M,YBBN 291830Z 09005KT 9999 FEW008 SCT025 25/25 Q1007
YBBN,2013-01-29 19:00,153.1292,-27.3917,78.80,77.00,94.23,80.00,3.00,0.00,29.77,M,6.21,M,FEW,SCT,M,M,600.00,2300.00,M,M,VCSH,YBBN 291900Z 08003KT 9999 VCSH FEW006 SCT023 26/25 Q1008
YBBN,2013-01-29 19:30,153.1292,-27.3917,78.80,77.00,94.23,0.00,0.00,0.00,29.77,M,6.21,M,FEW,SCT,M,M,1100.00,1800.00,M,M,M,YBBN 291930Z 00000KT 9999 FEW011 SCT018 26/25 Q1008
YBBN,2013-01-29 20:00,153.1292,-27.3917,78.80,77.00,94.23,0.00,0.00,0.00,29.77,M,5.59,M,SCT,BKN,M,M,1100.00,2300.00,M,M,M,YBBN 292000Z 00000KT 9000 SCT011 BKN023 26/25 Q1008
YBBN,2013-01-29 20:22,153.1292,-27.3917,78.80,77.00,94.23,0.00,0.00,0.00,29.80,M,5.59,M,SCT,BKN,M,M,1100.00,2300.00,M,M,-SHRA,YBBN 292022Z 00000KT 9000 -SHRA SCT011 BKN023TCU 26/25 Q1009
YBBN,2013-01-29 20:30,153.1292,-27.3917,78.80,77.00,94.23,0.00,0.00,0.00,29.80,M,6.21,M,FEW,SCT,BKN,M,700.00,1100.00,2300.00,M,SHRA,YBBN 292030Z 00000KT 9999 4500SW SHRA FEW007 SCT011 BKN023TCU 26/25 Q1009
YBBN,2013-01-29 20:50,153.1292,-27.3917,78.80,77.00,94.23,0.00,0.00,0.00,29.80,M,5.59,M,FEW,SCT,BKN,M,700.00,1200.00,2300.00,M,VCSH,YBBN 292050Z 00000KT 9000 VCSH FEW007 SCT012 BKN023 26/25 Q1009
YBBN,2013-01-29 21:00,153.1292,-27.3917,80.60,78.80,94.27,160.00,5.00,0.00,29.80,M,5.59,M,FEW,SCT,BKN,M,700.00,1200.00,2300.00,M,VCSH,YBBN 292100Z 16005KT 9000 VCSH FEW007 SCT012 BKN023TCU 27/26 Q1009
YBBN,2013-01-29 21:30,153.1292,-27.3917,80.60,77.00,88.83,130.00,4.00,0.00,29.83,M,6.21,M,FEW,SCT,M,M,900.00,2000.00,M,M,VCSH,YBBN 292130Z 13004KT 9999 VCSH FEW009 SCT020TCU 27/25 Q1010
YBBN,2013-01-29 22:00,153.1292,-27.3917,80.60,77.00,88.83,190.00,5.00,0.00,29.83,M,6.21,M,FEW,BKN,M,M,1200.00,2000.00,M,M,M,YBBN 292200Z 19005KT 9999 FEW012 BKN020TCU 27/25 Q1010
YBBN,2013-01-29 22:30,153.1292,-27.3917,82.40,75.20,78.90,180.00,5.00,0.00,29.83,M,6.21,M,FEW,BKN,M,M,1500.00,2500.00,M,M,M,YBBN 292230Z 18005KT 9999 FEW015 BKN025 28/24 Q1010
YBBN,2013-01-29 23:00,153.1292,-27.3917,84.20,77.00,79.04,130.00,6.00,0.00,29.83,M,6.21,M,FEW,SCT,M,M,1500.00,2200.00,M,M,M,YBBN 292300Z 13006KT 9999 FEW015 SCT022 29/25 Q1010
YBBN,2013-01-29 23:30,153.1292,-27.3917,84.20,77.00,79.04,100.00,7.00,0.00,29.83,M,6.21,M,FEW,BKN,M,M,1800.00,2400.00,M,M,M,YBBN 292330Z 10007KT 9999 FEW018 BKN024TCU 29/25 Q1010
