#DEBUG: Format Typ    -> comma
#DEBUG: Time Period   -> 2012-04-26 00:00:00+00:00 2012-04-27 00:00:00+00:00
#DEBUG: Time Zone     -> Etc/UTC
#DEBUG: Data Contact   -> daryl herzmann akrherz@iastate.edu 515-294-5978
#DEBUG: Entries Found -> -1
station,valid,lon,lat,tmpf, dwpf, relh, drct, sknt, p01i, alti, mslp, vsby, gust, skyc1, skyc2, skyc3, skyc4, skyl1, skyl2, skyl3, skyl4, presentwx, metar
YBBN,2012-04-26 00:00,153.1292,-27.3917,66.20,37.40,34.51,210.00,9.00,0.00,30.06,M,6.21,M,M,M,M,M,M,M,M,M,M,YBBN 260000Z 21009KT CAVOK 19/03 Q1018 NOSIG
YBBN,2012-04-26 00:30,153.1292,-27.3917,68.00,37.40,32.43,230.00,7.00,0.00,30.03,M,6.21,M,M,M,M,M,M,M,M,M,M,YBBN 260030Z 23007KT CAVOK 20/03 Q1017
YBBN,2012-04-26 01:00,153.1292,-27.3917,69.80,39.20,32.72,200.00,7.00,0.00,30.03,M,6.21,M,M,M,M,M,M,M,M,M,M,YBBN 260100Z 20007KT CAVOK 21/04 Q1017
YBBN,2012-04-26 01:30,153.1292,-27.3917,69.80,37.40,30.49,220.00,5.00,0.00,30.03,M,6.21,M,M,M,M,M,M,M,M,M,M,YBBN 260130Z 22005KT CAVOK 21/03 Q1017 RMK 5CI200
YBBN,2012-04-26 02:00,153.1292,-27.3917,71.60,39.20,30.77,200.00,5.00,0.00,30.00,M,6.21,M,M,M,M,M,M,M,M,M,M,YBBN 260200Z 20005KT CAVOK 22/04 Q1016 NOSIG
YBBN,2012-04-26 02:30,153.1292,-27.3917,69.80,41.00,35.09,140.00,5.00,0.00,30.00,M,6.21,M,M,M,M,M,M,M,M,M,M,YBBN 260230Z 14005KT CAVOK 21/05 Q1016
YBBN,2012-04-26 03:00,153.1292,-27.3917,69.80,41.00,35.09,90.00,6.00,0.00,30.00,M,6.21,M,M,M,M,M,M,M,M,M,M,YBBN 260300Z 09006KT CAVOK 21/05 Q1016
YBBN,2012-04-26 03:30,153.1292,-27.3917,69.80,41.00,35.09,70.00,8.00,0.00,30.00,M,6.21,M,M,M,M,M,M,M,M,M,M,YBBN 260330Z 07008KT CAVOK 21/05 Q1016
YBBN,2012-04-26 04:00,153.1292,-27.3917,71.60,41.00,33.00,60.00,7.00,0.00,30.00,M,6.21,M,M,M,M,M,M,M,M,M,M,YBBN 260400Z 06007KT CAVOK 22/05 Q1016 NOSIG
YBBN,2012-04-26 04:30,153.1292,-27.3917,71.60,41.00,33.00,50.00,7.00,0.00,30.00,M,6.21,M,M,M,M,M,M,M,M,M,M,YBBN 260430Z 05007KT CAVOK 22/05 Q1016
YBBN,2012-04-26 05:00,153.1292,-27.3917,71.60,39.20,30.77,70.00,7.00,0.00,30.00,M,6.21,M,M,M,M,M,M,M,M,M,M,YBBN 260500Z 07007KT CAVOK 22/04 Q1016
YBBN,2012-04-26 05:30,153.1292,-27.3917,71.60,39.20,30.77,70.00,7.00,0.00,30.00,M,6.21,M,M,M,M,M,M,M,M,M,M,YBBN 260530Z 07007KT CAVOK 22/04 Q1016
YBBN,2012-04-26 06:00,153.1292,-27.3917,69.80,41.00,35.09,70.00,7.00,0.00,30.00,M,6.21,M,M,M,M,M,M,M,M,M,M,YBBN 260600Z 07007KT CAVOK 21/05 Q1016 NOSIG
YBBN,2012-04-26 06:30,153.1292,-27.3917,69.80,44.60,40.29,60.00,5.00,0.00,30.00,M,6.21,M,M,M,M,M,M,M,M,M,M,YBBN 260630Z 06005KT CAVOK 21/07 Q1016
YBBN,2012-04-26 07:00,153.1292,-27.3917,68.00,44.60,42.85,80.00,5.00,0.00,30.03,M,6.21,M,M,M,M,M,M,M,M,M,M,YBBN 260700Z 08005KT CAVOK 20/07 Q1017
YBBN,2012-04-26 07:30,153.1292,-27.3917,66.20,44.60,45.60,90.00,5.00,0.00,30.03,M,6.21,M,M,M,M,M,M,M,M,M,M,YBBN 260730Z 09005KT CAVOK 19/07 Q1017
YBBN,2012-04-26 08:00,153.1292,-27.3917,66.20,48.20,52.25,90.00,5.00,0.00,30.06,M,6.21,M,M,M,M,M,M,M,M,M,M,YBBN 260800Z 09005KT CAVOK 19/09 Q1018 NOSIG
YBBN,2012-04-26 08:30,153.1292,-27.3917,66.20,50.00,55.88,110.00,5.00,0.00,30.06,M,6.21,M,M,M,M,M,M,M,M,M,M,YBBN 260830Z 11005KT CAVOK 19/10 Q1018
YBBN,2012-04-26 09:00,153.1292,-27.3917,66.20,50.00,55.88,130.00,5.00,0.00,30.06,M,6.21,M,M,M,M,M,M,M,M,M,M,YBBN 260900Z 13005KT CAVOK 19/10 Q1018 NOSIG
YBBN,2012-04-26 09:30,153.1292,-27.3917,64.40,50.00,59.50,130.00,4.00,0.00,30.06,M,6.21,M,M,M,M,M,M,M,M,M,M,YBBN 260930Z 13004KT CAVOK 18/10 Q1018
YBBN,2012-04-26 10:00,153.1292,-27.3917,64.40,50.00,59.50,160.00,4.00,0.00,30.09,M,6.21,M,M,M,M,M,M,M,M,M,M,YBBN 261000Z 16004KT CAVOK 18/10 Q1019
YBBN,2012-04-26 10:30,153.1292,-27.3917,64.40,51.80,63.60,150.00,4.00,0.00,30.09,M,6.21,M,M,M,M,M,M,M,M,M,M,YBBN 261030Z 15004KT CAVOK 18/11 Q1019
YBBN,2012-04-26 11:00,153.1292,-27.3917,62.60,51.80,67.75,170.00,3.00,0.00,30.09,M,6.21,M,M,M,M,M,M,M,M,M,M,YBBN 261100Z 17003KT CAVOK 17/11 Q1019 NOSIG
YBBN,2012-04-26 11:30,153.1292,-27.3917,62.60,51.80,67.75,150.00,4.00,0.00,30.09,M,6.21,M,M,M,M,M,M,M,M,M,M,YBBN 261130Z 15004KT CAVOK 17/11 Q1019
YBBN,2012-04-26 12:00,153.1292,-27.3917,59.00,53.60,82.25,200.00,5.00,0.00,30.09,M,6.21,M,M,M,M,M,M,M,M,M,M,YBBN 261200Z 20005KT CAVOK 15/12 Q1019
YBBN,2012-04-26 12:30,153.1292,-27.3917,60.80,53.60,77.14,210.00,4.00,0.00,30.09,M,6.21,M,M,M,M,M,M,M,M,M,M,YBBN 261230Z 21004KT CAVOK 16/12 Q1019
YBBN,2012-04-26 13:00,153.1292,-27.3917,60.80,53.60,77.14,0.00,0.00,0.00,30.09,M,6.21,M,M,M,M,M,M,M,M,M,M,YBBN 261300Z 00000KT CAVOK 16/12 Q1019 NOSIG
YBBN,2012-04-26 13:30,153.1292,-27.3917,59.00,53.60,82.25,0.00,0.00,0.00,30.09,M,6.21,M,M,M,M,M,M,M,M,M,M,YBBN 261330Z 00000KT CAVOK 15/12 Q1019
YBBN,2012-04-26 14:00,153.1292,-27.3917,59.00,53.60,82.25,210.00,4.00,0.00,30.09,M,6.21,M,M,M,M,M,M,M,M,M,M,YBBN 261400Z 21004KT CAVOK 15/12 Q1019
YBBN,2012-04-26 14:30,153.1292,-27.3917,59.00,53.60,82.25,200.00,5.00,0.00,30.06,M,6.21,M,M,M,M,M,M,M,M,M,M,YBBN 261430Z 20005KT CAVOK 15/12 Q1018
YBBN,2012-04-26 15:00,153.1292,-27.3917,59.00,53.60,82.25,200.00,6.00,0.00,30.06,M,6.21,M,M,M,M,M,M,M,M,M,M,YBBN 261500Z 20006KT CAVOK 15/12 Q1018 NOSIG
YBBN,2012-04-26 15:30,153.1292,-27.3917,59.00,53.60,82.25,210.00,6.00,0.00,30.03,M,6.21,M,M,M,M,M,M,M,M,M,M,YBBN 261530Z 21006KT CAVOK 15/12 Q1017 RMK 6AC200
YBBN,2012-04-26 16:00,153.1292,-27.3917,59.00,53.60,82.25,220.00,8.00,0.00,30.06,M,6.21,M,M,M,M,M,M,M,M,M,M,YBBN 261600Z 22008KT CAVOK 15/12 Q1018
YBBN,2012-04-26 16:30,153.1292,-27.3917,59.00,51.80,76.98,210.00,7.00,0.00,30.06,M,6.21,M,M,M,M,M,M,M,M,M,M,YBBN 261630Z 21007KT CAVOK 15/11 Q1018
YBBN,2012-04-26 17:00,153.1292,-27.3917,59.00,51.80,76.98,200.00,8.00,0.00,30.06,M,6.21,M,BKN,M,M,M,13000.00,M,M,M,VCSH,YBBN 261700Z 20008KT 9999 VCSH BKN130 15/11 Q1018 NOSIG
YBBN,2012-04-26 17:30,153.1292,-27.3917,59.00,51.80,76.98,220.00,8.00,0.00,30.06,M,6.21,M,M,M,M,M,M,M,M,M,M,YBBN 261730Z 22008KT CAVOK 15/11 Q1018
YBBN,2012-04-26 18:00,153.1292,-27.3917,59.00,51.80,76.98,210.00,6.00,0.00,30.06,M,6.21,M,M,M,M,M,M,M,M,M,M,YBBN 261800Z 21006KT CAVOK 15/11 Q1018 RMK 6AC150
YBBN,2012-04-26 18:30,153.1292,-27.3917,60.80,50.00,67.54,200.00,8.00,0.00,30.06,M,6.21,M,M,M,M,M,M,M,M,M,M,YBBN 261830Z 20008KT CAVOK 16/10 Q1018 RMK 5AC200
YBBN,2012-04-26 19:00,153.1292,-27.3917,60.80,50.00,67.54,190.00,7.00,0.00,30.06,M,6.21,M,M,M,M,M,M,M,M,M,M,YBBN 261900Z 19007KT CAVOK 16/10 Q1018 NOSIG
YBBN,2012-04-26 19:30,153.1292,-27.3917,60.80,50.00,67.54,200.00,8.00,0.00,30.06,M,6.21,M,FEW,BKN,M,M,4800.00,18000.00,M,M,M,YBBN 261930Z 20008KT 9999 FEW048 BKN180 16/10 Q1018
YBBN,2012-04-26 20:00,153.1292,-27.3917,60.80,50.00,67.54,200.00,8.00,0.00,30.06,M,6.21,M,FEW,BKN,M,M,5000.00,16500.00,M,M,VCSH,YBBN 262000Z 20008KT 9999 VCSH FEW050 BKN165 16/10 Q1018 NOSIG
YBBN,2012-04-26 20:30,153.1292,-27.3917,60.80,51.80,72.20,210.00,8.00,0.00,30.09,M,6.21,M,M,M,M,M,M,M,M,M,M,YBBN 262030Z 21008KT CAVOK 16/11 Q1019 RMK 7AC120
YBBN,2012-04-26 21:00,153.1292,-27.3917,60.80,51.80,72.20,210.00,9.00,0.00,30.09,M,6.21,M,SCT,BKN,BKN,M,3700.00,10500.00,14000.00,M,-RA,YBBN 262100Z 21009KT 9999 -RA SCT037 BKN105 BKN140 16/11 Q1019 NOSIG
YBBN,2012-04-26 21:30,153.1292,-27.3917,60.80,51.80,72.20,200.00,8.00,0.00,30.12,M,6.21,M,FEW,SCT,BKN,M,2000.00,11500.00,14000.00,M,-RA,YBBN 262130Z 20008KT 9999 -RA FEW020 SCT115 BKN140 16/11 Q1020
YBBN,2012-04-26 22:00,153.1292,-27.3917,60.80,53.60,77.14,200.00,9.00,0.00,30.12,M,6.21,M,FEW,BKN,BKN,M,2900.00,3800.00,10500.00,M,-RA,YBBN 262200Z 20009KT 9999 -RA FEW029 BKN038 BKN105 16/12 Q1020
YBBN,2012-04-26 22:30,153.1292,-27.3917,60.80,55.40,82.37,200.00,7.00,0.00,30.15,M,6.21,M,FEW,SCT,BKN,M,3000.00,3800.00,6000.00,M,-RA,YBBN 262230Z 20007KT 9999 -RA FEW030 SCT038 BKN060 16/13 Q1021
YBBN,2012-04-26 23:00,153.1292,-27.3917,60.80,55.40,82.37,210.00,9.00,0.00,30.15,M,6.21,M,FEW,BKN,BKN,M,3000.00,12000.00,14000.00,M,-RA,YBBN 262300Z 21009KT 9999 -RA FEW030 BKN120 BKN140 16/13 Q1021
YBBN,2012-04-26 23:30,153.1292,-27.3917,62.60,53.60,72.38,200.00,9.00,0.00,30.15,M,6.21,M,FEW,SCT,BKN,M,3000.00,12000.00,15000.00,M,-RA,YBBN 262330Z 20009KT 9999 -RA FEW030 SCT120 BKN150 17/12 Q1021
