#DEBUG: Format Typ    -> comma
#DEBUG: Time Period   -> 2015-04-06 00:00:00+00:00 2015-04-07 00:00:00+00:00
#DEBUG: Time Zone     -> Etc/UTC
#DEBUG: Data Contact   -> daryl herzmann akrherz@iastate.edu 515-294-5978
#DEBUG: Entries Found -> -1
station,valid,lon,lat,tmpf, dwpf, relh, drct, sknt, p01i, alti, mslp, vsby, gust, skyc1, skyc2, skyc3, skyc4, skyl1, skyl2, skyl3, skyl4, presentwx, metar
YBBN,2015-04-06 00:00,153.1292,-27.3917,75.20,64.40,69.14,360.00,7.00,0.00,29.83,M,6.21,M,M,M,M,M,M,M,M,M,M,YBBN 060000Z 36007KT CAVOK 24/18 Q1010 NOSIG
YBBN,2015-04-06 00:30,153.1292,-27.3917,77.00,62.60,61.13,360.00,6.00,0.00,29.83,M,6.21,M,M,M,M,M,M,M,M,M,M,YBBN 060030Z 36006KT CAVOK 25/17 Q1010
YBBN,2015-04-06 01:00,153.1292,-27.3917,78.80,62.60,57.60,350.00,7.00,0.00,29.83,M,6.21,M,M,M,M,M,M,M,M,M,M,YBBN 060100Z 35007KT CAVOK 26/17 Q1010
YBBN,2015-04-06 01:30,153.1292,-27.3917,78.80,64.40,61.36,10.00,7.00,0.00,29.80,M,6.21,M,M,M,M,M,M,M,M,M,M,YBBN 060130Z 01007KT CAVOK 26/18 Q1009
YBBN,2015-04-06 02:00,153.1292,-27.3917,78.80,64.40,61.36,10.00,8.00,0.00,29.80,M,6.21,M,FEW,SCT,M,M,3000.00,30000.00,M,M,M,YBBN 060200Z 01008KT 9999 FEW030 SCT300 26/18 Q1009 NOSIG
YBBN,2015-04-06 02:30,153.1292,-27.3917,80.60,64.40,57.84,360.00,8.00,0.00,29.80,M,6.21,M,FEW,SCT,M,M,3000.00,30000.00,M,M,M,YBBN 060230Z 36008KT 9999 FEW030 SCT300 27/18 Q1009
YBBN,2015-04-06 03:00,153.1292,-27.3917,78.80,62.60,57.60,30.00,10.00,0.00,29.77,M,6.21,M,FEW,M,M,M,3500.00,M,M,M,M,YBBN 060300Z 03010KT 9999 FEW035 26/17 Q1008 NOSIG
YBBN,2015-04-06 03:30,153.1292,-27.3917,80.60,64.40,57.84,20.00,10.00,0.00,29.77,M,6.21,M,FEW,M,M,M,3800.00,M,M,M,M,YBBN 060330Z 02010KT 9999 FEW038 27/18 Q1008
YBBN,2015-04-06 04:00,153.1292,-27.3917,80.60,64.40,57.84,30.00,8.00,0.00,29.77,M,6.21,M,FEW,SCT,M,M,4000.00,30000.00,M,M,M,YBBN 060400Z 03008KT 9999 FEW040 SCT300 27/18 Q1008 NOSIG
YBBN,2015-04-06 04:30,153.1292,-27.3917,82.40,64.40,54.55,30.00,9.00,0.00,29.74,M,6.21,M,FEW,SCT,M,M,4000.00,30000.00,M,M,M,YBBN 060430Z 03009KT 9999 FEW040 SCT300 28/18 Q1007
YBBN,2015-04-06 05:00,153.1292,-27.3917,80.60,64.40,57.84,30.00,11.00,0.00,29.74,M,6.21,M,FEW,SCT,M,M,4000.00,30000.00,M,M,M,YBBN 060500Z 03011KT 9999 FEW040 SCT300 27/18 Q1007 NOSIG
YBBN,2015-04-06 05:30,153.1292,-27.3917,78.80,66.20,65.33,30.00,10.00,0.00,29.74,M,6.21,M,FEW,BKN,M,M,4000.00,30000.00,M,M,M,YBBN 060530Z 03010KT 9999 FEW040 BKN300 26/19 Q1007
YBBN,2015-04-06 06:00,153.1292,-27.3917,78.80,66.20,65.33,20.00,10.00,0.00,29.74,M,6.21,M,FEW,BKN,M,M,4000.00,30000.00,M,M,M,YBBN 060600Z 02010KT 9999 FEW040 BKN300 26/19 Q1007 NOSIG
YBBN,2015-04-06 06:30,153.1292,-27.3917,77.00,68.00,73.78,20.00,11.00,0.00,29.74,M,6.21,M,FEW,BKN,M,M,4500.00,27000.00,M,M,M,YBBN 060630Z 02011KT 9999 FEW045 BKN270 25/20 Q1007
YBBN,2015-04-06 07:00,153.1292,-27.3917,77.00,68.00,73.78,10.00,12.00,0.00,29.74,M,6.21,M,M,M,M,M,M,M,M,M,M,YBBN 060700Z 01012KT CAVOK 25/20 Q1007 NOSIG
YBBN,2015-04-06 07:30,153.1292,-27.3917,77.00,68.00,73.78,10.00,9.00,0.00,29.74,M,6.21,M,M,M,M,M,M,M,M,M,M,YBBN 060730Z 01009KT CAVOK 25/20 Q1007
YBBN,2015-04-06 08:00,153.1292,-27.3917,75.20,68.00,78.34,10.00,10.00,0.00,29.77,M,6.21,M,M,M,M,M,M,M,M,M,M,YBBN 060800Z 01010KT CAVOK 24/20 Q1008 NOSIG
YBBN,2015-04-06 08:30,153.1292,-27.3917,77.00,69.80,78.48,10.00,12.00,0.00,29.77,M,6.21,M,M,M,M,M,M,M,M,M,M,YBBN 060830Z 01012KT CAVOK 25/21 Q1008
YBBN,2015-04-06 09:00,153.1292,-27.3917,77.00,69.80,78.48,360.00,10.00,0.00,29.77,M,6.21,M,M,M,M,M,M,M,M,M,M,YBBN 060900Z 36010KT CAVOK 25/21 Q1008 NOSIG
YBBN,2015-04-06 09:30,153.1292,-27.3917,77.00,71.60,83.44,360.00,10.00,0.00,29.80,M,6.21,M,FEW,SCT,BKN,M,2200.00,10000.00,22000.00,M,M,YBBN 060930Z 36010KT 9999 FEW022 SCT100 BKN220 25/22 Q1009
YBBN,2015-04-06 10:00,153.1292,-27.3917,77.00,71.60,83.44,360.00,13.00,0.00,29.80,M,6.21,M,FEW,SCT,BKN,M,1800.00,10000.00,22000.00,M,M,YBBN 061000Z 36013KT 9999 FEW018 SCT100 BKN220 25/22 Q1009 NOSIG
YBBN,2015-04-06 10:30,153.1292,-27.3917,77.00,71.60,83.44,360.00,13.00,0.00,29.80,M,6.21,M,SCT,BKN,M,M,1400.00,1800.00,M,M,M,YBBN 061030Z 36013KT 9999 SCT014 BKN018 25/22 Q1009
YBBN,2015-04-06 11:00,153.1292,-27.3917,77.00,73.40,88.67,360.00,14.00,0.00,29.80,M,6.21,M,FEW,SCT,BKN,M,1400.00,1800.00,12000.00,M,M,YBBN 061100Z 36014KT 9999 FEW014 SCT018 BKN120 25/23 Q1009 NOSIG
YBBN,2015-04-06 11:30,153.1292,-27.3917,77.00,73.40,88.67,360.00,12.00,0.00,29.83,M,6.21,M,FEW,BKN,M,M,1400.00,1700.00,M,M,M,YBBN 061130Z 36012KT 9999 FEW014 BKN017 25/23 Q1010
YBBN,2015-04-06 12:00,153.1292,-27.3917,77.00,73.40,88.67,360.00,12.00,0.00,29.83,M,6.21,M,FEW,SCT,BKN,M,1400.00,1700.00,14000.00,M,VCSH,YBBN 061200Z 36012KT 9999 VCSH FEW014 SCT017 BKN140 25/23 Q1010
YBBN,2015-04-06 12:30,153.1292,-27.3917,77.00,73.40,88.67,360.00,8.00,0.00,29.83,M,6.21,M,FEW,SCT,BKN,M,1300.00,9800.00,13500.00,M,-SHRA,YBBN 061230Z 36008KT 9999 -SHRA FEW013 SCT098 BKN135 25/23 Q1010
YBBN,2015-04-06 13:00,153.1292,-27.3917,75.20,73.40,94.14,350.00,8.00,0.00,29.80,M,6.21,M,FEW,SCT,BKN,M,1000.00,1700.00,13500.00,M,M,YBBN 061300Z 35008KT 9999 FEW010 SCT017 BKN135 24/23 Q1009
YBBN,2015-04-06 13:30,153.1292,-27.3917,75.20,73.40,94.14,360.00,8.00,0.00,29.80,M,6.21,M,FEW,SCT,M,M,1000.00,13500.00,M,M,M,YBBN 061330Z 36008KT 9999 FEW010 SCT135 24/23 Q1009
YBBN,2015-04-06 14:00,153.1292,-27.3917,75.20,73.40,94.14,10.00,9.00,0.00,29.80,M,6.21,M,FEW,SCT,M,M,900.00,14000.00,M,M,M,YBBN 061400Z 01009KT 9999 FEW009 SCT140 24/23 Q1009
YBBN,2015-04-06 14:30,153.1292,-27.3917,77.00,73.40,88.67,10.00,12.00,0.00,29.80,M,6.21,M,FEW,SCT,BKN,M,1000.00,10000.00,22000.00,M,M,YBBN 061430Z 01012KT 9999 FEW010 SCT100 BKN220 25/23 Q1009 RMK DIST -SHRA WEST
YBBN,2015-04-06 15:00,153.1292,-27.3917,77.00,73.40,88.67,360.00,11.00,0.00,29.80,M,6.21,M,FEW,SCT,BKN,M,1200.00,13500.00,20000.00,M,M,YBBN 061500Z 36011KT 9999 FEW012 SCT135 BKN200 25/23 Q1009
YBBN,2015-04-06 15:30,153.1292,-27.3917,75.20,71.60,88.59,320.00,9.00,0.00,29.80,M,6.21,M,FEW,SCT,BKN,M,900.00,9600.00,14000.00,M,VCSH,YBBN 061530Z 32009KT 9999 VCSH FEW009 SCT096 BKN140 24/22 Q1009
YBBN,2015-04-06 16:00,153.1292,-27.3917,75.20,71.60,88.59,350.00,8.00,0.00,29.80,M,6.21,M,FEW,SCT,BKN,M,1900.00,10000.00,18500.00,M,VCSH,YBBN 061600Z 35008KT 9999 VCSH FEW019 SCT100 BKN185 24/22 Q1009
YBBN,2015-04-06 16:30,153.1292,-27.3917,73.40,71.60,94.10,360.00,8.00,0.00,29.77,M,6.21,M,FEW,SCT,BKN,M,1900.00,9700.00,14000.00,M,-SHRA,YBBN 061630Z 36008KT 9999 -SHRA FEW019 SCT097 BKN140 23/22 Q1008
YBBN,2015-04-06 17:00,153.1292,-27.3917,75.20,69.80,83.32,360.00,8.00,0.00,29.77,M,6.21,M,FEW,SCT,BKN,M,1900.00,9600.00,12000.00,M,VCSH,YBBN 061700Z 36008KT 9999 VCSH FEW019 SCT096 BKN120 24/21 Q1008 NOSIG
YBBN,2015-04-06 17:30,153.1292,-27.3917,75.20,68.00,78.34,10.00,8.00,0.00,29.74,M,6.21,M,FEW,SCT,BKN,M,1800.00,9500.00,12000.00,M,-SHRA,YBBN 061730Z 01008KT 9999 -SHRA FEW018 SCT095 BKN120 24/20 Q1007
YBBN,2015-04-06 18:00,153.1292,-27.3917,75.20,69.80,83.32,10.00,8.00,0.00,29.74,M,6.21,M,FEW,SCT,BKN,M,1800.00,9500.00,16500.00,M,VCSH,YBBN 061800Z 01008KT 9999 VCSH FEW018 SCT095 BKN165 24/21 Q1007
YBBN,2015-04-06 18:30,153.1292,-27.3917,75.20,68.00,78.34,350.00,11.00,0.00,29.77,M,6.21,M,FEW,SCT,BKN,M,1800.00,9800.00,16000.00,M,VCSH,YBBN 061830Z 35011KT 9999 VCSH FEW018 SCT098 BKN160 24/20 Q1008
YBBN,2015-04-06 19:00,153.1292,-27.3917,73.40,64.40,73.44,340.00,9.00,0.00,29.80,M,6.21,M,FEW,SCT,BKN,M,1900.00,9800.00,15500.00,M,VCSH,YBBN 061900Z 34009KT 9999 VCSH FEW019 SCT098 BKN155 23/18 Q1009 NOSIG
YBBN,2015-04-06 19:30,153.1292,-27.3917,71.60,66.20,83.09,260.00,6.00,0.00,29.80,M,6.21,M,FEW,SCT,M,M,1900.00,10800.00,M,M,M,YBBN 061930Z 26006KT 9999 FEW019 SCT108 22/19 Q1009 RMK VIRGA
YBBN,2015-04-06 20:00,153.1292,-27.3917,71.60,66.20,83.09,250.00,3.00,0.00,29.80,M,6.21,M,FEW,BKN,M,M,1900.00,14000.00,M,M,M,YBBN 062000Z 25003KT 9999 FEW019 BKN140 22/19 Q1009
YBBN,2015-04-06 20:30,153.1292,-27.3917,73.40,66.20,78.19,360.00,5.00,0.00,29.80,M,6.21,M,FEW,BKN,M,M,1900.00,14000.00,M,M,M,YBBN 062030Z 36005KT 9999 FEW019 BKN140 23/19 Q1009
YBBN,2015-04-06 21:00,153.1292,-27.3917,75.20,68.00,78.34,360.00,5.00,0.00,29.83,M,6.21,M,FEW,BKN,M,M,2000.00,14000.00,M,M,M,YBBN 062100Z 36005KT 9999 FEW020 BKN140 24/20 Q1010 NOSIG
YBBN,2015-04-06 21:30,153.1292,-27.3917,77.00,69.80,78.48,10.00,9.00,0.00,29.83,M,6.21,M,FEW,SCT,M,M,2500.00,16000.00,M,M,M,YBBN 062130Z 01009KT 9999 FEW025 SCT160 25/21 Q1010
YBBN,2015-04-06 22:00,153.1292,-27.3917,77.00,71.60,83.44,360.00,8.00,0.00,29.83,M,6.21,M,FEW,SCT,M,M,2500.00,16000.00,M,M,M,YBBN 062200Z 36008KT 9999 FEW025 SCT160 25/22 Q1010
YBBN,2015-04-06 22:30,153.1292,-27.3917,78.80,71.60,78.62,350.00,9.00,0.00,29.83,M,6.21,M,FEW,BKN,M,M,2800.00,16000.00,M,M,M,YBBN 062230Z 35009KT 9999 FEW028 BKN160 26/22 Q1010
YBBN,2015-04-06 23:00,153.1292,-27.3917,78.80,69.80,73.95,350.00,9.00,0.00,29.85,M,6.21,M,FEW,BKN,M,M,2800.00,17000.00,M,M,M,YBBN 062300Z 35009KT 9999 FEW028 BKN170 26/21 Q1011
YBBN,2015-04-06 23:30,153.1292,-27.3917,78.80,69.80,73.95,350.00,10.00,0.00,29.85,M,6.21,M,FEW,SCT,BKN,M,3000.00,17000.00,30000.00,M,M,YBBN 062330Z 35010KT 9999 FEW030 SCT170 BKN300 26/21 Q1011
