#DEBUG: Format Typ    -> comma
#DEBUG: Time Period   -> 2014-11-11 00:00:00+00:00 2014-11-12 00:00:00+00:00
#DEBUG: Time Zone     -> Etc/UTC
#DEBUG: Data Contact   -> daryl herzmann akrherz@iastate.edu 515-294-5978
#DEBUG: Entries Found -> -1
station,valid,lon,lat,tmpf, dwpf, relh, drct, sknt, p01i, alti, mslp, vsby, gust, skyc1, skyc2, skyc3, skyc4, skyl1, skyl2, skyl3, skyl4, presentwx, metar
YBBN,2014-11-11 00:00,153.1292,-27.3917,78.80,62.60,57.60,10.00,12.00,0.00,30.00,M,6.21,M,FEW,M,M,M,3000.00,M,M,M,M,YBBN 110000Z 01012KT 9999 FEW030 26/17 Q1016
YBBN,2014-11-11 00:30,153.1292,-27.3917,78.80,62.60,57.60,10.00,13.00,0.00,30.00,M,6.21,M,FEW,M,M,M,3200.00,M,M,M,M,YBBN 110030Z 01013KT 9999 FEW032 26/17 Q1016
YBBN,2014-11-11 01:00,153.1292,-27.3917,80.60,62.60,54.30,20.00,14.00,0.00,29.97,M,6.21,M,FEW,M,M,M,3500.00,M,M,M,M,YBBN 110100Z 02014KT 9999 FEW035 27/17 Q1015 NOSIG
YBBN,2014-11-11 01:30,153.1292,-27.3917,78.80,60.80,54.05,30.00,15.00,0.00,29.97,M,6.21,M,FEW,M,M,M,3500.00,M,M,M,M,YBBN 110130Z 03015KT 9999 FEW035 26/16 Q1015
YBBN,2014-11-11 02:00,153.1292,-27.3917,80.60,60.80,50.95,30.00,17.00,0.00,29.97,M,6.21,M,FEW,M,M,M,3800.00,M,M,M,M,YBBN 110200Z 03017KT 9999 FEW038 27/16 Q1015 NOSIG
YBBN,2014-11-11 02:30,153.1292,-27.3917,78.80,62.60,57.60,30.00,17.00,0.00,29.97,M,6.21,M,FEW,M,M,M,4000.00,M,M,M,M,YBBN 110230Z 03017KT 9999 FEW040 26/17 Q1015
YBBN,2014-11-11 03:00,153.1292,-27.3917,78.80,62.60,57.60,20.00,16.00,0.00,29.94,M,6.21,M,FEW,M,M,M,4500.00,M,M,M,M,YBBN 110300Z 02016KT 9999 FEW045 26/17 Q1014 NOSIG
YBBN,2014-11-11 03:30,153.1292,-27.3917,78.80,62.60,57.60,20.00,16.00,0.00,29.94,M,6.21,M,FEW,M,M,M,4800.00,M,M,M,M,YBBN 110330Z 02016KT 9999 FEW048 26/17 Q1014 RMK DIST CB TOP TO S
YBBN,2014-11-11 04:00,153.1292,-27.3917,80.60,62.60,54.30,20.00,15.00,0.00,29.94,M,6.21,M,FEW,M,M,M,4800.00,M,M,M,M,YBBN 110400Z 02015KT 9999 FEW048 27/17 Q1014 NOSIG
YBBN,2014-11-11 04:30,153.1292,-27.3917,78.80,62.60,57.60,20.00,15.00,0.00,29.94,M,6.21,M,M,M,M,M,M,M,M,M,M,YBBN 110430Z 02015KT CAVOK 26/17 Q1014 RMK DIST CB TOP TO S
YBBN,2014-11-11 05:00,153.1292,-27.3917,78.80,64.40,61.36,20.00,15.00,0.00,29.94,M,6.21,M,M,M,M,M,M,M,M,M,M,YBBN 110500Z 02015KT CAVOK 26/18 Q1014 NOSIG
YBBN,2014-11-11 05:30,153.1292,-27.3917,78.80,64.40,61.36,20.00,15.00,0.00,29.94,M,6.21,M,M,M,M,M,M,M,M,M,M,YBBN 110530Z 02015KT CAVOK 26/18 Q1014 RMK CB TOP FROM S
YBBN,2014-11-11 06:00,153.1292,-27.3917,77.00,64.40,65.12,10.00,14.00,0.00,29.94,M,6.21,M,M,M,M,M,M,M,M,M,M,YBBN 110600Z 01014KT CAVOK 25/18 Q1014
YBBN,2014-11-11 06:30,153.1292,-27.3917,75.20,64.40,69.14,10.00,15.00,0.00,29.94,M,6.21,M,M,M,M,M,M,M,M,M,M,YBBN 110630Z 01015KT CAVOK 24/18 Q1014 RMK CB TOP FROM S
YBBN,2014-11-11 07:00,153.1292,-27.3917,75.20,64.40,69.14,10.00,14.00,0.00,29.94,M,6.21,M,M,M,M,M,M,M,M,M,M,YBBN 110700Z 01014KT CAVOK 24/18 Q1014
YBBN,2014-11-11 07:30,153.1292,-27.3917,75.20,64.40,69.14,20.00,13.00,0.00,29.94,M,6.21,M,M,M,M,M,M,M,M,M,M,YBBN 110730Z 02013KT CAVOK 24/18 Q1014 RMK CB TOPS FROM S
YBBN,2014-11-11 08:00,153.1292,-27.3917,73.40,64.40,73.44,20.00,10.00,0.00,29.97,M,6.21,M,M,M,M,M,M,M,M,M,M,YBBN 110800Z 02010KT CAVOK 23/18 Q1015 NOSIG
YBBN,2014-11-11 08:30,153.1292,-27.3917,73.40,62.60,68.94,20.00,9.00,0.00,29.97,M,6.21,M,M,M,M,M,M,M,M,M,M,YBBN 110830Z 02009KT CAVOK 23/17 Q1015
YBBN,2014-11-11 09:00,153.1292,-27.3917,73.40,62.60,68.94,20.00,10.00,0.00,30.00,M,6.21,M,M,M,M,M,M,M,M,M,M,YBBN 110900Z 02010KT CAVOK 23/17 Q1016 NOSIG
YBBN,2014-11-11 09:30,153.1292,-27.3917,73.40,62.60,68.94,30.00,7.00,0.00,30.00,M,6.21,M,FEW,BKN,M,M,3800.00,27000.00,M,M,M,YBBN 110930Z 03007KT 9999 FEW038 BKN270 23/17 Q1016
YBBN,2014-11-11 10:00,153.1292,-27.3917,73.40,62.60,68.94,30.00,7.00,0.00,30.00,M,6.21,M,FEW,BKN,M,M,3800.00,27000.00,M,M,M,YBBN 111000Z 03007KT 9999 FEW038 BKN270 23/17 Q1016 NOSIG
YBBN,2014-11-11 10:30,153.1292,-27.3917,73.40,62.60,68.94,40.00,3.00,0.00,30.03,M,6.21,M,SCT,BKN,M,M,3800.00,27000.00,M,M,M,YBBN 111030Z 04003KT 9999 SCT038 BKN270 23/17 Q1017
YBBN,2014-11-11 11:00,153.1292,-27.3917,73.40,62.60,68.94,50.00,5.00,0.00,30.03,M,6.21,M,SCT,BKN,M,M,3500.00,27000.00,M,M,M,YBBN 111100Z 05005KT 9999 SCT035 BKN270 23/17 Q1017 NOSIG
YBBN,2014-11-11 11:30,153.1292,-27.3917,73.40,62.60,68.94,0.00,0.00,0.00,30.03,M,6.21,M,SCT,BKN,M,M,3400.00,27000.00,M,M,M,YBBN 111130Z 00000KT 9999 SCT034 BKN270 23/17 Q1017
YBBN,2014-11-11 12:00,153.1292,-27.3917,73.40,62.60,68.94,40.00,1.00,0.00,30.06,M,6.21,M,FEW,BKN,M,M,2800.00,27000.00,M,M,M,YBBN 111200Z 04001KT 9999 FEW028 BKN270 23/17 Q1018 NOSIG
YBBN,2014-11-11 12:30,153.1292,-27.3917,71.60,62.60,73.27,20.00,5.00,0.00,30.03,M,6.21,M,FEW,BKN,M,M,2800.00,27000.00,M,M,M,YBBN 111230Z 02005KT 9999 FEW028 BKN270 22/17 Q1017
YBBN,2014-11-11 13:00,153.1292,-27.3917,73.40,62.60,68.94,10.00,10.00,0.00,30.00,M,6.21,M,FEW,BKN,M,M,3400.00,27000.00,M,M,M,YBBN 111300Z 01010KT 9999 FEW034 BKN270 23/17 Q1016 NOSIG
YBBN,2014-11-11 13:30,153.1292,-27.3917,71.60,62.60,73.27,360.00,7.00,0.00,30.00,M,6.21,18.00,FEW,BKN,M,M,3200.00,27000.00,M,M,M,YBBN 111330Z 36007G18KT 9999 FEW032 BKN270 22/17 Q1016
YBBN,2014-11-11 14:00,153.1292,-27.3917,71.60,62.60,73.27,360.00,7.00,0.00,30.00,M,6.21,M,SCT,BKN,M,M,3200.00,24000.00,M,M,M,YBBN 111400Z 36007KT 9999 SCT032 BKN240 22/17 Q1016 NOSIG
YBBN,2014-11-11 14:30,153.1292,-27.3917,73.40,62.60,68.94,360.00,7.00,0.00,30.00,M,6.21,M,SCT,BKN,M,M,3200.00,24000.00,M,M,M,YBBN 111430Z 36007KT 9999 SCT032 BKN240 23/17 Q1016
YBBN,2014-11-11 15:00,153.1292,-27.3917,73.40,64.40,73.44,10.00,7.00,0.00,29.97,M,6.21,M,SCT,BKN,M,M,3200.00,24000.00,M,M,M,YBBN 111500Z 01007KT 9999 SCT032 BKN240 23/18 Q1015 NOSIG
YBBN,2014-11-11 15:30,153.1292,-27.3917,73.40,64.40,73.44,10.00,5.00,0.00,29.97,M,6.21,M,SCT,SCT,M,M,3200.00,24000.00,M,M,M,YBBN 111530Z 01005KT 9999 SCT032 SCT240 23/18 Q1015
YBBN,2014-11-11 16:00,153.1292,-27.3917,73.40,64.40,73.44,360.00,6.00,0.00,29.97,M,6.21,M,SCT,SCT,M,M,3200.00,24000.00,M,M,M,YBBN 111600Z 36006KT 9999 SCT032 SCT240 23/18 Q1015 NOSIG
YBBN,2014-11-11 16:30,153.1292,-27.3917,73.40,64.40,73.44,360.00,6.00,0.00,29.97,M,6.21,M,FEW,BKN,M,M,2700.00,3200.00,M,M,M,YBBN 111630Z 36006KT 9999 FEW027 BKN032 23/18 Q1015
YBBN,2014-11-11 17:00,153.1292,-27.3917,73.40,64.40,73.44,20.00,5.00,0.00,29.97,M,6.21,M,FEW,BKN,M,M,2200.00,3000.00,M,M,M,YBBN 111700Z 02005KT 9999 FEW022 BKN030 23/18 Q1015 NOSIG
YBBN,2014-11-11 17:30,153.1292,-27.3917,71.60,64.40,78.04,360.00,5.00,0.00,29.97,M,6.21,M,FEW,BKN,M,M,2200.00,3000.00,M,M,M,YBBN 111730Z 36005KT 9999 FEW022 BKN030 22/18 Q1015
YBBN,2014-11-11 18:00,153.1292,-27.3917,71.60,66.20,83.09,260.00,3.00,0.00,29.97,M,6.21,M,FEW,SCT,BKN,M,2200.00,3000.00,15000.00,M,M,YBBN 111800Z 26003KT 9999 FEW022 SCT030 BKN150 22/19 Q1015
YBBN,2014-11-11 18:30,153.1292,-27.3917,71.60,66.20,83.09,270.00,3.00,0.00,29.97,M,6.21,M,FEW,SCT,BKN,M,2000.00,2400.00,3200.00,M,-SHRA,YBBN 111830Z 27003KT 9999 -SHRA FEW020 SCT024 BKN032 22/19 Q1015
YBBN,2014-11-11 19:00,153.1292,-27.3917,71.60,66.20,83.09,260.00,3.00,0.00,30.00,M,6.21,M,FEW,BKN,M,M,2400.00,3200.00,M,M,M,YBBN 111900Z 26003KT 9999 FEW024 BKN032 22/19 Q1016 NOSIG
YBBN,2014-11-11 19:30,153.1292,-27.3917,71.60,66.20,83.09,270.00,1.00,0.00,30.00,M,6.21,M,FEW,SCT,BKN,M,2000.00,2400.00,3200.00,M,M,YBBN 111930Z 27001KT 9999 FEW020 SCT024 BKN032 22/19 Q1016
YBBN,2014-11-11 20:00,153.1292,-27.3917,71.60,66.20,83.09,250.00,4.00,0.00,30.00,M,6.21,M,FEW,SCT,BKN,M,1800.00,2200.00,3000.00,M,M,YBBN 112000Z 25004KT 9999 FEW018 SCT022 BKN030 22/19 Q1016
YBBN,2014-11-11 20:30,153.1292,-27.3917,71.60,66.20,83.09,140.00,4.00,0.00,30.00,M,6.21,M,FEW,SCT,BKN,M,1000.00,2200.00,2800.00,M,-SHRA,YBBN 112030Z 14004KT 9999 -SHRA FEW010 SCT022 BKN028 22/19 Q1016
YBBN,2014-11-11 21:00,153.1292,-27.3917,71.60,66.20,83.09,0.00,0.00,0.00,30.03,M,6.21,M,FEW,SCT,BKN,M,500.00,1200.00,2200.00,M,VCSH,YBBN 112100Z 00000KT 9999 VCSH FEW005 SCT012 BKN022 22/19 Q1017
YBBN,2014-11-11 21:30,153.1292,-27.3917,73.40,66.20,78.19,0.00,0.00,0.00,30.03,M,6.21,M,FEW,SCT,BKN,M,500.00,1200.00,2200.00,M,VCSH,YBBN 112130Z 00000KT 9999 VCSH FEW005 SCT012 BKN022 23/19 Q1017
YBBN,2014-11-11 22:00,153.1292,-27.3917,73.40,66.20,78.19,80.00,5.00,0.00,30.03,M,6.21,M,FEW,BKN,BKN,M,500.00,2200.00,3000.00,M,-DZ,YBBN 112200Z 08005KT 9999 -DZ FEW005 BKN022 BKN030 23/19 Q1017
YBBN,2014-11-11 22:30,153.1292,-27.3917,73.40,66.20,78.19,90.00,5.00,0.00,30.03,M,6.21,M,FEW,SCT,BKN,M,1500.00,2300.00,3000.00,M,-DZ,YBBN 112230Z 09005KT 9999 -DZ FEW015 SCT023 BKN030 23/19 Q1017
YBBN,2014-11-11 23:00,153.1292,-27.3917,75.20,66.20,73.61,110.00,6.00,0.00,30.03,M,6.21,M,FEW,SCT,BKN,M,1600.00,2200.00,4800.00,M,M,YBBN 112300Z 11006KT 9999 FEW016 SCT022 BKN048 24/19 Q1017
YBBN,2014-11-11 23:30,153.1292,-27.3917,77.00,66.20,69.33,110.00,6.00,0.00,30.00,M,6.21,M,FEW,SCT,M,M,1600.00,2800.00,M,M,M,YBBN 112330Z 11006KT 9999 FEW016 SCT028 25/19 Q1016
