#DEBUG: Format Typ    -> comma
#DEBUG: Time Period   -> 2013-02-15 00:00:00+00:00 2013-02-16 00:00:00+00:00
#DEBUG: Time Zone     -> Etc/UTC
#DEBUG: Data Contact   -> daryl herzmann akrherz@iastate.edu 515-294-5978
#DEBUG: Entries Found -> -1
station,valid,lon,lat,tmpf, dwpf, relh, drct, sknt, p01i, alti, mslp, vsby, gust, skyc1, skyc2, skyc3, skyc4, skyl1, skyl2, skyl3, skyl4, presentwx, metar
YBBN,2013-02-15 00:00,153.1292,-27.3917,80.60,60.80,50.95,110.00,12.00,0.00,30.03,M,6.21,M,SCT,BKN,M,M,2800.00,8600.00,M,M,M,YBBN 150000Z 11012KT 9999 SCT028 BKN086 27/16 Q1017 INTER 0000/0300 3000 SHRA BKN012
YBBN,2013-02-15 00:30,153.1292,-27.3917,78.80,64.40,61.36,90.00,10.00,0.00,30.03,M,6.21,M,SCT,BKN,M,M,3000.00,9000.00,M,M,M,YBBN 150030Z 09010KT 9999 SCT030 BKN090 26/18 Q1017
YBBN,2013-02-15 01:00,153.1292,-27.3917,78.80,69.80,73.95,50.00,16.00,0.00,30.03,M,6.21,M,SCT,SCT,BKN,M,3000.00,9200.00,26000.00,M,M,YBBN 150100Z 05016KT 9999 SCT030 SCT092 BKN260 26/21 Q1017 INTER 0100/0400 3000 SHRA BKN012
YBBN,2013-02-15 01:30,153.1292,-27.3917,77.00,68.00,73.78,50.00,6.00,0.00,30.03,M,6.21,M,SCT,SCT,BKN,M,3000.00,16000.00,26000.00,M,M,YBBN 150130Z 05006KT 9999 SCT030 SCT160 BKN260 25/20 Q1017 RMK DIST SHOWERS NE
YBBN,2013-02-15 02:00,153.1292,-27.3917,77.00,69.80,78.48,40.00,9.00,0.00,30.03,M,6.21,M,SCT,SCT,BKN,M,3000.00,10000.00,26000.00,M,VCSH,YBBN 150200Z 04009KT 9999 VCSH SCT030 SCT100 BKN260 25/21 Q1017 INTER 0200/0500 3000 SHRA BKN012
YBBN,2013-02-15 02:30,153.1292,-27.3917,78.80,62.60,57.60,110.00,8.00,0.00,30.00,M,6.21,M,SCT,SCT,BKN,M,3000.00,5600.00,26000.00,M,VCSH,YBBN 150230Z 11008KT 9999 VCSH SCT030 SCT056 BKN260 26/17 Q1016
YBBN,2013-02-15 03:00,153.1292,-27.3917,77.00,62.60,61.13,120.00,10.00,0.00,30.00,M,6.21,M,SCT,SCT,BKN,M,3000.00,6000.00,11500.00,M,VCSH,YBBN 150300Z 12010KT 9999 VCSH SCT030 SCT060 BKN115 25/17 Q1016 INTER 0300/0600 3000 SHRA BKN012
YBBN,2013-02-15 03:30,153.1292,-27.3917,77.00,64.40,65.12,120.00,8.00,0.00,30.00,M,6.21,M,SCT,SCT,BKN,M,3300.00,6000.00,12000.00,M,VCSH,YBBN 150330Z 12008KT 9999 VCSH SCT033 SCT060 BKN120 25/18 Q1016
YBBN,2013-02-15 04:00,153.1292,-27.3917,75.20,66.20,73.61,110.00,7.00,0.00,30.00,M,6.21,M,SCT,BKN,BKN,M,3100.00,6800.00,12000.00,M,-SHRA,YBBN 150400Z 11007KT 9999 -SHRA SCT031 BKN068 BKN120 24/19 Q1016 INTER 0400/0700 3000 SHRA BKN012
YBBN,2013-02-15 04:30,153.1292,-27.3917,75.20,68.00,78.34,110.00,8.00,0.00,30.00,M,6.21,M,FEW,SCT,BKN,M,3000.00,4900.00,7100.00,M,-RA,YBBN 150430Z 11008KT 9999 -RA FEW030 SCT049 BKN071 24/20 Q1016
YBBN,2013-02-15 05:00,153.1292,-27.3917,75.20,68.00,78.34,100.00,8.00,0.00,30.00,M,6.21,M,FEW,BKN,BKN,M,1500.00,4400.00,11500.00,M,-RA,YBBN 150500Z 10008KT 9999 -RA FEW015 BKN044 BKN115 24/20 Q1016
YBBN,2013-02-15 05:30,153.1292,-27.3917,75.20,68.00,78.34,100.00,8.00,0.00,29.97,M,6.21,M,SCT,SCT,BKN,M,2800.00,11500.00,13000.00,M,-RA,YBBN 150530Z 10008KT 9999 -RA SCT028 SCT115 BKN130 24/20 Q1015
YBBN,2013-02-15 06:00,153.1292,-27.3917,75.20,68.00,78.34,60.00,9.00,0.00,30.00,M,6.21,M,FEW,BKN,BKN,M,2200.00,11500.00,13000.00,M,VCSH,YBBN 150600Z 06009KT 9999 VCSH FEW022 BKN115 BKN130 24/20 Q1016
YBBN,2013-02-15 06:30,153.1292,-27.3917,73.40,66.20,78.19,60.00,9.00,0.00,30.00,M,6.21,M,BKN,M,M,M,2200.00,M,M,M,-SHRA,YBBN 150630Z 06009KT 9999 -SHRA BKN022 23/19 Q1016
YBBN,2013-02-15 07:00,153.1292,-27.3917,71.60,68.00,88.43,40.00,13.00,0.00,30.00,M,4.97,M,SCT,BKN,M,M,1500.00,2200.00,M,M,SHRA,YBBN 150700Z 04013KT 8000 SHRA SCT015 BKN022 22/20 Q1016 INTER 0700/1000 3000 SHRA BKN012
YBBN,2013-02-15 07:04,153.1292,-27.3917,71.60,68.00,88.43,50.00,12.00,0.00,30.00,M,2.49,M,FEW,BKN,M,M,1400.00,2200.00,M,M,SHRA,YBBN 150704Z 05012KT 4000 SHRA FEW014 BKN022 22/20 Q1016
YBBN,2013-02-15 07:30,153.1292,-27.3917,69.80,68.00,94.01,30.00,5.00,0.00,30.00,M,1.24,M,SCT,BKN,M,M,1300.00,2000.00,M,M,+SHRA,YBBN 150730Z 03005KT 2000 +SHRA SCT013 BKN020 21/20 Q1016
YBBN,2013-02-15 08:00,153.1292,-27.3917,69.80,68.00,94.01,0.00,0.00,0.00,30.03,M,1.86,M,SCT,BKN,BKN,M,1700.00,2000.00,2900.00,M,+SHRA,YBBN 150800Z 00000KT 3000 +SHRA SCT017 BKN020 BKN029 21/20 Q1017
YBBN,2013-02-15 08:16,153.1292,-27.3917,69.80,68.00,94.01,200.00,4.00,0.00,30.03,M,3.73,M,FEW,BKN,BKN,M,1800.00,2900.00,5500.00,M,-SHRA,YBBN 150816Z 20004KT 6000 -SHRA FEW018 BKN029 BKN055 21/20 Q1017
YBBN,2013-02-15 08:30,153.1292,-27.3917,69.80,68.00,94.01,170.00,5.00,0.00,30.03,M,5.59,M,FEW,SCT,BKN,M,1500.00,2900.00,5300.00,M,-SHRA,YBBN 150830Z 17005KT 9000 -SHRA FEW015 SCT029 BKN053 21/20 Q1017
YBBN,2013-02-15 09:00,153.1292,-27.3917,68.00,66.20,93.97,160.00,7.00,0.00,30.03,M,5.59,M,FEW,SCT,BKN,M,1100.00,8500.00,11000.00,M,-SHRA,YBBN 150900Z 16007KT 9000 -SHRA FEW011 SCT085 BKN110 20/19 Q1017 INTER 0900/1200 3000 SHRA BKN012
YBBN,2013-02-15 09:30,153.1292,-27.3917,68.00,66.20,93.97,140.00,6.00,0.00,30.03,M,6.21,M,FEW,SCT,BKN,M,1300.00,8500.00,11000.00,M,-SHRA,YBBN 150930Z 14006KT 9999 -SHRA FEW013 SCT085 BKN110 20/19 Q1017
YBBN,2013-02-15 10:00,153.1292,-27.3917,69.80,66.20,88.34,130.00,7.00,0.00,30.03,M,6.21,M,M,M,M,M,M,M,M,M,M,YBBN 151000Z 13007KT CAVOK 21/19 Q1017 RMK 6AC110
YBBN,2013-02-15 10:30,153.1292,-27.3917,71.60,64.40,78.04,140.00,6.00,0.00,30.03,M,6.21,M,M,M,M,M,M,M,M,M,M,YBBN 151030Z 14006KT CAVOK 22/18 Q1017 RMK 6AC120
YBBN,2013-02-15 11:00,153.1292,-27.3917,69.80,66.20,88.34,150.00,6.00,0.00,30.03,M,6.21,M,M,M,M,M,M,M,M,M,M,YBBN 151100Z 15006KT CAVOK 21/19 Q1017 RMK 7AC130
YBBN,2013-02-15 11:30,153.1292,-27.3917,69.80,66.20,88.34,180.00,8.00,0.00,30.03,M,6.21,M,M,M,M,M,M,M,M,M,M,YBBN 151130Z 18008KT CAVOK 21/19 Q1017 RMK 7AC140
YBBN,2013-02-15 12:00,153.1292,-27.3917,69.80,66.20,88.34,170.00,7.00,0.00,30.03,M,6.21,M,M,M,M,M,M,M,M,M,M,YBBN 151200Z 17007KT CAVOK 21/19 Q1017 INTER 1200/1500 3000 SHRA BKN012
YBBN,2013-02-15 12:30,153.1292,-27.3917,69.80,66.20,88.34,160.00,6.00,0.00,30.03,M,6.21,M,M,M,M,M,M,M,M,M,M,YBBN 151230Z 16006KT CAVOK 21/19 Q1017 RMK 5AC140
YBBN,2013-02-15 13:00,153.1292,-27.3917,69.80,66.20,88.34,190.00,5.00,0.00,30.03,M,6.21,M,FEW,SCT,BKN,M,2600.00,3900.00,14000.00,M,M,YBBN 151300Z 19005KT 9999 FEW026 SCT039 BKN140 21/19 Q1017 INTER 1400/1600 3000 SHRA BKN012
YBBN,2013-02-15 13:30,153.1292,-27.3917,68.00,66.20,93.97,200.00,5.00,0.00,30.03,M,6.21,M,FEW,BKN,M,M,2400.00,14000.00,M,M,M,YBBN 151330Z 20005KT 9999 FEW024 BKN140 20/19 Q1017
YBBN,2013-02-15 14:00,153.1292,-27.3917,68.00,66.20,93.97,210.00,6.00,0.00,30.00,M,6.21,M,M,M,M,M,M,M,M,M,M,YBBN 151400Z 21006KT CAVOK 20/19 Q1016 INTER 1400/1700 3000 SHRA BKN012
YBBN,2013-02-15 14:30,153.1292,-27.3917,68.00,66.20,93.97,200.00,6.00,0.00,30.00,M,6.21,M,FEW,BKN,M,M,4000.00,5600.00,M,M,M,YBBN 151430Z 20006KT 9999 FEW040 BKN056 20/19 Q1016
YBBN,2013-02-15 15:00,153.1292,-27.3917,68.00,64.40,88.26,200.00,5.00,0.00,30.00,M,6.21,M,M,M,M,M,M,M,M,M,M,YBBN 151500Z 20005KT CAVOK 20/18 Q1016 RMK 6AC140
YBBN,2013-02-15 15:30,153.1292,-27.3917,68.00,64.40,88.26,200.00,6.00,0.00,29.97,M,6.21,M,M,M,M,M,M,M,M,M,M,YBBN 151530Z 20006KT CAVOK 20/18 Q1015 RMK 5AC140
YBBN,2013-02-15 16:00,153.1292,-27.3917,68.00,64.40,88.26,190.00,6.00,0.00,29.97,M,6.21,M,M,M,M,M,M,M,M,M,M,YBBN 151600Z 19006KT CAVOK 20/18 Q1015 INTER 1600/1900 3000 SHRA BKN012
YBBN,2013-02-15 16:30,153.1292,-27.3917,68.00,64.40,88.26,190.00,6.00,0.00,29.97,M,6.21,M,M,M,M,M,M,M,M,M,M,YBBN 151630Z 19006KT CAVOK 20/18 Q1015
YBBN,2013-02-15 17:00,153.1292,-27.3917,66.20,64.40,93.92,210.00,5.00,0.00,29.97,M,6.21,M,M,M,M,M,M,M,M,M,M,YBBN 151700Z 21005KT CAVOK 19/18 Q1015 INTER 1700/2000 3000 SHRA BKN012
YBBN,2013-02-15 17:30,153.1292,-27.3917,66.20,64.40,93.92,200.00,6.00,0.00,29.97,M,6.21,M,FEW,M,M,M,3900.00,M,M,M,M,YBBN 151730Z 20006KT 9999 FEW039 19/18 Q1015
YBBN,2013-02-15 18:00,153.1292,-27.3917,66.20,64.40,93.92,210.00,6.00,0.00,29.97,M,6.21,M,FEW,SCT,M,M,2800.00,13000.00,M,M,M,YBBN 151800Z 21006KT 9999 FEW028 SCT130 19/18 Q1015 INTER 1800/2100 3000 SHRA BKN012
YBBN,2013-02-15 18:30,153.1292,-27.3917,66.20,64.40,93.92,220.00,6.00,0.00,29.97,M,6.21,M,FEW,SCT,M,M,2700.00,11000.00,M,M,M,YBBN 151830Z 22006KT 9999 FEW027 SCT110 19/18 Q1015
YBBN,2013-02-15 19:00,153.1292,-27.3917,66.20,64.40,93.92,210.00,6.00,0.00,29.97,M,6.21,M,M,M,M,M,M,M,M,M,M,YBBN 151900Z 21006KT CAVOK 19/18 Q1015 RMK 6AC120
YBBN,2013-02-15 19:30,153.1292,-27.3917,66.20,64.40,93.92,210.00,5.00,0.00,29.97,M,6.21,M,M,M,M,M,M,M,M,M,M,YBBN 151930Z 21005KT CAVOK 19/18 Q1015 RMK 6AC120
YBBN,2013-02-15 20:00,153.1292,-27.3917,66.20,64.40,93.92,210.00,3.00,0.00,30.00,M,6.21,M,SCT,BKN,M,M,3800.00,12000.00,M,M,M,YBBN 152000Z 21003KT 9999 SCT038 BKN120 19/18 Q1016 INTER 2000/2300 3000 SHRA BKN012
YBBN,2013-02-15 20:30,153.1292,-27.3917,68.00,66.20,93.97,30.00,5.00,0.00,30.00,M,5.59,M,BKN,BKN,M,M,1800.00,5400.00,M,M,-SHRA,YBBN 152030Z 03005KT 9000 -SHRA BKN018 BKN054 20/19 Q1016
YBBN,2013-02-15 21:00,153.1292,-27.3917,69.80,66.20,88.34,30.00,5.00,0.00,30.03,M,6.21,M,BKN,BKN,M,M,2000.00,5100.00,M,M,-SHRA,YBBN 152100Z 03005KT 9999 2000N -SHRA BKN020 BKN051 21/19 Q1017
YBBN,2013-02-15 21:16,153.1292,-27.3917,69.80,66.20,88.34,250.00,1.00,0.00,30.03,M,5.59,M,BKN,BKN,M,M,1700.00,3400.00,M,M,-SHRA,YBBN 152116Z 25001KT 9000 -SHRA BKN017 BKN034 21/19 Q1017
YBBN,2013-02-15 21:30,153.1292,-27.3917,69.80,68.00,94.01,230.00,2.00,0.00,30.03,M,6.21,M,BKN,BKN,M,M,1500.00,3000.00,M,M,VCSH,YBBN 152130Z 23002KT 9999 VCSH BKN015 BKN030 21/20 Q1017
YBBN,2013-02-15 22:00,153.1292,-27.3917,71.60,68.00,88.43,190.00,5.00,0.00,30.03,M,6.21,M,SCT,SCT,BKN,M,1500.00,2000.00,27000.00,M,M,YBBN 152200Z 19005KT 9999 SCT015 SCT020 BKN270 22/20 Q1017 INTER 2200/0100 3000 SHRA BKN012
YBBN,2013-02-15 22:30,153.1292,-27.3917,71.60,64.40,78.04,150.00,7.00,0.00,30.03,M,6.21,M,FEW,SCT,BKN,M,1500.00,4300.00,27000.00,M,VCSH,YBBN 152230Z 15007KT 9999 VCSH FEW015 SCT043 BKN270 22/18 Q1017
YBBN,2013-02-15 23:00,153.1292,-27.3917,73.40,66.20,78.19,150.00,9.00,0.00,30.03,M,6.21,M,FEW,BKN,BKN,M,2800.00,8900.00,27000.00,M,VCSH,YBBN 152300Z 15009KT 9999 VCSH FEW028 BKN089 BKN270 23/19 Q1017 INTER 2300/0200 3000 SHRA BKN012
YBBN,2013-02-15 23:30,153.1292,-27.3917,73.40,64.40,73.44,150.00,8.00,0.00,30.03,M,6.21,M,FEW,SCT,BKN,M,2800.00,8600.00,11000.00,M,VCSH,YBBN 152330Z 15008KT 9999 VCSH FEW028 SCT086 BKN110 23/18 Q1017
