#DEBUG: Format Typ    -> comma
#DEBUG: Time Period   -> 2016-02-01 00:00:00+00:00 2016-02-02 00:00:00+00:00
#DEBUG: Time Zone     -> Etc/UTC
#DEBUG: Data Contact   -> daryl herzmann akrherz@iastate.edu 515-294-5978
#DEBUG: Entries Found -> -1
station,valid,lon,lat,tmpf, dwpf, relh, drct, sknt, p01i, alti, mslp, vsby, gust, skyc1, skyc2, skyc3, skyc4, skyl1, skyl2, skyl3, skyl4, presentwx, metar
YBBN,2016-02-01 00:00,153.1292,-27.3917,84.20,75.20,74.44,10.00,9.00,0.00,29.74,M,6.21,M,FEW,BKN,M,M,2800.00,28000.00,M,M,M,YBBN 010000Z 01009KT 9999 FEW028 BKN280 29/24 Q1007 NOSIG
YBBN,2016-02-01 00:30,153.1292,-27.3917,86.00,75.20,70.27,360.00,8.00,0.00,29.74,M,6.21,M,FEW,BKN,M,M,3000.00,28000.00,M,M,M,YBBN 010030Z 36008KT 9999 FEW030 BKN280 30/24 Q1007 NOSIG
YBBN,2016-02-01 01:00,153.1292,-27.3917,86.00,77.00,74.61,30.00,9.00,0.00,29.71,M,6.21,M,FEW,BKN,M,M,2800.00,28000.00,M,M,M,YBBN 010100Z 03009KT 9999 FEW028 BKN280 30/25 Q1006 NOSIG
YBBN,2016-02-01 01:30,153.1292,-27.3917,87.80,77.00,70.45,20.00,13.00,0.00,29.71,M,6.21,M,FEW,BKN,M,M,2500.00,28000.00,M,M,M,YBBN 010130Z 02013KT 9999 FEW025 BKN280 31/25 Q1006 NOSIG
YBBN,2016-02-01 02:00,153.1292,-27.3917,86.00,77.00,74.61,20.00,13.00,0.00,29.68,M,6.21,M,FEW,BKN,M,M,2800.00,28000.00,M,M,M,YBBN 010200Z 02013KT 9999 FEW028 BKN280 30/25 Q1005 NOSIG
YBBN,2016-02-01 02:30,153.1292,-27.3917,87.80,77.00,70.45,30.00,14.00,0.00,29.68,M,6.21,M,FEW,SCT,M,M,3000.00,28000.00,M,M,M,YBBN 010230Z 03014KT 9999 FEW030 SCT280 31/25 Q1005 NOSIG
YBBN,2016-02-01 03:00,153.1292,-27.3917,87.80,78.80,74.77,40.00,15.00,0.00,29.65,M,6.21,M,FEW,FEW,M,M,3000.00,3500.00,M,M,M,YBBN 010300Z 04015KT 9999 FEW030 FEW035TCU 31/26 Q1004
YBBN,2016-02-01 04:15,153.1292,-27.3917,82.40,78.80,88.90,20.00,20.00,0.00,29.62,M,6.21,M,FEW,SCT,FEW,M,3000.00,8000.00,3500.00,M,-SHRA,YBBN 010415Z 02020KT 9999 -SHRA FEW030 SCT080 FEW035CB 28/26 Q1003 WS RWY01
YBBN,2016-02-01 04:30,153.1292,-27.3917,82.40,78.80,88.90,20.00,18.00,0.00,29.62,M,6.21,M,FEW,SCT,M,M,3200.00,6000.00,M,M,-SHRA,YBBN 010430Z 02018KT 9999 -SHRA FEW032 SCT060 28/26 Q1003 NOSIG
YBBN,2016-02-01 05:00,153.1292,-27.3917,86.00,78.80,79.18,20.00,18.00,0.00,29.59,M,6.21,M,FEW,FEW,M,M,1800.00,3500.00,M,M,TS VCSH,YBBN 010500Z 02018KT 9999 TS VCSH FEW018 FEW035CB 30/26 Q1002
YBBN,2016-02-01 05:20,153.1292,-27.3917,87.80,75.20,66.35,10.00,22.00,0.00,29.59,M,6.21,M,FEW,FEW,M,M,2000.00,4000.00,M,M,VCSH,YBBN 010520Z 01022KT 9999 VCSH FEW020 FEW040CB 31/24 Q1002 RETS
YBBN,2016-02-01 05:30,153.1292,-27.3917,87.80,77.00,70.45,10.00,22.00,0.00,29.56,M,6.21,M,FEW,FEW,M,M,2000.00,4000.00,M,M,VCSH,YBBN 010530Z 01022KT 9999 VCSH FEW020 FEW040CB 31/25 Q1001 NOSIG
YBBN,2016-02-01 06:00,153.1292,-27.3917,87.80,77.00,70.45,10.00,22.00,0.00,29.56,M,6.21,M,FEW,M,M,M,3000.00,M,M,M,M,YBBN 010600Z 01022KT 9999 FEW030 31/25 Q1001 NOSIG
YBBN,2016-02-01 06:30,153.1292,-27.3917,86.00,73.40,66.15,10.00,18.00,0.00,29.59,M,6.21,M,FEW,SCT,FEW,M,1800.00,9500.00,3500.00,M,VCSH,YBBN 010630Z 01018KT 9999 VCSH FEW018 SCT095 FEW035CB 30/23 Q1002 NOSIG
YBBN,2016-02-01 07:00,153.1292,-27.3917,84.20,71.60,65.95,10.00,13.00,0.00,29.59,M,6.21,M,FEW,SCT,FEW,M,2000.00,9500.00,3500.00,M,VCSH,YBBN 010700Z 01013KT 9999 VCSH FEW020 SCT095 FEW035CB 29/22 Q1002 NOSIG
YBBN,2016-02-01 07:30,153.1292,-27.3917,84.20,73.40,70.08,10.00,15.00,0.00,29.59,M,6.21,M,FEW,FEW,M,M,3000.00,3500.00,M,M,M,YBBN 010730Z 01015KT 9999 FEW030 FEW035CB 29/23 Q1002 NOSIG
YBBN,2016-02-01 08:00,153.1292,-27.3917,82.40,77.00,83.77,20.00,12.00,0.00,29.59,M,6.21,M,FEW,FEW,M,M,2500.00,3000.00,M,M,M,YBBN 010800Z 02012KT 9999 FEW025 FEW030CB 28/25 Q1002 NOSIG
YBBN,2016-02-01 08:30,153.1292,-27.3917,80.60,75.20,83.66,10.00,18.00,0.00,29.59,M,6.21,M,FEW,FEW,M,M,2500.00,2800.00,M,M,M,YBBN 010830Z 01018KT 9999 FEW025 FEW028CB 27/24 Q1002 NOSIG
YBBN,2016-02-01 10:30,153.1292,-27.3917,80.60,73.40,78.76,20.00,20.00,0.00,29.65,M,6.21,M,FEW,FEW,M,M,2500.00,2700.00,M,M,M,YBBN 011030Z 02020KT 9999 FEW025 FEW027CB 27/23 Q1004
YBBN,2016-02-01 12:00,153.1292,-27.3917,78.80,73.40,83.55,10.00,17.00,0.00,29.68,M,6.21,M,FEW,M,M,M,2400.00,M,M,M,M,YBBN 011200Z 01017KT 9999 FEW024CB 26/23 Q1005
YBBN,2016-02-01 13:00,153.1292,-27.3917,78.80,75.20,88.75,360.00,17.00,0.00,29.68,M,6.21,M,FEW,M,M,M,2300.00,M,M,M,M,YBBN 011300Z 36017KT 9999 FEW023CB 26/24 Q1005 NOSIG
YBBN,2016-02-01 13:30,153.1292,-27.3917,78.80,75.20,88.75,360.00,19.00,0.00,29.68,M,6.21,M,FEW,M,M,M,2300.00,M,M,M,M,YBBN 011330Z 36019KT 9999 FEW023CB 26/24 Q1005 NOSIG
YBBN,2016-02-01 14:00,153.1292,-27.3917,78.80,75.20,88.75,360.00,16.00,0.00,29.68,M,6.21,M,FEW,FEW,M,M,1800.00,2200.00,M,M,M,YBBN 011400Z 36016KT 9999 FEW018 FEW022CB 26/24 Q1005
YBBN,2016-02-01 14:30,153.1292,-27.3917,78.80,75.20,88.75,350.00,11.00,0.00,29.65,M,6.21,M,M,M,M,M,M,M,M,M,M,YBBN 011430Z 35011KT CAVOK 26/24 Q1004 NOSIG
YBBN,2016-02-01 15:00,153.1292,-27.3917,78.80,75.20,88.75,350.00,11.00,0.00,29.65,M,6.21,M,FEW,M,M,M,1800.00,M,M,M,M,YBBN 011500Z 35011KT 9999 FEW018 26/24 Q1004
YBBN,2016-02-01 15:30,153.1292,-27.3917,77.00,75.20,94.19,350.00,11.00,0.00,29.65,M,6.21,M,FEW,M,M,M,1800.00,M,M,M,M,YBBN 011530Z 35011KT 9999 FEW018 25/24 Q1004 NOSIG
YBBN,2016-02-01 16:00,153.1292,-27.3917,77.00,75.20,94.19,340.00,10.00,0.00,29.62,M,6.21,M,M,M,M,M,M,M,M,M,M,YBBN 011600Z 34010KT CAVOK 25/24 Q1003 NOSIG
YBBN,2016-02-01 16:30,153.1292,-27.3917,77.00,75.20,94.19,330.00,10.00,0.00,29.62,M,6.21,M,M,M,M,M,M,M,M,M,M,YBBN 011630Z 33010KT CAVOK 25/24 Q1003 NOSIG
YBBN,2016-02-01 17:00,153.1292,-27.3917,77.00,75.20,94.19,330.00,6.00,0.00,29.62,M,6.21,M,M,M,M,M,M,M,M,M,M,YBBN 011700Z 33006KT CAVOK 25/24 Q1003
YBBN,2016-02-01 17:30,153.1292,-27.3917,75.20,75.20,100.00,0.00,0.00,0.00,29.62,M,6.21,M,M,M,M,M,M,M,M,M,M,YBBN 011730Z 00000KT CAVOK 24/24 Q1003 NOSIG
YBBN,2016-02-01 18:00,153.1292,-27.3917,75.20,73.40,94.14,310.00,4.00,0.00,29.65,M,6.21,M,M,M,M,M,M,M,M,M,M,YBBN 011800Z 31004KT CAVOK 24/23 Q1004
YBBN,2016-02-01 18:30,153.1292,-27.3917,75.20,73.40,94.14,0.00,0.00,0.00,29.65,M,6.21,M,M,M,M,M,M,M,M,M,M,YBBN 011830Z 00000KT CAVOK 24/23 Q1004 NOSIG
YBBN,2016-02-01 19:00,153.1292,-27.3917,73.40,71.60,94.10,0.00,0.00,0.00,29.65,M,6.21,M,M,M,M,M,M,M,M,M,M,YBBN 011900Z 00000KT CAVOK 23/22 Q1004 NOSIG
YBBN,2016-02-01 20:00,153.1292,-27.3917,77.00,73.40,88.67,130.00,5.00,0.00,29.65,M,6.21,M,M,M,M,M,M,M,M,M,M,YBBN 012000Z 13005KT CAVOK 25/23 Q1004
