#DEBUG: Format Typ    -> comma
#DEBUG: Time Period   -> 2016-02-28 00:00:00+00:00 2016-02-29 00:00:00+00:00
#DEBUG: Time Zone     -> Etc/UTC
#DEBUG: Data Contact   -> daryl herzmann akrherz@iastate.edu 515-294-5978
#DEBUG: Entries Found -> -1
station,valid,lon,lat,tmpf, dwpf, relh, drct, sknt, p01i, alti, mslp, vsby, gust, skyc1, skyc2, skyc3, skyc4, skyl1, skyl2, skyl3, skyl4, presentwx, metar
YBBN,2016-02-28 00:00,153.1292,-27.3917,84.20,69.80,62.03,110.00,11.00,0.00,29.94,M,6.21,M,FEW,BKN,M,M,2000.00,2600.00,M,M,M,YBBN 280000Z 11011KT 9999 FEW020 BKN026 29/21 Q1014 NOSIG
YBBN,2016-02-28 00:30,153.1292,-27.3917,80.60,71.60,74.11,110.00,11.00,0.00,29.94,M,6.21,M,FEW,BKN,M,M,2200.00,2800.00,M,M,VCSH,YBBN 280030Z 11011KT 9999 VCSH FEW022 BKN028 27/22 Q1014 NOSIG
YBBN,2016-02-28 01:00,153.1292,-27.3917,82.40,71.60,69.90,110.00,11.00,0.00,29.94,M,6.21,M,FEW,SCT,M,M,2200.00,3000.00,M,M,M,YBBN 280100Z 11011KT 9999 FEW022 SCT030 28/22 Q1014
YBBN,2016-02-28 01:30,153.1292,-27.3917,84.20,71.60,65.95,100.00,10.00,0.00,29.91,M,6.21,M,FEW,SCT,M,M,2300.00,3000.00,M,M,M,YBBN 280130Z 10010KT 9999 FEW023 SCT030 29/22 Q1013 NOSIG
YBBN,2016-02-28 02:00,153.1292,-27.3917,84.20,71.60,65.95,110.00,12.00,0.00,29.91,M,6.21,M,FEW,SCT,M,M,2300.00,3000.00,M,M,M,YBBN 280200Z 11012KT 9999 FEW023 SCT030 29/22 Q1013 NOSIG
YBBN,2016-02-28 02:30,153.1292,-27.3917,86.00,71.60,62.25,110.00,13.00,0.00,29.88,M,6.21,M,FEW,SCT,M,M,2300.00,3200.00,M,M,M,YBBN 280230Z 11013KT 9999 FEW023 SCT032 30/22 Q1012 NOSIG
YBBN,2016-02-28 03:00,153.1292,-27.3917,84.20,69.80,62.03,100.00,13.00,0.00,29.88,M,6.21,M,FEW,SCT,FEW,M,2400.00,3200.00,3300.00,M,M,YBBN 280300Z 10013KT 9999 FEW024 SCT032 FEW033TCU 29/21 Q1012 NOSIG
YBBN,2016-02-28 03:30,153.1292,-27.3917,84.20,71.60,65.95,110.00,14.00,0.00,29.88,M,6.21,M,FEW,SCT,M,M,2400.00,3500.00,M,M,M,YBBN 280330Z 11014KT 9999 FEW024 SCT035 29/22 Q1012 NOSIG
YBBN,2016-02-28 04:00,153.1292,-27.3917,86.00,69.80,58.55,110.00,13.00,0.00,29.85,M,6.21,M,FEW,SCT,M,M,2400.00,3500.00,M,M,M,YBBN 280400Z 11013KT 9999 FEW024 SCT035 30/21 Q1011 NOSIG
YBBN,2016-02-28 04:30,153.1292,-27.3917,84.20,69.80,62.03,110.00,13.00,0.00,29.85,M,6.21,M,FEW,SCT,M,M,2400.00,3500.00,M,M,M,YBBN 280430Z 11013KT 9999 FEW024 SCT035 29/21 Q1011 NOSIG
YBBN,2016-02-28 05:00,153.1292,-27.3917,84.20,71.60,65.95,110.00,11.00,0.00,29.85,M,6.21,M,FEW,SCT,FEW,M,2300.00,3500.00,3600.00,M,M,YBBN 280500Z 11011KT 9999 FEW023 SCT035 FEW036TCU 29/22 Q1011 NOSIG
YBBN,2016-02-28 07:00,153.1292,-27.3917,80.60,69.80,69.71,120.00,10.00,0.00,29.88,M,6.21,M,FEW,M,M,M,2000.00,M,M,M,M,YBBN 280700Z 12010KT 9999 FEW020 27/21 Q1012 NOSIG
YBBN,2016-02-28 07:30,153.1292,-27.3917,80.60,69.80,69.71,140.00,10.00,0.00,29.88,M,6.21,M,FEW,SCT,M,M,1900.00,4600.00,M,M,M,YBBN 280730Z 14010KT 9999 FEW019 SCT046 27/21 Q1012 NOSIG
YBBN,2016-02-28 08:00,153.1292,-27.3917,80.60,69.80,69.71,140.00,11.00,0.00,29.91,M,6.21,M,FEW,SCT,M,M,1600.00,5000.00,M,M,M,YBBN 280800Z 14011KT 9999 FEW016 SCT050 27/21 Q1013 NOSIG
YBBN,2016-02-28 08:30,153.1292,-27.3917,78.80,69.80,73.95,140.00,11.00,0.00,29.91,M,6.21,M,FEW,SCT,M,M,1600.00,6200.00,M,M,M,YBBN 280830Z 14011KT 9999 FEW016 SCT062 26/21 Q1013 NOSIG
YBBN,2016-02-28 09:00,153.1292,-27.3917,78.80,69.80,73.95,140.00,9.00,0.00,29.94,M,6.21,M,FEW,SCT,M,M,1600.00,6500.00,M,M,M,YBBN 280900Z 14009KT 9999 FEW016 SCT065 26/21 Q1014
YBBN,2016-02-28 09:30,153.1292,-27.3917,78.80,68.00,69.52,140.00,9.00,0.00,29.94,M,6.21,M,FEW,M,M,M,1600.00,M,M,M,M,YBBN 280930Z 14009KT 9999 FEW016 26/20 Q1014 NOSIG
YBBN,2016-02-28 10:00,153.1292,-27.3917,77.00,69.80,78.48,140.00,9.00,0.00,29.97,M,6.21,M,FEW,M,M,M,2000.00,M,M,M,M,YBBN 281000Z 14009KT 9999 FEW020 25/21 Q1015
YBBN,2016-02-28 10:30,153.1292,-27.3917,77.00,69.80,78.48,150.00,8.00,0.00,29.97,M,6.21,M,SCT,BKN,M,M,2100.00,2500.00,M,M,M,YBBN 281030Z 15008KT 9999 SCT021 BKN025 25/21 Q1015
YBBN,2016-02-28 11:00,153.1292,-27.3917,77.00,71.60,83.44,150.00,9.00,0.00,29.97,M,6.21,M,SCT,SCT,BKN,M,2100.00,2400.00,2900.00,M,-SHRA,YBBN 281100Z 15009KT 9999 -SHRA SCT021 SCT024 BKN029 25/22 Q1015
YBBN,2016-02-28 11:30,153.1292,-27.3917,77.00,69.80,78.48,150.00,9.00,0.00,30.00,M,6.21,M,SCT,BKN,M,M,2200.00,3900.00,M,M,M,YBBN 281130Z 15009KT 9999 SCT022 BKN039 25/21 Q1016 NOSIG
YBBN,2016-02-28 12:00,153.1292,-27.3917,77.00,69.80,78.48,140.00,10.00,0.00,30.00,M,6.21,M,BKN,BKN,M,M,2400.00,4200.00,M,M,M,YBBN 281200Z 14010KT 9999 BKN024 BKN042 25/21 Q1016 NOSIG
YBBN,2016-02-28 12:30,153.1292,-27.3917,77.00,69.80,78.48,170.00,8.00,0.00,29.97,M,6.21,M,SCT,BKN,M,M,2600.00,4900.00,M,M,M,YBBN 281230Z 17008KT 9999 SCT026 BKN049 25/21 Q1015 NOSIG
YBBN,2016-02-28 13:00,153.1292,-27.3917,77.00,68.00,73.78,170.00,9.00,0.00,30.00,M,6.21,M,SCT,BKN,M,M,2200.00,3600.00,M,M,M,YBBN 281300Z 17009KT 9999 SCT022 BKN036 25/20 Q1016
YBBN,2016-02-28 13:30,153.1292,-27.3917,77.00,68.00,73.78,170.00,8.00,0.00,29.97,M,6.21,M,FEW,BKN,M,M,2000.00,5000.00,M,M,M,YBBN 281330Z 17008KT 9999 FEW020 BKN050 25/20 Q1015 NOSIG
YBBN,2016-02-28 14:00,153.1292,-27.3917,77.00,68.00,73.78,170.00,9.00,0.00,29.97,M,6.21,M,FEW,SCT,BKN,M,2000.00,2400.00,3400.00,M,M,YBBN 281400Z 17009KT 9999 FEW020 SCT024 BKN034 25/20 Q1015
YBBN,2016-02-28 14:30,153.1292,-27.3917,75.20,69.80,83.32,170.00,9.00,0.00,29.97,M,6.21,M,SCT,BKN,M,M,2200.00,3700.00,M,M,M,YBBN 281430Z 17009KT 9999 SCT022 BKN037 24/21 Q1015 NOSIG
YBBN,2016-02-28 15:00,153.1292,-27.3917,75.20,69.80,83.32,180.00,6.00,0.00,29.97,M,6.21,M,FEW,SCT,BKN,M,2000.00,3100.00,4900.00,M,M,YBBN 281500Z 18006KT 9999 FEW020 SCT031 BKN049 24/21 Q1015
YBBN,2016-02-28 15:30,153.1292,-27.3917,77.00,68.00,73.78,180.00,8.00,0.00,29.94,M,6.21,M,FEW,BKN,M,M,3100.00,4900.00,M,M,M,YBBN 281530Z 18008KT 9999 FEW031 BKN049 25/20 Q1014 NOSIG
YBBN,2016-02-28 16:00,153.1292,-27.3917,77.00,68.00,73.78,170.00,8.00,0.00,29.94,M,6.21,M,M,M,M,M,M,M,M,M,M,YBBN 281600Z 17008KT CAVOK 25/20 Q1014
YBBN,2016-02-28 16:30,153.1292,-27.3917,77.00,68.00,73.78,170.00,7.00,0.00,29.94,M,6.21,M,SCT,BKN,M,M,4100.00,5100.00,M,M,M,YBBN 281630Z 17007KT 9999 SCT041 BKN051 25/20 Q1014
YBBN,2016-02-28 17:00,153.1292,-27.3917,75.20,66.20,73.61,180.00,8.00,0.00,29.94,M,6.21,M,SCT,BKN,M,M,4500.00,5100.00,M,M,M,YBBN 281700Z 18008KT 9999 SCT045 BKN051 24/19 Q1014
YBBN,2016-02-28 17:30,153.1292,-27.3917,75.20,66.20,73.61,200.00,7.00,0.00,29.94,M,6.21,M,SCT,BKN,M,M,3000.00,4400.00,M,M,M,YBBN 281730Z 20007KT 9999 SCT030 BKN044 24/19 Q1014 NOSIG
YBBN,2016-02-28 18:00,153.1292,-27.3917,75.20,66.20,73.61,200.00,7.00,0.00,29.94,M,6.21,M,SCT,BKN,M,M,3100.00,5200.00,M,M,M,YBBN 281800Z 20007KT 9999 SCT031 BKN052 24/19 Q1014
YBBN,2016-02-28 18:30,153.1292,-27.3917,75.20,66.20,73.61,190.00,5.00,0.00,29.94,M,6.21,M,BKN,BKN,M,M,3500.00,4900.00,M,M,M,YBBN 281830Z 19005KT 9999 BKN035 BKN049 24/19 Q1014 NOSIG
YBBN,2016-02-28 19:00,153.1292,-27.3917,75.20,66.20,73.61,200.00,5.00,0.00,29.94,M,6.21,M,SCT,SCT,BKN,M,2500.00,3500.00,4600.00,M,M,YBBN 281900Z 20005KT 9999 SCT025 SCT035 BKN046 24/19 Q1014
YBBN,2016-02-28 19:30,153.1292,-27.3917,75.20,66.20,73.61,190.00,6.00,0.00,29.94,M,6.21,M,SCT,BKN,M,M,3100.00,5400.00,M,M,M,YBBN 281930Z 19006KT 9999 SCT031 BKN054 24/19 Q1014 NOSIG
YBBN,2016-02-28 20:00,153.1292,-27.3917,73.40,66.20,78.19,190.00,6.00,0.00,29.97,M,6.21,M,FEW,SCT,M,M,2000.00,4000.00,M,M,M,YBBN 282000Z 19006KT 9999 FEW020 SCT040 23/19 Q1015 NOSIG
YBBN,2016-02-28 20:30,153.1292,-27.3917,75.20,66.20,73.61,190.00,6.00,0.00,29.97,M,6.21,M,SCT,M,M,M,4000.00,M,M,M,M,YBBN 282030Z 19006KT 9999 SCT040 24/19 Q1015 NOSIG
YBBN,2016-02-28 21:00,153.1292,-27.3917,77.00,66.20,69.33,200.00,6.00,0.00,29.97,M,6.21,M,FEW,BKN,M,M,2600.00,4000.00,M,M,M,YBBN 282100Z 20006KT 9999 FEW026 BKN040 25/19 Q1015 NOSIG
YBBN,2016-02-28 21:30,153.1292,-27.3917,77.00,66.20,69.33,180.00,8.00,0.00,30.00,M,6.21,M,BKN,SCT,M,M,2600.00,4000.00,M,M,M,YBBN 282130Z 18008KT 9999 BKN026 SCT040 25/19 Q1016 NOSIG
YBBN,2016-02-28 22:00,153.1292,-27.3917,77.00,66.20,69.33,170.00,9.00,0.00,30.00,M,6.21,M,SCT,BKN,M,M,2200.00,4200.00,M,M,-SHRA,YBBN 282200Z 17009KT 9999 -SHRA SCT022 BKN042 25/19 Q1016 NOSIG
YBBN,2016-02-28 22:30,153.1292,-27.3917,78.80,68.00,69.52,180.00,9.00,0.00,30.00,M,3.73,M,SCT,BKN,M,M,2200.00,4700.00,M,M,-SHRA,YBBN 282230Z 18009KT 6000 -SHRA SCT022 BKN047 26/20 Q1016
YBBN,2016-02-28 22:50,153.1292,-27.3917,77.00,69.80,78.48,170.00,8.00,0.00,30.00,M,5.59,M,SCT,SCT,BKN,M,2200.00,4000.00,5600.00,M,VCSH,YBBN 282250Z 17008KT 9000 VCSH SCT022 SCT040 BKN056 25/21 Q1016
YBBN,2016-02-28 22:54,153.1292,-27.3917,77.00,69.80,78.48,170.00,9.00,0.00,30.00,M,6.21,M,SCT,SCT,SCT,M,2300.00,2800.00,4000.00,M,//,YBBN 282254Z AUTO 17009KT 9999 // SCT023 SCT028 SCT040 25/21 Q1016
YBBN,2016-02-28 23:00,153.1292,-27.3917,78.80,68.00,69.52,170.00,10.00,0.00,30.00,M,6.21,M,FEW,SCT,BKN,M,2400.00,3800.00,5800.00,M,VCSH,YBBN 282300Z 17010KT 9999 VCSH FEW024 SCT038 BKN058 26/20 Q1016
YBBN,2016-02-28 23:30,153.1292,-27.3917,78.80,68.00,69.52,170.00,11.00,0.00,30.00,M,6.21,M,FEW,SCT,M,M,2500.00,5800.00,M,M,M,YBBN 282330Z 17011KT 9999 FEW025 SCT058 26/20 Q1016 NOSIG
