#DEBUG: Format Typ    -> comma
#DEBUG: Time Period   -> 2013-09-20 00:00:00+00:00 2013-09-21 00:00:00+00:00
#DEBUG: Time Zone     -> Etc/UTC
#DEBUG: Data Contact   -> daryl herzmann akrherz@iastate.edu 515-294-5978
#DEBUG: Entries Found -> -1
station,valid,lon,lat,tmpf, dwpf, relh, drct, sknt, p01i, alti, mslp, vsby, gust, skyc1, skyc2, skyc3, skyc4, skyl1, skyl2, skyl3, skyl4, presentwx, metar
YBBN,2013-09-20 00:00,153.1292,-27.3917,77.00,33.80,20.74,240.00,11.00,0.00,29.88,M,6.21,M,M,M,M,M,M,M,M,M,M,YBBN 200000Z 24011KT CAVOK 25/01 Q1012
YBBN,2013-09-20 00:30,153.1292,-27.3917,77.00,35.60,22.28,250.00,12.00,0.00,29.88,M,6.21,M,M,M,M,M,M,M,M,M,M,YBBN 200030Z 25012KT CAVOK 25/02 Q1012
YBBN,2013-09-20 01:00,153.1292,-27.3917,78.80,37.40,22.54,270.00,14.00,0.00,29.85,M,6.21,M,M,M,M,M,M,M,M,M,M,YBBN 200100Z 27014KT CAVOK 26/03 Q1011
YBBN,2013-09-20 01:26,153.1292,-27.3917,78.80,32.00,18.18,270.00,15.00,0.00,29.85,M,6.21,25.00,M,M,M,M,M,M,M,M,M,YBBN 200126Z 27015G25KT CAVOK 26/00 Q1011
YBBN,2013-09-20 01:30,153.1292,-27.3917,78.80,32.00,18.18,270.00,17.00,0.00,29.85,M,6.21,M,M,M,M,M,M,M,M,M,M,YBBN 200130Z 27017KT CAVOK 26/M00 Q1011
YBBN,2013-09-20 02:00,153.1292,-27.3917,78.80,35.60,21.00,270.00,11.00,0.00,29.83,M,6.21,M,M,M,M,M,M,M,M,M,M,YBBN 200200Z 27011KT CAVOK 26/02 Q1010 NOSIG
YBBN,2013-09-20 02:30,153.1292,-27.3917,80.60,35.60,19.79,250.00,15.00,0.00,29.83,M,6.21,M,M,M,M,M,M,M,M,M,M,YBBN 200230Z 25015KT CAVOK 27/02 Q1010
YBBN,2013-09-20 03:00,153.1292,-27.3917,80.60,32.00,17.14,270.00,16.00,0.00,29.83,M,6.21,M,M,M,M,M,M,M,M,M,M,YBBN 200300Z 27016KT CAVOK 27/00 Q1010
YBBN,2013-09-20 03:30,153.1292,-27.3917,80.60,33.80,18.42,280.00,16.00,0.00,29.80,M,6.21,M,M,M,M,M,M,M,M,M,M,YBBN 200330Z 28016KT CAVOK 27/01 Q1009
YBBN,2013-09-20 04:00,153.1292,-27.3917,80.60,28.40,14.81,270.00,16.00,0.00,29.80,M,6.21,M,M,M,M,M,M,M,M,M,M,YBBN 200400Z 27016KT CAVOK 27/M02 Q1009
YBBN,2013-09-20 04:25,153.1292,-27.3917,80.60,30.20,15.94,270.00,17.00,0.00,29.80,M,6.21,28.00,M,M,M,M,M,M,M,M,M,YBBN 200425Z 27017G28KT CAVOK 27/M01 Q1009
YBBN,2013-09-20 04:30,153.1292,-27.3917,80.60,30.20,15.94,260.00,19.00,0.00,29.80,M,6.21,M,M,M,M,M,M,M,M,M,M,YBBN 200430Z 26019KT CAVOK 27/M01 Q1009
YBBN,2013-09-20 05:00,153.1292,-27.3917,80.60,32.00,17.14,260.00,16.00,0.00,29.77,M,6.21,M,M,M,M,M,M,M,M,M,M,YBBN 200500Z 26016KT CAVOK 27/M00 Q1008
YBBN,2013-09-20 05:30,153.1292,-27.3917,80.60,30.20,15.94,250.00,13.00,0.00,29.77,M,6.21,M,M,M,M,M,M,M,M,M,M,YBBN 200530Z 25013KT CAVOK 27/M01 Q1008
YBBN,2013-09-20 06:00,153.1292,-27.3917,80.60,28.40,14.81,270.00,13.00,0.00,29.77,M,6.21,M,M,M,M,M,M,M,M,M,M,YBBN 200600Z 27013KT CAVOK 27/M02 Q1008
YBBN,2013-09-20 06:30,153.1292,-27.3917,80.60,28.40,14.81,260.00,16.00,0.00,29.77,M,6.21,M,M,M,M,M,M,M,M,M,M,YBBN 200630Z 26016KT CAVOK 27/M02 Q1008
YBBN,2013-09-20 07:00,153.1292,-27.3917,78.80,30.20,16.90,280.00,11.00,0.00,29.80,M,6.21,M,M,M,M,M,M,M,M,M,M,YBBN 200700Z 28011KT CAVOK 26/M01 Q1009 NOSIG
YBBN,2013-09-20 07:30,153.1292,-27.3917,77.00,30.20,17.94,260.00,14.00,0.00,29.80,M,6.21,M,M,M,M,M,M,M,M,M,M,YBBN 200730Z 26014KT CAVOK 25/M01 Q1009
YBBN,2013-09-20 08:00,153.1292,-27.3917,73.40,32.00,21.76,260.00,9.00,0.00,29.80,M,6.21,M,M,M,M,M,M,M,M,M,M,YBBN 200800Z 26009KT CAVOK 23/M00 Q1009
YBBN,2013-09-20 08:30,153.1292,-27.3917,73.40,28.40,18.80,260.00,10.00,0.00,29.83,M,6.21,M,M,M,M,M,M,M,M,M,M,YBBN 200830Z 26010KT CAVOK 23/M02 Q1010
YBBN,2013-09-20 09:00,153.1292,-27.3917,71.60,32.00,23.13,260.00,11.00,0.00,29.83,M,6.21,M,M,M,M,M,M,M,M,M,M,YBBN 200900Z 26011KT CAVOK 22/00 Q1010 NOSIG
YBBN,2013-09-20 09:30,153.1292,-27.3917,71.60,32.00,23.13,250.00,10.00,0.00,29.83,M,6.21,M,M,M,M,M,M,M,M,M,M,YBBN 200930Z 25010KT CAVOK 22/M00 Q1010
YBBN,2013-09-20 10:00,153.1292,-27.3917,71.60,30.20,21.50,250.00,10.00,0.00,29.85,M,6.21,M,M,M,M,M,M,M,M,M,M,YBBN 201000Z 25010KT CAVOK 22/M01 Q1011 NOSIG
YBBN,2013-09-20 10:30,153.1292,-27.3917,69.80,30.20,22.86,250.00,12.00,0.00,29.85,M,6.21,M,M,M,M,M,M,M,M,M,M,YBBN 201030Z 25012KT CAVOK 21/M01 Q1011
YBBN,2013-09-20 11:00,153.1292,-27.3917,71.60,28.40,19.98,260.00,11.00,0.00,29.85,M,6.21,M,M,M,M,M,M,M,M,M,M,YBBN 201100Z 26011KT CAVOK 22/M02 Q1011 NOSIG
YBBN,2013-09-20 11:30,153.1292,-27.3917,69.80,32.00,24.59,260.00,5.00,0.00,29.85,M,6.21,M,M,M,M,M,M,M,M,M,M,YBBN 201130Z 26005KT CAVOK 21/00 Q1011
YBBN,2013-09-20 12:00,153.1292,-27.3917,68.00,33.80,28.11,50.00,1.00,0.00,29.85,M,6.21,M,M,M,M,M,M,M,M,M,M,YBBN 201200Z 05001KT CAVOK 20/01 Q1011
YBBN,2013-09-20 12:30,153.1292,-27.3917,64.40,37.40,36.74,30.00,4.00,0.00,29.88,M,6.21,M,M,M,M,M,M,M,M,M,M,YBBN 201230Z 03004KT CAVOK 18/03 Q1012
YBBN,2013-09-20 13:00,153.1292,-27.3917,62.60,39.20,42.00,360.00,2.00,0.00,29.88,M,6.21,M,M,M,M,M,M,M,M,M,M,YBBN 201300Z 36002KT CAVOK 17/04 Q1012
YBBN,2013-09-20 13:30,153.1292,-27.3917,60.80,39.20,44.76,20.00,4.00,0.00,29.85,M,6.21,M,M,M,M,M,M,M,M,M,M,YBBN 201330Z 02004KT CAVOK 16/04 Q1011
YBBN,2013-09-20 14:00,153.1292,-27.3917,60.80,37.40,41.71,10.00,6.00,0.00,29.85,M,6.21,M,M,M,M,M,M,M,M,M,M,YBBN 201400Z 01006KT CAVOK 16/03 Q1011
YBBN,2013-09-20 14:30,153.1292,-27.3917,62.60,39.20,42.00,20.00,5.00,0.00,29.85,M,6.21,M,M,M,M,M,M,M,M,M,M,YBBN 201430Z 02005KT CAVOK 17/04 Q1011
YBBN,2013-09-20 15:00,153.1292,-27.3917,64.40,35.60,34.22,320.00,4.00,0.00,29.85,M,6.21,M,M,M,M,M,M,M,M,M,M,YBBN 201500Z 32004KT CAVOK 18/02 Q1011
YBBN,2013-09-20 15:30,153.1292,-27.3917,64.40,37.40,36.74,310.00,6.00,0.00,29.85,M,6.21,M,M,M,M,M,M,M,M,M,M,YBBN 201530Z 31006KT CAVOK 18/03 Q1011
YBBN,2013-09-20 16:00,153.1292,-27.3917,59.00,41.00,51.18,310.00,7.00,0.00,29.85,M,6.21,M,M,M,M,M,M,M,M,M,M,YBBN 201600Z 31007KT CAVOK 15/05 Q1011
YBBN,2013-09-20 16:30,153.1292,-27.3917,57.20,42.80,58.52,250.00,2.00,0.00,29.85,M,6.21,M,M,M,M,M,M,M,M,M,M,YBBN 201630Z 25002KT CAVOK 14/06 Q1011
YBBN,2013-09-20 17:00,153.1292,-27.3917,55.40,44.60,66.91,0.00,0.00,0.00,29.85,M,6.21,M,M,M,M,M,M,M,M,M,M,YBBN 201700Z 00000KT CAVOK 13/07 Q1011 NOSIG
YBBN,2013-09-20 17:30,153.1292,-27.3917,55.40,41.00,58.27,210.00,4.00,0.00,29.85,M,6.21,M,M,M,M,M,M,M,M,M,M,YBBN 201730Z 21004KT CAVOK 13/05 Q1011
YBBN,2013-09-20 18:00,153.1292,-27.3917,57.20,41.00,54.60,200.00,4.00,0.00,29.85,M,6.21,M,M,M,M,M,M,M,M,M,M,YBBN 201800Z 20004KT CAVOK 14/05 Q1011
YBBN,2013-09-20 18:30,153.1292,-27.3917,53.60,42.80,66.70,230.00,4.00,0.00,29.88,M,6.21,M,M,M,M,M,M,M,M,M,M,YBBN 201830Z 23004KT CAVOK 12/06 Q1012
YBBN,2013-09-20 19:00,153.1292,-27.3917,53.60,39.20,58.02,200.00,4.00,0.00,29.88,M,6.21,M,M,M,M,M,M,M,M,M,M,YBBN 201900Z 20004KT CAVOK 12/04 Q1012 NOSIG
YBBN,2013-09-20 19:30,153.1292,-27.3917,53.60,41.00,62.23,230.00,6.00,0.00,29.91,M,6.21,M,M,M,M,M,M,M,M,M,M,YBBN 201930Z 23006KT CAVOK 12/05 Q1013
YBBN,2013-09-20 20:00,153.1292,-27.3917,51.80,42.80,71.26,230.00,5.00,0.00,29.91,M,6.21,M,M,M,M,M,M,M,M,M,M,YBBN 202000Z 23005KT CAVOK 11/06 Q1013 NOSIG
YBBN,2013-09-20 20:30,153.1292,-27.3917,57.20,44.60,62.69,210.00,6.00,0.00,29.91,M,6.21,M,M,M,M,M,M,M,M,M,M,YBBN 202030Z 21006KT CAVOK 14/07 Q1013
YBBN,2013-09-20 21:00,153.1292,-27.3917,60.80,44.60,55.12,210.00,5.00,0.00,29.91,M,6.21,M,M,M,M,M,M,M,M,M,M,YBBN 202100Z 21005KT CAVOK 16/07 Q1013 NOSIG
YBBN,2013-09-20 21:30,153.1292,-27.3917,66.20,37.40,34.51,190.00,5.00,0.00,29.94,M,6.21,M,M,M,M,M,M,M,M,M,M,YBBN 202130Z 19005KT CAVOK 19/03 Q1014
YBBN,2013-09-20 22:00,153.1292,-27.3917,68.00,35.60,30.20,170.00,5.00,0.00,29.94,M,6.21,M,M,M,M,M,M,M,M,M,M,YBBN 202200Z 17005KT CAVOK 20/02 Q1014
YBBN,2013-09-20 22:30,153.1292,-27.3917,69.80,32.00,24.59,170.00,8.00,0.00,29.94,M,6.21,M,M,M,M,M,M,M,M,M,M,YBBN 202230Z 17008KT CAVOK 21/00 Q1014
YBBN,2013-09-20 23:00,153.1292,-27.3917,71.60,35.60,26.71,140.00,7.00,0.00,29.94,M,6.21,M,M,M,M,M,M,M,M,M,M,YBBN 202300Z 14007KT CAVOK 22/02 Q1014 NOSIG
YBBN,2013-09-20 23:30,153.1292,-27.3917,71.60,35.60,26.71,130.00,8.00,0.00,29.94,M,6.21,M,M,M,M,M,M,M,M,M,M,YBBN 202330Z 13008KT CAVOK 22/02 Q1014
