#DEBUG: Format Typ    -> comma
#DEBUG: Time Period   -> 2012-04-30 00:00:00+00:00 2012-05-01 00:00:00+00:00
#DEBUG: Time Zone     -> Etc/UTC
#DEBUG: Data Contact   -> daryl herzmann akrherz@iastate.edu 515-294-5978
#DEBUG: Entries Found -> -1
station,valid,lon,lat,tmpf, dwpf, relh, drct, sknt, p01i, alti, mslp, vsby, gust, skyc1, skyc2, skyc3, skyc4, skyl1, skyl2, skyl3, skyl4, presentwx, metar
YBBN,2012-04-30 00:00,153.1292,-27.3917,71.60,55.40,56.63,160.00,10.00,0.00,30.21,M,6.21,M,FEW,M,M,M,3000.00,M,M,M,M,YBBN 300000Z 16010KT 9999 FEW030 22/13 Q1023 NOSIG
YBBN,2012-04-30 00:30,153.1292,-27.3917,71.60,55.40,56.63,160.00,13.00,0.00,30.21,M,6.21,M,FEW,M,M,M,3500.00,M,M,M,M,YBBN 300030Z 16013KT 9999 FEW035 22/13 Q1023
YBBN,2012-04-30 01:00,153.1292,-27.3917,71.60,55.40,56.63,160.00,10.00,0.00,30.18,M,6.21,M,FEW,M,M,M,3800.00,M,M,M,M,YBBN 300100Z 16010KT 9999 FEW038 22/13 Q1022 NOSIG
YBBN,2012-04-30 01:30,153.1292,-27.3917,73.40,53.60,49.90,160.00,11.00,0.00,30.18,M,6.21,M,FEW,M,M,M,3800.00,M,M,M,M,YBBN 300130Z 16011KT 9999 FEW038 23/12 Q1022 RMK HAZE
YBBN,2012-04-30 02:00,153.1292,-27.3917,73.40,53.60,49.90,150.00,11.00,0.00,30.15,M,6.21,M,FEW,M,M,M,3800.00,M,M,M,M,YBBN 300200Z 15011KT 9999 FEW038 23/12 Q1021 NOSIG
YBBN,2012-04-30 02:30,153.1292,-27.3917,73.40,53.60,49.90,140.00,9.00,0.00,30.15,M,6.21,19.00,FEW,M,M,M,3800.00,M,M,M,M,YBBN 300230Z 14009G19KT 9999 FEW038 23/12 Q1021 RMK HAZE
YBBN,2012-04-30 03:00,153.1292,-27.3917,73.40,55.40,53.29,130.00,10.00,0.00,30.15,M,6.21,M,FEW,M,M,M,4000.00,M,M,M,M,YBBN 300300Z 13010KT 9999 FEW040 23/13 Q1021 NOSIG
YBBN,2012-04-30 03:30,153.1292,-27.3917,73.40,55.40,53.29,160.00,8.00,0.00,30.12,M,6.21,M,FEW,M,M,M,4000.00,M,M,M,M,YBBN 300330Z 16008KT 9999 FEW040 23/13 Q1020 RMK HAZE
YBBN,2012-04-30 04:00,153.1292,-27.3917,73.40,55.40,53.29,130.00,9.00,0.00,30.12,M,6.21,M,FEW,M,M,M,4000.00,M,M,M,M,YBBN 300400Z 13009KT 9999 FEW040 23/13 Q1020
YBBN,2012-04-30 04:30,153.1292,-27.3917,73.40,55.40,53.29,130.00,12.00,0.00,30.12,M,6.21,M,FEW,M,M,M,4000.00,M,M,M,M,YBBN 300430Z 13012KT 9999 FEW040 23/13 Q1020 RMK HAZE
YBBN,2012-04-30 05:00,153.1292,-27.3917,73.40,55.40,53.29,130.00,13.00,0.00,30.12,M,6.21,M,FEW,M,M,M,4000.00,M,M,M,M,YBBN 300500Z 13013KT 9999 FEW040 23/13 Q1020 NOSIG
YBBN,2012-04-30 05:30,153.1292,-27.3917,71.60,55.40,56.63,140.00,9.00,0.00,30.12,M,6.21,M,FEW,SCT,M,M,4000.00,24000.00,M,M,M,YBBN 300530Z 14009KT 9999 FEW040 SCT240 22/13 Q1020
YBBN,2012-04-30 06:00,153.1292,-27.3917,71.60,57.20,60.44,140.00,10.00,0.00,30.12,M,6.21,20.00,FEW,SCT,M,M,4000.00,24000.00,M,M,M,YBBN 300600Z 14010G20KT 9999 FEW040 SCT240 22/14 Q1020
YBBN,2012-04-30 06:30,153.1292,-27.3917,71.60,55.40,56.63,140.00,11.00,0.00,30.15,M,6.21,M,FEW,SCT,M,M,4000.00,24000.00,M,M,M,YBBN 300630Z 14011KT 9999 FEW040 SCT240 22/13 Q1021
YBBN,2012-04-30 07:00,153.1292,-27.3917,69.80,53.60,56.38,150.00,9.00,0.00,30.15,M,6.21,M,FEW,BKN,M,M,3800.00,24000.00,M,M,M,YBBN 300700Z 15009KT 9999 FEW038 BKN240 21/12 Q1021
YBBN,2012-04-30 07:30,153.1292,-27.3917,68.00,57.20,68.35,140.00,9.00,0.00,30.18,M,6.21,M,FEW,SCT,M,M,3500.00,24000.00,M,M,M,YBBN 300730Z 14009KT 9999 FEW035 SCT240 20/14 Q1022
YBBN,2012-04-30 08:00,153.1292,-27.3917,68.00,57.20,68.35,150.00,9.00,0.00,30.18,M,6.21,M,FEW,SCT,M,M,3500.00,24000.00,M,M,M,YBBN 300800Z 15009KT 9999 FEW035 SCT240 20/14 Q1022 NOSIG
YBBN,2012-04-30 08:30,153.1292,-27.3917,68.00,55.40,64.04,160.00,9.00,0.00,30.21,M,6.21,M,FEW,SCT,M,M,3500.00,22000.00,M,M,M,YBBN 300830Z 16009KT 9999 FEW035 SCT220 20/13 Q1023
YBBN,2012-04-30 09:00,153.1292,-27.3917,66.20,55.40,68.15,170.00,10.00,0.00,30.21,M,6.21,M,FEW,SCT,M,M,3500.00,25000.00,M,M,M,YBBN 300900Z 17010KT 9999 FEW035 SCT250 19/13 Q1023
YBBN,2012-04-30 09:30,153.1292,-27.3917,66.20,55.40,68.15,160.00,9.00,0.00,30.21,M,6.21,M,FEW,SCT,M,M,3500.00,25000.00,M,M,M,YBBN 300930Z 16009KT 9999 FEW035 SCT250 19/13 Q1023
YBBN,2012-04-30 10:00,153.1292,-27.3917,64.40,55.40,72.56,170.00,8.00,0.00,30.21,M,6.21,M,FEW,M,M,M,3500.00,M,M,M,M,YBBN 301000Z 17008KT 9999 FEW035 18/13 Q1023 NOSIG
YBBN,2012-04-30 10:30,153.1292,-27.3917,64.40,55.40,72.56,170.00,7.00,0.00,30.24,M,6.21,M,FEW,SCT,M,M,3500.00,25000.00,M,M,M,YBBN 301030Z 17007KT 9999 FEW035 SCT250 18/13 Q1024
YBBN,2012-04-30 11:00,153.1292,-27.3917,64.40,55.40,72.56,170.00,9.00,0.00,30.24,M,6.21,M,FEW,BKN,M,M,3500.00,25000.00,M,M,M,YBBN 301100Z 17009KT 9999 FEW035 BKN250 18/13 Q1024
YBBN,2012-04-30 11:30,153.1292,-27.3917,64.40,55.40,72.56,200.00,7.00,0.00,30.24,M,6.21,M,FEW,BKN,M,M,3500.00,25000.00,M,M,M,YBBN 301130Z 20007KT 9999 FEW035 BKN250 18/13 Q1024
YBBN,2012-04-30 12:00,153.1292,-27.3917,62.60,55.40,77.29,200.00,7.00,0.00,30.24,M,6.21,M,M,M,M,M,M,M,M,M,M,YBBN 301200Z 20007KT CAVOK 17/13 Q1024 NOSIG
YBBN,2012-04-30 12:30,153.1292,-27.3917,62.60,55.40,77.29,200.00,6.00,0.00,30.24,M,6.21,M,M,M,M,M,M,M,M,M,M,YBBN 301230Z 20006KT CAVOK 17/13 Q1024
YBBN,2012-04-30 13:00,153.1292,-27.3917,62.60,55.40,77.29,200.00,7.00,0.00,30.24,M,6.21,M,M,M,M,M,M,M,M,M,M,YBBN 301300Z 20007KT CAVOK 17/13 Q1024 NOSIG
YBBN,2012-04-30 13:30,153.1292,-27.3917,59.00,55.40,87.83,210.00,7.00,0.00,30.24,M,6.21,M,M,M,M,M,M,M,M,M,M,YBBN 301330Z 21007KT CAVOK 15/13 Q1024
YBBN,2012-04-30 14:00,153.1292,-27.3917,59.00,53.60,82.25,210.00,9.00,0.00,30.24,M,6.21,M,M,M,M,M,M,M,M,M,M,YBBN 301400Z 21009KT CAVOK 15/12 Q1024 NOSIG
YBBN,2012-04-30 14:30,153.1292,-27.3917,59.00,55.40,87.83,210.00,8.00,0.00,30.21,M,6.21,M,M,M,M,M,M,M,M,M,M,YBBN 301430Z 21008KT CAVOK 15/13 Q1023
YBBN,2012-04-30 15:00,153.1292,-27.3917,60.80,55.40,82.37,200.00,8.00,0.00,30.21,M,6.21,M,M,M,M,M,M,M,M,M,M,YBBN 301500Z 20008KT CAVOK 16/13 Q1023 NOSIG
YBBN,2012-04-30 15:30,153.1292,-27.3917,59.00,55.40,87.83,210.00,8.00,0.00,30.21,M,6.21,M,M,M,M,M,M,M,M,M,M,YBBN 301530Z 21008KT CAVOK 15/13 Q1023
YBBN,2012-04-30 16:00,153.1292,-27.3917,59.00,55.40,87.83,200.00,8.00,0.00,30.21,M,6.21,M,FEW,M,M,M,3500.00,M,M,M,M,YBBN 301600Z 20008KT 9999 FEW035 15/13 Q1023 NOSIG
YBBN,2012-04-30 16:30,153.1292,-27.3917,57.20,55.40,93.69,210.00,7.00,0.00,30.21,M,6.21,M,FEW,SCT,M,M,3500.00,6700.00,M,M,M,YBBN 301630Z 21007KT 9999 FEW035 SCT067 14/13 Q1023
YBBN,2012-04-30 17:00,153.1292,-27.3917,59.00,55.40,87.83,200.00,8.00,0.00,30.21,M,6.21,M,FEW,SCT,M,M,3500.00,6700.00,M,M,M,YBBN 301700Z 20008KT 9999 FEW035 SCT067 15/13 Q1023 NOSIG
YBBN,2012-04-30 17:30,153.1292,-27.3917,60.80,55.40,82.37,190.00,6.00,0.00,30.21,M,6.21,M,FEW,SCT,M,M,2700.00,5700.00,M,M,M,YBBN 301730Z 19006KT 9999 FEW027 SCT057 16/13 Q1023
YBBN,2012-04-30 18:00,153.1292,-27.3917,57.20,55.40,93.69,210.00,5.00,0.00,30.21,M,6.21,M,FEW,SCT,BKN,M,2700.00,4700.00,6000.00,M,M,YBBN 301800Z 21005KT 9999 FEW027 SCT047 BKN060 14/13 Q1023 NOSIG
YBBN,2012-04-30 18:30,153.1292,-27.3917,57.20,55.40,93.69,200.00,7.00,0.00,30.21,M,6.21,M,FEW,M,M,M,2700.00,M,M,M,M,YBBN 301830Z 20007KT 9999 FEW027 14/13 Q1023
YBBN,2012-04-30 19:00,153.1292,-27.3917,59.00,55.40,87.83,210.00,9.00,0.00,30.21,M,6.21,M,FEW,SCT,M,M,2700.00,5000.00,M,M,M,YBBN 301900Z 21009KT 9999 FEW027 SCT050 15/13 Q1023 NOSIG
YBBN,2012-04-30 19:30,153.1292,-27.3917,59.00,55.40,87.83,200.00,8.00,0.00,30.21,M,6.21,M,FEW,SCT,M,M,2700.00,5800.00,M,M,M,YBBN 301930Z 20008KT 9999 FEW027 SCT058 15/13 Q1023
YBBN,2012-04-30 20:00,153.1292,-27.3917,59.00,55.40,87.83,200.00,9.00,0.00,30.24,M,6.21,M,FEW,SCT,M,M,2700.00,6000.00,M,M,M,YBBN 302000Z 20009KT 9999 FEW027 SCT060 15/13 Q1024
YBBN,2012-04-30 20:30,153.1292,-27.3917,59.00,55.40,87.83,200.00,9.00,0.00,30.24,M,6.21,M,FEW,M,M,M,2700.00,M,M,M,M,YBBN 302030Z 20009KT 9999 FEW027 15/13 Q1024
YBBN,2012-04-30 21:00,153.1292,-27.3917,59.00,55.40,87.83,210.00,9.00,0.00,30.24,M,6.21,M,FEW,M,M,M,2700.00,M,M,M,M,YBBN 302100Z 21009KT 9999 FEW027 15/13 Q1024 NOSIG
YBBN,2012-04-30 21:30,153.1292,-27.3917,60.80,55.40,82.37,210.00,11.00,0.00,30.24,M,6.21,M,FEW,M,M,M,2700.00,M,M,M,M,YBBN 302130Z 21011KT 9999 FEW027 16/13 Q1024
YBBN,2012-04-30 22:00,153.1292,-27.3917,64.40,57.20,77.45,210.00,10.00,0.00,30.27,M,6.21,M,FEW,M,M,M,2700.00,M,M,M,M,YBBN 302200Z 21010KT 9999 FEW027 18/14 Q1025 FM2300 13012KT 9999 -SHRA SCT030 SCT045
YBBN,2012-04-30 22:30,153.1292,-27.3917,66.20,57.20,72.74,200.00,9.00,0.00,30.27,M,6.21,M,FEW,M,M,M,2700.00,M,M,M,M,YBBN 302230Z 20009KT 9999 FEW027 19/14 Q1025
YBBN,2012-04-30 23:00,153.1292,-27.3917,68.00,57.20,68.35,180.00,8.00,0.00,30.27,M,6.21,M,FEW,M,M,M,2700.00,M,M,M,M,YBBN 302300Z 18008KT 9999 FEW027 20/14 Q1025 NOSIG
YBBN,2012-04-30 23:30,153.1292,-27.3917,69.80,57.20,64.26,170.00,7.00,0.00,30.27,M,6.21,M,FEW,M,M,M,2700.00,M,M,M,M,YBBN 302330Z 17007KT 9999 FEW027 21/14 Q1025
