#DEBUG: Format Typ    -> comma
#DEBUG: Time Period   -> 2011-02-07 00:00:00+00:00 2011-02-08 00:00:00+00:00
#DEBUG: Time Zone     -> Etc/UTC
#DEBUG: Data Contact   -> daryl herzmann akrherz@iastate.edu 515-294-5978
#DEBUG: Entries Found -> -1
station,valid,lon,lat,tmpf, dwpf, relh, drct, sknt, p01i, alti, mslp, vsby, gust, skyc1, skyc2, skyc3, skyc4, skyl1, skyl2, skyl3, skyl4, presentwx, metar
YBBN,2011-02-07 02:00,153.1292,-27.3917,80.60,68.00,65.54,170.00,9.00,M,30.00,M,6.21,M,FEW,BKN,BKN,M,1500.00,2800.00,5400.00,M,M,YBBN 070200Z 17009KT 9999 FEW015 BKN028 BKN054 27/20 Q1016 RMK DIST SH FM0200 16014KT 9999 -SHRA FEW015 BKN035
YBBN,2011-02-07 05:00,153.1292,-27.3917,84.20,68.00,58.32,160.00,9.00,M,29.94,M,6.21,M,FEW,SCT,BKN,M,3000.00,6200.00,32000.00,M,M,YBBN 070500Z 16009KT 9999 FEW030 SCT062 BKN320 29/20 Q1014 NOSIG
YBBN,2011-02-07 05:30,153.1292,-27.3917,82.40,68.00,61.81,150.00,10.00,M,29.94,M,6.21,M,FEW,SCT,BKN,M,3200.00,6200.00,32000.00,M,M,YBBN 070530Z 15010KT 9999 FEW032 SCT062 BKN320 28/20 Q1014 NOSIG
YBBN,2011-02-07 06:00,153.1292,-27.3917,82.40,68.00,61.81,120.00,10.00,M,29.94,M,6.21,M,FEW,SCT,BKN,M,2500.00,6200.00,32000.00,M,M,YBBN 070600Z 12010KT 9999 FEW025 SCT062 BKN320 28/20 Q1014 NOSIG
YBBN,2011-02-07 06:30,153.1292,-27.3917,80.60,69.80,69.71,130.00,10.00,M,29.97,M,6.21,M,FEW,SCT,BKN,M,2200.00,2900.00,32000.00,M,M,YBBN 070630Z 13010KT 9999 FEW022 SCT029 BKN320 27/21 Q1015 NOSIG
YBBN,2011-02-07 07:00,153.1292,-27.3917,80.60,68.00,65.54,130.00,10.00,M,29.97,M,6.21,M,FEW,SCT,BKN,M,2200.00,2900.00,32000.00,M,M,YBBN 070700Z 13010KT 9999 FEW022 SCT029 BKN320 27/20 Q1015 NOSIG
YBBN,2011-02-07 07:30,153.1292,-27.3917,78.80,68.00,69.52,140.00,10.00,M,29.94,M,6.21,M,FEW,SCT,BKN,M,2200.00,2800.00,32000.00,M,M,YBBN 070730Z 14010KT 9999 FEW022 SCT028 BKN320 26/20 Q1014 NOSIG
YBBN,2011-02-07 08:00,153.1292,-27.3917,78.80,68.00,69.52,150.00,9.00,M,29.97,M,6.21,M,FEW,SCT,BKN,M,1800.00,3900.00,6000.00,M,M,YBBN 070800Z 15009KT 9999 FEW018 SCT039 BKN060 26/20 Q1015 NOSIG
YBBN,2011-02-07 08:30,153.1292,-27.3917,77.00,68.00,73.78,170.00,7.00,M,29.97,M,6.21,M,FEW,SCT,BKN,M,1800.00,3800.00,6000.00,M,M,YBBN 070830Z 17007KT 9999 FEW018 SCT038 BKN060 25/20 Q1015 NOSIG
YBBN,2011-02-07 09:00,153.1292,-27.3917,77.00,68.00,73.78,140.00,11.00,M,29.97,M,6.21,M,FEW,SCT,BKN,M,1800.00,3800.00,5800.00,M,M,YBBN 070900Z 14011KT 9999 FEW018 SCT038 BKN058 25/20 Q1015 NOSIG
YBBN,2011-02-07 09:30,153.1292,-27.3917,77.00,66.20,69.33,170.00,10.00,M,29.97,M,6.21,M,FEW,BKN,M,M,1800.00,6000.00,M,M,M,YBBN 070930Z 17010KT 9999 FEW018 BKN060 25/19 Q1015 WS RWY19 RMK U/SHOOT WS RWY19 NOSIG
YBBN,2011-02-07 10:00,153.1292,-27.3917,77.00,66.20,69.33,170.00,11.00,M,29.97,M,6.21,M,FEW,BKN,M,M,1800.00,6000.00,M,M,M,YBBN 071000Z 17011KT 9999 FEW018 BKN060 25/19 Q1015 WS RWY19 RMK MOD U/SHOOT WS RWY19 NOSIG
YBBN,2011-02-07 10:30,153.1292,-27.3917,75.20,66.20,73.61,170.00,10.00,M,30.00,M,6.21,M,FEW,SCT,BKN,M,1800.00,2300.00,6000.00,M,M,YBBN 071030Z 17010KT 9999 FEW018 SCT023 BKN060 24/19 Q1016 NOSIG
YBBN,2011-02-07 11:00,153.1292,-27.3917,75.20,66.20,73.61,170.00,7.00,M,30.00,M,6.21,M,FEW,BKN,M,M,1800.00,6300.00,M,M,M,YBBN 071100Z 17007KT 9999 FEW018 BKN063 24/19 Q1016 NOSIG
YBBN,2011-02-07 17:00,153.1292,-27.3917,73.40,66.20,78.19,180.00,9.00,M,29.94,M,6.21,M,FEW,BKN,M,M,1400.00,2600.00,M,M,M,YBBN 071700Z 18009KT 9999 FEW014 BKN026 23/19 Q1014 RMK DIST SH W/SW INTER 1700/2000 3000 SHRA BKN010
YBBN,2011-02-07 17:30,153.1292,-27.3917,73.40,68.00,83.21,180.00,7.00,M,29.94,M,6.21,M,FEW,BKN,M,M,1500.00,2600.00,M,M,M,YBBN 071730Z 18007KT 9999 FEW015 BKN026 23/20 Q1014 RMK DIST SH SW SECTOR INTER 1730/2030 3000 SHRA BKN010
YBBN,2011-02-07 18:00,153.1292,-27.3917,73.40,66.20,78.19,210.00,8.00,M,29.94,M,6.21,M,FEW,BKN,M,M,1800.00,2700.00,M,M,M,YBBN 071800Z 21008KT 9999 FEW018 BKN027 23/19 Q1014 RMK DIST SH W/SW INTER 1800/2100 3000 SHRA BKN010
YBBN,2011-02-07 18:30,153.1292,-27.3917,73.40,66.20,78.19,210.00,7.00,M,29.94,M,6.21,M,FEW,BKN,M,M,1800.00,2600.00,M,M,M,YBBN 071830Z 21007KT 9999 FEW018 BKN026 23/19 Q1014 RMK DIST SH W AND S INTER 1830/2130 3000 SHRA BKN010
YBBN,2011-02-07 19:00,153.1292,-27.3917,73.40,66.20,78.19,220.00,9.00,M,29.94,M,6.21,M,FEW,BKN,M,M,1900.00,2600.00,M,M,M,YBBN 071900Z 22009KT 9999 FEW019 BKN026 23/19 Q1014 RMK DIST SH S/SW INTER 1900/2200 3000 SHRA BKN010
YBBN,2011-02-07 19:30,153.1292,-27.3917,73.40,66.20,78.19,210.00,8.00,M,29.94,M,6.21,M,FEW,BKN,M,M,1900.00,3000.00,M,M,M,YBBN 071930Z 21008KT 9999 FEW019 BKN030 23/19 Q1014 RMK DIST SH SW/SE INTER 1930/2230 3000 SHRA BKN010
YBBN,2011-02-07 20:00,153.1292,-27.3917,73.40,66.20,78.19,210.00,7.00,M,29.97,M,6.21,M,FEW,SCT,BKN,M,1900.00,3000.00,3800.00,M,M,YBBN 072000Z 21007KT 9999 FEW019 SCT030 BKN038 23/19 Q1015 RMK DIST SH SW/SE INTER 2000/2300 3000 SHRA BKN010
YBBN,2011-02-07 21:00,153.1292,-27.3917,73.40,66.20,78.19,210.00,8.00,M,29.97,M,6.21,M,FEW,BKN,M,M,1800.00,4500.00,M,M,M,YBBN 072100Z 21008KT 9999 FEW018 BKN045 23/19 Q1015 RMK DIST SHWRS TO SW INTER 2100/2400 3000 SHRA BKN010
