#DEBUG: Format Typ    -> comma
#DEBUG: Time Period   -> 2012-04-19 00:00:00+00:00 2012-04-20 00:00:00+00:00
#DEBUG: Time Zone     -> Etc/UTC
#DEBUG: Data Contact   -> daryl herzmann akrherz@iastate.edu 515-294-5978
#DEBUG: Entries Found -> -1
station,valid,lon,lat,tmpf, dwpf, relh, drct, sknt, p01i, alti, mslp, vsby, gust, skyc1, skyc2, skyc3, skyc4, skyl1, skyl2, skyl3, skyl4, presentwx, metar
YBBN,2012-04-19 00:00,153.1292,-27.3917,77.00,64.40,65.12,210.00,6.00,0.00,30.00,M,6.21,M,FEW,M,M,M,2800.00,M,M,M,M,YBBN 190000Z 21006KT 9999 FEW028 25/18 Q1016
YBBN,2012-04-19 00:30,153.1292,-27.3917,77.00,60.80,57.36,220.00,5.00,0.00,30.00,M,6.21,M,FEW,M,M,M,3000.00,M,M,M,M,YBBN 190030Z 22005KT 9999 FEW030 25/16 Q1016
YBBN,2012-04-19 01:00,153.1292,-27.3917,77.00,60.80,57.36,190.00,4.00,0.00,30.00,M,6.21,M,SCT,M,M,M,3500.00,M,M,M,M,YBBN 190100Z 19004KT 9999 SCT035 25/16 Q1016
YBBN,2012-04-19 01:30,153.1292,-27.3917,78.80,62.60,57.60,100.00,4.00,0.00,29.97,M,6.21,M,SCT,M,M,M,3300.00,M,M,M,M,YBBN 190130Z 10004KT 9999 SCT033 26/17 Q1015
YBBN,2012-04-19 02:00,153.1292,-27.3917,78.80,64.40,61.36,90.00,7.00,0.00,29.97,M,6.21,M,SCT,M,M,M,3300.00,M,M,M,M,YBBN 190200Z 09007KT 9999 SCT033 26/18 Q1015 NOSIG
YBBN,2012-04-19 02:30,153.1292,-27.3917,78.80,62.60,57.60,70.00,8.00,0.00,29.94,M,6.21,M,SCT,M,M,M,3300.00,M,M,M,M,YBBN 190230Z 07008KT 9999 SCT033 26/17 Q1014
YBBN,2012-04-19 03:00,153.1292,-27.3917,77.00,62.60,61.13,80.00,7.00,0.00,29.94,M,6.21,M,SCT,M,M,M,3200.00,M,M,M,M,YBBN 190300Z 08007KT 9999 SCT032 25/17 Q1014
YBBN,2012-04-19 03:30,153.1292,-27.3917,78.80,62.60,57.60,50.00,9.00,0.00,29.94,M,6.21,M,SCT,M,M,M,3200.00,M,M,M,M,YBBN 190330Z 05009KT 9999 SCT032 26/17 Q1014
YBBN,2012-04-19 04:00,153.1292,-27.3917,78.80,64.40,61.36,60.00,8.00,0.00,29.94,M,6.21,M,FEW,M,M,M,3200.00,M,M,M,M,YBBN 190400Z 06008KT 9999 FEW032 26/18 Q1014
YBBN,2012-04-19 04:30,153.1292,-27.3917,77.00,62.60,61.13,40.00,9.00,0.00,29.91,M,6.21,M,FEW,M,M,M,3200.00,M,M,M,M,YBBN 190430Z 04009KT 9999 FEW032 25/17 Q1013
YBBN,2012-04-19 05:00,153.1292,-27.3917,78.80,62.60,57.60,40.00,9.00,0.00,29.91,M,6.21,M,FEW,M,M,M,3200.00,M,M,M,M,YBBN 190500Z 04009KT 9999 FEW032 26/17 Q1013
YBBN,2012-04-19 05:30,153.1292,-27.3917,77.00,64.40,65.12,30.00,9.00,0.00,29.91,M,6.21,M,FEW,M,M,M,3200.00,M,M,M,M,YBBN 190530Z 03009KT 9999 FEW032 25/18 Q1013
YBBN,2012-04-19 06:00,153.1292,-27.3917,77.00,66.20,69.33,30.00,9.00,0.00,29.91,M,6.21,M,FEW,M,M,M,3000.00,M,M,M,M,YBBN 190600Z 03009KT 9999 FEW030 25/19 Q1013
YBBN,2012-04-19 06:30,153.1292,-27.3917,75.20,66.20,73.61,60.00,7.00,0.00,29.91,M,6.21,M,FEW,M,M,M,3000.00,M,M,M,M,YBBN 190630Z 06007KT 9999 FEW030 24/19 Q1013
YBBN,2012-04-19 07:00,153.1292,-27.3917,75.20,66.20,73.61,60.00,7.00,0.00,29.94,M,6.21,M,FEW,M,M,M,2800.00,M,M,M,M,YBBN 190700Z 06007KT 9999 FEW028 24/19 Q1014
YBBN,2012-04-19 07:30,153.1292,-27.3917,73.40,66.20,78.19,60.00,5.00,0.00,29.94,M,6.21,M,FEW,M,M,M,2600.00,M,M,M,M,YBBN 190730Z 06005KT 9999 FEW026 23/19 Q1014
YBBN,2012-04-19 08:00,153.1292,-27.3917,69.80,66.20,88.34,0.00,0.00,0.00,29.94,M,6.21,M,FEW,M,M,M,2200.00,M,M,M,M,YBBN 190800Z 00000KT 9999 FEW022 21/19 Q1014 NOSIG
YBBN,2012-04-19 08:30,153.1292,-27.3917,71.60,68.00,88.43,0.00,0.00,0.00,29.94,M,6.21,M,FEW,M,M,M,2200.00,M,M,M,M,YBBN 190830Z 00000KT 9999 FEW022 22/20 Q1014
YBBN,2012-04-19 09:00,153.1292,-27.3917,71.60,68.00,88.43,0.00,0.00,0.00,29.97,M,6.21,M,FEW,M,M,M,2200.00,M,M,M,M,YBBN 190900Z 00000KT 9999 FEW022 22/20 Q1015 NOSIG
YBBN,2012-04-19 09:30,153.1292,-27.3917,71.60,68.00,88.43,90.00,5.00,0.00,29.97,M,6.21,M,FEW,M,M,M,2200.00,M,M,M,M,YBBN 190930Z 09005KT 9999 FEW022 22/20 Q1015
YBBN,2012-04-19 10:00,153.1292,-27.3917,71.60,68.00,88.43,0.00,0.00,0.00,29.97,M,6.21,M,FEW,M,M,M,2200.00,M,M,M,M,YBBN 191000Z 00000KT 9999 FEW022 22/20 Q1015
YBBN,2012-04-19 10:30,153.1292,-27.3917,69.80,68.00,94.01,110.00,3.00,0.00,29.97,M,6.21,M,FEW,M,M,M,2200.00,M,M,M,M,YBBN 191030Z 11003KT 9999 FEW022 21/20 Q1015
YBBN,2012-04-19 11:00,153.1292,-27.3917,69.80,68.00,94.01,110.00,1.00,0.00,29.97,M,6.21,M,FEW,M,M,M,2000.00,M,M,M,M,YBBN 191100Z 11001KT 9999 FEW020 21/20 Q1015 NOSIG
YBBN,2012-04-19 11:30,153.1292,-27.3917,69.80,68.00,94.01,130.00,1.00,0.00,30.00,M,6.21,M,FEW,M,M,M,1200.00,M,M,M,M,YBBN 191130Z 13001KT 9999 FEW012 21/20 Q1016
YBBN,2012-04-19 12:00,153.1292,-27.3917,68.00,66.20,93.97,180.00,3.00,0.00,30.00,M,6.21,M,FEW,M,M,M,1000.00,M,M,M,M,YBBN 191200Z 18003KT 9999 FEW010 20/19 Q1016
YBBN,2012-04-19 12:30,153.1292,-27.3917,68.00,66.20,93.97,200.00,4.00,0.00,30.00,M,6.21,M,FEW,M,M,M,1000.00,M,M,M,M,YBBN 191230Z 20004KT 9999 FEW010 20/19 Q1016
YBBN,2012-04-19 13:00,153.1292,-27.3917,68.00,66.20,93.97,190.00,5.00,0.00,30.00,M,6.21,M,FEW,M,M,M,1000.00,M,M,M,M,YBBN 191300Z 19005KT 9999 FEW010 20/19 Q1016
YBBN,2012-04-19 13:30,153.1292,-27.3917,66.20,66.20,100.00,210.00,6.00,0.00,30.00,M,6.21,M,FEW,M,M,M,1200.00,M,M,M,M,YBBN 191330Z 21006KT 9999 FEW012 19/19 Q1016
YBBN,2012-04-19 14:00,153.1292,-27.3917,66.20,66.20,100.00,210.00,5.00,0.00,29.97,M,6.21,M,FEW,M,M,M,1400.00,M,M,M,M,YBBN 191400Z 21005KT 9999 FEW014 19/19 Q1015 NOSIG
YBBN,2012-04-19 14:30,153.1292,-27.3917,66.20,66.20,100.00,210.00,6.00,0.00,29.97,M,6.21,M,FEW,M,M,M,1400.00,M,M,M,M,YBBN 191430Z 21006KT 9999 FEW014 19/19 Q1015
YBBN,2012-04-19 15:00,153.1292,-27.3917,66.20,64.40,93.92,210.00,5.00,0.00,29.97,M,6.21,M,FEW,M,M,M,1500.00,M,M,M,M,YBBN 191500Z 21005KT 9999 FEW015 19/18 Q1015
YBBN,2012-04-19 15:30,153.1292,-27.3917,66.20,64.40,93.92,210.00,6.00,0.00,29.97,M,6.21,M,FEW,M,M,M,1500.00,M,M,M,M,YBBN 191530Z 21006KT 9999 FEW015 19/18 Q1015
YBBN,2012-04-19 16:00,153.1292,-27.3917,66.20,66.20,100.00,200.00,5.00,0.00,29.97,M,6.21,M,FEW,M,M,M,1800.00,M,M,M,M,YBBN 191600Z 20005KT 9999 FEW018 19/19 Q1015 INTER 1730/1900 3000 SHRA BKN015
YBBN,2012-04-19 16:30,153.1292,-27.3917,66.20,66.20,100.00,220.00,6.00,0.00,29.97,M,6.21,M,SCT,M,M,M,1800.00,M,M,M,M,YBBN 191630Z 22006KT 9999 SCT018 19/19 Q1015
YBBN,2012-04-19 17:00,153.1292,-27.3917,66.20,66.20,100.00,210.00,8.00,0.00,29.94,M,6.21,M,FEW,M,M,M,1800.00,M,M,M,M,YBBN 191700Z 21008KT 9999 FEW018 19/19 Q1014 INTER 1730/2000 3000 SHRA BKN015
YBBN,2012-04-19 17:30,153.1292,-27.3917,68.00,66.20,93.97,200.00,8.00,0.00,29.94,M,6.21,M,FEW,M,M,M,1600.00,M,M,M,M,YBBN 191730Z 20008KT 9999 FEW016 20/19 Q1014
YBBN,2012-04-19 18:00,153.1292,-27.3917,68.00,66.20,93.97,200.00,7.00,0.00,29.97,M,6.21,M,FEW,BKN,M,M,1400.00,9500.00,M,M,M,YBBN 191800Z 20007KT 9999 FEW014 BKN095 20/19 Q1015 INTER 1800/2100 3000 SHRA BKN015
YBBN,2012-04-19 18:30,153.1292,-27.3917,68.00,66.20,93.97,200.00,7.00,0.00,29.97,M,6.21,M,FEW,BKN,M,M,1400.00,9400.00,M,M,M,YBBN 191830Z 20007KT 9999 FEW014 BKN094 20/19 Q1015
YBBN,2012-04-19 19:00,153.1292,-27.3917,68.00,66.20,93.97,200.00,7.00,0.00,29.97,M,6.21,M,FEW,BKN,M,M,1400.00,9000.00,M,M,M,YBBN 191900Z 20007KT 9999 FEW014 BKN090 20/19 Q1015 INTER 1900/2200 3000 SHRA BKN015
YBBN,2012-04-19 19:30,153.1292,-27.3917,68.00,66.20,93.97,210.00,7.00,0.00,29.97,M,6.21,M,FEW,BKN,M,M,1400.00,9000.00,M,M,M,YBBN 191930Z 21007KT 9999 FEW014 BKN090 20/19 Q1015
YBBN,2012-04-19 20:00,153.1292,-27.3917,68.00,66.20,93.97,210.00,9.00,0.00,29.97,M,5.59,M,FEW,BKN,M,M,1400.00,8300.00,M,M,-DZ,YBBN 192000Z 21009KT 9000 -DZ FEW014 BKN083 20/19 Q1015 INTER 2000/2300 3000 SHRA BKN015
YBBN,2012-04-19 20:30,153.1292,-27.3917,66.20,64.40,93.92,200.00,7.00,0.00,29.97,M,6.21,M,FEW,BKN,M,M,3000.00,7500.00,M,M,M,YBBN 192030Z 20007KT 9999 FEW030 BKN075 19/18 Q1015
YBBN,2012-04-19 21:00,153.1292,-27.3917,68.00,66.20,93.97,200.00,8.00,0.00,29.97,M,6.21,M,FEW,SCT,M,M,3000.00,7000.00,M,M,M,YBBN 192100Z 20008KT 9999 FEW030 SCT070 20/19 Q1015
YBBN,2012-04-19 21:30,153.1292,-27.3917,68.00,66.20,93.97,220.00,9.00,0.00,30.00,M,6.21,M,FEW,BKN,M,M,3000.00,7500.00,M,M,M,YBBN 192130Z 22009KT 9999 FEW030 BKN075 20/19 Q1016
YBBN,2012-04-19 22:00,153.1292,-27.3917,69.80,66.20,88.34,210.00,9.00,0.00,30.00,M,6.21,M,FEW,SCT,BKN,M,3000.00,7500.00,10500.00,M,M,YBBN 192200Z 21009KT 9999 FEW030 SCT075 BKN105 21/19 Q1016 INTER 2200/2400 3000 SHRA BKN015
YBBN,2012-04-19 22:30,153.1292,-27.3917,71.60,66.20,83.09,210.00,9.00,0.00,30.00,M,6.21,M,FEW,SCT,M,M,3500.00,10500.00,M,M,M,YBBN 192230Z 21009KT 9999 FEW035 SCT105 22/19 Q1016
YBBN,2012-04-19 23:00,153.1292,-27.3917,73.40,66.20,78.19,210.00,9.00,0.00,30.00,M,6.21,M,FEW,SCT,M,M,3500.00,8500.00,M,M,M,YBBN 192300Z 21009KT 9999 FEW035 SCT085 23/19 Q1016 INTER 2300/2400 3000 SHRA BKN015
YBBN,2012-04-19 23:30,153.1292,-27.3917,75.20,66.20,73.61,200.00,7.00,0.00,30.00,M,6.21,M,FEW,SCT,M,M,3500.00,8300.00,M,M,M,YBBN 192330Z 20007KT 9999 FEW035 SCT083 24/19 Q1016
