#DEBUG: Format Typ    -> comma
#DEBUG: Time Period   -> 2013-11-15 00:00:00+00:00 2013-11-16 00:00:00+00:00
#DEBUG: Time Zone     -> Etc/UTC
#DEBUG: Data Contact   -> daryl herzmann akrherz@iastate.edu 515-294-5978
#DEBUG: Entries Found -> -1
station,valid,lon,lat,tmpf, dwpf, relh, drct, sknt, p01i, alti, mslp, vsby, gust, skyc1, skyc2, skyc3, skyc4, skyl1, skyl2, skyl3, skyl4, presentwx, metar
YBBN,2013-11-15 00:00,153.1292,-27.3917,77.00,66.20,69.33,360.00,10.00,0.00,29.91,M,6.21,M,FEW,M,M,M,2400.00,M,M,M,M,YBBN 150000Z 36010KT 9999 FEW024 25/19 Q1013
YBBN,2013-11-15 00:30,153.1292,-27.3917,77.00,64.40,65.12,10.00,11.00,0.00,29.91,M,6.21,M,FEW,M,M,M,2400.00,M,M,M,M,YBBN 150030Z 01011KT 9999 FEW024 25/18 Q1013
YBBN,2013-11-15 01:00,153.1292,-27.3917,78.80,68.00,69.52,10.00,11.00,0.00,29.88,M,6.21,M,FEW,M,M,M,2500.00,M,M,M,M,YBBN 150100Z 01011KT 9999 FEW025 26/20 Q1012 NOSIG
YBBN,2013-11-15 01:30,153.1292,-27.3917,78.80,66.20,65.33,20.00,12.00,0.00,29.88,M,6.21,M,FEW,M,M,M,2500.00,M,M,M,M,YBBN 150130Z 02012KT 9999 FEW025 26/19 Q1012
YBBN,2013-11-15 02:00,153.1292,-27.3917,78.80,66.20,65.33,20.00,13.00,0.00,29.85,M,6.21,M,FEW,M,M,M,3000.00,M,M,M,M,YBBN 150200Z 02013KT 9999 FEW030 26/19 Q1011 NOSIG
YBBN,2013-11-15 02:30,153.1292,-27.3917,80.60,66.20,61.58,10.00,13.00,0.00,29.85,M,6.21,M,FEW,M,M,M,3000.00,M,M,M,M,YBBN 150230Z 01013KT 9999 FEW030 27/19 Q1011
YBBN,2013-11-15 03:00,153.1292,-27.3917,78.80,66.20,65.33,20.00,13.00,0.00,29.85,M,6.21,M,FEW,M,M,M,3000.00,M,M,M,M,YBBN 150300Z 02013KT 9999 FEW030 26/19 Q1011 NOSIG
YBBN,2013-11-15 03:30,153.1292,-27.3917,80.60,68.00,65.54,10.00,15.00,0.00,29.83,M,6.21,M,FEW,M,M,M,3000.00,M,M,M,M,YBBN 150330Z 01015KT 9999 FEW030 27/20 Q1010 RMK DIST CB TOPS TO NW
YBBN,2013-11-15 04:00,153.1292,-27.3917,78.80,68.00,69.52,20.00,14.00,0.00,29.83,M,6.21,M,FEW,M,M,M,3000.00,M,M,M,M,YBBN 150400Z 02014KT 9999 FEW030 26/20 Q1010
YBBN,2013-11-15 04:30,153.1292,-27.3917,78.80,66.20,65.33,10.00,15.00,0.00,29.80,M,6.21,M,FEW,SCT,M,M,3500.00,30000.00,M,M,M,YBBN 150430Z 01015KT 9999 FEW035 SCT300 26/19 Q1009 RMK CB TOPS TO W NW
YBBN,2013-11-15 05:00,153.1292,-27.3917,78.80,68.00,69.52,20.00,15.00,0.00,29.80,M,6.21,M,FEW,SCT,M,M,3500.00,30000.00,M,M,M,YBBN 150500Z 02015KT 9999 FEW035 SCT300 26/20 Q1009
YBBN,2013-11-15 05:30,153.1292,-27.3917,77.00,68.00,73.78,10.00,13.00,0.00,29.80,M,6.21,M,FEW,BKN,M,M,3000.00,30000.00,M,M,M,YBBN 150530Z 01013KT 9999 FEW030CB BKN300 25/20 Q1009 RMK CB'S TO W
YBBN,2013-11-15 06:00,153.1292,-27.3917,75.20,68.00,78.34,10.00,14.00,0.00,29.80,M,6.21,M,FEW,SCT,BKN,M,3000.00,23000.00,30000.00,M,M,YBBN 150600Z 01014KT 9999 FEW030CB SCT230 BKN300 24/20 Q1009 RMK CB TO N W
YBBN,2013-11-15 06:30,153.1292,-27.3917,77.00,68.00,73.78,360.00,13.00,0.00,29.80,M,6.21,M,FEW,SCT,BKN,M,3000.00,19000.00,30000.00,M,M,YBBN 150630Z 36013KT 9999 FEW030CB SCT190 BKN300 25/20 Q1009 RMK CB TO S
YBBN,2013-11-15 07:00,153.1292,-27.3917,75.20,68.00,78.34,360.00,12.00,0.00,29.80,M,6.21,M,FEW,SCT,M,M,3000.00,30000.00,M,M,M,YBBN 150700Z 36012KT 9999 FEW030CB SCT300 24/20 Q1009
YBBN,2013-11-15 07:30,153.1292,-27.3917,75.20,68.00,78.34,10.00,13.00,0.00,29.80,M,6.21,M,FEW,SCT,M,M,3000.00,30000.00,M,M,M,YBBN 150730Z 01013KT 9999 FEW030CB SCT300 24/20 Q1009 RMK CB TO S
YBBN,2013-11-15 08:00,153.1292,-27.3917,73.40,68.00,83.21,20.00,11.00,0.00,29.83,M,6.21,M,FEW,SCT,M,M,1400.00,23000.00,M,M,M,YBBN 150800Z 02011KT 9999 FEW014 SCT230 23/20 Q1010 NOSIG
YBBN,2013-11-15 08:30,153.1292,-27.3917,73.40,68.00,83.21,20.00,11.00,0.00,29.83,M,6.21,M,SCT,SCT,M,M,1400.00,23000.00,M,M,M,YBBN 150830Z 02011KT 9999 SCT014 SCT230 23/20 Q1010 RMK LIGHTNING TO SE
YBBN,2013-11-15 09:00,153.1292,-27.3917,73.40,68.00,83.21,10.00,12.00,0.00,29.85,M,6.21,M,FEW,SCT,M,M,1400.00,23000.00,M,M,M,YBBN 150900Z 01012KT 9999 FEW014 SCT230 23/20 Q1011
YBBN,2013-11-15 09:30,153.1292,-27.3917,73.40,68.00,83.21,20.00,10.00,0.00,29.85,M,6.21,M,BKN,SCT,M,M,1600.00,23000.00,M,M,M,YBBN 150930Z 02010KT 9999 BKN016 SCT230 23/20 Q1011
YBBN,2013-11-15 10:00,153.1292,-27.3917,73.40,68.00,83.21,10.00,13.00,0.00,29.85,M,6.21,M,SCT,SCT,M,M,1600.00,23000.00,M,M,M,YBBN 151000Z 01013KT 9999 SCT016 SCT230 23/20 Q1011
YBBN,2013-11-15 10:30,153.1292,-27.3917,73.40,68.00,83.21,10.00,12.00,0.00,29.85,M,6.21,M,BKN,M,M,M,1600.00,M,M,M,M,YBBN 151030Z 01012KT 9999 BKN016 23/20 Q1011
YBBN,2013-11-15 11:00,153.1292,-27.3917,73.40,68.00,83.21,10.00,9.00,0.00,29.85,M,6.21,M,BKN,M,M,M,1800.00,M,M,M,M,YBBN 151100Z 01009KT 9999 BKN018 23/20 Q1011
YBBN,2013-11-15 11:30,153.1292,-27.3917,73.40,68.00,83.21,20.00,10.00,0.00,29.85,M,6.21,M,BKN,M,M,M,1800.00,M,M,M,M,YBBN 151130Z 02010KT 9999 BKN018 23/20 Q1011
YBBN,2013-11-15 12:00,153.1292,-27.3917,73.40,68.00,83.21,360.00,9.00,0.00,29.88,M,6.21,M,FEW,BKN,M,M,1600.00,2000.00,M,M,M,YBBN 151200Z 36009KT 9999 FEW016 BKN020 23/20 Q1012
YBBN,2013-11-15 12:30,153.1292,-27.3917,73.40,68.00,83.21,360.00,7.00,0.00,29.88,M,6.21,M,FEW,SCT,M,M,1600.00,4000.00,M,M,M,YBBN 151230Z 36007KT 9999 FEW016 SCT040 23/20 Q1012
YBBN,2013-11-15 13:00,153.1292,-27.3917,73.40,68.00,83.21,20.00,8.00,0.00,29.85,M,6.21,M,FEW,SCT,M,M,1500.00,4000.00,M,M,M,YBBN 151300Z 02008KT 9999 FEW015 SCT040 23/20 Q1011
YBBN,2013-11-15 13:30,153.1292,-27.3917,73.40,68.00,83.21,360.00,8.00,0.00,29.85,M,6.21,M,FEW,SCT,M,M,1500.00,3700.00,M,M,M,YBBN 151330Z 36008KT 9999 FEW015 SCT037 23/20 Q1011
YBBN,2013-11-15 14:00,153.1292,-27.3917,71.60,68.00,88.43,10.00,10.00,0.00,29.83,M,6.21,M,FEW,M,M,M,1500.00,M,M,M,M,YBBN 151400Z 01010KT 9999 FEW015 22/20 Q1010
YBBN,2013-11-15 14:30,153.1292,-27.3917,71.60,68.00,88.43,10.00,8.00,0.00,29.83,M,6.21,M,FEW,M,M,M,1500.00,M,M,M,M,YBBN 151430Z 01008KT 9999 FEW015 22/20 Q1010
YBBN,2013-11-15 15:00,153.1292,-27.3917,71.60,68.00,88.43,10.00,7.00,0.00,29.83,M,6.21,M,FEW,M,M,M,1500.00,M,M,M,M,YBBN 151500Z 01007KT 9999 FEW015 22/20 Q1010
YBBN,2013-11-15 15:30,153.1292,-27.3917,69.80,68.00,94.01,10.00,7.00,0.00,29.83,M,6.21,M,BKN,M,M,M,1700.00,M,M,M,M,YBBN 151530Z 01007KT 9999 BKN017 21/20 Q1010
YBBN,2013-11-15 16:00,153.1292,-27.3917,71.60,68.00,88.43,10.00,7.00,0.00,29.83,M,6.21,M,BKN,M,M,M,1700.00,M,M,M,M,YBBN 151600Z 01007KT 9999 BKN017 22/20 Q1010
YBBN,2013-11-15 16:30,153.1292,-27.3917,69.80,68.00,94.01,230.00,5.00,0.00,29.83,M,6.21,M,SCT,M,M,M,1700.00,M,M,M,M,YBBN 151630Z 23005KT 9999 SCT017 21/20 Q1010
YBBN,2013-11-15 17:00,153.1292,-27.3917,69.80,68.00,94.01,190.00,5.00,0.00,29.80,M,6.21,M,FEW,SCT,M,M,1300.00,1700.00,M,M,M,YBBN 151700Z 19005KT 9999 FEW013 SCT017 21/20 Q1009
YBBN,2013-11-15 17:30,153.1292,-27.3917,69.80,68.00,94.01,250.00,4.00,0.00,29.83,M,6.21,M,FEW,M,M,M,1700.00,M,M,M,M,YBBN 151730Z 25004KT 9999 FEW017 21/20 Q1010
YBBN,2013-11-15 18:00,153.1292,-27.3917,69.80,68.00,94.01,140.00,2.00,0.00,29.83,M,6.21,M,SCT,SCT,M,M,1700.00,3500.00,M,M,M,YBBN 151800Z 14002KT 9999 SCT017 SCT035 21/20 Q1010
YBBN,2013-11-15 18:38,153.1292,-27.3917,69.80,68.00,94.01,0.00,0.00,0.00,29.83,M,6.21,M,BKN,SCT,M,M,1200.00,1700.00,M,M,M,YBBN 151838Z 00000KT 9999 BKN012 SCT017 21/20 Q1010
YBBN,2013-11-15 19:00,153.1292,-27.3917,69.80,68.00,94.01,250.00,5.00,0.00,29.83,M,6.21,M,BKN,BKN,M,M,1200.00,2500.00,M,M,VCSH,YBBN 151900Z 25005KT 9999 VCSH BKN012 BKN025 21/20 Q1010
YBBN,2013-11-15 19:21,153.1292,-27.3917,69.80,68.00,94.01,250.00,6.00,0.00,29.83,M,6.21,M,FEW,SCT,BKN,M,1200.00,1700.00,3000.00,M,M,YBBN 151921Z 25006KT 9999 FEW012 SCT017 BKN030 21/20 Q1010
YBBN,2013-11-15 19:30,153.1292,-27.3917,69.80,68.00,94.01,250.00,5.00,0.00,29.83,M,6.21,M,FEW,SCT,M,M,1200.00,2000.00,M,M,M,YBBN 151930Z 25005KT 9999 FEW012 SCT020 21/20 Q1010
YBBN,2013-11-15 19:39,153.1292,-27.3917,69.80,68.00,94.01,240.00,6.00,0.00,29.85,M,6.21,M,FEW,SCT,M,M,1200.00,2000.00,M,M,-TSRA,YBBN 151939Z 24006KT 9999 -TSRA FEW012 SCT020CB 21/20 Q1011
YBBN,2013-11-15 20:00,153.1292,-27.3917,69.80,68.00,94.01,200.00,6.00,0.00,29.85,M,6.21,M,FEW,SCT,FEW,M,1200.00,8000.00,2000.00,M,-TSRA,YBBN 152000Z 20006KT 9999 -TSRA FEW012 SCT080 FEW020CB 21/20 Q1011
YBBN,2013-11-15 20:30,153.1292,-27.3917,69.80,68.00,94.01,200.00,6.00,0.00,29.85,M,6.21,M,FEW,SCT,FEW,M,1200.00,8000.00,2000.00,M,-TSRA,YBBN 152030Z 20006KT 9999 -TSRA FEW012 SCT080 FEW020CB 21/20 Q1011
YBBN,2013-11-15 20:39,153.1292,-27.3917,69.80,68.00,94.01,200.00,7.00,0.00,29.85,M,6.21,M,FEW,SCT,FEW,M,1200.00,8000.00,2000.00,M,FC -TSRA,YBBN 152039Z 20007KT 9999 FC -TSRA FEW012 SCT080 FEW020CB 21/20 Q1011 RMK FUNNEL CLOUD TO NE
YBBN,2013-11-15 21:00,153.1292,-27.3917,69.80,68.00,94.01,190.00,7.00,0.00,29.85,M,6.21,M,FEW,BKN,FEW,M,900.00,1300.00,1800.00,M,VCTS VCSH,YBBN 152100Z 19007KT 9999 VCTS VCSH FEW009 BKN013 FEW018CB 21/20 Q1011 RETS
YBBN,2013-11-15 21:30,153.1292,-27.3917,71.60,64.40,78.04,100.00,8.00,0.00,29.85,M,6.21,M,SCT,SCT,BKN,FEW,900.00,1400.00,1700.00,1800.00,VCTS VCSH,YBBN 152130Z 10008KT 9999 VCTS VCSH SCT009 SCT014 BKN017 FEW018CB 22/18 Q1011
YBBN,2013-11-15 22:00,153.1292,-27.3917,73.40,62.60,68.94,90.00,8.00,0.00,29.85,M,6.21,M,FEW,BKN,FEW,M,1000.00,1900.00,2000.00,M,VCSH,YBBN 152200Z 09008KT 9999 VCSH FEW010 BKN019 FEW020CB 23/17 Q1011
YBBN,2013-11-15 22:30,153.1292,-27.3917,75.20,60.80,60.90,70.00,8.00,0.00,29.85,M,6.21,M,FEW,SCT,BKN,M,1400.00,2200.00,4400.00,M,VCSH,YBBN 152230Z 07008KT 9999 VCSH FEW014 SCT022 BKN044 24/16 Q1011 RMK DIST CB NE
YBBN,2013-11-15 23:00,153.1292,-27.3917,77.00,62.60,61.13,40.00,8.00,0.00,29.85,M,6.21,M,FEW,SCT,BKN,M,2200.00,2500.00,5200.00,M,VCSH,YBBN 152300Z 04008KT 9999 VCSH FEW022 SCT025 BKN052 25/17 Q1011
YBBN,2013-11-15 23:30,153.1292,-27.3917,75.20,66.20,73.61,40.00,9.00,0.00,29.85,M,6.21,M,FEW,SCT,BKN,M,2200.00,2600.00,4200.00,M,VCSH,YBBN 152330Z 04009KT 9999 VCSH FEW022 SCT026 BKN042 24/19 Q1011
