#DEBUG: Format Typ    -> comma
#DEBUG: Time Period   -> 2013-03-21 00:00:00+00:00 2013-03-22 00:00:00+00:00
#DEBUG: Time Zone     -> Etc/UTC
#DEBUG: Data Contact   -> daryl herzmann akrherz@iastate.edu 515-294-5978
#DEBUG: Entries Found -> -1
station,valid,lon,lat,tmpf, dwpf, relh, drct, sknt, p01i, alti, mslp, vsby, gust, skyc1, skyc2, skyc3, skyc4, skyl1, skyl2, skyl3, skyl4, presentwx, metar
YBBN,2013-03-21 00:00,153.1292,-27.3917,78.80,64.40,61.36,80.00,11.00,0.00,30.12,M,6.21,M,SCT,M,M,M,2500.00,M,M,M,M,YBBN 210000Z 08011KT 9999 SCT025 26/18 Q1020
YBBN,2013-03-21 00:30,153.1292,-27.3917,78.80,64.40,61.36,70.00,11.00,0.00,30.12,M,6.21,M,SCT,M,M,M,2500.00,M,M,M,VCSH,YBBN 210030Z 07011KT 9999 VCSH SCT025 26/18 Q1020
YBBN,2013-03-21 01:00,153.1292,-27.3917,78.80,64.40,61.36,80.00,9.00,0.00,30.12,M,6.21,M,SCT,M,M,M,3000.00,M,M,M,M,YBBN 210100Z 08009KT 9999 SCT030 26/18 Q1020
YBBN,2013-03-21 01:30,153.1292,-27.3917,78.80,62.60,57.60,70.00,11.00,0.00,30.12,M,6.21,M,SCT,M,M,M,3500.00,M,M,M,M,YBBN 210130Z 07011KT 9999 SCT035 26/17 Q1020
YBBN,2013-03-21 02:00,153.1292,-27.3917,78.80,62.60,57.60,80.00,11.00,0.00,30.09,M,6.21,M,SCT,M,M,M,3000.00,M,M,M,M,YBBN 210200Z 08011KT 9999 SCT030 26/17 Q1019
YBBN,2013-03-21 02:30,153.1292,-27.3917,78.80,64.40,61.36,80.00,10.00,0.00,30.09,M,6.21,M,SCT,M,M,M,3000.00,M,M,M,M,YBBN 210230Z 08010KT 9999 SCT030 26/18 Q1019
YBBN,2013-03-21 03:00,153.1292,-27.3917,78.80,64.40,61.36,70.00,9.00,0.00,30.06,M,6.21,M,SCT,M,M,M,3000.00,M,M,M,M,YBBN 210300Z 07009KT 9999 SCT030 26/18 Q1018
YBBN,2013-03-21 03:30,153.1292,-27.3917,78.80,64.40,61.36,60.00,12.00,0.00,30.06,M,6.21,M,SCT,M,M,M,3000.00,M,M,M,M,YBBN 210330Z 06012KT 9999 SCT030 26/18 Q1018
YBBN,2013-03-21 04:00,153.1292,-27.3917,77.00,64.40,65.12,70.00,12.00,0.00,30.06,M,6.21,M,SCT,BKN,M,M,3300.00,7600.00,M,M,M,YBBN 210400Z 07012KT 9999 SCT033 BKN076 25/18 Q1018 NOSIG
YBBN,2013-03-21 04:30,153.1292,-27.3917,77.00,64.40,65.12,70.00,10.00,0.00,30.06,M,6.21,M,SCT,BKN,M,M,3000.00,7800.00,M,M,M,YBBN 210430Z 07010KT 9999 SCT030 BKN078 25/18 Q1018
YBBN,2013-03-21 05:00,153.1292,-27.3917,77.00,64.40,65.12,70.00,11.00,0.00,30.06,M,6.21,M,FEW,BKN,M,M,3500.00,8200.00,M,M,M,YBBN 210500Z 07011KT 9999 FEW035 BKN082 25/18 Q1018
YBBN,2013-03-21 05:30,153.1292,-27.3917,77.00,64.40,65.12,80.00,10.00,0.00,30.03,M,6.21,M,FEW,BKN,M,M,3500.00,8000.00,M,M,M,YBBN 210530Z 08010KT 9999 FEW035 BKN080 25/18 Q1017
YBBN,2013-03-21 06:00,153.1292,-27.3917,77.00,64.40,65.12,80.00,9.00,0.00,30.06,M,6.21,M,FEW,BKN,M,M,3500.00,7800.00,M,M,VCSH,YBBN 210600Z 08009KT 9999 VCSH FEW035 BKN078 25/18 Q1018 NOSIG
YBBN,2013-03-21 06:30,153.1292,-27.3917,75.20,64.40,69.14,60.00,9.00,0.00,30.06,M,6.21,M,FEW,BKN,M,M,3500.00,7800.00,M,M,M,YBBN 210630Z 06009KT 9999 FEW035 BKN078 24/18 Q1018
YBBN,2013-03-21 07:00,153.1292,-27.3917,75.20,64.40,69.14,60.00,9.00,0.00,30.06,M,6.21,M,FEW,BKN,M,M,3500.00,7800.00,M,M,M,YBBN 210700Z 06009KT 9999 FEW035 BKN078 24/18 Q1018
YBBN,2013-03-21 07:30,153.1292,-27.3917,75.20,66.20,73.61,60.00,8.00,0.00,30.06,M,6.21,M,FEW,BKN,M,M,2500.00,7800.00,M,M,M,YBBN 210730Z 06008KT 9999 FEW025 BKN078 24/19 Q1018
YBBN,2013-03-21 08:00,153.1292,-27.3917,75.20,66.20,73.61,70.00,8.00,0.00,30.06,M,6.21,M,FEW,BKN,M,M,2500.00,7900.00,M,M,M,YBBN 210800Z 07008KT 9999 FEW025 BKN079 24/19 Q1018
YBBN,2013-03-21 08:30,153.1292,-27.3917,75.20,66.20,73.61,60.00,8.00,0.00,30.09,M,6.21,M,SCT,SCT,BKN,M,2500.00,3800.00,7900.00,M,M,YBBN 210830Z 06008KT 9999 SCT025 SCT038 BKN079 24/19 Q1019
YBBN,2013-03-21 09:00,153.1292,-27.3917,75.20,66.20,73.61,60.00,6.00,0.00,30.09,M,6.21,M,SCT,BKN,BKN,M,2500.00,5000.00,8500.00,M,M,YBBN 210900Z 06006KT 9999 SCT025 BKN050 BKN085 24/19 Q1019
YBBN,2013-03-21 09:30,153.1292,-27.3917,75.20,66.20,73.61,60.00,5.00,0.00,30.09,M,6.21,M,FEW,BKN,M,M,2500.00,7800.00,M,M,M,YBBN 210930Z 06005KT 9999 FEW025 BKN078 24/19 Q1019
YBBN,2013-03-21 10:00,153.1292,-27.3917,75.20,66.20,73.61,50.00,6.00,0.00,30.12,M,6.21,M,FEW,BKN,M,M,2500.00,8600.00,M,M,M,YBBN 211000Z 05006KT 9999 FEW025 BKN086 24/19 Q1020
YBBN,2013-03-21 10:30,153.1292,-27.3917,73.40,66.20,78.19,50.00,6.00,0.00,30.12,M,6.21,M,FEW,BKN,M,M,2500.00,8800.00,M,M,M,YBBN 211030Z 05006KT 9999 FEW025 BKN088 23/19 Q1020
YBBN,2013-03-21 11:00,153.1292,-27.3917,73.40,68.00,83.21,50.00,5.00,0.00,30.12,M,6.21,M,FEW,BKN,M,M,2500.00,8800.00,M,M,M,YBBN 211100Z 05005KT 9999 FEW025 BKN088 23/20 Q1020 NOSIG
YBBN,2013-03-21 11:30,153.1292,-27.3917,73.40,68.00,83.21,50.00,4.00,0.00,30.12,M,6.21,M,FEW,BKN,M,M,2500.00,8800.00,M,M,M,YBBN 211130Z 05004KT 9999 FEW025 BKN088 23/20 Q1020
YBBN,2013-03-21 12:00,153.1292,-27.3917,73.40,68.00,83.21,90.00,3.00,0.00,30.12,M,6.21,M,FEW,BKN,M,M,2500.00,8600.00,M,M,M,YBBN 211200Z 09003KT 9999 FEW025 BKN086 23/20 Q1020 NOSIG
YBBN,2013-03-21 12:30,153.1292,-27.3917,75.20,68.00,78.34,70.00,3.00,0.00,30.12,M,6.21,M,FEW,BKN,M,M,2500.00,8600.00,M,M,M,YBBN 211230Z 07003KT 9999 FEW025 BKN086 24/20 Q1020
YBBN,2013-03-21 13:00,153.1292,-27.3917,75.20,68.00,78.34,50.00,6.00,0.00,30.12,M,6.21,M,FEW,SCT,BKN,M,2500.00,8400.00,11000.00,M,M,YBBN 211300Z 05006KT 9999 FEW025 SCT084 BKN110 24/20 Q1020 NOSIG
YBBN,2013-03-21 13:30,153.1292,-27.3917,75.20,68.00,78.34,70.00,5.00,0.00,30.12,M,6.21,M,FEW,OVC,M,M,2500.00,11000.00,M,M,M,YBBN 211330Z 07005KT 9999 FEW025 OVC110 24/20 Q1020
YBBN,2013-03-21 14:00,153.1292,-27.3917,75.20,68.00,78.34,60.00,4.00,0.00,30.09,M,6.21,M,FEW,OVC,M,M,2500.00,11000.00,M,M,M,YBBN 211400Z 06004KT 9999 FEW025 OVC110 24/20 Q1019
YBBN,2013-03-21 14:30,153.1292,-27.3917,75.20,68.00,78.34,80.00,1.00,0.00,30.09,M,6.21,M,FEW,BKN,M,M,2500.00,11000.00,M,M,M,YBBN 211430Z 08001KT 9999 FEW025 BKN110 24/20 Q1019
YBBN,2013-03-21 15:00,153.1292,-27.3917,73.40,68.00,83.21,0.00,0.00,0.00,30.09,M,6.21,M,SCT,BKN,M,M,2500.00,11000.00,M,M,M,YBBN 211500Z 00000KT 9999 SCT025 BKN110 23/20 Q1019
YBBN,2013-03-21 15:30,153.1292,-27.3917,73.40,69.80,88.51,80.00,2.00,0.00,30.09,M,6.21,M,SCT,BKN,BKN,M,1700.00,3800.00,11000.00,M,M,YBBN 211530Z 08002KT 9999 SCT017 BKN038 BKN110 23/21 Q1019
YBBN,2013-03-21 16:00,153.1292,-27.3917,71.60,68.00,88.43,0.00,0.00,0.00,30.09,M,6.21,M,FEW,SCT,BKN,M,1700.00,2400.00,3500.00,M,M,YBBN 211600Z 00000KT 9999 FEW017 SCT024 BKN035 22/20 Q1019 NOSIG
YBBN,2013-03-21 16:30,153.1292,-27.3917,71.60,68.00,88.43,210.00,5.00,0.00,30.06,M,6.21,M,FEW,SCT,BKN,M,1700.00,2500.00,4200.00,M,M,YBBN 211630Z 21005KT 9999 FEW017 SCT025 BKN042 22/20 Q1018
YBBN,2013-03-21 17:00,153.1292,-27.3917,71.60,68.00,88.43,200.00,5.00,0.00,30.06,M,6.21,M,FEW,OVC,M,M,1700.00,3300.00,M,M,M,YBBN 211700Z 20005KT 9999 FEW017 OVC033 22/20 Q1018 NOSIG
YBBN,2013-03-21 17:30,153.1292,-27.3917,71.60,68.00,88.43,200.00,4.00,0.00,30.06,M,6.21,M,FEW,BKN,BKN,M,1700.00,3300.00,4100.00,M,M,YBBN 211730Z 20004KT 9999 FEW017 BKN033 BKN041 22/20 Q1018
YBBN,2013-03-21 18:00,153.1292,-27.3917,71.60,69.80,94.06,0.00,0.00,0.00,30.06,M,4.97,M,SCT,SCT,BKN,M,1700.00,2300.00,2700.00,M,-SHRA,YBBN 211800Z 00000KT 8000 -SHRA SCT017 SCT023 BKN027 22/21 Q1018 NOSIG
YBBN,2013-03-21 18:30,153.1292,-27.3917,71.60,69.80,94.06,0.00,0.00,0.00,30.06,M,6.21,M,FEW,SCT,BKN,M,2000.00,3200.00,11000.00,M,VCSH,YBBN 211830Z 00000KT 9999 VCSH FEW020 SCT032 BKN110 22/21 Q1018
YBBN,2013-03-21 19:00,153.1292,-27.3917,71.60,69.80,94.06,200.00,5.00,0.00,30.06,M,6.21,M,SCT,SCT,BKN,M,1500.00,1800.00,3500.00,M,VCSH,YBBN 211900Z 20005KT 9999 VCSH SCT015 SCT018 BKN035 22/21 Q1018
YBBN,2013-03-21 19:30,153.1292,-27.3917,69.80,68.00,94.01,210.00,5.00,0.00,30.09,M,6.21,M,SCT,SCT,BKN,M,1300.00,1800.00,4000.00,M,VCSH,YBBN 211930Z 21005KT 9999 VCSH SCT013 SCT018 BKN040 21/20 Q1019
YBBN,2013-03-21 20:00,153.1292,-27.3917,69.80,68.00,94.01,200.00,5.00,0.00,30.09,M,6.21,M,FEW,BKN,M,M,1300.00,11000.00,M,M,VCSH,YBBN 212000Z 20005KT 9999 VCSH FEW013 BKN110 21/20 Q1019 INTER 2000/2300 3000 SHRA BKN012
YBBN,2013-03-21 20:30,153.1292,-27.3917,69.80,68.00,94.01,200.00,6.00,0.00,30.09,M,6.21,M,FEW,SCT,BKN,M,1200.00,4000.00,11000.00,M,VCSH,YBBN 212030Z 20006KT 9999 VCSH FEW012 SCT040 BKN110 21/20 Q1019
YBBN,2013-03-21 21:00,153.1292,-27.3917,71.60,68.00,88.43,200.00,6.00,0.00,30.09,M,6.21,M,FEW,SCT,BKN,M,1200.00,1600.00,11000.00,M,VCSH,YBBN 212100Z 20006KT 9999 VCSH FEW012 SCT016 BKN110 22/20 Q1019 INTER 2100/2400 3000 SHRA BKN012
YBBN,2013-03-21 21:30,153.1292,-27.3917,71.60,68.00,88.43,210.00,8.00,0.00,30.12,M,6.21,M,FEW,SCT,BKN,M,1200.00,2700.00,11000.00,M,VCSH,YBBN 212130Z 21008KT 9999 VCSH FEW012 SCT027 BKN110 22/20 Q1020
YBBN,2013-03-21 22:00,153.1292,-27.3917,73.40,69.80,88.51,200.00,6.00,0.00,30.12,M,6.21,M,FEW,BKN,M,M,1400.00,3500.00,M,M,M,YBBN 212200Z 20006KT 9999 FEW014 BKN035 23/21 Q1020 INTER 2200/2400 3000 SHRA BKN012
YBBN,2013-03-21 22:30,153.1292,-27.3917,75.20,69.80,83.32,190.00,5.00,0.00,30.12,M,6.21,M,FEW,BKN,M,M,1500.00,3000.00,M,M,M,YBBN 212230Z 19005KT 9999 FEW015 BKN030 24/21 Q1020
YBBN,2013-03-21 23:00,153.1292,-27.3917,75.20,69.80,83.32,170.00,6.00,0.00,30.15,M,6.21,M,FEW,BKN,M,M,1600.00,3000.00,M,M,VCSH,YBBN 212300Z 17006KT 9999 VCSH FEW016 BKN030 24/21 Q1021 INTER 2300/2400 3000 SHRA BKN012
YBBN,2013-03-21 23:30,153.1292,-27.3917,78.80,69.80,73.95,190.00,5.00,0.00,30.12,M,6.21,M,FEW,SCT,BKN,M,1600.00,2000.00,3000.00,M,M,YBBN 212330Z 19005KT 9999 FEW016 SCT020 BKN030 26/21 Q1020
