#DEBUG: Format Typ    -> comma
#DEBUG: Time Period   -> 2014-01-25 00:00:00+00:00 2014-01-26 00:00:00+00:00
#DEBUG: Time Zone     -> Etc/UTC
#DEBUG: Data Contact   -> daryl herzmann akrherz@iastate.edu 515-294-5978
#DEBUG: Entries Found -> -1
station,valid,lon,lat,tmpf, dwpf, relh, drct, sknt, p01i, alti, mslp, vsby, gust, skyc1, skyc2, skyc3, skyc4, skyl1, skyl2, skyl3, skyl4, presentwx, metar
YBBN,2014-01-25 00:00,153.1292,-27.3917,80.60,69.80,69.71,350.00,4.00,0.00,29.80,M,5.59,M,FEW,SCT,BKN,M,2500.00,3500.00,16000.00,M,-RA,YBBN 250000Z 35004KT 9000 -RA FEW025 SCT035 BKN160 27/21 Q1009
YBBN,2014-01-25 00:30,153.1292,-27.3917,80.60,69.80,69.71,230.00,8.00,0.00,29.80,M,5.59,M,FEW,SCT,BKN,M,2000.00,3200.00,16000.00,M,-RA,YBBN 250030Z 23008KT 9000 -RA FEW020 SCT032 BKN160 27/21 Q1009
YBBN,2014-01-25 01:00,153.1292,-27.3917,78.80,71.60,78.62,210.00,9.00,0.00,29.80,M,6.21,M,FEW,SCT,BKN,M,2000.00,3200.00,16000.00,M,-RA,YBBN 250100Z 21009KT 9999 -RA FEW020 SCT032 BKN160 26/22 Q1009
YBBN,2014-01-25 01:30,153.1292,-27.3917,78.80,69.80,73.95,200.00,9.00,0.00,29.80,M,6.21,M,FEW,SCT,BKN,M,2000.00,12000.00,16000.00,M,-RA,YBBN 250130Z 20009KT 9999 -RA FEW020 SCT120 BKN160 26/21 Q1009
YBBN,2014-01-25 02:00,153.1292,-27.3917,78.80,69.80,73.95,210.00,8.00,0.00,29.80,M,6.21,M,FEW,SCT,BKN,M,2000.00,3000.00,16000.00,M,-RA,YBBN 250200Z 21008KT 9999 -RA FEW020 SCT030 BKN160 26/21 Q1009 INTER 0200/0500 3000 SHRA BKN012
YBBN,2014-01-25 02:30,153.1292,-27.3917,78.80,71.60,78.62,220.00,7.00,0.00,29.80,M,6.21,M,FEW,SCT,BKN,M,2000.00,3000.00,16000.00,M,VCSH,YBBN 250230Z 22007KT 9999 VCSH FEW020 SCT030 BKN160 26/22 Q1009
YBBN,2014-01-25 03:00,153.1292,-27.3917,80.60,71.60,74.11,220.00,8.00,0.00,29.80,M,6.21,M,FEW,SCT,BKN,M,2000.00,7000.00,16000.00,M,M,YBBN 250300Z 22008KT 9999 FEW020 SCT070 BKN160 27/22 Q1009
YBBN,2014-01-25 03:30,153.1292,-27.3917,80.60,71.60,74.11,210.00,7.00,0.00,29.80,M,6.21,M,FEW,SCT,BKN,M,2400.00,6000.00,16000.00,M,M,YBBN 250330Z 21007KT 9999 FEW024 SCT060 BKN160 27/22 Q1009
YBBN,2014-01-25 04:00,153.1292,-27.3917,82.40,71.60,69.90,190.00,7.00,0.00,29.80,M,6.21,M,FEW,SCT,BKN,M,2200.00,5000.00,16000.00,M,M,YBBN 250400Z 19007KT 9999 FEW022 SCT050 BKN160 28/22 Q1009 FM0530 MOD TURB BLW 5000FT
YBBN,2014-01-25 04:30,153.1292,-27.3917,80.60,69.80,69.71,120.00,6.00,0.00,29.80,M,6.21,M,FEW,BKN,BKN,M,2000.00,5000.00,16000.00,M,VCSH,YBBN 250430Z 12006KT 9999 VCSH FEW020 BKN050 BKN160 27/21 Q1009 RMK TCU TOP TO SE
YBBN,2014-01-25 05:00,153.1292,-27.3917,80.60,71.60,74.11,110.00,9.00,0.00,29.80,M,6.21,M,SCT,BKN,FEW,M,2000.00,7500.00,2000.00,M,VCSH,YBBN 250500Z 11009KT 9999 VCSH SCT020 BKN075 FEW020TCU 27/22 Q1009
YBBN,2014-01-25 05:30,153.1292,-27.3917,78.80,69.80,73.95,130.00,11.00,0.00,29.80,M,6.21,M,SCT,BKN,M,M,2000.00,6500.00,M,M,M,YBBN 250530Z 13011KT 9999 SCT020 BKN065 26/21 Q1009
YBBN,2014-01-25 06:00,153.1292,-27.3917,78.80,68.00,69.52,130.00,11.00,0.00,29.80,M,6.21,21.00,SCT,SCT,BKN,M,2000.00,7000.00,25000.00,M,M,YBBN 250600Z 13011G21KT 9999 SCT020 SCT070 BKN250 26/20 Q1009
YBBN,2014-01-25 06:30,153.1292,-27.3917,78.80,68.00,69.52,120.00,13.00,0.00,29.83,M,6.21,M,FEW,BKN,BKN,M,2200.00,7000.00,25000.00,M,M,YBBN 250630Z 12013KT 9999 FEW022 BKN070 BKN250 26/20 Q1010
YBBN,2014-01-25 07:00,153.1292,-27.3917,78.80,68.00,69.52,120.00,14.00,0.00,29.83,M,6.21,M,FEW,BKN,BKN,M,2500.00,7500.00,25000.00,M,M,YBBN 250700Z 12014KT 9999 FEW025 BKN075 BKN250 26/20 Q1010 FM0700 MOD TURB BLW 5000FT
YBBN,2014-01-25 07:30,153.1292,-27.3917,78.80,66.20,65.33,130.00,15.00,0.00,29.83,M,6.21,27.00,FEW,BKN,BKN,M,2500.00,7900.00,27000.00,M,M,YBBN 250730Z 13015G27KT 9999 FEW025 BKN079 BKN270 26/19 Q1010
YBBN,2014-01-25 08:00,153.1292,-27.3917,78.80,66.20,65.33,140.00,15.00,0.00,29.85,M,6.21,26.00,FEW,BKN,BKN,M,1200.00,8100.00,27000.00,M,M,YBBN 250800Z 14015G26KT 9999 FEW012 BKN081 BKN270 26/19 Q1011
YBBN,2014-01-25 08:30,153.1292,-27.3917,77.00,66.20,69.33,130.00,14.00,0.00,29.85,M,6.21,M,FEW,SCT,BKN,M,1300.00,7800.00,27000.00,M,M,YBBN 250830Z 13014KT 9999 FEW013 SCT078 BKN270 25/19 Q1011 RMK VIRGA/ VIS 13KM IN HZ
YBBN,2014-01-25 09:00,153.1292,-27.3917,77.00,66.20,69.33,140.00,13.00,0.00,29.88,M,6.21,23.00,FEW,SCT,BKN,M,1400.00,7600.00,26000.00,M,M,YBBN 250900Z 14013G23KT 9999 FEW014 SCT076 BKN260 25/19 Q1012
YBBN,2014-01-25 09:30,153.1292,-27.3917,77.00,66.20,69.33,150.00,10.00,0.00,29.88,M,6.21,20.00,FEW,SCT,BKN,M,1400.00,7500.00,26000.00,M,M,YBBN 250930Z 15010G20KT 9999 FEW014 SCT075 BKN260 25/19 Q1012 RMK VIS 13KM IN HZ
YBBN,2014-01-25 10:00,153.1292,-27.3917,77.00,66.20,69.33,150.00,11.00,0.00,29.91,M,6.21,M,FEW,SCT,BKN,M,1700.00,7400.00,25000.00,M,M,YBBN 251000Z 15011KT 9999 FEW017 SCT074 BKN250 25/19 Q1013 FM1000 MOD TURB BLW 5000FT
YBBN,2014-01-25 10:30,153.1292,-27.3917,77.00,64.40,65.12,140.00,13.00,0.00,29.91,M,6.21,M,FEW,BKN,M,M,1300.00,26000.00,M,M,M,YBBN 251030Z 14013KT 9999 FEW013 BKN260 25/18 Q1013 RMK HZ
YBBN,2014-01-25 11:00,153.1292,-27.3917,77.00,64.40,65.12,150.00,12.00,0.00,29.94,M,6.21,M,FEW,BKN,M,M,1400.00,26000.00,M,M,M,YBBN 251100Z 15012KT 9999 FEW014 BKN260 25/18 Q1014
YBBN,2014-01-25 11:30,153.1292,-27.3917,77.00,64.40,65.12,140.00,12.00,0.00,29.94,M,6.21,M,FEW,BKN,M,M,2200.00,26000.00,M,M,M,YBBN 251130Z 14012KT 9999 FEW022 BKN260 25/18 Q1014 RMK HZ
YBBN,2014-01-25 11:40,153.1292,-27.3917,77.00,62.60,61.13,140.00,15.00,0.00,29.94,M,6.21,26.00,FEW,SCT,BKN,M,2200.00,24000.00,26000.00,M,M,YBBN 251140Z 14015G26KT 9999 FEW022 SCT240 BKN260 25/17 Q1014 RMK HZ
YBBN,2014-01-25 12:00,153.1292,-27.3917,77.00,64.40,65.12,140.00,13.00,0.00,29.97,M,6.21,23.00,FEW,SCT,BKN,M,2200.00,23000.00,26000.00,M,M,YBBN 251200Z 14013G23KT 9999 FEW022 SCT230 BKN260 25/18 Q1015
YBBN,2014-01-25 12:30,153.1292,-27.3917,77.00,64.40,65.12,140.00,10.00,0.00,29.97,M,6.21,M,FEW,BKN,M,M,1700.00,26000.00,M,M,VCSH,YBBN 251230Z 14010KT 9999 VCSH FEW017 BKN260 25/18 Q1015 RMK HZ/ -SHRA EAST
YBBN,2014-01-25 13:00,153.1292,-27.3917,77.00,64.40,65.12,130.00,11.00,0.00,29.97,M,6.21,M,FEW,SCT,BKN,M,1600.00,4200.00,26000.00,M,VCSH,YBBN 251300Z 13011KT 9999 VCSH FEW016 SCT042 BKN260 25/18 Q1015
YBBN,2014-01-25 13:30,153.1292,-27.3917,75.20,64.40,69.14,130.00,11.00,0.00,29.97,M,6.21,M,FEW,SCT,BKN,M,1400.00,3800.00,6300.00,M,-SHRA,YBBN 251330Z 13011KT 9999 -SHRA FEW014 SCT038 BKN063 24/18 Q1015
YBBN,2014-01-25 14:00,153.1292,-27.3917,75.20,64.40,69.14,130.00,11.00,0.00,29.97,M,6.21,M,FEW,SCT,BKN,M,1400.00,3800.00,7000.00,M,VCSH,YBBN 251400Z 13011KT 9999 VCSH FEW014 SCT038 BKN070 24/18 Q1015 FM1400 MOD TURB BLW 5000FT
YBBN,2014-01-25 14:30,153.1292,-27.3917,75.20,64.40,69.14,140.00,9.00,0.00,29.97,M,6.21,M,FEW,SCT,BKN,M,1300.00,4200.00,7400.00,M,-SHRA,YBBN 251430Z 14009KT 9999 -SHRA FEW013 SCT042 BKN074 24/18 Q1015 RMK HZ/VIS RED TO 8KM NE DUE SHRA
YBBN,2014-01-25 15:00,153.1292,-27.3917,73.40,64.40,73.44,150.00,12.00,0.00,29.97,M,6.21,M,FEW,SCT,BKN,M,1600.00,5300.00,7400.00,M,-SHRA,YBBN 251500Z 15012KT 9999 -SHRA FEW016 SCT053 BKN074 23/18 Q1015
YBBN,2014-01-25 15:30,153.1292,-27.3917,71.60,64.40,78.04,160.00,10.00,0.00,30.00,M,6.21,M,FEW,SCT,BKN,M,1400.00,4300.00,7300.00,M,VCSH,YBBN 251530Z 16010KT 9999 VCSH FEW014 SCT043 BKN073 22/18 Q1016 RMK HZ/ VIS RED TO 8KM NE DUE -SHRA
YBBN,2014-01-25 16:00,153.1292,-27.3917,71.60,62.60,73.27,150.00,9.00,0.00,29.97,M,6.21,M,FEW,SCT,BKN,M,2200.00,4300.00,7300.00,M,VCSH,YBBN 251600Z 15009KT 9999 VCSH FEW022 SCT043 BKN073 22/17 Q1015 FM1600 MOD TURB BLW 5000FT
YBBN,2014-01-25 16:30,153.1292,-27.3917,73.40,60.80,64.69,150.00,10.00,0.00,29.97,M,6.21,20.00,FEW,BKN,M,M,2200.00,7000.00,M,M,M,YBBN 251630Z 15010G20KT 9999 FEW022 BKN070 23/16 Q1015 RMK HZ
YBBN,2014-01-25 17:00,153.1292,-27.3917,71.60,60.80,68.75,160.00,8.00,0.00,29.97,M,6.21,M,FEW,SCT,BKN,M,2200.00,7000.00,26000.00,M,M,YBBN 251700Z 16008KT 9999 FEW022 SCT070 BKN260 22/16 Q1015 FM1700 MOD TURB BLW 5000FT
YBBN,2014-01-25 17:30,153.1292,-27.3917,71.60,60.80,68.75,170.00,8.00,0.00,29.97,M,6.21,M,FEW,SCT,BKN,M,2300.00,7200.00,27000.00,M,M,YBBN 251730Z 17008KT 9999 FEW023 SCT072 BKN270 22/16 Q1015 RMK HZ
YBBN,2014-01-25 18:00,153.1292,-27.3917,71.60,60.80,68.75,170.00,7.00,0.00,29.97,M,6.21,M,FEW,BKN,M,M,3800.00,28000.00,M,M,M,YBBN 251800Z 17007KT 9999 FEW038 BKN280 22/16 Q1015 FM1800 MOD TURB BLW 5000FT
YBBN,2014-01-25 18:30,153.1292,-27.3917,69.80,60.80,73.09,160.00,8.00,0.00,30.00,M,6.21,M,FEW,SCT,BKN,M,2200.00,7600.00,28000.00,M,VCSH,YBBN 251830Z 16008KT 9999 VCSH FEW022 SCT076 BKN280 21/16 Q1016 RMK HZ/ -SHRA S/SE
YBBN,2014-01-25 19:00,153.1292,-27.3917,71.60,59.00,64.48,170.00,9.00,0.00,30.00,M,6.21,M,FEW,SCT,BKN,M,1700.00,5900.00,28000.00,M,M,YBBN 251900Z 17009KT 9999 FEW017 SCT059 BKN280 22/15 Q1016 FM1900 MOD TURB BLW 5000FT
YBBN,2014-01-25 19:30,153.1292,-27.3917,71.60,59.00,64.48,180.00,9.00,0.00,30.00,M,6.21,M,FEW,SCT,BKN,M,1700.00,5800.00,28000.00,M,M,YBBN 251930Z 18009KT 9999 FEW017 SCT058 BKN280 22/15 Q1016 RMK HZ/ DIST -SHRA S/SE
YBBN,2014-01-25 20:00,153.1292,-27.3917,71.60,59.00,64.48,180.00,8.00,0.00,30.00,M,6.21,M,FEW,BKN,M,M,1800.00,28000.00,M,M,VCSH,YBBN 252000Z 18008KT 9999 VCSH FEW018 BKN280 22/15 Q1016 FM2000 MOD TURB BLW 5000FT
YBBN,2014-01-25 20:30,153.1292,-27.3917,71.60,59.00,64.48,170.00,7.00,0.00,30.03,M,6.21,M,FEW,SCT,BKN,M,1800.00,2400.00,28000.00,M,-SHRA,YBBN 252030Z 17007KT 9999 -SHRA FEW018 SCT024 BKN280 22/15 Q1017
YBBN,2014-01-25 21:00,153.1292,-27.3917,73.40,60.80,64.69,170.00,11.00,0.00,30.03,M,6.21,M,FEW,SCT,M,M,2500.00,5000.00,M,M,VCSH,YBBN 252100Z 17011KT 9999 VCSH FEW025 SCT050 23/16 Q1017
YBBN,2014-01-25 21:30,153.1292,-27.3917,75.20,60.80,60.90,150.00,8.00,0.00,30.06,M,6.21,M,FEW,BKN,M,M,2500.00,5000.00,M,M,VCSH,YBBN 252130Z 15008KT 9999 VCSH FEW025 BKN050 24/16 Q1018
YBBN,2014-01-25 21:56,153.1292,-27.3917,73.40,62.60,68.94,140.00,11.00,0.00,30.06,M,3.11,M,FEW,SCT,BKN,M,1500.00,2500.00,5000.00,M,-SHRA,YBBN 252156Z 14011KT 5000 -SHRA FEW015 SCT025 BKN050 23/17 Q1018
YBBN,2014-01-25 22:00,153.1292,-27.3917,71.60,64.40,78.04,140.00,11.00,0.00,30.06,M,3.73,M,SCT,BKN,M,M,2500.00,5000.00,M,M,-SHRA,YBBN 252200Z 14011KT 6000 -SHRA SCT025 BKN050 22/18 Q1018
YBBN,2014-01-25 22:30,153.1292,-27.3917,73.40,64.40,73.44,160.00,10.00,0.00,30.06,M,5.59,M,FEW,SCT,BKN,M,1500.00,2000.00,5000.00,M,-SHRA,YBBN 252230Z 16010KT 9000 -SHRA FEW015 SCT020 BKN050 23/18 Q1018
YBBN,2014-01-25 23:00,153.1292,-27.3917,75.20,60.80,60.90,140.00,10.00,0.00,30.06,M,6.21,M,SCT,BKN,M,M,3000.00,5000.00,M,M,VCSH,YBBN 252300Z 14010KT 9999 VCSH SCT030 BKN050 24/16 Q1018
YBBN,2014-01-25 23:30,153.1292,-27.3917,77.00,64.40,65.12,140.00,11.00,0.00,30.06,M,6.21,M,SCT,BKN,M,M,3000.00,5000.00,M,M,VCSH,YBBN 252330Z 14011KT 9999 VCSH SCT030 BKN050 25/18 Q1018
