#DEBUG: Format Typ    -> comma
#DEBUG: Time Period   -> 2014-06-05 00:00:00+00:00 2014-06-06 00:00:00+00:00
#DEBUG: Time Zone     -> Etc/UTC
#DEBUG: Data Contact   -> daryl herzmann akrherz@iastate.edu 515-294-5978
#DEBUG: Entries Found -> -1
station,valid,lon,lat,tmpf, dwpf, relh, drct, sknt, p01i, alti, mslp, vsby, gust, skyc1, skyc2, skyc3, skyc4, skyl1, skyl2, skyl3, skyl4, presentwx, metar
YBBN,2014-06-05 00:00,153.1292,-27.3917,69.80,53.60,56.38,210.00,11.00,0.00,30.21,M,6.21,M,FEW,M,M,M,2500.00,M,M,M,M,YBBN 050000Z 21011KT 9999 FEW025 21/12 Q1023 NOSIG
YBBN,2014-06-05 00:30,153.1292,-27.3917,69.80,53.60,56.38,210.00,11.00,0.00,30.18,M,6.21,M,FEW,M,M,M,3000.00,M,M,M,M,YBBN 050030Z 21011KT 9999 FEW030 21/12 Q1022
YBBN,2014-06-05 01:00,153.1292,-27.3917,71.60,53.60,53.03,210.00,9.00,0.00,30.18,M,6.21,M,FEW,M,M,M,3000.00,M,M,M,M,YBBN 050100Z 21009KT 9999 FEW030 22/12 Q1022 NOSIG
YBBN,2014-06-05 01:30,153.1292,-27.3917,71.60,55.40,56.63,210.00,8.00,0.00,30.15,M,6.21,M,FEW,SCT,M,M,3000.00,25000.00,M,M,M,YBBN 050130Z 21008KT 9999 FEW030 SCT250 22/13 Q1021
YBBN,2014-06-05 02:00,153.1292,-27.3917,73.40,53.60,49.90,210.00,8.00,0.00,30.15,M,6.21,M,FEW,SCT,M,M,3000.00,25000.00,M,M,M,YBBN 050200Z 21008KT 9999 FEW030 SCT250 23/12 Q1021 NOSIG
YBBN,2014-06-05 02:30,153.1292,-27.3917,75.20,53.60,46.98,220.00,7.00,0.00,30.15,M,6.21,M,FEW,BKN,M,M,3000.00,25000.00,M,M,M,YBBN 050230Z 22007KT 9999 FEW030 BKN250 24/12 Q1021
YBBN,2014-06-05 03:00,153.1292,-27.3917,75.20,53.60,46.98,200.00,10.00,0.00,30.12,M,6.21,M,FEW,BKN,M,M,3500.00,25000.00,M,M,M,YBBN 050300Z 20010KT 9999 FEW035 BKN250 24/12 Q1020 NOSIG
YBBN,2014-06-05 03:30,153.1292,-27.3917,75.20,51.80,43.97,230.00,8.00,0.00,30.12,M,6.21,M,FEW,BKN,M,M,3500.00,25000.00,M,M,M,YBBN 050330Z 23008KT 9999 FEW035 BKN250 24/11 Q1020
YBBN,2014-06-05 04:00,153.1292,-27.3917,77.00,53.60,44.25,190.00,9.00,0.00,30.09,M,6.21,M,FEW,BKN,M,M,3500.00,25000.00,M,M,M,YBBN 050400Z 19009KT 9999 FEW035 BKN250 25/12 Q1019
YBBN,2014-06-05 04:30,153.1292,-27.3917,77.00,53.60,44.25,200.00,9.00,0.00,30.09,M,6.21,M,FEW,BKN,M,M,3500.00,25000.00,M,M,M,YBBN 050430Z 20009KT 9999 FEW035 BKN250 25/12 Q1019
YBBN,2014-06-05 05:00,153.1292,-27.3917,73.40,57.20,56.88,120.00,11.00,0.00,30.09,M,6.21,M,FEW,BKN,M,M,3500.00,25000.00,M,M,M,YBBN 050500Z 12011KT 9999 FEW035 BKN250 23/14 Q1019
YBBN,2014-06-05 05:30,153.1292,-27.3917,71.60,59.00,64.48,110.00,8.00,0.00,30.09,M,6.21,M,FEW,BKN,M,M,3500.00,25000.00,M,M,M,YBBN 050530Z 11008KT 9999 FEW035 BKN250 22/15 Q1019
YBBN,2014-06-05 06:00,153.1292,-27.3917,71.60,57.20,60.44,110.00,8.00,0.00,30.09,M,6.21,M,NCD,M,M,M,M,M,M,M,//,YBBN 050600Z AUTO 11008KT 9999 // NCD 22/14 Q1019
YBBN,2014-06-05 06:30,153.1292,-27.3917,69.80,59.00,68.55,110.00,7.00,0.00,30.12,M,6.21,M,FEW,SCT,M,M,3000.00,25000.00,M,M,M,YBBN 050630Z 11007KT 9999 FEW030 SCT250 21/15 Q1020
YBBN,2014-06-05 07:00,153.1292,-27.3917,69.80,59.00,68.55,130.00,7.00,0.00,30.12,M,6.21,M,FEW,SCT,M,M,3000.00,25000.00,M,M,M,YBBN 050700Z 13007KT 9999 FEW030 SCT250 21/15 Q1020 NOSIG
YBBN,2014-06-05 07:30,153.1292,-27.3917,69.80,57.20,64.26,130.00,7.00,0.00,30.12,M,6.21,M,FEW,M,M,M,3000.00,M,M,M,M,YBBN 050730Z 13007KT 9999 FEW030 21/14 Q1020
YBBN,2014-06-05 08:00,153.1292,-27.3917,69.80,57.20,64.26,130.00,5.00,0.00,30.12,M,6.21,M,FEW,M,M,M,2500.00,M,M,M,M,YBBN 050800Z 13005KT 9999 FEW025 21/14 Q1020
YBBN,2014-06-05 08:30,153.1292,-27.3917,68.00,59.00,72.92,140.00,6.00,0.00,30.15,M,6.21,M,M,M,M,M,M,M,M,M,M,YBBN 050830Z 14006KT CAVOK 20/15 Q1021
YBBN,2014-06-05 09:00,153.1292,-27.3917,68.00,59.00,72.92,140.00,6.00,0.00,30.15,M,6.21,M,FEW,SCT,M,M,3200.00,25000.00,M,M,M,YBBN 050900Z 14006KT 9999 FEW032 SCT250 20/15 Q1021
YBBN,2014-06-05 09:30,153.1292,-27.3917,68.00,59.00,72.92,140.00,6.00,0.00,30.15,M,6.21,M,FEW,SCT,M,M,3200.00,8200.00,M,M,M,YBBN 050930Z 14006KT 9999 FEW032 SCT082 20/15 Q1021
YBBN,2014-06-05 10:00,153.1292,-27.3917,68.00,59.00,72.92,140.00,7.00,0.00,30.18,M,6.21,M,FEW,SCT,M,M,2800.00,8800.00,M,M,M,YBBN 051000Z 14007KT 9999 FEW028 SCT088 20/15 Q1022
YBBN,2014-06-05 10:30,153.1292,-27.3917,68.00,59.00,72.92,140.00,9.00,0.00,30.18,M,6.21,M,FEW,SCT,M,M,2800.00,9000.00,M,M,M,YBBN 051030Z 14009KT 9999 FEW028 SCT090 20/15 Q1022
YBBN,2014-06-05 11:00,153.1292,-27.3917,66.20,59.00,77.60,150.00,10.00,0.00,30.18,M,6.21,M,FEW,SCT,M,M,2800.00,9000.00,M,M,M,YBBN 051100Z 15010KT 9999 FEW028 SCT090 19/15 Q1022 NOSIG
YBBN,2014-06-05 11:30,153.1292,-27.3917,66.20,57.20,72.74,140.00,7.00,0.00,30.18,M,6.21,M,FEW,M,M,M,2800.00,M,M,M,M,YBBN 051130Z 14007KT 9999 FEW028 19/14 Q1022 RMK DIST -SHRA SE
YBBN,2014-06-05 12:00,153.1292,-27.3917,64.40,59.00,82.62,150.00,7.00,0.00,30.18,M,6.21,M,FEW,M,M,M,2700.00,M,M,M,M,YBBN 051200Z 15007KT 9999 FEW027 18/15 Q1022 NOSIG
YBBN,2014-06-05 12:30,153.1292,-27.3917,64.40,59.00,82.62,170.00,6.00,0.00,30.18,M,6.21,M,FEW,M,M,M,2700.00,M,M,M,M,YBBN 051230Z 17006KT 9999 FEW027 18/15 Q1022
YBBN,2014-06-05 13:00,153.1292,-27.3917,60.80,57.20,87.92,200.00,6.00,0.00,30.18,M,6.21,M,FEW,M,M,M,2700.00,M,M,M,M,YBBN 051300Z 20006KT 9999 FEW027 16/14 Q1022
YBBN,2014-06-05 13:30,153.1292,-27.3917,60.80,57.20,87.92,200.00,7.00,0.00,30.18,M,6.21,M,FEW,M,M,M,2700.00,M,M,M,M,YBBN 051330Z 20007KT 9999 FEW027 16/14 Q1022 RMK DIST -SHRA EAST
YBBN,2014-06-05 14:00,153.1292,-27.3917,60.80,57.20,87.92,200.00,7.00,0.00,30.15,M,6.21,M,FEW,M,M,M,2700.00,M,M,M,VCSH,YBBN 051400Z 20007KT 9999 VCSH FEW027 16/14 Q1021
YBBN,2014-06-05 14:30,153.1292,-27.3917,60.80,57.20,87.92,200.00,8.00,0.00,30.15,M,6.21,M,FEW,SCT,M,M,2700.00,7600.00,M,M,M,YBBN 051430Z 20008KT 9999 FEW027 SCT076 16/14 Q1021
YBBN,2014-06-05 15:00,153.1292,-27.3917,62.60,57.20,82.50,210.00,8.00,0.00,30.15,M,6.21,M,FEW,SCT,M,M,2700.00,7900.00,M,M,M,YBBN 051500Z 21008KT 9999 FEW027 SCT079 17/14 Q1021 NOSIG
YBBN,2014-06-05 15:30,153.1292,-27.3917,62.60,57.20,82.50,200.00,7.00,0.00,30.15,M,6.21,M,FEW,BKN,M,M,2600.00,8000.00,M,M,M,YBBN 051530Z 20007KT 9999 FEW026 BKN080 17/14 Q1021
YBBN,2014-06-05 16:00,153.1292,-27.3917,60.80,55.40,82.37,200.00,7.00,0.00,30.12,M,6.21,M,FEW,SCT,M,M,2600.00,8400.00,M,M,M,YBBN 051600Z 20007KT 9999 FEW026 SCT084 16/13 Q1020 NOSIG
YBBN,2014-06-05 16:30,153.1292,-27.3917,60.80,55.40,82.37,200.00,8.00,0.00,30.12,M,6.21,M,FEW,SCT,M,M,2600.00,8400.00,M,M,M,YBBN 051630Z 20008KT 9999 FEW026 SCT084 16/13 Q1020
YBBN,2014-06-05 17:00,153.1292,-27.3917,62.60,55.40,77.29,200.00,8.00,0.00,30.12,M,6.21,M,FEW,BKN,M,M,2500.00,8200.00,M,M,M,YBBN 051700Z 20008KT 9999 FEW025 BKN082 17/13 Q1020
YBBN,2014-06-05 17:30,153.1292,-27.3917,60.80,55.40,82.37,200.00,8.00,0.00,30.12,M,6.21,M,FEW,SCT,M,M,2500.00,8400.00,M,M,M,YBBN 051730Z 20008KT 9999 FEW025 SCT084 16/13 Q1020
YBBN,2014-06-05 18:00,153.1292,-27.3917,60.80,55.40,82.37,200.00,9.00,0.00,30.12,M,6.21,M,FEW,M,M,M,2500.00,M,M,M,M,YBBN 051800Z 20009KT 9999 FEW025 16/13 Q1020 NOSIG
YBBN,2014-06-05 18:30,153.1292,-27.3917,60.80,55.40,82.37,200.00,8.00,0.00,30.12,M,6.21,M,FEW,SCT,M,M,2500.00,26000.00,M,M,M,YBBN 051830Z 20008KT 9999 FEW025 SCT260 16/13 Q1020
YBBN,2014-06-05 19:00,153.1292,-27.3917,60.80,55.40,82.37,200.00,7.00,0.00,30.12,M,6.21,M,FEW,SCT,M,M,2500.00,26000.00,M,M,M,YBBN 051900Z 20007KT 9999 FEW025 SCT260 16/13 Q1020 NOSIG
YBBN,2014-06-05 19:30,153.1292,-27.3917,59.00,55.40,87.83,200.00,8.00,0.00,30.12,M,6.21,M,FEW,M,M,M,2500.00,M,M,M,M,YBBN 051930Z 20008KT 9999 FEW025 15/13 Q1020
YBBN,2014-06-05 20:00,153.1292,-27.3917,60.80,55.40,82.37,200.00,6.00,0.00,30.12,M,6.21,M,FEW,SCT,M,M,2500.00,26000.00,M,M,M,YBBN 052000Z 20006KT 9999 FEW025 SCT260 16/13 Q1020 NOSIG
YBBN,2014-06-05 20:30,153.1292,-27.3917,57.20,55.40,93.69,200.00,8.00,0.00,30.15,M,6.21,M,FEW,M,M,M,2500.00,M,M,M,M,YBBN 052030Z 20008KT 9999 FEW025 14/13 Q1021
YBBN,2014-06-05 21:00,153.1292,-27.3917,59.00,55.40,87.83,200.00,8.00,0.00,30.15,M,6.21,M,FEW,M,M,M,2500.00,M,M,M,M,YBBN 052100Z 20008KT 9999 FEW025 15/13 Q1021
YBBN,2014-06-05 21:30,153.1292,-27.3917,60.80,55.40,82.37,200.00,8.00,0.00,30.15,M,6.21,M,FEW,M,M,M,2500.00,M,M,M,M,YBBN 052130Z 20008KT 9999 FEW025 16/13 Q1021
YBBN,2014-06-05 22:00,153.1292,-27.3917,62.60,55.40,77.29,210.00,9.00,0.00,30.15,M,6.21,M,FEW,M,M,M,2500.00,M,M,M,M,YBBN 052200Z 21009KT 9999 FEW025 17/13 Q1021
YBBN,2014-06-05 22:30,153.1292,-27.3917,64.40,57.20,77.45,210.00,10.00,0.00,30.18,M,6.21,M,FEW,M,M,M,2500.00,M,M,M,M,YBBN 052230Z 21010KT 9999 FEW025 18/14 Q1022
YBBN,2014-06-05 23:00,153.1292,-27.3917,66.20,55.40,68.15,210.00,11.00,0.00,30.18,M,6.21,M,FEW,M,M,M,2500.00,M,M,M,M,YBBN 052300Z 21011KT 9999 FEW025 19/13 Q1022 NOSIG
YBBN,2014-06-05 23:30,153.1292,-27.3917,68.00,57.20,68.35,210.00,10.00,0.00,30.15,M,6.21,M,FEW,M,M,M,2800.00,M,M,M,M,YBBN 052330Z 21010KT 9999 FEW028 20/14 Q1021
