#DEBUG: Format Typ    -> comma
#DEBUG: Time Period   -> 2010-06-03 00:00:00+00:00 2010-06-04 00:00:00+00:00
#DEBUG: Time Zone     -> Etc/UTC
#DEBUG: Data Contact   -> daryl herzmann akrherz@iastate.edu 515-294-5978
#DEBUG: Entries Found -> -1
station,valid,lon,lat,tmpf, dwpf, relh, drct, sknt, p01i, alti, mslp, vsby, gust, skyc1, skyc2, skyc3, skyc4, skyl1, skyl2, skyl3, skyl4, presentwx, metar
YBBN,2010-06-03 00:00,153.1292,-27.3917,68.00,57.20,68.35,220.00,11.00,M,30.00,M,6.21,M,SCT,M,M,M,2200.00,M,M,M,M,YBBN 030000Z 22011KT 9999 SCT022 20/14 Q1016 NOSIG
YBBN,2010-06-03 00:30,153.1292,-27.3917,69.80,57.20,64.26,220.00,13.00,M,30.00,M,6.21,M,SCT,M,M,M,2200.00,M,M,M,M,YBBN 030030Z 22013KT 9999 SCT022 21/14 Q1016 NOSIG
YBBN,2010-06-03 01:00,153.1292,-27.3917,69.80,57.20,64.26,240.00,10.00,M,30.00,M,6.21,M,BKN,M,M,M,2600.00,M,M,M,M,YBBN 030100Z 24010KT 9999 BKN026 21/14 Q1016 NOSIG
YBBN,2010-06-03 01:30,153.1292,-27.3917,68.00,55.40,64.04,250.00,11.00,M,29.97,M,6.21,M,FEW,SCT,BKN,M,2300.00,3500.00,5200.00,M,M,YBBN 030130Z 25011KT 9999 FEW023 SCT035 BKN052 20/13 Q1015 NOSIG
YBBN,2010-06-03 04:30,153.1292,-27.3917,71.60,53.60,53.03,230.00,12.00,M,29.91,M,6.21,M,FEW,M,M,M,3200.00,M,M,M,M,YBBN 030430Z 23012KT 9999 FEW032 22/12 Q1013 NOSIG
YBBN,2010-06-03 05:00,153.1292,-27.3917,69.80,53.60,56.38,230.00,11.00,M,29.94,M,6.21,M,FEW,SCT,M,M,3000.00,3500.00,M,M,M,YBBN 030500Z 23011KT 9999 FEW030 SCT035 21/12 Q1014 NOSIG
YBBN,2010-06-03 05:30,153.1292,-27.3917,68.00,53.60,59.97,230.00,11.00,M,29.94,M,6.21,M,FEW,M,M,M,3700.00,M,M,M,M,YBBN 030530Z 23011KT 9999 FEW037 20/12 Q1014 NOSIG
YBBN,2010-06-03 06:00,153.1292,-27.3917,69.80,51.80,52.77,230.00,9.00,M,29.94,M,6.21,M,FEW,SCT,M,M,3500.00,5700.00,M,M,M,YBBN 030600Z 23009KT 9999 FEW035 SCT057 21/11 Q1014 NOSIG
YBBN,2010-06-03 06:30,153.1292,-27.3917,69.80,51.80,52.77,250.00,10.00,M,29.94,M,6.21,M,FEW,SCT,M,M,3500.00,5700.00,M,M,M,YBBN 030630Z 25010KT 9999 FEW035 SCT057 21/11 Q1014 NOSIG
YBBN,2010-06-03 07:00,153.1292,-27.3917,66.20,55.40,68.15,260.00,9.00,M,29.97,M,6.21,M,FEW,SCT,M,M,3000.00,5900.00,M,M,M,YBBN 030700Z 26009KT 9999 FEW030 SCT059 19/13 Q1015 NOSIG
YBBN,2010-06-03 07:30,153.1292,-27.3917,64.40,55.40,72.56,260.00,8.00,M,29.97,M,6.21,M,FEW,SCT,M,M,3000.00,5900.00,M,M,M,YBBN 030730Z 26008KT 9999 FEW030 SCT059 18/13 Q1015 NOSIG
YBBN,2010-06-03 08:00,153.1292,-27.3917,62.60,55.40,77.29,260.00,7.00,M,29.97,M,6.21,M,FEW,M,M,M,3000.00,M,M,M,M,YBBN 030800Z 26007KT 9999 FEW030 17/13 Q1015 NOSIG
YBBN,2010-06-03 08:30,153.1292,-27.3917,62.60,55.40,77.29,290.00,5.00,M,29.97,M,6.21,M,FEW,M,M,M,3000.00,M,M,M,M,YBBN 030830Z 29005KT 9999 FEW030 17/13 Q1015 NOSIG
YBBN,2010-06-03 09:00,153.1292,-27.3917,62.60,55.40,77.29,0.00,0.00,M,29.97,M,6.21,M,FEW,SCT,M,M,3000.00,6000.00,M,M,M,YBBN 030900Z 00000KT 9999 FEW030 SCT060 17/13 Q1015 NOSIG
YBBN,2010-06-03 09:30,153.1292,-27.3917,60.80,55.40,82.37,340.00,2.00,M,29.97,M,6.21,M,FEW,M,M,M,3000.00,M,M,M,M,YBBN 030930Z 34002KT 9999 FEW030 16/13 Q1015 NOSIG
YBBN,2010-06-03 10:00,153.1292,-27.3917,59.00,55.40,87.83,310.00,5.00,M,30.00,M,6.21,M,FEW,M,M,M,3000.00,M,M,M,M,YBBN 031000Z 31005KT 9999 FEW030 15/13 Q1016 NOSIG
YBBN,2010-06-03 10:30,153.1292,-27.3917,57.20,53.60,87.74,250.00,3.00,M,30.00,M,6.21,M,FEW,M,M,M,3000.00,M,M,M,M,YBBN 031030Z 25003KT 9999 FEW030 14/12 Q1016 NOSIG
YBBN,2010-06-03 11:00,153.1292,-27.3917,57.20,53.60,87.74,210.00,6.00,M,29.97,M,6.21,M,FEW,M,M,M,3000.00,M,M,M,M,YBBN 031100Z 21006KT 9999 FEW030 14/12 Q1015 NOSIG
YBBN,2010-06-03 11:30,153.1292,-27.3917,57.20,53.60,87.74,210.00,6.00,M,29.97,M,6.21,M,FEW,M,M,M,3000.00,M,M,M,M,YBBN 031130Z 21006KT 9999 FEW030 14/12 Q1015 NOSIG
YBBN,2010-06-03 12:00,153.1292,-27.3917,55.40,51.80,87.65,240.00,7.00,M,29.97,M,6.21,M,FEW,M,M,M,3000.00,M,M,M,M,YBBN 031200Z 24007KT 9999 FEW030 13/11 Q1015 NOSIG
YBBN,2010-06-03 12:30,153.1292,-27.3917,55.40,51.80,87.65,260.00,4.00,M,29.97,M,6.21,M,FEW,M,M,M,3000.00,M,M,M,M,YBBN 031230Z 26004KT 9999 FEW030 13/11 Q1015 NOSIG
YBBN,2010-06-03 13:00,153.1292,-27.3917,55.40,51.80,87.65,260.00,4.00,M,29.97,M,6.21,M,FEW,M,M,M,3000.00,M,M,M,M,YBBN 031300Z 26004KT 9999 FEW030 13/11 Q1015 NOSIG
YBBN,2010-06-03 13:30,153.1292,-27.3917,55.40,51.80,87.65,250.00,5.00,M,29.97,M,6.21,M,FEW,M,M,M,3000.00,M,M,M,M,YBBN 031330Z 25005KT 9999 FEW030 13/11 Q1015 NOSIG
YBBN,2010-06-03 14:00,153.1292,-27.3917,55.40,51.80,87.65,290.00,3.00,M,29.94,M,6.21,M,M,M,M,M,M,M,M,M,M,YBBN 031400Z 29003KT CAVOK 13/11 Q1014 NOSIG
YBBN,2010-06-03 14:30,153.1292,-27.3917,53.60,51.80,93.60,270.00,4.00,M,29.94,M,6.21,M,M,M,M,M,M,M,M,M,M,YBBN 031430Z 27004KT CAVOK 12/11 Q1014 NOSIG
YBBN,2010-06-03 15:00,153.1292,-27.3917,53.60,51.80,93.60,280.00,6.00,M,29.94,M,6.21,M,M,M,M,M,M,M,M,M,M,YBBN 031500Z 28006KT CAVOK 12/11 Q1014 NOSIG
YBBN,2010-06-03 15:30,153.1292,-27.3917,53.60,51.80,93.60,270.00,5.00,M,29.91,M,6.21,M,M,M,M,M,M,M,M,M,M,YBBN 031530Z 27005KT CAVOK 12/11 Q1013 NOSIG
YBBN,2010-06-03 16:00,153.1292,-27.3917,53.60,51.80,93.60,330.00,6.00,M,29.91,M,6.21,M,M,M,M,M,M,M,M,M,M,YBBN 031600Z 33006KT CAVOK 12/11 Q1013 NOSIG
YBBN,2010-06-03 16:30,153.1292,-27.3917,53.60,51.80,93.60,290.00,6.00,M,29.91,M,6.21,M,M,M,M,M,M,M,M,M,M,YBBN 031630Z 29006KT CAVOK 12/11 Q1013 NOSIG
YBBN,2010-06-03 17:00,153.1292,-27.3917,51.80,50.00,93.55,280.00,1.00,M,29.91,M,6.21,M,M,M,M,M,M,M,M,M,M,YBBN 031700Z 28001KT CAVOK 11/10 Q1013 NOSIG
YBBN,2010-06-03 17:30,153.1292,-27.3917,51.80,51.80,100.00,270.00,3.00,M,29.91,M,6.21,M,CLR,M,M,M,M,M,M,M,MIFG,YBBN 031730Z 27003KT 9999 MIFG SKC 11/11 Q1013 NOSIG
YBBN,2010-06-03 18:00,153.1292,-27.3917,50.00,50.00,100.00,0.00,0.00,M,29.88,M,6.21,M,CLR,M,M,M,M,M,M,M,MIFG,YBBN 031800Z 00000KT 9999 MIFG SKC 10/10 Q1012 NOSIG
YBBN,2010-06-03 18:30,153.1292,-27.3917,50.00,48.20,93.50,0.00,0.00,M,29.88,M,6.21,M,CLR,M,M,M,M,M,M,M,MIFG,YBBN 031830Z 00000KT 9999 MIFG SKC 10/09 Q1012 NOSIG
YBBN,2010-06-03 19:00,153.1292,-27.3917,50.00,50.00,100.00,250.00,2.00,M,29.88,M,6.21,M,CLR,M,M,M,M,M,M,M,MIFG,YBBN 031900Z 25002KT 9999 MIFG SKC 10/10 Q1012 NOSIG
YBBN,2010-06-03 19:30,153.1292,-27.3917,50.00,48.20,93.50,290.00,2.00,M,29.88,M,6.21,M,CLR,M,M,M,M,M,M,M,MIFG,YBBN 031930Z 29002KT 9999 MIFG SKC 10/09 Q1012 NOSIG
YBBN,2010-06-03 20:00,153.1292,-27.3917,48.20,48.20,100.00,280.00,4.00,M,29.91,M,6.21,M,M,M,M,M,M,M,M,M,M,YBBN 032000Z 28004KT CAVOK 09/09 Q1013 NOSIG
YBBN,2010-06-03 20:30,153.1292,-27.3917,50.00,48.20,93.50,250.00,4.00,M,29.91,M,6.21,M,FEW,M,M,M,1600.00,M,M,M,MIFG,YBBN 032030Z 25004KT 9999 MIFG FEW016 10/09 Q1013 NOSIG
YBBN,2010-06-03 21:00,153.1292,-27.3917,51.80,50.00,93.55,280.00,5.00,M,29.91,M,6.21,M,FEW,M,M,M,1600.00,M,M,M,MIFG,YBBN 032100Z 28005KT 9999 MIFG FEW016 11/10 Q1013 NOSIG
YBBN,2010-06-03 21:24,153.1292,-27.3917,51.80,51.80,100.00,310.00,3.00,M,29.91,M,6.21,M,FEW,M,M,M,1800.00,M,M,M,M,YBBN 032124Z 31003KT 9999 FEW018 11/11 Q1013 NOSIG
YBBN,2010-06-03 21:30,153.1292,-27.3917,53.60,51.80,93.60,310.00,3.00,M,29.91,M,6.21,M,FEW,M,M,M,1500.00,M,M,M,M,YBBN 032130Z 31003KT 9999 FEW015 12/11 Q1013 NOSIG
YBBN,2010-06-03 22:00,153.1292,-27.3917,57.20,53.60,87.74,340.00,6.00,M,29.91,M,6.21,M,FEW,M,M,M,1500.00,M,M,M,M,YBBN 032200Z 34006KT 9999 FEW015 14/12 Q1013 NOSIG
