#DEBUG: Format Typ    -> comma
#DEBUG: Time Period   -> 2011-11-08 00:00:00+00:00 2011-11-09 00:00:00+00:00
#DEBUG: Time Zone     -> Etc/UTC
#DEBUG: Data Contact   -> daryl herzmann akrherz@iastate.edu 515-294-5978
#DEBUG: Entries Found -> -1
station,valid,lon,lat,tmpf, dwpf, relh, drct, sknt, p01i, alti, mslp, vsby, gust, skyc1, skyc2, skyc3, skyc4, skyl1, skyl2, skyl3, skyl4, presentwx, metar
YBBN,2011-11-08 00:00,153.1292,-27.3917,77.00,59.00,53.80,20.00,8.00,M,30.09,M,6.21,M,FEW,M,M,M,3000.00,M,M,M,M,YBBN 080000Z 02008KT 9999 FEW030 25/15 Q1019 NOSIG
YBBN,2011-11-08 00:30,153.1292,-27.3917,77.00,59.00,53.80,20.00,10.00,M,30.09,M,6.21,M,FEW,M,M,M,3000.00,M,M,M,M,YBBN 080030Z 02010KT 9999 FEW030 25/15 Q1019
YBBN,2011-11-08 01:00,153.1292,-27.3917,77.00,59.00,53.80,40.00,11.00,M,30.06,M,6.21,M,FEW,M,M,M,3500.00,M,M,M,M,YBBN 080100Z 04011KT 9999 FEW035 25/15 Q1018 NOSIG
YBBN,2011-11-08 01:30,153.1292,-27.3917,77.00,59.00,53.80,40.00,13.00,M,30.06,M,6.21,M,FEW,M,M,M,3500.00,M,M,M,M,YBBN 080130Z 04013KT 9999 FEW035 25/15 Q1018
YBBN,2011-11-08 02:00,153.1292,-27.3917,78.80,59.00,50.69,40.00,14.00,M,30.06,M,6.21,M,FEW,M,M,M,3500.00,M,M,M,M,YBBN 080200Z 04014KT 9999 FEW035 26/15 Q1018 NOSIG
YBBN,2011-11-08 02:30,153.1292,-27.3917,78.80,59.00,50.69,30.00,14.00,M,30.03,M,6.21,M,FEW,M,M,M,3500.00,M,M,M,M,YBBN 080230Z 03014KT 9999 FEW035 26/15 Q1017 RMK SMOKE HAZE TO WEST
YBBN,2011-11-08 03:00,153.1292,-27.3917,78.80,59.00,50.69,30.00,14.00,M,30.03,M,6.21,M,FEW,M,M,M,3500.00,M,M,M,M,YBBN 080300Z 03014KT 9999 FEW035 26/15 Q1017 NOSIG
YBBN,2011-11-08 03:30,153.1292,-27.3917,78.80,59.00,50.69,20.00,15.00,M,30.03,M,6.21,M,FEW,M,M,M,3500.00,M,M,M,M,YBBN 080330Z 02015KT 9999 FEW035 26/15 Q1017 RMK HZ
YBBN,2011-11-08 04:00,153.1292,-27.3917,78.80,59.00,50.69,30.00,14.00,M,30.00,M,6.21,M,FEW,M,M,M,4000.00,M,M,M,M,YBBN 080400Z 03014KT 9999 FEW040 26/15 Q1016 RMK HZ
YBBN,2011-11-08 04:30,153.1292,-27.3917,77.00,57.20,50.43,20.00,15.00,M,30.00,M,6.21,M,FEW,M,M,M,4000.00,M,M,M,M,YBBN 080430Z 02015KT 9999 FEW040 25/14 Q1016
YBBN,2011-11-08 05:00,153.1292,-27.3917,77.00,60.80,57.36,20.00,15.00,M,30.00,M,6.21,M,FEW,M,M,M,4000.00,M,M,M,M,YBBN 080500Z 02015KT 9999 FEW040 25/16 Q1016 RMK HZ
YBBN,2011-11-08 05:30,153.1292,-27.3917,77.00,60.80,57.36,20.00,16.00,M,30.00,M,6.21,M,FEW,M,M,M,4000.00,M,M,M,M,YBBN 080530Z 02016KT 9999 FEW040 25/16 Q1016 RMK HZ
YBBN,2011-11-08 06:00,153.1292,-27.3917,75.20,60.80,60.90,10.00,15.00,M,30.00,M,6.21,M,FEW,M,M,M,4000.00,M,M,M,M,YBBN 080600Z 01015KT 9999 FEW040 24/16 Q1016 RMK HZ
YBBN,2011-11-08 06:30,153.1292,-27.3917,75.20,62.60,64.91,10.00,15.00,M,30.00,M,6.21,M,FEW,M,M,M,4000.00,M,M,M,M,YBBN 080630Z 01015KT 9999 FEW040 24/17 Q1016 RMK HZ
YBBN,2011-11-08 07:00,153.1292,-27.3917,73.40,60.80,64.69,10.00,15.00,M,30.00,M,6.21,M,FEW,M,M,M,4000.00,M,M,M,M,YBBN 080700Z 01015KT 9999 FEW040 23/16 Q1016 RMK HZ
YBBN,2011-11-08 07:30,153.1292,-27.3917,73.40,62.60,68.94,20.00,15.00,M,30.03,M,6.21,M,FEW,M,M,M,3500.00,M,M,M,M,YBBN 080730Z 02015KT 9999 FEW035 23/17 Q1017 RMK HZ
YBBN,2011-11-08 08:00,153.1292,-27.3917,71.60,62.60,73.27,20.00,16.00,M,30.03,M,6.21,M,FEW,M,M,M,3500.00,M,M,M,M,YBBN 080800Z 02016KT 9999 FEW035 22/17 Q1017 RMK HZ
YBBN,2011-11-08 08:30,153.1292,-27.3917,71.60,62.60,73.27,20.00,14.00,M,30.06,M,6.21,M,FEW,M,M,M,3000.00,M,M,M,M,YBBN 080830Z 02014KT 9999 FEW030 22/17 Q1018
YBBN,2011-11-08 09:00,153.1292,-27.3917,71.60,62.60,73.27,20.00,13.00,M,30.06,M,6.21,M,FEW,M,M,M,2200.00,M,M,M,M,YBBN 080900Z 02013KT 9999 FEW022 22/17 Q1018 NOSIG
YBBN,2011-11-08 09:30,153.1292,-27.3917,71.60,62.60,73.27,10.00,13.00,M,30.06,M,6.21,M,FEW,M,M,M,2200.00,M,M,M,M,YBBN 080930Z 01013KT 9999 FEW022 22/17 Q1018
YBBN,2011-11-08 10:00,153.1292,-27.3917,71.60,62.60,73.27,10.00,13.00,M,30.09,M,6.21,M,FEW,M,M,M,2200.00,M,M,M,M,YBBN 081000Z 01013KT 9999 FEW022 22/17 Q1019 NOSIG
YBBN,2011-11-08 10:30,153.1292,-27.3917,71.60,62.60,73.27,10.00,15.00,M,30.09,M,6.21,M,FEW,M,M,M,2200.00,M,M,M,M,YBBN 081030Z 01015KT 9999 FEW022 22/17 Q1019
YBBN,2011-11-08 11:00,153.1292,-27.3917,71.60,62.60,73.27,10.00,13.00,M,30.09,M,6.21,M,FEW,M,M,M,2200.00,M,M,M,M,YBBN 081100Z 01013KT 9999 FEW022 22/17 Q1019 NOSIG
YBBN,2011-11-08 11:30,153.1292,-27.3917,71.60,62.60,73.27,10.00,14.00,M,30.09,M,6.21,M,FEW,M,M,M,2200.00,M,M,M,M,YBBN 081130Z 01014KT 9999 FEW022 22/17 Q1019
YBBN,2011-11-08 12:00,153.1292,-27.3917,71.60,62.60,73.27,10.00,13.00,M,30.09,M,6.21,M,FEW,M,M,M,2500.00,M,M,M,M,YBBN 081200Z 01013KT 9999 FEW025 22/17 Q1019 NOSIG
YBBN,2011-11-08 12:30,153.1292,-27.3917,69.80,62.60,77.90,10.00,15.00,M,30.09,M,6.21,M,FEW,M,M,M,2500.00,M,M,M,M,YBBN 081230Z 01015KT 9999 FEW025 21/17 Q1019
YBBN,2011-11-08 13:00,153.1292,-27.3917,71.60,62.60,73.27,10.00,11.00,M,30.09,M,6.21,M,FEW,M,M,M,2500.00,M,M,M,M,YBBN 081300Z 01011KT 9999 FEW025 22/17 Q1019 NOSIG
YBBN,2011-11-08 13:30,153.1292,-27.3917,71.60,62.60,73.27,10.00,12.00,M,30.09,M,6.21,M,FEW,M,M,M,2500.00,M,M,M,M,YBBN 081330Z 01012KT 9999 FEW025 22/17 Q1019
YBBN,2011-11-08 14:00,153.1292,-27.3917,69.80,62.60,77.90,310.00,6.00,M,30.09,M,6.21,M,SCT,M,M,M,2200.00,M,M,M,M,YBBN 081400Z 31006KT 9999 SCT022 21/17 Q1019 NOSIG
YBBN,2011-11-08 14:30,153.1292,-27.3917,68.00,62.60,82.86,310.00,6.00,M,30.09,M,6.21,M,SCT,M,M,M,2200.00,M,M,M,M,YBBN 081430Z 31006KT 9999 SCT022 20/17 Q1019
YBBN,2011-11-08 15:00,153.1292,-27.3917,66.20,62.60,88.18,310.00,5.00,M,30.06,M,6.21,M,FEW,M,M,M,2500.00,M,M,M,M,YBBN 081500Z 31005KT 9999 FEW025 19/17 Q1018 NOSIG
YBBN,2011-11-08 15:30,153.1292,-27.3917,66.20,62.60,88.18,320.00,5.00,M,30.06,M,6.21,M,FEW,M,M,M,2500.00,M,M,M,M,YBBN 081530Z 32005KT 9999 FEW025 19/17 Q1018
YBBN,2011-11-08 16:00,153.1292,-27.3917,66.20,62.60,88.18,300.00,4.00,M,30.06,M,6.21,M,FEW,M,M,M,2500.00,M,M,M,M,YBBN 081600Z 30004KT 9999 FEW025 19/17 Q1018 NOSIG
YBBN,2011-11-08 16:30,153.1292,-27.3917,66.20,62.60,88.18,280.00,5.00,M,30.06,M,6.21,M,FEW,M,M,M,2500.00,M,M,M,M,YBBN 081630Z 28005KT 9999 FEW025 19/17 Q1018
YBBN,2011-11-08 17:00,153.1292,-27.3917,64.40,62.60,93.88,280.00,5.00,M,30.03,M,6.21,M,FEW,M,M,M,2500.00,M,M,M,M,YBBN 081700Z 28005KT 9999 FEW025 18/17 Q1017 NOSIG
YBBN,2011-11-08 17:30,153.1292,-27.3917,64.40,60.80,88.09,0.00,0.00,M,30.03,M,6.21,M,FEW,M,M,M,2200.00,M,M,M,MIFG,YBBN 081730Z 00000KT 9999 MIFG FEW022 18/16 Q1017 RMK SHALLOW FOG PATCHES FM1800 30006KT 9999 SCT025
YBBN,2011-11-08 18:30,153.1292,-27.3917,64.40,60.80,88.09,0.00,0.00,M,30.06,M,6.21,M,FEW,SCT,M,M,2000.00,30000.00,M,M,M,YBBN 081830Z 00000KT 9999 FEW020 SCT300 18/16 Q1018
YBBN,2011-11-08 19:00,153.1292,-27.3917,64.40,60.80,88.09,0.00,0.00,M,30.06,M,6.21,M,FEW,SCT,M,M,2000.00,30000.00,M,M,M,YBBN 081900Z 00000KT 9999 FEW020 SCT300 18/16 Q1018 NOSIG
YBBN,2011-11-08 19:30,153.1292,-27.3917,64.40,60.80,88.09,0.00,0.00,M,30.06,M,6.21,M,FEW,SCT,M,M,2200.00,30000.00,M,M,M,YBBN 081930Z 00000KT 9999 FEW022 SCT300 18/16 Q1018
YBBN,2011-11-08 20:00,153.1292,-27.3917,68.00,62.60,82.86,0.00,0.00,M,30.06,M,6.21,M,FEW,SCT,M,M,2200.00,30000.00,M,M,M,YBBN 082000Z 00000KT 9999 FEW022 SCT300 20/17 Q1018 NOSIG
YBBN,2011-11-08 20:30,153.1292,-27.3917,71.60,62.60,73.27,270.00,5.00,M,30.09,M,6.21,M,FEW,SCT,M,M,2200.00,30000.00,M,M,M,YBBN 082030Z 27005KT 9999 FEW022 SCT300 22/17 Q1019
YBBN,2011-11-08 21:00,153.1292,-27.3917,71.60,62.60,73.27,290.00,6.00,M,30.09,M,6.21,M,FEW,SCT,M,M,2200.00,30000.00,M,M,M,YBBN 082100Z 29006KT 9999 FEW022 SCT300 22/17 Q1019 NOSIG
YBBN,2011-11-08 21:30,153.1292,-27.3917,73.40,64.40,73.44,310.00,5.00,M,30.09,M,6.21,M,FEW,SCT,M,M,2400.00,30000.00,M,M,M,YBBN 082130Z 31005KT 9999 FEW024 SCT300 23/18 Q1019
YBBN,2011-11-08 22:00,153.1292,-27.3917,75.20,62.60,64.91,350.00,9.00,M,30.09,M,6.21,M,SCT,M,M,M,2400.00,M,M,M,M,YBBN 082200Z 35009KT 9999 SCT024 24/17 Q1019 NOSIG
YBBN,2011-11-08 22:30,153.1292,-27.3917,75.20,62.60,64.91,340.00,7.00,M,30.12,M,6.21,M,SCT,M,M,M,2500.00,M,M,M,M,YBBN 082230Z 34007KT 9999 SCT025 24/17 Q1020
YBBN,2011-11-08 23:00,153.1292,-27.3917,75.20,62.60,64.91,10.00,8.00,M,30.09,M,6.21,M,FEW,M,M,M,2800.00,M,M,M,M,YBBN 082300Z 01008KT 9999 FEW028 24/17 Q1019 NOSIG
YBBN,2011-11-08 23:30,153.1292,-27.3917,77.00,62.60,61.13,10.00,9.00,M,30.09,M,6.21,M,FEW,M,M,M,3000.00,M,M,M,M,YBBN 082330Z 01009KT 9999 FEW030 25/17 Q1019
