#DEBUG: Format Typ    -> comma
#DEBUG: Time Period   -> 2014-10-04 00:00:00+00:00 2014-10-05 00:00:00+00:00
#DEBUG: Time Zone     -> Etc/UTC
#DEBUG: Data Contact   -> daryl herzmann akrherz@iastate.edu 515-294-5978
#DEBUG: Entries Found -> -1
station,valid,lon,lat,tmpf, dwpf, relh, drct, sknt, p01i, alti, mslp, vsby, gust, skyc1, skyc2, skyc3, skyc4, skyl1, skyl2, skyl3, skyl4, presentwx, metar
YBBN,2014-10-04 00:00,153.1292,-27.3917,73.40,59.00,60.67,10.00,11.00,0.00,30.18,M,6.21,M,FEW,M,M,M,3000.00,M,M,M,M,YBBN 040000Z 01011KT 9999 FEW030 23/15 Q1022 NOSIG
YBBN,2014-10-04 00:30,153.1292,-27.3917,75.20,59.00,57.12,10.00,10.00,0.00,30.18,M,6.21,M,FEW,M,M,M,3000.00,M,M,M,M,YBBN 040030Z 01010KT 9999 FEW030 24/15 Q1022
YBBN,2014-10-04 01:00,153.1292,-27.3917,73.40,57.20,56.88,40.00,11.00,0.00,30.15,M,6.21,M,FEW,M,M,M,3000.00,M,M,M,M,YBBN 040100Z 04011KT 9999 FEW030 23/14 Q1021 NOSIG
YBBN,2014-10-04 01:30,153.1292,-27.3917,75.20,59.00,57.12,360.00,12.00,0.00,30.15,M,6.21,M,FEW,M,M,M,3500.00,M,M,M,M,YBBN 040130Z 36012KT 9999 FEW035 24/15 Q1021
YBBN,2014-10-04 02:00,153.1292,-27.3917,73.40,59.00,60.67,10.00,12.00,0.00,30.12,M,6.21,M,FEW,M,M,M,3500.00,M,M,M,M,YBBN 040200Z 01012KT 9999 FEW035 23/15 Q1020
YBBN,2014-10-04 02:30,153.1292,-27.3917,75.20,57.20,53.55,10.00,12.00,0.00,30.12,M,6.21,M,FEW,M,M,M,4000.00,M,M,M,M,YBBN 040230Z 01012KT 9999 FEW040 24/14 Q1020
YBBN,2014-10-04 03:00,153.1292,-27.3917,73.40,57.20,56.88,10.00,13.00,0.00,30.12,M,6.21,M,FEW,M,M,M,4000.00,M,M,M,M,YBBN 040300Z 01013KT 9999 FEW040 23/14 Q1020 NOSIG
YBBN,2014-10-04 03:30,153.1292,-27.3917,75.20,57.20,53.55,10.00,13.00,0.00,30.09,M,6.21,M,FEW,M,M,M,4000.00,M,M,M,M,YBBN 040330Z 01013KT 9999 FEW040 24/14 Q1019
YBBN,2014-10-04 04:00,153.1292,-27.3917,75.20,57.20,53.55,10.00,14.00,0.00,30.09,M,6.21,M,FEW,M,M,M,4000.00,M,M,M,M,YBBN 040400Z 01014KT 9999 FEW040 24/14 Q1019 NOSIG
YBBN,2014-10-04 04:30,153.1292,-27.3917,73.40,57.20,56.88,10.00,15.00,0.00,30.09,M,6.21,M,FEW,M,M,M,4000.00,M,M,M,M,YBBN 040430Z 01015KT 9999 FEW040 23/14 Q1019
YBBN,2014-10-04 05:00,153.1292,-27.3917,73.40,57.20,56.88,10.00,16.00,0.00,30.09,M,6.21,M,FEW,M,M,M,4000.00,M,M,M,M,YBBN 040500Z 01016KT 9999 FEW040 23/14 Q1019 NOSIG
YBBN,2014-10-04 05:30,153.1292,-27.3917,73.40,55.40,53.29,10.00,14.00,0.00,30.09,M,6.21,M,FEW,M,M,M,4000.00,M,M,M,M,YBBN 040530Z 01014KT 9999 FEW040 23/13 Q1019
YBBN,2014-10-04 06:00,153.1292,-27.3917,71.60,55.40,56.63,10.00,14.00,0.00,30.09,M,6.21,M,FEW,M,M,M,4000.00,M,M,M,M,YBBN 040600Z 01014KT 9999 FEW040 22/13 Q1019 NOSIG
YBBN,2014-10-04 06:30,153.1292,-27.3917,71.60,57.20,60.44,10.00,12.00,0.00,30.09,M,6.21,M,FEW,M,M,M,3500.00,M,M,M,M,YBBN 040630Z 01012KT 9999 FEW035 22/14 Q1019
YBBN,2014-10-04 07:00,153.1292,-27.3917,69.80,55.40,60.21,10.00,13.00,0.00,30.09,M,6.21,M,M,M,M,M,M,M,M,M,M,YBBN 040700Z 01013KT CAVOK 21/13 Q1019 NOSIG
YBBN,2014-10-04 07:30,153.1292,-27.3917,69.80,57.20,64.26,10.00,13.00,0.00,30.09,M,6.21,M,M,M,M,M,M,M,M,M,M,YBBN 040730Z 01013KT CAVOK 21/14 Q1019
YBBN,2014-10-04 08:00,153.1292,-27.3917,68.00,57.20,68.35,20.00,12.00,0.00,30.09,M,6.21,M,M,M,M,M,M,M,M,M,M,YBBN 040800Z 02012KT CAVOK 20/14 Q1019 NOSIG
YBBN,2014-10-04 08:30,153.1292,-27.3917,68.00,55.40,64.04,20.00,12.00,0.00,30.12,M,6.21,M,M,M,M,M,M,M,M,M,M,YBBN 040830Z 02012KT CAVOK 20/13 Q1020
YBBN,2014-10-04 09:00,153.1292,-27.3917,68.00,55.40,64.04,20.00,11.00,0.00,30.12,M,6.21,M,M,M,M,M,M,M,M,M,M,YBBN 040900Z 02011KT CAVOK 20/13 Q1020 NOSIG
YBBN,2014-10-04 09:30,153.1292,-27.3917,68.00,57.20,68.35,20.00,12.00,0.00,30.12,M,6.21,M,M,M,M,M,M,M,M,M,M,YBBN 040930Z 02012KT CAVOK 20/14 Q1020
YBBN,2014-10-04 10:00,153.1292,-27.3917,68.00,57.20,68.35,10.00,12.00,0.00,30.12,M,6.21,M,M,M,M,M,M,M,M,M,M,YBBN 041000Z 01012KT CAVOK 20/14 Q1020
YBBN,2014-10-04 10:30,153.1292,-27.3917,68.00,57.20,68.35,10.00,14.00,0.00,30.12,M,6.21,M,FEW,M,M,M,3000.00,M,M,M,M,YBBN 041030Z 01014KT 9999 FEW030 20/14 Q1020
YBBN,2014-10-04 11:00,153.1292,-27.3917,68.00,57.20,68.35,10.00,13.00,0.00,30.15,M,6.21,M,FEW,M,M,M,3000.00,M,M,M,M,YBBN 041100Z 01013KT 9999 FEW030 20/14 Q1021
YBBN,2014-10-04 11:30,153.1292,-27.3917,68.00,57.20,68.35,10.00,11.00,0.00,30.15,M,6.21,M,FEW,M,M,M,3000.00,M,M,M,M,YBBN 041130Z 01011KT 9999 FEW030 20/14 Q1021
YBBN,2014-10-04 12:00,153.1292,-27.3917,66.20,57.20,72.74,360.00,11.00,0.00,30.15,M,6.21,M,FEW,M,M,M,3000.00,M,M,M,M,YBBN 041200Z 36011KT 9999 FEW030 19/14 Q1021
YBBN,2014-10-04 12:30,153.1292,-27.3917,64.40,57.20,77.45,290.00,6.00,0.00,30.15,M,6.21,M,FEW,M,M,M,2800.00,M,M,M,M,YBBN 041230Z 29006KT 9999 FEW028 18/14 Q1021
YBBN,2014-10-04 13:00,153.1292,-27.3917,64.40,57.20,77.45,300.00,5.00,0.00,30.15,M,6.21,M,FEW,M,M,M,2500.00,M,M,M,M,YBBN 041300Z 30005KT 9999 FEW025 18/14 Q1021
YBBN,2014-10-04 13:30,153.1292,-27.3917,64.40,57.20,77.45,300.00,5.00,0.00,30.15,M,6.21,M,FEW,M,M,M,2500.00,M,M,M,M,YBBN 041330Z 30005KT 9999 FEW025 18/14 Q1021
YBBN,2014-10-04 14:00,153.1292,-27.3917,62.60,57.20,82.50,290.00,4.00,0.00,30.15,M,6.21,M,FEW,M,M,M,2500.00,M,M,M,M,YBBN 041400Z 29004KT 9999 FEW025 17/14 Q1021
YBBN,2014-10-04 14:30,153.1292,-27.3917,62.60,57.20,82.50,320.00,3.00,0.00,30.15,M,6.21,M,FEW,M,M,M,2400.00,M,M,M,M,YBBN 041430Z 32003KT 9999 FEW024 17/14 Q1021
YBBN,2014-10-04 15:00,153.1292,-27.3917,60.80,57.20,87.92,270.00,3.00,0.00,30.12,M,6.21,M,M,M,M,M,M,M,M,M,M,YBBN 041500Z 27003KT CAVOK 16/14 Q1020
YBBN,2014-10-04 15:30,153.1292,-27.3917,60.80,57.20,87.92,280.00,3.00,0.00,30.12,M,6.21,M,M,M,M,M,M,M,M,M,M,YBBN 041530Z 28003KT CAVOK 16/14 Q1020
YBBN,2014-10-04 16:00,153.1292,-27.3917,60.80,57.20,87.92,0.00,0.00,0.00,30.12,M,6.21,M,M,M,M,M,M,M,M,M,M,YBBN 041600Z 00000KT CAVOK 16/14 Q1020
YBBN,2014-10-04 16:30,153.1292,-27.3917,59.00,57.20,93.74,0.00,0.00,0.00,30.12,M,6.21,M,M,M,M,M,M,M,M,M,M,YBBN 041630Z 00000KT CAVOK 15/14 Q1020
YBBN,2014-10-04 17:00,153.1292,-27.3917,59.00,55.40,87.83,280.00,3.00,0.00,30.12,M,6.21,M,M,M,M,M,M,M,M,M,M,YBBN 041700Z 28003KT CAVOK 15/13 Q1020
YBBN,2014-10-04 17:30,153.1292,-27.3917,60.80,57.20,87.92,260.00,3.00,0.00,30.12,M,6.21,M,M,M,M,M,M,M,M,M,M,YBBN 041730Z 26003KT CAVOK 16/14 Q1020 RMK 6AC089
YBBN,2014-10-04 18:00,153.1292,-27.3917,60.80,57.20,87.92,0.00,0.00,0.00,30.12,M,6.21,M,M,M,M,M,M,M,M,M,M,YBBN 041800Z 00000KT CAVOK 16/14 Q1020
YBBN,2014-10-04 18:30,153.1292,-27.3917,60.80,57.20,87.92,0.00,0.00,0.00,30.12,M,6.21,M,M,M,M,M,M,M,M,M,M,YBBN 041830Z 00000KT CAVOK 16/14 Q1020
YBBN,2014-10-04 19:00,153.1292,-27.3917,59.00,57.20,93.74,230.00,3.00,0.00,30.12,M,6.21,M,FEW,SCT,M,M,2700.00,9500.00,M,M,M,YBBN 041900Z 23003KT 9999 FEW027 SCT095 15/14 Q1020 NOSIG
YBBN,2014-10-04 19:30,153.1292,-27.3917,59.00,55.40,87.83,200.00,4.00,0.00,30.15,M,6.21,M,FEW,SCT,M,M,2000.00,2500.00,M,M,M,YBBN 041930Z 20004KT 9999 FEW020 SCT025 15/13 Q1021
YBBN,2014-10-04 20:00,153.1292,-27.3917,59.00,57.20,93.74,200.00,6.00,0.00,30.15,M,6.21,M,FEW,M,M,M,2500.00,M,M,M,M,YBBN 042000Z 20006KT 9999 FEW025 15/14 Q1021
YBBN,2014-10-04 20:30,153.1292,-27.3917,62.60,57.20,82.50,200.00,6.00,0.00,30.15,M,6.21,M,FEW,M,M,M,2500.00,M,M,M,M,YBBN 042030Z 20006KT 9999 FEW025 17/14 Q1021
YBBN,2014-10-04 21:00,153.1292,-27.3917,64.40,57.20,77.45,190.00,7.00,0.00,30.18,M,6.21,M,FEW,M,M,M,2000.00,M,M,M,M,YBBN 042100Z 19007KT 9999 FEW020 18/14 Q1022
YBBN,2014-10-04 21:30,153.1292,-27.3917,68.00,57.20,68.35,200.00,7.00,0.00,30.18,M,6.21,M,FEW,M,M,M,2000.00,M,M,M,M,YBBN 042130Z 20007KT 9999 FEW020 20/14 Q1022
YBBN,2014-10-04 22:00,153.1292,-27.3917,69.80,57.20,64.26,240.00,5.00,0.00,30.18,M,6.21,M,FEW,M,M,M,3000.00,M,M,M,M,YBBN 042200Z 24005KT 9999 FEW030 21/14 Q1022
YBBN,2014-10-04 22:30,153.1292,-27.3917,71.60,55.40,56.63,310.00,5.00,0.00,30.18,M,6.21,M,FEW,SCT,M,M,3500.00,8000.00,M,M,M,YBBN 042230Z 31005KT 9999 FEW035 SCT080 22/13 Q1022
YBBN,2014-10-04 23:00,153.1292,-27.3917,73.40,55.40,53.29,330.00,7.00,0.00,30.15,M,6.21,M,FEW,SCT,M,M,3500.00,8000.00,M,M,M,YBBN 042300Z 33007KT 9999 FEW035 SCT080 23/13 Q1021
YBBN,2014-10-04 23:30,153.1292,-27.3917,73.40,55.40,53.29,330.00,7.00,0.00,30.15,M,6.21,M,FEW,SCT,M,M,3500.00,8000.00,M,M,M,YBBN 042330Z 33007KT 9999 FEW035 SCT080 23/13 Q1021
