#DEBUG: Format Typ    -> comma
#DEBUG: Time Period   -> 2012-01-12 00:00:00+00:00 2012-01-13 00:00:00+00:00
#DEBUG: Time Zone     -> Etc/UTC
#DEBUG: Data Contact   -> daryl herzmann akrherz@iastate.edu 515-294-5978
#DEBUG: Entries Found -> -1
station,valid,lon,lat,tmpf, dwpf, relh, drct, sknt, p01i, alti, mslp, vsby, gust, skyc1, skyc2, skyc3, skyc4, skyl1, skyl2, skyl3, skyl4, presentwx, metar
YBBN,2012-01-12 00:00,153.1292,-27.3917,78.80,59.00,50.69,100.00,11.00,M,29.88,M,6.21,M,FEW,SCT,   ,   ,4000.00,27000.00,M,M,M,YBBN 120000Z 10011KT 9999 FEW040 SCT270 26/15 Q1012 NOSIG
YBBN,2012-01-12 00:30,153.1292,-27.3917,78.80,59.00,50.69,100.00,14.00,M,29.88,M,6.21,M,FEW,BKN,   ,   ,4000.00,27000.00,M,M,M,YBBN 120030Z 10014KT 9999 FEW040 BKN270 26/15 Q1012
YBBN,2012-01-12 01:00,153.1292,-27.3917,80.60,57.20,44.80,90.00,13.00,M,29.88,M,6.21,M,FEW,BKN,   ,   ,4000.00,27000.00,M,M,M,YBBN 120100Z 09013KT 9999 FEW040 BKN270 27/14 Q1012
YBBN,2012-01-12 01:30,153.1292,-27.3917,78.80,57.20,47.52,90.00,12.00,M,29.88,M,6.21,M,FEW,BKN,   ,   ,4000.00,27000.00,M,M,M,YBBN 120130Z 09012KT 9999 FEW040 BKN270 26/14 Q1012
YBBN,2012-01-12 02:00,153.1292,-27.3917,78.80,57.20,47.52,100.00,13.00,M,29.88,M,6.21,M,FEW,BKN,   ,   ,4500.00,27000.00,M,M,M,YBBN 120200Z 10013KT 9999 FEW045 BKN270 26/14 Q1012 NOSIG
YBBN,2012-01-12 02:30,153.1292,-27.3917,77.00,57.20,50.43,100.00,13.00,M,29.88,M,6.21,M,FEW,BKN,   ,   ,4500.00,27000.00,M,M,M,YBBN 120230Z 10013KT 9999 FEW045 BKN270 25/14 Q1012
YBBN,2012-01-12 03:00,153.1292,-27.3917,78.80,59.00,50.69,90.00,13.00,M,29.88,M,6.21,M,FEW,BKN,   ,   ,4500.00,27000.00,M,M,M,YBBN 120300Z 09013KT 9999 FEW045 BKN270 26/15 Q1012 NOSIG
YBBN,2012-01-12 03:30,153.1292,-27.3917,78.80,59.00,50.69,110.00,15.00,M,29.88,M,6.21,M,FEW,BKN,   ,   ,4500.00,27000.00,M,M,M,YBBN 120330Z 11015KT 9999 FEW045 BKN270 26/15 Q1012
YBBN,2012-01-12 04:00,153.1292,-27.3917,80.60,59.00,47.79,100.00,12.00,M,29.88,M,6.21,M,FEW,BKN,   ,   ,4500.00,27000.00,M,M,M,YBBN 120400Z 10012KT 9999 FEW045 BKN270 27/15 Q1012
YBBN,2012-01-12 04:30,153.1292,-27.3917,78.80,57.20,47.52,100.00,14.00,M,29.85,M,6.21,M,FEW,BKN,   ,   ,4500.00,27000.00,M,M,M,YBBN 120430Z 10014KT 9999 FEW045 BKN270 26/14 Q1011
YBBN,2012-01-12 05:00,153.1292,-27.3917,78.80,57.20,47.52,100.00,14.00,M,29.85,M,6.21,M,FEW,BKN,   ,   ,4800.00,27000.00,M,M,M,YBBN 120500Z 10014KT 9999 FEW048 BKN270 26/14 Q1011
YBBN,2012-01-12 05:30,153.1292,-27.3917,78.80,55.40,44.52,110.00,14.00,M,29.85,M,6.21,M,FEW,BKN,   ,   ,4800.00,27000.00,M,M,M,YBBN 120530Z 11014KT 9999 FEW048 BKN270 26/13 Q1011
YBBN,2012-01-12 06:00,153.1292,-27.3917,77.00,55.40,47.25,100.00,13.00,M,29.85,M,6.21,M,FEW,BKN,   ,   ,4800.00,27000.00,M,M,M,YBBN 120600Z 10013KT 9999 FEW048 BKN270 25/13 Q1011
YBBN,2012-01-12 06:30,153.1292,-27.3917,75.20,55.40,50.17,110.00,12.00,M,29.85,M,6.21,M,FEW,BKN,   ,   ,3500.00,27000.00,M,M,M,YBBN 120630Z 11012KT 9999 FEW035 BKN270 24/13 Q1011
YBBN,2012-01-12 07:00,153.1292,-27.3917,75.20,57.20,53.55,100.00,12.00,M,29.88,M,6.21,M,FEW,BKN,   ,   ,3500.00,27000.00,M,M,M,YBBN 120700Z 10012KT 9999 FEW035 BKN270 24/14 Q1012 NOSIG
YBBN,2012-01-12 07:30,153.1292,-27.3917,75.20,57.20,53.55,100.00,9.00,M,29.88,M,6.21,M,SCT,SCT,BKN,   ,3500.00,5500.00,27000.00,M,M,YBBN 120730Z 10009KT 9999 SCT035 SCT055 BKN270 24/14 Q1012
YBBN,2012-01-12 08:00,153.1292,-27.3917,75.20,57.20,53.55,100.00,10.00,M,29.91,M,6.21,M,SCT,SCT,BKN,   ,3500.00,5000.00,27000.00,M,M,YBBN 120800Z 10010KT 9999 SCT035 SCT050 BKN270 24/14 Q1013 NOSIG
YBBN,2012-01-12 08:30,153.1292,-27.3917,75.20,57.20,53.55,100.00,9.00,M,29.91,M,6.21,M,FEW,SCT,BKN,   ,3500.00,5000.00,27000.00,M,M,YBBN 120830Z 10009KT 9999 FEW035 SCT050 BKN270 24/14 Q1013
YBBN,2012-01-12 09:00,153.1292,-27.3917,75.20,57.20,53.55,100.00,9.00,M,29.91,M,6.21,M,SCT,SCT,BKN,   ,3700.00,5000.00,27000.00,M,M,YBBN 120900Z 10009KT 9999 SCT037 SCT050 BKN270 24/14 Q1013
YBBN,2012-01-12 09:30,153.1292,-27.3917,75.20,57.20,53.55,100.00,9.00,M,29.94,M,6.21,M,FEW,SCT,BKN,   ,3700.00,5000.00,27000.00,M,M,YBBN 120930Z 10009KT 9999 FEW037 SCT050 BKN270 24/14 Q1014
YBBN,2012-01-12 10:00,153.1292,-27.3917,73.40,57.20,56.88,100.00,10.00,M,29.94,M,6.21,M,FEW,BKN,   ,   ,3900.00,5500.00,M,M,M,YBBN 121000Z 10010KT 9999 FEW039 BKN055 23/14 Q1014 NOSIG
YBBN,2012-01-12 10:30,153.1292,-27.3917,73.40,57.20,56.88,100.00,9.00,M,29.94,M,6.21,M,FEW,BKN,   ,   ,3900.00,7000.00,M,M,M,YBBN 121030Z 10009KT 9999 FEW039 BKN070 23/14 Q1014
YBBN,2012-01-12 11:00,153.1292,-27.3917,73.40,59.00,60.67,100.00,9.00,M,29.94,M,6.21,M,FEW,SCT,BKN,   ,3900.00,5500.00,7000.00,M,M,YBBN 121100Z 10009KT 9999 FEW039 SCT055 BKN070 23/15 Q1014 NOSIG
YBBN,2012-01-12 11:30,153.1292,-27.3917,75.20,59.00,57.12,100.00,9.00,M,29.97,M,6.21,M,FEW,SCT,   ,   ,3900.00,5500.00,M,M,M,YBBN 121130Z 10009KT 9999 FEW039 SCT055 24/15 Q1015
YBBN,2012-01-12 12:00,153.1292,-27.3917,73.40,59.00,60.67,100.00,8.00,M,29.97,M,6.21,M,FEW,SCT,   ,   ,3500.00,5500.00,M,M,M,YBBN 121200Z 10008KT 9999 FEW035 SCT055 23/15 Q1015
YBBN,2012-01-12 12:30,153.1292,-27.3917,73.40,59.00,60.67,100.00,7.00,M,29.97,M,6.21,M,FEW,BKN,   ,   ,3500.00,5000.00,M,M,M,YBBN 121230Z 10007KT 9999 FEW035 BKN050 23/15 Q1015
YBBN,2012-01-12 13:00,153.1292,-27.3917,73.40,60.80,64.69,100.00,7.00,M,29.97,M,6.21,M,FEW,BKN,   ,   ,3500.00,5000.00,M,M,-SHRA,YBBN 121300Z 10007KT 9999 -SHRA FEW035 BKN050 23/16 Q1015
YBBN,2012-01-12 13:30,153.1292,-27.3917,73.40,59.00,60.67,110.00,7.00,M,29.97,M,6.21,M,SCT,BKN,   ,   ,3800.00,5000.00,M,M,-SHRA,YBBN 121330Z 11007KT 9999 -SHRA SCT038 BKN050 23/15 Q1015
YBBN,2012-01-12 14:00,153.1292,-27.3917,71.60,60.80,68.75,100.00,9.00,M,29.94,M,6.21,M,SCT,BKN,   ,   ,3700.00,5000.00,M,M,-SHRA,YBBN 121400Z 10009KT 9999 -SHRA SCT037 BKN050 22/16 Q1014 NOSIG
YBBN,2012-01-12 14:30,153.1292,-27.3917,73.40,59.00,60.67,100.00,7.00,M,29.94,M,6.21,M,SCT,BKN,   ,   ,3700.00,5000.00,M,M,VCSH,YBBN 121430Z 10007KT 9999 VCSH SCT037 BKN050 23/15 Q1014
YBBN,2012-01-12 15:00,153.1292,-27.3917,73.40,57.20,56.88,90.00,8.00,M,29.94,M,6.21,M,FEW,BKN,   ,   ,3700.00,5000.00,M,M,M,YBBN 121500Z 09008KT 9999 FEW037 BKN050 23/14 Q1014 NOSIG
YBBN,2012-01-12 15:30,153.1292,-27.3917,73.40,59.00,60.67,90.00,7.00,M,29.94,M,6.21,M,FEW,BKN,   ,   ,3800.00,5000.00,M,M,M,YBBN 121530Z 09007KT 9999 FEW038 BKN050 23/15 Q1014
YBBN,2012-01-12 16:00,153.1292,-27.3917,73.40,59.00,60.67,90.00,7.00,M,29.94,M,6.21,M,FEW,BKN,   ,   ,3800.00,5000.00,M,M,M,YBBN 121600Z 09007KT 9999 FEW038 BKN050 23/15 Q1014
YBBN,2012-01-12 16:30,153.1292,-27.3917,73.40,59.00,60.67,100.00,6.00,M,29.94,M,6.21,M,FEW,BKN,   ,   ,3300.00,4500.00,M,M,M,YBBN 121630Z 10006KT 9999 FEW033 BKN045 23/15 Q1014
YBBN,2012-01-12 17:00,153.1292,-27.3917,71.60,59.00,64.48,90.00,7.00,M,29.94,M,6.21,M,FEW,BKN,   ,   ,3500.00,5500.00,M,M,VCSH,YBBN 121700Z 09007KT 9999 VCSH FEW035 BKN055 22/15 Q1014
YBBN,2012-01-12 17:30,153.1292,-27.3917,73.40,59.00,60.67,90.00,8.00,M,29.94,M,6.21,M,FEW,BKN,   ,   ,4000.00,5500.00,M,M,VCSH,YBBN 121730Z 09008KT 9999 VCSH FEW040 BKN055 23/15 Q1014 RMK SH TO NE
YBBN,2012-01-12 18:00,153.1292,-27.3917,73.40,57.20,56.88,90.00,8.00,M,29.94,M,6.21,M,FEW,BKN,   ,   ,4000.00,4500.00,M,M,M,YBBN 121800Z 09008KT 9999 FEW040 BKN045 23/14 Q1014 NOSIG
YBBN,2012-01-12 18:30,153.1292,-27.3917,73.40,57.20,56.88,90.00,7.00,M,29.97,M,6.21,M,FEW,BKN,   ,   ,4000.00,4500.00,M,M,VCSH,YBBN 121830Z 09007KT 9999 VCSH FEW040 BKN045 23/14 Q1015
YBBN,2012-01-12 19:00,153.1292,-27.3917,69.80,59.00,68.55,120.00,6.00,M,29.97,M,6.21,M,FEW,BKN,   ,   ,4000.00,4500.00,M,M,VCSH,YBBN 121900Z 12006KT 9999 VCSH FEW040 BKN045 21/15 Q1015 NOSIG
YBBN,2012-01-12 19:30,153.1292,-27.3917,69.80,59.00,68.55,200.00,4.00,M,29.97,M,6.21,M,FEW,SCT,   ,   ,4000.00,4500.00,M,M,VCSH,YBBN 121930Z 20004KT 9999 VCSH FEW040 SCT045 21/15 Q1015 RMK SH TO NE
YBBN,2012-01-12 20:00,153.1292,-27.3917,71.60,60.80,68.75,160.00,5.00,M,29.97,M,6.21,M,FEW,SCT,   ,   ,2000.00,4000.00,M,M,VCSH,YBBN 122000Z 16005KT 9999 VCSH FEW020 SCT040 22/16 Q1015 RMK SH TO NE
YBBN,2012-01-12 20:30,153.1292,-27.3917,73.40,59.00,60.67,160.00,6.00,M,30.00,M,6.21,M,FEW,SCT,BKN,   ,2000.00,3500.00,6000.00,M,VCSH,YBBN 122030Z 16006KT 9999 VCSH FEW020 SCT035 BKN060 23/15 Q1016
YBBN,2012-01-12 21:00,153.1292,-27.3917,75.20,57.20,53.55,90.00,7.00,M,30.00,M,5.59,M,FEW,SCT,BKN,   ,2000.00,3500.00,5000.00,M,VCSH,YBBN 122100Z 09007KT 9000 VCSH FEW020 SCT035 BKN050 24/14 Q1016 NOSIG
YBBN,2012-01-12 21:30,153.1292,-27.3917,75.20,57.20,53.55,90.00,7.00,M,30.00,M,6.21,M,FEW,SCT,BKN,   ,2000.00,3000.00,5000.00,M,VCSH,YBBN 122130Z 09007KT 9999 VCSH FEW020 SCT030 BKN050 24/14 Q1016
YBBN,2012-01-12 22:00,153.1292,-27.3917,75.20,57.20,53.55,90.00,6.00,M,30.00,M,6.21,M,FEW,SCT,BKN,   ,1800.00,2700.00,5500.00,M,VCSH,YBBN 122200Z 09006KT 9999 VCSH FEW018 SCT027 BKN055 24/14 Q1016
YBBN,2012-01-12 22:30,153.1292,-27.3917,77.00,55.40,47.25,80.00,7.00,M,30.00,M,6.21,M,FEW,SCT,BKN,   ,1800.00,2700.00,6000.00,M,M,YBBN 122230Z 08007KT 9999 FEW018 SCT027 BKN060 25/13 Q1016
YBBN,2012-01-12 23:00,153.1292,-27.3917,78.80,57.20,47.52,70.00,10.00,M,30.00,M,6.21,M,SCT,   ,   ,   ,2500.00,M,M,M,M,YBBN 122300Z 07010KT 9999 SCT025 26/14 Q1016 NOSIG
YBBN,2012-01-12 23:30,153.1292,-27.3917,78.80,57.20,47.52,70.00,9.00,M,30.00,M,6.21,M,SCT,   ,   ,   ,3200.00,M,M,M,M,YBBN 122330Z 07009KT 9999 SCT032 26/14 Q1016
