#DEBUG: Format Typ    -> comma
#DEBUG: Time Period   -> 2014-12-13 00:00:00+00:00 2014-12-14 00:00:00+00:00
#DEBUG: Time Zone     -> Etc/UTC
#DEBUG: Data Contact   -> daryl herzmann akrherz@iastate.edu 515-294-5978
#DEBUG: Entries Found -> -1
station,valid,lon,lat,tmpf, dwpf, relh, drct, sknt, p01i, alti, mslp, vsby, gust, skyc1, skyc2, skyc3, skyc4, skyl1, skyl2, skyl3, skyl4, presentwx, metar
YBBN,2014-12-13 00:00,153.1292,-27.3917,71.60,59.00,64.48,150.00,9.00,0.00,29.85,M,6.21,M,FEW,SCT,BKN,M,1200.00,3800.00,12000.00,M,M,YBBN 130000Z 15009KT 9999 FEW012 SCT038 BKN120 22/15 Q1011
YBBN,2014-12-13 00:30,153.1292,-27.3917,71.60,59.00,64.48,160.00,11.00,0.00,29.85,M,6.21,M,FEW,SCT,BKN,M,1100.00,2500.00,12000.00,M,M,YBBN 130030Z 16011KT 9999 FEW011 SCT025 BKN120 22/15 Q1011 RMK DIST -SHRA E/NE
YBBN,2014-12-13 01:00,153.1292,-27.3917,71.60,59.00,64.48,150.00,11.00,0.00,29.85,M,6.21,M,FEW,SCT,BKN,M,1100.00,3800.00,12000.00,M,VCSH,YBBN 130100Z 15011KT 9999 VCSH FEW011 SCT038 BKN120 22/15 Q1011
YBBN,2014-12-13 01:30,153.1292,-27.3917,71.60,57.20,60.44,150.00,9.00,0.00,29.83,M,6.21,M,FEW,SCT,BKN,M,1700.00,5200.00,12000.00,M,-SHRA,YBBN 130130Z 15009KT 9999 -SHRA FEW017 SCT052 BKN120 22/14 Q1010 RMK -SHRA WEST
YBBN,2014-12-13 02:00,153.1292,-27.3917,73.40,57.20,56.88,150.00,11.00,0.00,29.83,M,6.21,M,FEW,SCT,BKN,M,1700.00,4800.00,12000.00,M,M,YBBN 130200Z 15011KT 9999 FEW017 SCT048 BKN120 23/14 Q1010 INTER 0200/0500 3000 SHRA BKN015 FM0200 MOD TURB BLW 5000FT
YBBN,2014-12-13 02:30,153.1292,-27.3917,73.40,59.00,60.67,150.00,9.00,0.00,29.83,M,6.21,M,FEW,BKN,M,M,1600.00,2700.00,M,M,VCSH,YBBN 130230Z 15009KT 9999 VCSH FEW016 BKN027 23/15 Q1010
YBBN,2014-12-13 03:00,153.1292,-27.3917,73.40,59.00,60.67,150.00,11.00,0.00,29.80,M,6.21,M,FEW,BKN,M,M,1600.00,2800.00,M,M,-SHRA,YBBN 130300Z 15011KT 9999 -SHRA FEW016 BKN028 23/15 Q1009 INTER 0300/0600 3000 SHRA BKN015 FM0300 MOD TURB BLW 5000FT
YBBN,2014-12-13 03:30,153.1292,-27.3917,73.40,59.00,60.67,150.00,10.00,0.00,29.80,M,6.21,M,FEW,SCT,BKN,M,1300.00,2000.00,2800.00,M,-SHRA,YBBN 130330Z 15010KT 9999 -SHRA FEW013 SCT020 BKN028 23/15 Q1009
YBBN,2014-12-13 04:00,153.1292,-27.3917,73.40,59.00,60.67,160.00,12.00,0.00,29.80,M,6.21,M,FEW,SCT,BKN,M,1800.00,2900.00,4900.00,M,VCSH,YBBN 130400Z 16012KT 9999 VCSH FEW018 SCT029 BKN049 23/15 Q1009 WS RWY19
YBBN,2014-12-13 04:30,153.1292,-27.3917,73.40,57.20,56.88,170.00,14.00,0.00,29.80,M,6.21,25.00,FEW,SCT,BKN,M,1800.00,3000.00,4900.00,M,VCSH,YBBN 130430Z 17014G25KT 9999 VCSH FEW018 SCT030 BKN049 23/14 Q1009 WS RWY19
YBBN,2014-12-13 05:00,153.1292,-27.3917,73.40,59.00,60.67,150.00,12.00,0.00,29.80,M,6.21,M,FEW,SCT,BKN,M,1100.00,3000.00,5300.00,M,VCSH,YBBN 130500Z 15012KT 9999 VCSH FEW011 SCT030 BKN053 23/15 Q1009 INTER 0500/0800 3000 SHRA BKN015 FM0500 MOD TURB BLW 5000FT
YBBN,2014-12-13 05:30,153.1292,-27.3917,75.20,59.00,57.12,160.00,13.00,0.00,29.77,M,6.21,23.00,FEW,SCT,BKN,M,1700.00,3000.00,14000.00,M,-SHRA,YBBN 130530Z 16013G23KT 9999 -SHRA FEW017 SCT030 BKN140 24/15 Q1008 RMK -SHRA SE
YBBN,2014-12-13 06:00,153.1292,-27.3917,73.40,57.20,56.88,140.00,12.00,0.00,29.77,M,6.21,M,FEW,SCT,BKN,M,1700.00,2900.00,6200.00,M,VCSH,YBBN 130600Z 14012KT 9999 VCSH FEW017 SCT029 BKN062 23/14 Q1008 INTER 0600/0900 3000 SHRA BKN015 FM0600 MOD TURB BLW 5000FT
YBBN,2014-12-13 06:30,153.1292,-27.3917,73.40,59.00,60.67,150.00,11.00,0.00,29.77,M,6.21,M,FEW,SCT,BKN,M,1600.00,2900.00,6000.00,M,M,YBBN 130630Z 15011KT 9999 FEW016 SCT029 BKN060 23/15 Q1008 RMK DIST -SHRA W/SE
YBBN,2014-12-13 07:00,153.1292,-27.3917,73.40,59.00,60.67,160.00,11.00,0.00,29.77,M,6.21,M,FEW,SCT,BKN,M,1600.00,2700.00,13500.00,M,M,YBBN 130700Z 16011KT 9999 FEW016 SCT027 BKN135 23/15 Q1008 INTER 0700/1000 3000 SHRA BKN015 FM0700 MOD TURB BLW 5000FT
YBBN,2014-12-13 07:30,153.1292,-27.3917,71.60,59.00,64.48,150.00,11.00,0.00,29.77,M,6.21,M,FEW,SCT,BKN,M,1500.00,2500.00,13000.00,M,M,YBBN 130730Z 15011KT 9999 FEW015 SCT025 BKN130 22/15 Q1008
YBBN,2014-12-13 08:00,153.1292,-27.3917,71.60,59.00,64.48,160.00,11.00,0.00,29.77,M,6.21,M,FEW,SCT,BKN,M,1500.00,4000.00,13000.00,M,VCSH,YBBN 130800Z 16011KT 9999 VCSH FEW015 SCT040 BKN130 22/15 Q1008 FM0800 MOD TURB BLW 5000FT
YBBN,2014-12-13 08:30,153.1292,-27.3917,71.60,59.00,64.48,160.00,11.00,0.00,29.80,M,6.21,M,FEW,SCT,BKN,M,1500.00,4000.00,14000.00,M,VCSH,YBBN 130830Z 16011KT 9999 VCSH FEW015 SCT040 BKN140 22/15 Q1009
YBBN,2014-12-13 09:00,153.1292,-27.3917,71.60,59.00,64.48,160.00,9.00,0.00,29.80,M,6.21,M,FEW,SCT,BKN,M,1500.00,3800.00,5800.00,M,VCSH,YBBN 130900Z 16009KT 9999 VCSH FEW015 SCT038 BKN058 22/15 Q1009 FM0900 MOD TURB BLW 5000FT
YBBN,2014-12-13 09:30,153.1292,-27.3917,71.60,59.00,64.48,170.00,11.00,0.00,29.83,M,6.21,M,FEW,SCT,BKN,M,1500.00,3300.00,5000.00,M,M,YBBN 130930Z 17011KT 9999 FEW015 SCT033 BKN050 22/15 Q1010
YBBN,2014-12-13 10:00,153.1292,-27.3917,69.80,57.20,64.26,170.00,10.00,0.00,29.83,M,6.21,M,FEW,BKN,M,M,1500.00,4300.00,M,M,M,YBBN 131000Z 17010KT 9999 FEW015 BKN043 21/14 Q1010 FM1000 MOD TURB BLW 5000FT TILL 1200
YBBN,2014-12-13 10:30,153.1292,-27.3917,69.80,57.20,64.26,170.00,11.00,0.00,29.83,M,6.21,M,FEW,SCT,BKN,M,1400.00,3800.00,6800.00,M,M,YBBN 131030Z 17011KT 9999 FEW014 SCT038 BKN068 21/14 Q1010
YBBN,2014-12-13 11:00,153.1292,-27.3917,69.80,57.20,64.26,170.00,11.00,0.00,29.83,M,6.21,M,FEW,BKN,M,M,1500.00,4700.00,M,M,M,YBBN 131100Z 17011KT 9999 FEW015 BKN047 21/14 Q1010
YBBN,2014-12-13 11:30,153.1292,-27.3917,69.80,57.20,64.26,180.00,7.00,0.00,29.83,M,6.21,M,FEW,BKN,M,M,1500.00,5800.00,M,M,M,YBBN 131130Z 18007KT 9999 FEW015 BKN058 21/14 Q1010
YBBN,2014-12-13 12:00,153.1292,-27.3917,69.80,57.20,64.26,180.00,8.00,0.00,29.83,M,6.21,M,FEW,BKN,M,M,1500.00,6000.00,M,M,VCSH,YBBN 131200Z 18008KT 9999 VCSH FEW015 BKN060 21/14 Q1010
YBBN,2014-12-13 12:30,153.1292,-27.3917,69.80,55.40,60.21,170.00,9.00,0.00,29.83,M,6.21,M,FEW,SCT,BKN,M,1500.00,3200.00,5000.00,M,VCSH,YBBN 131230Z 17009KT 9999 VCSH FEW015 SCT032 BKN050 21/13 Q1010
YBBN,2014-12-13 13:00,153.1292,-27.3917,69.80,55.40,60.21,190.00,9.00,0.00,29.83,M,6.21,M,FEW,SCT,BKN,M,1500.00,3700.00,5000.00,M,VCSH,YBBN 131300Z 19009KT 9999 VCSH FEW015 SCT037 BKN050 21/13 Q1010
YBBN,2014-12-13 13:30,153.1292,-27.3917,69.80,57.20,64.26,160.00,8.00,0.00,29.83,M,6.21,M,FEW,SCT,BKN,M,1500.00,2800.00,5000.00,M,-SHRA,YBBN 131330Z 16008KT 9999 -SHRA FEW015 SCT028 BKN050 21/14 Q1010
YBBN,2014-12-13 14:00,153.1292,-27.3917,66.20,59.00,77.60,160.00,7.00,0.00,29.83,M,6.21,M,FEW,SCT,BKN,M,1500.00,2800.00,5200.00,M,-SHRA,YBBN 131400Z 16007KT 9999 -SHRA FEW015 SCT028 BKN052 19/15 Q1010
YBBN,2014-12-13 14:30,153.1292,-27.3917,66.20,62.60,88.18,120.00,5.00,0.00,29.83,M,6.21,M,FEW,SCT,BKN,M,1500.00,2800.00,5200.00,M,-SHRA,YBBN 131430Z 12005KT 9999 -SHRA FEW015 SCT028 BKN052 19/17 Q1010
YBBN,2014-12-13 15:00,153.1292,-27.3917,66.20,60.80,82.74,160.00,5.00,0.00,29.80,M,6.21,M,FEW,SCT,BKN,M,1500.00,2800.00,4200.00,M,-SHRA,YBBN 131500Z 16005KT 9999 -SHRA FEW015 SCT028 BKN042 19/16 Q1009
YBBN,2014-12-13 15:30,153.1292,-27.3917,66.20,60.80,82.74,190.00,6.00,0.00,29.80,M,6.21,M,FEW,BKN,M,M,1500.00,4900.00,M,M,VCSH,YBBN 131530Z 19006KT 9999 VCSH FEW015 BKN049 19/16 Q1009
YBBN,2014-12-13 16:00,153.1292,-27.3917,66.20,57.20,72.74,210.00,9.00,0.00,29.80,M,6.21,M,FEW,SCT,BKN,M,1500.00,5000.00,12000.00,M,VCSH,YBBN 131600Z 21009KT 9999 VCSH FEW015 SCT050 BKN120 19/14 Q1009
YBBN,2014-12-13 16:30,153.1292,-27.3917,68.00,57.20,68.35,190.00,7.00,0.00,29.77,M,6.21,M,FEW,SCT,BKN,M,1500.00,4100.00,4900.00,M,VCSH,YBBN 131630Z 19007KT 9999 VCSH FEW015 SCT041 BKN049 20/14 Q1008
YBBN,2014-12-13 17:00,153.1292,-27.3917,68.00,57.20,68.35,180.00,7.00,0.00,29.77,M,6.21,M,FEW,SCT,BKN,M,1500.00,4100.00,12000.00,M,M,YBBN 131700Z 18007KT 9999 FEW015 SCT041 BKN120 20/14 Q1008
YBBN,2014-12-13 17:30,153.1292,-27.3917,68.00,57.20,68.35,200.00,7.00,0.00,29.77,M,6.21,M,FEW,BKN,M,M,1700.00,12000.00,M,M,M,YBBN 131730Z 20007KT 9999 FEW017 BKN120 20/14 Q1008
YBBN,2014-12-13 18:00,153.1292,-27.3917,66.20,57.20,72.74,190.00,7.00,0.00,29.77,M,6.21,M,FEW,SCT,BKN,M,1700.00,3500.00,12000.00,M,M,YBBN 131800Z 19007KT 9999 FEW017 SCT035 BKN120 19/14 Q1008
YBBN,2014-12-13 18:30,153.1292,-27.3917,66.20,57.20,72.74,210.00,8.00,0.00,29.80,M,6.21,M,FEW,SCT,BKN,M,1700.00,3400.00,12000.00,M,M,YBBN 131830Z 21008KT 9999 FEW017 SCT034 BKN120 19/14 Q1009
YBBN,2014-12-13 19:00,153.1292,-27.3917,66.20,57.20,72.74,210.00,9.00,0.00,29.80,M,6.21,M,FEW,SCT,BKN,M,1700.00,4200.00,15500.00,M,M,YBBN 131900Z 21009KT 9999 FEW017 SCT042 BKN155 19/14 Q1009 NOSIG
YBBN,2014-12-13 19:30,153.1292,-27.3917,66.20,59.00,77.60,210.00,10.00,0.00,29.80,M,6.21,M,FEW,BKN,M,M,1700.00,4000.00,M,M,M,YBBN 131930Z 21010KT 9999 FEW017 BKN040 19/15 Q1009
YBBN,2014-12-13 20:00,153.1292,-27.3917,66.20,57.20,72.74,200.00,8.00,0.00,29.80,M,6.21,M,FEW,SCT,BKN,M,1700.00,4200.00,17000.00,M,M,YBBN 132000Z 20008KT 9999 FEW017 SCT042 BKN170 19/14 Q1009 NOSIG
YBBN,2014-12-13 20:30,153.1292,-27.3917,68.00,59.00,72.92,200.00,8.00,0.00,29.80,M,6.21,M,FEW,SCT,BKN,M,1700.00,3900.00,16500.00,M,M,YBBN 132030Z 20008KT 9999 FEW017 SCT039 BKN165 20/15 Q1009 RMK DIST -SHRA E/SE
YBBN,2014-12-13 21:00,153.1292,-27.3917,69.80,57.20,64.26,200.00,9.00,0.00,29.83,M,6.21,M,FEW,SCT,BKN,M,1800.00,3200.00,16500.00,M,M,YBBN 132100Z 20009KT 9999 FEW018 SCT032 BKN165 21/14 Q1010 RMK DIST -SHRA NE
YBBN,2014-12-13 21:30,153.1292,-27.3917,69.80,57.20,64.26,190.00,10.00,0.00,29.83,M,6.21,M,FEW,BKN,M,M,1500.00,4200.00,M,M,M,YBBN 132130Z 19010KT 9999 FEW015 BKN042 21/14 Q1010 RMK DIST -SHRA E/NE
YBBN,2014-12-13 22:00,153.1292,-27.3917,71.60,57.20,60.44,180.00,9.00,0.00,29.83,M,6.21,M,FEW,SCT,BKN,M,1800.00,3500.00,4300.00,M,VCSH,YBBN 132200Z 18009KT 9999 VCSH FEW018 SCT035 BKN043 22/14 Q1010
YBBN,2014-12-13 22:30,153.1292,-27.3917,73.40,57.20,56.88,150.00,11.00,0.00,29.83,M,6.21,M,FEW,SCT,BKN,M,2000.00,3500.00,4800.00,M,M,YBBN 132230Z 15011KT 9999 FEW020 SCT035 BKN048 23/14 Q1010 RMK DIST -SHRA SE
YBBN,2014-12-13 23:00,153.1292,-27.3917,73.40,57.20,56.88,170.00,8.00,0.00,29.83,M,6.21,M,FEW,SCT,BKN,M,2200.00,3700.00,4800.00,M,M,YBBN 132300Z 17008KT 9999 FEW022 SCT037 BKN048 23/14 Q1010
YBBN,2014-12-13 23:30,153.1292,-27.3917,75.20,59.00,57.12,150.00,11.00,0.00,29.80,M,6.21,M,FEW,SCT,BKN,M,2300.00,2900.00,5600.00,M,M,YBBN 132330Z 15011KT 9999 FEW023 SCT029 BKN056 24/15 Q1009 RMK DIST -SHRA E/NE
