#DEBUG: Format Typ    -> comma
#DEBUG: Time Period   -> 2014-02-27 00:00:00+00:00 2014-02-28 00:00:00+00:00
#DEBUG: Time Zone     -> Etc/UTC
#DEBUG: Data Contact   -> daryl herzmann akrherz@iastate.edu 515-294-5978
#DEBUG: Entries Found -> -1
station,valid,lon,lat,tmpf, dwpf, relh, drct, sknt, p01i, alti, mslp, vsby, gust, skyc1, skyc2, skyc3, skyc4, skyl1, skyl2, skyl3, skyl4, presentwx, metar
YBBN,2014-02-27 00:00,153.1292,-27.3917,80.60,57.20,44.80,40.00,7.00,0.00,30.00,M,6.21,M,FEW,M,M,M,3800.00,M,M,M,M,YBBN 270000Z 04007KT 9999 FEW038 27/14 Q1016
YBBN,2014-02-27 00:30,153.1292,-27.3917,80.60,57.20,44.80,90.00,6.00,0.00,30.00,M,6.21,M,FEW,M,M,M,4000.00,M,M,M,M,YBBN 270030Z 09006KT 9999 FEW040 27/14 Q1016
YBBN,2014-02-27 01:00,153.1292,-27.3917,82.40,60.80,48.05,40.00,8.00,0.00,30.00,M,6.21,M,FEW,M,M,M,4500.00,M,M,M,M,YBBN 270100Z 04008KT 9999 FEW045 28/16 Q1016
YBBN,2014-02-27 01:30,153.1292,-27.3917,82.40,59.00,45.07,40.00,11.00,0.00,30.00,M,6.21,M,FEW,M,M,M,4500.00,M,M,M,M,YBBN 270130Z 04011KT 9999 FEW045 28/15 Q1016
YBBN,2014-02-27 02:00,153.1292,-27.3917,82.40,60.80,48.05,30.00,11.00,0.00,29.97,M,6.21,M,FEW,M,M,M,4500.00,M,M,M,M,YBBN 270200Z 03011KT 9999 FEW045 28/16 Q1015
YBBN,2014-02-27 02:30,153.1292,-27.3917,84.20,60.80,45.34,30.00,11.00,0.00,29.97,M,6.21,M,FEW,M,M,M,4500.00,M,M,M,M,YBBN 270230Z 03011KT 9999 FEW045 29/16 Q1015
YBBN,2014-02-27 03:00,153.1292,-27.3917,82.40,60.80,48.05,30.00,13.00,0.00,29.97,M,6.21,M,FEW,M,M,M,4500.00,M,M,M,M,YBBN 270300Z 03013KT 9999 FEW045 28/16 Q1015 NOSIG
YBBN,2014-02-27 03:30,153.1292,-27.3917,82.40,60.80,48.05,40.00,14.00,0.00,29.94,M,6.21,M,FEW,M,M,M,4500.00,M,M,M,M,YBBN 270330Z 04014KT 9999 FEW045 28/16 Q1014
YBBN,2014-02-27 04:00,153.1292,-27.3917,84.20,60.80,45.34,30.00,13.00,0.00,29.94,M,6.21,M,FEW,M,M,M,4500.00,M,M,M,M,YBBN 270400Z 03013KT 9999 FEW045 29/16 Q1014 NOSIG
YBBN,2014-02-27 04:30,153.1292,-27.3917,82.40,59.00,45.07,30.00,14.00,0.00,29.94,M,6.21,M,FEW,M,M,M,4500.00,M,M,M,M,YBBN 270430Z 03014KT 9999 FEW045 28/15 Q1014
YBBN,2014-02-27 05:00,153.1292,-27.3917,82.40,59.00,45.07,40.00,13.00,0.00,29.91,M,6.21,M,FEW,M,M,M,4500.00,M,M,M,M,YBBN 270500Z 04013KT 9999 FEW045 28/15 Q1013 NOSIG
YBBN,2014-02-27 05:30,153.1292,-27.3917,82.40,59.00,45.07,60.00,11.00,0.00,29.91,M,6.21,M,FEW,M,M,M,4500.00,M,M,M,M,YBBN 270530Z 06011KT 9999 FEW045 28/15 Q1013
YBBN,2014-02-27 06:00,153.1292,-27.3917,80.60,59.00,47.79,70.00,12.00,0.00,29.94,M,6.21,M,FEW,M,M,M,4500.00,M,M,M,M,YBBN 270600Z 07012KT 9999 FEW045 27/15 Q1014 NOSIG
YBBN,2014-02-27 06:30,153.1292,-27.3917,80.60,62.60,54.30,60.00,11.00,0.00,29.94,M,6.21,M,FEW,M,M,M,4000.00,M,M,M,M,YBBN 270630Z 06011KT 9999 FEW040 27/17 Q1014
YBBN,2014-02-27 07:00,153.1292,-27.3917,80.60,62.60,54.30,60.00,10.00,0.00,29.94,M,6.21,M,FEW,M,M,M,3500.00,M,M,M,M,YBBN 270700Z 06010KT 9999 FEW035 27/17 Q1014 NOSIG
YBBN,2014-02-27 07:30,153.1292,-27.3917,78.80,62.60,57.60,70.00,10.00,0.00,29.94,M,6.21,M,FEW,M,M,M,3500.00,M,M,M,M,YBBN 270730Z 07010KT 9999 FEW035 26/17 Q1014
YBBN,2014-02-27 08:00,153.1292,-27.3917,77.00,64.40,65.12,70.00,9.00,0.00,29.94,M,6.21,M,FEW,M,M,M,3500.00,M,M,M,M,YBBN 270800Z 07009KT 9999 FEW035 25/18 Q1014 NOSIG
YBBN,2014-02-27 08:30,153.1292,-27.3917,77.00,64.40,65.12,80.00,8.00,0.00,29.97,M,6.21,M,FEW,M,M,M,2400.00,M,M,M,M,YBBN 270830Z 08008KT 9999 FEW024 25/18 Q1015
YBBN,2014-02-27 09:00,153.1292,-27.3917,77.00,64.40,65.12,80.00,8.00,0.00,29.97,M,6.21,M,FEW,SCT,M,M,2300.00,2800.00,M,M,M,YBBN 270900Z 08008KT 9999 FEW023 SCT028 25/18 Q1015
YBBN,2014-02-27 09:30,153.1292,-27.3917,77.00,64.40,65.12,90.00,7.00,0.00,30.00,M,6.21,M,FEW,SCT,M,M,2300.00,2800.00,M,M,M,YBBN 270930Z 09007KT 9999 FEW023 SCT028 25/18 Q1016
YBBN,2014-02-27 10:00,153.1292,-27.3917,77.00,62.60,61.13,90.00,6.00,0.00,30.00,M,6.21,M,FEW,SCT,M,M,2200.00,2800.00,M,M,M,YBBN 271000Z 09006KT 9999 FEW022 SCT028 25/17 Q1016 NOSIG
YBBN,2014-02-27 10:30,153.1292,-27.3917,75.20,62.60,64.91,90.00,7.00,0.00,30.00,M,6.21,M,FEW,SCT,M,M,2000.00,2800.00,M,M,M,YBBN 271030Z 09007KT 9999 FEW020 SCT028 24/17 Q1016
YBBN,2014-02-27 11:00,153.1292,-27.3917,77.00,62.60,61.13,100.00,6.00,0.00,30.03,M,6.21,M,FEW,SCT,M,M,2000.00,2800.00,M,M,M,YBBN 271100Z 10006KT 9999 FEW020 SCT028 25/17 Q1017
YBBN,2014-02-27 11:30,153.1292,-27.3917,77.00,62.60,61.13,100.00,6.00,0.00,30.03,M,6.21,M,FEW,SCT,M,M,1900.00,4400.00,M,M,M,YBBN 271130Z 10006KT 9999 FEW019 SCT044 25/17 Q1017
YBBN,2014-02-27 12:00,153.1292,-27.3917,77.00,60.80,57.36,110.00,6.00,0.00,30.03,M,6.21,M,FEW,SCT,M,M,1900.00,4400.00,M,M,M,YBBN 271200Z 11006KT 9999 FEW019 SCT044 25/16 Q1017 NOSIG
YBBN,2014-02-27 12:30,153.1292,-27.3917,75.20,62.60,64.91,110.00,6.00,0.00,30.03,M,6.21,M,FEW,SCT,M,M,1900.00,2800.00,M,M,M,YBBN 271230Z 11006KT 9999 FEW019 SCT028 24/17 Q1017
YBBN,2014-02-27 13:00,153.1292,-27.3917,75.20,62.60,64.91,110.00,7.00,0.00,30.03,M,6.21,M,FEW,SCT,M,M,2000.00,2800.00,M,M,M,YBBN 271300Z 11007KT 9999 FEW020 SCT028 24/17 Q1017 NOSIG
YBBN,2014-02-27 13:30,153.1292,-27.3917,75.20,62.60,64.91,100.00,7.00,0.00,30.03,M,6.21,M,FEW,SCT,M,M,2300.00,2700.00,M,M,M,YBBN 271330Z 10007KT 9999 FEW023 SCT027 24/17 Q1017
YBBN,2014-02-27 14:00,153.1292,-27.3917,75.20,62.60,64.91,110.00,6.00,0.00,30.03,M,6.21,M,FEW,M,M,M,2300.00,M,M,M,M,YBBN 271400Z 11006KT 9999 FEW023 24/17 Q1017 NOSIG
YBBN,2014-02-27 14:30,153.1292,-27.3917,75.20,62.60,64.91,110.00,6.00,0.00,30.00,M,6.21,M,FEW,SCT,M,M,2300.00,4800.00,M,M,M,YBBN 271430Z 11006KT 9999 FEW023 SCT048 24/17 Q1016
YBBN,2014-02-27 15:00,153.1292,-27.3917,73.40,62.60,68.94,150.00,5.00,0.00,30.00,M,6.21,M,FEW,M,M,M,2300.00,M,M,M,M,YBBN 271500Z 15005KT 9999 FEW023 23/17 Q1016 NOSIG
YBBN,2014-02-27 15:30,153.1292,-27.3917,73.40,62.60,68.94,170.00,4.00,0.00,30.00,M,6.21,M,FEW,SCT,M,M,2200.00,4600.00,M,M,VCSH,YBBN 271530Z 17004KT 9999 VCSH FEW022 SCT046 23/17 Q1016 RMK -SHRA S/SE
YBBN,2014-02-27 16:00,153.1292,-27.3917,71.60,62.60,73.27,170.00,5.00,0.00,30.00,M,6.21,M,FEW,SCT,M,M,2200.00,4300.00,M,M,-SHRA,YBBN 271600Z 17005KT 9999 -SHRA FEW022 SCT043 22/17 Q1016 NOSIG
YBBN,2014-02-27 16:30,153.1292,-27.3917,71.60,64.40,78.04,160.00,5.00,0.00,30.00,M,6.21,M,FEW,M,M,M,2400.00,M,M,M,VCSH,YBBN 271630Z 16005KT 9999 VCSH FEW024 22/18 Q1016 RMK -SHRA NW/SE
YBBN,2014-02-27 17:00,153.1292,-27.3917,71.60,64.40,78.04,180.00,5.00,0.00,29.97,M,6.21,M,FEW,SCT,BKN,M,2300.00,2800.00,4800.00,M,-SHRA,YBBN 271700Z 18005KT 9999 -SHRA FEW023 SCT028 BKN048 22/18 Q1015
YBBN,2014-02-27 17:30,153.1292,-27.3917,71.60,62.60,73.27,160.00,5.00,0.00,29.97,M,6.21,M,FEW,M,M,M,2200.00,M,M,M,VCSH,YBBN 271730Z 16005KT 9999 VCSH FEW022 22/17 Q1015
YBBN,2014-02-27 18:00,153.1292,-27.3917,71.60,62.60,73.27,190.00,5.00,0.00,29.97,M,6.21,M,FEW,SCT,M,M,2200.00,6000.00,M,M,M,YBBN 271800Z 19005KT 9999 FEW022 SCT060 22/17 Q1015 RMK DIST -SHRA NW/SE
YBBN,2014-02-27 18:30,153.1292,-27.3917,71.60,62.60,73.27,190.00,6.00,0.00,30.00,M,6.21,M,FEW,BKN,M,M,2100.00,6200.00,M,M,-SHRA,YBBN 271830Z 19006KT 9999 -SHRA FEW021 BKN062 22/17 Q1016 RMK -SHRA E/NE
YBBN,2014-02-27 19:00,153.1292,-27.3917,71.60,62.60,73.27,200.00,1.00,0.00,30.00,M,6.21,M,FEW,SCT,BKN,M,1900.00,2800.00,4800.00,M,-SHRA,YBBN 271900Z 20001KT 9999 -SHRA FEW019 SCT028 BKN048 22/17 Q1016 INTER 1900/2200 3000 SHRA BKN015
YBBN,2014-02-27 19:33,153.1292,-27.3917,71.60,62.60,73.27,50.00,3.00,0.00,30.00,M,3.11,M,FEW,SCT,BKN,M,1700.00,2800.00,4800.00,M,SHRA,YBBN 271933Z 05003KT 5000 SHRA FEW017 SCT028 BKN048 22/17 Q1016
YBBN,2014-02-27 19:40,153.1292,-27.3917,69.80,66.20,88.34,110.00,7.00,0.00,30.00,M,1.86,M,FEW,SCT,BKN,M,1000.00,2800.00,4700.00,M,SHRA,YBBN 271940Z 11007KT 3000 SHRA FEW010 SCT028 BKN047 21/19 Q1016 FM1955 17006KT 9999 -SHRA SCT025 BKN045 INTER 1940/2240 3000 SHRA BKN015
YBBN,2014-02-27 20:00,153.1292,-27.3917,69.80,68.00,94.01,120.00,6.00,0.00,30.00,M,3.73,M,FEW,SCT,BKN,M,1000.00,2700.00,4400.00,M,-SHRA,YBBN 272000Z 12006KT 6000 -SHRA FEW010 SCT027 BKN044 21/20 Q1016
YBBN,2014-02-27 20:13,153.1292,-27.3917,71.60,66.20,83.09,100.00,7.00,0.00,30.00,M,5.59,M,FEW,SCT,BKN,M,800.00,2700.00,4800.00,M,-SHRA,YBBN 272013Z 10007KT 9000 -SHRA FEW008 SCT027 BKN048 22/19 Q1016
YBBN,2014-02-27 20:30,153.1292,-27.3917,69.80,66.20,88.34,190.00,7.00,0.00,30.03,M,4.97,M,FEW,SCT,BKN,M,800.00,2800.00,4500.00,M,VCSH,YBBN 272030Z 19007KT 8000 VCSH FEW008 SCT028 BKN045 21/19 Q1017
YBBN,2014-02-27 21:00,153.1292,-27.3917,71.60,68.00,88.43,200.00,5.00,0.00,30.03,M,6.21,M,FEW,SCT,BKN,M,1000.00,2800.00,5200.00,M,VCSH,YBBN 272100Z 20005KT 9999 VCSH FEW010 SCT028 BKN052 22/20 Q1017 INTER 2100/2400 3000 SHRA BKN015
YBBN,2014-02-27 21:30,153.1292,-27.3917,73.40,68.00,83.21,190.00,6.00,0.00,30.03,M,6.21,M,FEW,SCT,BKN,M,1000.00,2800.00,5700.00,M,M,YBBN 272130Z 19006KT 9999 FEW010 SCT028 BKN057 23/20 Q1017
YBBN,2014-02-27 22:00,153.1292,-27.3917,73.40,68.00,83.21,200.00,6.00,0.00,30.03,M,6.21,M,FEW,SCT,M,M,1200.00,2800.00,M,M,M,YBBN 272200Z 20006KT 9999 FEW012 SCT028 23/20 Q1017
YBBN,2014-02-27 22:30,153.1292,-27.3917,73.40,68.00,83.21,180.00,5.00,0.00,30.03,M,4.97,M,FEW,SCT,M,M,900.00,3000.00,M,M,-SHRA VCSH,YBBN 272230Z 18005KT 8000 -SHRA VCSH FEW009 SCT030 23/20 Q1017
YBBN,2014-02-27 23:00,153.1292,-27.3917,77.00,66.20,69.33,100.00,4.00,0.00,30.06,M,5.59,M,FEW,SCT,M,M,1100.00,3000.00,M,M,-SHRA VCSH,YBBN 272300Z 10004KT 9000 -SHRA VCSH FEW011 SCT030 25/19 Q1018
YBBN,2014-02-27 23:30,153.1292,-27.3917,77.00,68.00,73.78,110.00,7.00,0.00,30.06,M,6.21,M,FEW,BKN,M,M,1200.00,3000.00,M,M,VCSH,YBBN 272330Z 11007KT 9999 VCSH FEW012 BKN030 25/20 Q1018
