#DEBUG: Format Typ    -> comma
#DEBUG: Time Period   -> 2014-11-14 00:00:00+00:00 2014-11-15 00:00:00+00:00
#DEBUG: Time Zone     -> Etc/UTC
#DEBUG: Data Contact   -> daryl herzmann akrherz@iastate.edu 515-294-5978
#DEBUG: Entries Found -> -1
station,valid,lon,lat,tmpf, dwpf, relh, drct, sknt, p01i, alti, mslp, vsby, gust, skyc1, skyc2, skyc3, skyc4, skyl1, skyl2, skyl3, skyl4, presentwx, metar
YBBN,2014-11-14 00:00,153.1292,-27.3917,82.40,66.20,58.08,10.00,14.00,0.00,30.06,M,6.21,M,FEW,M,M,M,4000.00,M,M,M,M,YBBN 140000Z 01014KT 9999 FEW040 28/19 Q1018
YBBN,2014-11-14 00:30,153.1292,-27.3917,80.60,66.20,61.58,20.00,18.00,0.00,30.03,M,6.21,M,FEW,M,M,M,4000.00,M,M,M,M,YBBN 140030Z 02018KT 9999 FEW040 27/19 Q1017
YBBN,2014-11-14 01:00,153.1292,-27.3917,80.60,66.20,61.58,20.00,19.00,0.00,30.03,M,6.21,M,FEW,M,M,M,4000.00,M,M,M,M,YBBN 140100Z 02019KT 9999 FEW040 27/19 Q1017 NOSIG
YBBN,2014-11-14 01:30,153.1292,-27.3917,80.60,66.20,61.58,20.00,19.00,0.00,30.00,M,6.21,M,FEW,M,M,M,4500.00,M,M,M,M,YBBN 140130Z 02019KT 9999 FEW045 27/19 Q1016
YBBN,2014-11-14 02:00,153.1292,-27.3917,82.40,66.20,58.08,20.00,19.00,0.00,30.00,M,6.21,M,FEW,M,M,M,4500.00,M,M,M,M,YBBN 140200Z 02019KT 9999 FEW045 28/19 Q1016
YBBN,2014-11-14 02:30,153.1292,-27.3917,82.40,68.00,61.81,20.00,21.00,0.00,29.97,M,6.21,M,FEW,M,M,M,4500.00,M,M,M,M,YBBN 140230Z 02021KT 9999 FEW045 28/20 Q1015
YBBN,2014-11-14 03:00,153.1292,-27.3917,80.60,68.00,65.54,20.00,21.00,0.00,29.97,M,6.21,M,M,M,M,M,M,M,M,M,M,YBBN 140300Z 02021KT CAVOK 27/20 Q1015 NOSIG
YBBN,2014-11-14 03:30,153.1292,-27.3917,80.60,68.00,65.54,10.00,21.00,0.00,29.94,M,6.21,M,M,M,M,M,M,M,M,M,M,YBBN 140330Z 01021KT CAVOK 27/20 Q1014
YBBN,2014-11-14 04:00,153.1292,-27.3917,80.60,68.00,65.54,10.00,20.00,0.00,29.94,M,6.21,M,M,M,M,M,M,M,M,M,M,YBBN 140400Z 01020KT CAVOK 27/20 Q1014 FM0400 01020G30KT CAVOK FM0500 03017KT CAVOK
YBBN,2014-11-14 04:30,153.1292,-27.3917,80.60,68.00,65.54,10.00,20.00,0.00,29.94,M,6.21,M,M,M,M,M,M,M,M,M,M,YBBN 140430Z 01020KT CAVOK 27/20 Q1014
YBBN,2014-11-14 05:00,153.1292,-27.3917,80.60,66.20,61.58,10.00,20.00,0.00,29.94,M,6.21,M,M,M,M,M,M,M,M,M,M,YBBN 140500Z 01020KT CAVOK 27/19 Q1014 NOSIG
YBBN,2014-11-14 05:30,153.1292,-27.3917,80.60,68.00,65.54,10.00,19.00,0.00,29.94,M,6.21,M,M,M,M,M,M,M,M,M,M,YBBN 140530Z 01019KT CAVOK 27/20 Q1014
YBBN,2014-11-14 06:00,153.1292,-27.3917,78.80,68.00,69.52,10.00,17.00,0.00,29.91,M,6.21,M,M,M,M,M,M,M,M,M,M,YBBN 140600Z 01017KT CAVOK 26/20 Q1013 NOSIG
YBBN,2014-11-14 06:30,153.1292,-27.3917,78.80,69.80,73.95,10.00,18.00,0.00,29.91,M,6.21,M,M,M,M,M,M,M,M,M,M,YBBN 140630Z 01018KT CAVOK 26/21 Q1013
YBBN,2014-11-14 07:00,153.1292,-27.3917,78.80,68.00,69.52,10.00,17.00,0.00,29.94,M,6.21,M,M,M,M,M,M,M,M,M,M,YBBN 140700Z 01017KT CAVOK 26/20 Q1014
YBBN,2014-11-14 07:30,153.1292,-27.3917,77.00,68.00,73.78,10.00,18.00,0.00,29.94,M,6.21,M,M,M,M,M,M,M,M,M,M,YBBN 140730Z 01018KT CAVOK 25/20 Q1014
YBBN,2014-11-14 08:00,153.1292,-27.3917,77.00,69.80,78.48,10.00,19.00,0.00,29.94,M,6.21,M,M,M,M,M,M,M,M,M,M,YBBN 140800Z 01019KT CAVOK 25/21 Q1014 RMK HAZE/SMOKE
YBBN,2014-11-14 08:30,153.1292,-27.3917,77.00,68.00,73.78,10.00,19.00,0.00,29.94,M,6.21,M,FEW,M,M,M,2600.00,M,M,M,M,YBBN 140830Z 01019KT 9999 FEW026 25/20 Q1014
YBBN,2014-11-14 09:00,153.1292,-27.3917,77.00,69.80,78.48,360.00,19.00,0.00,29.94,M,6.21,M,FEW,M,M,M,2700.00,M,M,M,M,YBBN 140900Z 36019KT 9999 FEW027 25/21 Q1014 NOSIG
YBBN,2014-11-14 09:30,153.1292,-27.3917,77.00,69.80,78.48,10.00,20.00,0.00,29.94,M,6.21,M,M,M,M,M,M,M,M,M,M,YBBN 140930Z 01020KT CAVOK 25/21 Q1014 RMK HAZE
YBBN,2014-11-14 10:00,153.1292,-27.3917,77.00,69.80,78.48,360.00,20.00,0.00,29.97,M,6.21,M,M,M,M,M,M,M,M,M,M,YBBN 141000Z 36020KT CAVOK 25/21 Q1015 NOSIG
YBBN,2014-11-14 10:30,153.1292,-27.3917,75.20,69.80,83.32,360.00,20.00,0.00,29.97,M,6.21,M,FEW,M,M,M,1500.00,M,M,M,M,YBBN 141030Z 36020KT 9999 FEW015 24/21 Q1015 RMK HAZE
YBBN,2014-11-14 10:54,153.1292,-27.3917,77.00,69.80,78.48,360.00,19.00,0.00,29.97,M,6.21,30.00,M,M,M,M,M,M,M,M,M,YBBN 141054Z 36019G30KT CAVOK 25/21 Q1015
YBBN,2014-11-14 11:00,153.1292,-27.3917,77.00,69.80,78.48,360.00,19.00,0.00,29.97,M,6.21,31.00,M,M,M,M,M,M,M,M,M,YBBN 141100Z 36019G31KT CAVOK 25/21 Q1015
YBBN,2014-11-14 11:30,153.1292,-27.3917,77.00,68.00,73.78,360.00,18.00,0.00,29.97,M,6.21,M,M,M,M,M,M,M,M,M,M,YBBN 141130Z 36018KT CAVOK 25/20 Q1015 RMK HAZE
YBBN,2014-11-14 12:00,153.1292,-27.3917,77.00,64.40,65.12,360.00,18.00,0.00,29.97,M,6.21,M,M,M,M,M,M,M,M,M,M,YBBN 141200Z 36018KT CAVOK 25/18 Q1015
YBBN,2014-11-14 12:30,153.1292,-27.3917,77.00,62.60,61.13,360.00,15.00,0.00,29.97,M,6.21,M,M,M,M,M,M,M,M,M,M,YBBN 141230Z 36015KT CAVOK 25/17 Q1015 RMK HAZE
YBBN,2014-11-14 13:00,153.1292,-27.3917,75.20,64.40,69.14,360.00,16.00,0.00,29.94,M,6.21,M,M,M,M,M,M,M,M,M,M,YBBN 141300Z 36016KT CAVOK 24/18 Q1014 NOSIG
YBBN,2014-11-14 13:30,153.1292,-27.3917,75.20,62.60,64.91,360.00,16.00,0.00,29.94,M,6.21,M,M,M,M,M,M,M,M,M,M,YBBN 141330Z 36016KT CAVOK 24/17 Q1014 RMK HAZE
YBBN,2014-11-14 14:00,153.1292,-27.3917,73.40,64.40,73.44,360.00,16.00,0.00,29.94,M,6.21,M,M,M,M,M,M,M,M,M,M,YBBN 141400Z 36016KT CAVOK 23/18 Q1014 NOSIG
YBBN,2014-11-14 14:30,153.1292,-27.3917,73.40,64.40,73.44,350.00,15.00,0.00,29.94,M,6.21,M,M,M,M,M,M,M,M,M,M,YBBN 141430Z 35015KT CAVOK 23/18 Q1014
YBBN,2014-11-14 15:00,153.1292,-27.3917,73.40,64.40,73.44,350.00,13.00,0.00,29.91,M,6.21,M,M,M,M,M,M,M,M,M,M,YBBN 141500Z 35013KT CAVOK 23/18 Q1013
YBBN,2014-11-14 15:30,153.1292,-27.3917,73.40,64.40,73.44,350.00,14.00,0.00,29.91,M,6.21,M,M,M,M,M,M,M,M,M,M,YBBN 141530Z 35014KT CAVOK 23/18 Q1013
YBBN,2014-11-14 16:00,153.1292,-27.3917,73.40,64.40,73.44,350.00,13.00,0.00,29.91,M,6.21,M,M,M,M,M,M,M,M,M,M,YBBN 141600Z 35013KT CAVOK 23/18 Q1013 NOSIG
YBBN,2014-11-14 16:30,153.1292,-27.3917,73.40,64.40,73.44,350.00,12.00,0.00,29.91,M,6.21,M,M,M,M,M,M,M,M,M,M,YBBN 141630Z 35012KT CAVOK 23/18 Q1013
YBBN,2014-11-14 17:00,153.1292,-27.3917,71.60,64.40,78.04,330.00,9.00,0.00,29.91,M,6.21,M,M,M,M,M,M,M,M,M,M,YBBN 141700Z 33009KT CAVOK 22/18 Q1013 NOSIG
YBBN,2014-11-14 17:30,153.1292,-27.3917,69.80,64.40,82.98,330.00,10.00,0.00,29.91,M,6.21,M,M,M,M,M,M,M,M,M,M,YBBN 141730Z 33010KT CAVOK 21/18 Q1013
YBBN,2014-11-14 18:00,153.1292,-27.3917,69.80,64.40,82.98,340.00,9.00,0.00,29.91,M,6.21,M,M,M,M,M,M,M,M,M,M,YBBN 141800Z 34009KT CAVOK 21/18 Q1013 NOSIG
YBBN,2014-11-14 18:30,153.1292,-27.3917,71.60,66.20,83.09,350.00,9.00,0.00,29.91,M,6.21,M,M,M,M,M,M,M,M,M,M,YBBN 141830Z 35009KT CAVOK 22/19 Q1013
YBBN,2014-11-14 19:00,153.1292,-27.3917,71.60,66.20,83.09,350.00,10.00,0.00,29.91,M,6.21,M,M,M,M,M,M,M,M,M,M,YBBN 141900Z 35010KT CAVOK 22/19 Q1013 NOSIG
YBBN,2014-11-14 19:30,153.1292,-27.3917,73.40,66.20,78.19,350.00,10.00,0.00,29.91,M,6.21,M,M,M,M,M,M,M,M,M,M,YBBN 141930Z 35010KT CAVOK 23/19 Q1013
YBBN,2014-11-14 20:00,153.1292,-27.3917,75.20,66.20,73.61,350.00,11.00,0.00,29.94,M,6.21,M,M,M,M,M,M,M,M,M,M,YBBN 142000Z 35011KT CAVOK 24/19 Q1014 NOSIG
YBBN,2014-11-14 20:30,153.1292,-27.3917,75.20,66.20,73.61,350.00,10.00,0.00,29.94,M,6.21,M,M,M,M,M,M,M,M,M,M,YBBN 142030Z 35010KT CAVOK 24/19 Q1014
YBBN,2014-11-14 21:00,153.1292,-27.3917,77.00,66.20,69.33,350.00,10.00,0.00,29.94,M,6.21,M,M,M,M,M,M,M,M,M,M,YBBN 142100Z 35010KT CAVOK 25/19 Q1014 NOSIG
YBBN,2014-11-14 21:30,153.1292,-27.3917,77.00,66.20,69.33,350.00,11.00,0.00,29.94,M,6.21,M,M,M,M,M,M,M,M,M,M,YBBN 142130Z 35011KT CAVOK 25/19 Q1014
YBBN,2014-11-14 22:00,153.1292,-27.3917,77.00,66.20,69.33,350.00,10.00,0.00,29.94,M,6.21,M,M,M,M,M,M,M,M,M,M,YBBN 142200Z 35010KT CAVOK 25/19 Q1014 NOSIG
YBBN,2014-11-14 22:30,153.1292,-27.3917,80.60,66.20,61.58,360.00,12.00,0.00,29.91,M,6.21,M,M,M,M,M,M,M,M,M,M,YBBN 142230Z 36012KT CAVOK 27/19 Q1013
YBBN,2014-11-14 23:00,153.1292,-27.3917,80.60,66.20,61.58,360.00,12.00,0.00,29.91,M,6.21,M,M,M,M,M,M,M,M,M,M,YBBN 142300Z 36012KT CAVOK 27/19 Q1013 NOSIG
YBBN,2014-11-14 23:30,153.1292,-27.3917,82.40,66.20,58.08,10.00,14.00,0.00,29.91,M,6.21,M,M,M,M,M,M,M,M,M,M,YBBN 142330Z 01014KT CAVOK 28/19 Q1013
