#DEBUG: Format Typ    -> comma
#DEBUG: Time Period   -> 2014-03-02 00:00:00+00:00 2014-03-03 00:00:00+00:00
#DEBUG: Time Zone     -> Etc/UTC
#DEBUG: Data Contact   -> daryl herzmann akrherz@iastate.edu 515-294-5978
#DEBUG: Entries Found -> -1
station,valid,lon,lat,tmpf, dwpf, relh, drct, sknt, p01i, alti, mslp, vsby, gust, skyc1, skyc2, skyc3, skyc4, skyl1, skyl2, skyl3, skyl4, presentwx, metar
YBBN,2014-03-02 00:00,153.1292,-27.3917,82.40,62.60,51.21,120.00,8.00,0.00,30.00,M,6.21,M,SCT,M,M,M,3500.00,M,M,M,M,YBBN 020000Z 12008KT 9999 SCT035 28/17 Q1016 NOSIG
YBBN,2014-03-02 00:30,153.1292,-27.3917,82.40,62.60,51.21,120.00,8.00,0.00,30.00,M,6.21,M,FEW,M,M,M,3500.00,M,M,M,M,YBBN 020030Z 12008KT 9999 FEW035 28/17 Q1016
YBBN,2014-03-02 01:00,153.1292,-27.3917,82.40,62.60,51.21,90.00,9.00,0.00,30.00,M,6.21,M,FEW,M,M,M,3500.00,M,M,M,M,YBBN 020100Z 09009KT 9999 FEW035 28/17 Q1016
YBBN,2014-03-02 01:30,153.1292,-27.3917,82.40,64.40,54.55,50.00,13.00,0.00,30.00,M,6.21,M,SCT,M,M,M,3500.00,M,M,M,M,YBBN 020130Z 05013KT 9999 SCT035 28/18 Q1016
YBBN,2014-03-02 02:00,153.1292,-27.3917,82.40,64.40,54.55,60.00,12.00,0.00,30.00,M,6.21,M,SCT,M,M,M,3200.00,M,M,M,M,YBBN 020200Z 06012KT 9999 SCT032 28/18 Q1016
YBBN,2014-03-02 02:30,153.1292,-27.3917,82.40,62.60,51.21,70.00,12.00,0.00,30.00,M,6.21,M,BKN,M,M,M,3200.00,M,M,M,M,YBBN 020230Z 07012KT 9999 BKN032 28/17 Q1016
YBBN,2014-03-02 03:00,153.1292,-27.3917,80.60,62.60,54.30,70.00,14.00,0.00,29.97,M,6.21,M,BKN,M,M,M,3500.00,M,M,M,M,YBBN 020300Z 07014KT 9999 BKN035 27/17 Q1015
YBBN,2014-03-02 03:30,153.1292,-27.3917,82.40,62.60,51.21,110.00,10.00,0.00,29.97,M,6.21,M,SCT,M,M,M,3300.00,M,M,M,M,YBBN 020330Z 11010KT 9999 SCT033 28/17 Q1015
YBBN,2014-03-02 04:00,153.1292,-27.3917,82.40,60.80,48.05,90.00,11.00,0.00,29.97,M,6.21,M,FEW,M,M,M,3400.00,M,M,M,M,YBBN 020400Z 09011KT 9999 FEW034 28/16 Q1015
YBBN,2014-03-02 04:30,153.1292,-27.3917,82.40,60.80,48.05,90.00,11.00,0.00,29.94,M,6.21,M,FEW,M,M,M,3500.00,M,M,M,M,YBBN 020430Z 09011KT 9999 FEW035 28/16 Q1014
YBBN,2014-03-02 05:00,153.1292,-27.3917,82.40,60.80,48.05,100.00,10.00,0.00,29.94,M,6.21,M,FEW,M,M,M,3700.00,M,M,M,M,YBBN 020500Z 10010KT 9999 FEW037 28/16 Q1014 NOSIG
YBBN,2014-03-02 05:30,153.1292,-27.3917,80.60,64.40,57.84,100.00,9.00,0.00,29.94,M,6.21,M,SCT,M,M,M,3800.00,M,M,M,M,YBBN 020530Z 10009KT 9999 SCT038 27/18 Q1014
YBBN,2014-03-02 06:00,153.1292,-27.3917,80.60,62.60,54.30,100.00,10.00,0.00,29.97,M,6.21,M,SCT,M,M,M,3600.00,M,M,M,M,YBBN 020600Z 10010KT 9999 SCT036 27/17 Q1015
YBBN,2014-03-02 06:30,153.1292,-27.3917,80.60,62.60,54.30,100.00,10.00,0.00,29.97,M,6.21,M,FEW,M,M,M,3500.00,M,M,M,M,YBBN 020630Z 10010KT 9999 FEW035 27/17 Q1015
YBBN,2014-03-02 07:00,153.1292,-27.3917,78.80,62.60,57.60,90.00,10.00,0.00,29.97,M,6.21,M,FEW,M,M,M,3500.00,M,M,M,M,YBBN 020700Z 09010KT 9999 FEW035 26/17 Q1015
YBBN,2014-03-02 07:30,153.1292,-27.3917,78.80,62.60,57.60,110.00,9.00,0.00,29.97,M,6.21,M,FEW,M,M,M,3300.00,M,M,M,M,YBBN 020730Z 11009KT 9999 FEW033 26/17 Q1015
YBBN,2014-03-02 08:00,153.1292,-27.3917,77.00,64.40,65.12,110.00,9.00,0.00,30.00,M,6.21,M,FEW,M,M,M,3200.00,M,M,M,M,YBBN 020800Z 11009KT 9999 FEW032 25/18 Q1016 NOSIG
YBBN,2014-03-02 08:30,153.1292,-27.3917,77.00,64.40,65.12,110.00,7.00,0.00,30.00,M,6.21,M,FEW,M,M,M,3200.00,M,M,M,M,YBBN 020830Z 11007KT 9999 FEW032 25/18 Q1016
YBBN,2014-03-02 09:00,153.1292,-27.3917,77.00,64.40,65.12,110.00,9.00,0.00,30.00,M,6.21,M,FEW,M,M,M,3200.00,M,M,M,M,YBBN 020900Z 11009KT 9999 FEW032 25/18 Q1016 NOSIG
YBBN,2014-03-02 09:30,153.1292,-27.3917,77.00,66.20,69.33,110.00,9.00,0.00,30.03,M,6.21,M,FEW,M,M,M,3200.00,M,M,M,M,YBBN 020930Z 11009KT 9999 FEW032 25/19 Q1017
YBBN,2014-03-02 10:00,153.1292,-27.3917,75.20,66.20,73.61,110.00,8.00,0.00,30.03,M,6.21,M,FEW,M,M,M,3200.00,M,M,M,M,YBBN 021000Z 11008KT 9999 FEW032 24/19 Q1017
YBBN,2014-03-02 10:30,153.1292,-27.3917,77.00,66.20,69.33,100.00,7.00,0.00,30.03,M,6.21,M,FEW,M,M,M,2900.00,M,M,M,M,YBBN 021030Z 10007KT 9999 FEW029 25/19 Q1017
YBBN,2014-03-02 11:00,153.1292,-27.3917,77.00,66.20,69.33,110.00,7.00,0.00,30.06,M,6.21,M,FEW,SCT,M,M,2500.00,2800.00,M,M,M,YBBN 021100Z 11007KT 9999 FEW025 SCT028 25/19 Q1018
YBBN,2014-03-02 11:30,153.1292,-27.3917,77.00,64.40,65.12,100.00,8.00,0.00,30.06,M,6.21,M,FEW,M,M,M,2700.00,M,M,M,M,YBBN 021130Z 10008KT 9999 FEW027 25/18 Q1018
YBBN,2014-03-02 12:00,153.1292,-27.3917,75.20,64.40,69.14,120.00,8.00,0.00,30.06,M,6.21,M,FEW,SCT,M,M,2700.00,4700.00,M,M,M,YBBN 021200Z 12008KT 9999 FEW027 SCT047 24/18 Q1018 INTER 1200/1500 3000 SHRA BKN013
YBBN,2014-03-02 12:30,153.1292,-27.3917,73.40,68.00,83.21,100.00,6.00,0.00,30.03,M,6.21,M,FEW,SCT,M,M,2700.00,4700.00,M,M,M,YBBN 021230Z 10006KT 9999 FEW027 SCT047 23/20 Q1017
YBBN,2014-03-02 13:00,153.1292,-27.3917,75.20,66.20,73.61,100.00,8.00,0.00,30.03,M,6.21,M,FEW,SCT,M,M,2200.00,2800.00,M,M,M,YBBN 021300Z 10008KT 9999 FEW022 SCT028 24/19 Q1017 INTER 1300/1600 3000 SHRA BKN013
YBBN,2014-03-02 13:30,153.1292,-27.3917,75.20,66.20,73.61,100.00,8.00,0.00,30.03,M,6.21,M,FEW,SCT,M,M,2200.00,2800.00,M,M,M,YBBN 021330Z 10008KT 9999 FEW022 SCT028 24/19 Q1017
YBBN,2014-03-02 14:00,153.1292,-27.3917,75.20,66.20,73.61,110.00,9.00,0.00,30.03,M,6.21,M,FEW,BKN,M,M,2200.00,5000.00,M,M,M,YBBN 021400Z 11009KT 9999 FEW022 BKN050 24/19 Q1017 INTER 1400/1700 3000 SHRA BKN013
YBBN,2014-03-02 14:30,153.1292,-27.3917,75.20,66.20,73.61,100.00,8.00,0.00,30.03,M,6.21,M,FEW,SCT,M,M,2200.00,5000.00,M,M,M,YBBN 021430Z 10008KT 9999 FEW022 SCT050 24/19 Q1017
YBBN,2014-03-02 15:00,153.1292,-27.3917,75.20,66.20,73.61,100.00,7.00,0.00,30.03,M,6.21,M,FEW,SCT,M,M,2200.00,4500.00,M,M,M,YBBN 021500Z 10007KT 9999 FEW022 SCT045 24/19 Q1017 INTER 1500/1800 3000 SHRA BKN013
YBBN,2014-03-02 15:30,153.1292,-27.3917,75.20,66.20,73.61,100.00,8.00,0.00,30.03,M,6.21,M,FEW,SCT,BKN,M,2500.00,4500.00,5500.00,M,M,YBBN 021530Z 10008KT 9999 FEW025 SCT045 BKN055 24/19 Q1017
YBBN,2014-03-02 16:00,153.1292,-27.3917,75.20,64.40,69.14,110.00,8.00,0.00,30.03,M,6.21,M,FEW,SCT,M,M,2500.00,5500.00,M,M,M,YBBN 021600Z 11008KT 9999 FEW025 SCT055 24/18 Q1017
YBBN,2014-03-02 16:30,153.1292,-27.3917,75.20,66.20,73.61,100.00,8.00,0.00,30.03,M,6.21,M,FEW,SCT,M,M,2500.00,3000.00,M,M,M,YBBN 021630Z 10008KT 9999 FEW025 SCT030 24/19 Q1017
YBBN,2014-03-02 17:00,153.1292,-27.3917,75.20,64.40,69.14,100.00,8.00,0.00,30.03,M,6.21,M,FEW,M,M,M,2500.00,M,M,M,M,YBBN 021700Z 10008KT 9999 FEW025 24/18 Q1017 INTER 1700/2000 3000 SHRA BKN013
YBBN,2014-03-02 17:30,153.1292,-27.3917,75.20,64.40,69.14,120.00,9.00,0.00,30.03,M,6.21,M,FEW,SCT,M,M,2500.00,5500.00,M,M,M,YBBN 021730Z 12009KT 9999 FEW025 SCT055 24/18 Q1017
YBBN,2014-03-02 18:00,153.1292,-27.3917,75.20,64.40,69.14,100.00,9.00,0.00,30.03,M,6.21,M,FEW,SCT,M,M,2600.00,3300.00,M,M,-SHRA,YBBN 021800Z 10009KT 9999 -SHRA FEW026 SCT033 24/18 Q1017 INTER 1800/2100 3000 SHRA BKN013
YBBN,2014-03-02 18:30,153.1292,-27.3917,75.20,62.60,64.91,110.00,7.00,0.00,30.06,M,6.21,M,FEW,SCT,M,M,3000.00,4400.00,M,M,M,YBBN 021830Z 11007KT 9999 FEW030 SCT044 24/17 Q1018
YBBN,2014-03-02 19:00,153.1292,-27.3917,75.20,62.60,64.91,110.00,8.00,0.00,30.06,M,6.21,M,FEW,M,M,M,3000.00,M,M,M,M,YBBN 021900Z 11008KT 9999 FEW030 24/17 Q1018 INTER 1900/2200 3000 SHRA BKN013
YBBN,2014-03-02 19:30,153.1292,-27.3917,75.20,62.60,64.91,100.00,9.00,0.00,30.06,M,6.21,M,FEW,M,M,M,3000.00,M,M,M,M,YBBN 021930Z 10009KT 9999 FEW030 24/17 Q1018
YBBN,2014-03-02 20:00,153.1292,-27.3917,75.20,62.60,64.91,120.00,8.00,0.00,30.06,M,6.21,M,FEW,SCT,M,M,3000.00,5000.00,M,M,M,YBBN 022000Z 12008KT 9999 FEW030 SCT050 24/17 Q1018 INTER 2000/2300 3000 SHRA BKN013
YBBN,2014-03-02 20:30,153.1292,-27.3917,77.00,62.60,61.13,110.00,7.00,0.00,30.09,M,6.21,M,FEW,BKN,M,M,3000.00,5500.00,M,M,VCSH,YBBN 022030Z 11007KT 9999 VCSH FEW030 BKN055 25/17 Q1019 RMK SH TO S
YBBN,2014-03-02 21:00,153.1292,-27.3917,75.20,64.40,69.14,150.00,9.00,0.00,30.09,M,6.21,M,FEW,BKN,M,M,3400.00,5300.00,M,M,-SHRA,YBBN 022100Z 15009KT 9999 -SHRA FEW034 BKN053 24/18 Q1019 INTER 2100/2300 3000 SHRA BKN013
YBBN,2014-03-02 21:30,153.1292,-27.3917,77.00,62.60,61.13,140.00,7.00,0.00,30.12,M,6.21,M,FEW,SCT,M,M,3500.00,5300.00,M,M,M,YBBN 022130Z 14007KT 9999 FEW035 SCT053 25/17 Q1020 RMK DISTANT SHOWER TO W
YBBN,2014-03-02 22:00,153.1292,-27.3917,77.00,64.40,65.12,110.00,7.00,0.00,30.12,M,6.21,M,FEW,SCT,BKN,M,1200.00,3000.00,5500.00,M,-SHRA,YBBN 022200Z 11007KT 9999 4000S -SHRA FEW012 SCT030 BKN055 25/18 Q1020
YBBN,2014-03-02 22:30,153.1292,-27.3917,78.80,64.40,61.36,90.00,11.00,0.00,30.12,M,6.21,M,FEW,SCT,BKN,M,1200.00,3000.00,7500.00,M,VCSH,YBBN 022230Z 09011KT 9999 VCSH FEW012 SCT030 BKN075 26/18 Q1020 RMK SHOWERS TO S
YBBN,2014-03-02 23:00,153.1292,-27.3917,75.20,66.20,73.61,170.00,9.00,0.00,30.15,M,6.21,M,FEW,SCT,BKN,M,1200.00,3000.00,7800.00,M,-SHRA,YBBN 022300Z 17009KT 9999 -SHRA FEW012 SCT030 BKN078 24/19 Q1021 NOSIG
YBBN,2014-03-02 23:30,153.1292,-27.3917,77.00,66.20,69.33,110.00,11.00,0.00,30.15,M,6.21,M,FEW,SCT,BKN,M,1200.00,3000.00,4200.00,M,VCSH,YBBN 022330Z 11011KT 9999 VCSH FEW012 SCT030 BKN042 25/19 Q1021 RMK SHOWERS TO S
