#DEBUG: Format Typ    -> comma
#DEBUG: Time Period   -> 2014-12-23 00:00:00+00:00 2014-12-24 00:00:00+00:00
#DEBUG: Time Zone     -> Etc/UTC
#DEBUG: Data Contact   -> daryl herzmann akrherz@iastate.edu 515-294-5978
#DEBUG: Entries Found -> -1
station,valid,lon,lat,tmpf, dwpf, relh, drct, sknt, p01i, alti, mslp, vsby, gust, skyc1, skyc2, skyc3, skyc4, skyl1, skyl2, skyl3, skyl4, presentwx, metar
YBBN,2014-12-23 00:00,153.1292,-27.3917,78.80,62.60,57.60,70.00,7.00,0.00,30.00,M,6.21,M,FEW,M,M,M,3000.00,M,M,M,M,YBBN 230000Z 07007KT 9999 FEW030 26/17 Q1016
YBBN,2014-12-23 00:30,153.1292,-27.3917,78.80,62.60,57.60,80.00,6.00,0.00,30.00,M,6.21,M,FEW,M,M,M,3000.00,M,M,M,M,YBBN 230030Z 08006KT 9999 FEW030 26/17 Q1016
YBBN,2014-12-23 01:00,153.1292,-27.3917,80.60,60.80,50.95,80.00,8.00,0.00,30.00,M,6.21,M,FEW,M,M,M,3000.00,M,M,M,M,YBBN 230100Z 08008KT 9999 FEW030 27/16 Q1016 NOSIG
YBBN,2014-12-23 01:30,153.1292,-27.3917,78.80,62.60,57.60,60.00,10.00,0.00,29.97,M,6.21,M,FEW,M,M,M,3000.00,M,M,M,M,YBBN 230130Z 06010KT 9999 FEW030 26/17 Q1015
YBBN,2014-12-23 02:00,153.1292,-27.3917,80.60,62.60,54.30,70.00,10.00,0.00,29.97,M,6.21,M,FEW,SCT,M,M,3500.00,22000.00,M,M,M,YBBN 230200Z 07010KT 9999 FEW035 SCT220 27/17 Q1015 NOSIG
YBBN,2014-12-23 02:30,153.1292,-27.3917,78.80,60.80,54.05,70.00,9.00,0.00,29.97,M,6.21,M,FEW,BKN,M,M,3500.00,27000.00,M,M,M,YBBN 230230Z 07009KT 9999 FEW035 BKN270 26/16 Q1015
YBBN,2014-12-23 03:00,153.1292,-27.3917,80.60,62.60,54.30,40.00,11.00,0.00,29.97,M,6.21,M,FEW,BKN,M,M,3500.00,27000.00,M,M,M,YBBN 230300Z 04011KT 9999 FEW035 BKN270 27/17 Q1015 NOSIG
YBBN,2014-12-23 03:30,153.1292,-27.3917,78.80,62.60,57.60,70.00,9.00,0.00,29.97,M,6.21,M,FEW,BKN,M,M,3500.00,27000.00,M,M,M,YBBN 230330Z 07009KT 9999 FEW035 BKN270 26/17 Q1015
YBBN,2014-12-23 04:00,153.1292,-27.3917,78.80,62.60,57.60,50.00,11.00,0.00,29.94,M,6.21,M,FEW,BKN,M,M,3500.00,27000.00,M,M,M,YBBN 230400Z 05011KT 9999 FEW035 BKN270 26/17 Q1014 NOSIG
YBBN,2014-12-23 04:30,153.1292,-27.3917,80.60,62.60,54.30,50.00,12.00,0.00,29.94,M,6.21,M,FEW,M,M,M,3500.00,M,M,M,M,YBBN 230430Z 05012KT 9999 FEW035 27/17 Q1014
YBBN,2014-12-23 05:00,153.1292,-27.3917,80.60,60.80,50.95,50.00,14.00,0.00,29.94,M,6.21,M,FEW,SCT,M,M,3500.00,27000.00,M,M,M,YBBN 230500Z 05014KT 9999 FEW035 SCT270 27/16 Q1014 NOSIG
YBBN,2014-12-23 05:30,153.1292,-27.3917,78.80,60.80,54.05,70.00,10.00,0.00,29.94,M,6.21,M,FEW,BKN,M,M,3500.00,27000.00,M,M,M,YBBN 230530Z 07010KT 9999 FEW035 BKN270 26/16 Q1014
YBBN,2014-12-23 06:00,153.1292,-27.3917,78.80,60.80,54.05,60.00,10.00,0.00,29.94,M,6.21,M,FEW,SCT,BKN,M,3500.00,21000.00,27000.00,M,M,YBBN 230600Z 06010KT 9999 FEW035 SCT210 BKN270 26/16 Q1014
YBBN,2014-12-23 06:30,153.1292,-27.3917,78.80,62.60,57.60,70.00,9.00,0.00,29.94,M,6.21,M,FEW,BKN,M,M,3500.00,27000.00,M,M,M,YBBN 230630Z 07009KT 9999 FEW035 BKN270 26/17 Q1014
YBBN,2014-12-23 07:00,153.1292,-27.3917,77.00,60.80,57.36,60.00,10.00,0.00,29.94,M,6.21,M,FEW,BKN,M,M,3500.00,27000.00,M,M,M,YBBN 230700Z 06010KT 9999 FEW035 BKN270 25/16 Q1014 NOSIG
YBBN,2014-12-23 07:30,153.1292,-27.3917,77.00,60.80,57.36,70.00,9.00,0.00,29.94,M,6.21,M,FEW,BKN,M,M,3500.00,27000.00,M,M,M,YBBN 230730Z 07009KT 9999 FEW035 BKN270 25/16 Q1014
YBBN,2014-12-23 08:00,153.1292,-27.3917,77.00,60.80,57.36,50.00,9.00,0.00,29.94,M,6.21,M,FEW,BKN,M,M,3500.00,27000.00,M,M,M,YBBN 230800Z 05009KT 9999 FEW035 BKN270 25/16 Q1014 NOSIG
YBBN,2014-12-23 08:30,153.1292,-27.3917,75.20,60.80,60.90,50.00,7.00,0.00,29.97,M,6.21,M,FEW,BKN,M,M,2400.00,27000.00,M,M,M,YBBN 230830Z 05007KT 9999 FEW024 BKN270 24/16 Q1015
YBBN,2014-12-23 09:00,153.1292,-27.3917,75.20,62.60,64.91,50.00,8.00,0.00,29.97,M,6.21,M,FEW,BKN,M,M,3200.00,27000.00,M,M,M,YBBN 230900Z 05008KT 9999 FEW032 BKN270 24/17 Q1015
YBBN,2014-12-23 09:30,153.1292,-27.3917,75.20,62.60,64.91,50.00,8.00,0.00,29.97,M,6.21,M,FEW,BKN,M,M,3000.00,27000.00,M,M,M,YBBN 230930Z 05008KT 9999 FEW030 BKN270 24/17 Q1015
YBBN,2014-12-23 10:00,153.1292,-27.3917,75.20,62.60,64.91,50.00,6.00,0.00,29.97,M,6.21,M,FEW,SCT,BKN,M,2600.00,22000.00,27000.00,M,M,YBBN 231000Z 05006KT 9999 FEW026 SCT220 BKN270 24/17 Q1015 NOSIG
YBBN,2014-12-23 10:30,153.1292,-27.3917,73.40,62.60,68.94,50.00,6.00,0.00,29.97,M,6.21,M,FEW,SCT,M,M,2600.00,22000.00,M,M,M,YBBN 231030Z 05006KT 9999 FEW026 SCT220 23/17 Q1015
YBBN,2014-12-23 11:00,153.1292,-27.3917,75.20,62.60,64.91,60.00,5.00,0.00,29.97,M,6.21,M,FEW,SCT,BKN,M,2400.00,22000.00,27000.00,M,M,YBBN 231100Z 06005KT 9999 FEW024 SCT220 BKN270 24/17 Q1015 NOSIG
YBBN,2014-12-23 11:30,153.1292,-27.3917,75.20,62.60,64.91,60.00,6.00,0.00,29.97,M,6.21,M,FEW,SCT,BKN,M,2300.00,20000.00,26000.00,M,M,YBBN 231130Z 06006KT 9999 FEW023 SCT200 BKN260 24/17 Q1015
YBBN,2014-12-23 12:00,153.1292,-27.3917,73.40,64.40,73.44,60.00,7.00,0.00,29.97,M,6.21,M,FEW,SCT,M,M,2300.00,2900.00,M,M,M,YBBN 231200Z 06007KT 9999 FEW023 SCT029 23/18 Q1015 NOSIG
YBBN,2014-12-23 12:30,153.1292,-27.3917,73.40,64.40,73.44,50.00,5.00,0.00,29.97,M,6.21,M,FEW,SCT,BKN,M,2300.00,2900.00,3500.00,M,M,YBBN 231230Z 05005KT 9999 FEW023 SCT029 BKN035 23/18 Q1015
YBBN,2014-12-23 13:00,153.1292,-27.3917,71.60,64.40,78.04,40.00,5.00,0.00,29.97,M,6.21,M,FEW,SCT,M,M,2300.00,3300.00,M,M,M,YBBN 231300Z 04005KT 9999 FEW023 SCT033 22/18 Q1015 NOSIG
YBBN,2014-12-23 13:30,153.1292,-27.3917,71.60,64.40,78.04,30.00,6.00,0.00,29.94,M,6.21,M,FEW,SCT,M,M,2200.00,3400.00,M,M,M,YBBN 231330Z 03006KT 9999 FEW022 SCT034 22/18 Q1014
YBBN,2014-12-23 14:00,153.1292,-27.3917,71.60,64.40,78.04,30.00,6.00,0.00,29.94,M,6.21,M,FEW,SCT,M,M,2200.00,3400.00,M,M,M,YBBN 231400Z 03006KT 9999 FEW022 SCT034 22/18 Q1014 NOSIG
YBBN,2014-12-23 14:30,153.1292,-27.3917,71.60,62.60,73.27,50.00,5.00,0.00,29.91,M,6.21,M,FEW,SCT,M,M,2400.00,26000.00,M,M,M,YBBN 231430Z 05005KT 9999 FEW024 SCT260 22/17 Q1013
YBBN,2014-12-23 15:00,153.1292,-27.3917,69.80,62.60,77.90,20.00,4.00,0.00,29.91,M,6.21,M,FEW,SCT,M,M,2400.00,17000.00,M,M,M,YBBN 231500Z 02004KT 9999 FEW024 SCT170 21/17 Q1013 NOSIG
YBBN,2014-12-23 15:30,153.1292,-27.3917,71.60,62.60,73.27,60.00,3.00,0.00,29.91,M,6.21,M,FEW,SCT,M,M,2300.00,2800.00,M,M,M,YBBN 231530Z 06003KT 9999 FEW023 SCT028 22/17 Q1013
YBBN,2014-12-23 16:00,153.1292,-27.3917,71.60,64.40,78.04,0.00,0.00,0.00,29.91,M,6.21,M,FEW,SCT,M,M,1800.00,3400.00,M,M,M,YBBN 231600Z 00000KT 9999 FEW018 SCT034 22/18 Q1013 NOSIG
YBBN,2014-12-23 16:30,153.1292,-27.3917,69.80,64.40,82.98,260.00,1.00,0.00,29.91,M,6.21,M,FEW,M,M,M,1900.00,M,M,M,M,YBBN 231630Z 26001KT 9999 FEW019 21/18 Q1013
YBBN,2014-12-23 17:00,153.1292,-27.3917,69.80,62.60,77.90,270.00,2.00,0.00,29.91,M,6.21,M,FEW,M,M,M,2200.00,M,M,M,M,YBBN 231700Z 27002KT 9999 FEW022 21/17 Q1013
YBBN,2014-12-23 17:30,153.1292,-27.3917,69.80,64.40,82.98,270.00,6.00,0.00,29.91,M,6.21,M,FEW,M,M,M,2000.00,M,M,M,M,YBBN 231730Z 27006KT 9999 FEW020 21/18 Q1013
YBBN,2014-12-23 18:00,153.1292,-27.3917,69.80,62.60,77.90,250.00,5.00,0.00,29.91,M,6.21,M,FEW,SCT,M,M,2000.00,23000.00,M,M,M,YBBN 231800Z 25005KT 9999 FEW020 SCT230 21/17 Q1013 NOSIG
YBBN,2014-12-23 18:30,153.1292,-27.3917,69.80,62.60,77.90,270.00,4.00,0.00,29.91,M,6.21,M,FEW,SCT,M,M,2000.00,23000.00,M,M,M,YBBN 231830Z 27004KT 9999 FEW020 SCT230 21/17 Q1013
YBBN,2014-12-23 19:00,153.1292,-27.3917,68.00,62.60,82.86,0.00,0.00,0.00,29.91,M,6.21,M,FEW,SCT,M,M,2000.00,23000.00,M,M,M,YBBN 231900Z 00000KT 9999 FEW020 SCT230 20/17 Q1013 NOSIG
YBBN,2014-12-23 19:30,153.1292,-27.3917,69.80,64.40,82.98,240.00,4.00,0.00,29.91,M,6.21,M,FEW,SCT,M,M,2400.00,23000.00,M,M,M,YBBN 231930Z 24004KT 9999 FEW024 SCT230 21/18 Q1013
YBBN,2014-12-23 20:00,153.1292,-27.3917,71.60,64.40,78.04,250.00,1.00,0.00,29.94,M,6.21,M,FEW,M,M,M,2200.00,M,M,M,M,YBBN 232000Z 25001KT 9999 FEW022 22/18 Q1014 NOSIG
YBBN,2014-12-23 20:30,153.1292,-27.3917,75.20,64.40,69.14,240.00,4.00,0.00,29.94,M,6.21,M,FEW,M,M,M,2400.00,M,M,M,M,YBBN 232030Z 24004KT 9999 FEW024 24/18 Q1014
YBBN,2014-12-23 21:00,153.1292,-27.3917,75.20,64.40,69.14,270.00,4.00,0.00,29.94,M,6.21,M,FEW,M,M,M,2400.00,M,M,M,M,YBBN 232100Z 27004KT 9999 FEW024 24/18 Q1014 NOSIG
YBBN,2014-12-23 21:30,153.1292,-27.3917,77.00,64.40,65.12,330.00,3.00,0.00,29.94,M,6.21,M,FEW,M,M,M,2400.00,M,M,M,M,YBBN 232130Z 33003KT 9999 FEW024 25/18 Q1014
YBBN,2014-12-23 22:00,153.1292,-27.3917,78.80,62.60,57.60,10.00,5.00,0.00,29.94,M,6.21,M,FEW,M,M,M,2400.00,M,M,M,M,YBBN 232200Z 01005KT 9999 FEW024 26/17 Q1014 NOSIG
YBBN,2014-12-23 22:30,153.1292,-27.3917,78.80,64.40,61.36,360.00,6.00,0.00,29.94,M,6.21,M,FEW,M,M,M,2400.00,M,M,M,M,YBBN 232230Z 36006KT 9999 FEW024 26/18 Q1014
YBBN,2014-12-23 23:00,153.1292,-27.3917,78.80,62.60,57.60,360.00,7.00,0.00,29.94,M,6.21,M,FEW,M,M,M,2400.00,M,M,M,M,YBBN 232300Z 36007KT 9999 FEW024 26/17 Q1014 NOSIG
YBBN,2014-12-23 23:30,153.1292,-27.3917,78.80,62.60,57.60,360.00,7.00,0.00,29.94,M,6.21,M,FEW,M,M,M,2400.00,M,M,M,M,YBBN 232330Z 36007KT 9999 FEW024 26/17 Q1014
