#DEBUG: Format Typ    -> comma
#DEBUG: Time Period   -> 2015-03-05 00:00:00+00:00 2015-03-06 00:00:00+00:00
#DEBUG: Time Zone     -> Etc/UTC
#DEBUG: Data Contact   -> daryl herzmann akrherz@iastate.edu 515-294-5978
#DEBUG: Entries Found -> -1
station,valid,lon,lat,tmpf, dwpf, relh, drct, sknt, p01i, alti, mslp, vsby, gust, skyc1, skyc2, skyc3, skyc4, skyl1, skyl2, skyl3, skyl4, presentwx, metar
YBBN,2015-03-05 00:00,153.1292,-27.3917,84.20,69.80,62.03,360.00,8.00,0.00,29.77,M,6.21,M,M,M,M,M,M,M,M,M,M,YBBN 050000Z 36008KT CAVOK 29/21 Q1008 NOSIG
YBBN,2015-03-05 00:30,153.1292,-27.3917,84.20,71.60,65.95,360.00,8.00,0.00,29.74,M,6.21,M,M,M,M,M,M,M,M,M,M,YBBN 050030Z 36008KT CAVOK 29/22 Q1007
YBBN,2015-03-05 01:00,153.1292,-27.3917,84.20,73.40,70.08,20.00,11.00,0.00,29.74,M,6.21,M,FEW,M,M,M,1400.00,M,M,M,M,YBBN 050100Z 02011KT 9999 FEW014 29/23 Q1007 NOSIG
YBBN,2015-03-05 01:30,153.1292,-27.3917,84.20,71.60,65.95,20.00,11.00,0.00,29.71,M,6.21,M,M,M,M,M,M,M,M,M,M,YBBN 050130Z 02011KT CAVOK 29/22 Q1006
YBBN,2015-03-05 02:00,153.1292,-27.3917,86.00,73.40,66.15,20.00,13.00,0.00,29.71,M,6.21,M,M,M,M,M,M,M,M,M,M,YBBN 050200Z 02013KT CAVOK 30/23 Q1006 NOSIG
YBBN,2015-03-05 02:30,153.1292,-27.3917,87.80,75.20,66.35,30.00,13.00,0.00,29.68,M,6.21,M,M,M,M,M,M,M,M,M,M,YBBN 050230Z 03013KT CAVOK 31/24 Q1005
YBBN,2015-03-05 03:00,153.1292,-27.3917,86.00,75.20,70.27,20.00,15.00,0.00,29.65,M,6.21,M,M,M,M,M,M,M,M,M,M,YBBN 050300Z 02015KT CAVOK 30/24 Q1004 NOSIG
YBBN,2015-03-05 03:30,153.1292,-27.3917,86.00,77.00,74.61,20.00,17.00,0.00,29.65,M,6.21,M,FEW,M,M,M,3200.00,M,M,M,M,YBBN 050330Z 02017KT 9999 FEW032 30/25 Q1004
YBBN,2015-03-05 04:00,153.1292,-27.3917,87.80,77.00,70.45,20.00,16.00,0.00,29.62,M,6.21,M,FEW,M,M,M,3200.00,M,M,M,M,YBBN 050400Z 02016KT 9999 FEW032 31/25 Q1003
YBBN,2015-03-05 04:30,153.1292,-27.3917,86.00,75.20,70.27,20.00,17.00,0.00,29.62,M,6.21,M,FEW,M,M,M,3500.00,M,M,M,M,YBBN 050430Z 02017KT 9999 FEW035 30/24 Q1003
YBBN,2015-03-05 05:00,153.1292,-27.3917,87.80,77.00,70.45,20.00,17.00,0.00,29.59,M,6.21,M,FEW,M,M,M,3500.00,M,M,M,M,YBBN 050500Z 02017KT 9999 FEW035 31/25 Q1002 NOSIG
YBBN,2015-03-05 05:30,153.1292,-27.3917,86.00,75.20,70.27,20.00,18.00,0.00,29.59,M,6.21,M,FEW,M,M,M,3500.00,M,M,M,M,YBBN 050530Z 02018KT 9999 FEW035 30/24 Q1002
YBBN,2015-03-05 06:00,153.1292,-27.3917,84.20,75.20,74.44,20.00,17.00,0.00,29.59,M,6.21,M,FEW,M,M,M,3500.00,M,M,M,M,YBBN 050600Z 02017KT 9999 FEW035 29/24 Q1002 NOSIG
YBBN,2015-03-05 06:30,153.1292,-27.3917,84.20,77.00,79.04,10.00,16.00,0.00,29.59,M,6.21,M,FEW,M,M,M,3500.00,M,M,M,M,YBBN 050630Z 01016KT 9999 FEW035 29/25 Q1002
YBBN,2015-03-05 07:00,153.1292,-27.3917,84.20,77.00,79.04,20.00,15.00,0.00,29.59,M,6.21,M,FEW,M,M,M,3500.00,M,M,M,M,YBBN 050700Z 02015KT 9999 FEW035 29/25 Q1002 NOSIG
YBBN,2015-03-05 07:30,153.1292,-27.3917,82.40,77.00,83.77,20.00,13.00,0.00,29.62,M,6.21,M,FEW,M,M,M,3500.00,M,M,M,M,YBBN 050730Z 02013KT 9999 FEW035 28/25 Q1003
YBBN,2015-03-05 08:00,153.1292,-27.3917,82.40,77.00,83.77,10.00,9.00,0.00,29.62,M,6.21,M,FEW,M,M,M,3500.00,M,M,M,M,YBBN 050800Z 01009KT 9999 FEW035 28/25 Q1003
YBBN,2015-03-05 08:30,153.1292,-27.3917,80.60,77.00,88.83,10.00,13.00,0.00,29.62,M,6.21,M,FEW,M,M,M,4000.00,M,M,M,M,YBBN 050830Z 01013KT 9999 FEW040 27/25 Q1003
YBBN,2015-03-05 09:00,153.1292,-27.3917,80.60,77.00,88.83,10.00,11.00,0.00,29.62,M,6.21,M,FEW,M,M,M,3500.00,M,M,M,M,YBBN 050900Z 01011KT 9999 FEW035 27/25 Q1003
YBBN,2015-03-05 09:30,153.1292,-27.3917,80.60,77.00,88.83,10.00,7.00,0.00,29.65,M,6.21,M,M,M,M,M,M,M,M,M,M,YBBN 050930Z 01007KT CAVOK 27/25 Q1004
YBBN,2015-03-05 10:00,153.1292,-27.3917,80.60,77.00,88.83,50.00,5.00,0.00,29.65,M,6.21,M,M,M,M,M,M,M,M,M,M,YBBN 051000Z 05005KT CAVOK 27/25 Q1004
YBBN,2015-03-05 10:30,153.1292,-27.3917,78.80,77.00,94.23,30.00,5.00,0.00,29.65,M,6.21,M,M,M,M,M,M,M,M,M,M,YBBN 051030Z 03005KT CAVOK 26/25 Q1004
YBBN,2015-03-05 11:00,153.1292,-27.3917,78.80,77.00,94.23,10.00,5.00,0.00,29.65,M,6.21,M,M,M,M,M,M,M,M,M,M,YBBN 051100Z 01005KT CAVOK 26/25 Q1004
YBBN,2015-03-05 11:20,153.1292,-27.3917,80.60,77.00,88.83,170.00,10.00,0.00,29.68,M,6.21,M,FEW,SCT,M,M,1800.00,2500.00,M,M,VCSH,YBBN 051120Z 17010KT 9999 VCSH FEW018 SCT025 27/25 Q1005
YBBN,2015-03-05 11:30,153.1292,-27.3917,80.60,77.00,88.83,140.00,6.00,0.00,29.68,M,6.21,M,FEW,SCT,M,M,1800.00,2500.00,M,M,M,YBBN 051130Z 14006KT 9999 FEW018 SCT025 27/25 Q1005 RMK DISTANT TS / LIGHTNING 60KM TO E
YBBN,2015-03-05 12:00,153.1292,-27.3917,82.40,75.20,78.90,140.00,10.00,0.00,29.71,M,6.21,M,BKN,M,M,M,2300.00,M,M,M,M,YBBN 051200Z 14010KT 9999 BKN023 28/24 Q1006
YBBN,2015-03-05 12:22,153.1292,-27.3917,80.60,71.60,74.11,140.00,15.00,0.00,29.71,M,6.21,26.00,SCT,M,M,M,2300.00,M,M,M,M,YBBN 051222Z 14015G26KT 9999 SCT023 27/22 Q1006
YBBN,2015-03-05 12:30,153.1292,-27.3917,80.60,71.60,74.11,150.00,15.00,0.00,29.71,M,6.21,25.00,FEW,SCT,M,M,1500.00,4500.00,M,M,M,YBBN 051230Z 15015G25KT 9999 FEW015 SCT045 27/22 Q1006
YBBN,2015-03-05 13:00,153.1292,-27.3917,80.60,68.00,65.54,150.00,13.00,0.00,29.71,M,6.21,27.00,FEW,M,M,M,1500.00,M,M,M,M,YBBN 051300Z 15013G27KT 9999 FEW015 27/20 Q1006
YBBN,2015-03-05 13:30,153.1292,-27.3917,78.80,66.20,65.33,140.00,15.00,0.00,29.74,M,6.21,27.00,FEW,BKN,M,M,1500.00,5500.00,M,M,M,YBBN 051330Z 14015G27KT 9999 FEW015 BKN055 26/19 Q1007
YBBN,2015-03-05 14:00,153.1292,-27.3917,78.80,64.40,61.36,150.00,17.00,0.00,29.74,M,6.21,27.00,FEW,BKN,M,M,1500.00,5000.00,M,M,M,YBBN 051400Z 15017G27KT 9999 FEW015 BKN050 26/18 Q1007
YBBN,2015-03-05 14:30,153.1292,-27.3917,78.80,66.20,65.33,160.00,15.00,0.00,29.77,M,6.21,M,FEW,BKN,M,M,1500.00,5000.00,M,M,M,YBBN 051430Z 16015KT 9999 FEW015 BKN050 26/19 Q1008
YBBN,2015-03-05 15:00,153.1292,-27.3917,78.80,64.40,61.36,150.00,12.00,0.00,29.77,M,6.21,M,FEW,BKN,M,M,2000.00,5000.00,M,M,M,YBBN 051500Z 15012KT 9999 FEW020 BKN050 26/18 Q1008
YBBN,2015-03-05 15:30,153.1292,-27.3917,77.00,64.40,65.12,150.00,13.00,0.00,29.77,M,6.21,M,FEW,BKN,M,M,2000.00,5000.00,M,M,M,YBBN 051530Z 15013KT 9999 FEW020 BKN050 25/18 Q1008
YBBN,2015-03-05 16:00,153.1292,-27.3917,77.00,64.40,65.12,140.00,10.00,0.00,29.77,M,6.21,M,FEW,BKN,M,M,2500.00,5000.00,M,M,M,YBBN 051600Z 14010KT 9999 FEW025 BKN050 25/18 Q1008
YBBN,2015-03-05 16:30,153.1292,-27.3917,77.00,64.40,65.12,140.00,13.00,0.00,29.77,M,6.21,M,SCT,M,M,M,2500.00,M,M,M,M,YBBN 051630Z 14013KT 9999 SCT025 25/18 Q1008
YBBN,2015-03-05 17:00,153.1292,-27.3917,77.00,62.60,61.13,150.00,12.00,0.00,29.77,M,6.21,M,FEW,M,M,M,2500.00,M,M,M,M,YBBN 051700Z 15012KT 9999 FEW025 25/17 Q1008
YBBN,2015-03-05 17:30,153.1292,-27.3917,77.00,62.60,61.13,150.00,9.00,0.00,29.77,M,6.21,M,BKN,M,M,M,2500.00,M,M,M,M,YBBN 051730Z 15009KT 9999 BKN025 25/17 Q1008
YBBN,2015-03-05 18:00,153.1292,-27.3917,75.20,66.20,73.61,150.00,10.00,0.00,29.77,M,6.21,M,FEW,M,M,M,2500.00,M,M,M,M,YBBN 051800Z 15010KT 9999 FEW025 24/19 Q1008
YBBN,2015-03-05 18:30,153.1292,-27.3917,75.20,64.40,69.14,150.00,9.00,0.00,29.77,M,6.21,M,FEW,SCT,BKN,M,2500.00,5000.00,22000.00,M,M,YBBN 051830Z 15009KT 9999 FEW025 SCT050 BKN220 24/18 Q1008
YBBN,2015-03-05 19:00,153.1292,-27.3917,75.20,66.20,73.61,140.00,6.00,0.00,29.77,M,6.21,M,BKN,M,M,M,2500.00,M,M,M,M,YBBN 051900Z 14006KT 9999 BKN025 24/19 Q1008
YBBN,2015-03-05 19:30,153.1292,-27.3917,75.20,66.20,73.61,120.00,9.00,0.00,29.77,M,6.21,M,BKN,M,M,M,2000.00,M,M,M,-SHRA,YBBN 051930Z 12009KT 9999 -SHRA BKN020 24/19 Q1008
YBBN,2015-03-05 20:00,153.1292,-27.3917,77.00,62.60,61.13,110.00,9.00,0.00,29.77,M,6.21,M,BKN,SCT,M,M,2000.00,18000.00,M,M,M,YBBN 052000Z 11009KT 9999 BKN020 SCT180 25/17 Q1008 NOSIG
YBBN,2015-03-05 20:30,153.1292,-27.3917,77.00,64.40,65.12,100.00,9.00,0.00,29.80,M,6.21,M,FEW,SCT,BKN,M,1700.00,2000.00,27000.00,M,VCSH,YBBN 052030Z 10009KT 9999 VCSH FEW017 SCT020 BKN270 25/18 Q1009
YBBN,2015-03-05 21:00,153.1292,-27.3917,77.00,62.60,61.13,110.00,7.00,0.00,29.80,M,6.21,M,FEW,BKN,M,M,1700.00,27000.00,M,M,VCSH,YBBN 052100Z 11007KT 9999 VCSH FEW017 BKN270 25/17 Q1009 NOSIG
YBBN,2015-03-05 21:30,153.1292,-27.3917,77.00,64.40,65.12,110.00,8.00,0.00,29.80,M,6.21,M,FEW,BKN,M,M,1700.00,27000.00,M,M,M,YBBN 052130Z 11008KT 9999 FEW017 BKN270 25/18 Q1009
YBBN,2015-03-05 22:00,153.1292,-27.3917,78.80,64.40,61.36,100.00,9.00,0.00,29.80,M,6.21,M,FEW,BKN,M,M,2000.00,27000.00,M,M,M,YBBN 052200Z 10009KT 9999 FEW020 BKN270 26/18 Q1009
YBBN,2015-03-05 22:30,153.1292,-27.3917,78.80,62.60,57.60,100.00,8.00,0.00,29.80,M,6.21,M,FEW,SCT,BKN,M,2500.00,14000.00,27000.00,M,M,YBBN 052230Z 10008KT 9999 FEW025 SCT140 BKN270 26/17 Q1009
YBBN,2015-03-05 23:00,153.1292,-27.3917,78.80,64.40,61.36,80.00,9.00,0.00,29.80,M,6.21,M,FEW,BKN,M,M,2500.00,27000.00,M,M,M,YBBN 052300Z 08009KT 9999 FEW025 BKN270 26/18 Q1009 NOSIG
YBBN,2015-03-05 23:30,153.1292,-27.3917,80.60,64.40,57.84,90.00,8.00,0.00,29.80,M,6.21,M,BKN,BKN,M,M,2800.00,27000.00,M,M,M,YBBN 052330Z 09008KT 9999 BKN028 BKN270 27/18 Q1009
