#DEBUG: Format Typ    -> comma
#DEBUG: Time Period   -> 2010-09-05 00:00:00+00:00 2010-09-06 00:00:00+00:00
#DEBUG: Time Zone     -> Etc/UTC
#DEBUG: Data Contact   -> daryl herzmann akrherz@iastate.edu 515-294-5978
#DEBUG: Entries Found -> -1
station,valid,lon,lat,tmpf, dwpf, relh, drct, sknt, p01i, alti, mslp, vsby, gust, skyc1, skyc2, skyc3, skyc4, skyl1, skyl2, skyl3, skyl4, presentwx, metar
YBBN,2010-09-05 16:00,153.1292,-27.3917,64.40,62.60,93.88,270.00,2.00,M,30.00,M,6.21,M,FEW,SCT,OVC,M,800.00,5000.00,9500.00,M,-RA,YBBN 051600Z 27002KT 9999 -RA FEW008 SCT050 OVC095 18/17 Q1016 NOSIG
YBBN,2010-09-05 16:30,153.1292,-27.3917,64.40,62.60,93.88,230.00,3.00,M,30.00,M,6.21,M,FEW,BKN,OVC,M,1500.00,5000.00,10000.00,M,-RA,YBBN 051630Z 23003KT 9999 -RA FEW015 BKN050 OVC100 18/17 Q1016 NOSIG
YBBN,2010-09-05 17:00,153.1292,-27.3917,64.40,62.60,93.88,230.00,6.00,M,30.00,M,6.21,M,FEW,BKN,OVC,M,1200.00,5000.00,10000.00,M,-RA,YBBN 051700Z 23006KT 9999 -RA FEW012 BKN050 OVC100 18/17 Q1016 NOSIG
YBBN,2010-09-05 17:30,153.1292,-27.3917,62.60,60.80,93.83,250.00,6.00,M,29.97,M,6.21,M,FEW,BKN,OVC,M,2000.00,5000.00,10500.00,M,-RA,YBBN 051730Z 25006KT 9999 -RA FEW020 BKN050 OVC105 17/16 Q1015 NOSIG
YBBN,2010-09-05 18:00,153.1292,-27.3917,64.40,60.80,88.09,280.00,7.00,M,30.00,M,6.21,M,FEW,BKN,OVC,M,1500.00,5000.00,11000.00,M,-RA,YBBN 051800Z 28007KT 9999 -RA FEW015 BKN050 OVC110 18/16 Q1016 NOSIG
YBBN,2010-09-05 18:30,153.1292,-27.3917,62.60,62.60,100.00,270.00,6.00,M,30.00,M,6.21,M,FEW,SCT,BKN,M,1500.00,4000.00,5000.00,M,-RA,YBBN 051830Z 27006KT 9999 -RA FEW015 SCT040 BKN050 17/17 Q1016 NOSIG
YBBN,2010-09-05 19:00,153.1292,-27.3917,62.60,62.60,100.00,210.00,5.00,M,30.03,M,6.21,M,FEW,BKN,OVC,M,1500.00,4000.00,11000.00,M,M,YBBN 051900Z 21005KT 9999 FEW015 BKN040 OVC110 17/17 Q1017 NOSIG
YBBN,2010-09-05 19:30,153.1292,-27.3917,62.60,62.60,100.00,230.00,3.00,M,30.06,M,6.21,M,FEW,BKN,OVC,M,2500.00,4500.00,11000.00,M,M,YBBN 051930Z 23003KT 9999 FEW025 BKN045 OVC110 17/17 Q1018 NOSIG
YBBN,2010-09-05 20:00,153.1292,-27.3917,62.60,62.60,100.00,200.00,4.00,M,30.06,M,6.21,M,FEW,BKN,M,M,1500.00,4800.00,M,M,-RA,YBBN 052000Z 20004KT 9999 -RA FEW015 BKN048 17/17 Q1018 NOSIG
YBBN,2010-09-05 20:30,153.1292,-27.3917,64.40,62.60,93.88,0.00,0.00,M,30.06,M,6.21,M,FEW,BKN,M,M,1500.00,5200.00,M,M,M,YBBN 052030Z 00000KT 9999 FEW015 BKN052 18/17 Q1018 NOSIG
YBBN,2010-09-05 21:00,153.1292,-27.3917,64.40,62.60,93.88,200.00,4.00,M,30.09,M,6.21,M,FEW,BKN,M,M,2000.00,5600.00,M,M,M,YBBN 052100Z 20004KT 9999 FEW020 BKN056 18/17 Q1019 NOSIG
YBBN,2010-09-05 21:30,153.1292,-27.3917,64.40,62.60,93.88,210.00,5.00,M,30.09,M,6.21,M,FEW,BKN,M,M,2000.00,5800.00,M,M,M,YBBN 052130Z 21005KT 9999 FEW020 BKN058 18/17 Q1019 NOSIG
YBBN,2010-09-05 22:00,153.1292,-27.3917,64.40,60.80,88.09,210.00,6.00,M,30.09,M,6.21,M,FEW,BKN,M,M,2000.00,5800.00,M,M,M,YBBN 052200Z 21006KT 9999 FEW020 BKN058 18/16 Q1019 NOSIG
YBBN,2010-09-05 22:30,153.1292,-27.3917,66.20,60.80,82.74,220.00,8.00,M,30.12,M,6.21,M,FEW,BKN,M,M,2000.00,6000.00,M,M,M,YBBN 052230Z 22008KT 9999 FEW020 BKN060 19/16 Q1020 NOSIG
YBBN,2010-09-05 23:00,153.1292,-27.3917,66.20,59.00,77.60,210.00,8.00,M,30.12,M,6.21,M,FEW,BKN,M,M,2000.00,6200.00,M,M,M,YBBN 052300Z 21008KT 9999 FEW020 BKN062 19/15 Q1020 NOSIG
YBBN,2010-09-05 23:30,153.1292,-27.3917,68.00,59.00,72.92,210.00,7.00,M,30.12,M,6.21,M,FEW,BKN,M,M,2000.00,6200.00,M,M,M,YBBN 052330Z 21007KT 9999 FEW020 BKN062 20/15 Q1020 NOSIG
