#DEBUG: Format Typ    -> comma
#DEBUG: Time Period   -> 2014-01-30 00:00:00+00:00 2014-01-31 00:00:00+00:00
#DEBUG: Time Zone     -> Etc/UTC
#DEBUG: Data Contact   -> daryl herzmann akrherz@iastate.edu 515-294-5978
#DEBUG: Entries Found -> -1
station,valid,lon,lat,tmpf, dwpf, relh, drct, sknt, p01i, alti, mslp, vsby, gust, skyc1, skyc2, skyc3, skyc4, skyl1, skyl2, skyl3, skyl4, presentwx, metar
YBBN,2014-01-30 00:00,153.1292,-27.3917,77.00,57.20,50.43,90.00,10.00,0.00,30.03,M,6.21,M,FEW,BKN,M,M,3000.00,6000.00,M,M,M,YBBN 300000Z 09010KT 9999 FEW030 BKN060 25/14 Q1017 NOSIG
YBBN,2014-01-30 00:30,153.1292,-27.3917,77.00,59.00,53.80,90.00,10.00,0.00,30.03,M,6.21,M,FEW,BKN,M,M,3000.00,6000.00,M,M,M,YBBN 300030Z 09010KT 9999 FEW030 BKN060 25/15 Q1017
YBBN,2014-01-30 01:00,153.1292,-27.3917,78.80,59.00,50.69,90.00,10.00,0.00,30.03,M,6.21,M,FEW,BKN,M,M,3000.00,6000.00,M,M,M,YBBN 300100Z 09010KT 9999 FEW030 BKN060 26/15 Q1017 NOSIG
YBBN,2014-01-30 01:30,153.1292,-27.3917,78.80,59.00,50.69,80.00,12.00,0.00,30.03,M,6.21,M,FEW,BKN,M,M,3800.00,6500.00,M,M,M,YBBN 300130Z 08012KT 9999 FEW038 BKN065 26/15 Q1017
YBBN,2014-01-30 02:00,153.1292,-27.3917,78.80,59.00,50.69,80.00,12.00,0.00,30.03,M,6.21,M,FEW,BKN,M,M,3800.00,6500.00,M,M,M,YBBN 300200Z 08012KT 9999 FEW038 BKN065 26/15 Q1017 NOSIG
YBBN,2014-01-30 02:30,153.1292,-27.3917,78.80,60.80,54.05,80.00,9.00,0.00,30.03,M,6.21,M,FEW,BKN,M,M,3800.00,6500.00,M,M,M,YBBN 300230Z 08009KT 9999 FEW038 BKN065 26/16 Q1017
YBBN,2014-01-30 03:00,153.1292,-27.3917,75.20,64.40,69.14,80.00,9.00,0.00,30.03,M,6.21,M,FEW,BKN,M,M,3400.00,5300.00,M,M,VCSH,YBBN 300300Z 08009KT 9999 VCSH FEW034 BKN053 24/18 Q1017 NOSIG
YBBN,2014-01-30 03:30,153.1292,-27.3917,78.80,60.80,54.05,90.00,10.00,0.00,30.00,M,6.21,M,FEW,BKN,M,M,3500.00,6400.00,M,M,M,YBBN 300330Z 09010KT 9999 FEW035 BKN064 26/16 Q1016
YBBN,2014-01-30 04:00,153.1292,-27.3917,80.60,60.80,50.95,60.00,13.00,0.00,30.00,M,6.21,M,FEW,BKN,M,M,3500.00,6800.00,M,M,M,YBBN 300400Z 06013KT 9999 FEW035 BKN068 27/16 Q1016 NOSIG
YBBN,2014-01-30 04:30,153.1292,-27.3917,80.60,59.00,47.79,70.00,12.00,0.00,30.00,M,6.21,M,FEW,BKN,M,M,2400.00,6800.00,M,M,M,YBBN 300430Z 07012KT 9999 FEW024 BKN068 27/15 Q1016
YBBN,2014-01-30 05:00,153.1292,-27.3917,78.80,59.00,50.69,100.00,10.00,0.00,29.97,M,6.21,M,FEW,SCT,M,M,3200.00,6800.00,M,M,M,YBBN 300500Z 10010KT 9999 FEW032 SCT068 26/15 Q1015 NOSIG
YBBN,2014-01-30 05:30,153.1292,-27.3917,78.80,60.80,54.05,100.00,10.00,0.00,29.97,M,6.21,M,FEW,SCT,M,M,3200.00,6800.00,M,M,M,YBBN 300530Z 10010KT 9999 FEW032 SCT068 26/16 Q1015
YBBN,2014-01-30 06:00,153.1292,-27.3917,77.00,62.60,61.13,100.00,10.00,0.00,29.97,M,6.21,M,FEW,SCT,M,M,3200.00,6800.00,M,M,M,YBBN 300600Z 10010KT 9999 FEW032 SCT068 25/17 Q1015
YBBN,2014-01-30 06:30,153.1292,-27.3917,77.00,60.80,57.36,100.00,10.00,0.00,29.97,M,6.21,M,FEW,SCT,BKN,M,2500.00,3000.00,6400.00,M,M,YBBN 300630Z 10010KT 9999 FEW025 SCT030 BKN064 25/16 Q1015
YBBN,2014-01-30 07:00,153.1292,-27.3917,77.00,60.80,57.36,100.00,11.00,0.00,29.97,M,6.21,M,FEW,SCT,M,M,2500.00,3000.00,M,M,M,YBBN 300700Z 10011KT 9999 FEW025 SCT030 25/16 Q1015 NOSIG
YBBN,2014-01-30 07:30,153.1292,-27.3917,77.00,60.80,57.36,90.00,11.00,0.00,29.97,M,6.21,M,FEW,BKN,M,M,2500.00,6400.00,M,M,M,YBBN 300730Z 09011KT 9999 FEW025 BKN064 25/16 Q1015
YBBN,2014-01-30 08:00,153.1292,-27.3917,77.00,60.80,57.36,90.00,8.00,0.00,30.00,M,6.21,M,FEW,SCT,M,M,2500.00,6400.00,M,M,VCSH,YBBN 300800Z 09008KT 9999 VCSH FEW025 SCT064 25/16 Q1016
YBBN,2014-01-30 08:30,153.1292,-27.3917,75.20,62.60,64.91,110.00,8.00,0.00,30.00,M,6.21,M,FEW,SCT,M,M,2400.00,6000.00,M,M,M,YBBN 300830Z 11008KT 9999 FEW024 SCT060 24/17 Q1016
YBBN,2014-01-30 09:00,153.1292,-27.3917,75.20,62.60,64.91,90.00,8.00,0.00,30.00,M,6.21,M,FEW,SCT,M,M,3200.00,6000.00,M,M,M,YBBN 300900Z 09008KT 9999 FEW032 SCT060 24/17 Q1016 NOSIG
YBBN,2014-01-30 09:30,153.1292,-27.3917,75.20,62.60,64.91,100.00,8.00,0.00,30.00,M,6.21,M,FEW,BKN,M,M,3000.00,6500.00,M,M,M,YBBN 300930Z 10008KT 9999 FEW030 BKN065 24/17 Q1016
YBBN,2014-01-30 10:00,153.1292,-27.3917,75.20,62.60,64.91,100.00,8.00,0.00,30.00,M,6.21,M,FEW,SCT,M,M,2800.00,6500.00,M,M,M,YBBN 301000Z 10008KT 9999 FEW028 SCT065 24/17 Q1016 NOSIG
YBBN,2014-01-30 10:30,153.1292,-27.3917,75.20,64.40,69.14,100.00,9.00,0.00,30.00,M,6.21,M,FEW,SCT,M,M,2500.00,6500.00,M,M,M,YBBN 301030Z 10009KT 9999 FEW025 SCT065 24/18 Q1016
YBBN,2014-01-30 11:00,153.1292,-27.3917,75.20,64.40,69.14,90.00,9.00,0.00,30.00,M,6.21,M,FEW,BKN,M,M,2400.00,6200.00,M,M,M,YBBN 301100Z 09009KT 9999 FEW024 BKN062 24/18 Q1016 NOSIG
YBBN,2014-01-30 11:30,153.1292,-27.3917,75.20,62.60,64.91,100.00,8.00,0.00,30.00,M,6.21,M,FEW,SCT,M,M,2400.00,6200.00,M,M,M,YBBN 301130Z 10008KT 9999 FEW024 SCT062 24/17 Q1016
YBBN,2014-01-30 12:00,153.1292,-27.3917,75.20,62.60,64.91,100.00,9.00,0.00,30.00,M,6.21,M,FEW,BKN,M,M,2600.00,6200.00,M,M,M,YBBN 301200Z 10009KT 9999 FEW026 BKN062 24/17 Q1016
YBBN,2014-01-30 12:30,153.1292,-27.3917,75.20,62.60,64.91,90.00,11.00,0.00,30.00,M,6.21,M,FEW,BKN,M,M,2600.00,6000.00,M,M,M,YBBN 301230Z 09011KT 9999 FEW026 BKN060 24/17 Q1016
YBBN,2014-01-30 13:00,153.1292,-27.3917,75.20,60.80,60.90,90.00,11.00,0.00,30.00,M,6.21,M,FEW,SCT,M,M,3000.00,6000.00,M,M,M,YBBN 301300Z 09011KT 9999 FEW030 SCT060 24/16 Q1016
YBBN,2014-01-30 13:30,153.1292,-27.3917,75.20,60.80,60.90,90.00,10.00,0.00,29.97,M,6.21,M,FEW,BKN,M,M,3500.00,6200.00,M,M,M,YBBN 301330Z 09010KT 9999 FEW035 BKN062 24/16 Q1015
YBBN,2014-01-30 14:00,153.1292,-27.3917,75.20,59.00,57.12,100.00,8.00,0.00,29.97,M,6.21,M,FEW,SCT,M,M,3500.00,6000.00,M,M,M,YBBN 301400Z 10008KT 9999 FEW035 SCT060 24/15 Q1015 NOSIG
YBBN,2014-01-30 14:30,153.1292,-27.3917,75.20,57.20,53.55,100.00,7.00,0.00,29.94,M,6.21,M,FEW,SCT,M,M,3000.00,6000.00,M,M,M,YBBN 301430Z 10007KT 9999 FEW030 SCT060 24/14 Q1014
YBBN,2014-01-30 15:00,153.1292,-27.3917,73.40,60.80,64.69,100.00,7.00,0.00,29.94,M,6.21,M,FEW,BKN,M,M,3200.00,5800.00,M,M,M,YBBN 301500Z 10007KT 9999 FEW032 BKN058 23/16 Q1014 NOSIG
YBBN,2014-01-30 15:30,153.1292,-27.3917,73.40,60.80,64.69,110.00,7.00,0.00,29.94,M,6.21,M,FEW,BKN,M,M,3200.00,5500.00,M,M,M,YBBN 301530Z 11007KT 9999 FEW032 BKN055 23/16 Q1014
YBBN,2014-01-30 16:00,153.1292,-27.3917,73.40,60.80,64.69,110.00,7.00,0.00,29.91,M,6.21,M,FEW,BKN,M,M,3000.00,5800.00,M,M,M,YBBN 301600Z 11007KT 9999 FEW030 BKN058 23/16 Q1013
YBBN,2014-01-30 16:30,153.1292,-27.3917,75.20,60.80,60.90,100.00,7.00,0.00,29.91,M,6.21,M,FEW,BKN,M,M,3000.00,6000.00,M,M,M,YBBN 301630Z 10007KT 9999 FEW030 BKN060 24/16 Q1013
YBBN,2014-01-30 17:00,153.1292,-27.3917,73.40,60.80,64.69,100.00,9.00,0.00,29.91,M,6.21,M,FEW,BKN,M,M,3000.00,6000.00,M,M,M,YBBN 301700Z 10009KT 9999 FEW030 BKN060 23/16 Q1013
YBBN,2014-01-30 17:30,153.1292,-27.3917,73.40,59.00,60.67,100.00,7.00,0.00,29.88,M,6.21,M,FEW,BKN,M,M,3000.00,6000.00,M,M,M,YBBN 301730Z 10007KT 9999 FEW030 BKN060 23/15 Q1012
YBBN,2014-01-30 18:00,153.1292,-27.3917,75.20,57.20,53.55,90.00,7.00,0.00,29.88,M,6.21,M,FEW,BKN,M,M,3000.00,6000.00,M,M,M,YBBN 301800Z 09007KT 9999 FEW030 BKN060 24/14 Q1012 NOSIG
YBBN,2014-01-30 18:30,153.1292,-27.3917,75.20,57.20,53.55,90.00,8.00,0.00,29.88,M,6.21,M,FEW,BKN,M,M,3000.00,6000.00,M,M,M,YBBN 301830Z 09008KT 9999 FEW030 BKN060 24/14 Q1012
YBBN,2014-01-30 19:00,153.1292,-27.3917,73.40,62.60,68.94,110.00,8.00,0.00,29.91,M,6.21,M,FEW,BKN,M,M,3000.00,6000.00,M,M,M,YBBN 301900Z 11008KT 9999 FEW030 BKN060 23/17 Q1013
YBBN,2014-01-30 19:30,153.1292,-27.3917,73.40,60.80,64.69,90.00,7.00,0.00,29.91,M,6.21,M,FEW,BKN,M,M,3000.00,6000.00,M,M,M,YBBN 301930Z 09007KT 9999 FEW030 BKN060 23/16 Q1013
YBBN,2014-01-30 20:00,153.1292,-27.3917,75.20,59.00,57.12,90.00,8.00,0.00,29.91,M,6.21,M,FEW,BKN,M,M,4000.00,5800.00,M,M,M,YBBN 302000Z 09008KT 9999 FEW040 BKN058 24/15 Q1013 NOSIG
YBBN,2014-01-30 20:30,153.1292,-27.3917,75.20,59.00,57.12,90.00,9.00,0.00,29.91,M,6.21,M,FEW,BKN,M,M,4000.00,5500.00,M,M,M,YBBN 302030Z 09009KT 9999 FEW040 BKN055 24/15 Q1013 RMK DIST PRECIP 8NM NW
YBBN,2014-01-30 21:00,153.1292,-27.3917,75.20,59.00,57.12,80.00,9.00,0.00,29.94,M,6.21,M,FEW,BKN,M,M,1500.00,5500.00,M,M,M,YBBN 302100Z 08009KT 9999 FEW015 BKN055 24/15 Q1014 NOSIG
YBBN,2014-01-30 21:30,153.1292,-27.3917,75.20,59.00,57.12,90.00,10.00,0.00,29.94,M,6.21,M,FEW,BKN,M,M,4000.00,5800.00,M,M,M,YBBN 302130Z 09010KT 9999 FEW040 BKN058 24/15 Q1014
YBBN,2014-01-30 22:00,153.1292,-27.3917,77.00,59.00,53.80,90.00,10.00,0.00,29.94,M,6.21,M,FEW,BKN,M,M,4000.00,5800.00,M,M,M,YBBN 302200Z 09010KT 9999 FEW040 BKN058 25/15 Q1014 NOSIG
YBBN,2014-01-30 22:30,153.1292,-27.3917,75.20,59.00,57.12,80.00,9.00,0.00,29.94,M,6.21,M,FEW,SCT,BKN,M,1800.00,4500.00,5800.00,M,M,YBBN 302230Z 08009KT 9999 FEW018 SCT045 BKN058 24/15 Q1014
YBBN,2014-01-30 23:00,153.1292,-27.3917,75.20,59.00,57.12,90.00,9.00,0.00,29.94,M,6.21,M,FEW,BKN,M,M,1800.00,5800.00,M,M,VCSH,YBBN 302300Z 09009KT 9999 VCSH FEW018 BKN058 24/15 Q1014 NOSIG
YBBN,2014-01-30 23:30,153.1292,-27.3917,75.20,59.00,57.12,90.00,9.00,0.00,29.94,M,6.21,M,FEW,SCT,BKN,M,3800.00,4500.00,5800.00,M,VCSH,YBBN 302330Z 09009KT 9999 VCSH FEW038 SCT045 BKN058 24/15 Q1014
