#DEBUG: Format Typ    -> comma
#DEBUG: Time Period   -> 2012-12-04 00:00:00+00:00 2012-12-05 00:00:00+00:00
#DEBUG: Time Zone     -> Etc/UTC
#DEBUG: Data Contact   -> daryl herzmann akrherz@iastate.edu 515-294-5978
#DEBUG: Entries Found -> -1
station,valid,lon,lat,tmpf, dwpf, relh, drct, sknt, p01i, alti, mslp, vsby, gust, skyc1, skyc2, skyc3, skyc4, skyl1, skyl2, skyl3, skyl4, presentwx, metar
YBBN,2012-12-04 00:00,153.1292,-27.3917,84.20,69.80,62.03,20.00,15.00,0.00,29.65,M,6.21,M,FEW,M,M,M,3000.00,M,M,M,M,YBBN 040000Z 02015KT 9999 FEW030 29/21 Q1004 RMK HAZE
YBBN,2012-12-04 00:30,153.1292,-27.3917,84.20,71.60,65.95,20.00,14.00,0.00,29.65,M,6.21,M,FEW,M,M,M,3500.00,M,M,M,M,YBBN 040030Z 02014KT 9999 FEW035 29/22 Q1004 RMK HAZE
YBBN,2012-12-04 01:00,153.1292,-27.3917,86.00,71.60,62.25,30.00,16.00,0.00,29.62,M,6.21,M,FEW,M,M,M,3500.00,M,M,M,M,YBBN 040100Z 03016KT 9999 FEW035 30/22 Q1003 RMK HAZE
YBBN,2012-12-04 01:30,153.1292,-27.3917,86.00,69.80,58.55,30.00,13.00,0.00,29.62,M,6.21,M,FEW,M,M,M,4000.00,M,M,M,M,YBBN 040130Z 03013KT 9999 FEW040 30/21 Q1003
YBBN,2012-12-04 02:00,153.1292,-27.3917,86.00,69.80,58.55,30.00,13.00,0.00,29.62,M,6.21,M,FEW,SCT,M,M,4000.00,7000.00,M,M,M,YBBN 040200Z 03013KT 9999 FEW040 SCT070 30/21 Q1003 RMK HAZE
YBBN,2012-12-04 02:30,153.1292,-27.3917,87.80,69.80,55.29,30.00,14.00,0.00,29.59,M,6.21,M,M,M,M,M,M,M,M,M,M,YBBN 040230Z 03014KT CAVOK 31/21 Q1002 RMK HAZE
YBBN,2012-12-04 03:00,153.1292,-27.3917,87.80,69.80,55.29,30.00,17.00,0.00,29.59,M,6.21,M,M,M,M,M,M,M,M,M,M,YBBN 040300Z 03017KT CAVOK 31/21 Q1002 NOSIG
YBBN,2012-12-04 03:30,153.1292,-27.3917,86.00,71.60,62.25,20.00,15.00,0.00,29.59,M,6.21,M,M,M,M,M,M,M,M,M,M,YBBN 040330Z 02015KT CAVOK 30/22 Q1002
YBBN,2012-12-04 04:00,153.1292,-27.3917,86.00,73.40,66.15,20.00,16.00,0.00,29.59,M,6.21,M,M,M,M,M,M,M,M,M,M,YBBN 040400Z 02016KT CAVOK 30/23 Q1002 NOSIG
YBBN,2012-12-04 04:30,153.1292,-27.3917,86.00,73.40,66.15,10.00,16.00,0.00,29.56,M,6.21,M,M,M,M,M,M,M,M,M,M,YBBN 040430Z 01016KT CAVOK 30/23 Q1001
YBBN,2012-12-04 05:00,153.1292,-27.3917,86.00,73.40,66.15,10.00,17.00,0.00,29.56,M,6.21,M,FEW,M,M,M,3500.00,M,M,M,M,YBBN 040500Z 01017KT 9999 FEW035 30/23 Q1001
YBBN,2012-12-04 05:30,153.1292,-27.3917,86.00,73.40,66.15,10.00,15.00,0.00,29.56,M,6.21,M,FEW,BKN,M,M,3500.00,26000.00,M,M,M,YBBN 040530Z 01015KT 9999 FEW035 BKN260 30/23 Q1001
YBBN,2012-12-04 06:00,153.1292,-27.3917,84.20,73.40,70.08,20.00,14.00,0.00,29.56,M,6.21,M,FEW,SCT,M,M,3500.00,26000.00,M,M,M,YBBN 040600Z 02014KT 9999 FEW035 SCT260 29/23 Q1001
YBBN,2012-12-04 06:30,153.1292,-27.3917,86.00,73.40,66.15,20.00,11.00,0.00,29.56,M,6.21,M,M,M,M,M,M,M,M,M,M,YBBN 040630Z 02011KT CAVOK 30/23 Q1001
YBBN,2012-12-04 07:00,153.1292,-27.3917,86.00,73.40,66.15,40.00,8.00,0.00,29.56,M,6.21,M,M,M,M,M,M,M,M,M,M,YBBN 040700Z 04008KT CAVOK 30/23 Q1001
YBBN,2012-12-04 07:30,153.1292,-27.3917,95.00,35.60,12.53,350.00,6.00,0.00,29.59,M,6.21,M,M,M,M,M,M,M,M,M,M,YBBN 040730Z 35006KT CAVOK 35/02 Q1002 FM0730 25017KT CAVOK RMK FM0730 MOD TURB BLW 5000FT
YBBN,2012-12-04 07:44,153.1292,-27.3917,95.00,35.60,12.53,250.00,17.00,0.00,29.59,M,6.21,M,M,M,M,M,M,M,M,M,M,YBBN 040744Z 25017KT CAVOK 35/02 Q1002
YBBN,2012-12-04 08:00,153.1292,-27.3917,93.20,35.60,13.25,250.00,16.00,0.00,29.59,M,6.21,M,M,M,M,M,M,M,M,M,M,YBBN 040800Z 25016KT CAVOK 34/02 Q1002 NOSIG
YBBN,2012-12-04 08:30,153.1292,-27.3917,89.60,35.60,14.83,250.00,16.00,0.00,29.62,M,6.21,M,M,M,M,M,M,M,M,M,M,YBBN 040830Z 25016KT CAVOK 32/02 Q1003
YBBN,2012-12-04 09:00,153.1292,-27.3917,87.80,35.60,15.70,250.00,14.00,0.00,29.62,M,6.21,M,M,M,M,M,M,M,M,M,M,YBBN 040900Z 25014KT CAVOK 31/02 Q1003
YBBN,2012-12-04 09:30,153.1292,-27.3917,87.80,32.00,13.59,250.00,14.00,0.00,29.65,M,6.21,M,M,M,M,M,M,M,M,M,M,YBBN 040930Z 25014KT CAVOK 31/00 Q1004
YBBN,2012-12-04 10:00,153.1292,-27.3917,86.00,32.00,14.40,250.00,14.00,0.00,29.65,M,6.21,M,M,M,M,M,M,M,M,M,M,YBBN 041000Z 25014KT CAVOK 30/M00 Q1004 FM1000 MOD TURB BLW 5000FT
YBBN,2012-12-04 10:30,153.1292,-27.3917,87.80,26.60,10.91,250.00,16.00,0.00,29.65,M,6.21,M,M,M,M,M,M,M,M,M,M,YBBN 041030Z 25016KT CAVOK 31/M03 Q1004
YBBN,2012-12-04 11:00,153.1292,-27.3917,86.00,30.20,13.38,240.00,14.00,0.00,29.68,M,6.21,M,M,M,M,M,M,M,M,M,M,YBBN 041100Z 24014KT CAVOK 30/M01 Q1005 FM1100 MOD TURB BLW 5000FT
YBBN,2012-12-04 11:30,153.1292,-27.3917,84.20,30.20,14.18,240.00,15.00,0.00,29.68,M,6.21,M,M,M,M,M,M,M,M,M,M,YBBN 041130Z 24015KT CAVOK 29/M01 Q1005
YBBN,2012-12-04 12:00,153.1292,-27.3917,82.40,32.00,16.17,240.00,12.00,0.00,29.68,M,6.21,M,M,M,M,M,M,M,M,M,M,YBBN 041200Z 24012KT CAVOK 28/00 Q1005 FM1200 MOD TURB BLW 5000FT
YBBN,2012-12-04 12:30,153.1292,-27.3917,84.20,28.40,13.18,240.00,14.00,0.00,29.68,M,6.21,M,M,M,M,M,M,M,M,M,M,YBBN 041230Z 24014KT CAVOK 29/M02 Q1005
YBBN,2012-12-04 13:00,153.1292,-27.3917,82.40,30.20,15.03,240.00,15.00,0.00,29.68,M,6.21,M,M,M,M,M,M,M,M,M,M,YBBN 041300Z 24015KT CAVOK 28/M01 Q1005
YBBN,2012-12-04 13:30,153.1292,-27.3917,82.40,28.40,13.96,240.00,15.00,0.00,29.68,M,6.21,M,M,M,M,M,M,M,M,M,M,YBBN 041330Z 24015KT CAVOK 28/M02 Q1005
YBBN,2012-12-04 14:00,153.1292,-27.3917,80.60,30.20,15.94,230.00,16.00,0.00,29.68,M,6.21,M,M,M,M,M,M,M,M,M,M,YBBN 041400Z 23016KT CAVOK 27/M01 Q1005 FM1400 MOD TURB BLW 5000FT
YBBN,2012-12-04 14:30,153.1292,-27.3917,78.80,32.00,18.18,220.00,11.00,0.00,29.68,M,6.21,M,M,M,M,M,M,M,M,M,M,YBBN 041430Z 22011KT CAVOK 26/00 Q1005
YBBN,2012-12-04 15:00,153.1292,-27.3917,77.00,33.80,20.74,210.00,9.00,0.00,29.68,M,6.21,M,M,M,M,M,M,M,M,M,M,YBBN 041500Z 21009KT CAVOK 25/01 Q1005 FM1500 MOD TURB BLW 5000FT
YBBN,2012-12-04 15:30,153.1292,-27.3917,77.00,33.80,20.74,190.00,8.00,0.00,29.65,M,6.21,M,M,M,M,M,M,M,M,M,M,YBBN 041530Z 19008KT CAVOK 25/01 Q1004
YBBN,2012-12-04 16:00,153.1292,-27.3917,75.20,37.40,25.40,200.00,7.00,0.00,29.68,M,6.21,M,M,M,M,M,M,M,M,M,M,YBBN 041600Z 20007KT CAVOK 24/03 Q1005 FM1600 MOD TURB BLW 5000FT TILL 1800
YBBN,2012-12-04 16:30,153.1292,-27.3917,71.60,39.20,30.77,200.00,5.00,0.00,29.68,M,6.21,M,M,M,M,M,M,M,M,M,M,YBBN 041630Z 20005KT CAVOK 22/04 Q1005
YBBN,2012-12-04 17:00,153.1292,-27.3917,71.60,39.20,30.77,0.00,0.00,0.00,29.68,M,6.21,M,M,M,M,M,M,M,M,M,M,YBBN 041700Z 00000KT CAVOK 22/04 Q1005
YBBN,2012-12-04 17:30,153.1292,-27.3917,68.00,41.00,37.32,0.00,0.00,0.00,29.68,M,6.21,M,M,M,M,M,M,M,M,M,M,YBBN 041730Z 00000KT CAVOK 20/05 Q1005
YBBN,2012-12-04 18:00,153.1292,-27.3917,68.00,42.80,40.00,0.00,0.00,0.00,29.71,M,6.21,M,M,M,M,M,M,M,M,M,M,YBBN 041800Z 00000KT CAVOK 20/06 Q1006 NOSIG
YBBN,2012-12-04 18:30,153.1292,-27.3917,68.00,42.80,40.00,0.00,0.00,0.00,29.71,M,6.21,M,M,M,M,M,M,M,M,M,M,YBBN 041830Z 00000KT CAVOK 20/06 Q1006
YBBN,2012-12-04 19:00,153.1292,-27.3917,66.20,46.40,48.83,0.00,0.00,0.00,29.74,M,6.21,M,M,M,M,M,M,M,M,M,M,YBBN 041900Z 00000KT CAVOK 19/08 Q1007 NOSIG
YBBN,2012-12-04 19:30,153.1292,-27.3917,68.00,46.40,45.88,0.00,0.00,0.00,29.74,M,6.21,M,M,M,M,M,M,M,M,M,M,YBBN 041930Z 00000KT CAVOK 20/08 Q1007
YBBN,2012-12-04 20:00,153.1292,-27.3917,69.80,48.20,46.16,250.00,4.00,0.00,29.77,M,6.21,M,M,M,M,M,M,M,M,M,M,YBBN 042000Z 25004KT CAVOK 21/09 Q1008 NOSIG
YBBN,2012-12-04 20:30,153.1292,-27.3917,73.40,48.20,40.85,230.00,3.00,0.00,29.77,M,6.21,M,M,M,M,M,M,M,M,M,M,YBBN 042030Z 23003KT CAVOK 23/09 Q1008
YBBN,2012-12-04 21:00,153.1292,-27.3917,77.00,46.40,33.85,210.00,6.00,0.00,29.80,M,6.21,M,M,M,M,M,M,M,M,M,M,YBBN 042100Z 21006KT CAVOK 25/08 Q1009
YBBN,2012-12-04 21:30,153.1292,-27.3917,80.60,37.40,21.25,230.00,7.00,0.00,29.80,M,6.21,M,M,M,M,M,M,M,M,M,M,YBBN 042130Z 23007KT CAVOK 27/03 Q1009
YBBN,2012-12-04 22:00,153.1292,-27.3917,82.40,35.60,18.67,210.00,8.00,0.00,29.80,M,6.21,M,M,M,M,M,M,M,M,M,M,YBBN 042200Z 21008KT CAVOK 28/02 Q1009
YBBN,2012-12-04 22:30,153.1292,-27.3917,84.20,35.60,17.61,210.00,9.00,0.00,29.77,M,6.21,M,M,M,M,M,M,M,M,M,M,YBBN 042230Z 21009KT CAVOK 29/02 Q1008
YBBN,2012-12-04 23:00,153.1292,-27.3917,84.20,33.80,16.39,210.00,9.00,0.00,29.77,M,6.21,M,M,M,M,M,M,M,M,M,M,YBBN 042300Z 21009KT CAVOK 29/01 Q1008
YBBN,2012-12-04 23:30,153.1292,-27.3917,86.00,35.60,16.63,220.00,15.00,0.00,29.80,M,6.21,M,M,M,M,M,M,M,M,M,M,YBBN 042330Z 22015KT CAVOK 30/02 Q1009
