#DEBUG: Format Typ    -> comma
#DEBUG: Time Period   -> 2010-11-06 00:00:00+00:00 2010-11-07 00:00:00+00:00
#DEBUG: Time Zone     -> Etc/UTC
#DEBUG: Data Contact   -> daryl herzmann akrherz@iastate.edu 515-294-5978
#DEBUG: Entries Found -> -1
station,valid,lon,lat,tmpf, dwpf, relh, drct, sknt, p01i, alti, mslp, vsby, gust, skyc1, skyc2, skyc3, skyc4, skyl1, skyl2, skyl3, skyl4, presentwx, metar
YBBN,2010-11-06 00:00,153.1292,-27.3917,75.20,55.40,50.17,180.00,7.00,M,30.00,M,6.21,M,FEW,M,M,M,3000.00,M,M,M,M,YBBN 060000Z 18007KT 9999 FEW030 24/13 Q1016 NOSIG
YBBN,2010-11-06 01:00,153.1292,-27.3917,75.20,55.40,50.17,200.00,7.00,M,30.00,M,6.21,M,BKN,M,M,M,4000.00,M,M,M,M,YBBN 060100Z 20007KT 9999 BKN040 24/13 Q1016 NOSIG
YBBN,2010-11-06 01:30,153.1292,-27.3917,77.00,57.20,50.43,210.00,3.00,M,29.97,M,6.21,M,BKN,M,M,M,4000.00,M,M,M,M,YBBN 060130Z 21003KT 9999 BKN040 25/14 Q1015 NOSIG
YBBN,2010-11-06 02:00,153.1292,-27.3917,77.00,55.40,47.25,190.00,4.00,M,29.97,M,6.21,M,BKN,M,M,M,4000.00,M,M,M,M,YBBN 060200Z 19004KT 9999 BKN040 25/13 Q1015 NOSIG
YBBN,2010-11-06 02:30,153.1292,-27.3917,77.00,60.80,57.36,40.00,11.00,M,29.97,M,6.21,M,BKN,M,M,M,4000.00,M,M,M,M,YBBN 060230Z 04011KT 9999 BKN040 25/16 Q1015 NOSIG
YBBN,2010-11-06 03:00,153.1292,-27.3917,77.00,60.80,57.36,50.00,9.00,M,29.97,M,6.21,M,BKN,M,M,M,4500.00,M,M,M,M,YBBN 060300Z 05009KT 9999 BKN045 25/16 Q1015 NOSIG
YBBN,2010-11-06 03:30,153.1292,-27.3917,75.20,60.80,60.90,40.00,7.00,M,29.94,M,6.21,M,BKN,M,M,M,4500.00,M,M,M,M,YBBN 060330Z 04007KT 9999 BKN045 24/16 Q1014 NOSIG
YBBN,2010-11-06 04:00,153.1292,-27.3917,77.00,59.00,53.80,50.00,7.00,M,29.94,M,6.21,M,SCT,M,M,M,4500.00,M,M,M,M,YBBN 060400Z 05007KT 9999 SCT045 25/15 Q1014 NOSIG
YBBN,2010-11-06 04:30,153.1292,-27.3917,78.80,53.60,41.69,140.00,5.00,M,29.94,M,6.21,M,SCT,M,M,M,4500.00,M,M,M,M,YBBN 060430Z 14005KT 9999 SCT045 26/12 Q1014 NOSIG
YBBN,2010-11-06 05:00,153.1292,-27.3917,75.20,62.60,64.91,110.00,10.00,M,29.94,M,6.21,M,FEW,M,M,M,4500.00,M,M,M,M,YBBN 060500Z 11010KT 9999 FEW045 24/17 Q1014 NOSIG
YBBN,2010-11-06 05:30,153.1292,-27.3917,73.40,60.80,64.69,90.00,11.00,M,29.94,M,6.21,M,FEW,M,M,M,4500.00,M,M,M,M,YBBN 060530Z 09011KT 9999 FEW045 23/16 Q1014 NOSIG
YBBN,2010-11-06 06:00,153.1292,-27.3917,73.40,60.80,64.69,100.00,8.00,M,29.94,M,6.21,M,FEW,M,M,M,4000.00,M,M,M,M,YBBN 060600Z 10008KT 9999 FEW040 23/16 Q1014 NOSIG
YBBN,2010-11-06 06:30,153.1292,-27.3917,73.40,60.80,64.69,110.00,8.00,M,29.94,M,6.21,M,FEW,M,M,M,3500.00,M,M,M,M,YBBN 060630Z 11008KT 9999 FEW035 23/16 Q1014 NOSIG
YBBN,2010-11-06 07:00,153.1292,-27.3917,73.40,59.00,60.67,120.00,7.00,M,29.94,M,6.21,M,FEW,M,M,M,3000.00,M,M,M,M,YBBN 060700Z 12007KT 9999 FEW030 23/15 Q1014 NOSIG
YBBN,2010-11-06 07:30,153.1292,-27.3917,71.60,60.80,68.75,110.00,7.00,M,29.97,M,6.21,M,FEW,M,M,M,3000.00,M,M,M,M,YBBN 060730Z 11007KT 9999 FEW030 22/16 Q1015 NOSIG
YBBN,2010-11-06 08:00,153.1292,-27.3917,71.60,59.00,64.48,100.00,6.00,M,29.97,M,6.21,M,FEW,M,M,M,3000.00,M,M,M,M,YBBN 060800Z 10006KT 9999 FEW030 22/15 Q1015 NOSIG
YBBN,2010-11-06 08:30,153.1292,-27.3917,69.80,60.80,73.09,110.00,5.00,M,30.00,M,6.21,M,FEW,M,M,M,2900.00,M,M,M,M,YBBN 060830Z 11005KT 9999 FEW029 21/16 Q1016 NOSIG
YBBN,2010-11-06 09:00,153.1292,-27.3917,69.80,60.80,73.09,90.00,5.00,M,30.00,M,6.21,M,FEW,M,M,M,2800.00,M,M,M,M,YBBN 060900Z 09005KT 9999 FEW028 21/16 Q1016 NOSIG
YBBN,2010-11-06 09:30,153.1292,-27.3917,69.80,60.80,73.09,110.00,1.00,M,30.03,M,6.21,M,FEW,M,M,M,2800.00,M,M,M,M,YBBN 060930Z 11001KT 9999 FEW028 21/16 Q1017 NOSIG
YBBN,2010-11-06 10:00,153.1292,-27.3917,68.00,60.80,77.75,240.00,5.00,M,30.03,M,6.21,M,FEW,M,M,M,2800.00,M,M,M,M,YBBN 061000Z 24005KT 9999 FEW028 20/16 Q1017 NOSIG
YBBN,2010-11-06 10:30,153.1292,-27.3917,68.00,57.20,68.35,210.00,7.00,M,30.03,M,6.21,M,FEW,M,M,M,2600.00,M,M,M,VCSH,YBBN 061030Z 21007KT 9999 VCSH FEW026 20/14 Q1017 RMK SH TO NORTH NOSIG
YBBN,2010-11-06 11:00,153.1292,-27.3917,68.00,57.20,68.35,200.00,8.00,M,30.03,M,6.21,M,FEW,M,M,M,2600.00,M,M,M,M,YBBN 061100Z 20008KT 9999 FEW026 20/14 Q1017 RMK DISTANT SH NORTH NOSIG
YBBN,2010-11-06 11:30,153.1292,-27.3917,66.20,57.20,72.74,210.00,5.00,M,30.06,M,6.21,M,FEW,M,M,M,2600.00,M,M,M,M,YBBN 061130Z 21005KT 9999 FEW026 19/14 Q1018 RMK DISTANT SH NW NOSIG
YBBN,2010-11-06 12:00,153.1292,-27.3917,66.20,57.20,72.74,210.00,8.00,M,30.06,M,6.21,M,FEW,SCT,M,M,2600.00,3600.00,M,M,M,YBBN 061200Z 21008KT 9999 FEW026 SCT036 19/14 Q1018 NOSIG
YBBN,2010-11-06 12:30,153.1292,-27.3917,64.40,59.00,82.62,210.00,7.00,M,30.06,M,6.21,M,FEW,SCT,M,M,2600.00,4000.00,M,M,M,YBBN 061230Z 21007KT 9999 FEW026 SCT040 18/15 Q1018 NOSIG
YBBN,2010-11-06 13:00,153.1292,-27.3917,62.60,59.00,88.00,210.00,6.00,M,30.06,M,6.21,M,FEW,SCT,M,M,2000.00,3600.00,M,M,M,YBBN 061300Z 21006KT 9999 FEW020 SCT036 17/15 Q1018 NOSIG
YBBN,2010-11-06 13:30,153.1292,-27.3917,66.20,59.00,77.60,210.00,8.00,M,30.06,M,6.21,M,FEW,BKN,M,M,2000.00,3300.00,M,M,M,YBBN 061330Z 21008KT 9999 FEW020 BKN033 19/15 Q1018 NOSIG
YBBN,2010-11-06 14:00,153.1292,-27.3917,64.40,59.00,82.62,210.00,8.00,M,30.06,M,6.21,M,FEW,SCT,BKN,M,1800.00,2600.00,3300.00,M,M,YBBN 061400Z 21008KT 9999 FEW018 SCT026 BKN033 18/15 Q1018 NOSIG
YBBN,2010-11-06 14:30,153.1292,-27.3917,64.40,59.00,82.62,210.00,7.00,M,30.03,M,6.21,M,FEW,SCT,BKN,M,1800.00,2500.00,3000.00,M,M,YBBN 061430Z 21007KT 9999 FEW018 SCT025 BKN030 18/15 Q1017 NOSIG
YBBN,2010-11-06 15:00,153.1292,-27.3917,64.40,59.00,82.62,210.00,9.00,M,30.03,M,6.21,M,FEW,SCT,BKN,M,1800.00,2400.00,3000.00,M,M,YBBN 061500Z 21009KT 9999 FEW018 SCT024 BKN030 18/15 Q1017 RMK DISTANT SH SE NOSIG
YBBN,2010-11-06 15:30,153.1292,-27.3917,64.40,59.00,82.62,210.00,7.00,M,30.00,M,6.21,M,FEW,SCT,BKN,M,1700.00,2300.00,3000.00,M,M,YBBN 061530Z 21007KT 9999 FEW017 SCT023 BKN030 18/15 Q1016 RMK DISTANT SH SE NOSIG
YBBN,2010-11-06 16:00,153.1292,-27.3917,64.40,59.00,82.62,210.00,8.00,M,30.00,M,6.21,M,SCT,SCT,BKN,M,1700.00,2100.00,3000.00,M,M,YBBN 061600Z 21008KT 9999 SCT017 SCT021 BKN030 18/15 Q1016 RMK DISTANT SH SE NOSIG
YBBN,2010-11-06 16:30,153.1292,-27.3917,66.20,57.20,72.74,210.00,9.00,M,30.00,M,6.21,M,FEW,SCT,BKN,M,1700.00,2000.00,3000.00,M,M,YBBN 061630Z 21009KT 9999 FEW017 SCT020 BKN030 19/14 Q1016 NOSIG
YBBN,2010-11-06 17:00,153.1292,-27.3917,66.20,59.00,77.60,200.00,9.00,M,30.03,M,6.21,M,FEW,SCT,BKN,M,1500.00,1700.00,3000.00,M,-DZ,YBBN 061700Z 20009KT 9999 -DZ FEW015 SCT017 BKN030 19/15 Q1017 NOSIG
YBBN,2010-11-06 17:30,153.1292,-27.3917,64.40,59.00,82.62,210.00,9.00,M,30.03,M,6.21,M,SCT,BKN,M,M,1500.00,1700.00,M,M,-DZ,YBBN 061730Z 21009KT 9999 -DZ SCT015 BKN017 18/15 Q1017 NOSIG
YBBN,2010-11-06 18:00,153.1292,-27.3917,64.40,59.00,82.62,210.00,9.00,M,30.03,M,5.59,M,FEW,SCT,BKN,M,1400.00,1700.00,3000.00,M,-DZ VCSH,YBBN 061800Z 21009KT 9000 -DZ VCSH FEW014 SCT017 BKN030 18/15 Q1017 NOSIG
YBBN,2010-11-06 18:30,153.1292,-27.3917,64.40,59.00,82.62,200.00,9.00,M,30.03,M,6.21,M,FEW,SCT,BKN,M,1200.00,2000.00,3200.00,M,VCSH,YBBN 061830Z 20009KT 9999 VCSH FEW012 SCT020 BKN032 18/15 Q1017 NOSIG
YBBN,2010-11-06 19:00,153.1292,-27.3917,64.40,60.80,88.09,200.00,9.00,M,30.03,M,6.21,M,FEW,SCT,M,M,1200.00,2000.00,M,M,M,YBBN 061900Z 20009KT 9999 FEW012 SCT020 18/16 Q1017 NOSIG
YBBN,2010-11-06 19:30,153.1292,-27.3917,64.40,60.80,88.09,210.00,7.00,M,30.06,M,6.21,M,FEW,SCT,M,M,1600.00,2000.00,M,M,M,YBBN 061930Z 21007KT 9999 FEW016 SCT020 18/16 Q1018 RMK DISTANT SH SE NOSIG
YBBN,2010-11-06 20:00,153.1292,-27.3917,66.20,59.00,77.60,210.00,9.00,M,30.06,M,6.21,M,FEW,SCT,BKN,M,1600.00,2000.00,3300.00,M,M,YBBN 062000Z 21009KT 9999 FEW016 SCT020 BKN033 19/15 Q1018 RMK DISTANT SH SE NOSIG
YBBN,2010-11-06 20:30,153.1292,-27.3917,68.00,59.00,72.92,200.00,7.00,M,30.06,M,6.21,M,BKN,M,M,M,2300.00,M,M,M,M,YBBN 062030Z 20007KT 9999 BKN023 20/15 Q1018 NOSIG
YBBN,2010-11-06 21:00,153.1292,-27.3917,68.00,59.00,72.92,190.00,7.00,M,30.09,M,6.21,M,FEW,BKN,M,M,1500.00,2300.00,M,M,M,YBBN 062100Z 19007KT 9999 FEW015 BKN023 20/15 Q1019 NOSIG
YBBN,2010-11-06 21:30,153.1292,-27.3917,71.60,60.80,68.75,160.00,7.00,M,30.09,M,6.21,M,FEW,BKN,M,M,1500.00,2300.00,M,M,M,YBBN 062130Z 16007KT 9999 FEW015 BKN023 22/16 Q1019 NOSIG
YBBN,2010-11-06 22:00,153.1292,-27.3917,71.60,62.60,73.27,160.00,7.00,M,30.09,M,6.21,M,FEW,BKN,BKN,M,1500.00,1900.00,3400.00,M,M,YBBN 062200Z 16007KT 9999 FEW015 BKN019 BKN034 22/17 Q1019 NOSIG
YBBN,2010-11-06 22:30,153.1292,-27.3917,73.40,64.40,73.44,130.00,6.00,M,30.09,M,6.21,M,FEW,BKN,M,M,1600.00,2100.00,M,M,M,YBBN 062230Z 13006KT 9999 FEW016 BKN021 23/18 Q1019 NOSIG
YBBN,2010-11-06 23:00,153.1292,-27.3917,73.40,62.60,68.94,130.00,8.00,M,30.09,M,6.21,M,FEW,BKN,M,M,1600.00,2500.00,M,M,M,YBBN 062300Z 13008KT 9999 FEW016 BKN025 23/17 Q1019 NOSIG
YBBN,2010-11-06 23:30,153.1292,-27.3917,75.20,62.60,64.91,130.00,9.00,M,30.09,M,6.21,M,SCT,M,M,M,3000.00,M,M,M,M,YBBN 062330Z 13009KT 9999 SCT030 24/17 Q1019 NOSIG
