#DEBUG: Format Typ    -> comma
#DEBUG: Time Period   -> 2013-01-04 00:00:00+00:00 2013-01-05 00:00:00+00:00
#DEBUG: Time Zone     -> Etc/UTC
#DEBUG: Data Contact   -> daryl herzmann akrherz@iastate.edu 515-294-5978
#DEBUG: Entries Found -> -1
station,valid,lon,lat,tmpf, dwpf, relh, drct, sknt, p01i, alti, mslp, vsby, gust, skyc1, skyc2, skyc3, skyc4, skyl1, skyl2, skyl3, skyl4, presentwx, metar
YBBN,2013-01-04 00:00,153.1292,-27.3917,80.60,62.60,54.30,110.00,11.00,0.00,30.00,M,6.21,M,SCT,M,M,M,3500.00,M,M,M,M,YBBN 040000Z 11011KT 9999 SCT035 27/17 Q1016 NOSIG
YBBN,2013-01-04 00:30,153.1292,-27.3917,82.40,62.60,51.21,120.00,11.00,0.00,30.00,M,6.21,M,SCT,BKN,M,M,3500.00,6000.00,M,M,M,YBBN 040030Z 12011KT 9999 SCT035 BKN060 28/17 Q1016
YBBN,2013-01-04 01:00,153.1292,-27.3917,82.40,60.80,48.05,120.00,12.00,0.00,30.00,M,6.21,M,SCT,M,M,M,4000.00,M,M,M,M,YBBN 040100Z 12012KT 9999 SCT040 28/16 Q1016 NOSIG
YBBN,2013-01-04 01:30,153.1292,-27.3917,82.40,60.80,48.05,120.00,13.00,0.00,29.97,M,6.21,M,SCT,M,M,M,4000.00,M,M,M,M,YBBN 040130Z 12013KT 9999 SCT040 28/16 Q1015
YBBN,2013-01-04 02:00,153.1292,-27.3917,82.40,59.00,45.07,110.00,11.00,0.00,29.97,M,6.21,M,SCT,M,M,M,4000.00,M,M,M,M,YBBN 040200Z 11011KT 9999 SCT040 28/15 Q1015 NOSIG
YBBN,2013-01-04 02:30,153.1292,-27.3917,84.20,60.80,45.34,110.00,12.00,0.00,29.97,M,6.21,M,SCT,M,M,M,4000.00,M,M,M,M,YBBN 040230Z 11012KT 9999 SCT040 29/16 Q1015
YBBN,2013-01-04 03:00,153.1292,-27.3917,82.40,60.80,48.05,110.00,13.00,0.00,29.94,M,6.21,M,FEW,M,M,M,4000.00,M,M,M,M,YBBN 040300Z 11013KT 9999 FEW040 28/16 Q1014 NOSIG
YBBN,2013-01-04 03:30,153.1292,-27.3917,80.60,57.20,44.80,110.00,12.00,0.00,29.94,M,6.21,M,FEW,M,M,M,4000.00,M,M,M,M,YBBN 040330Z 11012KT 9999 FEW040 27/14 Q1014
YBBN,2013-01-04 04:00,153.1292,-27.3917,82.40,57.20,42.25,110.00,13.00,0.00,29.94,M,6.21,M,FEW,M,M,M,4000.00,M,M,M,M,YBBN 040400Z 11013KT 9999 FEW040 28/14 Q1014 NOSIG
YBBN,2013-01-04 04:30,153.1292,-27.3917,82.40,57.20,42.25,90.00,11.00,0.00,29.94,M,6.21,M,FEW,M,M,M,4000.00,M,M,M,M,YBBN 040430Z 09011KT 9999 FEW040 28/14 Q1014
YBBN,2013-01-04 05:00,153.1292,-27.3917,80.60,57.20,44.80,110.00,11.00,0.00,29.94,M,6.21,M,FEW,M,M,M,4000.00,M,M,M,M,YBBN 040500Z 11011KT 9999 FEW040 27/14 Q1014
YBBN,2013-01-04 05:30,153.1292,-27.3917,80.60,59.00,47.79,110.00,12.00,0.00,29.94,M,6.21,M,FEW,M,M,M,4000.00,M,M,M,M,YBBN 040530Z 11012KT 9999 FEW040 27/15 Q1014
YBBN,2013-01-04 06:00,153.1292,-27.3917,80.60,59.00,47.79,120.00,10.00,0.00,29.94,M,6.21,M,FEW,M,M,M,4000.00,M,M,M,M,YBBN 040600Z 12010KT 9999 FEW040 27/15 Q1014
YBBN,2013-01-04 06:30,153.1292,-27.3917,80.60,60.80,50.95,120.00,11.00,0.00,29.94,M,6.21,M,FEW,M,M,M,4000.00,M,M,M,M,YBBN 040630Z 12011KT 9999 FEW040 27/16 Q1014
YBBN,2013-01-04 07:00,153.1292,-27.3917,80.60,62.60,54.30,120.00,11.00,0.00,29.94,M,6.21,M,FEW,M,M,M,4000.00,M,M,M,M,YBBN 040700Z 12011KT 9999 FEW040 27/17 Q1014 NOSIG
YBBN,2013-01-04 07:30,153.1292,-27.3917,78.80,60.80,54.05,110.00,9.00,0.00,29.94,M,6.21,M,FEW,M,M,M,4000.00,M,M,M,M,YBBN 040730Z 11009KT 9999 FEW040 26/16 Q1014 RMK HAZE
YBBN,2013-01-04 08:00,153.1292,-27.3917,77.00,62.60,61.13,100.00,9.00,0.00,29.94,M,6.21,M,FEW,M,M,M,3500.00,M,M,M,M,YBBN 040800Z 10009KT 9999 FEW035 25/17 Q1014 NOSIG
YBBN,2013-01-04 08:30,153.1292,-27.3917,77.00,60.80,57.36,100.00,8.00,0.00,29.97,M,6.21,M,FEW,M,M,M,3500.00,M,M,M,M,YBBN 040830Z 10008KT 9999 FEW035 25/16 Q1015
YBBN,2013-01-04 09:00,153.1292,-27.3917,77.00,62.60,61.13,110.00,9.00,0.00,29.97,M,6.21,M,FEW,M,M,M,3000.00,M,M,M,M,YBBN 040900Z 11009KT 9999 FEW030 25/17 Q1015 NOSIG
YBBN,2013-01-04 09:30,153.1292,-27.3917,75.20,62.60,64.91,100.00,9.00,0.00,29.97,M,6.21,M,FEW,M,M,M,3000.00,M,M,M,M,YBBN 040930Z 10009KT 9999 FEW030 24/17 Q1015
YBBN,2013-01-04 10:00,153.1292,-27.3917,75.20,64.40,69.14,110.00,9.00,0.00,29.97,M,6.21,M,FEW,M,M,M,3000.00,M,M,M,M,YBBN 041000Z 11009KT 9999 FEW030 24/18 Q1015 NOSIG
YBBN,2013-01-04 10:30,153.1292,-27.3917,75.20,62.60,64.91,100.00,7.00,0.00,29.97,M,6.21,M,FEW,M,M,M,2500.00,M,M,M,M,YBBN 041030Z 10007KT 9999 FEW025 24/17 Q1015
YBBN,2013-01-04 11:00,153.1292,-27.3917,75.20,64.40,69.14,100.00,8.00,0.00,29.97,M,6.21,M,FEW,M,M,M,2500.00,M,M,M,M,YBBN 041100Z 10008KT 9999 FEW025 24/18 Q1015 NOSIG
YBBN,2013-01-04 11:30,153.1292,-27.3917,75.20,64.40,69.14,100.00,8.00,0.00,30.00,M,6.21,M,FEW,M,M,M,2400.00,M,M,M,M,YBBN 041130Z 10008KT 9999 FEW024 24/18 Q1016
YBBN,2013-01-04 12:00,153.1292,-27.3917,75.20,64.40,69.14,100.00,8.00,0.00,30.00,M,6.21,M,FEW,M,M,M,2400.00,M,M,M,M,YBBN 041200Z 10008KT 9999 FEW024 24/18 Q1016
YBBN,2013-01-04 12:30,153.1292,-27.3917,75.20,64.40,69.14,90.00,7.00,0.00,30.00,M,6.21,M,FEW,M,M,M,2400.00,M,M,M,M,YBBN 041230Z 09007KT 9999 FEW024 24/18 Q1016
YBBN,2013-01-04 13:00,153.1292,-27.3917,75.20,64.40,69.14,110.00,6.00,0.00,29.97,M,6.21,M,FEW,SCT,M,M,2400.00,5500.00,M,M,M,YBBN 041300Z 11006KT 9999 FEW024 SCT055 24/18 Q1015 NOSIG
YBBN,2013-01-04 13:30,153.1292,-27.3917,75.20,64.40,69.14,100.00,7.00,0.00,29.97,M,6.21,M,SCT,BKN,M,M,2400.00,5500.00,M,M,M,YBBN 041330Z 10007KT 9999 SCT024 BKN055 24/18 Q1015
YBBN,2013-01-04 14:00,153.1292,-27.3917,75.20,64.40,69.14,90.00,5.00,0.00,29.97,M,6.21,M,SCT,BKN,M,M,2500.00,5500.00,M,M,M,YBBN 041400Z 09005KT 9999 SCT025 BKN055 24/18 Q1015
YBBN,2013-01-04 14:30,153.1292,-27.3917,75.20,64.40,69.14,100.00,6.00,0.00,29.94,M,6.21,M,FEW,BKN,M,M,2500.00,5000.00,M,M,VCSH,YBBN 041430Z 10006KT 9999 VCSH FEW025 BKN050 24/18 Q1014
YBBN,2013-01-04 15:00,153.1292,-27.3917,73.40,62.60,68.94,130.00,7.00,0.00,29.94,M,6.21,M,FEW,SCT,BKN,M,2500.00,4200.00,5000.00,M,M,YBBN 041500Z 13007KT 9999 FEW025 SCT042 BKN050 23/17 Q1014
YBBN,2013-01-04 15:30,153.1292,-27.3917,75.20,62.60,64.91,110.00,5.00,0.00,29.94,M,6.21,M,FEW,SCT,BKN,M,2500.00,4200.00,5200.00,M,M,YBBN 041530Z 11005KT 9999 FEW025 SCT042 BKN052 24/17 Q1014
YBBN,2013-01-04 16:00,153.1292,-27.3917,75.20,62.60,64.91,120.00,5.00,0.00,29.94,M,6.21,M,FEW,SCT,BKN,M,2500.00,4200.00,5500.00,M,M,YBBN 041600Z 12005KT 9999 FEW025 SCT042 BKN055 24/17 Q1014 NOSIG
YBBN,2013-01-04 16:30,153.1292,-27.3917,75.20,62.60,64.91,110.00,6.00,0.00,29.94,M,6.21,M,FEW,BKN,M,M,2500.00,5500.00,M,M,M,YBBN 041630Z 11006KT 9999 FEW025 BKN055 24/17 Q1014
YBBN,2013-01-04 17:00,153.1292,-27.3917,75.20,62.60,64.91,100.00,7.00,0.00,29.94,M,6.21,M,FEW,BKN,M,M,2500.00,5500.00,M,M,M,YBBN 041700Z 10007KT 9999 FEW025 BKN055 24/17 Q1014
YBBN,2013-01-04 17:30,153.1292,-27.3917,75.20,60.80,60.90,100.00,7.00,0.00,29.94,M,6.21,M,FEW,BKN,M,M,2500.00,5000.00,M,M,M,YBBN 041730Z 10007KT 9999 FEW025 BKN050 24/16 Q1014
YBBN,2013-01-04 18:00,153.1292,-27.3917,75.20,60.80,60.90,110.00,6.00,0.00,29.94,M,6.21,M,FEW,BKN,M,M,2500.00,5500.00,M,M,M,YBBN 041800Z 11006KT 9999 FEW025 BKN055 24/16 Q1014
YBBN,2013-01-04 18:30,153.1292,-27.3917,73.40,62.60,68.94,120.00,6.00,0.00,29.94,M,6.21,M,FEW,SCT,M,M,2500.00,5500.00,M,M,M,YBBN 041830Z 12006KT 9999 FEW025 SCT055 23/17 Q1014
YBBN,2013-01-04 19:00,153.1292,-27.3917,73.40,64.40,73.44,120.00,8.00,0.00,29.97,M,6.21,M,FEW,SCT,M,M,2500.00,5500.00,M,M,M,YBBN 041900Z 12008KT 9999 FEW025 SCT055 23/18 Q1015 NOSIG
YBBN,2013-01-04 19:30,153.1292,-27.3917,71.60,64.40,78.04,160.00,4.00,0.00,29.97,M,6.21,M,FEW,BKN,M,M,2500.00,5500.00,M,M,M,YBBN 041930Z 16004KT 9999 FEW025 BKN055 22/18 Q1015
YBBN,2013-01-04 20:00,153.1292,-27.3917,73.40,64.40,73.44,200.00,6.00,0.00,30.00,M,6.21,M,FEW,SCT,M,M,2500.00,5500.00,M,M,M,YBBN 042000Z 20006KT 9999 FEW025 SCT055 23/18 Q1016 NOSIG
YBBN,2013-01-04 20:30,153.1292,-27.3917,73.40,64.40,73.44,200.00,5.00,0.00,30.00,M,6.21,M,FEW,BKN,M,M,2500.00,5900.00,M,M,VCSH,YBBN 042030Z 20005KT 9999 VCSH FEW025 BKN059 23/18 Q1016
YBBN,2013-01-04 21:00,153.1292,-27.3917,75.20,64.40,69.14,120.00,7.00,0.00,30.00,M,6.21,M,FEW,SCT,BKN,M,2500.00,3000.00,5500.00,M,VCSH,YBBN 042100Z 12007KT 9999 VCSH FEW025 SCT030 BKN055 24/18 Q1016
YBBN,2013-01-04 21:30,153.1292,-27.3917,77.00,59.00,53.80,60.00,7.00,0.00,30.03,M,6.21,M,FEW,BKN,M,M,2500.00,5000.00,M,M,M,YBBN 042130Z 06007KT 9999 FEW025 BKN050 25/15 Q1017
YBBN,2013-01-04 22:00,153.1292,-27.3917,78.80,62.60,57.60,120.00,7.00,0.00,30.03,M,6.21,M,FEW,BKN,M,M,3000.00,5500.00,M,M,M,YBBN 042200Z 12007KT 9999 FEW030 BKN055 26/17 Q1017 NOSIG
YBBN,2013-01-04 22:30,153.1292,-27.3917,78.80,62.60,57.60,130.00,7.00,0.00,30.03,M,6.21,M,SCT,BKN,M,M,3000.00,5500.00,M,M,M,YBBN 042230Z 13007KT 9999 SCT030 BKN055 26/17 Q1017
YBBN,2013-01-04 23:00,153.1292,-27.3917,77.00,64.40,65.12,120.00,9.00,0.00,30.03,M,4.97,M,SCT,BKN,M,M,2800.00,5500.00,M,M,VCSH,YBBN 042300Z 12009KT 8000 VCSH SCT028 BKN055 25/18 Q1017
YBBN,2013-01-04 23:30,153.1292,-27.3917,77.00,64.40,65.12,120.00,7.00,0.00,30.03,M,4.35,M,FEW,BKN,BKN,M,2800.00,3700.00,4300.00,M,VCSH,YBBN 042330Z 12007KT 7000 VCSH FEW028 BKN037 BKN043 25/18 Q1017 RMK SHOWER AFFECTING NORTH RUNWAY
