#DEBUG: Format Typ    -> comma
#DEBUG: Time Period   -> 2015-10-13 00:00:00+00:00 2015-10-14 00:00:00+00:00
#DEBUG: Time Zone     -> Etc/UTC
#DEBUG: Data Contact   -> daryl herzmann akrherz@iastate.edu 515-294-5978
#DEBUG: Entries Found -> -1
station,valid,lon,lat,tmpf, dwpf, relh, drct, sknt, p01i, alti, mslp, vsby, gust, skyc1, skyc2, skyc3, skyc4, skyl1, skyl2, skyl3, skyl4, presentwx, metar
YBBN,2015-10-13 00:00,153.1292,-27.3917,75.20,60.80,60.90,20.00,11.00,0.00,30.12,M,6.21,M,M,M,M,M,M,M,M,M,M,YBBN 130000Z 02011KT CAVOK 24/16 Q1020 NOSIG
YBBN,2015-10-13 00:30,153.1292,-27.3917,75.20,60.80,60.90,20.00,11.00,0.00,30.12,M,6.21,M,FEW,M,M,M,2500.00,M,M,M,M,YBBN 130030Z 02011KT 9999 FEW025 24/16 Q1020
YBBN,2015-10-13 01:00,153.1292,-27.3917,77.00,62.60,61.13,20.00,14.00,0.00,30.09,M,6.21,M,FEW,M,M,M,3000.00,M,M,M,M,YBBN 130100Z 02014KT 9999 FEW030 25/17 Q1019 NOSIG
YBBN,2015-10-13 01:30,153.1292,-27.3917,75.20,62.60,64.91,30.00,15.00,0.00,30.09,M,6.21,M,FEW,M,M,M,3000.00,M,M,M,M,YBBN 130130Z 03015KT 9999 FEW030 24/17 Q1019
YBBN,2015-10-13 02:00,153.1292,-27.3917,77.00,64.40,65.12,30.00,15.00,0.00,30.09,M,6.21,M,FEW,FEW,M,M,3000.00,3500.00,M,M,M,YBBN 130200Z 03015KT 9999 FEW030 FEW035TCU 25/18 Q1019
YBBN,2015-10-13 02:30,153.1292,-27.3917,75.20,64.40,69.14,30.00,16.00,0.00,30.06,M,6.21,M,FEW,M,M,M,3000.00,M,M,M,M,YBBN 130230Z 03016KT 9999 FEW030 24/18 Q1018 RMK DISTANT CB TOPS TO W AND SW
YBBN,2015-10-13 03:00,153.1292,-27.3917,77.00,66.20,69.33,20.00,17.00,0.00,30.06,M,6.21,M,FEW,M,M,M,2500.00,M,M,M,M,YBBN 130300Z 02017KT 9999 FEW025 25/19 Q1018 NOSIG
YBBN,2015-10-13 03:30,153.1292,-27.3917,77.00,66.20,69.33,20.00,18.00,0.00,30.06,M,6.21,M,FEW,SCT,M,M,2500.00,16000.00,M,M,M,YBBN 130330Z 02018KT 9999 FEW025 SCT160 25/19 Q1018 RMK DISTANT CB TOPS TO W AND SW
YBBN,2015-10-13 04:00,153.1292,-27.3917,75.20,64.40,69.14,10.00,19.00,0.00,30.03,M,6.21,M,FEW,BKN,FEW,M,2500.00,25000.00,3000.00,M,M,YBBN 130400Z 01019KT 9999 FEW025 BKN250 FEW030CB 24/18 Q1017 RMK DISTANT TS 40KM TO NW
YBBN,2015-10-13 04:30,153.1292,-27.3917,77.00,66.20,69.33,20.00,17.00,0.00,30.03,M,6.21,M,FEW,BKN,M,M,2500.00,25000.00,M,M,M,YBBN 130430Z 02017KT 9999 FEW025 BKN250 25/19 Q1017 RMK DISTANT CB/TS TO W AND SW
YBBN,2015-10-13 05:00,153.1292,-27.3917,73.40,66.20,78.19,10.00,18.00,0.00,30.03,M,6.21,M,FEW,BKN,M,M,2500.00,25000.00,M,M,M,YBBN 130500Z 01018KT 9999 FEW025 BKN250 23/19 Q1017 NOSIG
YBBN,2015-10-13 05:30,153.1292,-27.3917,73.40,64.40,73.44,10.00,16.00,0.00,30.03,M,6.21,M,M,M,M,M,M,M,M,M,M,YBBN 130530Z 01016KT CAVOK 23/18 Q1017 RMK DISTANT CB TO SW
YBBN,2015-10-13 06:00,153.1292,-27.3917,73.40,64.40,73.44,10.00,17.00,0.00,30.06,M,6.21,M,FEW,SCT,BKN,M,2000.00,3000.00,28000.00,M,M,YBBN 130600Z 01017KT 9999 FEW020 SCT030 BKN280 23/18 Q1018
YBBN,2015-10-13 06:30,153.1292,-27.3917,73.40,64.40,73.44,10.00,13.00,0.00,30.06,M,6.21,M,FEW,BKN,BKN,M,2000.00,13000.00,28000.00,M,M,YBBN 130630Z 01013KT 9999 FEW020 BKN130 BKN280 23/18 Q1018 RMK DISTANT CB TO S
YBBN,2015-10-13 07:00,153.1292,-27.3917,71.60,62.60,73.27,10.00,11.00,0.00,30.06,M,6.21,M,FEW,BKN,M,M,2000.00,13000.00,M,M,VCSH,YBBN 130700Z 01011KT 9999 VCSH FEW020 BKN130 22/17 Q1018 NOSIG
YBBN,2015-10-13 07:30,153.1292,-27.3917,71.60,64.40,78.04,60.00,9.00,0.00,30.09,M,6.21,M,FEW,BKN,M,M,2000.00,13000.00,M,M,-SHRA,YBBN 130730Z 06009KT 9999 -SHRA FEW020 BKN130 22/18 Q1019
YBBN,2015-10-13 08:00,153.1292,-27.3917,71.60,64.40,78.04,50.00,10.00,0.00,30.12,M,6.21,M,FEW,BKN,M,M,2000.00,12000.00,M,M,VCSH,YBBN 130800Z 05010KT 9999 VCSH FEW020 BKN120 22/18 Q1020 NOSIG
YBBN,2015-10-13 08:30,153.1292,-27.3917,71.60,64.40,78.04,40.00,7.00,0.00,30.12,M,6.21,M,FEW,BKN,M,M,1700.00,2000.00,M,M,VCSH,YBBN 130830Z 04007KT 9999 VCSH FEW017 BKN020 22/18 Q1020
YBBN,2015-10-13 09:00,153.1292,-27.3917,71.60,62.60,73.27,60.00,7.00,0.00,30.15,M,6.21,M,FEW,BKN,M,M,1700.00,2000.00,M,M,VCSH,YBBN 130900Z 06007KT 9999 VCSH FEW017 BKN020 22/17 Q1021 NOSIG
YBBN,2015-10-13 09:30,153.1292,-27.3917,71.60,64.40,78.04,20.00,11.00,0.00,30.15,M,6.21,M,FEW,SCT,BKN,M,1800.00,2000.00,4800.00,M,VCSH,YBBN 130930Z 02011KT 9999 VCSH FEW018 SCT020 BKN048 22/18 Q1021
YBBN,2015-10-13 10:00,153.1292,-27.3917,71.60,64.40,78.04,10.00,10.00,0.00,30.15,M,6.21,M,FEW,SCT,BKN,M,1800.00,2000.00,11000.00,M,VCSH,YBBN 131000Z 01010KT 9999 VCSH FEW018 SCT020 BKN110 22/18 Q1021 NOSIG
YBBN,2015-10-13 10:30,153.1292,-27.3917,69.80,64.40,82.98,10.00,9.00,0.00,30.18,M,6.21,M,FEW,SCT,BKN,M,1800.00,2000.00,11000.00,M,VCSH,YBBN 131030Z 01009KT 9999 VCSH FEW018 SCT020 BKN110 21/18 Q1022 RMK DIST LIGHTNING SEEN NORTH
YBBN,2015-10-13 11:00,153.1292,-27.3917,71.60,64.40,78.04,10.00,9.00,0.00,30.18,M,6.21,M,FEW,SCT,BKN,M,1800.00,4800.00,11000.00,M,-SHRA,YBBN 131100Z 01009KT 9999 -SHRA FEW018 SCT048 BKN110 22/18 Q1022 NOSIG
YBBN,2015-10-13 11:30,153.1292,-27.3917,69.80,64.40,82.98,10.00,9.00,0.00,30.18,M,6.21,M,FEW,SCT,BKN,M,1600.00,1900.00,14000.00,M,M,YBBN 131130Z 01009KT 9999 FEW016 SCT019 BKN140 21/18 Q1022 RMK DIST -SHRA N/NE
YBBN,2015-10-13 12:00,153.1292,-27.3917,69.80,64.40,82.98,360.00,7.00,0.00,30.18,M,6.21,M,FEW,SCT,M,M,1600.00,15000.00,M,M,M,YBBN 131200Z 36007KT 9999 FEW016 SCT150 21/18 Q1022
YBBN,2015-10-13 12:30,153.1292,-27.3917,68.00,64.40,88.26,50.00,4.00,0.00,30.15,M,6.21,M,FEW,SCT,M,M,1600.00,15000.00,M,M,M,YBBN 131230Z 05004KT 9999 FEW016 SCT150 20/18 Q1021 RMK DIST LIGHTNING SEEN WEST
YBBN,2015-10-13 13:00,153.1292,-27.3917,66.20,62.60,88.18,30.00,5.00,0.00,30.18,M,6.21,M,FEW,BKN,M,M,1500.00,1600.00,M,M,M,YBBN 131300Z 03005KT 9999 FEW015 BKN016 19/17 Q1022
YBBN,2015-10-13 13:30,153.1292,-27.3917,68.00,64.40,88.26,10.00,4.00,0.00,30.18,M,6.21,M,FEW,BKN,M,M,1500.00,1700.00,M,M,M,YBBN 131330Z 01004KT 9999 FEW015 BKN017 20/18 Q1022
YBBN,2015-10-13 14:00,153.1292,-27.3917,69.80,64.40,82.98,0.00,0.00,0.00,30.18,M,6.21,M,FEW,BKN,M,M,1600.00,1800.00,M,M,M,YBBN 131400Z 00000KT 9999 FEW016 BKN018 21/18 Q1022
YBBN,2015-10-13 14:30,153.1292,-27.3917,69.80,64.40,82.98,120.00,3.00,0.00,30.18,M,6.21,M,FEW,SCT,BKN,M,1600.00,1800.00,4500.00,M,SHRA,YBBN 131430Z 12003KT 9999 SHRA FEW016 SCT018 BKN045 21/18 Q1022 RMK SHRA NORTH
YBBN,2015-10-13 15:00,153.1292,-27.3917,68.00,64.40,88.26,50.00,4.00,0.00,30.15,M,6.21,M,FEW,SCT,M,M,1700.00,1800.00,M,M,VCSH,YBBN 131500Z 05004KT 9999 VCSH FEW017 SCT018 20/18 Q1021 RESHRA
YBBN,2015-10-13 15:30,153.1292,-27.3917,68.00,64.40,88.26,90.00,5.00,0.00,30.15,M,6.21,M,FEW,BKN,M,M,1700.00,2000.00,M,M,M,YBBN 131530Z 09005KT 9999 FEW017 BKN020 20/18 Q1021
YBBN,2015-10-13 16:00,153.1292,-27.3917,69.80,64.40,82.98,60.00,5.00,0.00,30.15,M,6.21,M,FEW,SCT,BKN,M,1700.00,2000.00,11000.00,M,M,YBBN 131600Z 06005KT 9999 FEW017 SCT020 BKN110 21/18 Q1021
YBBN,2015-10-13 16:30,153.1292,-27.3917,69.80,64.40,82.98,70.00,4.00,0.00,30.15,M,6.21,M,FEW,SCT,BKN,M,1800.00,2000.00,3200.00,M,VCSH,YBBN 131630Z 07004KT 9999 VCSH FEW018 SCT020 BKN032 21/18 Q1021
YBBN,2015-10-13 17:00,153.1292,-27.3917,68.00,64.40,88.26,50.00,1.00,0.00,30.15,M,6.21,M,FEW,SCT,BKN,M,1500.00,2000.00,3800.00,M,VCSH,YBBN 131700Z 05001KT 9999 VCSH FEW015 SCT020 BKN038 20/18 Q1021 NOSIG
YBBN,2015-10-13 17:30,153.1292,-27.3917,68.00,64.40,88.26,200.00,4.00,0.00,30.15,M,6.21,M,FEW,SCT,BKN,FEW,1400.00,1900.00,3800.00,2000.00,-SHRA,YBBN 131730Z 20004KT 9999 -SHRA FEW014 SCT019 BKN038 FEW020TCU 20/18 Q1021
YBBN,2015-10-13 18:00,153.1292,-27.3917,66.20,64.40,93.92,160.00,4.00,0.00,30.15,M,6.21,M,FEW,SCT,BKN,M,1500.00,1900.00,5700.00,M,VCSH,YBBN 131800Z 16004KT 130V190 9999 VCSH FEW015 SCT019 BKN057 19/18 Q1021
YBBN,2015-10-13 18:30,153.1292,-27.3917,66.20,62.60,88.18,190.00,6.00,0.00,30.18,M,6.21,M,FEW,BKN,FEW,M,1500.00,1900.00,2000.00,M,VCSH,YBBN 131830Z 19006KT 9999 VCSH FEW015 BKN019 FEW020CB 19/17 Q1022 RMK DIST CB AND +SHRA NORTH
YBBN,2015-10-13 19:00,153.1292,-27.3917,66.20,62.60,88.18,190.00,5.00,0.00,30.18,M,6.21,M,FEW,SCT,BKN,FEW,1600.00,1900.00,5800.00,2000.00,VCSH,YBBN 131900Z 19005KT 9999 VCSH FEW016 SCT019 BKN058 FEW020CB 19/17 Q1022 RMK CB AND +SHRA NORTH
YBBN,2015-10-13 19:30,153.1292,-27.3917,66.20,62.60,88.18,200.00,6.00,0.00,30.18,M,6.21,M,FEW,SCT,BKN,FEW,1700.00,1900.00,5800.00,2000.00,VCSH,YBBN 131930Z 20006KT 9999 VCSH FEW017 SCT019 BKN058 FEW020CB 19/17 Q1022 RMK CB AND +SHRA NORTH/WEST
YBBN,2015-10-13 20:00,153.1292,-27.3917,66.20,62.60,88.18,190.00,4.00,0.00,30.21,M,6.21,M,FEW,SCT,BKN,FEW,1300.00,1900.00,6000.00,2000.00,VCSH,YBBN 132000Z 19004KT 9999 VCSH FEW013 SCT019 BKN060 FEW020CB 19/17 Q1023 RMK CB AND +SHRA NORTH
YBBN,2015-10-13 20:30,153.1292,-27.3917,68.00,62.60,82.86,200.00,5.00,0.00,30.21,M,6.21,M,FEW,BKN,BKN,FEW,1300.00,6900.00,11500.00,2000.00,VCSH,YBBN 132030Z 20005KT 9999 VCSH FEW013 BKN069 BKN115 FEW020CB 20/17 Q1023 RMK CB AND SHRA TO NW
YBBN,2015-10-13 21:00,153.1292,-27.3917,69.80,62.60,77.90,230.00,5.00,0.00,30.21,M,6.21,M,FEW,SCT,BKN,FEW,1300.00,1900.00,7100.00,2000.00,VCSH,YBBN 132100Z 23005KT 9999 VCSH FEW013 SCT019 BKN071 FEW020CB 21/17 Q1023
YBBN,2015-10-13 21:30,153.1292,-27.3917,69.80,62.60,77.90,280.00,6.00,0.00,30.24,M,6.21,M,FEW,SCT,BKN,FEW,1500.00,3200.00,28000.00,2500.00,VCSH,YBBN 132130Z 28006KT 9999 VCSH FEW015 SCT032 BKN280 FEW025CB 21/17 Q1024 RMK DIST CB AND SHRA IN AREA
YBBN,2015-10-13 22:00,153.1292,-27.3917,69.80,62.60,77.90,330.00,6.00,0.00,30.24,M,6.21,M,FEW,BKN,BKN,FEW,1500.00,2800.00,7300.00,2600.00,-SHRA,YBBN 132200Z 33006KT 9999 -SHRA FEW015 BKN028 BKN073 FEW026CB 21/17 Q1024
YBBN,2015-10-13 22:16,153.1292,-27.3917,66.20,62.60,88.18,110.00,6.00,0.00,30.24,M,1.55,M,FEW,BKN,BKN,FEW,1500.00,2200.00,2900.00,2500.00,SHRA,YBBN 132216Z 11006KT 2500 SHRA FEW015 BKN022 BKN029 FEW025CB 19/17 Q1024
YBBN,2015-10-13 22:30,153.1292,-27.3917,66.20,64.40,93.92,110.00,6.00,0.00,30.24,M,1.24,M,FEW,SCT,BKN,FEW,900.00,1600.00,2200.00,2500.00,-TSRA,YBBN 132230Z 11006KT 050V160 2000 -TSRA FEW009 SCT016 BKN022 FEW025CB 19/18 Q1024
YBBN,2015-10-13 23:00,153.1292,-27.3917,66.20,64.40,93.92,360.00,5.00,0.00,30.24,M,6.21,M,FEW,BKN,BKN,FEW,900.00,6800.00,8100.00,2800.00,VCSH,YBBN 132300Z 36005KT 9999 VCSH FEW009 BKN068 BKN081 FEW028CB 19/18 Q1024 RETS
YBBN,2015-10-13 23:30,153.1292,-27.3917,68.00,62.60,82.86,290.00,3.00,0.00,30.24,M,6.21,M,FEW,SCT,M,M,1200.00,28000.00,M,M,M,YBBN 132330Z 29003KT 9999 FEW012 SCT280 20/17 Q1024
