#DEBUG: Format Typ    -> comma
#DEBUG: Time Period   -> 2013-09-28 00:00:00+00:00 2013-09-29 00:00:00+00:00
#DEBUG: Time Zone     -> Etc/UTC
#DEBUG: Data Contact   -> daryl herzmann akrherz@iastate.edu 515-294-5978
#DEBUG: Entries Found -> -1
station,valid,lon,lat,tmpf, dwpf, relh, drct, sknt, p01i, alti, mslp, vsby, gust, skyc1, skyc2, skyc3, skyc4, skyl1, skyl2, skyl3, skyl4, presentwx, metar
YBBN,2013-09-28 00:00,153.1292,-27.3917,68.00,64.40,88.26,300.00,5.00,0.00,30.00,M,6.21,M,FEW,SCT,BKN,M,4800.00,11000.00,12000.00,M,VCSH,YBBN 280000Z 30005KT 9999 VCSH FEW048 SCT110 BKN120 20/18 Q1016 RMK VIRGA/HZ
YBBN,2013-09-28 00:30,153.1292,-27.3917,69.80,64.40,82.98,360.00,9.00,0.00,30.00,M,6.21,M,FEW,BKN,M,M,4800.00,11000.00,M,M,VCSH,YBBN 280030Z 36009KT 9999 VCSH FEW048 BKN110 21/18 Q1016 RMK VIRGA/HZ
YBBN,2013-09-28 01:00,153.1292,-27.3917,69.80,64.40,82.98,350.00,16.00,0.00,29.97,M,6.21,M,FEW,SCT,BKN,M,1800.00,6200.00,11000.00,M,-SHRA,YBBN 280100Z 35016KT 9999 -SHRA FEW018 SCT062 BKN110 21/18 Q1015 RMK VIRGA
YBBN,2013-09-28 01:30,153.1292,-27.3917,73.40,60.80,64.69,350.00,8.00,0.00,29.94,M,6.21,M,FEW,SCT,BKN,M,1800.00,4200.00,9700.00,M,-SHRA,YBBN 280130Z 35008KT 9999 -SHRA FEW018 SCT042 BKN097 23/16 Q1014 RMK VIRGA
YBBN,2013-09-28 02:00,153.1292,-27.3917,71.60,62.60,73.27,220.00,10.00,0.00,29.94,M,6.21,M,FEW,SCT,BKN,M,1700.00,3800.00,9700.00,M,-SHRA,YBBN 280200Z 22010KT 9999 -SHRA FEW017 SCT038 BKN097 22/17 Q1014 RMK VIRGA
YBBN,2013-09-28 02:30,153.1292,-27.3917,69.80,64.40,82.98,290.00,9.00,0.00,30.00,M,6.21,M,FEW,SCT,BKN,M,1600.00,4000.00,10000.00,M,-SHRA,YBBN 280230Z 29009KT 9999 -SHRA FEW016 SCT040 BKN100 21/18 Q1016 RMK VIRGA
YBBN,2013-09-28 03:00,153.1292,-27.3917,69.80,66.20,88.34,360.00,17.00,0.00,29.91,M,6.21,M,FEW,SCT,BKN,M,1600.00,4600.00,9500.00,M,-SHRA,YBBN 280300Z 36017KT 9999 -SHRA FEW016 SCT046 BKN095 21/19 Q1013
YBBN,2013-09-28 03:30,153.1292,-27.3917,73.40,64.40,73.44,10.00,17.00,0.00,29.91,M,6.21,M,FEW,SCT,BKN,M,2000.00,15500.00,22000.00,M,M,YBBN 280330Z 01017KT 9999 FEW020 SCT155 BKN220 23/18 Q1013 RMK VIRGA/DIST SH N/NE
YBBN,2013-09-28 04:00,153.1292,-27.3917,73.40,62.60,68.94,360.00,16.00,0.00,29.91,M,6.21,M,FEW,SCT,BKN,M,4200.00,15500.00,22000.00,M,M,YBBN 280400Z 36016KT 9999 FEW042 SCT155 BKN220 23/17 Q1013 RMK VIRGA
YBBN,2013-09-28 04:30,153.1292,-27.3917,73.40,60.80,64.69,340.00,13.00,0.00,29.91,M,6.21,M,FEW,SCT,BKN,M,4700.00,15000.00,22000.00,M,M,YBBN 280430Z 34013KT 9999 FEW047 SCT150 BKN220 23/16 Q1013 RMK VIRGA
YBBN,2013-09-28 05:00,153.1292,-27.3917,75.20,57.20,53.55,310.00,8.00,0.00,29.88,M,6.21,M,FEW,SCT,BKN,M,4900.00,17000.00,23000.00,M,M,YBBN 280500Z 31008KT 9999 FEW049 SCT170 BKN230 24/14 Q1012 NOSIG
YBBN,2013-09-28 05:30,153.1292,-27.3917,77.00,57.20,50.43,280.00,6.00,0.00,29.88,M,6.21,M,FEW,BKN,M,M,4000.00,25000.00,M,M,M,YBBN 280530Z 28006KT 9999 FEW040 BKN250 25/14 Q1012
YBBN,2013-09-28 06:00,153.1292,-27.3917,77.00,55.40,47.25,300.00,6.00,0.00,29.88,M,6.21,M,FEW,BKN,M,M,4000.00,25000.00,M,M,M,YBBN 280600Z 30006KT 9999 FEW040 BKN250 25/13 Q1012
YBBN,2013-09-28 06:30,153.1292,-27.3917,77.00,57.20,50.43,330.00,7.00,0.00,29.88,M,6.21,M,FEW,SCT,M,M,3800.00,25000.00,M,M,M,YBBN 280630Z 33007KT 9999 FEW038 SCT250 25/14 Q1012
YBBN,2013-09-28 07:00,153.1292,-27.3917,75.20,57.20,53.55,10.00,5.00,0.00,29.88,M,6.21,M,M,M,M,M,M,M,M,M,M,YBBN 280700Z 01005KT CAVOK 24/14 Q1012
YBBN,2013-09-28 07:30,153.1292,-27.3917,71.60,59.00,64.48,360.00,6.00,0.00,29.88,M,6.21,M,M,M,M,M,M,M,M,M,M,YBBN 280730Z 36006KT CAVOK 22/15 Q1012 RMK DIST CB TO SW
YBBN,2013-09-28 08:00,153.1292,-27.3917,68.00,60.80,77.75,360.00,5.00,0.00,29.88,M,6.21,M,M,M,M,M,M,M,M,M,M,YBBN 280800Z 36005KT CAVOK 20/16 Q1012 RMK DIST CB TOPS TO SW
YBBN,2013-09-28 08:30,153.1292,-27.3917,68.00,62.60,82.86,10.00,6.00,0.00,29.88,M,6.21,M,M,M,M,M,M,M,M,M,M,YBBN 280830Z 01006KT CAVOK 20/17 Q1012 RMK DIST CB TOPS TO S
YBBN,2013-09-28 09:00,153.1292,-27.3917,68.00,62.60,82.86,350.00,8.00,0.00,29.88,M,6.21,M,M,M,M,M,M,M,M,M,M,YBBN 280900Z 35008KT CAVOK 20/17 Q1012 RMK DIST CB TO SW
YBBN,2013-09-28 09:30,153.1292,-27.3917,66.20,62.60,88.18,360.00,8.00,0.00,29.91,M,6.21,M,M,M,M,M,M,M,M,M,M,YBBN 280930Z 36008KT CAVOK 19/17 Q1013 RMK DIST CB TO SW
YBBN,2013-09-28 10:00,153.1292,-27.3917,68.00,62.60,82.86,350.00,7.00,0.00,29.91,M,6.21,M,M,M,M,M,M,M,M,M,M,YBBN 281000Z 35007KT CAVOK 20/17 Q1013
YBBN,2013-09-28 10:30,153.1292,-27.3917,66.20,62.60,88.18,350.00,6.00,0.00,29.91,M,6.21,M,M,M,M,M,M,M,M,M,M,YBBN 281030Z 35006KT CAVOK 19/17 Q1013
YBBN,2013-09-28 11:00,153.1292,-27.3917,66.20,62.60,88.18,340.00,7.00,0.00,29.91,M,6.21,M,M,M,M,M,M,M,M,M,M,YBBN 281100Z 34007KT CAVOK 19/17 Q1013
YBBN,2013-09-28 11:30,153.1292,-27.3917,66.20,62.60,88.18,350.00,6.00,0.00,29.91,M,6.21,M,M,M,M,M,M,M,M,M,M,YBBN 281130Z 35006KT CAVOK 19/17 Q1013
YBBN,2013-09-28 12:00,153.1292,-27.3917,64.40,60.80,88.09,330.00,4.00,0.00,29.91,M,6.21,M,M,M,M,M,M,M,M,M,M,YBBN 281200Z 33004KT CAVOK 18/16 Q1013
YBBN,2013-09-28 12:30,153.1292,-27.3917,64.40,62.60,93.88,0.00,0.00,0.00,29.91,M,6.21,M,M,M,M,M,M,M,M,M,M,YBBN 281230Z 00000KT CAVOK 18/17 Q1013
YBBN,2013-09-28 13:00,153.1292,-27.3917,64.40,62.60,93.88,0.00,0.00,0.00,29.88,M,6.21,M,M,M,M,M,M,M,M,M,M,YBBN 281300Z 00000KT CAVOK 18/17 Q1012
YBBN,2013-09-28 13:30,153.1292,-27.3917,62.60,60.80,93.83,0.00,0.00,0.00,29.88,M,6.21,M,M,M,M,M,M,M,M,M,M,YBBN 281330Z 00000KT CAVOK 17/16 Q1012
YBBN,2013-09-28 14:00,153.1292,-27.3917,60.80,59.00,93.79,0.00,0.00,0.00,29.88,M,6.21,M,M,M,M,M,M,M,M,M,M,YBBN 281400Z 00000KT CAVOK 16/15 Q1012
YBBN,2013-09-28 14:30,153.1292,-27.3917,60.80,59.00,93.79,320.00,2.00,0.00,29.88,M,6.21,M,M,M,M,M,M,M,M,M,M,YBBN 281430Z 32002KT CAVOK 16/15 Q1012
YBBN,2013-09-28 15:00,153.1292,-27.3917,60.80,59.00,93.79,200.00,6.00,0.00,29.88,M,6.21,M,M,M,M,M,M,M,M,M,M,YBBN 281500Z 20006KT CAVOK 16/15 Q1012
YBBN,2013-09-28 15:30,153.1292,-27.3917,60.80,57.20,87.92,210.00,2.00,0.00,29.88,M,6.21,M,M,M,M,M,M,M,M,M,M,YBBN 281530Z 21002KT CAVOK 16/14 Q1012
YBBN,2013-09-28 16:00,153.1292,-27.3917,59.00,59.00,100.00,350.00,3.00,0.00,29.88,M,6.21,M,M,M,M,M,M,M,M,M,M,YBBN 281600Z 35003KT CAVOK 15/15 Q1012
YBBN,2013-09-28 16:30,153.1292,-27.3917,59.00,57.20,93.74,290.00,5.00,0.00,29.88,M,6.21,M,M,M,M,M,M,M,M,M,M,YBBN 281630Z 29005KT CAVOK 15/14 Q1012
YBBN,2013-09-28 17:00,153.1292,-27.3917,59.00,59.00,100.00,230.00,4.00,0.00,29.88,M,6.21,M,M,M,M,M,M,M,M,M,M,YBBN 281700Z 23004KT CAVOK 15/15 Q1012
YBBN,2013-09-28 17:30,153.1292,-27.3917,59.00,57.20,93.74,220.00,4.00,0.00,29.88,M,6.21,M,M,M,M,M,M,M,M,M,M,YBBN 281730Z 22004KT CAVOK 15/14 Q1012
YBBN,2013-09-28 18:00,153.1292,-27.3917,59.00,57.20,93.74,220.00,5.00,0.00,29.88,M,6.21,M,M,M,M,M,M,M,M,M,M,YBBN 281800Z 22005KT CAVOK 15/14 Q1012
YBBN,2013-09-28 18:30,153.1292,-27.3917,59.00,57.20,93.74,230.00,4.00,0.00,29.91,M,6.21,M,M,M,M,M,M,M,M,M,M,YBBN 281830Z 23004KT CAVOK 15/14 Q1013
YBBN,2013-09-28 19:00,153.1292,-27.3917,59.00,57.20,93.74,0.00,0.00,0.00,29.91,M,6.21,M,FEW,M,M,M,4000.00,M,M,M,M,YBBN 281900Z 00000KT 9999 FEW040 15/14 Q1013
YBBN,2013-09-28 19:30,153.1292,-27.3917,57.20,57.20,100.00,0.00,0.00,0.00,29.91,M,6.21,M,FEW,M,M,M,4000.00,M,M,M,M,YBBN 281930Z 00000KT 9999 FEW040 14/14 Q1013
YBBN,2013-09-28 20:00,153.1292,-27.3917,60.80,59.00,93.79,180.00,4.00,0.00,29.94,M,6.21,M,M,M,M,M,M,M,M,M,M,YBBN 282000Z 18004KT CAVOK 16/15 Q1014
YBBN,2013-09-28 20:30,153.1292,-27.3917,62.60,60.80,93.83,200.00,5.00,0.00,29.94,M,6.21,M,M,M,M,M,M,M,M,M,M,YBBN 282030Z 20005KT CAVOK 17/16 Q1014
YBBN,2013-09-28 21:00,153.1292,-27.3917,66.20,62.60,88.18,210.00,5.00,0.00,29.97,M,6.21,M,M,M,M,M,M,M,M,M,M,YBBN 282100Z 21005KT CAVOK 19/17 Q1015
YBBN,2013-09-28 21:30,153.1292,-27.3917,69.80,60.80,73.09,190.00,4.00,0.00,29.97,M,6.21,M,M,M,M,M,M,M,M,M,M,YBBN 282130Z 19004KT CAVOK 21/16 Q1015
YBBN,2013-09-28 22:00,153.1292,-27.3917,73.40,62.60,68.94,190.00,4.00,0.00,29.97,M,6.21,M,M,M,M,M,M,M,M,M,M,YBBN 282200Z 19004KT CAVOK 23/17 Q1015 RMK HAZE/SMOKE
YBBN,2013-09-28 22:30,153.1292,-27.3917,77.00,59.00,53.80,190.00,5.00,0.00,29.97,M,6.21,M,M,M,M,M,M,M,M,M,M,YBBN 282230Z 19005KT CAVOK 25/15 Q1015 RMK HZ
YBBN,2013-09-28 23:00,153.1292,-27.3917,80.60,59.00,47.79,200.00,9.00,0.00,29.97,M,6.21,M,M,M,M,M,M,M,M,M,M,YBBN 282300Z 20009KT CAVOK 27/15 Q1015
YBBN,2013-09-28 23:30,153.1292,-27.3917,80.60,57.20,44.80,210.00,10.00,0.00,29.97,M,6.21,M,M,M,M,M,M,M,M,M,M,YBBN 282330Z 21010KT CAVOK 27/14 Q1015
