#DEBUG: Format Typ    -> comma
#DEBUG: Time Period   -> 2014-01-12 00:00:00+00:00 2014-01-13 00:00:00+00:00
#DEBUG: Time Zone     -> Etc/UTC
#DEBUG: Data Contact   -> daryl herzmann akrherz@iastate.edu 515-294-5978
#DEBUG: Entries Found -> -1
station,valid,lon,lat,tmpf, dwpf, relh, drct, sknt, p01i, alti, mslp, vsby, gust, skyc1, skyc2, skyc3, skyc4, skyl1, skyl2, skyl3, skyl4, presentwx, metar
YBBN,2014-01-12 00:00,153.1292,-27.3917,78.80,62.60,57.60,110.00,8.00,0.00,30.00,M,6.21,M,SCT,M,M,M,3300.00,M,M,M,M,YBBN 120000Z 11008KT 9999 SCT033 26/17 Q1016 NOSIG
YBBN,2014-01-12 00:30,153.1292,-27.3917,78.80,60.80,54.05,100.00,7.00,0.00,30.00,M,6.21,M,SCT,M,M,M,3300.00,M,M,M,M,YBBN 120030Z 10007KT 9999 SCT033 26/16 Q1016
YBBN,2014-01-12 01:00,153.1292,-27.3917,80.60,60.80,50.95,110.00,8.00,0.00,30.00,M,6.21,M,SCT,M,M,M,3300.00,M,M,M,M,YBBN 120100Z 11008KT 9999 SCT033 27/16 Q1016 NOSIG
YBBN,2014-01-12 01:30,153.1292,-27.3917,80.60,64.40,57.84,80.00,10.00,0.00,30.00,M,6.21,M,SCT,M,M,M,3500.00,M,M,M,M,YBBN 120130Z 08010KT 9999 SCT035 27/18 Q1016
YBBN,2014-01-12 02:00,153.1292,-27.3917,80.60,62.60,54.30,70.00,11.00,0.00,29.97,M,6.21,M,SCT,M,M,M,3500.00,M,M,M,M,YBBN 120200Z 07011KT 9999 SCT035 27/17 Q1015 NOSIG
YBBN,2014-01-12 02:30,153.1292,-27.3917,82.40,62.60,51.21,80.00,10.00,0.00,29.97,M,6.21,M,SCT,M,M,M,3500.00,M,M,M,M,YBBN 120230Z 08010KT 9999 SCT035 28/17 Q1015
YBBN,2014-01-12 03:00,153.1292,-27.3917,80.60,64.40,57.84,50.00,10.00,0.00,29.97,M,6.21,M,SCT,M,M,M,3500.00,M,M,M,M,YBBN 120300Z 05010KT 9999 SCT035 27/18 Q1015
YBBN,2014-01-12 03:30,153.1292,-27.3917,82.40,66.20,58.08,60.00,13.00,0.00,29.97,M,6.21,M,SCT,M,M,M,3500.00,M,M,M,M,YBBN 120330Z 06013KT 9999 SCT035 28/19 Q1015
YBBN,2014-01-12 04:00,153.1292,-27.3917,82.40,64.40,54.55,90.00,11.00,0.00,29.94,M,6.21,M,SCT,M,M,M,3700.00,M,M,M,M,YBBN 120400Z 09011KT 9999 SCT037 28/18 Q1014
YBBN,2014-01-12 04:30,153.1292,-27.3917,82.40,62.60,51.21,60.00,15.00,0.00,29.94,M,6.21,M,SCT,M,M,M,3800.00,M,M,M,M,YBBN 120430Z 06015KT 9999 SCT038 28/17 Q1014
YBBN,2014-01-12 05:00,153.1292,-27.3917,80.60,62.60,54.30,70.00,13.00,0.00,29.94,M,6.21,M,FEW,M,M,M,3800.00,M,M,M,M,YBBN 120500Z 07013KT 9999 FEW038 27/17 Q1014 NOSIG
YBBN,2014-01-12 05:30,153.1292,-27.3917,78.80,62.60,57.60,70.00,14.00,0.00,29.94,M,6.21,M,FEW,M,M,M,3800.00,M,M,M,M,YBBN 120530Z 07014KT 9999 FEW038 26/17 Q1014
YBBN,2014-01-12 06:00,153.1292,-27.3917,80.60,60.80,50.95,60.00,14.00,0.00,29.94,M,6.21,M,FEW,M,M,M,4000.00,M,M,M,M,YBBN 120600Z 06014KT 9999 FEW040 27/16 Q1014 NOSIG
YBBN,2014-01-12 06:30,153.1292,-27.3917,78.80,60.80,54.05,70.00,11.00,0.00,29.94,M,6.21,M,FEW,M,M,M,4000.00,M,M,M,M,YBBN 120630Z 07011KT 9999 FEW040 26/16 Q1014
YBBN,2014-01-12 07:00,153.1292,-27.3917,78.80,62.60,57.60,60.00,12.00,0.00,29.97,M,6.21,M,FEW,SCT,M,M,4000.00,6500.00,M,M,M,YBBN 120700Z 06012KT 9999 FEW040 SCT065 26/17 Q1015 NOSIG
YBBN,2014-01-12 07:30,153.1292,-27.3917,77.00,62.60,61.13,70.00,10.00,0.00,29.97,M,6.21,M,FEW,SCT,M,M,4000.00,6500.00,M,M,M,YBBN 120730Z 07010KT 9999 FEW040 SCT065 25/17 Q1015
YBBN,2014-01-12 08:00,153.1292,-27.3917,77.00,64.40,65.12,70.00,9.00,0.00,29.97,M,6.21,M,FEW,SCT,M,M,4000.00,7100.00,M,M,M,YBBN 120800Z 07009KT 9999 FEW040 SCT071 25/18 Q1015
YBBN,2014-01-12 08:30,153.1292,-27.3917,77.00,62.60,61.13,70.00,9.00,0.00,30.00,M,6.21,M,SCT,M,M,M,3500.00,M,M,M,M,YBBN 120830Z 07009KT 9999 SCT035 25/17 Q1016
YBBN,2014-01-12 09:00,153.1292,-27.3917,77.00,62.60,61.13,80.00,7.00,0.00,30.00,M,6.21,M,SCT,M,M,M,3500.00,M,M,M,M,YBBN 120900Z 08007KT 9999 SCT035 25/17 Q1016 NOSIG
YBBN,2014-01-12 09:30,153.1292,-27.3917,75.20,60.80,60.90,90.00,8.00,0.00,30.00,M,6.21,M,SCT,M,M,M,3500.00,M,M,M,M,YBBN 120930Z 09008KT 9999 SCT035 24/16 Q1016
YBBN,2014-01-12 10:00,153.1292,-27.3917,75.20,62.60,64.91,90.00,7.00,0.00,30.03,M,6.21,M,SCT,M,M,M,3500.00,M,M,M,M,YBBN 121000Z 09007KT 9999 SCT035 24/17 Q1017
YBBN,2014-01-12 10:30,153.1292,-27.3917,75.20,62.60,64.91,70.00,6.00,0.00,30.03,M,6.21,M,BKN,M,M,M,3500.00,M,M,M,M,YBBN 121030Z 07006KT 9999 BKN035 24/17 Q1017
YBBN,2014-01-12 11:00,153.1292,-27.3917,75.20,62.60,64.91,90.00,7.00,0.00,30.03,M,6.21,M,BKN,M,M,M,3500.00,M,M,M,M,YBBN 121100Z 09007KT 9999 BKN035 24/17 Q1017 NOSIG
YBBN,2014-01-12 11:30,153.1292,-27.3917,75.20,62.60,64.91,80.00,6.00,0.00,30.03,M,6.21,M,SCT,M,M,M,3500.00,M,M,M,M,YBBN 121130Z 08006KT 9999 SCT035 24/17 Q1017
YBBN,2014-01-12 12:00,153.1292,-27.3917,75.20,62.60,64.91,90.00,7.00,0.00,30.03,M,6.21,M,FEW,M,M,M,3500.00,M,M,M,M,YBBN 121200Z 09007KT 9999 FEW035 24/17 Q1017 NOSIG
YBBN,2014-01-12 12:30,153.1292,-27.3917,75.20,62.60,64.91,90.00,6.00,0.00,30.03,M,6.21,M,FEW,M,M,M,3500.00,M,M,M,M,YBBN 121230Z 09006KT 9999 FEW035 24/17 Q1017
YBBN,2014-01-12 13:00,153.1292,-27.3917,75.20,60.80,60.90,90.00,6.00,0.00,30.03,M,6.21,M,FEW,M,M,M,3500.00,M,M,M,M,YBBN 121300Z 09006KT 9999 FEW035 24/16 Q1017
YBBN,2014-01-12 13:30,153.1292,-27.3917,73.40,62.60,68.94,90.00,6.00,0.00,30.03,M,6.21,M,FEW,M,M,M,3500.00,M,M,M,M,YBBN 121330Z 09006KT 9999 FEW035 23/17 Q1017
YBBN,2014-01-12 14:00,153.1292,-27.3917,73.40,62.60,68.94,100.00,6.00,0.00,30.00,M,6.21,M,FEW,M,M,M,3500.00,M,M,M,M,YBBN 121400Z 10006KT 9999 FEW035 23/17 Q1016
YBBN,2014-01-12 14:30,153.1292,-27.3917,73.40,62.60,68.94,110.00,5.00,0.00,30.00,M,6.21,M,FEW,M,M,M,3500.00,M,M,M,M,YBBN 121430Z 11005KT 9999 FEW035 23/17 Q1016
YBBN,2014-01-12 15:00,153.1292,-27.3917,73.40,62.60,68.94,110.00,5.00,0.00,30.00,M,6.21,M,FEW,M,M,M,3500.00,M,M,M,M,YBBN 121500Z 11005KT 9999 FEW035 23/17 Q1016
YBBN,2014-01-12 15:30,153.1292,-27.3917,73.40,62.60,68.94,110.00,5.00,0.00,30.00,M,6.21,M,FEW,M,M,M,3500.00,M,M,M,M,YBBN 121530Z 11005KT 9999 FEW035 23/17 Q1016
YBBN,2014-01-12 16:00,153.1292,-27.3917,71.60,62.60,73.27,120.00,4.00,0.00,30.00,M,6.21,M,FEW,M,M,M,3500.00,M,M,M,M,YBBN 121600Z 12004KT 9999 FEW035 22/17 Q1016
YBBN,2014-01-12 16:30,153.1292,-27.3917,71.60,62.60,73.27,170.00,2.00,0.00,29.97,M,6.21,M,FEW,M,M,M,3500.00,M,M,M,M,YBBN 121630Z 17002KT 9999 FEW035 22/17 Q1015
YBBN,2014-01-12 17:00,153.1292,-27.3917,69.80,62.60,77.90,170.00,4.00,0.00,29.97,M,6.21,M,FEW,M,M,M,3500.00,M,M,M,M,YBBN 121700Z 17004KT 9999 FEW035 21/17 Q1015 NOSIG
YBBN,2014-01-12 17:30,153.1292,-27.3917,69.80,62.60,77.90,190.00,5.00,0.00,29.97,M,6.21,M,FEW,M,M,M,3500.00,M,M,M,M,YBBN 121730Z 19005KT 9999 FEW035 21/17 Q1015
YBBN,2014-01-12 18:00,153.1292,-27.3917,69.80,62.60,77.90,190.00,5.00,0.00,30.00,M,6.21,M,FEW,SCT,M,M,3500.00,6200.00,M,M,M,YBBN 121800Z 19005KT 9999 FEW035 SCT062 21/17 Q1016
YBBN,2014-01-12 18:30,153.1292,-27.3917,69.80,62.60,77.90,190.00,6.00,0.00,30.00,M,6.21,M,SCT,M,M,M,3500.00,M,M,M,M,YBBN 121830Z 19006KT 9999 SCT035 21/17 Q1016
YBBN,2014-01-12 19:00,153.1292,-27.3917,69.80,62.60,77.90,180.00,4.00,0.00,30.00,M,6.21,M,SCT,M,M,M,3500.00,M,M,M,M,YBBN 121900Z 18004KT 9999 SCT035 21/17 Q1016 NOSIG
YBBN,2014-01-12 19:30,153.1292,-27.3917,69.80,62.60,77.90,190.00,4.00,0.00,30.03,M,6.21,M,SCT,SCT,M,M,3500.00,4700.00,M,M,M,YBBN 121930Z 19004KT 9999 SCT035 SCT047 21/17 Q1017
YBBN,2014-01-12 20:00,153.1292,-27.3917,71.60,62.60,73.27,170.00,7.00,0.00,30.03,M,6.21,M,SCT,M,M,M,3500.00,M,M,M,M,YBBN 122000Z 17007KT 9999 SCT035 22/17 Q1017 NOSIG
YBBN,2014-01-12 20:30,153.1292,-27.3917,73.40,62.60,68.94,170.00,6.00,0.00,30.03,M,6.21,M,FEW,M,M,M,3500.00,M,M,M,M,YBBN 122030Z 17006KT 9999 FEW035 23/17 Q1017
YBBN,2014-01-12 21:00,153.1292,-27.3917,75.20,62.60,64.91,160.00,6.00,0.00,30.06,M,6.21,M,FEW,M,M,M,3500.00,M,M,M,M,YBBN 122100Z 16006KT 9999 FEW035 24/17 Q1018
YBBN,2014-01-12 21:30,153.1292,-27.3917,75.20,62.60,64.91,120.00,7.00,0.00,30.06,M,6.21,M,FEW,SCT,M,M,3500.00,6000.00,M,M,M,YBBN 122130Z 12007KT 9999 FEW035 SCT060 24/17 Q1018
YBBN,2014-01-12 22:00,153.1292,-27.3917,77.00,60.80,57.36,140.00,8.00,0.00,30.06,M,6.21,M,FEW,BKN,M,M,3300.00,6000.00,M,M,M,YBBN 122200Z 14008KT 9999 FEW033 BKN060 25/16 Q1018 NOSIG
YBBN,2014-01-12 22:30,153.1292,-27.3917,78.80,62.60,57.60,120.00,8.00,0.00,30.06,M,6.21,M,SCT,BKN,M,M,3800.00,6000.00,M,M,M,YBBN 122230Z 12008KT 9999 SCT038 BKN060 26/17 Q1018
YBBN,2014-01-12 23:00,153.1292,-27.3917,80.60,60.80,50.95,120.00,11.00,0.00,30.06,M,6.21,M,FEW,SCT,M,M,4000.00,6000.00,M,M,M,YBBN 122300Z 12011KT 9999 FEW040 SCT060 27/16 Q1018 NOSIG
YBBN,2014-01-12 23:30,153.1292,-27.3917,80.60,62.60,54.30,120.00,10.00,0.00,30.06,M,6.21,M,SCT,M,M,M,4200.00,M,M,M,M,YBBN 122330Z 12010KT 9999 SCT042 27/17 Q1018
