#DEBUG: Format Typ    -> comma
#DEBUG: Time Period   -> 2011-12-26 00:00:00+00:00 2011-12-27 00:00:00+00:00
#DEBUG: Time Zone     -> Etc/UTC
#DEBUG: Data Contact   -> daryl herzmann akrherz@iastate.edu 515-294-5978
#DEBUG: Entries Found -> -1
station,valid,lon,lat,tmpf, dwpf, relh, drct, sknt, p01i, alti, mslp, vsby, gust, skyc1, skyc2, skyc3, skyc4, skyl1, skyl2, skyl3, skyl4, presentwx, metar
YBBN,2011-12-26 00:00,153.1292,-27.3917,80.60,57.20,44.80,190.00,8.00,M,29.74,M,6.21,M,FEW,M,M,M,3500.00,M,M,M,M,YBBN 260000Z 19008KT 9999 FEW035 27/14 Q1007 NOSIG
YBBN,2011-12-26 00:30,153.1292,-27.3917,80.60,55.40,41.97,220.00,9.00,M,29.74,M,6.21,M,FEW,M,M,M,3500.00,M,M,M,M,YBBN 260030Z 22009KT 9999 FEW035 27/13 Q1007
YBBN,2011-12-26 01:00,153.1292,-27.3917,82.40,57.20,42.25,190.00,8.00,M,29.71,M,6.21,M,FEW,M,M,M,4000.00,M,M,M,M,YBBN 260100Z 19008KT 9999 FEW040 28/14 Q1006 NOSIG
YBBN,2011-12-26 01:30,153.1292,-27.3917,82.40,55.40,39.58,240.00,5.00,M,29.71,M,6.21,M,FEW,M,M,M,4000.00,M,M,M,M,YBBN 260130Z 24005KT 9999 FEW040 28/13 Q1006
YBBN,2011-12-26 02:00,153.1292,-27.3917,84.20,59.00,42.52,160.00,7.00,M,29.71,M,6.21,M,FEW,M,M,M,4000.00,M,M,M,M,YBBN 260200Z 16007KT 9999 FEW040 29/15 Q1006
YBBN,2011-12-26 02:30,153.1292,-27.3917,82.40,57.20,42.25,50.00,13.00,M,29.68,M,6.21,M,FEW,M,M,M,4000.00,M,M,M,M,YBBN 260230Z 05013KT 9999 FEW040 28/14 Q1005
YBBN,2011-12-26 03:00,153.1292,-27.3917,82.40,59.00,45.07,60.00,11.00,M,29.68,M,6.21,M,FEW,M,M,M,4000.00,M,M,M,M,YBBN 260300Z 06011KT 9999 FEW040 28/15 Q1005 NOSIG
YBBN,2011-12-26 03:30,153.1292,-27.3917,82.40,55.40,39.58,60.00,10.00,M,29.68,M,6.21,M,FEW,M,M,M,4000.00,M,M,M,M,YBBN 260330Z 06010KT 9999 FEW040 28/13 Q1005
YBBN,2011-12-26 04:00,153.1292,-27.3917,82.40,59.00,45.07,90.00,8.00,M,29.68,M,6.21,M,FEW,M,M,M,4000.00,M,M,M,M,YBBN 260400Z 09008KT 9999 FEW040 28/15 Q1005 NOSIG
YBBN,2011-12-26 04:30,153.1292,-27.3917,82.40,62.60,51.21,90.00,9.00,M,29.68,M,6.21,M,FEW,M,M,M,4000.00,M,M,M,M,YBBN 260430Z 09009KT 9999 FEW040 28/17 Q1005
YBBN,2011-12-26 05:00,153.1292,-27.3917,80.60,64.40,57.84,90.00,9.00,M,29.65,M,6.21,M,FEW,M,M,M,4000.00,M,M,M,M,YBBN 260500Z 09009KT 9999 FEW040 27/18 Q1004
YBBN,2011-12-26 05:30,153.1292,-27.3917,82.40,66.20,58.08,100.00,9.00,M,29.65,M,6.21,M,FEW,M,M,M,4000.00,M,M,M,M,YBBN 260530Z 10009KT 9999 FEW040 28/19 Q1004
YBBN,2011-12-26 06:00,153.1292,-27.3917,80.60,66.20,61.58,120.00,10.00,M,29.65,M,6.21,M,FEW,M,M,M,4000.00,M,M,M,M,YBBN 260600Z 12010KT 9999 FEW040 27/19 Q1004 NOSIG
YBBN,2011-12-26 06:30,153.1292,-27.3917,78.80,66.20,65.33,120.00,10.00,M,29.65,M,6.21,M,FEW,M,M,M,3500.00,M,M,M,M,YBBN 260630Z 12010KT 9999 FEW035 26/19 Q1004
YBBN,2011-12-26 07:00,153.1292,-27.3917,78.80,66.20,65.33,120.00,9.00,M,29.65,M,6.21,M,FEW,M,M,M,3500.00,M,M,M,M,YBBN 260700Z 12009KT 9999 FEW035 26/19 Q1004 NOSIG
YBBN,2011-12-26 07:30,153.1292,-27.3917,77.00,66.20,69.33,120.00,9.00,M,29.65,M,6.21,M,FEW,M,M,M,3500.00,M,M,M,M,YBBN 260730Z 12009KT 9999 FEW035 25/19 Q1004
YBBN,2011-12-26 08:00,153.1292,-27.3917,77.00,66.20,69.33,120.00,8.00,M,29.65,M,6.21,M,FEW,BKN,M,M,3000.00,10000.00,M,M,M,YBBN 260800Z 12008KT 9999 FEW030 BKN100 25/19 Q1004 NOSIG
YBBN,2011-12-26 08:30,153.1292,-27.3917,77.00,66.20,69.33,110.00,6.00,M,29.68,M,6.21,M,FEW,BKN,M,M,3500.00,10000.00,M,M,M,YBBN 260830Z 11006KT 9999 FEW035 BKN100 25/19 Q1005
YBBN,2011-12-26 09:00,153.1292,-27.3917,75.20,66.20,73.61,110.00,6.00,M,29.68,M,6.21,M,FEW,BKN,M,M,3500.00,10000.00,M,M,M,YBBN 260900Z 11006KT 9999 FEW035 BKN100 24/19 Q1005 NOSIG
YBBN,2011-12-26 09:30,153.1292,-27.3917,75.20,66.20,73.61,110.00,5.00,M,29.68,M,6.21,M,FEW,SCT,M,M,3000.00,10500.00,M,M,M,YBBN 260930Z 11005KT 9999 FEW030 SCT105 24/19 Q1005
YBBN,2011-12-26 10:00,153.1292,-27.3917,75.20,66.20,73.61,110.00,4.00,M,29.71,M,6.21,M,FEW,SCT,M,M,3000.00,10500.00,M,M,M,YBBN 261000Z 11004KT 9999 FEW030 SCT105 24/19 Q1006 NOSIG
YBBN,2011-12-26 10:30,153.1292,-27.3917,73.40,68.00,83.21,90.00,4.00,M,29.68,M,6.21,M,M,M,M,M,M,M,M,M,M,YBBN 261030Z 09004KT CAVOK 23/20 Q1005
YBBN,2011-12-26 11:00,153.1292,-27.3917,73.40,68.00,83.21,80.00,3.00,M,29.71,M,6.21,M,M,M,M,M,M,M,M,M,M,YBBN 261100Z 08003KT CAVOK 23/20 Q1006 NOSIG
YBBN,2011-12-26 11:30,153.1292,-27.3917,73.40,68.00,83.21,0.00,0.00,M,29.71,M,6.21,M,M,M,M,M,M,M,M,M,M,YBBN 261130Z 00000KT CAVOK 23/20 Q1006
YBBN,2011-12-26 12:00,153.1292,-27.3917,71.60,68.00,88.43,0.00,0.00,M,29.71,M,6.21,M,M,M,M,M,M,M,M,M,M,YBBN 261200Z 00000KT CAVOK 22/20 Q1006 NOSIG
YBBN,2011-12-26 12:30,153.1292,-27.3917,71.60,68.00,88.43,0.00,0.00,M,29.71,M,6.21,M,FEW,M,M,M,3000.00,M,M,M,M,YBBN 261230Z 00000KT 9999 FEW030 22/20 Q1006
YBBN,2011-12-26 13:00,153.1292,-27.3917,71.60,68.00,88.43,0.00,0.00,M,29.71,M,6.21,M,FEW,M,M,M,3500.00,M,M,M,M,YBBN 261300Z 00000KT 9999 FEW035 22/20 Q1006 NOSIG
YBBN,2011-12-26 13:30,153.1292,-27.3917,71.60,68.00,88.43,40.00,4.00,M,29.71,M,6.21,M,FEW,M,M,M,4000.00,M,M,M,M,YBBN 261330Z 04004KT 9999 FEW040 22/20 Q1006
YBBN,2011-12-26 14:00,153.1292,-27.3917,71.60,68.00,88.43,0.00,0.00,M,29.71,M,6.21,M,FEW,SCT,M,M,2100.00,3000.00,M,M,M,YBBN 261400Z 00000KT 9999 FEW021 SCT030 22/20 Q1006 NOSIG
YBBN,2011-12-26 14:30,153.1292,-27.3917,71.60,68.00,88.43,0.00,0.00,M,29.71,M,6.21,M,FEW,SCT,M,M,1800.00,2200.00,M,M,M,YBBN 261430Z 00000KT 9999 FEW018 SCT022 22/20 Q1006
YBBN,2011-12-26 15:00,153.1292,-27.3917,71.60,68.00,88.43,320.00,5.00,M,29.68,M,6.21,M,FEW,M,M,M,2100.00,M,M,M,M,YBBN 261500Z 32005KT 9999 FEW021 22/20 Q1005 NOSIG
YBBN,2011-12-26 15:30,153.1292,-27.3917,71.60,68.00,88.43,310.00,5.00,M,29.68,M,6.21,M,FEW,M,M,M,2200.00,M,M,M,M,YBBN 261530Z 31005KT 9999 FEW022 22/20 Q1005
YBBN,2011-12-26 16:00,153.1292,-27.3917,71.60,68.00,88.43,330.00,3.00,M,29.68,M,6.21,M,FEW,SCT,M,M,2200.00,12000.00,M,M,M,YBBN 261600Z 33003KT 9999 FEW022 SCT120 22/20 Q1005 NOSIG
YBBN,2011-12-26 16:30,153.1292,-27.3917,69.80,68.00,94.01,340.00,1.00,M,29.68,M,6.21,M,FEW,SCT,M,M,2200.00,11500.00,M,M,M,YBBN 261630Z 34001KT 9999 FEW022 SCT115 21/20 Q1005
YBBN,2011-12-26 17:00,153.1292,-27.3917,69.80,68.00,94.01,330.00,5.00,M,29.68,M,6.21,M,FEW,SCT,M,M,2500.00,12000.00,M,M,M,YBBN 261700Z 33005KT 9999 FEW025 SCT120 21/20 Q1005 NOSIG
YBBN,2011-12-26 17:30,153.1292,-27.3917,69.80,68.00,94.01,0.00,0.00,M,29.65,M,6.21,M,M,M,M,M,M,M,M,M,M,YBBN 261730Z 00000KT CAVOK 21/20 Q1004
YBBN,2011-12-26 18:00,153.1292,-27.3917,69.80,68.00,94.01,0.00,0.00,M,29.65,M,6.21,M,M,M,M,M,M,M,M,M,M,YBBN 261800Z 00000KT CAVOK 21/20 Q1004 NOSIG
YBBN,2011-12-26 18:30,153.1292,-27.3917,68.00,68.00,100.00,0.00,0.00,M,29.65,M,6.21,M,FEW,SCT,M,M,2000.00,11000.00,M,M,M,YBBN 261830Z 00000KT 9999 FEW020 SCT110 20/20 Q1004
YBBN,2011-12-26 19:30,153.1292,-27.3917,69.80,68.00,94.01,0.00,0.00,M,29.68,M,6.21,M,FEW,SCT,M,M,1800.00,14000.00,M,M,M,YBBN 261930Z 00000KT 9999 FEW018 SCT140 21/20 Q1005 NOSIG
YBBN,2011-12-26 20:00,153.1292,-27.3917,71.60,68.00,88.43,260.00,5.00,M,29.68,M,6.21,M,FEW,SCT,M,M,1800.00,15000.00,M,M,M,YBBN 262000Z 26005KT 9999 FEW018 SCT150 22/20 Q1005 RMK HZ
YBBN,2011-12-26 20:30,153.1292,-27.3917,73.40,69.80,88.51,330.00,5.00,M,29.68,M,6.21,M,FEW,BKN,M,M,1800.00,19000.00,M,M,M,YBBN 262030Z 33005KT 9999 FEW018 BKN190 23/21 Q1005
YBBN,2011-12-26 21:00,153.1292,-27.3917,75.20,69.80,83.32,330.00,6.00,M,29.68,M,6.21,M,FEW,SCT,BKN,M,2000.00,19000.00,23000.00,M,M,YBBN 262100Z 33006KT 9999 FEW020 SCT190 BKN230 24/21 Q1005 NOSIG
YBBN,2011-12-26 21:30,153.1292,-27.3917,77.00,68.00,73.78,360.00,5.00,M,29.65,M,6.21,M,FEW,BKN,BKN,M,2000.00,19000.00,23000.00,M,M,YBBN 262130Z 36005KT 9999 FEW020 BKN190 BKN230 25/20 Q1004
YBBN,2011-12-26 22:00,153.1292,-27.3917,77.00,68.00,73.78,10.00,8.00,M,29.62,M,6.21,M,FEW,BKN,M,M,2000.00,20000.00,M,M,M,YBBN 262200Z 01008KT 9999 FEW020 BKN200 25/20 Q1003 NOSIG
YBBN,2011-12-26 22:30,153.1292,-27.3917,77.00,69.80,78.48,360.00,6.00,M,29.65,M,6.21,M,FEW,BKN,M,M,2000.00,18000.00,M,M,M,YBBN 262230Z 36006KT 9999 FEW020 BKN180 25/21 Q1004
YBBN,2011-12-26 23:30,153.1292,-27.3917,80.60,68.00,65.54,240.00,6.00,M,29.65,M,6.21,M,FEW,BKN,M,M,2000.00,18000.00,M,M,M,YBBN 262330Z 24006KT 9999 FEW020 BKN180 27/20 Q1004
