#DEBUG: Format Typ    -> comma
#DEBUG: Time Period   -> 2012-04-04 00:00:00+00:00 2012-04-05 00:00:00+00:00
#DEBUG: Time Zone     -> Etc/UTC
#DEBUG: Data Contact   -> daryl herzmann akrherz@iastate.edu 515-294-5978
#DEBUG: Entries Found -> -1
station,valid,lon,lat,tmpf, dwpf, relh, drct, sknt, p01i, alti, mslp, vsby, gust, skyc1, skyc2, skyc3, skyc4, skyl1, skyl2, skyl3, skyl4, presentwx, metar
YBBN,2012-04-04 00:00,153.1292,-27.3917,78.80,60.80,54.05,180.00,8.00,0.00,30.00,M,6.21,M,FEW,M,M,M,3600.00,M,M,M,M,YBBN 040000Z 18008KT 9999 FEW036 26/16 Q1016
YBBN,2012-04-04 00:30,153.1292,-27.3917,78.80,59.00,50.69,170.00,8.00,0.00,30.00,M,6.21,M,FEW,M,M,M,4000.00,M,M,M,M,YBBN 040030Z 17008KT 9999 FEW040 26/15 Q1016
YBBN,2012-04-04 01:00,153.1292,-27.3917,78.80,59.00,50.69,80.00,7.00,0.00,30.00,M,6.21,M,SCT,M,M,M,4000.00,M,M,M,M,YBBN 040100Z 08007KT 9999 SCT040 26/15 Q1016 NOSIG
YBBN,2012-04-04 01:30,153.1292,-27.3917,78.80,59.00,50.69,70.00,9.00,0.00,30.00,M,6.21,M,FEW,M,M,M,4000.00,M,M,M,M,YBBN 040130Z 07009KT 9999 FEW040 26/15 Q1016
YBBN,2012-04-04 02:00,153.1292,-27.3917,80.60,60.80,50.95,70.00,10.00,0.00,29.97,M,6.21,M,FEW,M,M,M,4200.00,M,M,M,M,YBBN 040200Z 07010KT 9999 FEW042 27/16 Q1015 NOSIG
YBBN,2012-04-04 02:30,153.1292,-27.3917,80.60,59.00,47.79,70.00,11.00,0.00,29.97,M,6.21,M,FEW,M,M,M,4200.00,M,M,M,M,YBBN 040230Z 07011KT 9999 FEW042 27/15 Q1015
YBBN,2012-04-04 03:00,153.1292,-27.3917,78.80,57.20,47.52,70.00,11.00,0.00,29.94,M,6.21,M,FEW,M,M,M,4200.00,M,M,M,M,YBBN 040300Z 07011KT 9999 FEW042 26/14 Q1014
YBBN,2012-04-04 03:30,153.1292,-27.3917,78.80,59.00,50.69,70.00,10.00,0.00,29.94,M,6.21,M,FEW,M,M,M,4200.00,M,M,M,M,YBBN 040330Z 07010KT 9999 FEW042 26/15 Q1014
YBBN,2012-04-04 04:00,153.1292,-27.3917,80.60,59.00,47.79,80.00,12.00,0.00,29.94,M,6.21,M,FEW,M,M,M,4200.00,M,M,M,M,YBBN 040400Z 08012KT 9999 FEW042 27/15 Q1014
YBBN,2012-04-04 04:30,153.1292,-27.3917,78.80,60.80,54.05,70.00,12.00,0.00,29.94,M,6.21,M,FEW,M,M,M,4200.00,M,M,M,M,YBBN 040430Z 07012KT 9999 FEW042 26/16 Q1014
YBBN,2012-04-04 05:00,153.1292,-27.3917,78.80,60.80,54.05,70.00,11.00,0.00,29.94,M,6.21,M,FEW,M,M,M,4200.00,M,M,M,M,YBBN 040500Z 07011KT 9999 FEW042 26/16 Q1014
YBBN,2012-04-04 05:30,153.1292,-27.3917,78.80,62.60,57.60,70.00,11.00,0.00,29.94,M,6.21,M,FEW,M,M,M,4000.00,M,M,M,M,YBBN 040530Z 07011KT 9999 FEW040 26/17 Q1014
YBBN,2012-04-04 06:00,153.1292,-27.3917,77.00,62.60,61.13,70.00,13.00,0.00,29.94,M,6.21,M,FEW,M,M,M,3600.00,M,M,M,M,YBBN 040600Z 07013KT 9999 FEW036 25/17 Q1014 NOSIG
YBBN,2012-04-04 06:30,153.1292,-27.3917,77.00,62.60,61.13,70.00,11.00,0.00,29.94,M,6.21,M,FEW,M,M,M,3000.00,M,M,M,M,YBBN 040630Z 07011KT 9999 FEW030 25/17 Q1014
YBBN,2012-04-04 07:00,153.1292,-27.3917,75.20,64.40,69.14,80.00,10.00,0.00,29.94,M,6.21,M,FEW,M,M,M,2500.00,M,M,M,M,YBBN 040700Z 08010KT 9999 FEW025 24/18 Q1014
YBBN,2012-04-04 07:30,153.1292,-27.3917,75.20,64.40,69.14,70.00,9.00,0.00,29.97,M,6.21,M,FEW,M,M,M,2000.00,M,M,M,M,YBBN 040730Z 07009KT 9999 FEW020 24/18 Q1015
YBBN,2012-04-04 08:00,153.1292,-27.3917,75.20,62.60,64.91,90.00,10.00,0.00,29.97,M,6.21,M,FEW,M,M,M,2000.00,M,M,M,M,YBBN 040800Z 09010KT 9999 FEW020 24/17 Q1015
YBBN,2012-04-04 08:30,153.1292,-27.3917,73.40,62.60,68.94,80.00,10.00,0.00,29.97,M,6.21,M,FEW,M,M,M,2500.00,M,M,M,M,YBBN 040830Z 08010KT 9999 FEW025 23/17 Q1015
YBBN,2012-04-04 09:00,153.1292,-27.3917,73.40,62.60,68.94,110.00,8.00,0.00,30.00,M,6.21,M,FEW,SCT,M,M,2500.00,6000.00,M,M,M,YBBN 040900Z 11008KT 9999 FEW025 SCT060 23/17 Q1016
YBBN,2012-04-04 09:30,153.1292,-27.3917,73.40,62.60,68.94,90.00,7.00,0.00,30.00,M,6.21,M,FEW,SCT,M,M,2700.00,6000.00,M,M,M,YBBN 040930Z 09007KT 9999 FEW027 SCT060 23/17 Q1016
YBBN,2012-04-04 10:00,153.1292,-27.3917,73.40,64.40,73.44,100.00,8.00,0.00,30.00,M,6.21,M,FEW,SCT,M,M,2800.00,5700.00,M,M,M,YBBN 041000Z 10008KT 9999 FEW028 SCT057 23/18 Q1016
YBBN,2012-04-04 10:30,153.1292,-27.3917,73.40,64.40,73.44,110.00,7.00,0.00,30.03,M,6.21,M,FEW,SCT,M,M,2800.00,6000.00,M,M,M,YBBN 041030Z 11007KT 9999 FEW028 SCT060 23/18 Q1017
YBBN,2012-04-04 11:00,153.1292,-27.3917,71.60,64.40,78.04,140.00,7.00,0.00,30.03,M,6.21,M,FEW,M,M,M,3000.00,M,M,M,M,YBBN 041100Z 14007KT 9999 FEW030 22/18 Q1017
YBBN,2012-04-04 11:30,153.1292,-27.3917,71.60,62.60,73.27,180.00,5.00,0.00,30.03,M,6.21,M,FEW,M,M,M,3000.00,M,M,M,M,YBBN 041130Z 18005KT 9999 FEW030 22/17 Q1017
YBBN,2012-04-04 12:00,153.1292,-27.3917,69.80,62.60,77.90,180.00,5.00,0.00,30.03,M,6.21,M,FEW,M,M,M,3000.00,M,M,M,M,YBBN 041200Z 18005KT 9999 FEW030 21/17 Q1017
YBBN,2012-04-04 12:30,153.1292,-27.3917,69.80,62.60,77.90,190.00,5.00,0.00,30.03,M,6.21,M,FEW,M,M,M,3000.00,M,M,M,M,YBBN 041230Z 19005KT 9999 FEW030 21/17 Q1017
YBBN,2012-04-04 13:00,153.1292,-27.3917,69.80,62.60,77.90,170.00,5.00,0.00,30.03,M,6.21,M,FEW,M,M,M,3000.00,M,M,M,M,YBBN 041300Z 17005KT 9999 FEW030 21/17 Q1017
YBBN,2012-04-04 13:30,153.1292,-27.3917,69.80,62.60,77.90,180.00,5.00,0.00,30.03,M,6.21,M,FEW,M,M,M,3000.00,M,M,M,M,YBBN 041330Z 18005KT 9999 FEW030 21/17 Q1017
YBBN,2012-04-04 14:00,153.1292,-27.3917,69.80,62.60,77.90,190.00,5.00,0.00,30.03,M,6.21,M,FEW,M,M,M,3000.00,M,M,M,M,YBBN 041400Z 19005KT 9999 FEW030 21/17 Q1017
YBBN,2012-04-04 14:30,153.1292,-27.3917,69.80,62.60,77.90,190.00,6.00,0.00,30.03,M,6.21,M,FEW,M,M,M,3000.00,M,M,M,M,YBBN 041430Z 19006KT 9999 FEW030 21/17 Q1017
YBBN,2012-04-04 15:00,153.1292,-27.3917,66.20,62.60,88.18,220.00,5.00,0.00,30.03,M,6.21,M,FEW,M,M,M,3000.00,M,M,M,M,YBBN 041500Z 22005KT 9999 FEW030 19/17 Q1017
YBBN,2012-04-04 15:30,153.1292,-27.3917,66.20,62.60,88.18,220.00,7.00,0.00,30.03,M,6.21,M,FEW,M,M,M,3000.00,M,M,M,M,YBBN 041530Z 22007KT 9999 FEW030 19/17 Q1017
YBBN,2012-04-04 16:00,153.1292,-27.3917,66.20,62.60,88.18,230.00,7.00,0.00,30.00,M,6.21,M,FEW,M,M,M,3000.00,M,M,M,M,YBBN 041600Z 23007KT 9999 FEW030 19/17 Q1016
YBBN,2012-04-04 16:30,153.1292,-27.3917,64.40,60.80,88.09,230.00,8.00,0.00,30.00,M,6.21,M,FEW,M,M,M,3000.00,M,M,M,M,YBBN 041630Z 23008KT 9999 FEW030 18/16 Q1016
YBBN,2012-04-04 17:00,153.1292,-27.3917,64.40,60.80,88.09,220.00,8.00,0.00,30.00,M,6.21,M,FEW,M,M,M,3000.00,M,M,M,M,YBBN 041700Z 22008KT 9999 FEW030 18/16 Q1016
YBBN,2012-04-04 17:30,153.1292,-27.3917,66.20,60.80,82.74,210.00,8.00,0.00,30.03,M,6.21,M,FEW,SCT,M,M,2500.00,5200.00,M,M,M,YBBN 041730Z 21008KT 9999 FEW025 SCT052 19/16 Q1017
YBBN,2012-04-04 18:00,153.1292,-27.3917,64.40,60.80,88.09,230.00,7.00,0.00,30.00,M,6.21,M,FEW,M,M,M,2600.00,M,M,M,M,YBBN 041800Z 23007KT 9999 FEW026 18/16 Q1016
YBBN,2012-04-04 18:30,153.1292,-27.3917,66.20,60.80,82.74,230.00,7.00,0.00,30.03,M,6.21,M,FEW,SCT,M,M,3300.00,5000.00,M,M,M,YBBN 041830Z 23007KT 9999 FEW033 SCT050 19/16 Q1017
YBBN,2012-04-04 19:00,153.1292,-27.3917,64.40,60.80,88.09,230.00,6.00,0.00,30.03,M,6.21,M,FEW,SCT,M,M,3000.00,4000.00,M,M,M,YBBN 041900Z 23006KT 9999 FEW030 SCT040 18/16 Q1017
YBBN,2012-04-04 19:30,153.1292,-27.3917,64.40,60.80,88.09,230.00,7.00,0.00,30.03,M,6.21,M,FEW,M,M,M,2000.00,M,M,M,M,YBBN 041930Z 23007KT 9999 FEW020 18/16 Q1017
YBBN,2012-04-04 20:00,153.1292,-27.3917,62.60,60.80,93.83,230.00,7.00,0.00,30.06,M,6.21,M,FEW,M,M,M,2000.00,M,M,M,M,YBBN 042000Z 23007KT 9999 FEW020 17/16 Q1018
YBBN,2012-04-04 20:30,153.1292,-27.3917,66.20,60.80,82.74,220.00,7.00,0.00,30.06,M,6.21,M,FEW,BKN,M,M,2500.00,6200.00,M,M,M,YBBN 042030Z 22007KT 9999 FEW025 BKN062 19/16 Q1018
YBBN,2012-04-04 21:00,153.1292,-27.3917,66.20,60.80,82.74,210.00,7.00,0.00,30.06,M,6.21,M,BKN,BKN,M,M,3500.00,4500.00,M,M,M,YBBN 042100Z 21007KT 9999 BKN035 BKN045 19/16 Q1018
YBBN,2012-04-04 21:30,153.1292,-27.3917,68.00,60.80,77.75,210.00,7.00,0.00,30.06,M,6.21,M,BKN,BKN,M,M,2700.00,3400.00,M,M,-SHRA,YBBN 042130Z 21007KT 9999 -SHRA BKN027 BKN034 20/16 Q1018
YBBN,2012-04-04 22:00,153.1292,-27.3917,68.00,62.60,82.86,260.00,7.00,0.00,30.09,M,6.21,M,SCT,BKN,M,M,2700.00,4300.00,M,M,VCSH,YBBN 042200Z 26007KT 9999 VCSH SCT027 BKN043 20/17 Q1019
YBBN,2012-04-04 22:30,153.1292,-27.3917,71.60,62.60,73.27,220.00,7.00,0.00,30.09,M,6.21,M,FEW,BKN,M,M,3100.00,4500.00,M,M,VCSH,YBBN 042230Z 22007KT 9999 VCSH FEW031 BKN045 22/17 Q1019
YBBN,2012-04-04 23:00,153.1292,-27.3917,75.20,62.60,64.91,210.00,7.00,0.00,30.09,M,6.21,M,FEW,M,M,M,2900.00,M,M,M,VCSH,YBBN 042300Z 21007KT 9999 VCSH FEW029 24/17 Q1019
YBBN,2012-04-04 23:30,153.1292,-27.3917,77.00,62.60,61.13,180.00,7.00,0.00,30.09,M,6.21,M,FEW,M,M,M,3000.00,M,M,M,M,YBBN 042330Z 18007KT 9999 FEW030 25/17 Q1019
