#DEBUG: Format Typ    -> comma
#DEBUG: Time Period   -> 2015-10-26 00:00:00+00:00 2015-10-27 00:00:00+00:00
#DEBUG: Time Zone     -> Etc/UTC
#DEBUG: Data Contact   -> daryl herzmann akrherz@iastate.edu 515-294-5978
#DEBUG: Entries Found -> -1
station,valid,lon,lat,tmpf, dwpf, relh, drct, sknt, p01i, alti, mslp, vsby, gust, skyc1, skyc2, skyc3, skyc4, skyl1, skyl2, skyl3, skyl4, presentwx, metar
YBBN,2015-10-26 00:00,153.1292,-27.3917,77.00,64.40,65.12,360.00,10.00,0.00,30.15,M,6.21,M,FEW,M,M,M,3500.00,M,M,M,M,YBBN 260000Z 36010KT 9999 FEW035 25/18 Q1021 NOSIG
YBBN,2015-10-26 00:30,153.1292,-27.3917,77.00,64.40,65.12,20.00,12.00,0.00,30.15,M,6.21,M,FEW,M,M,M,3800.00,M,M,M,M,YBBN 260030Z 02012KT 9999 FEW038 25/18 Q1021
YBBN,2015-10-26 01:00,153.1292,-27.3917,78.80,64.40,61.36,30.00,13.00,0.00,30.12,M,6.21,M,FEW,M,M,M,3800.00,M,M,M,M,YBBN 260100Z 03013KT 9999 FEW038 26/18 Q1020 NOSIG
YBBN,2015-10-26 01:30,153.1292,-27.3917,78.80,66.20,65.33,30.00,15.00,0.00,30.12,M,6.21,M,FEW,M,M,M,3800.00,M,M,M,M,YBBN 260130Z 03015KT 9999 FEW038 26/19 Q1020
YBBN,2015-10-26 02:00,153.1292,-27.3917,78.80,66.20,65.33,20.00,16.00,0.00,30.09,M,6.21,M,FEW,M,M,M,4000.00,M,M,M,M,YBBN 260200Z 02016KT 9999 FEW040 26/19 Q1019 NOSIG
YBBN,2015-10-26 02:30,153.1292,-27.3917,77.00,66.20,69.33,30.00,18.00,0.00,30.09,M,6.21,M,FEW,M,M,M,4000.00,M,M,M,M,YBBN 260230Z 03018KT 9999 FEW040 25/19 Q1019
YBBN,2015-10-26 03:00,153.1292,-27.3917,78.80,66.20,65.33,20.00,18.00,0.00,30.06,M,6.21,M,FEW,M,M,M,3800.00,M,M,M,M,YBBN 260300Z 02018KT 9999 FEW038 26/19 Q1018
YBBN,2015-10-26 03:30,153.1292,-27.3917,77.00,66.20,69.33,20.00,19.00,0.00,30.06,M,6.21,M,FEW,M,M,M,4000.00,M,M,M,M,YBBN 260330Z 02019KT 9999 FEW040 25/19 Q1018
YBBN,2015-10-26 04:00,153.1292,-27.3917,77.00,68.00,73.78,20.00,19.00,0.00,30.03,M,6.21,M,FEW,SCT,M,M,4000.00,30000.00,M,M,M,YBBN 260400Z 02019KT 9999 FEW040 SCT300 25/20 Q1017
YBBN,2015-10-26 04:30,153.1292,-27.3917,75.20,68.00,78.34,20.00,19.00,0.00,30.03,M,6.21,M,FEW,SCT,M,M,4000.00,27000.00,M,M,M,YBBN 260430Z 02019KT 9999 FEW040 SCT270 24/20 Q1017
YBBN,2015-10-26 05:00,153.1292,-27.3917,75.20,66.20,73.61,20.00,18.00,0.00,30.03,M,6.21,M,FEW,SCT,M,M,3500.00,26000.00,M,M,M,YBBN 260500Z 02018KT 9999 FEW035 SCT260 24/19 Q1017
YBBN,2015-10-26 05:30,153.1292,-27.3917,75.20,66.20,73.61,20.00,20.00,0.00,30.03,M,6.21,M,FEW,SCT,M,M,3200.00,26000.00,M,M,M,YBBN 260530Z 02020KT 9999 FEW032 SCT260 24/19 Q1017
YBBN,2015-10-26 06:00,153.1292,-27.3917,75.20,66.20,73.61,20.00,20.00,0.00,30.00,M,6.21,M,FEW,SCT,M,M,3200.00,26000.00,M,M,M,YBBN 260600Z 02020KT 9999 FEW032 SCT260 24/19 Q1016 NOSIG
YBBN,2015-10-26 06:30,153.1292,-27.3917,75.20,66.20,73.61,20.00,21.00,0.00,30.00,M,6.21,M,FEW,SCT,M,M,3200.00,26000.00,M,M,M,YBBN 260630Z 02021KT 9999 FEW032 SCT260 24/19 Q1016
YBBN,2015-10-26 07:00,153.1292,-27.3917,73.40,66.20,78.19,10.00,19.00,0.00,30.00,M,6.21,M,FEW,SCT,M,M,3000.00,28000.00,M,M,M,YBBN 260700Z 01019KT 9999 FEW030 SCT280 23/19 Q1016 NOSIG
YBBN,2015-10-26 07:30,153.1292,-27.3917,73.40,64.40,73.44,10.00,18.00,0.00,30.03,M,6.21,M,FEW,SCT,BKN,M,3000.00,13500.00,27000.00,M,M,YBBN 260730Z 01018KT 9999 FEW030 SCT135 BKN270 23/18 Q1017
YBBN,2015-10-26 08:00,153.1292,-27.3917,73.40,66.20,78.19,10.00,18.00,0.00,30.03,M,6.21,M,FEW,SCT,BKN,M,3000.00,14000.00,27000.00,M,M,YBBN 260800Z 01018KT 9999 FEW030 SCT140 BKN270 23/19 Q1017
YBBN,2015-10-26 08:30,153.1292,-27.3917,73.40,66.20,78.19,360.00,18.00,0.00,30.03,M,6.21,M,FEW,SCT,BKN,FEW,1700.00,14000.00,27000.00,3000.00,M,YBBN 260830Z 36018KT 9999 FEW017 SCT140 BKN270 FEW030CB 23/19 Q1017 RMK LIGHTNING SEEN W
YBBN,2015-10-26 09:00,153.1292,-27.3917,73.40,66.20,78.19,360.00,19.00,0.00,30.06,M,6.21,M,SCT,BKN,FEW,M,1700.00,13000.00,3000.00,M,M,YBBN 260900Z 36019KT 9999 SCT017 BKN130 FEW030CB 23/19 Q1018
YBBN,2015-10-26 09:30,153.1292,-27.3917,73.40,66.20,78.19,360.00,17.00,0.00,30.06,M,6.21,M,FEW,BKN,FEW,M,1700.00,14000.00,3000.00,M,M,YBBN 260930Z 36017KT 9999 FEW017 BKN140 FEW030CB 23/19 Q1018
YBBN,2015-10-26 10:00,153.1292,-27.3917,73.40,66.20,78.19,360.00,15.00,0.00,30.06,M,6.21,M,BKN,M,M,M,1700.00,M,M,M,M,YBBN 261000Z 36015KT 9999 BKN017 23/19 Q1018
YBBN,2015-10-26 10:30,153.1292,-27.3917,73.40,66.20,78.19,10.00,17.00,0.00,30.06,M,6.21,M,BKN,M,M,M,1800.00,M,M,M,M,YBBN 261030Z 01017KT 9999 BKN018 23/19 Q1018
YBBN,2015-10-26 11:00,153.1292,-27.3917,73.40,66.20,78.19,360.00,17.00,0.00,30.06,M,6.21,M,OVC,M,M,M,1900.00,M,M,M,//,YBBN 261100Z AUTO 36017KT 9999 // OVC019 23/19 Q1018
YBBN,2015-10-26 11:30,153.1292,-27.3917,71.60,66.20,83.09,360.00,16.00,0.00,30.06,M,6.21,M,BKN,M,M,M,1900.00,M,M,M,M,YBBN 261130Z 36016KT 9999 BKN019 22/19 Q1018 RMK LIGHTNING VISIBLE WEST
YBBN,2015-10-26 12:00,153.1292,-27.3917,71.60,66.20,83.09,360.00,17.00,0.00,30.06,M,6.21,M,SCT,M,M,M,1700.00,M,M,M,M,YBBN 261200Z 36017KT 9999 SCT017 22/19 Q1018
YBBN,2015-10-26 12:30,153.1292,-27.3917,71.60,66.20,83.09,360.00,16.00,0.00,30.06,M,6.21,M,FEW,BKN,M,M,1700.00,19000.00,M,M,M,YBBN 261230Z 36016KT 9999 FEW017 BKN190 22/19 Q1018
YBBN,2015-10-26 13:00,153.1292,-27.3917,71.60,66.20,83.09,10.00,17.00,0.00,30.06,M,6.21,M,FEW,BKN,M,M,1700.00,24000.00,M,M,M,YBBN 261300Z 01017KT 9999 FEW017 BKN240 22/19 Q1018
YBBN,2015-10-26 13:30,153.1292,-27.3917,71.60,66.20,83.09,350.00,14.00,0.00,30.06,M,6.21,M,FEW,BKN,M,M,1800.00,19000.00,M,M,VCSH,YBBN 261330Z 35014KT 9999 VCSH FEW018 BKN190 22/19 Q1018
YBBN,2015-10-26 14:00,153.1292,-27.3917,71.60,66.20,83.09,270.00,8.00,0.00,30.09,M,6.21,M,BKN,M,M,M,2200.00,M,M,M,VCSH,YBBN 261400Z 27008KT 9999 VCSH BKN022 22/19 Q1019
YBBN,2015-10-26 14:30,153.1292,-27.3917,71.60,66.20,83.09,310.00,7.00,0.00,30.06,M,6.21,M,SCT,BKN,FEW,M,2000.00,3700.00,3500.00,M,-SHRA,YBBN 261430Z 31007KT 9999 -SHRA SCT020 BKN037 FEW035CB 22/19 Q1018
YBBN,2015-10-26 15:00,153.1292,-27.3917,69.80,66.20,88.34,280.00,12.00,0.00,30.09,M,6.21,M,FEW,BKN,FEW,M,2000.00,5500.00,3000.00,M,-TSRA,YBBN 261500Z 28012KT 9999 -TSRA FEW020 BKN055 FEW030CB 21/19 Q1019
YBBN,2015-10-26 15:30,153.1292,-27.3917,68.00,64.40,88.26,290.00,6.00,0.00,30.09,M,3.73,M,SCT,BKN,M,M,3800.00,4500.00,M,M,-RA,YBBN 261530Z 29006KT 6000 -RA SCT038 BKN045 20/18 Q1019 RETS
YBBN,2015-10-26 16:00,153.1292,-27.3917,68.00,64.40,88.26,160.00,5.00,0.00,30.06,M,5.59,M,FEW,BKN,M,M,3500.00,4500.00,M,M,-RA,YBBN 261600Z 16005KT 9000 -RA FEW035 BKN045 20/18 Q1018
YBBN,2015-10-26 16:30,153.1292,-27.3917,66.20,64.40,93.92,200.00,5.00,0.00,30.06,M,6.21,M,FEW,BKN,M,M,4400.00,9000.00,M,M,-RA,YBBN 261630Z 20005KT 9999 -RA FEW044 BKN090 19/18 Q1018
YBBN,2015-10-26 17:00,153.1292,-27.3917,66.20,64.40,93.92,0.00,0.00,0.00,30.03,M,6.21,M,M,M,M,M,M,M,M,M,M,YBBN 261700Z 00000KT CAVOK 19/18 Q1017
YBBN,2015-10-26 17:30,153.1292,-27.3917,66.20,64.40,93.92,290.00,7.00,0.00,30.03,M,6.21,M,M,M,M,M,M,M,M,M,M,YBBN 261730Z 29007KT CAVOK 19/18 Q1017 RMK 6AC100
YBBN,2015-10-26 18:00,153.1292,-27.3917,66.20,64.40,93.92,310.00,8.00,0.00,30.03,M,6.21,M,M,M,M,M,M,M,M,M,M,YBBN 261800Z 31008KT CAVOK 19/18 Q1017
YBBN,2015-10-26 18:30,153.1292,-27.3917,66.20,64.40,93.92,310.00,5.00,0.00,30.06,M,6.21,M,M,M,M,M,M,M,M,M,M,YBBN 261830Z 31005KT CAVOK 19/18 Q1018
YBBN,2015-10-26 19:00,153.1292,-27.3917,64.40,64.40,100.00,340.00,5.00,0.00,30.06,M,6.21,M,M,M,M,M,M,M,M,M,M,YBBN 261900Z 34005KT CAVOK 18/18 Q1018
YBBN,2015-10-26 19:30,153.1292,-27.3917,66.20,64.40,93.92,310.00,6.00,0.00,30.06,M,6.21,M,M,M,M,M,M,M,M,M,M,YBBN 261930Z 31006KT CAVOK 19/18 Q1018
YBBN,2015-10-26 20:00,153.1292,-27.3917,66.20,64.40,93.92,310.00,6.00,0.00,30.06,M,6.21,M,M,M,M,M,M,M,M,M,M,YBBN 262000Z 31006KT CAVOK 19/18 Q1018 NOSIG
YBBN,2015-10-26 20:30,153.1292,-27.3917,68.00,64.40,88.26,310.00,7.00,0.00,30.09,M,6.21,M,M,M,M,M,M,M,M,M,M,YBBN 262030Z 31007KT CAVOK 20/18 Q1019
YBBN,2015-10-26 21:00,153.1292,-27.3917,69.80,64.40,82.98,310.00,7.00,0.00,30.09,M,6.21,M,M,M,M,M,M,M,M,M,M,YBBN 262100Z 31007KT CAVOK 21/18 Q1019
YBBN,2015-10-26 21:30,153.1292,-27.3917,71.60,64.40,78.04,330.00,7.00,0.00,30.09,M,6.21,M,FEW,M,M,M,2000.00,M,M,M,M,YBBN 262130Z 33007KT 9999 FEW020 22/18 Q1019
YBBN,2015-10-26 22:00,153.1292,-27.3917,73.40,64.40,73.44,330.00,6.00,0.00,30.09,M,6.21,M,FEW,M,M,M,2000.00,M,M,M,M,YBBN 262200Z 33006KT 9999 FEW020 23/18 Q1019
YBBN,2015-10-26 22:30,153.1292,-27.3917,75.20,64.40,69.14,330.00,6.00,0.00,30.06,M,6.21,M,FEW,M,M,M,2000.00,M,M,M,M,YBBN 262230Z 33006KT 9999 FEW020 24/18 Q1018
YBBN,2015-10-26 23:00,153.1292,-27.3917,77.00,66.20,69.33,350.00,8.00,0.00,30.06,M,6.21,M,FEW,M,M,M,2000.00,M,M,M,M,YBBN 262300Z 35008KT 9999 FEW020 25/19 Q1018
YBBN,2015-10-26 23:30,153.1292,-27.3917,77.00,66.20,69.33,360.00,7.00,0.00,30.06,M,6.21,M,FEW,M,M,M,2500.00,M,M,M,M,YBBN 262330Z 36007KT 9999 FEW025 25/19 Q1018
