#DEBUG: Format Typ    -> comma
#DEBUG: Time Period   -> 2011-03-26 00:00:00+00:00 2011-03-27 00:00:00+00:00
#DEBUG: Time Zone     -> Etc/UTC
#DEBUG: Data Contact   -> daryl herzmann akrherz@iastate.edu 515-294-5978
#DEBUG: Entries Found -> -1
station,valid,lon,lat,tmpf, dwpf, relh, drct, sknt, p01i, alti, mslp, vsby, gust, skyc1, skyc2, skyc3, skyc4, skyl1, skyl2, skyl3, skyl4, presentwx, metar
YBBN,2011-03-26 00:00,153.1292,-27.3917,78.80,64.40,61.36,110.00,11.00,M,29.94,M,6.21,M,SCT,M,M,M,3500.00,M,M,M,M,YBBN 260000Z 11011KT 9999 SCT035 26/18 Q1014 NOSIG
YBBN,2011-03-26 00:30,153.1292,-27.3917,78.80,64.40,61.36,110.00,11.00,M,29.94,M,6.21,M,SCT,SCT,M,M,3500.00,26000.00,M,M,M,YBBN 260030Z 11011KT 9999 SCT035 SCT260 26/18 Q1014 NOSIG
YBBN,2011-03-26 01:00,153.1292,-27.3917,78.80,62.60,57.60,110.00,11.00,M,29.94,M,6.21,M,SCT,M,M,M,3500.00,M,M,M,M,YBBN 260100Z 11011KT 9999 SCT035 26/17 Q1014 NOSIG
YBBN,2011-03-26 01:30,153.1292,-27.3917,78.80,62.60,57.60,130.00,11.00,M,29.94,M,6.21,M,SCT,M,M,M,3500.00,M,M,M,M,YBBN 260130Z 13011KT 9999 SCT035 26/17 Q1014 NOSIG
YBBN,2011-03-26 02:00,153.1292,-27.3917,80.60,62.60,54.30,100.00,13.00,M,29.94,M,6.21,M,SCT,M,M,M,3500.00,M,M,M,M,YBBN 260200Z 10013KT 9999 SCT035 27/17 Q1014 NOSIG
YBBN,2011-03-26 02:30,153.1292,-27.3917,80.60,64.40,57.84,100.00,12.00,M,29.94,M,6.21,M,SCT,M,M,M,3500.00,M,M,M,M,YBBN 260230Z 10012KT 9999 SCT035 27/18 Q1014 NOSIG
YBBN,2011-03-26 03:00,153.1292,-27.3917,80.60,62.60,54.30,110.00,13.00,M,29.94,M,6.21,M,SCT,M,M,M,3500.00,M,M,M,M,YBBN 260300Z 11013KT 9999 SCT035 27/17 Q1014 NOSIG
YBBN,2011-03-26 03:30,153.1292,-27.3917,78.80,60.80,54.05,110.00,12.00,M,29.94,M,6.21,M,SCT,M,M,M,3500.00,M,M,M,M,YBBN 260330Z 11012KT 9999 SCT035 26/16 Q1014 NOSIG
YBBN,2011-03-26 04:00,153.1292,-27.3917,78.80,60.80,54.05,110.00,13.00,M,29.91,M,6.21,M,SCT,M,M,M,3500.00,M,M,M,M,YBBN 260400Z 11013KT 9999 SCT035 26/16 Q1013 NOSIG
YBBN,2011-03-26 04:30,153.1292,-27.3917,78.80,60.80,54.05,110.00,12.00,M,29.91,M,6.21,M,SCT,M,M,M,3500.00,M,M,M,M,YBBN 260430Z 11012KT 9999 SCT035 26/16 Q1013 NOSIG
YBBN,2011-03-26 05:00,153.1292,-27.3917,78.80,60.80,54.05,110.00,12.00,M,29.91,M,6.21,M,FEW,M,M,M,3500.00,M,M,M,M,YBBN 260500Z 11012KT 9999 FEW035 26/16 Q1013 NOSIG
YBBN,2011-03-26 05:30,153.1292,-27.3917,78.80,60.80,54.05,110.00,13.00,M,29.94,M,6.21,M,FEW,M,M,M,3800.00,M,M,M,M,YBBN 260530Z 11013KT 9999 FEW038 26/16 Q1014 NOSIG
YBBN,2011-03-26 06:00,153.1292,-27.3917,78.80,59.00,50.69,110.00,13.00,M,29.94,M,6.21,M,FEW,M,M,M,3800.00,M,M,M,M,YBBN 260600Z 11013KT 9999 FEW038 26/15 Q1014 NOSIG
YBBN,2011-03-26 06:30,153.1292,-27.3917,77.00,57.20,50.43,120.00,13.00,M,29.94,M,6.21,M,FEW,M,M,M,3800.00,M,M,M,M,YBBN 260630Z 12013KT 9999 FEW038 25/14 Q1014 NOSIG
YBBN,2011-03-26 07:00,153.1292,-27.3917,77.00,57.20,50.43,130.00,13.00,M,29.97,M,6.21,M,FEW,M,M,M,3500.00,M,M,M,M,YBBN 260700Z 13013KT 9999 FEW035 25/14 Q1015 NOSIG
YBBN,2011-03-26 07:30,153.1292,-27.3917,75.20,64.40,69.14,120.00,12.00,M,29.97,M,6.21,M,FEW,M,M,M,3500.00,M,M,M,M,YBBN 260730Z 12012KT 9999 FEW035 24/18 Q1015 NOSIG
YBBN,2011-03-26 08:00,153.1292,-27.3917,75.20,62.60,64.91,130.00,10.00,M,29.97,M,6.21,M,FEW,M,M,M,3500.00,M,M,M,M,YBBN 260800Z 13010KT 9999 FEW035 24/17 Q1015 NOSIG
YBBN,2011-03-26 08:30,153.1292,-27.3917,75.20,60.80,60.90,140.00,10.00,M,29.97,M,6.21,M,FEW,M,M,M,3500.00,M,M,M,M,YBBN 260830Z 14010KT 9999 FEW035 24/16 Q1015 NOSIG
YBBN,2011-03-26 09:00,153.1292,-27.3917,75.20,60.80,60.90,140.00,9.00,M,30.00,M,6.21,M,M,M,M,M,M,M,M,M,M,YBBN 260900Z 14009KT CAVOK 24/16 Q1016 NOSIG
YBBN,2011-03-26 09:30,153.1292,-27.3917,75.20,60.80,60.90,150.00,9.00,M,30.00,M,6.21,M,M,M,M,M,M,M,M,M,M,YBBN 260930Z 15009KT CAVOK 24/16 Q1016 NOSIG
YBBN,2011-03-26 10:00,153.1292,-27.3917,75.20,59.00,57.12,140.00,11.00,M,30.03,M,6.21,M,M,M,M,M,M,M,M,M,M,YBBN 261000Z 14011KT CAVOK 24/15 Q1017 NOSIG
YBBN,2011-03-26 10:30,153.1292,-27.3917,73.40,60.80,64.69,150.00,9.00,M,30.03,M,6.21,M,M,M,M,M,M,M,M,M,M,YBBN 261030Z 15009KT CAVOK 23/16 Q1017 NOSIG
YBBN,2011-03-26 11:00,153.1292,-27.3917,73.40,60.80,64.69,150.00,8.00,M,30.03,M,6.21,M,M,M,M,M,M,M,M,M,M,YBBN 261100Z 15008KT CAVOK 23/16 Q1017 NOSIG
YBBN,2011-03-26 11:30,153.1292,-27.3917,73.40,59.00,60.67,150.00,9.00,M,30.03,M,6.21,M,M,M,M,M,M,M,M,M,M,YBBN 261130Z 15009KT CAVOK 23/15 Q1017 NOSIG
YBBN,2011-03-26 12:00,153.1292,-27.3917,73.40,59.00,60.67,160.00,9.00,M,30.03,M,6.21,M,M,M,M,M,M,M,M,M,M,YBBN 261200Z 16009KT CAVOK 23/15 Q1017 NOSIG
YBBN,2011-03-26 12:30,153.1292,-27.3917,71.60,59.00,64.48,170.00,8.00,M,30.03,M,6.21,M,M,M,M,M,M,M,M,M,M,YBBN 261230Z 17008KT CAVOK 22/15 Q1017 NOSIG
YBBN,2011-03-26 13:00,153.1292,-27.3917,71.60,59.00,64.48,200.00,7.00,M,30.03,M,6.21,M,M,M,M,M,M,M,M,M,M,YBBN 261300Z 20007KT CAVOK 22/15 Q1017 NOSIG
YBBN,2011-03-26 13:30,153.1292,-27.3917,69.80,59.00,68.55,200.00,6.00,M,30.03,M,6.21,M,M,M,M,M,M,M,M,M,M,YBBN 261330Z 20006KT CAVOK 21/15 Q1017 NOSIG
YBBN,2011-03-26 14:00,153.1292,-27.3917,66.20,60.80,82.74,210.00,5.00,M,30.03,M,6.21,M,M,M,M,M,M,M,M,M,M,YBBN 261400Z 21005KT CAVOK 19/16 Q1017 NOSIG
YBBN,2011-03-26 14:30,153.1292,-27.3917,64.40,60.80,88.09,220.00,6.00,M,30.03,M,6.21,M,M,M,M,M,M,M,M,M,M,YBBN 261430Z 22006KT CAVOK 18/16 Q1017 NOSIG
YBBN,2011-03-26 15:00,153.1292,-27.3917,66.20,60.80,82.74,220.00,6.00,M,30.03,M,6.21,M,FEW,M,M,M,3000.00,M,M,M,M,YBBN 261500Z 22006KT 9999 FEW030 19/16 Q1017 NOSIG
YBBN,2011-03-26 15:30,153.1292,-27.3917,66.20,60.80,82.74,210.00,5.00,M,30.03,M,6.21,M,FEW,M,M,M,3000.00,M,M,M,M,YBBN 261530Z 21005KT 9999 FEW030 19/16 Q1017 NOSIG
YBBN,2011-03-26 16:00,153.1292,-27.3917,64.40,60.80,88.09,220.00,7.00,M,30.00,M,6.21,M,FEW,M,M,M,3000.00,M,M,M,M,YBBN 261600Z 22007KT 9999 FEW030 18/16 Q1016 NOSIG
YBBN,2011-03-26 16:30,153.1292,-27.3917,64.40,60.80,88.09,210.00,7.00,M,30.00,M,6.21,M,FEW,M,M,M,3000.00,M,M,M,M,YBBN 261630Z 21007KT 9999 FEW030 18/16 Q1016 NOSIG
YBBN,2011-03-26 17:00,153.1292,-27.3917,66.20,60.80,82.74,220.00,7.00,M,30.00,M,6.21,M,FEW,BKN,M,M,3000.00,9000.00,M,M,M,YBBN 261700Z 22007KT 9999 FEW030 BKN090 19/16 Q1016 NOSIG
YBBN,2011-03-26 17:30,153.1292,-27.3917,66.20,60.80,82.74,210.00,7.00,M,30.00,M,6.21,M,M,M,M,M,M,M,M,M,M,YBBN 261730Z 21007KT CAVOK 19/16 Q1016 RMK 7AC080 NOSIG
YBBN,2011-03-26 18:00,153.1292,-27.3917,66.20,60.80,82.74,210.00,7.00,M,30.00,M,6.21,M,M,M,M,M,M,M,M,M,M,YBBN 261800Z 21007KT CAVOK 19/16 Q1016 NOSIG
YBBN,2011-03-26 18:30,153.1292,-27.3917,66.20,60.80,82.74,210.00,6.00,M,30.03,M,6.21,M,M,M,M,M,M,M,M,M,M,YBBN 261830Z 21006KT CAVOK 19/16 Q1017 RMK 6AC075 NOSIG
YBBN,2011-03-26 19:00,153.1292,-27.3917,66.20,60.80,82.74,210.00,7.00,M,30.03,M,6.21,M,M,M,M,M,M,M,M,M,M,YBBN 261900Z 21007KT CAVOK 19/16 Q1017 NOSIG
YBBN,2011-03-26 19:30,153.1292,-27.3917,66.20,60.80,82.74,210.00,7.00,M,30.03,M,6.21,M,FEW,BKN,M,M,3000.00,7000.00,M,M,M,YBBN 261930Z 21007KT 9999 FEW030 BKN070 19/16 Q1017 NOSIG
YBBN,2011-03-26 20:00,153.1292,-27.3917,66.20,59.00,77.60,210.00,7.00,M,30.03,M,6.21,M,FEW,BKN,M,M,3000.00,7000.00,M,M,M,YBBN 262000Z 21007KT 9999 FEW030 BKN070 19/15 Q1017 NOSIG
YBBN,2011-03-26 20:30,153.1292,-27.3917,66.20,59.00,77.60,210.00,7.00,M,30.06,M,6.21,M,FEW,SCT,M,M,2500.00,6500.00,M,M,M,YBBN 262030Z 21007KT 9999 FEW025 SCT065 19/15 Q1018 NOSIG
YBBN,2011-03-26 21:00,153.1292,-27.3917,68.00,60.80,77.75,210.00,7.00,M,30.06,M,6.21,M,FEW,SCT,M,M,2500.00,6500.00,M,M,M,YBBN 262100Z 21007KT 9999 FEW025 SCT065 20/16 Q1018 NOSIG
YBBN,2011-03-26 21:30,153.1292,-27.3917,71.60,59.00,64.48,210.00,7.00,M,30.09,M,6.21,M,FEW,M,M,M,3500.00,M,M,M,M,YBBN 262130Z 21007KT 9999 FEW035 22/15 Q1019 RMK HAZE NOSIG
YBBN,2011-03-26 22:00,153.1292,-27.3917,71.60,59.00,64.48,200.00,9.00,M,30.09,M,6.21,M,FEW,SCT,M,M,3500.00,8500.00,M,M,M,YBBN 262200Z 20009KT 9999 FEW035 SCT085 22/15 Q1019 RMK HAZE NOSIG
YBBN,2011-03-26 22:30,153.1292,-27.3917,73.40,59.00,60.67,200.00,10.00,M,30.09,M,6.21,M,FEW,SCT,M,M,3500.00,9000.00,M,M,M,YBBN 262230Z 20010KT 9999 FEW035 SCT090 23/15 Q1019 RMK HAZE NOSIG
YBBN,2011-03-26 23:00,153.1292,-27.3917,77.00,60.80,57.36,170.00,10.00,M,30.09,M,6.21,M,FEW,SCT,M,M,3500.00,8500.00,M,M,M,YBBN 262300Z 17010KT 9999 FEW035 SCT085 25/16 Q1019 NOSIG
YBBN,2011-03-26 23:30,153.1292,-27.3917,77.00,59.00,53.80,170.00,10.00,M,30.09,M,6.21,M,FEW,SCT,M,M,3500.00,8000.00,M,M,M,YBBN 262330Z 17010KT 9999 FEW035 SCT080 25/15 Q1019 NOSIG
