#DEBUG: Format Typ    -> comma
#DEBUG: Time Period   -> 2012-06-01 00:00:00+00:00 2012-06-02 00:00:00+00:00
#DEBUG: Time Zone     -> Etc/UTC
#DEBUG: Data Contact   -> daryl herzmann akrherz@iastate.edu 515-294-5978
#DEBUG: Entries Found -> -1
station,valid,lon,lat,tmpf, dwpf, relh, drct, sknt, p01i, alti, mslp, vsby, gust, skyc1, skyc2, skyc3, skyc4, skyl1, skyl2, skyl3, skyl4, presentwx, metar
YBBN,2012-06-01 00:00,153.1292,-27.3917,68.00,62.60,82.86,180.00,6.00,0.00,30.24,M,6.21,M,SCT,BKN,M,M,4000.00,21000.00,M,M,VCSH,YBBN 010000Z 18006KT 9999 VCSH SCT040 BKN210 20/17 Q1024
YBBN,2012-06-01 00:30,153.1292,-27.3917,66.20,60.80,82.74,120.00,7.00,0.00,30.24,M,3.11,M,BKN,M,M,M,2600.00,M,M,M,SHRA VCSH,YBBN 010030Z 12007KT 5000 SHRA VCSH BKN026 19/16 Q1024 FM0050 12011KT 9999 -SHRA SCT020 BKN035 BKN050 INTER 0030/0330 3000 SHRA BKN012
YBBN,2012-06-01 01:00,153.1292,-27.3917,66.20,62.60,88.18,120.00,6.00,0.00,30.24,M,5.59,M,FEW,SCT,BKN,M,1400.00,3400.00,6000.00,M,VCSH,YBBN 010100Z 12006KT 9000 VCSH FEW014 SCT034 BKN060 19/17 Q1024
YBBN,2012-06-01 01:30,153.1292,-27.3917,68.00,60.80,77.75,110.00,5.00,0.00,30.21,M,6.21,M,FEW,SCT,BKN,M,3000.00,6000.00,18000.00,M,VCSH,YBBN 010130Z 11005KT 9999 VCSH FEW030 SCT060 BKN180 20/16 Q1023
YBBN,2012-06-01 02:00,153.1292,-27.3917,68.00,60.80,77.75,140.00,4.00,0.00,30.21,M,6.21,M,FEW,SCT,BKN,M,3000.00,4900.00,17000.00,M,VCSH,YBBN 010200Z 14004KT 9999 VCSH FEW030 SCT049 BKN170 20/16 Q1023
YBBN,2012-06-01 02:30,153.1292,-27.3917,68.00,60.80,77.75,110.00,5.00,0.00,30.18,M,6.21,M,SCT,SCT,BKN,M,3000.00,4900.00,17000.00,M,VCSH,YBBN 010230Z 11005KT 9999 VCSH SCT030 SCT049 BKN170 20/16 Q1022
YBBN,2012-06-01 02:46,153.1292,-27.3917,66.20,60.80,82.74,80.00,13.00,0.00,30.18,M,3.73,M,FEW,SCT,BKN,M,2000.00,3000.00,17000.00,M,-SHRA,YBBN 010246Z 08013KT 6000 -SHRA FEW020 SCT030 BKN170 19/16 Q1022
YBBN,2012-06-01 03:00,153.1292,-27.3917,66.20,60.80,82.74,90.00,6.00,0.00,30.18,M,4.97,M,FEW,SCT,BKN,M,2000.00,3000.00,17000.00,M,VCSH,YBBN 010300Z 09006KT 8000 VCSH FEW020 SCT030 BKN170 19/16 Q1022
YBBN,2012-06-01 03:30,153.1292,-27.3917,68.00,59.00,72.92,80.00,7.00,0.00,30.15,M,6.21,M,FEW,SCT,BKN,M,2000.00,3000.00,6000.00,M,M,YBBN 010330Z 08007KT 9999 FEW020 SCT030 BKN060 20/15 Q1021
YBBN,2012-06-01 04:00,153.1292,-27.3917,68.00,60.80,77.75,70.00,7.00,0.00,30.15,M,6.21,M,FEW,SCT,BKN,M,3000.00,6000.00,20000.00,M,VCSH,YBBN 010400Z 07007KT 9999 VCSH FEW030 SCT060 BKN200 20/16 Q1021 INTER 0400/0700 3000 SHRA BKN010
YBBN,2012-06-01 04:30,153.1292,-27.3917,66.20,60.80,82.74,90.00,9.00,0.00,30.15,M,6.21,M,SCT,BKN,M,M,3000.00,6000.00,M,M,-SHRA VCSH,YBBN 010430Z 09009KT 9999 -SHRA VCSH SCT030 BKN060 19/16 Q1021
YBBN,2012-06-01 05:00,153.1292,-27.3917,68.00,59.00,72.92,80.00,8.00,0.00,30.15,M,6.21,M,FEW,SCT,BKN,M,3000.00,4000.00,10000.00,M,VCSH,YBBN 010500Z 08008KT 9999 VCSH FEW030 SCT040 BKN100 20/15 Q1021
YBBN,2012-06-01 05:30,153.1292,-27.3917,66.20,60.80,82.74,80.00,6.00,0.00,30.15,M,6.21,M,FEW,BKN,M,M,3000.00,4200.00,M,M,M,YBBN 010530Z 08006KT 9999 FEW030 BKN042 19/16 Q1021
YBBN,2012-06-01 06:00,153.1292,-27.3917,66.20,60.80,82.74,70.00,11.00,0.00,30.15,M,3.73,M,SCT,BKN,M,M,2000.00,4000.00,M,M,-SHRA,YBBN 010600Z 07011KT 6000 -SHRA SCT020 BKN040 19/16 Q1021
YBBN,2012-06-01 06:30,153.1292,-27.3917,64.40,60.80,88.09,100.00,8.00,0.00,30.15,M,3.73,M,FEW,SCT,BKN,M,1400.00,2000.00,4000.00,M,-SHRA VCSH,YBBN 010630Z 10008KT 6000 -SHRA VCSH FEW014 SCT020 BKN040 18/16 Q1021
YBBN,2012-06-01 06:39,153.1292,-27.3917,64.40,60.80,88.09,90.00,9.00,0.00,30.15,M,4.97,M,FEW,SCT,BKN,M,1400.00,2500.00,4000.00,M,-SHRA VCSH,YBBN 010639Z 09009KT 8000 -SHRA VCSH FEW014 SCT025 BKN040 18/16 Q1021 RMK CLEARING
YBBN,2012-06-01 07:00,153.1292,-27.3917,64.40,60.80,88.09,90.00,7.00,0.00,30.15,M,4.97,M,FEW,SCT,BKN,M,1800.00,3200.00,4200.00,M,VCSH,YBBN 010700Z 09007KT 8000 VCSH FEW018 SCT032 BKN042 18/16 Q1021 TEMPO 0700/1000 3000 SHRA BKN010
YBBN,2012-06-01 07:23,153.1292,-27.3917,64.40,60.80,88.09,60.00,12.00,0.00,30.18,M,4.35,M,FEW,SCT,BKN,M,1500.00,3000.00,4200.00,M,-SHRA VCSH,YBBN 010723Z 06012KT 7000 -SHRA VCSH FEW015 SCT030 BKN042 18/16 Q1022
YBBN,2012-06-01 07:30,153.1292,-27.3917,64.40,60.80,88.09,70.00,8.00,0.00,30.18,M,4.35,M,FEW,SCT,BKN,M,2000.00,3000.00,4200.00,M,-SHRA VCSH,YBBN 010730Z 07008KT 7000 -SHRA VCSH FEW020 SCT030 BKN042 18/16 Q1022
YBBN,2012-06-01 08:00,153.1292,-27.3917,62.60,60.80,93.83,90.00,7.00,0.00,30.18,M,4.35,M,FEW,SCT,BKN,M,1200.00,2200.00,4200.00,M,-SHRA VCSH,YBBN 010800Z 09007KT 7000 -SHRA VCSH FEW012 SCT022 BKN042 17/16 Q1022
YBBN,2012-06-01 08:21,153.1292,-27.3917,62.60,62.60,100.00,80.00,7.00,0.00,30.18,M,3.11,M,FEW,SCT,BKN,M,500.00,2000.00,4200.00,M,SHRA VCSH,YBBN 010821Z 08007KT 5000 SHRA VCSH FEW005 SCT020 BKN042 17/17 Q1022
YBBN,2012-06-01 08:30,153.1292,-27.3917,62.60,60.80,93.83,90.00,7.00,0.00,30.18,M,3.11,M,FEW,SCT,BKN,M,500.00,1200.00,4200.00,M,-SHRA VCSH,YBBN 010830Z 09007KT 5000 -SHRA VCSH FEW005 SCT012 BKN042 17/16 Q1022 RESHRA
YBBN,2012-06-01 08:42,153.1292,-27.3917,62.60,60.80,93.83,90.00,6.00,0.00,30.18,M,4.35,M,FEW,SCT,BKN,M,500.00,1400.00,4200.00,M,-SHRA VCSH,YBBN 010842Z 09006KT 7000 -SHRA VCSH FEW005 SCT014 BKN042 17/16 Q1022
YBBN,2012-06-01 09:00,153.1292,-27.3917,62.60,62.60,100.00,90.00,6.00,0.00,30.18,M,4.97,M,FEW,SCT,BKN,M,500.00,1400.00,4200.00,M,-SHRA VCSH,YBBN 010900Z 09006KT 8000 -SHRA VCSH FEW005 SCT014 BKN042 17/17 Q1022
YBBN,2012-06-01 09:22,153.1292,-27.3917,62.60,60.80,93.83,130.00,5.00,0.00,30.18,M,1.86,M,FEW,SCT,BKN,M,500.00,1200.00,4000.00,M,SHRA VCSH,YBBN 010922Z 13005KT 3000 SHRA VCSH FEW005 SCT012 BKN040 17/16 Q1022
YBBN,2012-06-01 09:30,153.1292,-27.3917,62.60,60.80,93.83,110.00,6.00,0.00,30.18,M,1.86,M,FEW,SCT,BKN,M,500.00,1000.00,2200.00,M,SHRA VCSH,YBBN 010930Z 11006KT 3000 SHRA VCSH FEW005 SCT010 BKN022 17/16 Q1022
YBBN,2012-06-01 10:00,153.1292,-27.3917,62.60,60.80,93.83,130.00,7.00,0.00,30.18,M,1.86,M,FEW,SCT,BKN,M,300.00,1000.00,2000.00,M,SHRA VCSH,YBBN 011000Z 13007KT 3000 SHRA VCSH FEW003 SCT010 BKN020 17/16 Q1022
YBBN,2012-06-01 10:35,153.1292,-27.3917,62.60,60.80,93.83,130.00,7.00,0.00,30.18,M,1.86,M,FEW,SCT,BKN,M,500.00,1000.00,2000.00,M,SHRA VCSH,YBBN 011035Z 13007KT 3000 SHRA VCSH FEW005 SCT010 BKN020 17/16 Q1022
YBBN,2012-06-01 10:46,153.1292,-27.3917,62.60,60.80,93.83,150.00,7.00,0.00,30.18,M,3.73,M,FEW,SCT,BKN,M,400.00,1000.00,3200.00,M,-SHRA VCSH,YBBN 011046Z 15007KT 6000 -SHRA VCSH FEW004 SCT010 BKN032 17/16 Q1022 RESHRA
YBBN,2012-06-01 11:00,153.1292,-27.3917,62.60,60.80,93.83,150.00,6.00,0.00,30.18,M,4.97,M,FEW,SCT,BKN,M,300.00,1000.00,2400.00,M,VCSH,YBBN 011100Z 15006KT 8000 VCSH FEW003 SCT010 BKN024 17/16 Q1022
YBBN,2012-06-01 11:30,153.1292,-27.3917,62.60,60.80,93.83,160.00,5.00,0.00,30.18,M,6.21,M,FEW,SCT,BKN,M,300.00,1000.00,2800.00,M,VCSH,YBBN 011130Z 16005KT 9999 VCSH FEW003 SCT010 BKN028 17/16 Q1022
YBBN,2012-06-01 11:57,153.1292,-27.3917,62.60,60.80,93.83,120.00,4.00,0.00,30.18,M,3.73,M,FEW,SCT,BKN,M,300.00,1000.00,2100.00,M,-SHRA VCSH,YBBN 011157Z 12004KT 6000 -SHRA VCSH FEW003 SCT010 BKN021 17/16 Q1022
YBBN,2012-06-01 12:00,153.1292,-27.3917,62.60,60.80,93.83,130.00,4.00,0.00,30.18,M,3.73,M,FEW,SCT,BKN,M,300.00,1000.00,2100.00,M,-SHRA VCSH,YBBN 011200Z 13004KT 6000 -SHRA VCSH FEW003 SCT010 BKN021 17/16 Q1022
YBBN,2012-06-01 12:22,153.1292,-27.3917,62.60,60.80,93.83,170.00,5.00,0.00,30.18,M,5.59,M,FEW,SCT,BKN,M,300.00,800.00,2800.00,M,VCSH,YBBN 011222Z 17005KT 9000 VCSH FEW003 SCT008 BKN028 17/16 Q1022
YBBN,2012-06-01 12:30,153.1292,-27.3917,62.60,60.80,93.83,190.00,5.00,0.00,30.18,M,5.59,M,FEW,SCT,BKN,M,300.00,800.00,2800.00,M,VCSH,YBBN 011230Z 19005KT 9000 VCSH FEW003 SCT008 BKN028 17/16 Q1022
YBBN,2012-06-01 13:00,153.1292,-27.3917,60.80,60.80,100.00,210.00,7.00,0.00,30.15,M,5.59,M,FEW,SCT,BKN,M,300.00,2200.00,5800.00,M,VCSH,YBBN 011300Z 21007KT 9000 VCSH FEW003 SCT022 BKN058 16/16 Q1021 TEMPO 1300/1600 3000 SHRA BKN010
YBBN,2012-06-01 13:30,153.1292,-27.3917,60.80,60.80,100.00,190.00,6.00,0.00,30.15,M,4.97,M,FEW,SCT,BKN,M,400.00,2400.00,5800.00,M,-SHRA VCSH,YBBN 011330Z 19006KT 8000 -SHRA VCSH FEW004 SCT024 BKN058 16/16 Q1021
YBBN,2012-06-01 13:43,153.1292,-27.3917,62.60,60.80,93.83,160.00,4.00,0.00,30.15,M,3.73,M,FEW,SCT,BKN,M,200.00,2400.00,5800.00,M,-SHRA VCSH,YBBN 011343Z 16004KT 6000 -SHRA VCSH FEW002 SCT024 BKN058 17/16 Q1021
YBBN,2012-06-01 14:00,153.1292,-27.3917,62.60,60.80,93.83,170.00,3.00,0.00,30.12,M,5.59,M,FEW,SCT,BKN,M,300.00,2400.00,5500.00,M,-SHRA VCSH,YBBN 011400Z 17003KT 9000 -SHRA VCSH FEW003 SCT024 BKN055 17/16 Q1020
YBBN,2012-06-01 14:21,153.1292,-27.3917,62.60,60.80,93.83,110.00,7.00,0.00,30.12,M,3.73,M,FEW,SCT,BKN,M,200.00,2400.00,5000.00,M,-SHRA VCSH,YBBN 011421Z 11007KT 6000 -SHRA VCSH FEW002 SCT024 BKN050 17/16 Q1020
YBBN,2012-06-01 14:30,153.1292,-27.3917,62.60,60.80,93.83,140.00,5.00,0.00,30.12,M,3.73,M,FEW,SCT,BKN,M,200.00,2200.00,4800.00,M,-SHRA VCSH,YBBN 011430Z 14005KT 6000 -SHRA VCSH FEW002 SCT022 BKN048 17/16 Q1020
YBBN,2012-06-01 14:47,153.1292,-27.3917,62.60,60.80,93.83,180.00,6.00,0.00,30.12,M,4.97,M,FEW,SCT,BKN,M,300.00,2200.00,5200.00,M,-SHRA VCSH,YBBN 011447Z 18006KT 8000 -SHRA VCSH FEW003 SCT022 BKN052 17/16 Q1020 RMK CLEARING REPORT
YBBN,2012-06-01 15:00,153.1292,-27.3917,60.80,60.80,100.00,200.00,7.00,0.00,30.12,M,4.97,M,FEW,SCT,BKN,M,200.00,2200.00,5400.00,M,-SHRA VCSH,YBBN 011500Z 20007KT 8000 -SHRA VCSH FEW002 SCT022 BKN054 16/16 Q1020
YBBN,2012-06-01 15:30,153.1292,-27.3917,60.80,59.00,93.79,190.00,8.00,0.00,30.12,M,6.21,M,FEW,SCT,BKN,M,200.00,2200.00,5800.00,M,VCSH,YBBN 011530Z 19008KT 9999 VCSH FEW002 SCT022 BKN058 16/15 Q1020
YBBN,2012-06-01 16:00,153.1292,-27.3917,60.80,59.00,93.79,200.00,7.00,0.00,30.12,M,6.21,M,FEW,SCT,BKN,M,200.00,2200.00,5800.00,M,VCSH,YBBN 011600Z 20007KT 9999 VCSH FEW002 SCT022 BKN058 16/15 Q1020 TEMPO 1600/1900 3000 SHRA BKN010
YBBN,2012-06-01 16:30,153.1292,-27.3917,60.80,59.00,93.79,200.00,7.00,0.00,30.12,M,6.21,M,FEW,SCT,BKN,M,200.00,3400.00,6500.00,M,VCSH,YBBN 011630Z 20007KT 9999 VCSH FEW002 SCT034 BKN065 16/15 Q1020
YBBN,2012-06-01 17:00,153.1292,-27.3917,60.80,59.00,93.79,200.00,7.00,0.00,30.09,M,6.21,M,FEW,SCT,BKN,M,300.00,3400.00,6500.00,M,VCSH,YBBN 011700Z 20007KT 9999 VCSH FEW003 SCT034 BKN065 16/15 Q1019 TEMPO 1700/2000 3000 SHRA BKN010
YBBN,2012-06-01 17:30,153.1292,-27.3917,60.80,59.00,93.79,220.00,9.00,0.00,30.09,M,6.21,M,FEW,SCT,BKN,M,900.00,3000.00,6500.00,M,VCSH,YBBN 011730Z 22009KT 9999 VCSH FEW009 SCT030 BKN065 16/15 Q1019
YBBN,2012-06-01 18:00,153.1292,-27.3917,60.80,59.00,93.79,190.00,5.00,0.00,30.06,M,5.59,M,FEW,SCT,BKN,M,900.00,3200.00,6500.00,M,VCSH,YBBN 011800Z 19005KT 9000 VCSH FEW009 SCT032 BKN065 16/15 Q1018 TEMPO 1800/2100 3000 SHRA BKN010
YBBN,2012-06-01 18:30,153.1292,-27.3917,60.80,59.00,93.79,190.00,5.00,0.00,30.06,M,6.21,M,FEW,SCT,BKN,M,1200.00,3000.00,6200.00,M,M,YBBN 011830Z 19005KT 9999 FEW012 SCT030 BKN062 16/15 Q1018
YBBN,2012-06-01 19:00,153.1292,-27.3917,60.80,59.00,93.79,200.00,7.00,0.00,30.06,M,6.21,M,FEW,SCT,BKN,M,1200.00,3000.00,6100.00,M,M,YBBN 011900Z 20007KT 9999 FEW012 SCT030 BKN061 16/15 Q1018 TEMPO 1900/2200 3000 SHRA BKN010
YBBN,2012-06-01 19:30,153.1292,-27.3917,60.80,59.00,93.79,190.00,5.00,0.00,30.06,M,5.59,M,FEW,SCT,BKN,M,1200.00,3000.00,6000.00,M,-SHRA,YBBN 011930Z 19005KT 9000 -SHRA FEW012 SCT030 BKN060 16/15 Q1018
YBBN,2012-06-01 20:00,153.1292,-27.3917,60.80,59.00,93.79,210.00,7.00,0.00,30.06,M,6.21,M,FEW,SCT,BKN,M,1500.00,3000.00,6200.00,M,VCSH,YBBN 012000Z 21007KT 9999 VCSH FEW015 SCT030 BKN062 16/15 Q1018 TEMPO 2000/2300 3000 SHRA BKN010
YBBN,2012-06-01 20:30,153.1292,-27.3917,60.80,59.00,93.79,190.00,6.00,0.00,30.09,M,6.21,M,FEW,SCT,BKN,M,1500.00,3000.00,6000.00,M,VCSH,YBBN 012030Z 19006KT 9999 VCSH FEW015 SCT030 BKN060 16/15 Q1019
YBBN,2012-06-01 21:00,153.1292,-27.3917,60.80,59.00,93.79,200.00,6.00,0.00,30.06,M,6.21,M,FEW,SCT,BKN,M,1800.00,2600.00,6000.00,M,VCSH,YBBN 012100Z 20006KT 9999 VCSH FEW018 SCT026 BKN060 16/15 Q1018 TEMPO 2100/2400 3000 SHRA BKN010
YBBN,2012-06-01 21:30,153.1292,-27.3917,60.80,59.00,93.79,200.00,6.00,0.00,30.09,M,5.59,M,FEW,SCT,BKN,M,1500.00,2500.00,6000.00,M,VCSH,YBBN 012130Z 20006KT 9000 VCSH FEW015 SCT025 BKN060 16/15 Q1019
YBBN,2012-06-01 22:00,153.1292,-27.3917,62.60,60.80,93.83,210.00,7.00,0.00,30.09,M,5.59,M,FEW,SCT,BKN,M,1500.00,2500.00,5000.00,M,VCSH,YBBN 012200Z 21007KT 9000 VCSH FEW015 SCT025 BKN050 17/16 Q1019 TEMPO 2200/0100 3000 SHRA BKN010
YBBN,2012-06-01 22:30,153.1292,-27.3917,62.60,60.80,93.83,200.00,8.00,0.00,30.09,M,6.21,M,FEW,BKN,M,M,2500.00,4500.00,M,M,M,YBBN 012230Z 20008KT 9999 FEW025 BKN045 17/16 Q1019
YBBN,2012-06-01 23:00,153.1292,-27.3917,62.60,60.80,93.83,200.00,5.00,0.00,30.09,M,4.35,M,FEW,BKN,M,M,2500.00,4500.00,M,M,VCSH,YBBN 012300Z 20005KT 7000 VCSH FEW025 BKN045 17/16 Q1019
YBBN,2012-06-01 23:30,153.1292,-27.3917,64.40,62.60,93.88,210.00,6.00,0.00,30.09,M,6.21,M,FEW,BKN,M,M,2500.00,6000.00,M,M,-RA VCSH,YBBN 012330Z 21006KT 9999 -RA VCSH FEW025 BKN060 18/17 Q1019
