#DEBUG: Format Typ    -> comma
#DEBUG: Time Period   -> 2013-11-11 00:00:00+00:00 2013-11-12 00:00:00+00:00
#DEBUG: Time Zone     -> Etc/UTC
#DEBUG: Data Contact   -> daryl herzmann akrherz@iastate.edu 515-294-5978
#DEBUG: Entries Found -> -1
station,valid,lon,lat,tmpf, dwpf, relh, drct, sknt, p01i, alti, mslp, vsby, gust, skyc1, skyc2, skyc3, skyc4, skyl1, skyl2, skyl3, skyl4, presentwx, metar
YBBN,2013-11-11 00:00,153.1292,-27.3917,75.20,64.40,69.14,20.00,8.00,0.00,29.94,M,6.21,M,FEW,SCT,BKN,M,2400.00,20000.00,25000.00,M,M,YBBN 110000Z 02008KT 9999 FEW024 SCT200 BKN250 24/18 Q1014 NOSIG
YBBN,2013-11-11 00:30,153.1292,-27.3917,77.00,66.20,69.33,30.00,13.00,0.00,29.94,M,6.21,M,FEW,SCT,BKN,M,2600.00,19000.00,23000.00,M,M,YBBN 110030Z 03013KT 9999 FEW026 SCT190 BKN230 25/19 Q1014
YBBN,2013-11-11 01:00,153.1292,-27.3917,78.80,64.40,61.36,20.00,15.00,0.00,29.94,M,6.21,M,FEW,BKN,M,M,3000.00,19000.00,M,M,M,YBBN 110100Z 02015KT 9999 FEW030 BKN190 26/18 Q1014 NOSIG
YBBN,2013-11-11 01:30,153.1292,-27.3917,78.80,64.40,61.36,20.00,16.00,0.00,29.91,M,6.21,M,FEW,SCT,M,M,3200.00,19000.00,M,M,M,YBBN 110130Z 02016KT 9999 FEW032 SCT190 26/18 Q1013
YBBN,2013-11-11 02:00,153.1292,-27.3917,78.80,66.20,65.33,30.00,17.00,0.00,29.91,M,6.21,M,FEW,SCT,BKN,M,3500.00,19000.00,25000.00,M,M,YBBN 110200Z 03017KT 9999 FEW035 SCT190 BKN250 26/19 Q1013 NOSIG
YBBN,2013-11-11 02:30,153.1292,-27.3917,78.80,66.20,65.33,30.00,17.00,0.00,29.91,M,6.21,M,FEW,SCT,BKN,M,4000.00,18000.00,25000.00,M,M,YBBN 110230Z 03017KT 9999 FEW040 SCT180 BKN250 26/19 Q1013
YBBN,2013-11-11 03:00,153.1292,-27.3917,80.60,66.20,61.58,30.00,18.00,0.00,29.88,M,6.21,M,FEW,SCT,BKN,M,4200.00,18000.00,25000.00,M,M,YBBN 110300Z 03018KT 9999 FEW042 SCT180 BKN250 27/19 Q1012
YBBN,2013-11-11 03:30,153.1292,-27.3917,78.80,64.40,61.36,20.00,17.00,0.00,29.88,M,6.21,M,FEW,SCT,BKN,M,4500.00,18000.00,25000.00,M,M,YBBN 110330Z 02017KT 9999 FEW045 SCT180 BKN250 26/18 Q1012 RMK VIRGA
YBBN,2013-11-11 04:00,153.1292,-27.3917,77.00,64.40,65.12,20.00,16.00,0.00,29.88,M,6.21,M,FEW,BKN,M,M,4500.00,25000.00,M,M,M,YBBN 110400Z 02016KT 9999 FEW045 BKN250 25/18 Q1012 RMK VIRGA
YBBN,2013-11-11 04:30,153.1292,-27.3917,77.00,64.40,65.12,10.00,18.00,0.00,29.85,M,6.21,M,FEW,BKN,M,M,4500.00,25000.00,M,M,M,YBBN 110430Z 01018KT 9999 FEW045 BKN250 25/18 Q1011
YBBN,2013-11-11 05:00,153.1292,-27.3917,78.80,64.40,61.36,20.00,19.00,0.00,29.85,M,6.21,M,FEW,BKN,M,M,4000.00,25000.00,M,M,M,YBBN 110500Z 02019KT 9999 FEW040 BKN250 26/18 Q1011 NOSIG
YBBN,2013-11-11 05:30,153.1292,-27.3917,75.20,66.20,73.61,10.00,19.00,0.00,29.85,M,6.21,M,FEW,BKN,M,M,4000.00,25000.00,M,M,M,YBBN 110530Z 01019KT 9999 FEW040 BKN250 24/19 Q1011
YBBN,2013-11-11 06:00,153.1292,-27.3917,75.20,66.20,73.61,10.00,15.00,0.00,29.85,M,6.21,M,FEW,SCT,BKN,M,4000.00,16000.00,25000.00,M,M,YBBN 110600Z 01015KT 9999 FEW040 SCT160 BKN250 24/19 Q1011
YBBN,2013-11-11 06:30,153.1292,-27.3917,75.20,66.20,73.61,10.00,17.00,0.00,29.85,M,6.21,M,FEW,BKN,BKN,M,3000.00,14000.00,25000.00,M,M,YBBN 110630Z 01017KT 9999 FEW030 BKN140 BKN250 24/19 Q1011
YBBN,2013-11-11 07:00,153.1292,-27.3917,73.40,66.20,78.19,20.00,15.00,0.00,29.88,M,6.21,M,FEW,SCT,BKN,M,2500.00,12000.00,25000.00,M,M,YBBN 110700Z 02015KT 9999 FEW025 SCT120 BKN250 23/19 Q1012 NOSIG
YBBN,2013-11-11 07:30,153.1292,-27.3917,73.40,66.20,78.19,10.00,15.00,0.00,29.88,M,6.21,M,FEW,SCT,BKN,M,2000.00,12000.00,25000.00,M,-RA VCSH,YBBN 110730Z 01015KT 9999 -RA VCSH FEW020 SCT120 BKN250 23/19 Q1012
YBBN,2013-11-11 08:00,153.1292,-27.3917,73.40,68.00,83.21,10.00,14.00,0.00,29.88,M,6.21,M,FEW,SCT,BKN,M,2000.00,5300.00,10000.00,M,-RA,YBBN 110800Z 01014KT 9999 -RA FEW020 SCT053 BKN100 23/20 Q1012 NOSIG
YBBN,2013-11-11 08:30,153.1292,-27.3917,73.40,68.00,83.21,10.00,14.00,0.00,29.91,M,6.21,M,FEW,BKN,BKN,M,2000.00,9500.00,12000.00,M,-RA,YBBN 110830Z 01014KT 9999 -RA FEW020 BKN095 BKN120 23/20 Q1013
YBBN,2013-11-11 09:00,153.1292,-27.3917,71.60,68.00,88.43,10.00,13.00,0.00,29.91,M,6.21,M,FEW,SCT,BKN,M,4500.00,9500.00,11500.00,M,-RA,YBBN 110900Z 01013KT 9999 -RA FEW045 SCT095 BKN115 22/20 Q1013
YBBN,2013-11-11 09:30,153.1292,-27.3917,73.40,68.00,83.21,10.00,13.00,0.00,29.91,M,6.21,M,FEW,BKN,M,M,4500.00,15000.00,M,M,M,YBBN 110930Z 01013KT 9999 FEW045 BKN150 23/20 Q1013
YBBN,2013-11-11 10:00,153.1292,-27.3917,73.40,68.00,83.21,10.00,14.00,0.00,29.91,M,6.21,M,SCT,BKN,M,M,12000.00,15000.00,M,M,-RA,YBBN 111000Z 01014KT 9999 -RA SCT120 BKN150 23/20 Q1013
YBBN,2013-11-11 10:30,153.1292,-27.3917,73.40,68.00,83.21,20.00,14.00,0.00,29.94,M,6.21,M,FEW,BKN,M,M,1800.00,11500.00,M,M,VCSH,YBBN 111030Z 02014KT 9999 VCSH FEW018 BKN115 23/20 Q1014
YBBN,2013-11-11 11:00,153.1292,-27.3917,73.40,68.00,83.21,10.00,13.00,0.00,29.97,M,6.21,M,FEW,BKN,BKN,M,1800.00,11000.00,14000.00,M,-RA VCSH,YBBN 111100Z 01013KT 9999 -RA VCSH FEW018 BKN110 BKN140 23/20 Q1015
YBBN,2013-11-11 11:30,153.1292,-27.3917,73.40,68.00,83.21,10.00,14.00,0.00,29.94,M,6.21,M,FEW,BKN,BKN,M,1800.00,11000.00,14000.00,M,-RA,YBBN 111130Z 01014KT 9999 -RA FEW018 BKN110 BKN140 23/20 Q1014
YBBN,2013-11-11 12:00,153.1292,-27.3917,73.40,68.00,83.21,10.00,13.00,0.00,29.94,M,6.21,M,BKN,OVC,M,M,11000.00,14000.00,M,M,-RA,YBBN 111200Z 01013KT 9999 -RA BKN110 OVC140 23/20 Q1014
YBBN,2013-11-11 12:30,153.1292,-27.3917,73.40,68.00,83.21,10.00,15.00,0.00,29.94,M,6.21,M,FEW,SCT,BKN,M,4000.00,12000.00,16000.00,M,-RA,YBBN 111230Z 01015KT 9999 -RA FEW040 SCT120 BKN160 23/20 Q1014
YBBN,2013-11-11 13:00,153.1292,-27.3917,73.40,68.00,83.21,10.00,15.00,0.00,29.94,M,6.21,M,FEW,SCT,BKN,M,2000.00,11500.00,12000.00,M,-RA,YBBN 111300Z 01015KT 9999 -RA FEW020 SCT115 BKN120 23/20 Q1014
YBBN,2013-11-11 13:30,153.1292,-27.3917,73.40,68.00,83.21,360.00,13.00,0.00,29.94,M,6.21,M,FEW,SCT,BKN,M,2000.00,10000.00,12000.00,M,-RA,YBBN 111330Z 36013KT 9999 -RA FEW020 SCT100 BKN120 23/20 Q1014
YBBN,2013-11-11 14:00,153.1292,-27.3917,71.60,68.00,88.43,10.00,14.00,0.00,29.91,M,6.21,M,FEW,BKN,BKN,M,1500.00,9000.00,12000.00,M,-RA,YBBN 111400Z 01014KT 9999 -RA FEW015 BKN090 BKN120 22/20 Q1013
YBBN,2013-11-11 14:30,153.1292,-27.3917,71.60,68.00,88.43,360.00,11.00,0.00,29.91,M,6.21,M,FEW,SCT,BKN,M,2500.00,12000.00,20000.00,M,M,YBBN 111430Z 36011KT 9999 FEW025 SCT120 BKN200 22/20 Q1013
YBBN,2013-11-11 15:00,153.1292,-27.3917,71.60,68.00,88.43,360.00,11.00,0.00,29.91,M,6.21,M,SCT,M,M,M,12000.00,M,M,M,//,YBBN 111500Z AUTO 36011KT 9999 // SCT120 22/20 Q1013
YBBN,2013-11-11 15:30,153.1292,-27.3917,71.60,68.00,88.43,340.00,9.00,0.00,29.91,M,6.21,M,SCT,SCT,BKN,M,2800.00,12000.00,20000.00,M,M,YBBN 111530Z 34009KT 9999 SCT028 SCT120 BKN200 22/20 Q1013
YBBN,2013-11-11 16:00,153.1292,-27.3917,71.60,68.00,88.43,320.00,6.00,0.00,29.91,M,6.21,M,SCT,BKN,M,M,3200.00,12000.00,M,M,M,YBBN 111600Z 32006KT 9999 SCT032 BKN120 22/20 Q1013 INTER 1700/1900 4000 SHRA BKN018
YBBN,2013-11-11 16:30,153.1292,-27.3917,69.80,68.00,94.01,330.00,5.00,0.00,29.91,M,6.21,M,FEW,SCT,BKN,M,3500.00,4500.00,5500.00,M,M,YBBN 111630Z 33005KT 9999 FEW035 SCT045 BKN055 21/20 Q1013
YBBN,2013-11-11 17:00,153.1292,-27.3917,69.80,68.00,94.01,350.00,6.00,0.00,29.91,M,6.21,M,FEW,BKN,BKN,M,3200.00,4500.00,5500.00,M,M,YBBN 111700Z 35006KT 9999 FEW032 BKN045 BKN055 21/20 Q1013
YBBN,2013-11-11 17:30,153.1292,-27.3917,71.60,68.00,88.43,350.00,9.00,0.00,29.91,M,6.21,M,FEW,SCT,M,M,3200.00,5000.00,M,M,M,YBBN 111730Z 35009KT 9999 FEW032 SCT050 22/20 Q1013 RMK LIGHTNING SEEN TO SE
YBBN,2013-11-11 18:00,153.1292,-27.3917,69.80,68.00,94.01,350.00,8.00,0.00,29.91,M,6.21,M,FEW,SCT,M,M,3200.00,5500.00,M,M,M,YBBN 111800Z 35008KT 9999 FEW032 SCT055 21/20 Q1013
YBBN,2013-11-11 18:30,153.1292,-27.3917,69.80,66.20,88.34,350.00,8.00,0.00,29.91,M,6.21,M,FEW,SCT,BKN,M,3000.00,5500.00,18500.00,M,M,YBBN 111830Z 35008KT 9999 FEW030 SCT055 BKN185 21/19 Q1013
YBBN,2013-11-11 19:00,153.1292,-27.3917,71.60,68.00,88.43,360.00,8.00,0.00,29.94,M,6.21,M,FEW,SCT,BKN,M,1200.00,5500.00,19000.00,M,M,YBBN 111900Z 36008KT 9999 FEW012 SCT055 BKN190 22/20 Q1014
YBBN,2013-11-11 19:30,153.1292,-27.3917,71.60,68.00,88.43,350.00,7.00,0.00,29.94,M,6.21,M,FEW,BKN,M,M,1800.00,19000.00,M,M,M,YBBN 111930Z 35007KT 9999 FEW018 BKN190 22/20 Q1014 RMK CB TOP TO SE
YBBN,2013-11-11 20:00,153.1292,-27.3917,73.40,68.00,83.21,360.00,10.00,0.00,29.94,M,6.21,M,FEW,BKN,M,M,3000.00,20000.00,M,M,M,YBBN 112000Z 36010KT 9999 FEW030 BKN200 23/20 Q1014
YBBN,2013-11-11 20:30,153.1292,-27.3917,73.40,68.00,83.21,10.00,10.00,0.00,29.94,M,6.21,M,FEW,BKN,M,M,2200.00,20000.00,M,M,M,YBBN 112030Z 01010KT 9999 FEW022 BKN200 23/20 Q1014
YBBN,2013-11-11 21:00,153.1292,-27.3917,75.20,68.00,78.34,350.00,10.00,0.00,29.97,M,6.21,M,FEW,SCT,M,M,2200.00,2800.00,M,M,M,YBBN 112100Z 35010KT 9999 FEW022 SCT028 24/20 Q1015 INTER 2300/2400 4000 SHRA BKN018
YBBN,2013-11-11 21:30,153.1292,-27.3917,75.20,68.00,78.34,350.00,11.00,0.00,29.97,M,6.21,M,SCT,SCT,M,M,2700.00,20000.00,M,M,M,YBBN 112130Z 35011KT 9999 SCT027 SCT200 24/20 Q1015
YBBN,2013-11-11 22:00,153.1292,-27.3917,75.20,66.20,73.61,360.00,10.00,0.00,29.97,M,6.21,M,FEW,SCT,M,M,2400.00,20000.00,M,M,M,YBBN 112200Z 36010KT 9999 FEW024 SCT200 24/19 Q1015 INTER 2300/0100 4000 SHRA BKN018
YBBN,2013-11-11 22:30,153.1292,-27.3917,77.00,68.00,73.78,360.00,10.00,0.00,29.97,M,6.21,M,FEW,BKN,M,M,2700.00,19000.00,M,M,M,YBBN 112230Z 36010KT 9999 FEW027 BKN190 25/20 Q1015
YBBN,2013-11-11 23:00,153.1292,-27.3917,78.80,66.20,65.33,20.00,12.00,0.00,29.97,M,6.21,M,FEW,SCT,M,M,3000.00,21000.00,M,M,M,YBBN 112300Z 02012KT 9999 FEW030 SCT210 26/19 Q1015 NOSIG
YBBN,2013-11-11 23:30,153.1292,-27.3917,77.00,64.40,65.12,20.00,15.00,0.00,29.97,M,6.21,M,FEW,SCT,M,M,3200.00,21000.00,M,M,M,YBBN 112330Z 02015KT 9999 FEW032 SCT210 25/18 Q1015
