#DEBUG: Format Typ    -> comma
#DEBUG: Time Period   -> 2012-10-05 00:00:00+00:00 2012-10-06 00:00:00+00:00
#DEBUG: Time Zone     -> Etc/UTC
#DEBUG: Data Contact   -> daryl herzmann akrherz@iastate.edu 515-294-5978
#DEBUG: Entries Found -> -1
station,valid,lon,lat,tmpf, dwpf, relh, drct, sknt, p01i, alti, mslp, vsby, gust, skyc1, skyc2, skyc3, skyc4, skyl1, skyl2, skyl3, skyl4, presentwx, metar
YBBN,2012-10-05 00:00,153.1292,-27.3917,73.40,55.40,53.29,10.00,9.00,0.00,30.18,M,6.21,M,M,M,M,M,M,M,M,M,M,YBBN 050000Z 01009KT CAVOK 23/13 Q1022 NOSIG
YBBN,2012-10-05 00:30,153.1292,-27.3917,77.00,55.40,47.25,10.00,10.00,0.00,30.15,M,6.21,M,M,M,M,M,M,M,M,M,M,YBBN 050030Z 01010KT CAVOK 25/13 Q1021
YBBN,2012-10-05 01:00,153.1292,-27.3917,75.20,55.40,50.17,10.00,11.00,0.00,30.15,M,6.21,M,FEW,M,M,M,4000.00,M,M,M,M,YBBN 050100Z 01011KT 9999 FEW040 24/13 Q1021 NOSIG
YBBN,2012-10-05 01:30,153.1292,-27.3917,77.00,55.40,47.25,20.00,13.00,0.00,30.12,M,6.21,M,FEW,M,M,M,4200.00,M,M,M,M,YBBN 050130Z 02013KT 9999 FEW042 25/13 Q1020
YBBN,2012-10-05 02:00,153.1292,-27.3917,78.80,57.20,47.52,20.00,13.00,0.00,30.12,M,6.21,M,FEW,M,M,M,4400.00,M,M,M,M,YBBN 050200Z 02013KT 9999 FEW044 26/14 Q1020
YBBN,2012-10-05 02:30,153.1292,-27.3917,77.00,57.20,50.43,30.00,14.00,0.00,30.09,M,6.21,M,FEW,M,M,M,4500.00,M,M,M,M,YBBN 050230Z 03014KT 9999 FEW045 25/14 Q1019
YBBN,2012-10-05 03:00,153.1292,-27.3917,77.00,59.00,53.80,20.00,15.00,0.00,30.09,M,6.21,M,FEW,M,M,M,4400.00,M,M,M,M,YBBN 050300Z 02015KT 9999 FEW044 25/15 Q1019
YBBN,2012-10-05 03:30,153.1292,-27.3917,77.00,60.80,57.36,20.00,16.00,0.00,30.06,M,6.21,M,FEW,M,M,M,4400.00,M,M,M,M,YBBN 050330Z 02016KT 9999 FEW044 25/16 Q1018
YBBN,2012-10-05 04:00,153.1292,-27.3917,75.20,60.80,60.90,20.00,17.00,0.00,30.06,M,6.21,M,FEW,M,M,M,4300.00,M,M,M,M,YBBN 050400Z 02017KT 9999 FEW043 24/16 Q1018 NOSIG
YBBN,2012-10-05 04:30,153.1292,-27.3917,75.20,60.80,60.90,20.00,18.00,0.00,30.06,M,6.21,M,FEW,M,M,M,4200.00,M,M,M,M,YBBN 050430Z 02018KT 9999 FEW042 24/16 Q1018
YBBN,2012-10-05 05:00,153.1292,-27.3917,75.20,62.60,64.91,20.00,17.00,0.00,30.06,M,6.21,M,FEW,M,M,M,4000.00,M,M,M,M,YBBN 050500Z 02017KT 9999 FEW040 24/17 Q1018
YBBN,2012-10-05 05:30,153.1292,-27.3917,75.20,62.60,64.91,20.00,18.00,0.00,30.06,M,6.21,M,FEW,M,M,M,3800.00,M,M,M,M,YBBN 050530Z 02018KT 9999 FEW038 24/17 Q1018
YBBN,2012-10-05 06:00,153.1292,-27.3917,73.40,62.60,68.94,20.00,17.00,0.00,30.03,M,6.21,M,FEW,M,M,M,3800.00,M,M,M,M,YBBN 050600Z 02017KT 9999 FEW038 23/17 Q1017
YBBN,2012-10-05 06:30,153.1292,-27.3917,73.40,62.60,68.94,10.00,18.00,0.00,30.06,M,6.21,M,M,M,M,M,M,M,M,M,M,YBBN 050630Z 01018KT CAVOK 23/17 Q1018
YBBN,2012-10-05 07:00,153.1292,-27.3917,71.60,62.60,73.27,10.00,15.00,0.00,30.06,M,6.21,M,M,M,M,M,M,M,M,M,M,YBBN 050700Z 01015KT CAVOK 22/17 Q1018 NOSIG
YBBN,2012-10-05 07:30,153.1292,-27.3917,71.60,64.40,78.04,10.00,17.00,0.00,30.06,M,6.21,M,M,M,M,M,M,M,M,M,M,YBBN 050730Z 01017KT CAVOK 22/18 Q1018
YBBN,2012-10-05 08:00,153.1292,-27.3917,69.80,62.60,77.90,360.00,15.00,0.00,30.06,M,6.21,M,M,M,M,M,M,M,M,M,M,YBBN 050800Z 36015KT CAVOK 21/17 Q1018
YBBN,2012-10-05 08:30,153.1292,-27.3917,69.80,64.40,82.98,360.00,14.00,0.00,30.06,M,6.21,M,M,M,M,M,M,M,M,M,M,YBBN 050830Z 36014KT CAVOK 21/18 Q1018
YBBN,2012-10-05 09:00,153.1292,-27.3917,69.80,64.40,82.98,360.00,13.00,0.00,30.09,M,6.21,M,M,M,M,M,M,M,M,M,M,YBBN 050900Z 36013KT CAVOK 21/18 Q1019
YBBN,2012-10-05 09:30,153.1292,-27.3917,69.80,64.40,82.98,360.00,11.00,0.00,30.09,M,6.21,M,M,M,M,M,M,M,M,M,M,YBBN 050930Z 36011KT CAVOK 21/18 Q1019
YBBN,2012-10-05 10:00,153.1292,-27.3917,68.00,62.60,82.86,360.00,12.00,0.00,30.09,M,6.21,M,M,M,M,M,M,M,M,M,M,YBBN 051000Z 36012KT CAVOK 20/17 Q1019 NOSIG
YBBN,2012-10-05 10:30,153.1292,-27.3917,68.00,62.60,82.86,360.00,9.00,0.00,30.09,M,6.21,M,M,M,M,M,M,M,M,M,M,YBBN 051030Z 36009KT CAVOK 20/17 Q1019
YBBN,2012-10-05 11:00,153.1292,-27.3917,68.00,62.60,82.86,360.00,10.00,0.00,30.09,M,6.21,M,M,M,M,M,M,M,M,M,M,YBBN 051100Z 36010KT CAVOK 20/17 Q1019
YBBN,2012-10-05 11:30,153.1292,-27.3917,68.00,62.60,82.86,350.00,10.00,0.00,30.09,M,6.21,M,M,M,M,M,M,M,M,M,M,YBBN 051130Z 35010KT CAVOK 20/17 Q1019
YBBN,2012-10-05 12:00,153.1292,-27.3917,66.20,62.60,88.18,360.00,7.00,0.00,30.09,M,6.21,M,M,M,M,M,M,M,M,M,M,YBBN 051200Z 36007KT CAVOK 19/17 Q1019 NOSIG
YBBN,2012-10-05 12:30,153.1292,-27.3917,64.40,60.80,88.09,360.00,8.00,0.00,30.09,M,6.21,M,M,M,M,M,M,M,M,M,M,YBBN 051230Z 36008KT CAVOK 18/16 Q1019
YBBN,2012-10-05 13:00,153.1292,-27.3917,66.20,60.80,82.74,340.00,5.00,0.00,30.09,M,6.21,M,M,M,M,M,M,M,M,M,M,YBBN 051300Z 34005KT CAVOK 19/16 Q1019
YBBN,2012-10-05 13:30,153.1292,-27.3917,64.40,60.80,88.09,250.00,4.00,0.00,30.09,M,6.21,M,M,M,M,M,M,M,M,M,M,YBBN 051330Z 25004KT CAVOK 18/16 Q1019
YBBN,2012-10-05 14:00,153.1292,-27.3917,62.60,59.00,88.00,250.00,4.00,0.00,30.06,M,6.21,M,M,M,M,M,M,M,M,M,M,YBBN 051400Z 25004KT CAVOK 17/15 Q1018 NOSIG
YBBN,2012-10-05 14:30,153.1292,-27.3917,62.60,60.80,93.83,0.00,0.00,0.00,30.06,M,6.21,M,M,M,M,M,M,M,M,M,M,YBBN 051430Z 00000KT CAVOK 17/16 Q1018
YBBN,2012-10-05 15:00,153.1292,-27.3917,60.80,59.00,93.79,0.00,0.00,0.00,30.06,M,6.21,M,M,M,M,M,M,M,M,M,M,YBBN 051500Z 00000KT CAVOK 16/15 Q1018 NOSIG
YBBN,2012-10-05 15:03,153.1292,-27.3917,60.80,59.00,93.79,0.00,0.00,0.00,30.06,M,6.21,M,CLR,M,M,M,M,M,M,M,BCFG,YBBN 051503Z 00000KT 9999 BCFG SKC 16/15 Q1018
YBBN,2012-10-05 15:30,153.1292,-27.3917,60.80,59.00,93.79,0.00,0.00,0.00,30.06,M,6.21,M,CLR,M,M,M,M,M,M,M,MIFG,YBBN 051530Z 00000KT 9999 MIFG SKC 16/15 Q1018
YBBN,2012-10-05 16:00,153.1292,-27.3917,59.00,57.20,93.74,0.00,0.00,0.00,30.06,M,6.21,M,CLR,M,M,M,M,M,M,M,BCFG,YBBN 051600Z 00000KT 9999 BCFG SKC 15/14 Q1018
YBBN,2012-10-05 16:30,153.1292,-27.3917,59.00,57.20,93.74,290.00,3.00,0.00,30.03,M,6.21,M,CLR,M,M,M,M,M,M,M,BCFG,YBBN 051630Z 29003KT 9999 BCFG SKC 15/14 Q1017
YBBN,2012-10-05 17:00,153.1292,-27.3917,59.00,57.20,93.74,250.00,4.00,0.00,30.03,M,6.21,M,CLR,M,M,M,M,M,M,M,BCFG,YBBN 051700Z 25004KT 9999 BCFG SKC 15/14 Q1017
YBBN,2012-10-05 17:30,153.1292,-27.3917,59.00,57.20,93.74,230.00,4.00,0.00,30.03,M,6.21,M,CLR,M,M,M,M,M,M,M,BCFG,YBBN 051730Z 23004KT 9999 BCFG SKC 15/14 Q1017
YBBN,2012-10-05 18:00,153.1292,-27.3917,59.00,57.20,93.74,230.00,4.00,0.00,30.03,M,6.21,M,CLR,M,M,M,M,M,M,M,BCFG,YBBN 051800Z 23004KT 9999 BCFG SKC 15/14 Q1017
YBBN,2012-10-05 18:30,153.1292,-27.3917,57.20,55.40,93.69,0.00,0.00,0.00,30.03,M,6.21,M,CLR,M,M,M,M,M,M,M,BCFG,YBBN 051830Z 00000KT 9999 BCFG SKC 14/13 Q1017
YBBN,2012-10-05 19:00,153.1292,-27.3917,57.20,55.40,93.69,210.00,1.00,0.00,30.06,M,6.21,M,FEW,M,M,M,5500.00,M,M,M,BCFG,YBBN 051900Z 21001KT 9999 BCFG FEW055 14/13 Q1018
YBBN,2012-10-05 19:30,153.1292,-27.3917,57.20,57.20,100.00,200.00,1.00,0.00,30.06,M,6.21,M,FEW,M,M,M,30000.00,M,M,M,BCFG,YBBN 051930Z 20001KT 9999 BCFG FEW300 14/14 Q1018
YBBN,2012-10-05 20:00,153.1292,-27.3917,57.20,55.40,93.69,210.00,3.00,0.00,30.06,M,6.21,M,M,M,M,M,M,M,M,M,M,YBBN 052000Z 21003KT CAVOK 14/13 Q1018
YBBN,2012-10-05 20:30,153.1292,-27.3917,60.80,59.00,93.79,0.00,0.00,0.00,30.06,M,6.21,M,M,M,M,M,M,M,M,M,M,YBBN 052030Z 00000KT CAVOK 16/15 Q1018
YBBN,2012-10-05 21:00,153.1292,-27.3917,64.40,60.80,88.09,0.00,0.00,0.00,30.06,M,6.21,M,M,M,M,M,M,M,M,M,M,YBBN 052100Z 00000KT CAVOK 18/16 Q1018
YBBN,2012-10-05 21:30,153.1292,-27.3917,68.00,59.00,72.92,0.00,0.00,0.00,30.06,M,6.21,M,M,M,M,M,M,M,M,M,M,YBBN 052130Z 00000KT CAVOK 20/15 Q1018
YBBN,2012-10-05 22:00,153.1292,-27.3917,73.40,53.60,49.90,360.00,4.00,0.00,30.06,M,6.21,M,M,M,M,M,M,M,M,M,M,YBBN 052200Z 36004KT CAVOK 23/12 Q1018
YBBN,2012-10-05 22:30,153.1292,-27.3917,73.40,57.20,56.88,10.00,5.00,0.00,30.06,M,6.21,M,M,M,M,M,M,M,M,M,M,YBBN 052230Z 01005KT CAVOK 23/14 Q1018
YBBN,2012-10-05 23:00,153.1292,-27.3917,75.20,59.00,57.12,40.00,8.00,0.00,30.06,M,6.21,M,M,M,M,M,M,M,M,M,M,YBBN 052300Z 04008KT CAVOK 24/15 Q1018
YBBN,2012-10-05 23:30,153.1292,-27.3917,75.20,55.40,50.17,30.00,8.00,0.00,30.06,M,6.21,M,M,M,M,M,M,M,M,M,M,YBBN 052330Z 03008KT CAVOK 24/13 Q1018
