#DEBUG: Format Typ    -> comma
#DEBUG: Time Period   -> 2013-09-11 00:00:00+00:00 2013-09-12 00:00:00+00:00
#DEBUG: Time Zone     -> Etc/UTC
#DEBUG: Data Contact   -> daryl herzmann akrherz@iastate.edu 515-294-5978
#DEBUG: Entries Found -> -1
station,valid,lon,lat,tmpf, dwpf, relh, drct, sknt, p01i, alti, mslp, vsby, gust, skyc1, skyc2, skyc3, skyc4, skyl1, skyl2, skyl3, skyl4, presentwx, metar
YBBN,2013-09-11 00:00,153.1292,-27.3917,77.00,57.20,50.43,340.00,6.00,0.00,29.91,M,6.21,M,M,M,M,M,M,M,M,M,M,YBBN 110000Z 34006KT CAVOK 25/14 Q1013 NOSIG
YBBN,2013-09-11 00:30,153.1292,-27.3917,77.00,50.00,38.74,10.00,7.00,0.00,29.88,M,6.21,M,M,M,M,M,M,M,M,M,M,YBBN 110030Z 01007KT CAVOK 25/10 Q1012
YBBN,2013-09-11 01:00,153.1292,-27.3917,78.80,51.80,39.02,20.00,8.00,0.00,29.88,M,6.21,M,M,M,M,M,M,M,M,M,M,YBBN 110100Z 02008KT CAVOK 26/11 Q1012
YBBN,2013-09-11 01:30,153.1292,-27.3917,78.80,53.60,41.69,10.00,8.00,0.00,29.85,M,6.21,M,M,M,M,M,M,M,M,M,M,YBBN 110130Z 01008KT CAVOK 26/12 Q1011
YBBN,2013-09-11 02:00,153.1292,-27.3917,80.60,55.40,41.97,20.00,9.00,0.00,29.85,M,6.21,M,M,M,M,M,M,M,M,M,M,YBBN 110200Z 02009KT CAVOK 27/13 Q1011 NOSIG
YBBN,2013-09-11 02:30,153.1292,-27.3917,80.60,57.20,44.80,20.00,10.00,0.00,29.83,M,6.21,M,M,M,M,M,M,M,M,M,M,YBBN 110230Z 02010KT CAVOK 27/14 Q1010
YBBN,2013-09-11 03:00,153.1292,-27.3917,78.80,57.20,47.52,30.00,12.00,0.00,29.83,M,6.21,M,M,M,M,M,M,M,M,M,M,YBBN 110300Z 03012KT CAVOK 26/14 Q1010 NOSIG
YBBN,2013-09-11 03:30,153.1292,-27.3917,78.80,57.20,47.52,40.00,11.00,0.00,29.80,M,6.21,M,M,M,M,M,M,M,M,M,M,YBBN 110330Z 04011KT CAVOK 26/14 Q1009
YBBN,2013-09-11 04:00,153.1292,-27.3917,80.60,57.20,44.80,30.00,12.00,0.00,29.80,M,6.21,M,M,M,M,M,M,M,M,M,M,YBBN 110400Z 03012KT CAVOK 27/14 Q1009
YBBN,2013-09-11 04:30,153.1292,-27.3917,78.80,57.20,47.52,20.00,13.00,0.00,29.80,M,6.21,M,M,M,M,M,M,M,M,M,M,YBBN 110430Z 02013KT CAVOK 26/14 Q1009
YBBN,2013-09-11 05:00,153.1292,-27.3917,78.80,60.80,54.05,20.00,11.00,0.00,29.80,M,6.21,M,M,M,M,M,M,M,M,M,M,YBBN 110500Z 02011KT CAVOK 26/16 Q1009 NOSIG
YBBN,2013-09-11 05:30,153.1292,-27.3917,77.00,62.60,61.13,20.00,12.00,0.00,29.77,M,6.21,M,M,M,M,M,M,M,M,M,M,YBBN 110530Z 02012KT CAVOK 25/17 Q1008
YBBN,2013-09-11 06:00,153.1292,-27.3917,75.20,62.60,64.91,10.00,14.00,0.00,29.77,M,6.21,M,M,M,M,M,M,M,M,M,M,YBBN 110600Z 01014KT CAVOK 24/17 Q1008 NOSIG
YBBN,2013-09-11 06:30,153.1292,-27.3917,73.40,64.40,73.44,10.00,12.00,0.00,29.80,M,6.21,M,M,M,M,M,M,M,M,M,M,YBBN 110630Z 01012KT CAVOK 23/18 Q1009
YBBN,2013-09-11 07:00,153.1292,-27.3917,73.40,64.40,73.44,350.00,8.00,0.00,29.80,M,6.21,M,M,M,M,M,M,M,M,M,M,YBBN 110700Z 35008KT CAVOK 23/18 Q1009
YBBN,2013-09-11 07:30,153.1292,-27.3917,71.60,66.20,83.09,360.00,8.00,0.00,29.80,M,6.21,M,M,M,M,M,M,M,M,M,M,YBBN 110730Z 36008KT CAVOK 22/19 Q1009
YBBN,2013-09-11 08:00,153.1292,-27.3917,69.80,66.20,88.34,360.00,8.00,0.00,29.83,M,6.21,M,M,M,M,M,M,M,M,M,M,YBBN 110800Z 36008KT CAVOK 21/19 Q1010
YBBN,2013-09-11 08:30,153.1292,-27.3917,71.60,64.40,78.04,10.00,10.00,0.00,29.83,M,6.21,M,M,M,M,M,M,M,M,M,M,YBBN 110830Z 01010KT CAVOK 22/18 Q1010
YBBN,2013-09-11 09:00,153.1292,-27.3917,69.80,64.40,82.98,360.00,5.00,0.00,29.85,M,6.21,M,M,M,M,M,M,M,M,M,M,YBBN 110900Z 36005KT CAVOK 21/18 Q1011
YBBN,2013-09-11 09:30,153.1292,-27.3917,69.80,64.40,82.98,360.00,7.00,0.00,29.85,M,6.21,M,M,M,M,M,M,M,M,M,M,YBBN 110930Z 36007KT CAVOK 21/18 Q1011
YBBN,2013-09-11 10:00,153.1292,-27.3917,68.00,64.40,88.26,360.00,8.00,0.00,29.88,M,6.21,M,M,M,M,M,M,M,M,M,M,YBBN 111000Z 36008KT CAVOK 20/18 Q1012 NOSIG
YBBN,2013-09-11 10:30,153.1292,-27.3917,68.00,64.40,88.26,360.00,7.00,0.00,29.88,M,6.21,M,M,M,M,M,M,M,M,M,M,YBBN 111030Z 36007KT CAVOK 20/18 Q1012
YBBN,2013-09-11 11:00,153.1292,-27.3917,68.00,64.40,88.26,30.00,5.00,0.00,29.88,M,6.21,M,M,M,M,M,M,M,M,M,M,YBBN 111100Z 03005KT CAVOK 20/18 Q1012 NOSIG
YBBN,2013-09-11 11:30,153.1292,-27.3917,68.00,66.20,93.97,90.00,5.00,0.00,29.88,M,6.21,M,M,M,M,M,M,M,M,M,M,YBBN 111130Z 09005KT CAVOK 20/19 Q1012
YBBN,2013-09-11 12:00,153.1292,-27.3917,68.00,66.20,93.97,130.00,5.00,0.00,29.91,M,6.21,M,M,M,M,M,M,M,M,M,M,YBBN 111200Z 13005KT CAVOK 20/19 Q1013 RMK HZ
YBBN,2013-09-11 12:30,153.1292,-27.3917,68.00,66.20,93.97,110.00,5.00,0.00,29.91,M,6.21,M,M,M,M,M,M,M,M,M,M,YBBN 111230Z 11005KT CAVOK 20/19 Q1013 RMK HZ
YBBN,2013-09-11 13:00,153.1292,-27.3917,68.00,64.40,88.26,100.00,5.00,0.00,29.91,M,6.21,M,M,M,M,M,M,M,M,M,M,YBBN 111300Z 10005KT CAVOK 20/18 Q1013
YBBN,2013-09-11 13:30,153.1292,-27.3917,68.00,64.40,88.26,120.00,5.00,0.00,29.91,M,6.21,M,M,M,M,M,M,M,M,M,M,YBBN 111330Z 12005KT CAVOK 20/18 Q1013 RMK HZ
YBBN,2013-09-11 14:00,153.1292,-27.3917,68.00,64.40,88.26,140.00,5.00,0.00,29.91,M,6.21,M,M,M,M,M,M,M,M,M,M,YBBN 111400Z 14005KT CAVOK 20/18 Q1013 RMK HZ
YBBN,2013-09-11 14:30,153.1292,-27.3917,68.00,64.40,88.26,140.00,5.00,0.00,29.88,M,6.21,M,FEW,M,M,M,1800.00,M,M,M,M,YBBN 111430Z 14005KT 9999 FEW018 20/18 Q1012
YBBN,2013-09-11 15:00,153.1292,-27.3917,68.00,62.60,82.86,150.00,4.00,0.00,29.88,M,6.21,M,M,M,M,M,M,M,M,M,M,YBBN 111500Z 15004KT CAVOK 20/17 Q1012 NOSIG
YBBN,2013-09-11 15:30,153.1292,-27.3917,64.40,60.80,88.09,180.00,4.00,0.00,29.88,M,6.21,M,M,M,M,M,M,M,M,M,M,YBBN 111530Z 18004KT CAVOK 18/16 Q1012
YBBN,2013-09-11 16:00,153.1292,-27.3917,62.60,60.80,93.83,210.00,6.00,0.00,29.88,M,6.21,M,M,M,M,M,M,M,M,M,M,YBBN 111600Z 21006KT CAVOK 17/16 Q1012 NOSIG
YBBN,2013-09-11 16:30,153.1292,-27.3917,62.60,60.80,93.83,210.00,6.00,0.00,29.88,M,6.21,M,M,M,M,M,M,M,M,M,M,YBBN 111630Z 21006KT CAVOK 17/16 Q1012
YBBN,2013-09-11 17:00,153.1292,-27.3917,62.60,60.80,93.83,180.00,3.00,0.00,29.88,M,6.21,M,M,M,M,M,M,M,M,M,M,YBBN 111700Z 18003KT CAVOK 17/16 Q1012 NOSIG
YBBN,2013-09-11 17:30,153.1292,-27.3917,62.60,60.80,93.83,190.00,6.00,0.00,29.88,M,6.21,M,M,M,M,M,M,M,M,M,M,YBBN 111730Z 19006KT CAVOK 17/16 Q1012 RMK HZ
YBBN,2013-09-11 18:00,153.1292,-27.3917,60.80,59.00,93.79,210.00,7.00,0.00,29.88,M,6.21,M,M,M,M,M,M,M,M,M,M,YBBN 111800Z 21007KT CAVOK 16/15 Q1012 RMK HZ
YBBN,2013-09-11 18:30,153.1292,-27.3917,62.60,60.80,93.83,200.00,7.00,0.00,29.88,M,6.21,M,M,M,M,M,M,M,M,M,M,YBBN 111830Z 20007KT CAVOK 17/16 Q1012 RMK HZ
YBBN,2013-09-11 19:00,153.1292,-27.3917,60.80,59.00,93.79,200.00,7.00,0.00,29.88,M,6.21,M,M,M,M,M,M,M,M,M,M,YBBN 111900Z 20007KT CAVOK 16/15 Q1012 NOSIG
YBBN,2013-09-11 19:30,153.1292,-27.3917,60.80,59.00,93.79,190.00,5.00,0.00,29.88,M,5.59,M,FEW,M,M,M,15000.00,M,M,M,M,YBBN 111930Z 19005KT 9000 FEW150 16/15 Q1012 RMK HZ
YBBN,2013-09-11 20:00,153.1292,-27.3917,59.00,57.20,93.74,200.00,5.00,0.00,29.91,M,4.97,M,FEW,M,M,M,15000.00,M,M,M,M,YBBN 112000Z 20005KT 8000 FEW150 15/14 Q1013
YBBN,2013-09-11 20:30,153.1292,-27.3917,60.80,59.00,93.79,210.00,5.00,0.00,29.91,M,6.21,M,M,M,M,M,M,M,M,M,M,YBBN 112030Z 21005KT CAVOK 16/15 Q1013
YBBN,2013-09-11 21:00,153.1292,-27.3917,64.40,59.00,82.62,250.00,7.00,0.00,29.94,M,6.21,M,M,M,M,M,M,M,M,M,M,YBBN 112100Z 25007KT CAVOK 18/15 Q1014 NOSIG
YBBN,2013-09-11 21:30,153.1292,-27.3917,66.20,59.00,77.60,250.00,5.00,0.00,29.94,M,6.21,M,M,M,M,M,M,M,M,M,M,YBBN 112130Z 25005KT CAVOK 19/15 Q1014
YBBN,2013-09-11 22:00,153.1292,-27.3917,68.00,57.20,68.35,230.00,4.00,0.00,29.94,M,6.21,M,M,M,M,M,M,M,M,M,M,YBBN 112200Z 23004KT CAVOK 20/14 Q1014 NOSIG
YBBN,2013-09-11 22:30,153.1292,-27.3917,69.80,53.60,56.38,210.00,6.00,0.00,29.94,M,6.21,M,M,M,M,M,M,M,M,M,M,YBBN 112230Z 21006KT CAVOK 21/12 Q1014
YBBN,2013-09-11 23:00,153.1292,-27.3917,73.40,51.80,46.71,200.00,6.00,0.00,29.94,M,6.21,M,M,M,M,M,M,M,M,M,M,YBBN 112300Z 20006KT CAVOK 23/11 Q1014 NOSIG
YBBN,2013-09-11 23:30,153.1292,-27.3917,75.20,50.00,41.14,190.00,5.00,0.00,29.94,M,6.21,M,M,M,M,M,M,M,M,M,M,YBBN 112330Z 19005KT CAVOK 24/10 Q1014
