#DEBUG: Format Typ    -> comma
#DEBUG: Time Period   -> 2014-02-21 00:00:00+00:00 2014-02-22 00:00:00+00:00
#DEBUG: Time Zone     -> Etc/UTC
#DEBUG: Data Contact   -> daryl herzmann akrherz@iastate.edu 515-294-5978
#DEBUG: Entries Found -> -1
station,valid,lon,lat,tmpf, dwpf, relh, drct, sknt, p01i, alti, mslp, vsby, gust, skyc1, skyc2, skyc3, skyc4, skyl1, skyl2, skyl3, skyl4, presentwx, metar
YBBN,2014-02-21 00:00,153.1292,-27.3917,86.00,71.60,62.25,170.00,3.00,0.00,29.88,M,6.21,M,SCT,BKN,M,M,2700.00,3500.00,M,M,M,YBBN 210000Z 17003KT 9999 SCT027 BKN035 30/22 Q1012
YBBN,2014-02-21 00:30,153.1292,-27.3917,87.80,71.60,58.78,20.00,7.00,0.00,29.85,M,6.21,M,SCT,SCT,BKN,M,2800.00,3500.00,30000.00,M,M,YBBN 210030Z 02007KT 9999 SCT028 SCT035 BKN300 31/22 Q1011
YBBN,2014-02-21 01:00,153.1292,-27.3917,87.80,69.80,55.29,30.00,7.00,0.00,29.85,M,6.21,M,SCT,SCT,M,M,3200.00,4500.00,M,M,M,YBBN 210100Z 03007KT 9999 SCT032 SCT045 31/21 Q1011 FM0200 14012KT 9999 -SHRA SCT025 BKN045
YBBN,2014-02-21 01:30,153.1292,-27.3917,87.80,73.40,62.47,30.00,9.00,0.00,29.85,M,6.21,M,SCT,SCT,M,M,3200.00,4500.00,M,M,M,YBBN 210130Z 03009KT 9999 SCT032 SCT045 31/23 Q1011
YBBN,2014-02-21 02:00,153.1292,-27.3917,89.60,73.40,59.01,30.00,9.00,0.00,29.85,M,6.21,M,FEW,SCT,M,M,3200.00,4500.00,M,M,M,YBBN 210200Z 03009KT 9999 FEW032 SCT045 32/23 Q1011 FM0300 14012KT 9999 -SHRA SCT025 BKN045
YBBN,2014-02-21 02:30,153.1292,-27.3917,87.80,73.40,62.47,30.00,10.00,0.00,29.85,M,6.21,M,FEW,SCT,M,M,3000.00,30000.00,M,M,M,YBBN 210230Z 03010KT 9999 FEW030 SCT300 31/23 Q1011
YBBN,2014-02-21 03:00,153.1292,-27.3917,87.80,73.40,62.47,50.00,9.00,0.00,29.83,M,6.21,M,FEW,M,M,M,3000.00,M,M,M,M,YBBN 210300Z 05009KT 9999 FEW030 31/23 Q1010 INTER 0500/0600 3000 SHRA BKN015 BKN025
YBBN,2014-02-21 03:30,153.1292,-27.3917,87.80,73.40,62.47,90.00,10.00,0.00,29.83,M,6.21,M,FEW,M,M,M,3200.00,M,M,M,M,YBBN 210330Z 09010KT 9999 FEW032 31/23 Q1010
YBBN,2014-02-21 04:00,153.1292,-27.3917,87.80,73.40,62.47,70.00,13.00,0.00,29.83,M,6.21,M,FEW,FEW,M,M,3200.00,3500.00,M,M,M,YBBN 210400Z 07013KT 9999 FEW032 FEW035TCU 31/23 Q1010
YBBN,2014-02-21 04:30,153.1292,-27.3917,86.00,75.20,70.27,70.00,14.00,0.00,29.83,M,6.21,M,FEW,SCT,FEW,M,1500.00,28000.00,3500.00,M,M,YBBN 210430Z 07014KT 9999 FEW015 SCT280 FEW035TCU 30/24 Q1010 RMK TCU TO SSW
YBBN,2014-02-21 05:00,153.1292,-27.3917,84.20,73.40,70.08,110.00,14.00,0.00,29.83,M,6.21,M,FEW,SCT,M,M,1800.00,28000.00,M,M,M,YBBN 210500Z 11014KT 9999 FEW018 SCT280 29/23 Q1010
YBBN,2014-02-21 05:30,153.1292,-27.3917,84.20,73.40,70.08,110.00,12.00,0.00,29.83,M,6.21,M,FEW,M,M,M,3200.00,M,M,M,M,YBBN 210530Z 11012KT 9999 FEW032 29/23 Q1010
YBBN,2014-02-21 06:00,153.1292,-27.3917,84.20,71.60,65.95,120.00,12.00,0.00,29.83,M,6.21,M,FEW,M,M,M,3200.00,M,M,M,M,YBBN 210600Z 12012KT 9999 FEW032 29/22 Q1010
YBBN,2014-02-21 06:30,153.1292,-27.3917,84.20,71.60,65.95,110.00,12.00,0.00,29.83,M,6.21,M,FEW,BKN,M,M,2400.00,30000.00,M,M,M,YBBN 210630Z 11012KT 9999 FEW024 BKN300 29/22 Q1010 RMK HZ/ DIST SHRA WEST
YBBN,2014-02-21 07:00,153.1292,-27.3917,82.40,71.60,69.90,110.00,12.00,0.00,29.83,M,6.21,M,FEW,SCT,BKN,M,1800.00,2400.00,30000.00,M,M,YBBN 210700Z 11012KT 9999 FEW018 SCT024 BKN300 28/22 Q1010
YBBN,2014-02-21 07:30,153.1292,-27.3917,82.40,73.40,74.28,110.00,10.00,0.00,29.83,M,6.21,M,FEW,BKN,M,M,1600.00,2300.00,M,M,M,YBBN 210730Z 11010KT 9999 FEW016 BKN023 28/23 Q1010 RMK DIST SHRA SOUTH
YBBN,2014-02-21 08:00,153.1292,-27.3917,80.60,73.40,78.76,110.00,10.00,0.00,29.85,M,6.21,M,FEW,BKN,M,M,1400.00,2200.00,M,M,M,YBBN 210800Z 11010KT 9999 FEW014 BKN022 27/23 Q1011 NOSIG
YBBN,2014-02-21 08:30,153.1292,-27.3917,80.60,73.40,78.76,120.00,11.00,0.00,29.85,M,6.21,M,SCT,BKN,M,M,1400.00,2100.00,M,M,M,YBBN 210830Z 12011KT 9999 SCT014 BKN021 27/23 Q1011
YBBN,2014-02-21 09:00,153.1292,-27.3917,80.60,73.40,78.76,120.00,11.00,0.00,29.88,M,6.21,M,FEW,SCT,BKN,M,1500.00,1800.00,2000.00,M,M,YBBN 210900Z 12011KT 9999 FEW015 SCT018 BKN020 27/23 Q1012
YBBN,2014-02-21 09:30,153.1292,-27.3917,80.60,71.60,74.11,130.00,11.00,0.00,29.88,M,6.21,M,FEW,BKN,BKN,M,1500.00,1800.00,2700.00,M,M,YBBN 210930Z 13011KT 9999 FEW015 BKN018 BKN027 27/22 Q1012
YBBN,2014-02-21 10:00,153.1292,-27.3917,80.60,73.40,78.76,130.00,11.00,0.00,29.88,M,6.21,M,FEW,BKN,BKN,M,1500.00,1900.00,3000.00,M,M,YBBN 211000Z 13011KT 9999 FEW015 BKN019 BKN030 27/23 Q1012 NOSIG
YBBN,2014-02-21 10:30,153.1292,-27.3917,80.60,71.60,74.11,140.00,11.00,0.00,29.91,M,6.21,M,FEW,BKN,BKN,M,1500.00,1900.00,2600.00,M,M,YBBN 211030Z 14011KT 9999 FEW015 BKN019 BKN026 27/22 Q1013 RMK DISTANT STORM TO SW
YBBN,2014-02-21 11:00,153.1292,-27.3917,78.80,73.40,83.55,130.00,11.00,0.00,29.91,M,6.21,M,SCT,SCT,BKN,M,1500.00,2800.00,5000.00,M,VCSH,YBBN 211100Z 13011KT 9999 VCSH SCT015 SCT028 BKN050 26/23 Q1013 INTER 1100/1300 3000 SHRA BKN015
YBBN,2014-02-21 11:30,153.1292,-27.3917,78.80,71.60,78.62,150.00,12.00,0.00,29.91,M,6.21,M,BKN,OVC,M,M,1500.00,2800.00,M,M,VCSH,YBBN 211130Z 15012KT 9999 VCSH BKN015 OVC028 26/22 Q1013
YBBN,2014-02-21 12:00,153.1292,-27.3917,77.00,73.40,88.67,170.00,11.00,0.00,29.91,M,6.21,M,SCT,BKN,OVC,M,1500.00,2500.00,3000.00,M,-SHRA,YBBN 211200Z 17011KT 9999 -SHRA SCT015 BKN025 OVC030 25/23 Q1013
YBBN,2014-02-21 12:30,153.1292,-27.3917,77.00,71.60,83.44,150.00,8.00,0.00,29.91,M,6.21,M,FEW,SCT,BKN,M,1500.00,1800.00,3000.00,M,M,YBBN 211230Z 15008KT 9999 FEW015 SCT018 BKN030 25/22 Q1013
YBBN,2014-02-21 13:00,153.1292,-27.3917,77.00,71.60,83.44,160.00,7.00,0.00,29.91,M,6.21,M,BKN,OVC,M,M,1700.00,2600.00,M,M,M,YBBN 211300Z 16007KT 9999 BKN017 OVC026 25/22 Q1013
YBBN,2014-02-21 13:30,153.1292,-27.3917,77.00,71.60,83.44,150.00,9.00,0.00,29.91,M,6.21,M,SCT,BKN,BKN,M,1700.00,2200.00,7000.00,M,M,YBBN 211330Z 15009KT 9999 SCT017 BKN022 BKN070 25/22 Q1013
YBBN,2014-02-21 14:00,153.1292,-27.3917,75.20,71.60,88.59,170.00,9.00,0.00,29.91,M,6.21,M,FEW,SCT,OVC,M,1200.00,1500.00,3000.00,M,M,YBBN 211400Z 17009KT 9999 FEW012 SCT015 OVC030 24/22 Q1013
YBBN,2014-02-21 14:30,153.1292,-27.3917,75.20,69.80,83.32,170.00,9.00,0.00,29.91,M,6.21,M,FEW,BKN,OVC,M,1500.00,2200.00,3500.00,M,M,YBBN 211430Z 17009KT 9999 FEW015 BKN022 OVC035 24/21 Q1013
YBBN,2014-02-21 15:00,153.1292,-27.3917,75.20,69.80,83.32,160.00,9.00,0.00,29.91,M,6.21,M,FEW,SCT,OVC,M,1500.00,2800.00,3200.00,M,-DZ,YBBN 211500Z 16009KT 9999 -DZ FEW015 SCT028 OVC032 24/21 Q1013
YBBN,2014-02-21 15:30,153.1292,-27.3917,75.20,69.80,83.32,170.00,9.00,0.00,29.88,M,6.21,M,FEW,OVC,M,M,1700.00,3000.00,M,M,M,YBBN 211530Z 17009KT 9999 FEW017 OVC030 24/21 Q1012
YBBN,2014-02-21 16:00,153.1292,-27.3917,75.20,68.00,78.34,170.00,8.00,0.00,29.88,M,6.21,M,FEW,BKN,M,M,1800.00,3500.00,M,M,M,YBBN 211600Z 17008KT 9999 FEW018 BKN035 24/20 Q1012 NOSIG
YBBN,2014-02-21 16:30,153.1292,-27.3917,77.00,66.20,69.33,160.00,8.00,0.00,29.88,M,6.21,M,FEW,BKN,M,M,1800.00,4000.00,M,M,M,YBBN 211630Z 16008KT 9999 FEW018 BKN040 25/19 Q1012
YBBN,2014-02-21 17:00,153.1292,-27.3917,77.00,66.20,69.33,160.00,8.00,0.00,29.91,M,6.21,M,FEW,BKN,BKN,M,1800.00,4500.00,6800.00,M,M,YBBN 211700Z 16008KT 9999 FEW018 BKN045 BKN068 25/19 Q1013 NOSIG
YBBN,2014-02-21 17:30,153.1292,-27.3917,75.20,66.20,73.61,170.00,9.00,0.00,29.91,M,6.21,M,FEW,SCT,BKN,M,2200.00,4700.00,7000.00,M,M,YBBN 211730Z 17009KT 9999 FEW022 SCT047 BKN070 24/19 Q1013
YBBN,2014-02-21 18:00,153.1292,-27.3917,75.20,64.40,69.14,170.00,9.00,0.00,29.91,M,6.21,M,FEW,BKN,M,M,3000.00,4700.00,M,M,M,YBBN 211800Z 17009KT 9999 FEW030 BKN047 24/18 Q1013
YBBN,2014-02-21 18:30,153.1292,-27.3917,75.20,64.40,69.14,170.00,9.00,0.00,29.91,M,6.21,M,FEW,BKN,M,M,4000.00,5000.00,M,M,M,YBBN 211830Z 17009KT 9999 FEW040 BKN050 24/18 Q1013
YBBN,2014-02-21 19:00,153.1292,-27.3917,75.20,64.40,69.14,170.00,9.00,0.00,29.91,M,6.21,M,FEW,BKN,M,M,4000.00,5000.00,M,M,M,YBBN 211900Z 17009KT 9999 FEW040 BKN050 24/18 Q1013 NOSIG
YBBN,2014-02-21 19:30,153.1292,-27.3917,75.20,64.40,69.14,160.00,8.00,0.00,29.91,M,6.21,M,FEW,SCT,BKN,M,1900.00,5000.00,7000.00,M,M,YBBN 211930Z 16008KT 9999 FEW019 SCT050 BKN070 24/18 Q1013
YBBN,2014-02-21 20:00,153.1292,-27.3917,75.20,64.40,69.14,160.00,8.00,0.00,29.94,M,6.21,M,FEW,BKN,M,M,2000.00,4300.00,M,M,M,YBBN 212000Z 16008KT 9999 FEW020 BKN043 24/18 Q1014
YBBN,2014-02-21 20:30,153.1292,-27.3917,75.20,64.40,69.14,170.00,8.00,0.00,29.94,M,6.21,M,FEW,BKN,M,M,1800.00,4300.00,M,M,M,YBBN 212030Z 17008KT 9999 FEW018 BKN043 24/18 Q1014
YBBN,2014-02-21 21:00,153.1292,-27.3917,77.00,64.40,65.12,170.00,11.00,0.00,29.94,M,6.21,M,FEW,SCT,BKN,M,1600.00,4400.00,8000.00,M,M,YBBN 212100Z 17011KT 9999 FEW016 SCT044 BKN080 25/18 Q1014
YBBN,2014-02-21 21:30,153.1292,-27.3917,77.00,64.40,65.12,170.00,9.00,0.00,29.94,M,6.21,M,FEW,BKN,M,M,1800.00,8300.00,M,M,M,YBBN 212130Z 17009KT 9999 FEW018 BKN083 25/18 Q1014
YBBN,2014-02-21 22:00,153.1292,-27.3917,77.00,66.20,69.33,160.00,8.00,0.00,29.94,M,6.21,M,FEW,SCT,BKN,M,1900.00,2700.00,8200.00,M,M,YBBN 212200Z 16008KT 9999 FEW019 SCT027 BKN082 25/19 Q1014
YBBN,2014-02-21 22:30,153.1292,-27.3917,77.00,64.40,65.12,160.00,10.00,0.00,29.97,M,6.21,M,FEW,BKN,M,M,2000.00,2900.00,M,M,M,YBBN 212230Z 16010KT 9999 FEW020 BKN029 25/18 Q1015
YBBN,2014-02-21 23:00,153.1292,-27.3917,78.80,64.40,61.36,160.00,9.00,0.00,29.97,M,6.21,M,FEW,SCT,BKN,M,2200.00,3000.00,3600.00,M,M,YBBN 212300Z 16009KT 9999 FEW022 SCT030 BKN036 26/18 Q1015 NOSIG
YBBN,2014-02-21 23:30,153.1292,-27.3917,80.60,66.20,61.58,140.00,11.00,0.00,29.97,M,6.21,M,FEW,SCT,BKN,M,2200.00,3000.00,4200.00,M,M,YBBN 212330Z 14011KT 9999 FEW022 SCT030 BKN042 27/19 Q1015
