#DEBUG: Format Typ    -> comma
#DEBUG: Time Period   -> 2015-08-06 00:00:00+00:00 2015-08-07 00:00:00+00:00
#DEBUG: Time Zone     -> Etc/UTC
#DEBUG: Data Contact   -> daryl herzmann akrherz@iastate.edu 515-294-5978
#DEBUG: Entries Found -> -1
station,valid,lon,lat,tmpf, dwpf, relh, drct, sknt, p01i, alti, mslp, vsby, gust, skyc1, skyc2, skyc3, skyc4, skyl1, skyl2, skyl3, skyl4, presentwx, metar
YBBN,2015-08-06 00:00,153.1292,-27.3917,60.80,32.00,33.64,240.00,13.00,0.00,30.03,M,6.21,M,M,M,M,M,M,M,M,M,M,YBBN 060000Z 24013KT CAVOK 16/00 Q1017 NOSIG
YBBN,2015-08-06 00:30,153.1292,-27.3917,60.80,32.00,33.64,220.00,13.00,0.00,30.03,M,6.21,M,M,M,M,M,M,M,M,M,M,YBBN 060030Z 22013KT CAVOK 16/00 Q1017
YBBN,2015-08-06 01:00,153.1292,-27.3917,60.80,32.00,33.64,230.00,13.00,0.00,30.03,M,6.21,M,FEW,M,M,M,4500.00,M,M,M,M,YBBN 060100Z 23013KT 9999 FEW045 16/00 Q1017
YBBN,2015-08-06 01:30,153.1292,-27.3917,62.60,32.00,31.56,220.00,12.00,0.00,30.03,M,6.21,M,FEW,M,M,M,4500.00,M,M,M,M,YBBN 060130Z 22012KT 9999 FEW045 17/00 Q1017
YBBN,2015-08-06 02:00,153.1292,-27.3917,62.60,33.80,33.93,210.00,11.00,0.00,30.00,M,6.21,M,FEW,M,M,M,4500.00,M,M,M,M,YBBN 060200Z 21011KT 9999 FEW045 17/01 Q1016
YBBN,2015-08-06 02:30,153.1292,-27.3917,64.40,33.80,31.85,220.00,8.00,0.00,30.00,M,6.21,M,FEW,M,M,M,4500.00,M,M,M,M,YBBN 060230Z 22008KT 9999 FEW045 18/01 Q1016
YBBN,2015-08-06 03:00,153.1292,-27.3917,66.20,33.80,29.92,230.00,7.00,0.00,29.97,M,6.21,M,FEW,M,M,M,4500.00,M,M,M,M,YBBN 060300Z 23007KT 9999 FEW045 19/01 Q1015
YBBN,2015-08-06 03:30,153.1292,-27.3917,68.00,32.00,26.15,220.00,8.00,0.00,29.97,M,6.21,M,FEW,M,M,M,4500.00,M,M,M,M,YBBN 060330Z 22008KT 9999 FEW045 20/00 Q1015
YBBN,2015-08-06 04:00,153.1292,-27.3917,66.20,33.80,29.92,260.00,8.00,0.00,29.94,M,6.21,M,FEW,M,M,M,4500.00,M,M,M,M,YBBN 060400Z 26008KT 9999 FEW045 19/01 Q1014
YBBN,2015-08-06 04:30,153.1292,-27.3917,68.00,33.80,28.11,10.00,6.00,0.00,29.94,M,6.21,M,FEW,M,M,M,4500.00,M,M,M,M,YBBN 060430Z 01006KT 9999 FEW045 20/01 Q1014
YBBN,2015-08-06 05:00,153.1292,-27.3917,66.20,37.40,34.51,50.00,8.00,0.00,29.94,M,6.21,M,M,M,M,M,M,M,M,M,M,YBBN 060500Z 05008KT CAVOK 19/03 Q1014
YBBN,2015-08-06 05:30,153.1292,-27.3917,64.40,39.20,39.43,30.00,11.00,0.00,29.94,M,6.21,M,M,M,M,M,M,M,M,M,M,YBBN 060530Z 03011KT CAVOK 18/04 Q1014
YBBN,2015-08-06 06:00,153.1292,-27.3917,62.60,39.20,42.00,50.00,7.00,0.00,29.97,M,6.21,M,M,M,M,M,M,M,M,M,M,YBBN 060600Z 05007KT CAVOK 17/04 Q1015 NOSIG
YBBN,2015-08-06 06:30,153.1292,-27.3917,62.60,41.00,45.04,50.00,9.00,0.00,29.97,M,6.21,M,M,M,M,M,M,M,M,M,M,YBBN 060630Z 05009KT CAVOK 17/05 Q1015
YBBN,2015-08-06 07:00,153.1292,-27.3917,60.80,41.00,48.00,40.00,8.00,0.00,29.97,M,6.21,M,M,M,M,M,M,M,M,M,M,YBBN 060700Z 04008KT CAVOK 16/05 Q1015
YBBN,2015-08-06 07:30,153.1292,-27.3917,59.00,42.80,54.86,300.00,2.00,0.00,30.00,M,6.21,M,M,M,M,M,M,M,M,M,M,YBBN 060730Z 30002KT CAVOK 15/06 Q1016
YBBN,2015-08-06 08:00,153.1292,-27.3917,59.00,35.60,41.42,290.00,4.00,0.00,30.00,M,6.21,M,M,M,M,M,M,M,M,M,M,YBBN 060800Z 29004KT CAVOK 15/02 Q1016 NOSIG
YBBN,2015-08-06 08:30,153.1292,-27.3917,59.00,32.00,35.87,250.00,10.00,0.00,30.03,M,6.21,M,M,M,M,M,M,M,M,M,M,YBBN 060830Z 25010KT CAVOK 15/00 Q1017
YBBN,2015-08-06 09:00,153.1292,-27.3917,57.20,39.20,50.91,200.00,8.00,0.00,30.06,M,6.21,M,M,M,M,M,M,M,M,M,M,YBBN 060900Z 20008KT CAVOK 14/04 Q1018 NOSIG
YBBN,2015-08-06 09:30,153.1292,-27.3917,55.40,37.40,50.64,200.00,9.00,0.00,30.06,M,6.21,M,M,M,M,M,M,M,M,M,M,YBBN 060930Z 20009KT CAVOK 13/03 Q1018
YBBN,2015-08-06 10:00,153.1292,-27.3917,53.60,37.40,54.07,210.00,6.00,0.00,30.06,M,6.21,M,M,M,M,M,M,M,M,M,M,YBBN 061000Z 21006KT CAVOK 12/03 Q1018 NOSIG
YBBN,2015-08-06 10:30,153.1292,-27.3917,55.40,35.60,47.16,250.00,12.00,0.00,30.09,M,6.21,M,M,M,M,M,M,M,M,M,M,YBBN 061030Z 25012KT CAVOK 13/02 Q1019
YBBN,2015-08-06 11:00,153.1292,-27.3917,55.40,33.80,43.90,240.00,11.00,0.00,30.09,M,6.21,M,M,M,M,M,M,M,M,M,M,YBBN 061100Z 24011KT CAVOK 13/01 Q1019 NOSIG
YBBN,2015-08-06 11:30,153.1292,-27.3917,53.60,35.60,50.36,240.00,13.00,0.00,30.09,M,6.21,M,M,M,M,M,M,M,M,M,M,YBBN 061130Z 24013KT CAVOK 12/02 Q1019
YBBN,2015-08-06 12:00,153.1292,-27.3917,53.60,33.80,46.88,240.00,11.00,0.00,30.09,M,6.21,M,M,M,M,M,M,M,M,M,M,YBBN 061200Z 24011KT CAVOK 12/01 Q1019
YBBN,2015-08-06 12:30,153.1292,-27.3917,51.80,35.60,53.81,230.00,10.00,0.00,30.09,M,6.21,M,M,M,M,M,M,M,M,M,M,YBBN 061230Z 23010KT CAVOK 11/02 Q1019
YBBN,2015-08-06 13:00,153.1292,-27.3917,50.00,35.60,57.52,230.00,9.00,0.00,30.09,M,6.21,M,M,M,M,M,M,M,M,M,M,YBBN 061300Z 23009KT CAVOK 10/02 Q1019
YBBN,2015-08-06 13:30,153.1292,-27.3917,50.00,35.60,57.52,230.00,9.00,0.00,30.09,M,6.21,M,M,M,M,M,M,M,M,M,M,YBBN 061330Z 23009KT CAVOK 10/02 Q1019
YBBN,2015-08-06 14:00,153.1292,-27.3917,50.00,35.60,57.52,240.00,8.00,0.00,30.09,M,6.21,M,M,M,M,M,M,M,M,M,M,YBBN 061400Z 24008KT CAVOK 10/02 Q1019
YBBN,2015-08-06 14:30,153.1292,-27.3917,48.20,35.60,61.52,240.00,9.00,0.00,30.09,M,6.21,M,M,M,M,M,M,M,M,M,M,YBBN 061430Z 24009KT CAVOK 09/02 Q1019
YBBN,2015-08-06 15:00,153.1292,-27.3917,48.20,35.60,61.52,240.00,8.00,0.00,30.09,M,6.21,M,M,M,M,M,M,M,M,M,M,YBBN 061500Z 24008KT CAVOK 09/02 Q1019
YBBN,2015-08-06 15:30,153.1292,-27.3917,46.40,35.60,65.83,220.00,7.00,0.00,30.09,M,6.21,M,M,M,M,M,M,M,M,M,M,YBBN 061530Z 22007KT CAVOK 08/02 Q1019
YBBN,2015-08-06 16:00,153.1292,-27.3917,44.60,35.60,70.48,230.00,8.00,0.00,30.09,M,6.21,M,M,M,M,M,M,M,M,M,M,YBBN 061600Z 23008KT CAVOK 07/02 Q1019 NOSIG
YBBN,2015-08-06 16:30,153.1292,-27.3917,46.40,35.60,65.83,230.00,6.00,0.00,30.09,M,6.21,M,M,M,M,M,M,M,M,M,M,YBBN 061630Z 23006KT CAVOK 08/02 Q1019
YBBN,2015-08-06 17:00,153.1292,-27.3917,48.20,33.80,57.26,210.00,7.00,0.00,30.09,M,6.21,M,M,M,M,M,M,M,M,M,M,YBBN 061700Z 21007KT CAVOK 09/01 Q1019
YBBN,2015-08-06 17:30,153.1292,-27.3917,46.40,35.60,65.83,210.00,5.00,0.00,30.09,M,6.21,M,M,M,M,M,M,M,M,M,M,YBBN 061730Z 21005KT CAVOK 08/02 Q1019
YBBN,2015-08-06 18:00,153.1292,-27.3917,46.40,37.40,70.68,210.00,7.00,0.00,30.09,M,6.21,M,M,M,M,M,M,M,M,M,M,YBBN 061800Z 21007KT CAVOK 08/03 Q1019
YBBN,2015-08-06 18:30,153.1292,-27.3917,48.20,35.60,61.52,210.00,5.00,0.00,30.12,M,6.21,M,M,M,M,M,M,M,M,M,M,YBBN 061830Z 21005KT CAVOK 09/02 Q1020
YBBN,2015-08-06 19:00,153.1292,-27.3917,46.40,35.60,65.83,220.00,6.00,0.00,30.12,M,6.21,M,M,M,M,M,M,M,M,M,M,YBBN 061900Z 22006KT CAVOK 08/02 Q1020
YBBN,2015-08-06 19:30,153.1292,-27.3917,46.40,35.60,65.83,210.00,7.00,0.00,30.12,M,6.21,M,M,M,M,M,M,M,M,M,M,YBBN 061930Z 21007KT CAVOK 08/02 Q1020
YBBN,2015-08-06 20:00,153.1292,-27.3917,46.40,35.60,65.83,210.00,7.00,0.00,30.12,M,6.21,M,M,M,M,M,M,M,M,M,M,YBBN 062000Z 21007KT CAVOK 08/02 Q1020 NOSIG
YBBN,2015-08-06 20:30,153.1292,-27.3917,44.60,35.60,70.48,210.00,7.00,0.00,30.15,M,6.21,M,M,M,M,M,M,M,M,M,M,YBBN 062030Z 21007KT CAVOK 07/02 Q1021
YBBN,2015-08-06 21:00,153.1292,-27.3917,46.40,37.40,70.68,210.00,7.00,0.00,30.15,M,6.21,M,M,M,M,M,M,M,M,M,M,YBBN 062100Z 21007KT CAVOK 08/03 Q1021 NOSIG
YBBN,2015-08-06 21:30,153.1292,-27.3917,48.20,37.40,66.05,200.00,7.00,0.00,30.15,M,6.21,M,M,M,M,M,M,M,M,M,M,YBBN 062130Z 20007KT CAVOK 09/03 Q1021
YBBN,2015-08-06 22:00,153.1292,-27.3917,51.80,37.40,57.77,210.00,8.00,0.00,30.15,M,6.21,M,M,M,M,M,M,M,M,M,M,YBBN 062200Z 21008KT CAVOK 11/03 Q1021 NOSIG
YBBN,2015-08-06 22:30,153.1292,-27.3917,55.40,35.60,47.16,220.00,12.00,0.00,30.18,M,6.21,M,M,M,M,M,M,M,M,M,M,YBBN 062230Z 22012KT CAVOK 13/02 Q1022
YBBN,2015-08-06 23:00,153.1292,-27.3917,57.20,33.80,41.13,210.00,15.00,0.00,30.18,M,6.21,M,M,M,M,M,M,M,M,M,M,YBBN 062300Z 21015KT CAVOK 14/01 Q1022 NOSIG
YBBN,2015-08-06 23:30,153.1292,-27.3917,59.00,33.80,38.56,220.00,14.00,0.00,30.18,M,6.21,M,M,M,M,M,M,M,M,M,M,YBBN 062330Z 22014KT CAVOK 15/01 Q1022
