#DEBUG: Format Typ    -> comma
#DEBUG: Time Period   -> 2015-04-11 00:00:00+00:00 2015-04-12 00:00:00+00:00
#DEBUG: Time Zone     -> Etc/UTC
#DEBUG: Data Contact   -> daryl herzmann akrherz@iastate.edu 515-294-5978
#DEBUG: Entries Found -> -1
station,valid,lon,lat,tmpf, dwpf, relh, drct, sknt, p01i, alti, mslp, vsby, gust, skyc1, skyc2, skyc3, skyc4, skyl1, skyl2, skyl3, skyl4, presentwx, metar
YBBN,2015-04-11 00:00,153.1292,-27.3917,73.40,59.00,60.67,190.00,9.00,0.00,30.09,M,6.21,M,FEW,SCT,BKN,M,3500.00,10000.00,21000.00,M,M,YBBN 110000Z 19009KT 9999 FEW035 SCT100 BKN210 23/15 Q1019
YBBN,2015-04-11 00:30,153.1292,-27.3917,75.20,59.00,57.12,170.00,9.00,0.00,30.06,M,6.21,M,FEW,SCT,M,M,3600.00,10000.00,M,M,M,YBBN 110030Z 17009KT 9999 FEW036 SCT100 24/15 Q1018
YBBN,2015-04-11 01:00,153.1292,-27.3917,77.00,60.80,57.36,160.00,8.00,0.00,30.06,M,6.21,M,FEW,SCT,M,M,3500.00,10000.00,M,M,M,YBBN 110100Z 16008KT 9999 FEW035 SCT100 25/16 Q1018
YBBN,2015-04-11 01:30,153.1292,-27.3917,77.00,60.80,57.36,120.00,9.00,0.00,30.06,M,6.21,M,SCT,SCT,M,M,3800.00,8500.00,M,M,M,YBBN 110130Z 12009KT 9999 SCT038 SCT085 25/16 Q1018
YBBN,2015-04-11 02:00,153.1292,-27.3917,77.00,59.00,53.80,120.00,10.00,0.00,30.03,M,6.21,M,SCT,SCT,M,M,3800.00,8500.00,M,M,M,YBBN 110200Z 12010KT 9999 SCT038 SCT085 25/15 Q1017
YBBN,2015-04-11 02:30,153.1292,-27.3917,77.00,60.80,57.36,110.00,10.00,0.00,30.03,M,6.21,M,SCT,SCT,M,M,3800.00,8500.00,M,M,M,YBBN 110230Z 11010KT 9999 SCT038 SCT085 25/16 Q1017
YBBN,2015-04-11 03:00,153.1292,-27.3917,77.00,60.80,57.36,130.00,9.00,0.00,30.03,M,6.21,M,SCT,SCT,M,M,3700.00,8500.00,M,M,M,YBBN 110300Z 13009KT 9999 SCT037 SCT085 25/16 Q1017
YBBN,2015-04-11 03:30,153.1292,-27.3917,75.20,62.60,64.91,100.00,11.00,0.00,30.00,M,6.21,M,SCT,SCT,M,M,3600.00,9500.00,M,M,M,YBBN 110330Z 10011KT 9999 SCT036 SCT095 24/17 Q1016
YBBN,2015-04-11 04:00,153.1292,-27.3917,77.00,64.40,65.12,110.00,10.00,0.00,30.00,M,6.21,M,SCT,SCT,M,M,4000.00,5800.00,M,M,VCSH,YBBN 110400Z 11010KT 9999 VCSH SCT040 SCT058 25/18 Q1016
YBBN,2015-04-11 04:30,153.1292,-27.3917,75.20,62.60,64.91,120.00,11.00,0.00,30.00,M,6.21,M,FEW,SCT,M,M,4000.00,6200.00,M,M,M,YBBN 110430Z 12011KT 9999 FEW040 SCT062 24/17 Q1016
YBBN,2015-04-11 05:00,153.1292,-27.3917,77.00,60.80,57.36,110.00,10.00,0.00,30.00,M,6.21,M,FEW,M,M,M,3800.00,M,M,M,M,YBBN 110500Z 11010KT 9999 FEW038 25/16 Q1016
YBBN,2015-04-11 05:30,153.1292,-27.3917,77.00,62.60,61.13,110.00,9.00,0.00,30.00,M,6.21,M,FEW,M,M,M,3500.00,M,M,M,M,YBBN 110530Z 11009KT 9999 FEW035 25/17 Q1016
YBBN,2015-04-11 06:00,153.1292,-27.3917,77.00,60.80,57.36,120.00,9.00,0.00,30.00,M,6.21,M,FEW,M,M,M,3500.00,M,M,M,M,YBBN 110600Z 12009KT 9999 FEW035 25/16 Q1016
YBBN,2015-04-11 06:30,153.1292,-27.3917,75.20,60.80,60.90,110.00,10.00,0.00,30.00,M,6.21,M,FEW,M,M,M,3200.00,M,M,M,M,YBBN 110630Z 11010KT 9999 FEW032 24/16 Q1016
YBBN,2015-04-11 07:00,153.1292,-27.3917,75.20,60.80,60.90,120.00,9.00,0.00,30.00,M,6.21,M,FEW,M,M,M,3000.00,M,M,M,M,YBBN 110700Z 12009KT 9999 FEW030 24/16 Q1016
YBBN,2015-04-11 07:30,153.1292,-27.3917,73.40,60.80,64.69,130.00,7.00,0.00,30.00,M,6.21,M,FEW,M,M,M,3000.00,M,M,M,M,YBBN 110730Z 13007KT 9999 FEW030 23/16 Q1016
YBBN,2015-04-11 08:00,153.1292,-27.3917,73.40,60.80,64.69,140.00,7.00,0.00,30.03,M,6.21,M,FEW,M,M,M,3000.00,M,M,M,M,YBBN 110800Z 14007KT 9999 FEW030 23/16 Q1017 NOSIG
YBBN,2015-04-11 08:30,153.1292,-27.3917,71.60,60.80,68.75,150.00,6.00,0.00,30.03,M,6.21,M,FEW,SCT,M,M,2800.00,5800.00,M,M,M,YBBN 110830Z 15006KT 9999 FEW028 SCT058 22/16 Q1017
YBBN,2015-04-11 09:00,153.1292,-27.3917,71.60,60.80,68.75,150.00,6.00,0.00,30.03,M,6.21,M,FEW,SCT,M,M,2800.00,9500.00,M,M,M,YBBN 110900Z 15006KT 9999 FEW028 SCT095 22/16 Q1017 NOSIG
YBBN,2015-04-11 09:30,153.1292,-27.3917,71.60,60.80,68.75,160.00,6.00,0.00,30.03,M,6.21,M,FEW,SCT,M,M,2800.00,9500.00,M,M,M,YBBN 110930Z 16006KT 9999 FEW028 SCT095 22/16 Q1017
YBBN,2015-04-11 10:00,153.1292,-27.3917,71.60,60.80,68.75,160.00,6.00,0.00,30.06,M,6.21,M,FEW,SCT,M,M,2700.00,9700.00,M,M,M,YBBN 111000Z 16006KT 9999 FEW027 SCT097 22/16 Q1018 NOSIG
YBBN,2015-04-11 10:30,153.1292,-27.3917,69.80,60.80,73.09,160.00,6.00,0.00,30.06,M,6.21,M,FEW,M,M,M,2700.00,M,M,M,M,YBBN 111030Z 16006KT 9999 FEW027 21/16 Q1018
YBBN,2015-04-11 11:00,153.1292,-27.3917,68.00,60.80,77.75,170.00,7.00,0.00,30.06,M,6.21,M,M,M,M,M,M,M,M,M,M,YBBN 111100Z 17007KT CAVOK 20/16 Q1018
YBBN,2015-04-11 11:30,153.1292,-27.3917,68.00,60.80,77.75,180.00,8.00,0.00,30.06,M,6.21,M,M,M,M,M,M,M,M,M,M,YBBN 111130Z 18008KT CAVOK 20/16 Q1018
YBBN,2015-04-11 12:00,153.1292,-27.3917,68.00,59.00,72.92,190.00,7.00,0.00,30.06,M,6.21,M,M,M,M,M,M,M,M,M,M,YBBN 111200Z 19007KT CAVOK 20/15 Q1018
YBBN,2015-04-11 12:30,153.1292,-27.3917,68.00,59.00,72.92,200.00,7.00,0.00,30.06,M,6.21,M,FEW,M,M,M,2700.00,M,M,M,M,YBBN 111230Z 20007KT 9999 FEW027 20/15 Q1018
YBBN,2015-04-11 13:00,153.1292,-27.3917,64.40,59.00,82.62,210.00,7.00,0.00,30.06,M,6.21,M,FEW,M,M,M,2500.00,M,M,M,M,YBBN 111300Z 21007KT 9999 FEW025 18/15 Q1018
YBBN,2015-04-11 13:30,153.1292,-27.3917,64.40,59.00,82.62,210.00,5.00,0.00,30.03,M,6.21,M,FEW,M,M,M,3000.00,M,M,M,M,YBBN 111330Z 21005KT 9999 FEW030 18/15 Q1017
YBBN,2015-04-11 14:00,153.1292,-27.3917,64.40,59.00,82.62,210.00,7.00,0.00,30.03,M,6.21,M,FEW,M,M,M,3000.00,M,M,M,M,YBBN 111400Z 21007KT 9999 FEW030 18/15 Q1017
YBBN,2015-04-11 14:30,153.1292,-27.3917,62.60,59.00,88.00,210.00,7.00,0.00,30.03,M,6.21,M,FEW,M,M,M,2600.00,M,M,M,M,YBBN 111430Z 21007KT 9999 FEW026 17/15 Q1017
YBBN,2015-04-11 15:00,153.1292,-27.3917,64.40,59.00,82.62,210.00,7.00,0.00,30.03,M,6.21,M,FEW,M,M,M,2400.00,M,M,M,M,YBBN 111500Z 21007KT 9999 FEW024 18/15 Q1017
YBBN,2015-04-11 15:30,153.1292,-27.3917,62.60,59.00,88.00,210.00,7.00,0.00,30.03,M,6.21,M,FEW,M,M,M,2400.00,M,M,M,M,YBBN 111530Z 21007KT 9999 FEW024 17/15 Q1017
YBBN,2015-04-11 16:00,153.1292,-27.3917,64.40,59.00,82.62,210.00,7.00,0.00,30.03,M,6.21,M,FEW,M,M,M,2900.00,M,M,M,M,YBBN 111600Z 21007KT 9999 FEW029 18/15 Q1017 NOSIG
YBBN,2015-04-11 16:30,153.1292,-27.3917,64.40,59.00,82.62,210.00,8.00,0.00,30.03,M,6.21,M,FEW,M,M,M,2900.00,M,M,M,M,YBBN 111630Z 21008KT 9999 FEW029 18/15 Q1017
YBBN,2015-04-11 17:00,153.1292,-27.3917,64.40,59.00,82.62,200.00,8.00,0.00,30.00,M,6.21,M,FEW,M,M,M,2200.00,M,M,M,M,YBBN 111700Z 20008KT 9999 FEW022 18/15 Q1016
YBBN,2015-04-11 17:30,153.1292,-27.3917,64.40,59.00,82.62,200.00,9.00,0.00,30.00,M,6.21,M,FEW,M,M,M,2200.00,M,M,M,M,YBBN 111730Z 20009KT 9999 FEW022 18/15 Q1016
YBBN,2015-04-11 18:00,153.1292,-27.3917,64.40,59.00,82.62,200.00,8.00,0.00,30.00,M,6.21,M,FEW,M,M,M,2400.00,M,M,M,M,YBBN 111800Z 20008KT 9999 FEW024 18/15 Q1016 NOSIG
YBBN,2015-04-11 18:30,153.1292,-27.3917,64.40,59.00,82.62,210.00,9.00,0.00,30.00,M,6.21,M,FEW,M,M,M,2400.00,M,M,M,M,YBBN 111830Z 21009KT 9999 FEW024 18/15 Q1016
YBBN,2015-04-11 19:00,153.1292,-27.3917,64.40,59.00,82.62,210.00,7.00,0.00,30.00,M,6.21,M,FEW,M,M,M,2300.00,M,M,M,M,YBBN 111900Z 21007KT 9999 FEW023 18/15 Q1016 NOSIG
YBBN,2015-04-11 19:30,153.1292,-27.3917,62.60,59.00,88.00,210.00,7.00,0.00,30.03,M,6.21,M,FEW,M,M,M,2300.00,M,M,M,M,YBBN 111930Z 21007KT 9999 FEW023 17/15 Q1017
YBBN,2015-04-11 20:00,153.1292,-27.3917,62.60,59.00,88.00,200.00,8.00,0.00,30.03,M,6.21,M,FEW,M,M,M,2300.00,M,M,M,M,YBBN 112000Z 20008KT 9999 FEW023 17/15 Q1017 NOSIG
YBBN,2015-04-11 20:30,153.1292,-27.3917,62.60,59.00,88.00,200.00,8.00,0.00,30.03,M,6.21,M,FEW,M,M,M,2300.00,M,M,M,M,YBBN 112030Z 20008KT 9999 FEW023 17/15 Q1017
YBBN,2015-04-11 21:00,153.1292,-27.3917,64.40,59.00,82.62,200.00,9.00,0.00,30.03,M,6.21,M,FEW,M,M,M,2500.00,M,M,M,M,YBBN 112100Z 20009KT 9999 FEW025 18/15 Q1017 NOSIG
YBBN,2015-04-11 21:30,153.1292,-27.3917,66.20,59.00,77.60,200.00,11.00,0.00,30.06,M,6.21,M,FEW,M,M,M,2500.00,M,M,M,M,YBBN 112130Z 20011KT 9999 FEW025 19/15 Q1018
YBBN,2015-04-11 22:00,153.1292,-27.3917,68.00,60.80,77.75,210.00,11.00,0.00,30.06,M,6.21,M,FEW,M,M,M,2500.00,M,M,M,M,YBBN 112200Z 21011KT 9999 FEW025 20/16 Q1018 NOSIG
YBBN,2015-04-11 22:30,153.1292,-27.3917,69.80,60.80,73.09,210.00,11.00,0.00,30.06,M,6.21,M,FEW,M,M,M,2500.00,M,M,M,M,YBBN 112230Z 21011KT 9999 FEW025 21/16 Q1018
YBBN,2015-04-11 23:00,153.1292,-27.3917,71.60,60.80,68.75,210.00,11.00,0.00,30.06,M,6.21,M,FEW,M,M,M,2700.00,M,M,M,M,YBBN 112300Z 21011KT 9999 FEW027 22/16 Q1018 NOSIG
YBBN,2015-04-11 23:30,153.1292,-27.3917,73.40,60.80,64.69,200.00,9.00,0.00,30.06,M,6.21,M,FEW,M,M,M,3000.00,M,M,M,M,YBBN 112330Z 20009KT 9999 FEW030 23/16 Q1018
