#DEBUG: Format Typ    -> comma
#DEBUG: Time Period   -> 2014-03-27 00:00:00+00:00 2014-03-28 00:00:00+00:00
#DEBUG: Time Zone     -> Etc/UTC
#DEBUG: Data Contact   -> daryl herzmann akrherz@iastate.edu 515-294-5978
#DEBUG: Entries Found -> -1
station,valid,lon,lat,tmpf, dwpf, relh, drct, sknt, p01i, alti, mslp, vsby, gust, skyc1, skyc2, skyc3, skyc4, skyl1, skyl2, skyl3, skyl4, presentwx, metar
YBBN,2014-03-27 00:00,153.1292,-27.3917,75.20,69.80,83.32,90.00,10.00,0.00,30.09,M,3.73,M,FEW,SCT,OVC,M,1800.00,2500.00,6500.00,M,-RA VCSH,YBBN 270000Z 09010KT 6000 -RA VCSH FEW018 SCT025 OVC065 24/21 Q1019
YBBN,2014-03-27 00:30,153.1292,-27.3917,73.40,69.80,88.51,90.00,9.00,0.00,30.09,M,3.73,M,FEW,SCT,OVC,M,800.00,4000.00,7500.00,M,-RA,YBBN 270030Z 09009KT 6000 -RA FEW008 SCT040 OVC075 23/21 Q1019
YBBN,2014-03-27 01:00,153.1292,-27.3917,73.40,71.60,94.10,100.00,10.00,0.00,30.09,M,3.11,M,FEW,SCT,OVC,M,1100.00,2300.00,7000.00,M,RA VCSH,YBBN 270100Z 10010KT 5000 RA VCSH FEW011 SCT023 OVC070 23/22 Q1019
YBBN,2014-03-27 01:30,153.1292,-27.3917,73.40,71.60,94.10,110.00,9.00,0.00,30.09,M,2.49,M,FEW,SCT,OVC,M,1500.00,2400.00,7000.00,M,RA,YBBN 270130Z 11009KT 4000 RA FEW015 SCT024 OVC070 23/22 Q1019
YBBN,2014-03-27 02:00,153.1292,-27.3917,73.40,69.80,88.51,110.00,9.00,0.00,30.06,M,3.11,M,FEW,SCT,OVC,M,800.00,1700.00,5500.00,M,RA,YBBN 270200Z 11009KT 5000 RA FEW008 SCT017 OVC055 23/21 Q1018
YBBN,2014-03-27 02:30,153.1292,-27.3917,73.40,71.60,94.10,110.00,8.00,0.00,30.06,M,3.11,M,FEW,BKN,OVC,M,900.00,1400.00,5000.00,M,RA,YBBN 270230Z 11008KT 5000 RA FEW009 BKN014 OVC050 23/22 Q1018
YBBN,2014-03-27 03:00,153.1292,-27.3917,73.40,71.60,94.10,100.00,7.00,0.00,30.03,M,3.11,M,BKN,OVC,M,M,1400.00,5000.00,M,M,RA,YBBN 270300Z 10007KT 5000 RA BKN014 OVC050 23/22 Q1017
YBBN,2014-03-27 03:30,153.1292,-27.3917,73.40,71.60,94.10,70.00,10.00,0.00,30.00,M,3.73,M,SCT,BKN,OVC,M,800.00,1200.00,5000.00,M,-RA VCSH,YBBN 270330Z 07010KT 6000 -RA VCSH SCT008 BKN012 OVC050 23/22 Q1016
YBBN,2014-03-27 04:00,153.1292,-27.3917,75.20,71.60,88.59,70.00,13.00,0.00,30.00,M,3.11,M,BKN,BKN,M,M,1200.00,1800.00,M,M,-RA,YBBN 270400Z 07013KT 5000 -RA BKN012 BKN018 24/22 Q1016
YBBN,2014-03-27 04:30,153.1292,-27.3917,73.40,69.80,88.51,70.00,14.00,0.00,30.00,M,2.49,M,FEW,SCT,OVC,M,400.00,1100.00,5000.00,M,RA,YBBN 270430Z 07014KT 4000 RA FEW004 SCT011 OVC050 23/21 Q1016
YBBN,2014-03-27 05:00,153.1292,-27.3917,73.40,71.60,94.10,50.00,16.00,0.00,30.00,M,3.11,M,SCT,OVC,M,M,1300.00,5000.00,M,M,RA,YBBN 270500Z 05016KT 5000 RA SCT013 OVC050 23/22 Q1016
YBBN,2014-03-27 05:30,153.1292,-27.3917,73.40,69.80,88.51,60.00,13.00,0.00,29.97,M,3.73,M,FEW,SCT,OVC,M,1700.00,3400.00,5500.00,M,-RA,YBBN 270530Z 06013KT 6000 -RA FEW017 SCT034 OVC055 23/21 Q1015
YBBN,2014-03-27 05:52,153.1292,-27.3917,73.40,68.00,83.21,50.00,17.00,0.00,29.97,M,3.73,27.00,SCT,OVC,M,M,1800.00,6500.00,M,M,-RA,YBBN 270552Z 05017G27KT 6000 -RA SCT018 OVC065 23/20 Q1015
YBBN,2014-03-27 06:00,153.1292,-27.3917,73.40,68.00,83.21,60.00,15.00,0.00,29.97,M,2.49,27.00,FEW,OVC,M,M,1700.00,6000.00,M,M,RA,YBBN 270600Z 06015G27KT 4000 RA FEW017 OVC060 23/20 Q1015
YBBN,2014-03-27 06:30,153.1292,-27.3917,73.40,71.60,94.10,60.00,14.00,0.00,29.97,M,2.49,M,FEW,BKN,OVC,M,800.00,1200.00,5000.00,M,RA,YBBN 270630Z 06014KT 4000 RA FEW008 BKN012 OVC050 23/22 Q1015
YBBN,2014-03-27 06:53,153.1292,-27.3917,73.40,69.80,88.51,60.00,16.00,0.00,29.97,M,2.49,M,SCT,OVC,M,M,1300.00,4500.00,M,M,RA,YBBN 270653Z 06016KT 4000 RA SCT013 OVC045 23/21 Q1015
YBBN,2014-03-27 07:00,153.1292,-27.3917,73.40,69.80,88.51,50.00,16.00,0.00,30.00,M,2.49,M,FEW,SCT,OVC,M,800.00,1400.00,4500.00,M,RA,YBBN 270700Z 05016KT 4000 RA FEW008 SCT014 OVC045 23/21 Q1016
YBBN,2014-03-27 07:30,153.1292,-27.3917,73.40,71.60,94.10,60.00,15.00,0.00,30.00,M,2.49,M,SCT,OVC,M,M,1300.00,5500.00,M,M,RA,YBBN 270730Z 06015KT 4000 RA SCT013 OVC055 23/22 Q1016
YBBN,2014-03-27 08:00,153.1292,-27.3917,M,M,M,50.00,15.00,0.00,30.00,M,4.35,M,M,M,M,M,M,M,M,M,-RA ////// /////,YBBN 270800Z AUTO 05015KT 7000 -RA ////// ///// Q1016 RERA
YBBN,2014-03-27 08:02,153.1292,-27.3917,M,M,M,50.00,15.00,0.00,30.00,M,3.11,M,FEW,OVC,M,M,1400.00,5500.00,M,M,RA,YBBN 270802Z 05015KT 5000 RA FEW014 OVC055 ///// Q1016
YBBN,2014-03-27 08:30,153.1292,-27.3917,73.40,69.80,88.51,50.00,15.00,0.00,30.00,M,3.73,M,FEW,OVC,M,M,1300.00,6000.00,M,M,-RA,YBBN 270830Z 05015KT 6000 -RA FEW013 OVC060 23/21 Q1016
YBBN,2014-03-27 09:00,153.1292,-27.3917,73.40,69.80,88.51,50.00,14.00,0.00,30.00,M,3.11,M,FEW,SCT,OVC,M,700.00,2000.00,6000.00,M,-RA,YBBN 270900Z 05014KT 5000 -RA FEW007 SCT020 OVC060 23/21 Q1016
YBBN,2014-03-27 09:30,153.1292,-27.3917,73.40,71.60,94.10,50.00,10.00,0.00,30.03,M,3.73,M,SCT,OVC,M,M,800.00,6500.00,M,M,-RA,YBBN 270930Z 05010KT 6000 -RA SCT008 OVC065 23/22 Q1017
YBBN,2014-03-27 10:00,153.1292,-27.3917,71.60,69.80,94.06,60.00,13.00,0.00,30.03,M,2.49,M,BKN,SCT,OVC,M,800.00,1900.00,6000.00,M,RA,YBBN 271000Z 06013KT 4000 RA BKN008 SCT019 OVC060 22/21 Q1017
YBBN,2014-03-27 10:30,153.1292,-27.3917,71.60,71.60,100.00,70.00,10.00,0.00,30.00,M,2.17,M,FEW,BKN,BKN,M,300.00,600.00,1800.00,M,+RA,YBBN 271030Z 07010KT 3500 +RA FEW003 BKN006 BKN018 22/22 Q1016
YBBN,2014-03-27 10:39,153.1292,-27.3917,73.40,71.60,94.10,90.00,10.00,0.00,30.00,M,3.11,M,FEW,BKN,BKN,M,600.00,1400.00,1800.00,M,RA,YBBN 271039Z 09010KT 5000 RA FEW006 BKN014 BKN018 23/22 Q1016
YBBN,2014-03-27 11:00,153.1292,-27.3917,73.40,71.60,94.10,70.00,14.00,0.00,30.00,M,3.73,M,FEW,BKN,OVC,M,600.00,1900.00,6000.00,M,-SHRA,YBBN 271100Z 07014KT 6000 -SHRA FEW006 BKN019 OVC060 23/22 Q1016 RERA
YBBN,2014-03-27 11:30,153.1292,-27.3917,73.40,71.60,94.10,60.00,13.00,0.00,30.00,M,4.97,M,FEW,BKN,BKN,M,800.00,2100.00,4000.00,M,-RA,YBBN 271130Z 06013KT 8000 -RA FEW008 BKN021 BKN040 23/22 Q1016
YBBN,2014-03-27 12:00,153.1292,-27.3917,73.40,71.60,94.10,60.00,15.00,0.00,30.00,M,4.97,M,FEW,BKN,BKN,M,1000.00,2100.00,4000.00,M,-RA,YBBN 271200Z 06015KT 8000 -RA FEW010 BKN021 BKN040 23/22 Q1016
YBBN,2014-03-27 12:30,153.1292,-27.3917,73.40,71.60,94.10,60.00,13.00,0.00,29.97,M,4.97,M,FEW,SCT,BKN,M,1000.00,1900.00,4000.00,M,-RA,YBBN 271230Z 06013KT 8000 -RA FEW010 SCT019 BKN040 23/22 Q1015
YBBN,2014-03-27 12:42,153.1292,-27.3917,73.40,69.80,88.51,60.00,15.00,0.00,29.97,M,3.73,M,FEW,SCT,BKN,M,1000.00,1900.00,4000.00,M,-RA,YBBN 271242Z 06015KT 6000 -RA FEW010 SCT019 BKN040 23/21 Q1015
YBBN,2014-03-27 12:53,153.1292,-27.3917,73.40,69.80,88.51,50.00,17.00,0.00,29.97,M,3.73,28.00,FEW,SCT,BKN,M,1000.00,1900.00,4000.00,M,-RA,YBBN 271253Z 05017G28KT 6000 -RA FEW010 SCT019 BKN040 23/21 Q1015
YBBN,2014-03-27 13:00,153.1292,-27.3917,73.40,71.60,94.10,50.00,19.00,0.00,29.97,M,3.11,M,SCT,BKN,M,M,900.00,4000.00,M,M,RA,YBBN 271300Z 05019KT 5000 RA SCT009 BKN040 23/22 Q1015
YBBN,2014-03-27 13:14,153.1292,-27.3917,73.40,69.80,88.51,50.00,17.00,0.00,29.97,M,3.11,27.00,FEW,BKN,M,M,900.00,4000.00,M,M,RA,YBBN 271314Z 05017G27KT 5000 RA FEW009 BKN040 23/21 Q1015
YBBN,2014-03-27 13:30,153.1292,-27.3917,73.40,71.60,94.10,50.00,15.00,0.00,29.97,M,3.73,M,FEW,BKN,M,M,800.00,3500.00,M,M,RA,YBBN 271330Z 05015KT 6000 RA FEW008 BKN035 23/22 Q1015
YBBN,2014-03-27 13:50,153.1292,-27.3917,73.40,71.60,94.10,50.00,15.00,0.00,29.97,M,2.49,M,BKN,BKN,M,M,900.00,3000.00,M,M,+RA,YBBN 271350Z 05015KT 4000 +RA BKN009 BKN030 23/22 Q1015
YBBN,2014-03-27 14:00,153.1292,-27.3917,73.40,71.60,94.10,40.00,17.00,0.00,29.97,M,1.86,M,SCT,BKN,OVC,M,400.00,900.00,3000.00,M,+RA,YBBN 271400Z 04017KT 3000 +RA SCT004 BKN009 OVC030 23/22 Q1015
YBBN,2014-03-27 14:30,153.1292,-27.3917,73.40,71.60,94.10,40.00,16.00,0.00,29.97,M,2.49,M,BKN,OVC,M,M,900.00,3000.00,M,M,RA,YBBN 271430Z 04016KT 4000 RA BKN009 OVC030 23/22 Q1015
YBBN,2014-03-27 15:00,153.1292,-27.3917,73.40,71.60,94.10,40.00,13.00,0.00,29.97,M,2.49,M,SCT,BKN,OVC,M,400.00,900.00,3500.00,M,RA,YBBN 271500Z 04013KT 4000 RA SCT004 BKN009 OVC035 23/22 Q1015
YBBN,2014-03-27 15:08,153.1292,-27.3917,73.40,71.60,94.10,30.00,15.00,0.00,29.97,M,3.11,M,FEW,SCT,BKN,M,400.00,1000.00,3500.00,M,-RA,YBBN 271508Z 03015KT 5000 -RA FEW004 SCT010 BKN035 23/22 Q1015
YBBN,2014-03-27 15:20,153.1292,-27.3917,73.40,71.60,94.10,40.00,12.00,0.00,29.94,M,1.86,M,SCT,BKN,BKN,M,700.00,1100.00,3500.00,M,+RA,YBBN 271520Z 04012KT 3000 +RA SCT007 BKN011 BKN035 23/22 Q1014
YBBN,2014-03-27 15:30,153.1292,-27.3917,73.40,71.60,94.10,30.00,12.00,0.00,29.94,M,1.86,22.00,SCT,BKN,BKN,M,700.00,1100.00,3500.00,M,+RA,YBBN 271530Z 03012G22KT 3000 +RA SCT007 BKN011 BKN035 23/22 Q1014
YBBN,2014-03-27 15:53,153.1292,-27.3917,73.40,71.60,94.10,30.00,17.00,0.00,29.94,M,3.11,M,SCT,BKN,BKN,M,600.00,1000.00,3500.00,M,-RA,YBBN 271553Z 03017KT 5000 -RA SCT006 BKN010 BKN035 23/22 Q1014
YBBN,2014-03-27 16:00,153.1292,-27.3917,73.40,71.60,94.10,30.00,19.00,0.00,29.94,M,3.11,M,BKN,BKN,M,M,600.00,1100.00,M,M,-RA,YBBN 271600Z 03019KT 5000 -RA BKN006 BKN011 23/22 Q1014
YBBN,2014-03-27 16:16,153.1292,-27.3917,73.40,71.60,94.10,20.00,19.00,0.00,29.94,M,5.59,M,SCT,BKN,M,M,600.00,3800.00,M,M,-RA,YBBN 271616Z 02019KT 9000 -RA SCT006 BKN038 23/22 Q1014
YBBN,2014-03-27 16:30,153.1292,-27.3917,73.40,71.60,94.10,30.00,19.00,0.00,29.91,M,5.59,M,FEW,SCT,BKN,M,300.00,500.00,4000.00,M,-RA,YBBN 271630Z 03019KT 9000 -RA FEW003 SCT005 BKN040 23/22 Q1013
YBBN,2014-03-27 16:42,153.1292,-27.3917,73.40,71.60,94.10,40.00,21.00,0.00,29.91,M,6.21,M,SCT,BKN,OVC,M,1000.00,1400.00,5100.00,M,DZ,YBBN 271642Z AUTO 04021KT 9999 DZ SCT010 BKN014 OVC051 23/22 Q1013 RERA
YBBN,2014-03-27 17:00,153.1292,-27.3917,73.40,71.60,94.10,20.00,19.00,0.00,29.91,M,6.21,M,FEW,BKN,BKN,M,300.00,6000.00,11000.00,M,-RA,YBBN 271700Z 02019KT 9999 -RA FEW003 BKN060 BKN110 23/22 Q1013
YBBN,2014-03-27 17:30,153.1292,-27.3917,73.40,71.60,94.10,20.00,17.00,0.00,29.91,M,6.21,M,FEW,SCT,BKN,M,500.00,3500.00,11000.00,M,VCSH,YBBN 271730Z 02017KT 9999 VCSH FEW005 SCT035 BKN110 23/22 Q1013
YBBN,2014-03-27 18:00,153.1292,-27.3917,73.40,71.60,94.10,40.00,12.00,0.00,29.91,M,6.21,M,SCT,SCT,BKN,M,500.00,3500.00,12000.00,M,VCSH,YBBN 271800Z 04012KT 9999 VCSH SCT005 SCT035 BKN120 23/22 Q1013 INTER 1800/2100 3000 SHRA BKN012
YBBN,2014-03-27 18:30,153.1292,-27.3917,73.40,71.60,94.10,40.00,7.00,0.00,29.91,M,6.21,M,FEW,BKN,M,M,500.00,3500.00,M,M,M,YBBN 271830Z 04007KT 9999 FEW005 BKN035 23/22 Q1013
YBBN,2014-03-27 19:00,153.1292,-27.3917,73.40,71.60,94.10,30.00,6.00,0.00,29.91,M,5.59,M,FEW,BKN,BKN,M,500.00,1800.00,3500.00,M,-DZ,YBBN 271900Z 03006KT 9000 -DZ FEW005 BKN018 BKN035 23/22 Q1013 FM1900 03010KT 9999 -RA SCT012 BKN020 OVC050 INTER 1900/2200 3000 SHRA BKN012
YBBN,2014-03-27 19:08,153.1292,-27.3917,73.40,71.60,94.10,20.00,6.00,0.00,29.94,M,2.17,M,FEW,BKN,BKN,M,500.00,1500.00,3500.00,M,-DZ,YBBN 271908Z 02006KT 3500 -DZ FEW005 BKN015 BKN035 23/22 Q1014
YBBN,2014-03-27 19:30,153.1292,-27.3917,73.40,71.60,94.10,20.00,6.00,0.00,29.94,M,3.11,M,FEW,SCT,BKN,M,500.00,800.00,1500.00,M,-RA,YBBN 271930Z 02006KT 5000 -RA FEW005 SCT008 BKN015 23/22 Q1014
YBBN,2014-03-27 19:45,153.1292,-27.3917,73.40,71.60,94.10,360.00,7.00,0.00,29.94,M,4.35,M,FEW,SCT,BKN,M,500.00,800.00,4000.00,M,-RA,YBBN 271945Z 36007KT 7000 -RA FEW005 SCT008 BKN040 23/22 Q1014 RMK CLEARING
YBBN,2014-03-27 20:00,153.1292,-27.3917,73.40,71.60,94.10,360.00,8.00,0.00,29.94,M,5.59,M,FEW,SCT,BKN,M,700.00,1500.00,3500.00,M,VCSH,YBBN 272000Z 36008KT 9000 VCSH FEW007 SCT015 BKN035 23/22 Q1014 FM2000 03010KT 9999 -RA SCT012 BKN020 OVC050 FM2200 35007KT 9999 -SHRA FEW012 SCT025 OVC050 INTER 2000/2300 3000 SHRA BKN012
YBBN,2014-03-27 20:30,153.1292,-27.3917,73.40,71.60,94.10,350.00,7.00,0.00,29.94,M,6.21,M,SCT,SCT,BKN,M,1000.00,3200.00,4700.00,M,VCSH,YBBN 272030Z 35007KT 9999 VCSH SCT010 SCT032 BKN047 23/22 Q1014
YBBN,2014-03-27 21:00,153.1292,-27.3917,73.40,71.60,94.10,300.00,5.00,0.00,29.94,M,6.21,M,SCT,BKN,BKN,M,1200.00,3600.00,4500.00,M,VCSH,YBBN 272100Z 30005KT 9999 VCSH SCT012 BKN036 BKN045 23/22 Q1014
YBBN,2014-03-27 21:30,153.1292,-27.3917,71.60,69.80,94.06,210.00,7.00,0.00,29.97,M,6.21,M,BKN,BKN,M,M,500.00,900.00,M,M,M,YBBN 272130Z 21007KT 9999 BKN005 BKN009 22/21 Q1015
YBBN,2014-03-27 22:00,153.1292,-27.3917,71.60,69.80,94.06,210.00,7.00,0.00,29.97,M,6.21,M,BKN,M,M,M,600.00,M,M,M,VCSH,YBBN 272200Z 21007KT 9999 VCSH BKN006 22/21 Q1015
YBBN,2014-03-27 22:30,153.1292,-27.3917,69.80,68.00,94.01,230.00,7.00,0.00,30.00,M,6.21,M,BKN,M,M,M,600.00,M,M,M,VCSH,YBBN 272230Z 23007KT 9999 VCSH BKN006 21/20 Q1016
YBBN,2014-03-27 23:00,153.1292,-27.3917,69.80,69.80,100.00,210.00,7.00,0.00,30.00,M,3.11,M,FEW,OVC,M,M,400.00,600.00,M,M,-DZ,YBBN 272300Z 21007KT 5000 -DZ FEW004 OVC006 21/21 Q1016
YBBN,2014-03-27 23:30,153.1292,-27.3917,71.60,69.80,94.06,200.00,5.00,0.00,30.00,M,4.97,M,SCT,BKN,M,M,500.00,3000.00,M,M,-DZ,YBBN 272330Z 20005KT 8000 -DZ SCT005 BKN030 22/21 Q1016
