#DEBUG: Format Typ    -> comma
#DEBUG: Time Period   -> 2013-05-23 00:00:00+00:00 2013-05-24 00:00:00+00:00
#DEBUG: Time Zone     -> Etc/UTC
#DEBUG: Data Contact   -> daryl herzmann akrherz@iastate.edu 515-294-5978
#DEBUG: Entries Found -> -1
station,valid,lon,lat,tmpf, dwpf, relh, drct, sknt, p01i, alti, mslp, vsby, gust, skyc1, skyc2, skyc3, skyc4, skyl1, skyl2, skyl3, skyl4, presentwx, metar
YBBN,2013-05-23 00:00,153.1292,-27.3917,66.20,50.00,55.88,240.00,14.00,0.00,29.83,M,6.21,M,FEW,M,M,M,2500.00,M,M,M,M,YBBN 230000Z 24014KT 9999 FEW025 19/10 Q1010 NOSIG
YBBN,2013-05-23 00:30,153.1292,-27.3917,66.20,50.00,55.88,230.00,17.00,0.00,29.83,M,6.21,M,FEW,M,M,M,3000.00,M,M,M,M,YBBN 230030Z 23017KT 9999 FEW030 19/10 Q1010
YBBN,2013-05-23 01:00,153.1292,-27.3917,68.00,48.20,49.10,250.00,14.00,0.00,29.80,M,6.21,M,FEW,M,M,M,4000.00,M,M,M,M,YBBN 230100Z 25014KT 9999 FEW040 20/09 Q1009
YBBN,2013-05-23 01:30,153.1292,-27.3917,68.00,48.20,49.10,250.00,15.00,0.00,29.80,M,6.21,M,SCT,M,M,M,4000.00,M,M,M,M,YBBN 230130Z 25015KT 9999 SCT040 20/09 Q1009
YBBN,2013-05-23 02:00,153.1292,-27.3917,66.20,48.20,52.25,230.00,15.00,0.00,29.77,M,6.21,M,SCT,M,M,M,4200.00,M,M,M,M,YBBN 230200Z 23015KT 9999 SCT042 19/09 Q1008
YBBN,2013-05-23 02:30,153.1292,-27.3917,68.00,48.20,49.10,250.00,16.00,0.00,29.77,M,6.21,M,FEW,M,M,M,4200.00,M,M,M,M,YBBN 230230Z 25016KT 9999 FEW042 20/09 Q1008
YBBN,2013-05-23 03:00,153.1292,-27.3917,69.80,48.20,46.16,230.00,15.00,0.00,29.74,M,6.21,M,FEW,M,M,M,4200.00,M,M,M,M,YBBN 230300Z 23015KT 9999 FEW042 21/09 Q1007
YBBN,2013-05-23 03:30,153.1292,-27.3917,69.80,48.20,46.16,250.00,16.00,0.00,29.74,M,6.21,M,FEW,M,M,M,4400.00,M,M,M,M,YBBN 230330Z 25016KT 9999 FEW044 21/09 Q1007
YBBN,2013-05-23 04:00,153.1292,-27.3917,69.80,46.40,43.13,250.00,15.00,0.00,29.74,M,6.21,M,FEW,M,M,M,4400.00,M,M,M,M,YBBN 230400Z 25015KT 9999 FEW044 21/08 Q1007 NOSIG
YBBN,2013-05-23 04:30,153.1292,-27.3917,68.00,46.40,45.88,260.00,14.00,0.00,29.74,M,6.21,M,FEW,M,M,M,4400.00,M,M,M,M,YBBN 230430Z 26014KT 9999 FEW044 20/08 Q1007
YBBN,2013-05-23 05:00,153.1292,-27.3917,69.80,48.20,46.16,250.00,13.00,0.00,29.74,M,6.21,M,SCT,M,M,M,4800.00,M,M,M,M,YBBN 230500Z 25013KT 9999 SCT048 21/09 Q1007 NOSIG
YBBN,2013-05-23 05:30,153.1292,-27.3917,69.80,46.40,43.13,260.00,13.00,0.00,29.74,M,6.21,M,SCT,M,M,M,4800.00,M,M,M,M,YBBN 230530Z 26013KT 9999 SCT048 21/08 Q1007
YBBN,2013-05-23 06:00,153.1292,-27.3917,69.80,46.40,43.13,240.00,12.00,0.00,29.74,M,6.21,M,FEW,BKN,M,M,4800.00,5300.00,M,M,M,YBBN 230600Z 24012KT 9999 FEW048 BKN053 21/08 Q1007 NOSIG
YBBN,2013-05-23 06:30,153.1292,-27.3917,68.00,46.40,45.88,260.00,13.00,0.00,29.77,M,6.21,M,FEW,BKN,M,M,4800.00,5500.00,M,M,M,YBBN 230630Z 26013KT 9999 FEW048 BKN055 20/08 Q1008
YBBN,2013-05-23 07:00,153.1292,-27.3917,66.20,46.40,48.83,260.00,11.00,0.00,29.77,M,6.21,M,M,M,M,M,M,M,M,M,M,YBBN 230700Z 26011KT CAVOK 19/08 Q1008 NOSIG
YBBN,2013-05-23 07:30,153.1292,-27.3917,64.40,46.40,51.98,270.00,8.00,0.00,29.77,M,6.21,M,M,M,M,M,M,M,M,M,M,YBBN 230730Z 27008KT CAVOK 18/08 Q1008
YBBN,2013-05-23 08:00,153.1292,-27.3917,62.60,48.20,59.26,260.00,9.00,0.00,29.80,M,6.21,M,M,M,M,M,M,M,M,M,M,YBBN 230800Z 26009KT CAVOK 17/09 Q1009 NOSIG
YBBN,2013-05-23 08:30,153.1292,-27.3917,62.60,48.20,59.26,260.00,7.00,0.00,29.80,M,6.21,M,M,M,M,M,M,M,M,M,M,YBBN 230830Z 26007KT CAVOK 17/09 Q1009
YBBN,2013-05-23 09:00,153.1292,-27.3917,62.60,48.20,59.26,270.00,7.00,0.00,29.80,M,6.21,M,M,M,M,M,M,M,M,M,M,YBBN 230900Z 27007KT CAVOK 17/09 Q1009 NOSIG
YBBN,2013-05-23 09:30,153.1292,-27.3917,60.80,48.20,63.15,270.00,8.00,0.00,29.80,M,6.21,M,M,M,M,M,M,M,M,M,M,YBBN 230930Z 27008KT CAVOK 16/09 Q1009
YBBN,2013-05-23 10:00,153.1292,-27.3917,59.00,50.00,72.01,270.00,7.00,0.00,29.83,M,6.21,M,M,M,M,M,M,M,M,M,M,YBBN 231000Z 27007KT CAVOK 15/10 Q1010 NOSIG
YBBN,2013-05-23 10:30,153.1292,-27.3917,57.20,48.20,71.83,260.00,7.00,0.00,29.83,M,6.21,M,M,M,M,M,M,M,M,M,M,YBBN 231030Z 26007KT CAVOK 14/09 Q1010
YBBN,2013-05-23 11:00,153.1292,-27.3917,57.20,48.20,71.83,250.00,6.00,0.00,29.83,M,6.21,M,M,M,M,M,M,M,M,M,M,YBBN 231100Z 25006KT CAVOK 14/09 Q1010
YBBN,2013-05-23 11:30,153.1292,-27.3917,57.20,48.20,71.83,250.00,7.00,0.00,29.83,M,6.21,M,M,M,M,M,M,M,M,M,M,YBBN 231130Z 25007KT CAVOK 14/09 Q1010
YBBN,2013-05-23 12:00,153.1292,-27.3917,57.20,50.00,76.82,250.00,7.00,0.00,29.83,M,6.21,M,M,M,M,M,M,M,M,M,M,YBBN 231200Z 25007KT CAVOK 14/10 Q1010
YBBN,2013-05-23 12:30,153.1292,-27.3917,55.40,48.20,76.66,250.00,7.00,0.00,29.83,M,6.21,M,M,M,M,M,M,M,M,M,M,YBBN 231230Z 25007KT CAVOK 13/09 Q1010
YBBN,2013-05-23 13:00,153.1292,-27.3917,55.40,48.20,76.66,250.00,7.00,0.00,29.80,M,6.21,M,M,M,M,M,M,M,M,M,M,YBBN 231300Z 25007KT CAVOK 13/09 Q1009 NOSIG
YBBN,2013-05-23 13:30,153.1292,-27.3917,55.40,48.20,76.66,230.00,6.00,0.00,29.80,M,6.21,M,M,M,M,M,M,M,M,M,M,YBBN 231330Z 23006KT CAVOK 13/09 Q1009
YBBN,2013-05-23 14:00,153.1292,-27.3917,55.40,48.20,76.66,230.00,7.00,0.00,29.80,M,6.21,M,M,M,M,M,M,M,M,M,M,YBBN 231400Z 23007KT CAVOK 13/09 Q1009
YBBN,2013-05-23 14:30,153.1292,-27.3917,53.60,48.20,81.87,250.00,9.00,0.00,29.80,M,6.21,M,M,M,M,M,M,M,M,M,M,YBBN 231430Z 25009KT CAVOK 12/09 Q1009
YBBN,2013-05-23 15:00,153.1292,-27.3917,51.80,48.20,87.47,250.00,8.00,0.00,29.80,M,6.21,M,M,M,M,M,M,M,M,M,M,YBBN 231500Z 25008KT CAVOK 11/09 Q1009
YBBN,2013-05-23 15:30,153.1292,-27.3917,53.60,48.20,81.87,240.00,6.00,0.00,29.80,M,6.21,M,M,M,M,M,M,M,M,M,M,YBBN 231530Z 24006KT CAVOK 12/09 Q1009
YBBN,2013-05-23 16:00,153.1292,-27.3917,53.60,48.20,81.87,210.00,5.00,0.00,29.77,M,6.21,M,M,M,M,M,M,M,M,M,M,YBBN 231600Z 21005KT CAVOK 12/09 Q1008 NOSIG
YBBN,2013-05-23 16:30,153.1292,-27.3917,51.80,48.20,87.47,240.00,6.00,0.00,29.77,M,6.21,M,M,M,M,M,M,M,M,M,M,YBBN 231630Z 24006KT CAVOK 11/09 Q1008
YBBN,2013-05-23 17:00,153.1292,-27.3917,51.80,48.20,87.47,240.00,6.00,0.00,29.77,M,6.21,M,M,M,M,M,M,M,M,M,M,YBBN 231700Z 24006KT CAVOK 11/09 Q1008
YBBN,2013-05-23 17:30,153.1292,-27.3917,51.80,48.20,87.47,200.00,4.00,0.00,29.77,M,6.21,M,M,M,M,M,M,M,M,M,M,YBBN 231730Z 20004KT CAVOK 11/09 Q1008
YBBN,2013-05-23 18:00,153.1292,-27.3917,51.80,48.20,87.47,190.00,3.00,0.00,29.77,M,6.21,M,M,M,M,M,M,M,M,M,M,YBBN 231800Z 19003KT CAVOK 11/09 Q1008
YBBN,2013-05-23 18:30,153.1292,-27.3917,51.80,48.20,87.47,0.00,0.00,0.00,29.77,M,6.21,M,M,M,M,M,M,M,M,M,M,YBBN 231830Z 00000KT CAVOK 11/09 Q1008
YBBN,2013-05-23 19:00,153.1292,-27.3917,51.80,48.20,87.47,240.00,3.00,0.00,29.77,M,6.21,M,M,M,M,M,M,M,M,M,M,YBBN 231900Z 24003KT CAVOK 11/09 Q1008
YBBN,2013-05-23 19:30,153.1292,-27.3917,50.00,46.40,87.37,300.00,2.00,0.00,29.77,M,6.21,M,M,M,M,M,M,M,M,M,M,YBBN 231930Z 30002KT CAVOK 10/08 Q1008
YBBN,2013-05-23 20:00,153.1292,-27.3917,53.60,48.20,81.87,280.00,7.00,0.00,29.80,M,6.21,M,M,M,M,M,M,M,M,M,M,YBBN 232000Z 28007KT CAVOK 12/09 Q1009
YBBN,2013-05-23 20:30,153.1292,-27.3917,53.60,48.20,81.87,300.00,5.00,0.00,29.80,M,6.21,M,M,M,M,M,M,M,M,M,M,YBBN 232030Z 30005KT CAVOK 12/09 Q1009
YBBN,2013-05-23 21:00,153.1292,-27.3917,51.80,48.20,87.47,240.00,5.00,0.00,29.80,M,6.21,M,FEW,M,M,M,2500.00,M,M,M,M,YBBN 232100Z 24005KT 9999 FEW025 11/09 Q1009
YBBN,2013-05-23 21:30,153.1292,-27.3917,55.40,50.00,81.99,240.00,5.00,0.00,29.80,M,6.21,M,M,M,M,M,M,M,M,M,M,YBBN 232130Z 24005KT CAVOK 13/10 Q1009
YBBN,2013-05-23 22:00,153.1292,-27.3917,59.00,50.00,72.01,270.00,5.00,0.00,29.80,M,6.21,M,M,M,M,M,M,M,M,M,M,YBBN 232200Z 27005KT CAVOK 15/10 Q1009
YBBN,2013-05-23 22:30,153.1292,-27.3917,62.60,50.00,63.38,260.00,8.00,0.00,29.83,M,6.21,M,FEW,M,M,M,2500.00,M,M,M,M,YBBN 232230Z 26008KT 9999 FEW025 17/10 Q1010
YBBN,2013-05-23 23:00,153.1292,-27.3917,62.60,48.20,59.26,270.00,10.00,0.00,29.83,M,6.21,M,FEW,M,M,M,2500.00,M,M,M,M,YBBN 232300Z 27010KT 9999 FEW025 17/09 Q1010
YBBN,2013-05-23 23:30,153.1292,-27.3917,64.40,50.00,59.50,250.00,16.00,0.00,29.83,M,6.21,M,FEW,M,M,M,2800.00,M,M,M,M,YBBN 232330Z 25016KT 9999 FEW028 18/10 Q1010
