#DEBUG: Format Typ    -> comma
#DEBUG: Time Period   -> 2012-01-19 00:00:00+00:00 2012-01-20 00:00:00+00:00
#DEBUG: Time Zone     -> Etc/UTC
#DEBUG: Data Contact   -> daryl herzmann akrherz@iastate.edu 515-294-5978
#DEBUG: Entries Found -> -1
station,valid,lon,lat,tmpf, dwpf, relh, drct, sknt, p01i, alti, mslp, vsby, gust, skyc1, skyc2, skyc3, skyc4, skyl1, skyl2, skyl3, skyl4, presentwx, metar
YBBN,2012-01-19 00:00,153.1292,-27.3917,80.60,66.20,61.58,100.00,9.00,M,29.91,M,6.21,M,SCT,   ,   ,   ,3200.00,M,M,M,M,YBBN 190000Z 10009KT 9999 SCT032 27/19 Q1013
YBBN,2012-01-19 00:30,153.1292,-27.3917,82.40,68.00,61.81,120.00,9.00,M,29.91,M,6.21,M,FEW,   ,   ,   ,3200.00,M,M,M,M,YBBN 190030Z 12009KT 9999 FEW032 28/20 Q1013
YBBN,2012-01-19 01:00,153.1292,-27.3917,82.40,68.00,61.81,100.00,10.00,M,29.91,M,6.21,M,FEW,   ,   ,   ,3200.00,M,M,M,M,YBBN 190100Z 10010KT 9999 FEW032 28/20 Q1013
YBBN,2012-01-19 01:30,153.1292,-27.3917,82.40,69.80,65.74,90.00,10.00,M,29.91,M,6.21,M,NCD,   ,   ,   ,M,M,M,M,//,YBBN 190130Z AUTO 09010KT 9999 // NCD 28/21 Q1013
YBBN,2012-01-19 02:00,153.1292,-27.3917,82.40,68.00,61.81,100.00,10.00,M,29.91,M,6.21,M,SCT,   ,   ,   ,3500.00,M,M,M,M,YBBN 190200Z 10010KT 9999 SCT035 28/20 Q1013
YBBN,2012-01-19 02:30,153.1292,-27.3917,84.20,68.00,58.32,90.00,9.00,M,29.91,M,6.21,M,FEW,SCT,   ,   ,3500.00,6000.00,M,M,M,YBBN 190230Z 09009KT 9999 FEW035 SCT060 29/20 Q1013
YBBN,2012-01-19 03:00,153.1292,-27.3917,82.40,68.00,61.81,110.00,11.00,M,29.88,M,6.21,M,FEW,SCT,   ,   ,3500.00,7500.00,M,M,M,YBBN 190300Z 11011KT 9999 FEW035 SCT075 28/20 Q1012
YBBN,2012-01-19 03:30,153.1292,-27.3917,84.20,68.00,58.32,100.00,12.00,M,29.88,M,6.21,M,FEW,   ,   ,   ,3500.00,M,M,M,M,YBBN 190330Z 10012KT 9999 FEW035 29/20 Q1012
YBBN,2012-01-19 04:00,153.1292,-27.3917,82.40,68.00,61.81,100.00,13.00,M,29.88,M,6.21,M,FEW,   ,   ,   ,3800.00,M,M,M,M,YBBN 190400Z 10013KT 9999 FEW038 28/20 Q1012
YBBN,2012-01-19 04:30,153.1292,-27.3917,82.40,68.00,61.81,100.00,12.00,M,29.88,M,6.21,M,FEW,   ,   ,   ,4000.00,M,M,M,M,YBBN 190430Z 10012KT 9999 FEW040 28/20 Q1012
YBBN,2012-01-19 05:00,153.1292,-27.3917,82.40,68.00,61.81,110.00,12.00,M,29.88,M,6.21,M,FEW,   ,   ,   ,4000.00,M,M,M,M,YBBN 190500Z 11012KT 9999 FEW040 28/20 Q1012
YBBN,2012-01-19 05:30,153.1292,-27.3917,82.40,68.00,61.81,90.00,13.00,M,29.85,M,6.21,M,FEW,   ,   ,   ,3500.00,M,M,M,M,YBBN 190530Z 09013KT 9999 FEW035 28/20 Q1011
YBBN,2012-01-19 06:00,153.1292,-27.3917,80.60,69.80,69.71,100.00,14.00,0.00,29.85,M,6.21,M,FEW,   ,   ,   ,3500.00,M,M,M,M,YBBN 190600Z 10014KT 9999 FEW035 27/21 Q1011
YBBN,2012-01-19 06:30,153.1292,-27.3917,80.60,69.80,69.71,100.00,12.00,0.00,29.85,M,6.21,M,FEW,   ,   ,   ,3500.00,M,M,M,M,YBBN 190630Z 10012KT 9999 FEW035 27/21 Q1011 RMK TCU TOPS TO THE SOUTH
YBBN,2012-01-19 07:00,153.1292,-27.3917,78.80,69.80,73.95,110.00,13.00,0.00,29.85,M,6.21,M,FEW,   ,   ,   ,2500.00,M,M,M,M,YBBN 190700Z 11013KT 9999 FEW025 26/21 Q1011 RMK CB TOPS TO THE SOUTH
YBBN,2012-01-19 07:30,153.1292,-27.3917,80.60,68.00,65.54,120.00,12.00,0.00,29.85,M,6.21,M,FEW,   ,   ,   ,3000.00,M,M,M,M,YBBN 190730Z 12012KT 9999 FEW030 27/20 Q1011
YBBN,2012-01-19 08:00,153.1292,-27.3917,78.80,68.00,69.52,110.00,12.00,0.00,29.88,M,6.21,M,FEW,SCT,   ,   ,2500.00,7000.00,M,M,M,YBBN 190800Z 11012KT 9999 FEW025 SCT070 26/20 Q1012
YBBN,2012-01-19 08:30,153.1292,-27.3917,77.00,68.00,73.78,110.00,13.00,0.00,29.88,M,6.21,24.00,FEW,SCT,   ,   ,2500.00,7000.00,M,M,M,YBBN 190830Z 11013G24KT 9999 FEW025 SCT070 25/20 Q1012
YBBN,2012-01-19 09:00,153.1292,-27.3917,77.00,68.00,73.78,120.00,12.00,0.00,29.91,M,6.21,M,FEW,SCT,   ,   ,2500.00,30000.00,M,M,M,YBBN 190900Z 12012KT 9999 FEW025 SCT300 25/20 Q1013
YBBN,2012-01-19 09:30,153.1292,-27.3917,77.00,68.00,73.78,120.00,10.00,0.00,29.91,M,6.21,M,FEW,SCT,   ,   ,2000.00,30000.00,M,M,M,YBBN 190930Z 12010KT 9999 FEW020 SCT300 25/20 Q1013
YBBN,2012-01-19 10:00,153.1292,-27.3917,77.00,68.00,73.78,130.00,12.00,0.00,29.91,M,6.21,M,SCT,SCT,   ,   ,2000.00,30000.00,M,M,M,YBBN 191000Z 13012KT 9999 SCT020 SCT300 25/20 Q1013
YBBN,2012-01-19 10:30,153.1292,-27.3917,77.00,68.00,73.78,150.00,10.00,0.00,29.94,M,6.21,M,FEW,   ,   ,   ,2300.00,M,M,M,M,YBBN 191030Z 15010KT 9999 FEW023 25/20 Q1014
YBBN,2012-01-19 11:00,153.1292,-27.3917,77.00,68.00,73.78,140.00,9.00,0.00,29.94,M,6.21,M,SCT,   ,   ,   ,2300.00,M,M,M,M,YBBN 191100Z 14009KT 9999 SCT023 25/20 Q1014
YBBN,2012-01-19 11:30,153.1292,-27.3917,77.00,68.00,73.78,150.00,8.00,0.00,29.94,M,6.21,M,SCT,   ,   ,   ,2000.00,M,M,M,M,YBBN 191130Z 15008KT 9999 SCT020 25/20 Q1014
YBBN,2012-01-19 12:00,153.1292,-27.3917,75.20,68.00,78.34,140.00,8.00,0.00,29.94,M,6.21,M,BKN,   ,   ,   ,2300.00,M,M,M,M,YBBN 191200Z 14008KT 9999 BKN023 24/20 Q1014
YBBN,2012-01-19 12:30,153.1292,-27.3917,75.20,68.00,78.34,180.00,7.00,0.00,29.94,M,6.21,M,SCT,   ,   ,   ,2500.00,M,M,M,M,YBBN 191230Z 18007KT 9999 SCT025 24/20 Q1014
YBBN,2012-01-19 13:00,153.1292,-27.3917,75.20,69.80,83.32,180.00,8.00,0.00,29.94,M,6.21,M,FEW,SCT,   ,   ,2300.00,4000.00,M,M,M,YBBN 191300Z 18008KT 9999 FEW023 SCT040 24/21 Q1014
YBBN,2012-01-19 13:30,153.1292,-27.3917,75.20,68.00,78.34,180.00,7.00,0.00,29.91,M,6.21,M,FEW,SCT,   ,   ,2000.00,4000.00,M,M,M,YBBN 191330Z 18007KT 9999 FEW020 SCT040 24/20 Q1013
YBBN,2012-01-19 14:00,153.1292,-27.3917,73.40,68.00,83.21,180.00,6.00,0.00,29.91,M,6.21,M,FEW,   ,   ,   ,2300.00,M,M,M,M,YBBN 191400Z 18006KT 9999 FEW023 23/20 Q1013
YBBN,2012-01-19 14:30,153.1292,-27.3917,73.40,68.00,83.21,190.00,7.00,0.00,29.91,M,6.21,M,FEW,   ,   ,   ,2000.00,M,M,M,M,YBBN 191430Z 19007KT 9999 FEW020 23/20 Q1013
YBBN,2012-01-19 15:00,153.1292,-27.3917,73.40,68.00,83.21,180.00,7.00,0.00,29.88,M,6.21,M,FEW,   ,   ,   ,2300.00,M,M,M,M,YBBN 191500Z 18007KT 9999 FEW023 23/20 Q1012
YBBN,2012-01-19 15:30,153.1292,-27.3917,73.40,66.20,78.19,190.00,6.00,0.00,29.88,M,6.21,M,   ,   ,   ,   ,M,M,M,M,M,YBBN 191530Z 19006KT CAVOK 23/19 Q1012
YBBN,2012-01-19 16:00,153.1292,-27.3917,71.60,66.20,83.09,200.00,5.00,0.00,29.88,M,6.21,M,   ,   ,   ,   ,M,M,M,M,M,YBBN 191600Z 20005KT CAVOK 22/19 Q1012
YBBN,2012-01-19 16:30,153.1292,-27.3917,71.60,66.20,83.09,200.00,6.00,0.00,29.85,M,6.21,M,   ,   ,   ,   ,M,M,M,M,M,YBBN 191630Z 20006KT CAVOK 22/19 Q1011
YBBN,2012-01-19 17:00,153.1292,-27.3917,69.80,66.20,88.34,210.00,6.00,0.00,29.85,M,6.21,M,   ,   ,   ,   ,M,M,M,M,M,YBBN 191700Z 21006KT CAVOK 21/19 Q1011
YBBN,2012-01-19 17:30,153.1292,-27.3917,69.80,66.20,88.34,220.00,7.00,0.00,29.88,M,6.21,M,   ,   ,   ,   ,M,M,M,M,M,YBBN 191730Z 22007KT CAVOK 21/19 Q1012
YBBN,2012-01-19 18:00,153.1292,-27.3917,69.80,66.20,88.34,220.00,4.00,0.00,29.88,M,6.21,M,   ,   ,   ,   ,M,M,M,M,M,YBBN 191800Z 22004KT CAVOK 21/19 Q1012
YBBN,2012-01-19 18:30,153.1292,-27.3917,68.00,64.40,88.26,200.00,4.00,0.00,29.88,M,6.21,M,   ,   ,   ,   ,M,M,M,M,M,YBBN 191830Z 20004KT CAVOK 20/18 Q1012
YBBN,2012-01-19 19:00,153.1292,-27.3917,69.80,66.20,88.34,210.00,8.00,0.00,29.88,M,6.21,M,FEW,BKN,   ,   ,2500.00,5000.00,M,M,M,YBBN 191900Z 21008KT 9999 FEW025 BKN050 21/19 Q1012
YBBN,2012-01-19 19:30,153.1292,-27.3917,69.80,66.20,88.34,210.00,7.00,0.00,29.88,M,6.21,M,FEW,BKN,   ,   ,2500.00,4500.00,M,M,-SHRA,YBBN 191930Z 21007KT 9999 -SHRA FEW025 BKN045 21/19 Q1012
YBBN,2012-01-19 20:00,153.1292,-27.3917,71.60,66.20,83.09,220.00,7.00,0.00,29.88,M,6.21,M,FEW,SCT,   ,   ,2500.00,5000.00,M,M,VCSH,YBBN 192000Z 22007KT 9999 VCSH FEW025 SCT050 22/19 Q1012
YBBN,2012-01-19 20:30,153.1292,-27.3917,71.60,66.20,83.09,210.00,6.00,0.00,29.88,M,6.21,M,FEW,SCT,   ,   ,3000.00,5800.00,M,M,VCSH,YBBN 192030Z 21006KT 9999 VCSH FEW030 SCT058 22/19 Q1012
YBBN,2012-01-19 21:00,153.1292,-27.3917,75.20,66.20,73.61,210.00,7.00,0.00,29.91,M,6.21,M,FEW,SCT,   ,   ,3000.00,4800.00,M,M,M,YBBN 192100Z 21007KT 9999 FEW030 SCT048 24/19 Q1013
YBBN,2012-01-19 21:30,153.1292,-27.3917,77.00,66.20,69.33,170.00,7.00,0.00,29.91,M,6.21,M,FEW,BKN,   ,   ,3000.00,5300.00,M,M,M,YBBN 192130Z 17007KT 9999 FEW030 BKN053 25/19 Q1013
YBBN,2012-01-19 22:00,153.1292,-27.3917,77.00,66.20,69.33,170.00,9.00,0.00,29.91,M,6.21,M,SCT,BKN,   ,   ,2500.00,4800.00,M,M,M,YBBN 192200Z 17009KT 9999 SCT025 BKN048 25/19 Q1013
YBBN,2012-01-19 22:30,153.1292,-27.3917,78.80,66.20,65.33,150.00,8.00,0.00,29.91,M,6.21,M,SCT,BKN,   ,   ,2500.00,5400.00,M,M,M,YBBN 192230Z 15008KT 9999 SCT025 BKN054 26/19 Q1013
YBBN,2012-01-19 23:00,153.1292,-27.3917,78.80,66.20,65.33,120.00,9.00,0.00,29.91,M,6.21,M,BKN,BKN,   ,   ,2900.00,4000.00,M,M,-SHRA,YBBN 192300Z 12009KT 9999 -SHRA BKN029 BKN040 26/19 Q1013
YBBN,2012-01-19 23:30,153.1292,-27.3917,78.80,66.20,65.33,130.00,11.00,0.00,29.91,M,6.21,M,SCT,BKN,   ,   ,2700.00,4500.00,M,M,VCSH,YBBN 192330Z 13011KT 9999 VCSH SCT027 BKN045 26/19 Q1013
