#DEBUG: Format Typ    -> comma
#DEBUG: Time Period   -> 2010-09-09 00:00:00+00:00 2010-09-10 00:00:00+00:00
#DEBUG: Time Zone     -> Etc/UTC
#DEBUG: Data Contact   -> daryl herzmann akrherz@iastate.edu 515-294-5978
#DEBUG: Entries Found -> -1
station,valid,lon,lat,tmpf, dwpf, relh, drct, sknt, p01i, alti, mslp, vsby, gust, skyc1, skyc2, skyc3, skyc4, skyl1, skyl2, skyl3, skyl4, presentwx, metar
YBBN,2010-09-09 00:00,153.1292,-27.3917,71.60,59.00,64.48,10.00,7.00,M,30.12,M,6.21,M,FEW,M,M,M,2500.00,M,M,M,M,YBBN 090000Z 01007KT 9999 FEW025 22/15 Q1020 NOSIG
YBBN,2010-09-09 00:30,153.1292,-27.3917,73.40,59.00,60.67,10.00,7.00,M,30.12,M,6.21,M,FEW,M,M,M,2800.00,M,M,M,M,YBBN 090030Z 01007KT 9999 FEW028 23/15 Q1020 NOSIG
YBBN,2010-09-09 01:00,153.1292,-27.3917,73.40,60.80,64.69,50.00,8.00,M,30.09,M,6.21,M,FEW,M,M,M,2800.00,M,M,M,M,YBBN 090100Z 05008KT 9999 FEW028 23/16 Q1019 RMK HZ NOSIG
YBBN,2010-09-09 01:30,153.1292,-27.3917,73.40,59.00,60.67,30.00,8.00,M,30.09,M,6.21,M,FEW,M,M,M,2800.00,M,M,M,M,YBBN 090130Z 03008KT 9999 FEW028 23/15 Q1019 RMK HZ NOSIG
YBBN,2010-09-09 02:00,153.1292,-27.3917,73.40,59.00,60.67,40.00,9.00,M,30.06,M,6.21,M,FEW,BKN,M,M,2800.00,26000.00,M,M,M,YBBN 090200Z 04009KT 9999 FEW028 BKN260 23/15 Q1018 NOSIG
YBBN,2010-09-09 02:30,153.1292,-27.3917,73.40,60.80,64.69,40.00,13.00,M,30.03,M,6.21,M,FEW,BKN,M,M,2800.00,26000.00,M,M,M,YBBN 090230Z 04013KT 9999 FEW028 BKN260 23/16 Q1017 NOSIG
YBBN,2010-09-09 03:00,153.1292,-27.3917,73.40,59.00,60.67,40.00,14.00,M,30.03,M,6.21,M,FEW,BKN,M,M,3000.00,26000.00,M,M,M,YBBN 090300Z 04014KT 9999 FEW030 BKN260 23/15 Q1017 NOSIG
YBBN,2010-09-09 03:30,153.1292,-27.3917,73.40,60.80,64.69,20.00,16.00,M,30.00,M,6.21,M,FEW,SCT,M,M,3000.00,26000.00,M,M,M,YBBN 090330Z 02016KT 9999 FEW030 SCT260 23/16 Q1016 NOSIG
YBBN,2010-09-09 04:00,153.1292,-27.3917,71.60,60.80,68.75,30.00,16.00,M,30.00,M,6.21,M,FEW,M,M,M,3000.00,M,M,M,M,YBBN 090400Z 03016KT 9999 FEW030 22/16 Q1016 NOSIG
YBBN,2010-09-09 04:30,153.1292,-27.3917,73.40,60.80,64.69,20.00,17.00,M,30.00,M,6.21,M,FEW,M,M,M,3000.00,M,M,M,M,YBBN 090430Z 02017KT 9999 FEW030 23/16 Q1016 NOSIG
YBBN,2010-09-09 05:00,153.1292,-27.3917,71.60,60.80,68.75,20.00,17.00,M,29.97,M,6.21,M,FEW,SCT,M,M,3000.00,26000.00,M,M,M,YBBN 090500Z 02017KT 9999 FEW030 SCT260 22/16 Q1015 NOSIG
YBBN,2010-09-09 05:30,153.1292,-27.3917,71.60,60.80,68.75,20.00,17.00,M,29.97,M,6.21,M,FEW,SCT,M,M,3000.00,26000.00,M,M,M,YBBN 090530Z 02017KT 9999 FEW030 SCT260 22/16 Q1015 NOSIG
YBBN,2010-09-09 06:00,153.1292,-27.3917,71.60,60.80,68.75,20.00,17.00,M,29.97,M,6.21,M,FEW,SCT,M,M,3000.00,18000.00,M,M,M,YBBN 090600Z 02017KT 9999 FEW030 SCT180 22/16 Q1015 NOSIG
YBBN,2010-09-09 06:30,153.1292,-27.3917,71.60,60.80,68.75,20.00,18.00,M,29.97,M,6.21,M,FEW,SCT,M,M,3000.00,18000.00,M,M,M,YBBN 090630Z 02018KT 9999 FEW030 SCT180 22/16 Q1015 NOSIG
YBBN,2010-09-09 07:00,153.1292,-27.3917,69.80,60.80,73.09,10.00,14.00,M,29.97,M,6.21,M,FEW,SCT,BKN,M,2500.00,18000.00,26000.00,M,M,YBBN 090700Z 01014KT 9999 FEW025 SCT180 BKN260 21/16 Q1015 NOSIG
YBBN,2010-09-09 07:30,153.1292,-27.3917,69.80,60.80,73.09,10.00,15.00,M,29.97,M,6.21,M,FEW,SCT,BKN,M,2500.00,20000.00,26000.00,M,M,YBBN 090730Z 01015KT 9999 FEW025 SCT200 BKN260 21/16 Q1015 NOSIG
YBBN,2010-09-09 08:00,153.1292,-27.3917,69.80,60.80,73.09,10.00,14.00,M,29.97,M,6.21,M,FEW,BKN,M,M,2500.00,22000.00,M,M,M,YBBN 090800Z 01014KT 9999 FEW025 BKN220 21/16 Q1015 NOSIG
YBBN,2010-09-09 08:30,153.1292,-27.3917,69.80,60.80,73.09,10.00,13.00,M,29.97,M,6.21,M,M,M,M,M,M,M,M,M,M,YBBN 090830Z 01013KT CAVOK 21/16 Q1015 NOSIG
YBBN,2010-09-09 09:00,153.1292,-27.3917,69.80,60.80,73.09,10.00,15.00,M,29.97,M,6.21,M,M,M,M,M,M,M,M,M,M,YBBN 090900Z 01015KT CAVOK 21/16 Q1015 NOSIG
YBBN,2010-09-09 09:30,153.1292,-27.3917,69.80,62.60,77.90,10.00,15.00,M,29.97,M,6.21,M,M,M,M,M,M,M,M,M,M,YBBN 090930Z 01015KT CAVOK 21/17 Q1015 NOSIG
YBBN,2010-09-09 10:00,153.1292,-27.3917,69.80,62.60,77.90,360.00,17.00,M,30.00,M,6.21,M,FEW,SCT,BKN,M,4800.00,15000.00,21000.00,M,M,YBBN 091000Z 36017KT 9999 FEW048 SCT150 BKN210 21/17 Q1016 NOSIG
YBBN,2010-09-09 10:30,153.1292,-27.3917,69.80,60.80,73.09,360.00,15.00,M,30.00,M,6.21,M,FEW,SCT,BKN,M,4500.00,15000.00,22000.00,M,M,YBBN 091030Z 36015KT 9999 FEW045 SCT150 BKN220 21/16 Q1016 NOSIG
YBBN,2010-09-09 11:00,153.1292,-27.3917,69.80,60.80,73.09,360.00,13.00,M,30.00,M,6.21,M,FEW,SCT,BKN,M,4500.00,15000.00,20000.00,M,M,YBBN 091100Z 36013KT 9999 FEW045 SCT150 BKN200 21/16 Q1016 NOSIG
YBBN,2010-09-09 11:30,153.1292,-27.3917,68.00,60.80,77.75,360.00,16.00,M,29.97,M,6.21,M,FEW,BKN,BKN,M,4500.00,15000.00,20000.00,M,M,YBBN 091130Z 36016KT 9999 FEW045 BKN150 BKN200 20/16 Q1015 NOSIG
YBBN,2010-09-09 12:00,153.1292,-27.3917,68.00,60.80,77.75,360.00,15.00,M,30.00,M,6.21,M,FEW,BKN,BKN,M,4500.00,14000.00,20000.00,M,M,YBBN 091200Z 36015KT 9999 FEW045 BKN140 BKN200 20/16 Q1016 NOSIG
YBBN,2010-09-09 12:30,153.1292,-27.3917,68.00,60.80,77.75,360.00,14.00,M,30.00,M,6.21,M,FEW,BKN,BKN,M,4500.00,14500.00,20000.00,M,M,YBBN 091230Z 36014KT 9999 FEW045 BKN145 BKN200 20/16 Q1016 NOSIG
YBBN,2010-09-09 13:00,153.1292,-27.3917,68.00,59.00,72.92,360.00,15.00,M,30.00,M,6.21,M,FEW,BKN,BKN,M,4500.00,8500.00,20000.00,M,M,YBBN 091300Z 36015KT 9999 FEW045 BKN085 BKN200 20/15 Q1016 NOSIG
YBBN,2010-09-09 13:30,153.1292,-27.3917,68.00,59.00,72.92,360.00,14.00,M,30.00,M,6.21,M,FEW,BKN,BKN,M,4500.00,8500.00,12000.00,M,-RA,YBBN 091330Z 36014KT 9999 -RA FEW045 BKN085 BKN120 20/15 Q1016 NOSIG
YBBN,2010-09-09 14:00,153.1292,-27.3917,68.00,57.20,68.35,360.00,13.00,M,29.97,M,6.21,M,FEW,SCT,BKN,M,4000.00,5500.00,8500.00,M,-RA,YBBN 091400Z 36013KT 9999 -RA FEW040 SCT055 BKN085 20/14 Q1015 NOSIG
YBBN,2010-09-09 14:30,153.1292,-27.3917,68.00,57.20,68.35,360.00,14.00,M,29.97,M,6.21,M,FEW,SCT,BKN,M,4000.00,5500.00,8500.00,M,-RA,YBBN 091430Z 36014KT 9999 -RA FEW040 SCT055 BKN085 20/14 Q1015 NOSIG
YBBN,2010-09-09 15:00,153.1292,-27.3917,66.20,57.20,72.74,360.00,18.00,M,29.94,M,6.21,M,SCT,BKN,M,M,5000.00,11500.00,M,M,-RA,YBBN 091500Z 36018KT 9999 -RA SCT050 BKN115 19/14 Q1014 NOSIG
YBBN,2010-09-09 15:30,153.1292,-27.3917,68.00,59.00,72.92,360.00,14.00,M,29.91,M,6.21,M,FEW,BKN,M,M,3000.00,11500.00,M,M,VCSH,YBBN 091530Z 36014KT 9999 VCSH FEW030 BKN115 20/15 Q1013 NOSIG
YBBN,2010-09-09 16:00,153.1292,-27.3917,68.00,59.00,72.92,360.00,16.00,M,29.88,M,6.21,M,FEW,BKN,M,M,3000.00,12000.00,M,M,VCSH,YBBN 091600Z 36016KT 9999 VCSH FEW030 BKN120 20/15 Q1012 NOSIG
YBBN,2010-09-09 16:30,153.1292,-27.3917,66.20,59.00,77.60,360.00,14.00,M,29.88,M,6.21,M,FEW,SCT,BKN,M,3000.00,9000.00,16000.00,M,M,YBBN 091630Z 36014KT 9999 FEW030 SCT090 BKN160 19/15 Q1012 NOSIG
YBBN,2010-09-09 17:00,153.1292,-27.3917,66.20,60.80,82.74,10.00,18.00,M,29.85,M,6.21,M,FEW,SCT,BKN,M,3000.00,9000.00,16000.00,M,M,YBBN 091700Z 01018KT 9999 FEW030 SCT090 BKN160 19/16 Q1011 NOSIG
YBBN,2010-09-09 17:30,153.1292,-27.3917,66.20,60.80,82.74,360.00,15.00,M,29.85,M,6.21,M,FEW,BKN,M,M,4000.00,15000.00,M,M,M,YBBN 091730Z 36015KT 9999 FEW040 BKN150 19/16 Q1011 NOSIG
YBBN,2010-09-09 18:00,153.1292,-27.3917,66.20,60.80,82.74,360.00,14.00,M,29.85,M,6.21,M,FEW,BKN,M,M,4000.00,15000.00,M,M,M,YBBN 091800Z 36014KT 9999 FEW040 BKN150 19/16 Q1011 NOSIG
YBBN,2010-09-09 18:30,153.1292,-27.3917,66.20,60.80,82.74,350.00,10.00,M,29.85,M,6.21,M,FEW,SCT,BKN,M,4000.00,11000.00,15000.00,M,M,YBBN 091830Z 35010KT 9999 FEW040 SCT110 BKN150 19/16 Q1011 NOSIG
YBBN,2010-09-09 19:00,153.1292,-27.3917,66.20,60.80,82.74,350.00,11.00,M,29.85,M,6.21,M,M,M,M,M,M,M,M,M,M,YBBN 091900Z 35011KT CAVOK 19/16 Q1011 RMK 5AS170 NOSIG
YBBN,2010-09-09 19:30,153.1292,-27.3917,66.20,60.80,82.74,360.00,12.00,M,29.85,M,6.21,M,M,M,M,M,M,M,M,M,M,YBBN 091930Z 36012KT CAVOK 19/16 Q1011 NOSIG
YBBN,2010-09-09 20:00,153.1292,-27.3917,66.20,60.80,82.74,360.00,13.00,M,29.83,M,6.21,M,M,M,M,M,M,M,M,M,M,YBBN 092000Z 36013KT CAVOK 19/16 Q1010 NOSIG
YBBN,2010-09-09 20:30,153.1292,-27.3917,66.20,60.80,82.74,10.00,13.00,M,29.83,M,6.21,M,M,M,M,M,M,M,M,M,M,YBBN 092030Z 01013KT CAVOK 19/16 Q1010 NOSIG
YBBN,2010-09-09 21:00,153.1292,-27.3917,68.00,60.80,77.75,360.00,12.00,M,29.85,M,6.21,M,FEW,SCT,BKN,M,3500.00,12000.00,23000.00,M,M,YBBN 092100Z 36012KT 9999 FEW035 SCT120 BKN230 20/16 Q1011 NOSIG
YBBN,2010-09-09 21:30,153.1292,-27.3917,68.00,60.80,77.75,360.00,12.00,M,29.85,M,6.21,M,FEW,SCT,BKN,M,3500.00,12000.00,23000.00,M,M,YBBN 092130Z 36012KT 9999 FEW035 SCT120 BKN230 20/16 Q1011 NOSIG
YBBN,2010-09-09 22:00,153.1292,-27.3917,69.80,60.80,73.09,360.00,14.00,M,29.85,M,6.21,M,M,M,M,M,M,M,M,M,M,YBBN 092200Z 36014KT CAVOK 21/16 Q1011 NOSIG
YBBN,2010-09-09 22:30,153.1292,-27.3917,71.60,62.60,73.27,360.00,13.00,M,29.85,M,6.21,M,M,M,M,M,M,M,M,M,M,YBBN 092230Z 36013KT CAVOK 22/17 Q1011 RMK 6AC120 NOSIG
YBBN,2010-09-09 23:00,153.1292,-27.3917,71.60,62.60,73.27,360.00,11.00,M,29.83,M,6.21,M,FEW,BKN,M,M,4500.00,12000.00,M,M,M,YBBN 092300Z 36011KT 9999 FEW045 BKN120 22/17 Q1010 NOSIG
YBBN,2010-09-09 23:30,153.1292,-27.3917,71.60,62.60,73.27,10.00,10.00,M,29.83,M,6.21,M,FEW,BKN,M,M,4500.00,12000.00,M,M,M,YBBN 092330Z 01010KT 9999 FEW045 BKN120 22/17 Q1010 NOSIG
