#DEBUG: Format Typ    -> comma
#DEBUG: Time Period   -> 2014-11-09 00:00:00+00:00 2014-11-10 00:00:00+00:00
#DEBUG: Time Zone     -> Etc/UTC
#DEBUG: Data Contact   -> daryl herzmann akrherz@iastate.edu 515-294-5978
#DEBUG: Entries Found -> -1
station,valid,lon,lat,tmpf, dwpf, relh, drct, sknt, p01i, alti, mslp, vsby, gust, skyc1, skyc2, skyc3, skyc4, skyl1, skyl2, skyl3, skyl4, presentwx, metar
YBBN,2014-11-09 00:00,153.1292,-27.3917,77.00,57.20,50.43,10.00,9.00,0.00,30.09,M,6.21,M,FEW,M,M,M,2800.00,M,M,M,M,YBBN 090000Z 01009KT 9999 FEW028 25/14 Q1019 NOSIG
YBBN,2014-11-09 00:30,153.1292,-27.3917,77.00,57.20,50.43,30.00,9.00,0.00,30.09,M,6.21,M,FEW,M,M,M,2800.00,M,M,M,M,YBBN 090030Z 03009KT 9999 FEW028 25/14 Q1019
YBBN,2014-11-09 01:00,153.1292,-27.3917,77.00,57.20,50.43,40.00,11.00,0.00,30.09,M,6.21,M,FEW,M,M,M,3000.00,M,M,M,M,YBBN 090100Z 04011KT 9999 FEW030 25/14 Q1019
YBBN,2014-11-09 01:30,153.1292,-27.3917,77.00,57.20,50.43,30.00,9.00,0.00,30.09,M,6.21,M,FEW,M,M,M,3000.00,M,M,M,M,YBBN 090130Z 03009KT 9999 FEW030 25/14 Q1019
YBBN,2014-11-09 02:00,153.1292,-27.3917,78.80,57.20,47.52,30.00,10.00,0.00,30.06,M,6.21,M,FEW,M,M,M,3500.00,M,M,M,M,YBBN 090200Z 03010KT 9999 FEW035 26/14 Q1018 NOSIG
YBBN,2014-11-09 02:30,153.1292,-27.3917,78.80,59.00,50.69,40.00,12.00,0.00,30.06,M,6.21,M,FEW,M,M,M,3500.00,M,M,M,M,YBBN 090230Z 04012KT 9999 FEW035 26/15 Q1018
YBBN,2014-11-09 03:00,153.1292,-27.3917,77.00,60.80,57.36,40.00,13.00,0.00,30.03,M,6.21,M,FEW,M,M,M,3500.00,M,M,M,M,YBBN 090300Z 04013KT 9999 FEW035 25/16 Q1017 NOSIG
YBBN,2014-11-09 03:30,153.1292,-27.3917,78.80,60.80,54.05,40.00,13.00,0.00,30.03,M,6.21,M,FEW,M,M,M,3500.00,M,M,M,M,YBBN 090330Z 04013KT 9999 FEW035 26/16 Q1017
YBBN,2014-11-09 04:00,153.1292,-27.3917,78.80,60.80,54.05,40.00,14.00,0.00,30.03,M,6.21,M,FEW,M,M,M,3500.00,M,M,M,M,YBBN 090400Z 04014KT 9999 FEW035 26/16 Q1017 NOSIG
YBBN,2014-11-09 04:30,153.1292,-27.3917,78.80,60.80,54.05,50.00,12.00,0.00,30.03,M,6.21,M,FEW,M,M,M,3500.00,M,M,M,M,YBBN 090430Z 05012KT 9999 FEW035 26/16 Q1017
YBBN,2014-11-09 05:00,153.1292,-27.3917,78.80,60.80,54.05,40.00,11.00,0.00,30.03,M,6.21,M,FEW,M,M,M,3500.00,M,M,M,M,YBBN 090500Z 04011KT 9999 FEW035 26/16 Q1017 NOSIG
YBBN,2014-11-09 05:30,153.1292,-27.3917,77.00,60.80,57.36,30.00,11.00,0.00,30.03,M,6.21,M,M,M,M,M,M,M,M,M,M,YBBN 090530Z 03011KT CAVOK 25/16 Q1017
YBBN,2014-11-09 06:00,153.1292,-27.3917,77.00,59.00,53.80,50.00,11.00,0.00,30.03,M,6.21,M,M,M,M,M,M,M,M,M,M,YBBN 090600Z 05011KT CAVOK 25/15 Q1017 NOSIG
YBBN,2014-11-09 06:30,153.1292,-27.3917,77.00,55.40,47.25,50.00,9.00,0.00,30.03,M,6.21,M,M,M,M,M,M,M,M,M,M,YBBN 090630Z 05009KT CAVOK 25/13 Q1017
YBBN,2014-11-09 07:00,153.1292,-27.3917,75.20,57.20,53.55,50.00,10.00,0.00,30.03,M,6.21,M,M,M,M,M,M,M,M,M,M,YBBN 090700Z 05010KT CAVOK 24/14 Q1017 NOSIG
YBBN,2014-11-09 07:30,153.1292,-27.3917,75.20,59.00,57.12,50.00,9.00,0.00,30.03,M,6.21,M,M,M,M,M,M,M,M,M,M,YBBN 090730Z 05009KT CAVOK 24/15 Q1017
YBBN,2014-11-09 08:00,153.1292,-27.3917,73.40,59.00,60.67,50.00,9.00,0.00,30.06,M,6.21,M,M,M,M,M,M,M,M,M,M,YBBN 090800Z 05009KT CAVOK 23/15 Q1018 NOSIG
YBBN,2014-11-09 08:30,153.1292,-27.3917,73.40,60.80,64.69,50.00,8.00,0.00,30.06,M,6.21,M,M,M,M,M,M,M,M,M,M,YBBN 090830Z 05008KT CAVOK 23/16 Q1018
YBBN,2014-11-09 09:00,153.1292,-27.3917,73.40,60.80,64.69,40.00,8.00,0.00,30.06,M,6.21,M,M,M,M,M,M,M,M,M,M,YBBN 090900Z 04008KT CAVOK 23/16 Q1018
YBBN,2014-11-09 09:30,153.1292,-27.3917,71.60,60.80,68.75,40.00,8.00,0.00,30.09,M,6.21,M,FEW,SCT,M,M,2600.00,28000.00,M,M,M,YBBN 090930Z 04008KT 9999 FEW026 SCT280 22/16 Q1019
YBBN,2014-11-09 10:00,153.1292,-27.3917,71.60,60.80,68.75,40.00,8.00,0.00,30.09,M,6.21,M,FEW,SCT,M,M,2600.00,28000.00,M,M,M,YBBN 091000Z 04008KT 9999 FEW026 SCT280 22/16 Q1019 NOSIG
YBBN,2014-11-09 10:30,153.1292,-27.3917,71.60,60.80,68.75,40.00,8.00,0.00,30.09,M,6.21,M,SCT,SCT,M,M,2600.00,28000.00,M,M,M,YBBN 091030Z 04008KT 9999 SCT026 SCT280 22/16 Q1019
YBBN,2014-11-09 11:00,153.1292,-27.3917,71.60,60.80,68.75,50.00,7.00,0.00,30.09,M,6.21,M,FEW,SCT,M,M,2200.00,2400.00,M,M,M,YBBN 091100Z 05007KT 9999 FEW022 SCT024 22/16 Q1019 NOSIG
YBBN,2014-11-09 11:30,153.1292,-27.3917,71.60,62.60,73.27,30.00,8.00,0.00,30.09,M,6.21,M,FEW,SCT,M,M,2200.00,2500.00,M,M,M,YBBN 091130Z 03008KT 9999 FEW022 SCT025 22/17 Q1019
YBBN,2014-11-09 12:00,153.1292,-27.3917,69.80,62.60,77.90,40.00,7.00,0.00,30.09,M,6.21,M,FEW,SCT,M,M,2200.00,2500.00,M,M,M,YBBN 091200Z 04007KT 9999 FEW022 SCT025 21/17 Q1019
YBBN,2014-11-09 12:30,153.1292,-27.3917,69.80,62.60,77.90,30.00,7.00,0.00,30.09,M,6.21,M,FEW,SCT,M,M,2300.00,2500.00,M,M,M,YBBN 091230Z 03007KT 9999 FEW023 SCT025 21/17 Q1019
YBBN,2014-11-09 13:00,153.1292,-27.3917,68.00,62.60,82.86,30.00,7.00,0.00,30.09,M,6.21,M,FEW,SCT,M,M,2300.00,2500.00,M,M,M,YBBN 091300Z 03007KT 9999 FEW023 SCT025 20/17 Q1019
YBBN,2014-11-09 13:30,153.1292,-27.3917,68.00,62.60,82.86,30.00,7.00,0.00,30.09,M,6.21,M,FEW,SCT,M,M,2000.00,3200.00,M,M,M,YBBN 091330Z 03007KT 9999 FEW020 SCT032 20/17 Q1019
YBBN,2014-11-09 14:00,153.1292,-27.3917,68.00,62.60,82.86,30.00,5.00,0.00,30.06,M,6.21,M,FEW,SCT,M,M,1800.00,3200.00,M,M,M,YBBN 091400Z 03005KT 9999 FEW018 SCT032 20/17 Q1018
YBBN,2014-11-09 14:30,153.1292,-27.3917,71.60,62.60,73.27,30.00,7.00,0.00,30.06,M,6.21,M,FEW,BKN,M,M,1800.00,3200.00,M,M,M,YBBN 091430Z 03007KT 9999 FEW018 BKN032 22/17 Q1018
YBBN,2014-11-09 15:00,153.1292,-27.3917,69.80,62.60,77.90,40.00,6.00,0.00,30.06,M,6.21,M,FEW,SCT,M,M,2000.00,3300.00,M,M,M,YBBN 091500Z 04006KT 9999 FEW020 SCT033 21/17 Q1018 NOSIG
YBBN,2014-11-09 15:30,153.1292,-27.3917,68.00,60.80,77.75,40.00,5.00,0.00,30.03,M,6.21,M,FEW,SCT,BKN,M,2000.00,3300.00,28000.00,M,M,YBBN 091530Z 04005KT 9999 FEW020 SCT033 BKN280 20/16 Q1017
YBBN,2014-11-09 16:00,153.1292,-27.3917,68.00,62.60,82.86,40.00,5.00,0.00,30.03,M,6.21,M,FEW,SCT,M,M,2000.00,3400.00,M,M,M,YBBN 091600Z 04005KT 9999 FEW020 SCT034 20/17 Q1017 NOSIG
YBBN,2014-11-09 16:30,153.1292,-27.3917,68.00,62.60,82.86,40.00,5.00,0.00,30.03,M,6.21,M,FEW,SCT,M,M,2400.00,3500.00,M,M,M,YBBN 091630Z 04005KT 9999 FEW024 SCT035 20/17 Q1017
YBBN,2014-11-09 17:00,153.1292,-27.3917,68.00,60.80,77.75,30.00,5.00,0.00,30.03,M,6.21,M,FEW,SCT,M,M,2400.00,3600.00,M,M,M,YBBN 091700Z 03005KT 9999 FEW024 SCT036 20/16 Q1017 NOSIG
YBBN,2014-11-09 17:30,153.1292,-27.3917,68.00,60.80,77.75,30.00,5.00,0.00,30.03,M,6.21,M,FEW,SCT,BKN,M,2200.00,3600.00,28000.00,M,M,YBBN 091730Z 03005KT 9999 FEW022 SCT036 BKN280 20/16 Q1017
YBBN,2014-11-09 18:00,153.1292,-27.3917,68.00,62.60,82.86,330.00,5.00,0.00,30.03,M,6.21,M,FEW,BKN,M,M,2200.00,30000.00,M,M,M,YBBN 091800Z 33005KT 9999 FEW022 BKN300 20/17 Q1017 NOSIG
YBBN,2014-11-09 18:30,153.1292,-27.3917,68.00,62.60,82.86,0.00,0.00,0.00,30.03,M,6.21,M,FEW,SCT,BKN,M,2300.00,2500.00,30000.00,M,M,YBBN 091830Z 00000KT 9999 FEW023 SCT025 BKN300 20/17 Q1017
YBBN,2014-11-09 19:00,153.1292,-27.3917,68.00,62.60,82.86,0.00,0.00,0.00,30.06,M,6.21,M,FEW,SCT,BKN,M,2300.00,2500.00,30000.00,M,M,YBBN 091900Z 00000KT 9999 FEW023 SCT025 BKN300 20/17 Q1018
YBBN,2014-11-09 19:30,153.1292,-27.3917,69.80,62.60,77.90,0.00,0.00,0.00,30.06,M,6.21,M,FEW,BKN,M,M,2300.00,2600.00,M,M,M,YBBN 091930Z 00000KT 9999 FEW023 BKN026 21/17 Q1018
YBBN,2014-11-09 20:00,153.1292,-27.3917,71.60,62.60,73.27,230.00,5.00,0.00,30.06,M,6.21,M,FEW,BKN,M,M,2300.00,2600.00,M,M,M,YBBN 092000Z 23005KT 9999 FEW023 BKN026 22/17 Q1018 NOSIG
YBBN,2014-11-09 20:30,153.1292,-27.3917,71.60,62.60,73.27,260.00,5.00,0.00,30.09,M,6.21,M,SCT,BKN,M,M,2600.00,4600.00,M,M,M,YBBN 092030Z 26005KT 9999 SCT026 BKN046 22/17 Q1019
YBBN,2014-11-09 21:00,153.1292,-27.3917,75.20,62.60,64.91,270.00,4.00,0.00,30.09,M,6.21,M,SCT,BKN,M,M,2500.00,4600.00,M,M,M,YBBN 092100Z 27004KT 9999 SCT025 BKN046 24/17 Q1019
YBBN,2014-11-09 21:30,153.1292,-27.3917,75.20,62.60,64.91,270.00,4.00,0.00,30.09,M,6.21,M,SCT,SCT,M,M,2500.00,4800.00,M,M,M,YBBN 092130Z 27004KT 9999 SCT025 SCT048 24/17 Q1019
YBBN,2014-11-09 22:00,153.1292,-27.3917,75.20,60.80,60.90,350.00,6.00,0.00,30.09,M,6.21,M,SCT,SCT,M,M,2500.00,30000.00,M,M,M,YBBN 092200Z 35006KT 9999 SCT025 SCT300 24/16 Q1019 NOSIG
YBBN,2014-11-09 22:30,153.1292,-27.3917,77.00,60.80,57.36,360.00,7.00,0.00,30.09,M,6.21,M,SCT,BKN,M,M,2500.00,30000.00,M,M,M,YBBN 092230Z 36007KT 9999 SCT025 BKN300 25/16 Q1019
YBBN,2014-11-09 23:00,153.1292,-27.3917,78.80,62.60,57.60,20.00,9.00,0.00,30.09,M,6.21,M,SCT,SCT,M,M,2800.00,30000.00,M,M,M,YBBN 092300Z 02009KT 9999 SCT028 SCT300 26/17 Q1019 NOSIG
YBBN,2014-11-09 23:30,153.1292,-27.3917,78.80,62.60,57.60,10.00,9.00,0.00,30.09,M,6.21,M,SCT,M,M,M,3000.00,M,M,M,M,YBBN 092330Z 01009KT 9999 SCT030 26/17 Q1019
