#DEBUG: Format Typ    -> comma
#DEBUG: Time Period   -> 2014-11-19 00:00:00+00:00 2014-11-20 00:00:00+00:00
#DEBUG: Time Zone     -> Etc/UTC
#DEBUG: Data Contact   -> daryl herzmann akrherz@iastate.edu 515-294-5978
#DEBUG: Entries Found -> -1
station,valid,lon,lat,tmpf, dwpf, relh, drct, sknt, p01i, alti, mslp, vsby, gust, skyc1, skyc2, skyc3, skyc4, skyl1, skyl2, skyl3, skyl4, presentwx, metar
YBBN,2014-11-19 00:00,153.1292,-27.3917,82.40,69.80,65.74,50.00,11.00,0.00,30.03,M,6.21,M,FEW,SCT,BKN,M,1800.00,2500.00,7000.00,M,M,YBBN 190000Z 05011KT 9999 FEW018 SCT025 BKN070 28/21 Q1017
YBBN,2014-11-19 00:30,153.1292,-27.3917,80.60,71.60,74.11,20.00,9.00,0.00,30.03,M,6.21,M,FEW,SCT,BKN,M,1700.00,2500.00,7500.00,M,M,YBBN 190030Z 02009KT 9999 FEW017 SCT025 BKN075 27/22 Q1017
YBBN,2014-11-19 01:00,153.1292,-27.3917,82.40,71.60,69.90,20.00,10.00,0.00,30.03,M,6.21,M,SCT,BKN,M,M,2700.00,7500.00,M,M,M,YBBN 190100Z 02010KT 9999 SCT027 BKN075 28/22 Q1017
YBBN,2014-11-19 01:30,153.1292,-27.3917,82.40,69.80,65.74,40.00,8.00,0.00,30.00,M,6.21,M,SCT,BKN,M,M,3000.00,9000.00,M,M,M,YBBN 190130Z 04008KT 9999 SCT030 BKN090 28/21 Q1016
YBBN,2014-11-19 02:00,153.1292,-27.3917,82.40,69.80,65.74,40.00,10.00,0.00,30.00,M,6.21,M,FEW,BKN,M,M,3000.00,9000.00,M,M,M,YBBN 190200Z 04010KT 9999 FEW030 BKN090 28/21 Q1016 INTER 0200/0500 3000 SHRA BKN010
YBBN,2014-11-19 02:30,153.1292,-27.3917,80.60,71.60,74.11,40.00,10.00,0.00,30.00,M,6.21,M,FEW,SCT,BKN,FEW,1800.00,3000.00,9000.00,3200.00,M,YBBN 190230Z 04010KT 9999 FEW018 SCT030 BKN090 FEW032TCU 27/22 Q1016 RMK CB TOPS STH AND SW
YBBN,2014-11-19 03:00,153.1292,-27.3917,82.40,71.60,69.90,30.00,11.00,0.00,30.00,M,6.21,M,FEW,SCT,BKN,FEW,1600.00,3000.00,9000.00,3200.00,M,YBBN 190300Z 03011KT 9999 FEW016 SCT030 BKN090 FEW032TCU 28/22 Q1016
YBBN,2014-11-19 03:30,153.1292,-27.3917,80.60,71.60,74.11,40.00,11.00,0.00,29.97,M,6.21,M,SCT,BKN,FEW,M,1500.00,9000.00,3200.00,M,M,YBBN 190330Z 04011KT 9999 SCT015 BKN090 FEW032TCU 27/22 Q1015
YBBN,2014-11-19 04:00,153.1292,-27.3917,78.80,71.60,78.62,20.00,11.00,0.00,29.94,M,6.21,M,BKN,FEW,M,M,1700.00,3200.00,M,M,M,YBBN 190400Z 02011KT 9999 BKN017 FEW032CB 26/22 Q1014
YBBN,2014-11-19 04:30,153.1292,-27.3917,78.80,71.60,78.62,50.00,13.00,0.00,29.94,M,6.21,M,BKN,FEW,M,M,1500.00,3200.00,M,M,-SHRA,YBBN 190430Z 05013KT 9999 -SHRA BKN015 FEW032CB 26/22 Q1014
YBBN,2014-11-19 05:00,153.1292,-27.3917,77.00,71.60,83.44,50.00,15.00,0.00,29.94,M,6.21,M,SCT,BKN,FEW,M,1700.00,2200.00,3000.00,M,-SHRA,YBBN 190500Z 05015KT 9999 -SHRA SCT017 BKN022 FEW030CB 25/22 Q1014 TEMPO 0500/0800 VRB20G35KT 2500 TSRAGR BKN010 SCT030CB
YBBN,2014-11-19 05:30,153.1292,-27.3917,77.00,71.60,83.44,50.00,13.00,0.00,29.94,M,6.21,M,SCT,BKN,FEW,M,1200.00,2500.00,3000.00,M,VCSH,YBBN 190530Z 05013KT 9999 VCSH SCT012 BKN025 FEW030CB 25/22 Q1014
YBBN,2014-11-19 06:00,153.1292,-27.3917,77.00,71.60,83.44,50.00,16.00,0.00,29.91,M,5.59,M,FEW,SCT,BKN,M,1200.00,2700.00,3100.00,M,VCTS,YBBN 190600Z 05016KT 9000 VCTS FEW012 SCT027CB BKN031 25/22 Q1013 TEMPO 0600/0900 VRB20G35KT 2500 TSRAGR BKN010 SCT030CB
YBBN,2014-11-19 06:10,153.1292,-27.3917,77.00,69.80,78.48,50.00,15.00,0.00,29.91,M,3.73,M,FEW,SCT,BKN,M,1700.00,2700.00,3200.00,M,-TSRA,YBBN 190610Z 05015KT 6000 -TSRA FEW017 SCT027CB BKN032 25/21 Q1013
YBBN,2014-11-19 06:30,153.1292,-27.3917,75.20,71.60,88.59,50.00,11.00,0.00,29.94,M,1.24,M,SCT,BKN,M,M,1300.00,3200.00,M,M,+TSRA,YBBN 190630Z 05011KT 2000 +TSRA SCT013 BKN032CB 24/22 Q1014
YBBN,2014-11-19 07:00,153.1292,-27.3917,69.80,68.00,94.01,160.00,6.00,0.00,30.00,M,1.86,M,FEW,BKN,BKN,SCT,500.00,1100.00,1700.00,3200.00,+TSRA,YBBN 190700Z 16006KT 3000 +TSRA FEW005 BKN011 BKN017 SCT032CB 21/20 Q1016
YBBN,2014-11-19 07:30,153.1292,-27.3917,69.80,68.00,94.01,240.00,5.00,0.00,29.97,M,3.11,M,FEW,SCT,SCT,M,400.00,1100.00,2700.00,M,TSRA,YBBN 190730Z 24005KT 5000 TSRA FEW004 SCT011 SCT027CB 21/20 Q1015
YBBN,2014-11-19 07:49,153.1292,-27.3917,69.80,69.80,100.00,50.00,15.00,0.00,29.97,M,5.59,M,FEW,SCT,BKN,FEW,1300.00,2100.00,12000.00,2500.00,-SHRA,YBBN 190749Z 05015KT 9000 -SHRA FEW013 SCT021 BKN120 FEW025CB 21/21 Q1015 RETS
YBBN,2014-11-19 08:00,153.1292,-27.3917,71.60,69.80,94.06,50.00,15.00,0.00,29.94,M,6.21,M,FEW,SCT,SCT,M,1000.00,1800.00,2500.00,M,-SHRA,YBBN 190800Z 05015KT 9999 -SHRA FEW010 SCT018 SCT025CB 22/21 Q1014 RETS
YBBN,2014-11-19 08:30,153.1292,-27.3917,71.60,69.80,94.06,20.00,8.00,0.00,29.97,M,6.21,M,FEW,SCT,FEW,M,800.00,16000.00,2500.00,M,VCSH,YBBN 190830Z 02008KT 9999 VCSH FEW008 SCT160 FEW025CB 22/21 Q1015
YBBN,2014-11-19 09:00,153.1292,-27.3917,73.40,71.60,94.10,10.00,14.00,0.00,29.97,M,6.21,M,FEW,SCT,FEW,M,600.00,1400.00,2300.00,M,VCSH,YBBN 190900Z 01014KT 9999 VCSH FEW006 SCT014 FEW023CB 23/22 Q1015
YBBN,2014-11-19 09:10,153.1292,-27.3917,73.40,71.60,94.10,20.00,13.00,0.00,30.00,M,6.21,M,SCT,BKN,BKN,M,800.00,1500.00,2800.00,M,//,YBBN 190910Z AUTO 02013KT 9999 // SCT008 BKN015 BKN028 23/22 Q1016
YBBN,2014-11-19 09:30,153.1292,-27.3917,71.60,68.00,88.43,20.00,13.00,0.00,30.00,M,6.21,M,FEW,SCT,BKN,M,800.00,1500.00,21000.00,M,M,YBBN 190930Z 02013KT 9999 FEW008 SCT015 BKN210 22/20 Q1016
YBBN,2014-11-19 10:00,153.1292,-27.3917,73.40,68.00,83.21,10.00,13.00,0.00,30.03,M,6.21,M,FEW,SCT,M,M,1000.00,3500.00,M,M,VCSH,YBBN 191000Z 01013KT 9999 VCSH FEW010 SCT035 23/20 Q1017 INTER 1000/1300 3000 SHRA BKN010
YBBN,2014-11-19 10:30,153.1292,-27.3917,73.40,68.00,83.21,350.00,10.00,0.00,30.03,M,6.21,M,FEW,SCT,M,M,1200.00,4800.00,M,M,VCSH,YBBN 191030Z 35010KT 9999 VCSH FEW012 SCT048 23/20 Q1017
YBBN,2014-11-19 11:00,153.1292,-27.3917,71.60,68.00,88.43,10.00,11.00,0.00,30.06,M,6.21,M,FEW,SCT,M,M,1700.00,13000.00,M,M,M,YBBN 191100Z 01011KT 9999 FEW017 SCT130 22/20 Q1018
YBBN,2014-11-19 11:30,153.1292,-27.3917,71.60,68.00,88.43,340.00,12.00,0.00,30.06,M,6.21,M,FEW,SCT,M,M,1200.00,21000.00,M,M,M,YBBN 191130Z 34012KT 9999 FEW012 SCT210 22/20 Q1018
YBBN,2014-11-19 12:00,153.1292,-27.3917,71.60,66.20,83.09,350.00,11.00,0.00,30.06,M,6.21,M,FEW,SCT,BKN,M,1500.00,12000.00,20000.00,M,VCSH,YBBN 191200Z 35011KT 9999 VCSH FEW015 SCT120 BKN200 22/19 Q1018
YBBN,2014-11-19 12:30,153.1292,-27.3917,71.60,66.20,83.09,350.00,12.00,0.00,30.03,M,6.21,M,FEW,SCT,M,M,1500.00,13000.00,M,M,VCSH,YBBN 191230Z 35012KT 9999 VCSH FEW015 SCT130 22/19 Q1017
YBBN,2014-11-19 13:00,153.1292,-27.3917,71.60,66.20,83.09,350.00,14.00,0.00,30.00,M,6.21,M,FEW,SCT,M,M,1700.00,14000.00,M,M,M,YBBN 191300Z 35014KT 9999 FEW017 SCT140 22/19 Q1016
YBBN,2014-11-19 13:30,153.1292,-27.3917,71.60,64.40,78.04,350.00,14.00,0.00,30.00,M,6.21,M,FEW,SCT,M,M,1700.00,14000.00,M,M,VCSH,YBBN 191330Z 35014KT 9999 VCSH FEW017 SCT140 22/18 Q1016
YBBN,2014-11-19 14:00,153.1292,-27.3917,71.60,66.20,83.09,340.00,16.00,0.00,30.00,M,6.21,M,FEW,SCT,BKN,M,1700.00,13000.00,17000.00,M,M,YBBN 191400Z 34016KT 9999 FEW017 SCT130 BKN170 22/19 Q1016
YBBN,2014-11-19 14:30,153.1292,-27.3917,69.80,66.20,88.34,330.00,12.00,0.00,30.00,M,6.21,M,M,M,M,M,M,M,M,M,M,YBBN 191430Z 33012KT CAVOK 21/19 Q1016
YBBN,2014-11-19 15:00,153.1292,-27.3917,69.80,64.40,82.98,290.00,8.00,0.00,30.00,M,6.21,M,M,M,M,M,M,M,M,M,M,YBBN 191500Z 29008KT CAVOK 21/18 Q1016 INTER 1700/1800 3000 SHRA BKN010
YBBN,2014-11-19 15:30,153.1292,-27.3917,68.00,64.40,88.26,280.00,5.00,0.00,29.97,M,6.21,M,M,M,M,M,M,M,M,M,M,YBBN 191530Z 28005KT CAVOK 20/18 Q1015
YBBN,2014-11-19 16:00,153.1292,-27.3917,68.00,64.40,88.26,240.00,5.00,0.00,29.97,M,6.21,M,M,M,M,M,M,M,M,M,M,YBBN 191600Z 24005KT CAVOK 20/18 Q1015 INTER 1700/1900 3000 SHRA BKN010
YBBN,2014-11-19 16:30,153.1292,-27.3917,68.00,64.40,88.26,280.00,6.00,0.00,29.97,M,6.21,M,M,M,M,M,M,M,M,M,M,YBBN 191630Z 28006KT CAVOK 20/18 Q1015
YBBN,2014-11-19 17:00,153.1292,-27.3917,68.00,66.20,93.97,210.00,4.00,0.00,30.00,M,6.21,M,M,M,M,M,M,M,M,M,M,YBBN 191700Z 21004KT CAVOK 20/19 Q1016 INTER 1800/2000 3000 SHRA BKN010
YBBN,2014-11-19 17:30,153.1292,-27.3917,68.00,66.20,93.97,150.00,4.00,0.00,30.00,M,6.21,M,FEW,SCT,M,M,1200.00,15000.00,M,M,M,YBBN 191730Z 15004KT 9999 FEW012 SCT150 20/19 Q1016
YBBN,2014-11-19 18:00,153.1292,-27.3917,68.00,66.20,93.97,0.00,0.00,0.00,30.00,M,6.21,M,FEW,SCT,M,M,1200.00,15000.00,M,M,M,YBBN 191800Z 00000KT 9999 FEW012 SCT150 20/19 Q1016
YBBN,2014-11-19 18:30,153.1292,-27.3917,66.20,64.40,93.92,150.00,1.00,0.00,30.00,M,6.21,M,M,M,M,M,M,M,M,M,M,YBBN 191830Z 15001KT CAVOK 19/18 Q1016
YBBN,2014-11-19 19:00,153.1292,-27.3917,68.00,66.20,93.97,0.00,0.00,0.00,30.03,M,6.21,M,FEW,BKN,M,M,1400.00,14000.00,M,M,M,YBBN 191900Z 00000KT 9999 FEW014 BKN140 20/19 Q1017
YBBN,2014-11-19 19:30,153.1292,-27.3917,69.80,68.00,94.01,0.00,0.00,0.00,30.03,M,6.21,M,FEW,SCT,M,M,1200.00,14500.00,M,M,M,YBBN 191930Z 00000KT 9999 FEW012 SCT145 21/20 Q1017
YBBN,2014-11-19 20:00,153.1292,-27.3917,71.60,68.00,88.43,0.00,0.00,0.00,30.03,M,6.21,M,FEW,M,M,M,1500.00,M,M,M,M,YBBN 192000Z 00000KT 9999 FEW015 22/20 Q1017 NOSIG
YBBN,2014-11-19 20:30,153.1292,-27.3917,73.40,66.20,78.19,60.00,5.00,0.00,30.06,M,6.21,M,FEW,BKN,M,M,1400.00,3600.00,M,M,M,YBBN 192030Z 06005KT 9999 FEW014 BKN036 23/19 Q1018
YBBN,2014-11-19 21:00,153.1292,-27.3917,75.20,64.40,69.14,360.00,5.00,0.00,30.06,M,6.21,M,FEW,BKN,M,M,1600.00,3800.00,M,M,M,YBBN 192100Z 36005KT 9999 FEW016 BKN038 24/18 Q1018
YBBN,2014-11-19 21:30,153.1292,-27.3917,75.20,68.00,78.34,30.00,6.00,0.00,30.06,M,6.21,M,FEW,SCT,M,M,1700.00,4000.00,M,M,M,YBBN 192130Z 03006KT 9999 FEW017 SCT040 24/20 Q1018
YBBN,2014-11-19 22:00,153.1292,-27.3917,77.00,66.20,69.33,20.00,8.00,0.00,30.06,M,6.21,M,FEW,SCT,M,M,2000.00,2300.00,M,M,M,YBBN 192200Z 02008KT 9999 FEW020 SCT023 25/19 Q1018 NOSIG
YBBN,2014-11-19 22:30,153.1292,-27.3917,77.00,64.40,65.12,20.00,9.00,0.00,30.06,M,6.21,M,FEW,SCT,M,M,2000.00,2500.00,M,M,M,YBBN 192230Z 02009KT 9999 FEW020 SCT025 25/18 Q1018
YBBN,2014-11-19 23:00,153.1292,-27.3917,77.00,64.40,65.12,20.00,9.00,0.00,30.06,M,6.21,M,FEW,SCT,M,M,2200.00,2700.00,M,M,M,YBBN 192300Z 02009KT 9999 FEW022 SCT027 25/18 Q1018 NOSIG
YBBN,2014-11-19 23:30,153.1292,-27.3917,78.80,64.40,61.36,20.00,9.00,0.00,30.06,M,6.21,M,FEW,SCT,M,M,2200.00,2800.00,M,M,M,YBBN 192330Z 02009KT 9999 FEW022 SCT028 26/18 Q1018
