#DEBUG: Format Typ    -> comma
#DEBUG: Time Period   -> 2016-05-23 00:00:00+00:00 2016-05-24 00:00:00+00:00
#DEBUG: Time Zone     -> Etc/UTC
#DEBUG: Data Contact   -> daryl herzmann akrherz@iastate.edu 515-294-5978
#DEBUG: Entries Found -> -1
station,valid,lon,lat,tmpf, dwpf, relh, drct, sknt, p01i, alti, mslp, vsby, gust, skyc1, skyc2, skyc3, skyc4, skyl1, skyl2, skyl3, skyl4, presentwx, metar
YBBN,2016-05-23 00:00,153.1292,-27.3917,71.60,59.00,64.48,290.00,5.00,0.00,30.12,M,6.21,M,FEW,SCT,M,M,3000.00,28000.00,M,M,M,YBBN 230000Z 29005KT 260V330 9999 FEW030 SCT280 22/15 Q1020
YBBN,2016-05-23 01:30,153.1292,-27.3917,78.80,59.00,50.69,360.00,8.00,0.00,30.06,M,6.21,M,FEW,M,M,M,4000.00,M,M,M,M,YBBN 230130Z 36008KT 9999 FEW040 26/15 Q1018 NOSIG
YBBN,2016-05-23 02:00,153.1292,-27.3917,75.20,59.00,57.12,20.00,9.00,0.00,30.03,M,6.21,M,FEW,M,M,M,4000.00,M,M,M,M,YBBN 230200Z 02009KT 9999 FEW040 24/15 Q1017 NOSIG
YBBN,2016-05-23 02:30,153.1292,-27.3917,77.00,59.00,53.80,10.00,9.00,0.00,30.03,M,6.21,M,FEW,M,M,M,4000.00,M,M,M,M,YBBN 230230Z 01009KT 9999 FEW040 25/15 Q1017 NOSIG
YBBN,2016-05-23 03:00,153.1292,-27.3917,75.20,59.00,57.12,20.00,9.00,0.00,30.00,M,6.21,M,FEW,M,M,M,3600.00,M,M,M,M,YBBN 230300Z 02009KT 9999 FEW036 24/15 Q1016 NOSIG
YBBN,2016-05-23 03:30,153.1292,-27.3917,77.00,59.00,53.80,10.00,11.00,0.00,29.97,M,6.21,M,FEW,M,M,M,3600.00,M,M,M,M,YBBN 230330Z 01011KT 9999 FEW036 25/15 Q1015 NOSIG
YBBN,2016-05-23 04:00,153.1292,-27.3917,77.00,59.00,53.80,10.00,10.00,0.00,29.97,M,6.21,M,FEW,M,M,M,3600.00,M,M,M,M,YBBN 230400Z 01010KT 9999 FEW036 25/15 Q1015 NOSIG
YBBN,2016-05-23 04:30,153.1292,-27.3917,75.20,60.80,60.90,30.00,12.00,0.00,29.97,M,6.21,M,FEW,M,M,M,3200.00,M,M,M,M,YBBN 230430Z 03012KT 9999 FEW032 24/16 Q1015 NOSIG
YBBN,2016-05-23 05:00,153.1292,-27.3917,75.20,60.80,60.90,30.00,11.00,0.00,29.97,M,6.21,M,FEW,M,M,M,2800.00,M,M,M,M,YBBN 230500Z 03011KT 9999 FEW028 24/16 Q1015 NOSIG
YBBN,2016-05-23 05:30,153.1292,-27.3917,75.20,60.80,60.90,20.00,12.00,0.00,29.97,M,6.21,M,FEW,SCT,M,M,2800.00,28000.00,M,M,M,YBBN 230530Z 02012KT 9999 FEW028 SCT280 24/16 Q1015 NOSIG
YBBN,2016-05-23 06:00,153.1292,-27.3917,73.40,62.60,68.94,10.00,13.00,0.00,29.97,M,6.21,M,FEW,SCT,M,M,2400.00,28000.00,M,M,M,YBBN 230600Z 01013KT 9999 FEW024 SCT280 23/17 Q1015
YBBN,2016-05-23 08:00,153.1292,-27.3917,71.60,60.80,68.75,360.00,11.00,0.00,30.00,M,6.21,M,M,M,M,M,M,M,M,M,M,YBBN 230800Z 36011KT CAVOK 22/16 Q1016 NOSIG
YBBN,2016-05-23 08:30,153.1292,-27.3917,69.80,60.80,73.09,360.00,11.00,0.00,30.00,M,6.21,M,M,M,M,M,M,M,M,M,M,YBBN 230830Z 36011KT CAVOK 21/16 Q1016 NOSIG
YBBN,2016-05-23 09:00,153.1292,-27.3917,69.80,60.80,73.09,350.00,11.00,0.00,30.00,M,6.21,M,M,M,M,M,M,M,M,M,M,YBBN 230900Z 35011KT CAVOK 21/16 Q1016 NOSIG
YBBN,2016-05-23 09:30,153.1292,-27.3917,69.80,60.80,73.09,350.00,11.00,0.00,30.00,M,6.21,M,M,M,M,M,M,M,M,M,M,YBBN 230930Z 35011KT CAVOK 21/16 Q1016 NOSIG
YBBN,2016-05-23 10:00,153.1292,-27.3917,69.80,60.80,73.09,350.00,10.00,0.00,30.03,M,6.21,M,M,M,M,M,M,M,M,M,M,YBBN 231000Z 35010KT CAVOK 21/16 Q1017 NOSIG
YBBN,2016-05-23 10:30,153.1292,-27.3917,68.00,59.00,72.92,350.00,8.00,0.00,30.00,M,6.21,M,M,M,M,M,M,M,M,M,M,YBBN 231030Z 35008KT CAVOK 20/15 Q1016 NOSIG
YBBN,2016-05-23 11:00,153.1292,-27.3917,68.00,59.00,72.92,350.00,9.00,0.00,30.00,M,6.21,M,M,M,M,M,M,M,M,M,M,YBBN 231100Z 35009KT CAVOK 20/15 Q1016 NOSIG
YBBN,2016-05-23 11:30,153.1292,-27.3917,68.00,59.00,72.92,350.00,9.00,0.00,30.00,M,6.21,M,M,M,M,M,M,M,M,M,M,YBBN 231130Z 35009KT CAVOK 20/15 Q1016 NOSIG
YBBN,2016-05-23 12:00,153.1292,-27.3917,66.20,60.80,82.74,330.00,6.00,0.00,30.00,M,6.21,M,M,M,M,M,M,M,M,M,M,YBBN 231200Z 33006KT CAVOK 19/16 Q1016
YBBN,2016-05-23 14:00,153.1292,-27.3917,64.40,59.00,82.62,330.00,4.00,0.00,30.00,M,6.21,M,M,M,M,M,M,M,M,M,M,YBBN 231400Z 33004KT CAVOK 18/15 Q1016
YBBN,2016-05-23 15:00,153.1292,-27.3917,64.40,59.00,82.62,310.00,4.00,0.00,29.97,M,6.21,M,M,M,M,M,M,M,M,M,M,YBBN 231500Z 31004KT CAVOK 18/15 Q1015
YBBN,2016-05-23 15:30,153.1292,-27.3917,62.60,59.00,88.00,260.00,4.00,0.00,29.97,M,6.21,M,M,M,M,M,M,M,M,M,M,YBBN 231530Z 26004KT CAVOK 17/15 Q1015 NOSIG
YBBN,2016-05-23 16:00,153.1292,-27.3917,60.80,57.20,87.92,260.00,4.00,0.00,29.97,M,6.21,M,M,M,M,M,M,M,M,M,M,YBBN 231600Z 26004KT CAVOK 16/14 Q1015
YBBN,2016-05-23 16:30,153.1292,-27.3917,60.80,57.20,87.92,200.00,5.00,0.00,29.97,M,6.21,M,M,M,M,M,M,M,M,M,M,YBBN 231630Z 20005KT CAVOK 16/14 Q1015 NOSIG
YBBN,2016-05-23 17:00,153.1292,-27.3917,59.00,57.20,93.74,220.00,6.00,0.00,29.97,M,6.21,M,M,M,M,M,M,M,M,M,M,YBBN 231700Z 22006KT CAVOK 15/14 Q1015 NOSIG
YBBN,2016-05-23 17:30,153.1292,-27.3917,60.80,57.20,87.92,210.00,3.00,0.00,29.97,M,6.21,M,M,M,M,M,M,M,M,M,M,YBBN 231730Z 21003KT CAVOK 16/14 Q1015 NOSIG
YBBN,2016-05-23 18:00,153.1292,-27.3917,59.00,57.20,93.74,0.00,0.00,0.00,29.97,M,6.21,M,M,M,M,M,M,M,M,M,M,YBBN 231800Z 00000KT CAVOK 15/14 Q1015
YBBN,2016-05-23 18:30,153.1292,-27.3917,60.80,57.20,87.92,200.00,5.00,0.00,29.97,M,6.21,M,M,M,M,M,M,M,M,M,M,YBBN 231830Z 20005KT CAVOK 16/14 Q1015 NOSIG
YBBN,2016-05-23 19:00,153.1292,-27.3917,60.80,57.20,87.92,200.00,4.00,0.00,29.97,M,6.21,M,M,M,M,M,M,M,M,M,M,YBBN 231900Z 20004KT CAVOK 16/14 Q1015 NOSIG
YBBN,2016-05-23 19:30,153.1292,-27.3917,59.00,57.20,93.74,200.00,6.00,0.00,29.97,M,6.21,M,M,M,M,M,M,M,M,M,// //////,YBBN 231930Z 20006KT //// // ////// 15/14 Q1015 NOSIG
YBBN,2016-05-23 21:30,153.1292,-27.3917,62.60,55.40,77.29,200.00,5.00,0.00,30.00,M,6.21,M,M,M,M,M,M,M,M,M,M,YBBN 232130Z 20005KT CAVOK 17/13 Q1016 NOSIG
YBBN,2016-05-23 22:00,153.1292,-27.3917,66.20,55.40,68.15,180.00,6.00,0.00,30.03,M,6.21,M,M,M,M,M,M,M,M,M,M,YBBN 232200Z 18006KT 100V210 CAVOK 19/13 Q1017
YBBN,2016-05-23 22:30,153.1292,-27.3917,69.80,55.40,60.21,110.00,4.00,0.00,30.03,M,6.21,M,M,M,M,M,M,M,M,M,M,YBBN 232230Z 11004KT 090V150 CAVOK 21/13 Q1017 NOSIG
YBBN,2016-05-23 23:00,153.1292,-27.3917,71.60,55.40,56.63,180.00,5.00,0.00,30.06,M,6.21,M,M,M,M,M,M,M,M,M,M,YBBN 232300Z 18005KT CAVOK 22/13 Q1018 NOSIG
