#DEBUG: Format Typ    -> comma
#DEBUG: Time Period   -> 2011-08-06 00:00:00+00:00 2011-08-07 00:00:00+00:00
#DEBUG: Time Zone     -> Etc/UTC
#DEBUG: Data Contact   -> daryl herzmann akrherz@iastate.edu 515-294-5978
#DEBUG: Entries Found -> -1
station,valid,lon,lat,tmpf, dwpf, relh, drct, sknt, p01i, alti, mslp, vsby, gust, skyc1, skyc2, skyc3, skyc4, skyl1, skyl2, skyl3, skyl4, presentwx, metar
YBBN,2011-08-06 00:00,153.1292,-27.3917,66.20,51.80,59.74,230.00,6.00,M,30.27,M,6.21,M,FEW,M,M,M,3800.00,M,M,M,M,YBBN 060000Z 23006KT 9999 FEW038 19/11 Q1025 RMK FU/HZ FM0200 02008KT 9999 -SHRA SCT040 SCT070
YBBN,2011-08-06 00:30,153.1292,-27.3917,71.60,51.80,49.64,260.00,2.00,M,30.27,M,6.21,M,FEW,M,M,M,3800.00,M,M,M,M,YBBN 060030Z 26002KT 9999 FEW038 22/11 Q1025 RMK FU/HZ FM0200 02008KT 9999 -SHRA SCT040 SCT070
YBBN,2011-08-06 01:00,153.1292,-27.3917,71.60,50.00,46.43,350.00,7.00,M,30.24,M,6.21,M,FEW,M,M,M,3600.00,M,M,M,M,YBBN 060100Z 35007KT 9999 FEW036 22/10 Q1024 RMK FU/HZ FM0200 02008KT 9999 -SHRA SCT040 SCT070
YBBN,2011-08-06 01:30,153.1292,-27.3917,71.60,50.00,46.43,20.00,5.00,M,30.24,M,6.21,M,FEW,M,M,M,3600.00,M,M,M,M,YBBN 060130Z 02005KT 9999 FEW036 22/10 Q1024 RMK FU/HZ NOSIG
YBBN,2011-08-06 02:00,153.1292,-27.3917,71.60,50.00,46.43,10.00,7.00,M,30.21,M,6.21,M,SCT,M,M,M,3800.00,M,M,M,M,YBBN 060200Z 01007KT 9999 SCT038 22/10 Q1023 NOSIG
YBBN,2011-08-06 02:30,153.1292,-27.3917,71.60,50.00,46.43,360.00,8.00,M,30.21,M,6.21,M,SCT,M,M,M,4000.00,M,M,M,M,YBBN 060230Z 36008KT 9999 SCT040 22/10 Q1023 NOSIG
YBBN,2011-08-06 03:00,153.1292,-27.3917,71.60,51.80,49.64,20.00,7.00,M,30.18,M,6.21,M,SCT,M,M,M,4000.00,M,M,M,M,YBBN 060300Z 02007KT 9999 SCT040 22/11 Q1022 NOSIG
YBBN,2011-08-06 03:30,153.1292,-27.3917,73.40,50.00,43.69,10.00,8.00,M,30.18,M,6.21,M,SCT,M,M,M,4300.00,M,M,M,M,YBBN 060330Z 01008KT 9999 SCT043 23/10 Q1022 NOSIG
YBBN,2011-08-06 04:00,153.1292,-27.3917,69.80,51.80,52.77,20.00,9.00,M,30.18,M,6.21,M,SCT,M,M,M,4300.00,M,M,M,M,YBBN 060400Z 02009KT 9999 SCT043 21/11 Q1022 NOSIG
YBBN,2011-08-06 04:30,153.1292,-27.3917,71.60,51.80,49.64,30.00,8.00,M,30.15,M,6.21,M,SCT,M,M,M,4200.00,M,M,M,M,YBBN 060430Z 03008KT 9999 SCT042 22/11 Q1021 NOSIG
YBBN,2011-08-06 05:00,153.1292,-27.3917,69.80,53.60,56.38,50.00,9.00,M,30.15,M,6.21,M,FEW,SCT,M,M,4000.00,8500.00,M,M,M,YBBN 060500Z 05009KT 9999 FEW040 SCT085 21/12 Q1021 NOSIG
YBBN,2011-08-06 05:30,153.1292,-27.3917,69.80,53.60,56.38,50.00,8.00,M,30.15,M,6.21,M,FEW,SCT,M,M,3800.00,9500.00,M,M,M,YBBN 060530Z 05008KT 9999 FEW038 SCT095 21/12 Q1021 NOSIG
YBBN,2011-08-06 06:00,153.1292,-27.3917,68.00,53.60,59.97,40.00,8.00,M,30.15,M,6.21,M,FEW,SCT,M,M,3500.00,9500.00,M,M,M,YBBN 060600Z 04008KT 9999 FEW035 SCT095 20/12 Q1021 NOSIG
YBBN,2011-08-06 06:30,153.1292,-27.3917,68.00,55.40,64.04,40.00,8.00,M,30.15,M,6.21,M,FEW,SCT,M,M,3500.00,10000.00,M,M,M,YBBN 060630Z 04008KT 9999 FEW035 SCT100 20/13 Q1021 RMK FU/HZ NOSIG
YBBN,2011-08-06 07:00,153.1292,-27.3917,64.40,53.60,67.95,30.00,8.00,M,30.15,M,6.21,M,FEW,SCT,M,M,3500.00,10000.00,M,M,M,YBBN 060700Z 03008KT 9999 FEW035 SCT100 18/12 Q1021 RMK FU/HZ NOSIG
YBBN,2011-08-06 07:30,153.1292,-27.3917,62.60,55.40,77.29,10.00,6.00,M,30.18,M,6.21,M,FEW,SCT,M,M,3300.00,10000.00,M,M,M,YBBN 060730Z 01006KT 9999 FEW033 SCT100 17/13 Q1022 RMK FU/HZ NOSIG
YBBN,2011-08-06 08:00,153.1292,-27.3917,60.80,55.40,82.37,10.00,4.00,M,30.18,M,6.21,M,FEW,BKN,M,M,3300.00,10000.00,M,M,M,YBBN 060800Z 01004KT 9999 FEW033 BKN100 16/13 Q1022 RMK VIRGA
YBBN,2011-08-06 08:30,153.1292,-27.3917,60.80,55.40,82.37,360.00,3.00,M,30.18,M,6.21,M,FEW,SCT,M,M,3300.00,11000.00,M,M,M,YBBN 060830Z 36003KT 9999 FEW033 SCT110 16/13 Q1022 RMK FU/HZ NOSIG
YBBN,2011-08-06 09:00,153.1292,-27.3917,59.00,55.40,87.83,30.00,5.00,M,30.18,M,6.21,M,M,M,M,M,M,M,M,M,M,YBBN 060900Z 03005KT CAVOK 15/13 Q1022 NOSIG
YBBN,2011-08-06 09:30,153.1292,-27.3917,59.00,57.20,93.74,360.00,4.00,M,30.18,M,6.21,M,FEW,SCT,M,M,3000.00,11000.00,M,M,M,YBBN 060930Z 36004KT 9999 FEW030 SCT110 15/14 Q1022 NOSIG
YBBN,2011-08-06 10:00,153.1292,-27.3917,59.00,57.20,93.74,360.00,3.00,M,30.18,M,6.21,M,FEW,SCT,M,M,3000.00,10000.00,M,M,M,YBBN 061000Z 36003KT 9999 FEW030 SCT100 15/14 Q1022 NOSIG
YBBN,2011-08-06 10:30,153.1292,-27.3917,60.80,57.20,87.92,360.00,3.00,M,30.18,M,6.21,M,FEW,BKN,M,M,3000.00,11000.00,M,M,M,YBBN 061030Z 36003KT 9999 FEW030 BKN110 16/14 Q1022 NOSIG
YBBN,2011-08-06 11:00,153.1292,-27.3917,60.80,57.20,87.92,0.00,0.00,M,30.18,M,6.21,M,M,M,M,M,M,M,M,M,M,YBBN 061100Z 00000KT CAVOK 16/14 Q1022 RMK 7AC110 NOSIG
YBBN,2011-08-06 11:30,153.1292,-27.3917,60.80,57.20,87.92,0.00,0.00,M,30.18,M,6.21,M,M,M,M,M,M,M,M,M,M,YBBN 061130Z 00000KT CAVOK 16/14 Q1022 RMK 7AC100 NOSIG
YBBN,2011-08-06 12:00,153.1292,-27.3917,60.80,59.00,93.79,0.00,0.00,M,30.18,M,6.21,M,M,M,M,M,M,M,M,M,M,YBBN 061200Z 00000KT CAVOK 16/15 Q1022 RMK HZ 6AC110 NOSIG
YBBN,2011-08-06 12:30,153.1292,-27.3917,59.00,57.20,93.74,340.00,2.00,M,30.18,M,6.21,M,M,M,M,M,M,M,M,M,M,YBBN 061230Z 34002KT CAVOK 15/14 Q1022 RMK 5AC110 NOSIG
YBBN,2011-08-06 13:00,153.1292,-27.3917,59.00,57.20,93.74,320.00,4.00,M,30.18,M,6.21,M,M,M,M,M,M,M,M,M,M,YBBN 061300Z 32004KT CAVOK 15/14 Q1022 RMK 6AC110 NOSIG
YBBN,2011-08-06 13:30,153.1292,-27.3917,59.00,57.20,93.74,350.00,2.00,M,30.18,M,6.21,M,M,M,M,M,M,M,M,M,M,YBBN 061330Z 35002KT CAVOK 15/14 Q1022 RMK 6AC110 NOSIG
YBBN,2011-08-06 14:00,153.1292,-27.3917,59.00,57.20,93.74,0.00,0.00,M,30.18,M,6.21,M,M,M,M,M,M,M,M,M,M,YBBN 061400Z 00000KT CAVOK 15/14 Q1022 NOSIG
YBBN,2011-08-06 14:30,153.1292,-27.3917,59.00,57.20,93.74,0.00,0.00,M,30.18,M,6.21,M,M,M,M,M,M,M,M,M,M,YBBN 061430Z 00000KT CAVOK 15/14 Q1022 RMK 7AC110 NOSIG
YBBN,2011-08-06 15:00,153.1292,-27.3917,57.20,55.40,93.69,290.00,3.00,M,30.15,M,6.21,M,M,M,M,M,M,M,M,M,M,YBBN 061500Z 29003KT CAVOK 14/13 Q1021 RMK 7AC110 NOSIG
YBBN,2011-08-06 15:30,153.1292,-27.3917,59.00,55.40,87.83,0.00,0.00,M,30.15,M,6.21,M,M,M,M,M,M,M,M,M,M,YBBN 061530Z 00000KT CAVOK 15/13 Q1021 RMK 7AC110 NOSIG
YBBN,2011-08-06 16:00,153.1292,-27.3917,59.00,55.40,87.83,0.00,0.00,M,30.15,M,6.21,M,M,M,M,M,M,M,M,M,M,YBBN 061600Z 00000KT CAVOK 15/13 Q1021 RMK 7AC110 NOSIG
YBBN,2011-08-06 16:30,153.1292,-27.3917,57.20,55.40,93.69,0.00,0.00,M,30.12,M,6.21,M,M,M,M,M,M,M,M,M,M,YBBN 061630Z 00000KT CAVOK 14/13 Q1020 RMK 7AC110 NOSIG
YBBN,2011-08-06 17:00,153.1292,-27.3917,57.20,55.40,93.69,340.00,3.00,M,30.12,M,6.21,M,M,M,M,M,M,M,M,M,M,YBBN 061700Z 34003KT CAVOK 14/13 Q1020 RMK 7AC110 NOSIG
YBBN,2011-08-06 17:30,153.1292,-27.3917,55.40,53.60,93.65,340.00,2.00,M,30.12,M,6.21,M,M,M,M,M,M,M,M,M,M,YBBN 061730Z 34002KT CAVOK 13/12 Q1020 RMK 7AC110 NOSIG
YBBN,2011-08-06 18:00,153.1292,-27.3917,57.20,53.60,87.74,250.00,1.00,M,30.12,M,6.21,M,M,M,M,M,M,M,M,M,M,YBBN 061800Z 25001KT CAVOK 14/12 Q1020 RMK 7AC110 NOSIG
YBBN,2011-08-06 18:30,153.1292,-27.3917,55.40,53.60,93.65,0.00,0.00,M,30.12,M,6.21,M,M,M,M,M,M,M,M,M,M,YBBN 061830Z 00000KT CAVOK 13/12 Q1020 RMK 7AC110 NOSIG
YBBN,2011-08-06 19:00,153.1292,-27.3917,57.20,55.40,93.69,0.00,0.00,M,30.12,M,6.21,M,M,M,M,M,M,M,M,M,M,YBBN 061900Z 00000KT CAVOK 14/13 Q1020 RMK 6AC110 NOSIG
YBBN,2011-08-06 19:30,153.1292,-27.3917,55.40,53.60,93.65,0.00,0.00,M,30.12,M,6.21,M,M,M,M,M,M,M,M,M,M,YBBN 061930Z 00000KT CAVOK 13/12 Q1020 RMK HZ 6AC100 NOSIG
YBBN,2011-08-06 20:00,153.1292,-27.3917,55.40,53.60,93.65,0.00,0.00,M,30.12,M,6.21,M,FEW,BKN,M,M,2000.00,10000.00,M,M,M,YBBN 062000Z 00000KT 9999 FEW020 BKN100 13/12 Q1020 RMK HZ NOSIG
YBBN,2011-08-06 20:30,153.1292,-27.3917,55.40,53.60,93.65,260.00,3.00,M,30.15,M,6.21,M,FEW,BKN,M,M,2500.00,10000.00,M,M,M,YBBN 062030Z 26003KT 9999 FEW025 BKN100 13/12 Q1021 RMK FU NOSIG
YBBN,2011-08-06 21:00,153.1292,-27.3917,57.20,53.60,87.74,270.00,2.00,M,30.15,M,6.21,M,FEW,BKN,M,M,2500.00,10000.00,M,M,M,YBBN 062100Z 27002KT 9999 FEW025 BKN100 14/12 Q1021 RMK FU NOSIG
YBBN,2011-08-06 21:30,153.1292,-27.3917,59.00,55.40,87.83,200.00,3.00,M,30.15,M,6.21,M,M,M,M,M,M,M,M,M,M,YBBN 062130Z 20003KT CAVOK 15/13 Q1021 RMK FU/HZ 7AC105 NOSIG
YBBN,2011-08-06 22:00,153.1292,-27.3917,62.60,55.40,77.29,40.00,5.00,M,30.15,M,6.21,M,FEW,BKN,M,M,3800.00,10500.00,M,M,M,YBBN 062200Z 04005KT 9999 FEW038 BKN105 17/13 Q1021 RMK FU/HZ NOSIG
YBBN,2011-08-06 22:30,153.1292,-27.3917,64.40,55.40,72.56,200.00,6.00,M,30.12,M,6.21,M,M,M,M,M,M,M,M,M,M,YBBN 062230Z 20006KT CAVOK 18/13 Q1020 NOSIG
YBBN,2011-08-06 23:00,153.1292,-27.3917,68.00,51.80,56.13,220.00,5.00,M,30.12,M,6.21,M,M,M,M,M,M,M,M,M,M,YBBN 062300Z 22005KT CAVOK 20/11 Q1020 NOSIG
YBBN,2011-08-06 23:30,153.1292,-27.3917,68.00,51.80,56.13,300.00,5.00,M,30.12,M,6.21,M,M,M,M,M,M,M,M,M,M,YBBN 062330Z 30005KT CAVOK 20/11 Q1020 NOSIG
