#DEBUG: Format Typ    -> comma
#DEBUG: Time Period   -> 2015-12-15 00:00:00+00:00 2015-12-16 00:00:00+00:00
#DEBUG: Time Zone     -> Etc/UTC
#DEBUG: Data Contact   -> daryl herzmann akrherz@iastate.edu 515-294-5978
#DEBUG: Entries Found -> -1
station,valid,lon,lat,tmpf, dwpf, relh, drct, sknt, p01i, alti, mslp, vsby, gust, skyc1, skyc2, skyc3, skyc4, skyl1, skyl2, skyl3, skyl4, presentwx, metar
YBBN,2015-12-15 00:00,153.1292,-27.3917,78.80,62.60,57.60,70.00,7.00,0.00,30.00,M,6.21,M,FEW,BKN,M,M,3500.00,3900.00,M,M,M,YBBN 150000Z 07007KT 9999 FEW035 BKN039 26/17 Q1016 NOSIG
YBBN,2015-12-15 00:30,153.1292,-27.3917,80.60,62.60,54.30,50.00,8.00,0.00,30.00,M,6.21,M,SCT,M,M,M,3700.00,M,M,M,M,YBBN 150030Z 05008KT 9999 SCT037 27/17 Q1016 NOSIG
YBBN,2015-12-15 01:00,153.1292,-27.3917,80.60,62.60,54.30,10.00,11.00,0.00,29.97,M,6.21,M,FEW,M,M,M,3500.00,M,M,M,M,YBBN 150100Z 01011KT 9999 FEW035 27/17 Q1015 NOSIG
YBBN,2015-12-15 01:30,153.1292,-27.3917,82.40,66.20,58.08,20.00,10.00,0.00,29.97,M,6.21,M,FEW,M,M,M,3500.00,M,M,M,M,YBBN 150130Z 02010KT 9999 FEW035 28/19 Q1015 NOSIG
YBBN,2015-12-15 02:00,153.1292,-27.3917,80.60,64.40,57.84,20.00,10.00,0.00,29.97,M,6.21,M,FEW,BKN,M,M,3300.00,28000.00,M,M,M,YBBN 150200Z 02010KT 9999 FEW033 BKN280 27/18 Q1015 NOSIG
YBBN,2015-12-15 02:30,153.1292,-27.3917,80.60,64.40,57.84,10.00,11.00,0.00,29.94,M,6.21,M,FEW,BKN,M,M,3500.00,28000.00,M,M,M,YBBN 150230Z 01011KT 9999 FEW035 BKN280 27/18 Q1014 NOSIG
YBBN,2015-12-15 03:00,153.1292,-27.3917,80.60,64.40,57.84,30.00,11.00,0.00,29.94,M,6.21,M,FEW,BKN,M,M,3500.00,28000.00,M,M,M,YBBN 150300Z 03011KT 9999 FEW035 BKN280 27/18 Q1014 NOSIG
YBBN,2015-12-15 03:30,153.1292,-27.3917,82.40,64.40,54.55,40.00,11.00,0.00,29.94,M,6.21,M,FEW,BKN,M,M,3700.00,28000.00,M,M,M,YBBN 150330Z 04011KT 9999 FEW037 BKN280 28/18 Q1014 NOSIG
YBBN,2015-12-15 04:00,153.1292,-27.3917,80.60,64.40,57.84,40.00,11.00,0.00,29.91,M,6.21,M,FEW,BKN,M,M,3500.00,28000.00,M,M,M,YBBN 150400Z 04011KT 9999 FEW035 BKN280 27/18 Q1013 NOSIG
YBBN,2015-12-15 04:30,153.1292,-27.3917,82.40,64.40,54.55,50.00,12.00,0.00,29.91,M,6.21,M,FEW,BKN,M,M,3500.00,28000.00,M,M,M,YBBN 150430Z 05012KT 9999 FEW035 BKN280 28/18 Q1013 NOSIG
YBBN,2015-12-15 05:00,153.1292,-27.3917,80.60,64.40,57.84,40.00,13.00,0.00,29.91,M,6.21,M,FEW,BKN,M,M,3500.00,28000.00,M,M,M,YBBN 150500Z 04013KT 9999 FEW035 BKN280 27/18 Q1013
YBBN,2015-12-15 05:30,153.1292,-27.3917,80.60,62.60,54.30,50.00,13.00,0.00,29.88,M,6.21,M,FEW,BKN,M,M,3500.00,28000.00,M,M,M,YBBN 150530Z 05013KT 9999 FEW035 BKN280 27/17 Q1012 NOSIG
YBBN,2015-12-15 06:00,153.1292,-27.3917,78.80,64.40,61.36,50.00,10.00,0.00,29.88,M,6.21,M,FEW,BKN,M,M,3300.00,28000.00,M,M,M,YBBN 150600Z 05010KT 9999 FEW033 BKN280 26/18 Q1012 NOSIG
YBBN,2015-12-15 06:30,153.1292,-27.3917,78.80,64.40,61.36,50.00,11.00,0.00,29.88,M,6.21,M,FEW,BKN,M,M,3200.00,28000.00,M,M,M,YBBN 150630Z 05011KT 9999 FEW032 BKN280 26/18 Q1012 NOSIG
YBBN,2015-12-15 07:00,153.1292,-27.3917,78.80,64.40,61.36,50.00,10.00,0.00,29.91,M,6.21,M,FEW,BKN,M,M,3200.00,28000.00,M,M,M,YBBN 150700Z 05010KT 9999 FEW032 BKN280 26/18 Q1013 NOSIG
YBBN,2015-12-15 07:30,153.1292,-27.3917,77.00,64.40,65.12,40.00,9.00,0.00,29.91,M,6.21,M,FEW,SCT,BKN,M,3000.00,14000.00,28000.00,M,M,YBBN 150730Z 04009KT 9999 FEW030 SCT140 BKN280 25/18 Q1013 NOSIG
YBBN,2015-12-15 08:00,153.1292,-27.3917,75.20,64.40,69.14,40.00,9.00,0.00,29.91,M,6.21,M,FEW,SCT,BKN,M,2800.00,14000.00,28000.00,M,M,YBBN 150800Z 04009KT 9999 FEW028 SCT140 BKN280 24/18 Q1013 NOSIG
YBBN,2015-12-15 08:30,153.1292,-27.3917,75.20,64.40,69.14,60.00,8.00,0.00,29.94,M,6.21,M,FEW,SCT,BKN,M,2600.00,17000.00,28000.00,M,M,YBBN 150830Z 06008KT 9999 FEW026 SCT170 BKN280 24/18 Q1014 NOSIG
YBBN,2015-12-15 09:00,153.1292,-27.3917,75.20,62.60,64.91,50.00,8.00,0.00,29.94,M,6.21,M,FEW,SCT,BKN,M,3000.00,16000.00,18000.00,M,M,YBBN 150900Z 05008KT 9999 FEW030 SCT160 BKN180 24/17 Q1014
YBBN,2015-12-15 09:30,153.1292,-27.3917,75.20,64.40,69.14,70.00,6.00,0.00,29.94,M,6.21,M,FEW,BKN,M,M,2800.00,16000.00,M,M,M,YBBN 150930Z 07006KT 9999 FEW028 BKN160 24/18 Q1014 NOSIG
YBBN,2015-12-15 10:00,153.1292,-27.3917,75.20,64.40,69.14,80.00,5.00,0.00,29.97,M,6.21,M,SCT,SCT,BKN,M,2700.00,14000.00,18500.00,M,M,YBBN 151000Z 08005KT 9999 SCT027 SCT140 BKN185 24/18 Q1015
YBBN,2015-12-15 10:30,153.1292,-27.3917,75.20,64.40,69.14,80.00,4.00,0.00,29.97,M,6.21,M,FEW,BKN,M,M,2900.00,16500.00,M,M,M,YBBN 151030Z 08004KT 9999 FEW029 BKN165 24/18 Q1015 NOSIG
YBBN,2015-12-15 11:00,153.1292,-27.3917,73.40,64.40,73.44,70.00,1.00,0.00,29.97,M,6.21,M,FEW,BKN,BKN,M,2900.00,14000.00,16500.00,M,M,YBBN 151100Z 07001KT 9999 FEW029 BKN140 BKN165 23/18 Q1015 NOSIG
YBBN,2015-12-15 11:30,153.1292,-27.3917,73.40,64.40,73.44,20.00,5.00,0.00,29.94,M,6.21,M,FEW,BKN,BKN,M,3000.00,17000.00,19000.00,M,M,YBBN 151130Z 02005KT 9999 FEW030 BKN170 BKN190 23/18 Q1014 NOSIG
YBBN,2015-12-15 12:00,153.1292,-27.3917,73.40,64.40,73.44,40.00,4.00,0.00,29.97,M,6.21,M,FEW,SCT,BKN,M,3600.00,14000.00,18000.00,M,M,YBBN 151200Z 04004KT 9999 FEW036 SCT140 BKN180 23/18 Q1015
YBBN,2015-12-15 12:30,153.1292,-27.3917,75.20,66.20,73.61,40.00,6.00,0.00,29.94,M,6.21,M,FEW,BKN,BKN,M,3000.00,3700.00,14000.00,M,M,YBBN 151230Z 04006KT 9999 FEW030 BKN037 BKN140 24/19 Q1014 NOSIG
YBBN,2015-12-15 13:00,153.1292,-27.3917,75.20,66.20,73.61,40.00,5.00,0.00,29.97,M,6.21,M,FEW,OVC,M,M,2800.00,3600.00,M,M,M,YBBN 151300Z 04005KT 9999 FEW028 OVC036 24/19 Q1015 NOSIG
YBBN,2015-12-15 13:30,153.1292,-27.3917,75.20,64.40,69.14,50.00,6.00,0.00,29.94,M,6.21,M,FEW,OVC,M,M,2900.00,3600.00,M,M,M,YBBN 151330Z 05006KT 9999 FEW029 OVC036 24/18 Q1014 NOSIG
YBBN,2015-12-15 14:00,153.1292,-27.3917,75.20,64.40,69.14,60.00,6.00,0.00,29.94,M,6.21,M,SCT,BKN,M,M,2800.00,3500.00,M,M,M,YBBN 151400Z 06006KT 9999 SCT028 BKN035 24/18 Q1014 NOSIG
YBBN,2015-12-15 16:00,153.1292,-27.3917,73.40,66.20,78.19,80.00,5.00,0.00,29.91,M,6.21,M,BKN,BKN,M,M,2800.00,3400.00,M,M,M,YBBN 151600Z 08005KT 9999 BKN028 BKN034 23/19 Q1013
YBBN,2015-12-15 17:00,153.1292,-27.3917,73.40,64.40,73.44,100.00,5.00,0.00,29.94,M,6.21,M,BKN,BKN,M,M,3000.00,4000.00,M,M,M,YBBN 151700Z 10005KT 9999 BKN030 BKN040 23/18 Q1014
YBBN,2015-12-15 18:00,153.1292,-27.3917,73.40,64.40,73.44,100.00,4.00,0.00,29.91,M,6.21,M,FEW,SCT,BKN,M,2800.00,4300.00,18000.00,M,M,YBBN 151800Z 10004KT 9999 FEW028 SCT043 BKN180 23/18 Q1013
YBBN,2015-12-15 18:30,153.1292,-27.3917,73.40,64.40,73.44,100.00,1.00,0.00,29.94,M,6.21,M,FEW,SCT,BKN,M,3200.00,4300.00,18000.00,M,M,YBBN 151830Z 10001KT 9999 FEW032 SCT043 BKN180 23/18 Q1014 NOSIG
YBBN,2015-12-15 19:00,153.1292,-27.3917,71.60,66.20,83.09,190.00,5.00,0.00,29.94,M,6.21,M,FEW,SCT,BKN,M,3200.00,4100.00,18000.00,M,M,YBBN 151900Z 19005KT 9999 FEW032 SCT041 BKN180 22/19 Q1014
YBBN,2015-12-15 20:00,153.1292,-27.3917,73.40,66.20,78.19,170.00,5.00,0.00,29.94,M,6.21,M,FEW,SCT,BKN,M,3000.00,11500.00,23500.00,M,M,YBBN 152000Z 17005KT 9999 FEW030 SCT115 BKN235 23/19 Q1014
YBBN,2015-12-15 22:30,153.1292,-27.3917,78.80,64.40,61.36,110.00,7.00,0.00,29.97,M,6.21,M,SCT,BKN,BKN,M,3300.00,4700.00,17500.00,M,M,YBBN 152230Z 11007KT 070V130 9999 SCT033 BKN047 BKN175 26/18 Q1015 NOSIG
YBBN,2015-12-15 23:00,153.1292,-27.3917,78.80,62.60,57.60,120.00,6.00,0.00,29.97,M,6.21,M,SCT,BKN,BKN,M,3300.00,5300.00,13500.00,M,M,YBBN 152300Z 12006KT 090V160 9999 SCT033 BKN053 BKN135 26/17 Q1015 NOSIG
YBBN,2015-12-15 23:30,153.1292,-27.3917,77.00,62.60,61.13,100.00,5.00,0.00,29.97,M,6.21,M,SCT,SCT,BKN,M,3300.00,3700.00,13500.00,M,M,YBBN 152330Z 10005KT 070V140 9999 SCT033 SCT037 BKN135 25/17 Q1015 NOSIG
