#DEBUG: Format Typ    -> comma
#DEBUG: Time Period   -> 2012-09-13 00:00:00+00:00 2012-09-14 00:00:00+00:00
#DEBUG: Time Zone     -> Etc/UTC
#DEBUG: Data Contact   -> daryl herzmann akrherz@iastate.edu 515-294-5978
#DEBUG: Entries Found -> -1
station,valid,lon,lat,tmpf, dwpf, relh, drct, sknt, p01i, alti, mslp, vsby, gust, skyc1, skyc2, skyc3, skyc4, skyl1, skyl2, skyl3, skyl4, presentwx, metar
YBBN,2012-09-13 00:00,153.1292,-27.3917,71.60,57.20,60.44,360.00,8.00,0.00,30.06,M,6.21,M,FEW,M,M,M,2700.00,M,M,M,M,YBBN 130000Z 36008KT 9999 FEW027 22/14 Q1018 NOSIG
YBBN,2012-09-13 00:30,153.1292,-27.3917,71.60,59.00,64.48,20.00,9.00,0.00,30.03,M,6.21,M,FEW,M,M,M,2800.00,M,M,M,M,YBBN 130030Z 02009KT 9999 FEW028 22/15 Q1017
YBBN,2012-09-13 01:00,153.1292,-27.3917,73.40,59.00,60.67,30.00,9.00,0.00,30.00,M,6.21,M,FEW,M,M,M,2800.00,M,M,M,M,YBBN 130100Z 03009KT 9999 FEW028 23/15 Q1016 NOSIG
YBBN,2012-09-13 01:30,153.1292,-27.3917,73.40,59.00,60.67,30.00,12.00,0.00,30.00,M,6.21,M,FEW,M,M,M,3000.00,M,M,M,M,YBBN 130130Z 03012KT 9999 FEW030 23/15 Q1016
YBBN,2012-09-13 02:00,153.1292,-27.3917,73.40,60.80,64.69,10.00,15.00,0.00,29.97,M,6.21,M,FEW,M,M,M,3000.00,M,M,M,M,YBBN 130200Z 01015KT 9999 FEW030 23/16 Q1015 NOSIG
YBBN,2012-09-13 02:30,153.1292,-27.3917,75.20,59.00,57.12,20.00,19.00,0.00,29.94,M,6.21,M,FEW,M,M,M,3400.00,M,M,M,M,YBBN 130230Z 02019KT 9999 FEW034 24/15 Q1014
YBBN,2012-09-13 03:00,153.1292,-27.3917,75.20,57.20,53.55,20.00,20.00,0.00,29.94,M,6.21,M,FEW,M,M,M,3600.00,M,M,M,M,YBBN 130300Z 02020KT 9999 FEW036 24/14 Q1014
YBBN,2012-09-13 03:30,153.1292,-27.3917,73.40,59.00,60.67,20.00,20.00,0.00,29.91,M,6.21,M,FEW,M,M,M,3500.00,M,M,M,M,YBBN 130330Z 02020KT 9999 FEW035 23/15 Q1013
YBBN,2012-09-13 04:00,153.1292,-27.3917,73.40,59.00,60.67,20.00,21.00,0.00,29.88,M,6.21,M,FEW,M,M,M,3400.00,M,M,M,M,YBBN 130400Z 02021KT 9999 FEW034 23/15 Q1012
YBBN,2012-09-13 04:30,153.1292,-27.3917,73.40,59.00,60.67,20.00,22.00,0.00,29.88,M,6.21,M,FEW,M,M,M,3400.00,M,M,M,M,YBBN 130430Z 02022KT 9999 FEW034 23/15 Q1012
YBBN,2012-09-13 05:00,153.1292,-27.3917,71.60,59.00,64.48,10.00,21.00,0.00,29.85,M,6.21,M,FEW,M,M,M,3400.00,M,M,M,M,YBBN 130500Z 01021KT 9999 FEW034 22/15 Q1011 NOSIG
YBBN,2012-09-13 05:30,153.1292,-27.3917,73.40,59.00,60.67,10.00,23.00,0.00,29.85,M,6.21,M,FEW,M,M,M,2800.00,M,M,M,M,YBBN 130530Z 01023KT 9999 FEW028 23/15 Q1011
YBBN,2012-09-13 06:00,153.1292,-27.3917,71.60,59.00,64.48,10.00,20.00,0.00,29.85,M,6.21,M,FEW,M,M,M,2800.00,M,M,M,M,YBBN 130600Z 01020KT 9999 FEW028 22/15 Q1011
YBBN,2012-09-13 06:30,153.1292,-27.3917,71.60,59.00,64.48,10.00,21.00,0.00,29.85,M,6.21,M,M,M,M,M,M,M,M,M,M,YBBN 130630Z 01021KT CAVOK 22/15 Q1011
YBBN,2012-09-13 07:00,153.1292,-27.3917,69.80,59.00,68.55,10.00,21.00,0.00,29.85,M,6.21,M,M,M,M,M,M,M,M,M,M,YBBN 130700Z 01021KT CAVOK 21/15 Q1011
YBBN,2012-09-13 07:30,153.1292,-27.3917,69.80,60.80,73.09,10.00,20.00,0.00,29.85,M,6.21,M,M,M,M,M,M,M,M,M,M,YBBN 130730Z 01020KT CAVOK 21/16 Q1011
YBBN,2012-09-13 08:00,153.1292,-27.3917,69.80,60.80,73.09,10.00,19.00,0.00,29.85,M,6.21,M,FEW,M,M,M,3500.00,M,M,M,M,YBBN 130800Z 01019KT 9999 FEW035 21/16 Q1011 NOSIG
YBBN,2012-09-13 08:30,153.1292,-27.3917,69.80,59.00,68.55,10.00,20.00,0.00,29.85,M,6.21,M,FEW,M,M,M,3500.00,M,M,M,M,YBBN 130830Z 01020KT 9999 FEW035 21/15 Q1011
YBBN,2012-09-13 09:00,153.1292,-27.3917,69.80,59.00,68.55,360.00,20.00,0.00,29.85,M,6.21,M,FEW,M,M,M,3500.00,M,M,M,M,YBBN 130900Z 36020KT 9999 FEW035 21/15 Q1011
YBBN,2012-09-13 09:30,153.1292,-27.3917,68.00,60.80,77.75,360.00,19.00,0.00,29.85,M,6.21,M,FEW,M,M,M,3500.00,M,M,M,M,YBBN 130930Z 36019KT 9999 FEW035 20/16 Q1011
YBBN,2012-09-13 10:00,153.1292,-27.3917,68.00,60.80,77.75,360.00,20.00,0.00,29.85,M,6.21,M,VV ,M,M,M,M,M,M,M,M,YBBN 131000Z 36020KT 9999 VV/// 20/16 Q1011
YBBN,2012-09-13 10:30,153.1292,-27.3917,68.00,59.00,72.92,360.00,19.00,0.00,29.83,M,6.21,M,M,M,M,M,M,M,M,M,M,YBBN 131030Z 36019KT CAVOK 20/15 Q1010
YBBN,2012-09-13 11:00,153.1292,-27.3917,68.00,57.20,68.35,360.00,17.00,0.00,29.83,M,6.21,M,M,M,M,M,M,M,M,M,M,YBBN 131100Z 36017KT CAVOK 20/14 Q1010
YBBN,2012-09-13 11:30,153.1292,-27.3917,68.00,57.20,68.35,360.00,18.00,0.00,29.83,M,6.21,M,M,M,M,M,M,M,M,M,M,YBBN 131130Z 36018KT CAVOK 20/14 Q1010
YBBN,2012-09-13 12:00,153.1292,-27.3917,66.20,57.20,72.74,350.00,17.00,0.00,29.83,M,6.21,M,M,M,M,M,M,M,M,M,M,YBBN 131200Z 35017KT CAVOK 19/14 Q1010 FM1230 33013KT 9999 FEW015 SCT045 FM1300 MOD TURB BLW 5000FT
YBBN,2012-09-13 12:30,153.1292,-27.3917,68.00,55.40,64.04,350.00,16.00,0.00,29.83,M,6.21,M,FEW,BKN,M,M,2500.00,10000.00,M,M,M,YBBN 131230Z 35016KT 9999 FEW025 BKN100 20/13 Q1010
YBBN,2012-09-13 12:43,153.1292,-27.3917,68.00,55.40,64.04,290.00,13.00,0.00,29.88,M,6.21,M,FEW,BKN,M,M,3000.00,9000.00,M,M,-SHRA,YBBN 131243Z 29013KT 9999 -SHRA FEW030 BKN090 20/13 Q1012
YBBN,2012-09-13 13:00,153.1292,-27.3917,68.00,53.60,59.97,290.00,10.00,0.00,29.85,M,6.21,M,FEW,BKN,M,M,3000.00,9000.00,M,M,VCSH,YBBN 131300Z 29010KT 9999 VCSH FEW030 BKN090 20/12 Q1011 FM1500 22008KT 9999 FEW025 FM1300 MOD TURB BLW 5000FT
YBBN,2012-09-13 13:30,153.1292,-27.3917,68.00,53.60,59.97,300.00,7.00,0.00,29.85,M,6.21,M,FEW,BKN,M,M,3000.00,9000.00,M,M,M,YBBN 131330Z 30007KT 9999 FEW030 BKN090 20/12 Q1011
YBBN,2012-09-13 14:00,153.1292,-27.3917,68.00,53.60,59.97,280.00,6.00,0.00,29.85,M,6.21,M,FEW,M,M,M,3000.00,M,M,M,M,YBBN 131400Z 28006KT 9999 FEW030 20/12 Q1011 FM1530 22008KT 9999 FEW025 FM1400 MOD TURB BLW 5000FT
YBBN,2012-09-13 14:30,153.1292,-27.3917,68.00,51.80,56.13,290.00,8.00,0.00,29.85,M,6.21,M,FEW,M,M,M,3000.00,M,M,M,M,YBBN 131430Z 29008KT 9999 FEW030 20/11 Q1011
YBBN,2012-09-13 15:00,153.1292,-27.3917,68.00,50.00,52.51,260.00,14.00,0.00,29.85,M,6.21,M,FEW,M,M,M,3000.00,M,M,M,M,YBBN 131500Z 26014KT 9999 FEW030 20/10 Q1011 FM1600 22008KT 9999 FEW025 FM1500 MOD TURB BLW 5000FT
YBBN,2012-09-13 15:30,153.1292,-27.3917,66.20,46.40,48.83,250.00,15.00,0.00,29.85,M,6.21,M,FEW,SCT,M,M,3000.00,10000.00,M,M,M,YBBN 131530Z 25015KT 9999 FEW030 SCT100 19/08 Q1011
YBBN,2012-09-13 16:00,153.1292,-27.3917,66.20,44.60,45.60,260.00,14.00,0.00,29.85,M,6.21,M,FEW,SCT,M,M,3000.00,10000.00,M,M,M,YBBN 131600Z 26014KT 9999 FEW030 SCT100 19/07 Q1011
YBBN,2012-09-13 16:30,153.1292,-27.3917,64.40,44.60,48.55,250.00,13.00,0.00,29.85,M,6.21,M,FEW,SCT,M,M,3000.00,10000.00,M,M,M,YBBN 131630Z 25013KT 9999 FEW030 SCT100 18/07 Q1011
YBBN,2012-09-13 17:00,153.1292,-27.3917,62.60,42.80,48.28,250.00,15.00,0.00,29.85,M,6.21,M,FEW,M,M,M,3000.00,M,M,M,M,YBBN 131700Z 25015KT 9999 FEW030 17/06 Q1011
YBBN,2012-09-13 17:30,153.1292,-27.3917,60.80,41.00,48.00,240.00,15.00,0.00,29.88,M,6.21,M,FEW,M,M,M,3000.00,M,M,M,M,YBBN 131730Z 24015KT 9999 FEW030 16/05 Q1012
YBBN,2012-09-13 18:00,153.1292,-27.3917,59.00,41.00,51.18,250.00,16.00,0.00,29.88,M,6.21,M,FEW,M,M,M,3000.00,M,M,M,M,YBBN 131800Z 25016KT 9999 FEW030 15/05 Q1012 FM1830 23012KT 9999 FEW025 FM1800 MOD TURB BLW 5000FT
YBBN,2012-09-13 18:30,153.1292,-27.3917,59.00,39.20,47.72,260.00,16.00,0.00,29.88,M,6.21,M,FEW,M,M,M,3000.00,M,M,M,M,YBBN 131830Z 26016KT 9999 FEW030 15/04 Q1012
YBBN,2012-09-13 19:00,153.1292,-27.3917,57.20,39.20,50.91,250.00,16.00,0.00,29.91,M,6.21,M,FEW,M,M,M,3000.00,M,M,M,M,YBBN 131900Z 25016KT 9999 FEW030 14/04 Q1013 FM1930 23013KT 9999 FEW025 FM1900 MOD TURB BLW 5000FT
YBBN,2012-09-13 19:30,153.1292,-27.3917,55.40,39.20,54.34,250.00,11.00,0.00,29.94,M,6.21,M,FEW,M,M,M,3000.00,M,M,M,M,YBBN 131930Z 25011KT 9999 FEW030 13/04 Q1014
YBBN,2012-09-13 20:00,153.1292,-27.3917,55.40,37.40,50.64,250.00,12.00,0.00,29.94,M,6.21,M,FEW,M,M,M,3000.00,M,M,M,M,YBBN 132000Z 25012KT 9999 FEW030 13/03 Q1014 FM2100 19013KT 9999 FEW030 FM2000 MOD TURB BLW 5000FT
YBBN,2012-09-13 20:30,153.1292,-27.3917,55.40,37.40,50.64,240.00,15.00,0.00,29.94,M,6.21,M,FEW,M,M,M,3000.00,M,M,M,M,YBBN 132030Z 24015KT 9999 FEW030 13/03 Q1014
YBBN,2012-09-13 21:00,153.1292,-27.3917,59.00,35.60,41.42,230.00,14.00,0.00,29.97,M,6.21,M,FEW,M,M,M,3500.00,M,M,M,M,YBBN 132100Z 23014KT 9999 FEW035 15/02 Q1015
YBBN,2012-09-13 21:30,153.1292,-27.3917,59.00,33.80,38.56,210.00,17.00,0.00,30.00,M,6.21,M,FEW,M,M,M,4000.00,M,M,M,M,YBBN 132130Z 21017KT 9999 FEW040 15/01 Q1016
YBBN,2012-09-13 22:00,153.1292,-27.3917,60.80,32.00,33.64,210.00,16.00,0.00,30.00,M,6.21,M,M,M,M,M,M,M,M,M,M,YBBN 132200Z 21016KT CAVOK 16/M00 Q1016 FM2200 MOD TURB BLW 5000FT
YBBN,2012-09-13 22:30,153.1292,-27.3917,62.60,30.20,29.35,210.00,14.00,0.00,30.03,M,6.21,M,M,M,M,M,M,M,M,M,M,YBBN 132230Z 21014KT CAVOK 17/M01 Q1017
YBBN,2012-09-13 23:00,153.1292,-27.3917,62.60,33.80,33.93,180.00,11.00,0.00,30.03,M,6.21,M,M,M,M,M,M,M,M,M,M,YBBN 132300Z 18011KT CAVOK 17/01 Q1017
YBBN,2012-09-13 23:30,153.1292,-27.3917,64.40,33.80,31.85,180.00,9.00,0.00,30.03,M,6.21,M,M,M,M,M,M,M,M,M,M,YBBN 132330Z 18009KT CAVOK 18/01 Q1017
