#DEBUG: Format Typ    -> comma
#DEBUG: Time Period   -> 2013-04-30 00:00:00+00:00 2013-05-01 00:00:00+00:00
#DEBUG: Time Zone     -> Etc/UTC
#DEBUG: Data Contact   -> daryl herzmann akrherz@iastate.edu 515-294-5978
#DEBUG: Entries Found -> -1
station,valid,lon,lat,tmpf, dwpf, relh, drct, sknt, p01i, alti, mslp, vsby, gust, skyc1, skyc2, skyc3, skyc4, skyl1, skyl2, skyl3, skyl4, presentwx, metar
YBBN,2013-04-30 00:00,153.1292,-27.3917,69.80,66.20,88.34,200.00,5.00,0.00,30.21,M,6.21,M,FEW,SCT,M,M,3000.00,4500.00,M,M,M,YBBN 300000Z 20005KT 9999 FEW030 SCT045 21/19 Q1023
YBBN,2013-04-30 00:30,153.1292,-27.3917,75.20,68.00,78.34,150.00,5.00,0.00,30.21,M,6.21,M,FEW,M,M,M,3000.00,M,M,M,M,YBBN 300030Z 15005KT 9999 FEW030 24/20 Q1023
YBBN,2013-04-30 01:00,153.1292,-27.3917,75.20,66.20,73.61,110.00,6.00,0.00,30.21,M,6.21,M,FEW,M,M,M,3000.00,M,M,M,M,YBBN 300100Z 11006KT 9999 FEW030 24/19 Q1023
YBBN,2013-04-30 01:30,153.1292,-27.3917,77.00,64.40,65.12,80.00,7.00,0.00,30.18,M,6.21,M,FEW,M,M,M,3500.00,M,M,M,M,YBBN 300130Z 08007KT 9999 FEW035 25/18 Q1022
YBBN,2013-04-30 02:00,153.1292,-27.3917,77.00,62.60,61.13,80.00,9.00,0.00,30.18,M,6.21,M,FEW,M,M,M,3800.00,M,M,M,M,YBBN 300200Z 08009KT 9999 FEW038 25/17 Q1022
YBBN,2013-04-30 02:30,153.1292,-27.3917,77.00,62.60,61.13,60.00,10.00,0.00,30.15,M,6.21,M,FEW,M,M,M,3800.00,M,M,M,M,YBBN 300230Z 06010KT 9999 FEW038 25/17 Q1021
YBBN,2013-04-30 03:00,153.1292,-27.3917,77.00,60.80,57.36,70.00,9.00,0.00,30.15,M,6.21,M,FEW,M,M,M,3800.00,M,M,M,M,YBBN 300300Z 07009KT 9999 FEW038 25/16 Q1021 NOSIG
YBBN,2013-04-30 03:30,153.1292,-27.3917,77.00,60.80,57.36,60.00,9.00,0.00,30.15,M,6.21,M,FEW,M,M,M,4000.00,M,M,M,M,YBBN 300330Z 06009KT 9999 FEW040 25/16 Q1021
YBBN,2013-04-30 04:00,153.1292,-27.3917,77.00,60.80,57.36,60.00,10.00,0.00,30.12,M,6.21,M,FEW,M,M,M,3800.00,M,M,M,M,YBBN 300400Z 06010KT 9999 FEW038 25/16 Q1020
YBBN,2013-04-30 04:30,153.1292,-27.3917,77.00,62.60,61.13,70.00,9.00,0.00,30.15,M,6.21,M,FEW,M,M,M,3500.00,M,M,M,M,YBBN 300430Z 07009KT 9999 FEW035 25/17 Q1021
YBBN,2013-04-30 05:00,153.1292,-27.3917,77.00,62.60,61.13,70.00,8.00,0.00,30.15,M,6.21,M,FEW,M,M,M,3200.00,M,M,M,M,YBBN 300500Z 07008KT 9999 FEW032 25/17 Q1021 NOSIG
YBBN,2013-04-30 05:30,153.1292,-27.3917,77.00,62.60,61.13,60.00,9.00,0.00,30.15,M,6.21,M,FEW,M,M,M,3200.00,M,M,M,M,YBBN 300530Z 06009KT 9999 FEW032 25/17 Q1021
YBBN,2013-04-30 06:00,153.1292,-27.3917,75.20,62.60,64.91,70.00,8.00,0.00,30.15,M,6.21,M,FEW,M,M,M,3000.00,M,M,M,M,YBBN 300600Z 07008KT 9999 FEW030 24/17 Q1021
YBBN,2013-04-30 06:30,153.1292,-27.3917,73.40,62.60,68.94,90.00,7.00,0.00,30.15,M,6.21,M,FEW,M,M,M,2800.00,M,M,M,M,YBBN 300630Z 09007KT 9999 FEW028 23/17 Q1021
YBBN,2013-04-30 07:00,153.1292,-27.3917,73.40,60.80,64.69,100.00,6.00,0.00,30.15,M,6.21,M,FEW,M,M,M,2800.00,M,M,M,M,YBBN 300700Z 10006KT 9999 FEW028 23/16 Q1021
YBBN,2013-04-30 07:30,153.1292,-27.3917,71.60,60.80,68.75,100.00,6.00,0.00,30.15,M,6.21,M,FEW,M,M,M,2500.00,M,M,M,M,YBBN 300730Z 10006KT 9999 FEW025 22/16 Q1021
YBBN,2013-04-30 08:00,153.1292,-27.3917,71.60,60.80,68.75,100.00,5.00,0.00,30.15,M,6.21,M,FEW,M,M,M,2500.00,M,M,M,M,YBBN 300800Z 10005KT 9999 FEW025 22/16 Q1021
YBBN,2013-04-30 08:30,153.1292,-27.3917,71.60,62.60,73.27,110.00,6.00,0.00,30.18,M,6.21,M,FEW,M,M,M,2500.00,M,M,M,M,YBBN 300830Z 11006KT 9999 FEW025 22/17 Q1022
YBBN,2013-04-30 09:00,153.1292,-27.3917,71.60,60.80,68.75,110.00,5.00,0.00,30.18,M,6.21,M,FEW,M,M,M,2500.00,M,M,M,M,YBBN 300900Z 11005KT 9999 FEW025 22/16 Q1022 NOSIG
YBBN,2013-04-30 09:30,153.1292,-27.3917,69.80,62.60,77.90,110.00,5.00,0.00,30.18,M,6.21,M,FEW,M,M,M,2500.00,M,M,M,M,YBBN 300930Z 11005KT 9999 FEW025 21/17 Q1022
YBBN,2013-04-30 10:00,153.1292,-27.3917,69.80,60.80,73.09,160.00,3.00,0.00,30.18,M,6.21,M,FEW,M,M,M,2500.00,M,M,M,M,YBBN 301000Z 16003KT 9999 FEW025 21/16 Q1022
YBBN,2013-04-30 10:30,153.1292,-27.3917,68.00,60.80,77.75,150.00,3.00,0.00,30.18,M,6.21,M,M,M,M,M,M,M,M,M,M,YBBN 301030Z 15003KT CAVOK 20/16 Q1022
YBBN,2013-04-30 11:00,153.1292,-27.3917,66.20,60.80,82.74,0.00,0.00,0.00,30.21,M,6.21,M,M,M,M,M,M,M,M,M,M,YBBN 301100Z 00000KT CAVOK 19/16 Q1023 NOSIG
YBBN,2013-04-30 11:30,153.1292,-27.3917,68.00,60.80,77.75,180.00,3.00,0.00,30.21,M,6.21,M,M,M,M,M,M,M,M,M,M,YBBN 301130Z 18003KT CAVOK 20/16 Q1023
YBBN,2013-04-30 12:00,153.1292,-27.3917,66.20,60.80,82.74,180.00,4.00,0.00,30.21,M,6.21,M,M,M,M,M,M,M,M,M,M,YBBN 301200Z 18004KT CAVOK 19/16 Q1023 NOSIG
YBBN,2013-04-30 12:30,153.1292,-27.3917,66.20,60.80,82.74,200.00,4.00,0.00,30.21,M,6.21,M,M,M,M,M,M,M,M,M,M,YBBN 301230Z 20004KT CAVOK 19/16 Q1023
YBBN,2013-04-30 13:00,153.1292,-27.3917,64.40,60.80,88.09,190.00,5.00,0.00,30.18,M,6.21,M,M,M,M,M,M,M,M,M,M,YBBN 301300Z 19005KT CAVOK 18/16 Q1022 NOSIG
YBBN,2013-04-30 13:30,153.1292,-27.3917,66.20,60.80,82.74,190.00,5.00,0.00,30.18,M,6.21,M,M,M,M,M,M,M,M,M,M,YBBN 301330Z 19005KT CAVOK 19/16 Q1022
YBBN,2013-04-30 14:00,153.1292,-27.3917,64.40,59.00,82.62,210.00,5.00,0.00,30.18,M,6.21,M,M,M,M,M,M,M,M,M,M,YBBN 301400Z 21005KT CAVOK 18/15 Q1022
YBBN,2013-04-30 14:30,153.1292,-27.3917,62.60,60.80,93.83,220.00,5.00,0.00,30.18,M,6.21,M,M,M,M,M,M,M,M,M,M,YBBN 301430Z 22005KT CAVOK 17/16 Q1022
YBBN,2013-04-30 15:00,153.1292,-27.3917,62.60,59.00,88.00,200.00,6.00,0.00,30.15,M,6.21,M,M,M,M,M,M,M,M,M,M,YBBN 301500Z 20006KT CAVOK 17/15 Q1021 NOSIG
YBBN,2013-04-30 15:30,153.1292,-27.3917,62.60,60.80,93.83,200.00,7.00,0.00,30.15,M,6.21,M,FEW,SCT,M,M,2500.00,7000.00,M,M,M,YBBN 301530Z 20007KT 9999 FEW025 SCT070 17/16 Q1021
YBBN,2013-04-30 16:00,153.1292,-27.3917,64.40,60.80,88.09,200.00,7.00,0.00,30.15,M,6.21,M,FEW,BKN,M,M,2500.00,7000.00,M,M,M,YBBN 301600Z 20007KT 9999 FEW025 BKN070 18/16 Q1021 NOSIG
YBBN,2013-04-30 16:30,153.1292,-27.3917,64.40,60.80,88.09,210.00,7.00,0.00,30.15,M,6.21,M,FEW,BKN,M,M,2500.00,6500.00,M,M,M,YBBN 301630Z 21007KT 9999 FEW025 BKN065 18/16 Q1021
YBBN,2013-04-30 17:00,153.1292,-27.3917,64.40,60.80,88.09,210.00,8.00,0.00,30.15,M,6.21,M,FEW,BKN,M,M,2500.00,7000.00,M,M,M,YBBN 301700Z 21008KT 9999 FEW025 BKN070 18/16 Q1021
YBBN,2013-04-30 17:30,153.1292,-27.3917,64.40,60.80,88.09,200.00,8.00,0.00,30.12,M,6.21,M,SCT,BKN,M,M,4000.00,7000.00,M,M,M,YBBN 301730Z 20008KT 9999 SCT040 BKN070 18/16 Q1020
YBBN,2013-04-30 18:00,153.1292,-27.3917,62.60,59.00,88.00,200.00,8.00,0.00,30.12,M,6.21,M,FEW,SCT,M,M,4000.00,7000.00,M,M,M,YBBN 301800Z 20008KT 9999 FEW040 SCT070 17/15 Q1020 NOSIG
YBBN,2013-04-30 18:30,153.1292,-27.3917,62.60,59.00,88.00,210.00,8.00,0.00,30.12,M,6.21,M,M,M,M,M,M,M,M,M,M,YBBN 301830Z 21008KT CAVOK 17/15 Q1020
YBBN,2013-04-30 19:00,153.1292,-27.3917,62.60,59.00,88.00,210.00,7.00,0.00,30.12,M,6.21,M,M,M,M,M,M,M,M,M,M,YBBN 301900Z 21007KT CAVOK 17/15 Q1020 NOSIG
YBBN,2013-04-30 19:30,153.1292,-27.3917,60.80,59.00,93.79,200.00,7.00,0.00,30.12,M,6.21,M,FEW,M,M,M,2500.00,M,M,M,M,YBBN 301930Z 20007KT 9999 FEW025 16/15 Q1020
YBBN,2013-04-30 20:00,153.1292,-27.3917,60.80,59.00,93.79,190.00,6.00,0.00,30.12,M,6.21,M,FEW,M,M,M,2500.00,M,M,M,M,YBBN 302000Z 19006KT 9999 FEW025 16/15 Q1020 NOSIG
YBBN,2013-04-30 20:30,153.1292,-27.3917,60.80,59.00,93.79,210.00,7.00,0.00,30.12,M,6.21,M,FEW,M,M,M,2500.00,M,M,M,M,YBBN 302030Z 21007KT 9999 FEW025 16/15 Q1020
YBBN,2013-04-30 21:00,153.1292,-27.3917,62.60,60.80,93.83,200.00,8.00,0.00,30.12,M,6.21,M,FEW,M,M,M,2800.00,M,M,M,M,YBBN 302100Z 20008KT 9999 FEW028 17/16 Q1020 NOSIG
YBBN,2013-04-30 21:30,153.1292,-27.3917,66.20,60.80,82.74,200.00,8.00,0.00,30.12,M,6.21,M,FEW,M,M,M,2900.00,M,M,M,M,YBBN 302130Z 20008KT 9999 FEW029 19/16 Q1020
YBBN,2013-04-30 22:00,153.1292,-27.3917,68.00,60.80,77.75,200.00,10.00,0.00,30.12,M,6.21,M,FEW,M,M,M,3000.00,M,M,M,M,YBBN 302200Z 20010KT 9999 FEW030 20/16 Q1020
YBBN,2013-04-30 22:30,153.1292,-27.3917,69.80,62.60,77.90,210.00,10.00,0.00,30.15,M,6.21,M,FEW,M,M,M,3000.00,M,M,M,M,YBBN 302230Z 21010KT 9999 FEW030 21/17 Q1021
YBBN,2013-04-30 23:00,153.1292,-27.3917,71.60,60.80,68.75,210.00,9.00,0.00,30.15,M,6.21,M,FEW,M,M,M,3000.00,M,M,M,M,YBBN 302300Z 21009KT 9999 FEW030 22/16 Q1021
YBBN,2013-04-30 23:30,153.1292,-27.3917,73.40,62.60,68.94,210.00,9.00,0.00,30.12,M,6.21,M,FEW,M,M,M,3200.00,M,M,M,M,YBBN 302330Z 21009KT 9999 FEW032 23/17 Q1020
