#DEBUG: Format Typ    -> comma
#DEBUG: Time Period   -> 2015-06-26 00:00:00+00:00 2015-06-27 00:00:00+00:00
#DEBUG: Time Zone     -> Etc/UTC
#DEBUG: Data Contact   -> daryl herzmann akrherz@iastate.edu 515-294-5978
#DEBUG: Entries Found -> -1
station,valid,lon,lat,tmpf, dwpf, relh, drct, sknt, p01i, alti, mslp, vsby, gust, skyc1, skyc2, skyc3, skyc4, skyl1, skyl2, skyl3, skyl4, presentwx, metar
YBBN,2015-06-26 00:00,153.1292,-27.3917,66.20,55.40,68.15,180.00,8.00,0.00,30.30,M,6.21,M,FEW,FEW,M,M,2000.00,2300.00,M,M,VCSH,YBBN 260000Z 18008KT 9999 VCSH FEW020 FEW023TCU 19/13 Q1026
YBBN,2015-06-26 00:30,153.1292,-27.3917,68.00,57.20,68.35,170.00,9.00,0.00,30.30,M,6.21,M,FEW,BKN,M,M,2000.00,2600.00,M,M,VCSH,YBBN 260030Z 17009KT 9999 VCSH FEW020 BKN026 20/14 Q1026 RMK -SHRA S/SE
YBBN,2015-06-26 01:00,153.1292,-27.3917,66.20,55.40,68.15,150.00,10.00,0.00,30.30,M,6.21,M,FEW,SCT,M,M,2200.00,7300.00,M,M,VCSH,YBBN 260100Z 15010KT 9999 VCSH FEW022 SCT073 19/13 Q1026
YBBN,2015-06-26 01:30,153.1292,-27.3917,68.00,57.20,68.35,150.00,9.00,0.00,30.27,M,6.21,M,FEW,SCT,M,M,2300.00,2700.00,M,M,M,YBBN 260130Z 15009KT 9999 FEW023 SCT027 20/14 Q1025 RMK DIST -SHRA NE
YBBN,2015-06-26 02:00,153.1292,-27.3917,69.80,55.40,60.21,150.00,9.00,0.00,30.27,M,6.21,M,FEW,SCT,M,M,2400.00,2800.00,M,M,M,YBBN 260200Z 15009KT 9999 FEW024 SCT028 21/13 Q1025 NOSIG
YBBN,2015-06-26 02:30,153.1292,-27.3917,69.80,55.40,60.21,120.00,10.00,0.00,30.27,M,6.21,M,FEW,SCT,M,M,2400.00,2800.00,M,M,M,YBBN 260230Z 12010KT 9999 FEW024 SCT028 21/13 Q1025
YBBN,2015-06-26 03:00,153.1292,-27.3917,69.80,55.40,60.21,130.00,10.00,0.00,30.27,M,6.21,M,FEW,SCT,M,M,2400.00,2800.00,M,M,M,YBBN 260300Z 13010KT 9999 FEW024 SCT028 21/13 Q1025
YBBN,2015-06-26 03:30,153.1292,-27.3917,69.80,55.40,60.21,170.00,10.00,0.00,30.24,M,6.21,M,FEW,SCT,M,M,2400.00,3000.00,M,M,M,YBBN 260330Z 17010KT 9999 FEW024 SCT030 21/13 Q1024 RMK DIST SHRA WEST/ DIST CB EAST
YBBN,2015-06-26 04:00,153.1292,-27.3917,69.80,53.60,56.38,170.00,10.00,0.00,30.24,M,6.21,M,FEW,SCT,FEW,M,2500.00,3000.00,3200.00,M,M,YBBN 260400Z 17010KT 9999 FEW025 SCT030 FEW032TCU 21/12 Q1024 NOSIG
YBBN,2015-06-26 04:30,153.1292,-27.3917,71.60,53.60,53.03,140.00,9.00,0.00,30.24,M,6.21,M,FEW,SCT,FEW,M,2700.00,3200.00,3300.00,M,M,YBBN 260430Z 14009KT 9999 FEW027 SCT032 FEW033TCU 22/12 Q1024 RMK DIST SHRA NE/SW
YBBN,2015-06-26 05:00,153.1292,-27.3917,69.80,53.60,56.38,150.00,10.00,0.00,30.27,M,6.21,M,FEW,FEW,M,M,2700.00,3300.00,M,M,M,YBBN 260500Z 15010KT 9999 FEW027 FEW033TCU 21/12 Q1025 NOSIG
YBBN,2015-06-26 05:30,153.1292,-27.3917,69.80,55.40,60.21,170.00,11.00,0.00,30.27,M,6.21,M,FEW,SCT,FEW,M,2600.00,3000.00,3200.00,M,M,YBBN 260530Z 17011KT 9999 FEW026 SCT030 FEW032TCU 21/13 Q1025 RMK DIST SHRA E/NE
YBBN,2015-06-26 06:00,153.1292,-27.3917,69.80,55.40,60.21,150.00,11.00,0.00,30.27,M,6.21,M,FEW,SCT,FEW,M,2500.00,6500.00,3000.00,M,VCSH,YBBN 260600Z 15011KT 9999 VCSH FEW025 SCT065 FEW030TCU 21/13 Q1025
YBBN,2015-06-26 06:30,153.1292,-27.3917,68.00,55.40,64.04,160.00,7.00,0.00,30.30,M,6.21,M,FEW,SCT,BKN,M,2500.00,4200.00,9000.00,M,VCSH,YBBN 260630Z 16007KT 9999 VCSH FEW025 SCT042 BKN090 20/13 Q1026
YBBN,2015-06-26 07:00,153.1292,-27.3917,66.20,53.60,63.82,170.00,8.00,0.00,30.30,M,6.21,M,FEW,SCT,BKN,M,2200.00,5200.00,9000.00,M,VCSH,YBBN 260700Z 17008KT 9999 VCSH FEW022 SCT052 BKN090 19/12 Q1026
YBBN,2015-06-26 07:30,153.1292,-27.3917,66.20,53.60,63.82,180.00,7.00,0.00,30.30,M,6.21,M,FEW,SCT,BKN,M,2000.00,5600.00,9600.00,M,VCSH,YBBN 260730Z 18007KT 9999 VCSH FEW020 SCT056 BKN096 19/12 Q1026 RMK DIST CB TOP E/SE
YBBN,2015-06-26 08:00,153.1292,-27.3917,64.40,53.60,67.95,170.00,7.00,0.00,30.33,M,6.21,M,FEW,SCT,BKN,M,2000.00,3500.00,9500.00,M,VCSH,YBBN 260800Z 17007KT 9999 VCSH FEW020 SCT035 BKN095 18/12 Q1027 NOSIG
YBBN,2015-06-26 08:30,153.1292,-27.3917,64.40,55.40,72.56,190.00,8.00,0.00,30.33,M,6.21,M,FEW,SCT,M,M,3500.00,6800.00,M,M,VCSH,YBBN 260830Z 19008KT 9999 VCSH FEW035 SCT068 18/13 Q1027
YBBN,2015-06-26 09:00,153.1292,-27.3917,64.40,55.40,72.56,180.00,7.00,0.00,30.36,M,6.21,M,FEW,SCT,M,M,4000.00,7400.00,M,M,VCSH,YBBN 260900Z 18007KT 9999 VCSH FEW040 SCT074 18/13 Q1028 NOSIG
YBBN,2015-06-26 09:30,153.1292,-27.3917,62.60,55.40,77.29,190.00,7.00,0.00,30.36,M,6.21,M,M,M,M,M,M,M,M,M,M,YBBN 260930Z 19007KT CAVOK 17/13 Q1028
YBBN,2015-06-26 10:00,153.1292,-27.3917,60.80,55.40,82.37,200.00,8.00,0.00,30.36,M,6.21,M,FEW,M,M,M,3800.00,M,M,M,M,YBBN 261000Z 20008KT 9999 FEW038 16/13 Q1028
YBBN,2015-06-26 10:30,153.1292,-27.3917,60.80,53.60,77.14,200.00,8.00,0.00,30.36,M,6.21,M,M,M,M,M,M,M,M,M,M,YBBN 261030Z 20008KT CAVOK 16/12 Q1028
YBBN,2015-06-26 11:00,153.1292,-27.3917,57.20,53.60,87.74,210.00,9.00,0.00,30.36,M,6.21,M,M,M,M,M,M,M,M,M,M,YBBN 261100Z 21009KT CAVOK 14/12 Q1028
YBBN,2015-06-26 11:30,153.1292,-27.3917,59.00,53.60,82.25,210.00,10.00,0.00,30.39,M,6.21,M,M,M,M,M,M,M,M,M,M,YBBN 261130Z 21010KT CAVOK 15/12 Q1029
YBBN,2015-06-26 12:00,153.1292,-27.3917,59.00,53.60,82.25,210.00,10.00,0.00,30.36,M,6.21,M,FEW,SCT,M,M,2700.00,6500.00,M,M,M,YBBN 261200Z 21010KT 9999 FEW027 SCT065 15/12 Q1028 NOSIG
YBBN,2015-06-26 12:30,153.1292,-27.3917,59.00,53.60,82.25,200.00,8.00,0.00,30.36,M,6.21,M,M,M,M,M,M,M,M,M,M,YBBN 261230Z 20008KT CAVOK 15/12 Q1028
YBBN,2015-06-26 13:00,153.1292,-27.3917,57.20,53.60,87.74,220.00,9.00,0.00,30.36,M,6.21,M,M,M,M,M,M,M,M,M,M,YBBN 261300Z 22009KT CAVOK 14/12 Q1028
YBBN,2015-06-26 13:30,153.1292,-27.3917,57.20,53.60,87.74,200.00,8.00,0.00,30.36,M,6.21,M,FEW,M,M,M,3300.00,M,M,M,M,YBBN 261330Z 20008KT 9999 FEW033 14/12 Q1028
YBBN,2015-06-26 14:00,153.1292,-27.3917,57.20,51.80,82.12,200.00,7.00,0.00,30.36,M,6.21,M,FEW,M,M,M,3300.00,M,M,M,M,YBBN 261400Z 20007KT 9999 FEW033 14/11 Q1028
YBBN,2015-06-26 14:30,153.1292,-27.3917,57.20,53.60,87.74,210.00,7.00,0.00,30.36,M,6.21,M,FEW,M,M,M,3800.00,M,M,M,M,YBBN 261430Z 21007KT 9999 FEW038 14/12 Q1028
YBBN,2015-06-26 15:00,153.1292,-27.3917,59.00,53.60,82.25,200.00,8.00,0.00,30.36,M,6.21,M,FEW,SCT,M,M,3600.00,6500.00,M,M,M,YBBN 261500Z 20008KT 9999 FEW036 SCT065 15/12 Q1028 NOSIG
YBBN,2015-06-26 15:30,153.1292,-27.3917,59.00,53.60,82.25,200.00,8.00,0.00,30.36,M,6.21,M,FEW,SCT,M,M,3400.00,14200.00,M,M,M,YBBN 261530Z 20008KT 9999 FEW034 SCT142 15/12 Q1028
YBBN,2015-06-26 16:00,153.1292,-27.3917,60.80,53.60,77.14,200.00,8.00,0.00,30.36,M,6.21,M,FEW,SCT,M,M,3500.00,13500.00,M,M,M,YBBN 261600Z 20008KT 9999 FEW035 SCT135 16/12 Q1028 NOSIG
YBBN,2015-06-26 16:30,153.1292,-27.3917,60.80,51.80,72.20,200.00,9.00,0.00,30.33,M,6.21,M,FEW,SCT,M,M,3500.00,14000.00,M,M,M,YBBN 261630Z 20009KT 9999 FEW035 SCT140 16/11 Q1027
YBBN,2015-06-26 17:00,153.1292,-27.3917,57.20,51.80,82.12,210.00,9.00,0.00,30.36,M,6.21,M,M,M,M,M,M,M,M,M,M,YBBN 261700Z 21009KT CAVOK 14/11 Q1028
YBBN,2015-06-26 17:30,153.1292,-27.3917,57.20,53.60,87.74,210.00,8.00,0.00,30.33,M,6.21,M,FEW,SCT,M,M,3000.00,14000.00,M,M,M,YBBN 261730Z 21008KT 9999 FEW030 SCT140 14/12 Q1027
YBBN,2015-06-26 18:00,153.1292,-27.3917,57.20,51.80,82.12,200.00,8.00,0.00,30.33,M,6.21,M,FEW,SCT,M,M,3000.00,13800.00,M,M,M,YBBN 261800Z 20008KT 9999 FEW030 SCT138 14/11 Q1027
YBBN,2015-06-26 18:30,153.1292,-27.3917,59.00,51.80,76.98,200.00,9.00,0.00,30.33,M,6.21,M,FEW,SCT,M,M,3000.00,13700.00,M,M,M,YBBN 261830Z 20009KT 9999 FEW030 SCT137 15/11 Q1027
YBBN,2015-06-26 19:00,153.1292,-27.3917,59.00,51.80,76.98,210.00,7.00,0.00,30.36,M,6.21,M,FEW,SCT,M,M,3000.00,13400.00,M,M,M,YBBN 261900Z 21007KT 9999 FEW030 SCT134 15/11 Q1028
YBBN,2015-06-26 19:30,153.1292,-27.3917,59.00,51.80,76.98,200.00,8.00,0.00,30.36,M,6.21,M,FEW,SCT,M,M,3500.00,13500.00,M,M,M,YBBN 261930Z 20008KT 9999 FEW035 SCT135 15/11 Q1028
YBBN,2015-06-26 20:00,153.1292,-27.3917,59.00,51.80,76.98,200.00,9.00,0.00,30.36,M,6.21,M,FEW,SCT,M,M,3500.00,13000.00,M,M,M,YBBN 262000Z 20009KT 9999 FEW035 SCT130 15/11 Q1028 NOSIG
YBBN,2015-06-26 20:30,153.1292,-27.3917,57.20,51.80,82.12,210.00,9.00,0.00,30.39,M,6.21,M,FEW,SCT,M,M,2300.00,12500.00,M,M,M,YBBN 262030Z 21009KT 9999 FEW023 SCT125 14/11 Q1029 RMK DIST SHRA EAST
YBBN,2015-06-26 21:00,153.1292,-27.3917,57.20,51.80,82.12,210.00,9.00,0.00,30.39,M,6.21,M,FEW,SCT,M,M,2400.00,12500.00,M,M,M,YBBN 262100Z 21009KT 9999 FEW024 SCT125 14/11 Q1029
YBBN,2015-06-26 21:30,153.1292,-27.3917,59.00,51.80,76.98,200.00,9.00,0.00,30.39,M,6.21,M,FEW,SCT,M,M,2200.00,12000.00,M,M,M,YBBN 262130Z 20009KT 9999 FEW022 SCT120 15/11 Q1029 RMK DIST -SHRA EAST
YBBN,2015-06-26 22:00,153.1292,-27.3917,59.00,51.80,76.98,200.00,7.00,0.00,30.42,M,6.21,M,FEW,SCT,M,M,2200.00,12000.00,M,M,-SHRA,YBBN 262200Z 20007KT 9999 -SHRA FEW022 SCT120 15/11 Q1030 NOSIG
YBBN,2015-06-26 22:30,153.1292,-27.3917,60.80,53.60,77.14,200.00,7.00,0.00,30.42,M,6.21,M,FEW,SCT,M,M,2200.00,12000.00,M,M,M,YBBN 262230Z 20007KT 9999 FEW022 SCT120 16/12 Q1030 RMK DIST SHRA EAST
YBBN,2015-06-26 23:00,153.1292,-27.3917,64.40,53.60,67.95,200.00,8.00,0.00,30.42,M,6.21,M,FEW,SCT,M,M,1900.00,7800.00,M,M,M,YBBN 262300Z 20008KT 9999 FEW019 SCT078 18/12 Q1030 NOSIG
YBBN,2015-06-26 23:30,153.1292,-27.3917,66.20,53.60,63.82,180.00,8.00,0.00,30.42,M,6.21,M,FEW,SCT,M,M,2300.00,3000.00,M,M,M,YBBN 262330Z 18008KT 9999 FEW023 SCT030 19/12 Q1030 RMK DIST SHRA E/NE
