#DEBUG: Format Typ    -> comma
#DEBUG: Time Period   -> 2012-02-28 00:00:00+00:00 2012-02-29 00:00:00+00:00
#DEBUG: Time Zone     -> Etc/UTC
#DEBUG: Data Contact   -> daryl herzmann akrherz@iastate.edu 515-294-5978
#DEBUG: Entries Found -> -1
station,valid,lon,lat,tmpf, dwpf, relh, drct, sknt, p01i, alti, mslp, vsby, gust, skyc1, skyc2, skyc3, skyc4, skyl1, skyl2, skyl3, skyl4, presentwx, metar
YBBN,2012-02-28 00:00,153.1292,-27.3917,80.60,68.00,65.54,60.00,10.00,0.00,30.03,M,6.21,M,FEW,M,M,M,2900.00,M,M,M,M,YBBN 280000Z 06010KT 9999 FEW029 27/20 Q1017
YBBN,2012-02-28 00:30,153.1292,-27.3917,80.60,68.00,65.54,60.00,11.00,0.00,30.00,M,6.21,M,FEW,M,M,M,3000.00,M,M,M,M,YBBN 280030Z 06011KT 9999 FEW030 27/20 Q1016
YBBN,2012-02-28 01:00,153.1292,-27.3917,80.60,68.00,65.54,50.00,11.00,0.00,30.00,M,6.21,M,FEW,M,M,M,3000.00,M,M,M,M,YBBN 280100Z 05011KT 9999 FEW030 27/20 Q1016
YBBN,2012-02-28 01:30,153.1292,-27.3917,82.40,68.00,61.81,60.00,11.00,0.00,30.00,M,6.21,M,FEW,M,M,M,3000.00,M,M,M,M,YBBN 280130Z 06011KT 9999 FEW030 28/20 Q1016
YBBN,2012-02-28 02:00,153.1292,-27.3917,82.40,68.00,61.81,50.00,11.00,0.00,30.00,M,6.21,M,FEW,M,M,M,3200.00,M,M,M,M,YBBN 280200Z 05011KT 9999 FEW032 28/20 Q1016
YBBN,2012-02-28 02:30,153.1292,-27.3917,82.40,66.20,58.08,60.00,10.00,0.00,29.97,M,6.21,M,FEW,M,M,M,3500.00,M,M,M,M,YBBN 280230Z 06010KT 9999 FEW035 28/19 Q1015
YBBN,2012-02-28 03:00,153.1292,-27.3917,82.40,68.00,61.81,50.00,10.00,0.00,29.97,M,6.21,M,FEW,M,M,M,3500.00,M,M,M,M,YBBN 280300Z 05010KT 9999 FEW035 28/20 Q1015 NOSIG
YBBN,2012-02-28 03:30,153.1292,-27.3917,82.40,71.60,69.90,30.00,9.00,0.00,29.97,M,6.21,M,FEW,M,M,M,3500.00,M,M,M,M,YBBN 280330Z 03009KT 9999 FEW035 28/22 Q1015
YBBN,2012-02-28 04:00,153.1292,-27.3917,80.60,68.00,65.54,30.00,10.00,0.00,29.97,M,6.21,M,FEW,M,M,M,3500.00,M,M,M,M,YBBN 280400Z 03010KT 9999 FEW035 27/20 Q1015
YBBN,2012-02-28 04:30,153.1292,-27.3917,82.40,68.00,61.81,20.00,11.00,0.00,29.97,M,6.21,M,FEW,M,M,M,3500.00,M,M,M,M,YBBN 280430Z 02011KT 9999 FEW035 28/20 Q1015
YBBN,2012-02-28 05:00,153.1292,-27.3917,82.40,68.00,61.81,10.00,11.00,0.00,29.97,M,6.21,M,FEW,M,M,M,3500.00,M,M,M,M,YBBN 280500Z 01011KT 9999 FEW035 28/20 Q1015 NOSIG
YBBN,2012-02-28 05:30,153.1292,-27.3917,80.60,68.00,65.54,20.00,11.00,0.00,29.94,M,6.21,M,FEW,M,M,M,3500.00,M,M,M,M,YBBN 280530Z 02011KT 9999 FEW035 27/20 Q1014
YBBN,2012-02-28 06:00,153.1292,-27.3917,80.60,66.20,61.58,30.00,11.00,0.00,29.94,M,6.21,M,FEW,M,M,M,3500.00,M,M,M,M,YBBN 280600Z 03011KT 9999 FEW035 27/19 Q1014
YBBN,2012-02-28 06:30,153.1292,-27.3917,80.60,69.80,69.71,30.00,12.00,0.00,29.94,M,6.21,M,FEW,M,M,M,3000.00,M,M,M,M,YBBN 280630Z 03012KT 9999 FEW030 27/21 Q1014
YBBN,2012-02-28 07:00,153.1292,-27.3917,80.60,68.00,65.54,30.00,10.00,0.00,29.94,M,6.21,M,FEW,M,M,M,3000.00,M,M,M,M,YBBN 280700Z 03010KT 9999 FEW030 27/20 Q1014
YBBN,2012-02-28 07:30,153.1292,-27.3917,78.80,69.80,73.95,50.00,10.00,0.00,29.94,M,6.21,M,SCT,M,M,M,2500.00,M,M,M,M,YBBN 280730Z 05010KT 9999 SCT025 26/21 Q1014
YBBN,2012-02-28 08:00,153.1292,-27.3917,78.80,69.80,73.95,50.00,9.00,0.00,29.94,M,6.21,M,SCT,M,M,M,2500.00,M,M,M,M,YBBN 280800Z 05009KT 9999 SCT025 26/21 Q1014
YBBN,2012-02-28 08:30,153.1292,-27.3917,78.80,69.80,73.95,60.00,8.00,0.00,29.97,M,6.21,M,FEW,M,M,M,2200.00,M,M,M,M,YBBN 280830Z 06008KT 9999 FEW022 26/21 Q1015 RMK HZ
YBBN,2012-02-28 09:00,153.1292,-27.3917,77.00,69.80,78.48,30.00,8.00,0.00,29.97,M,6.21,M,FEW,M,M,M,2200.00,M,M,M,M,YBBN 280900Z 03008KT 9999 FEW022 25/21 Q1015 RMK HZ
YBBN,2012-02-28 09:30,153.1292,-27.3917,77.00,69.80,78.48,50.00,9.00,0.00,29.97,M,6.21,M,FEW,SCT,M,M,1900.00,2200.00,M,M,M,YBBN 280930Z 05009KT 9999 FEW019 SCT022 25/21 Q1015 RMK HZ
YBBN,2012-02-28 10:00,153.1292,-27.3917,75.20,69.80,83.32,30.00,8.00,0.00,29.97,M,6.21,M,FEW,SCT,M,M,1900.00,2200.00,M,M,M,YBBN 281000Z 03008KT 9999 FEW019 SCT022 24/21 Q1015 RMK HZ
YBBN,2012-02-28 10:30,153.1292,-27.3917,77.00,69.80,78.48,30.00,8.00,0.00,29.97,M,6.21,M,FEW,BKN,M,M,1900.00,2200.00,M,M,M,YBBN 281030Z 03008KT 9999 FEW019 BKN022 25/21 Q1015 RMK HZ
YBBN,2012-02-28 11:00,153.1292,-27.3917,75.20,69.80,83.32,30.00,8.00,0.00,30.00,M,6.21,M,FEW,SCT,M,M,1900.00,2200.00,M,M,M,YBBN 281100Z 03008KT 9999 FEW019 SCT022 24/21 Q1016 NOSIG
YBBN,2012-02-28 11:30,153.1292,-27.3917,75.20,69.80,83.32,30.00,7.00,0.00,30.00,M,6.21,M,FEW,SCT,M,M,1800.00,2200.00,M,M,M,YBBN 281130Z 03007KT 9999 FEW018 SCT022 24/21 Q1016 RMK HZ
YBBN,2012-02-28 12:00,153.1292,-27.3917,75.20,69.80,83.32,20.00,7.00,0.00,30.00,M,6.21,M,FEW,SCT,M,M,1800.00,2200.00,M,M,M,YBBN 281200Z 02007KT 9999 FEW018 SCT022 24/21 Q1016 RMK HZ
YBBN,2012-02-28 12:30,153.1292,-27.3917,75.20,69.80,83.32,350.00,6.00,0.00,30.00,M,6.21,M,FEW,M,M,M,1800.00,M,M,M,M,YBBN 281230Z 35006KT 9999 FEW018 24/21 Q1016 RMK HZ
YBBN,2012-02-28 13:00,153.1292,-27.3917,75.20,69.80,83.32,300.00,5.00,0.00,30.00,M,6.21,M,FEW,M,M,M,1800.00,M,M,M,M,YBBN 281300Z 30005KT 9999 FEW018 24/21 Q1016 RMK HZ
YBBN,2012-02-28 13:30,153.1292,-27.3917,75.20,69.80,83.32,310.00,5.00,0.00,30.00,M,6.21,M,FEW,M,M,M,1800.00,M,M,M,M,YBBN 281330Z 31005KT 9999 FEW018 24/21 Q1016 RMK HZ
YBBN,2012-02-28 14:00,153.1292,-27.3917,73.40,69.80,88.51,320.00,5.00,0.00,29.97,M,6.21,M,FEW,SCT,M,M,1700.00,22000.00,M,M,M,YBBN 281400Z 32005KT 9999 FEW017 SCT220 23/21 Q1015 RMK HZ
YBBN,2012-02-28 14:30,153.1292,-27.3917,73.40,69.80,88.51,330.00,4.00,0.00,29.97,M,6.21,M,FEW,SCT,M,M,1700.00,22000.00,M,M,M,YBBN 281430Z 33004KT 9999 FEW017 SCT220 23/21 Q1015
YBBN,2012-02-28 15:00,153.1292,-27.3917,71.60,69.80,94.06,360.00,5.00,0.00,29.97,M,6.21,M,FEW,SCT,M,M,1700.00,22000.00,M,M,M,YBBN 281500Z 36005KT 9999 FEW017 SCT220 22/21 Q1015
YBBN,2012-02-28 15:30,153.1292,-27.3917,71.60,69.80,94.06,350.00,5.00,0.00,29.97,M,6.21,M,FEW,SCT,M,M,1700.00,22000.00,M,M,M,YBBN 281530Z 35005KT 9999 FEW017 SCT220 22/21 Q1015
YBBN,2012-02-28 16:00,153.1292,-27.3917,71.60,69.80,94.06,250.00,5.00,0.00,29.94,M,6.21,M,FEW,SCT,M,M,1800.00,22000.00,M,M,M,YBBN 281600Z 25005KT 9999 FEW018 SCT220 22/21 Q1014
YBBN,2012-02-28 16:30,153.1292,-27.3917,71.60,68.00,88.43,270.00,4.00,0.00,29.94,M,6.21,M,FEW,M,M,M,1800.00,M,M,M,M,YBBN 281630Z 27004KT 9999 FEW018 22/20 Q1014
YBBN,2012-02-28 17:00,153.1292,-27.3917,71.60,68.00,88.43,250.00,5.00,0.00,29.94,M,6.21,M,FEW,M,M,M,1900.00,M,M,M,M,YBBN 281700Z 25005KT 9999 FEW019 22/20 Q1014
YBBN,2012-02-28 17:30,153.1292,-27.3917,69.80,68.00,94.01,230.00,3.00,0.00,29.94,M,6.21,M,FEW,SCT,M,M,1900.00,30000.00,M,M,M,YBBN 281730Z 23003KT 9999 FEW019 SCT300 21/20 Q1014
YBBN,2012-02-28 18:00,153.1292,-27.3917,69.80,68.00,94.01,230.00,4.00,0.00,29.94,M,6.21,M,FEW,SCT,M,M,1900.00,30000.00,M,M,M,YBBN 281800Z 23004KT 9999 FEW019 SCT300 21/20 Q1014
YBBN,2012-02-28 18:30,153.1292,-27.3917,69.80,68.00,94.01,230.00,5.00,0.00,29.94,M,6.21,M,FEW,M,M,M,2000.00,M,M,M,M,YBBN 281830Z 23005KT 9999 FEW020 21/20 Q1014
YBBN,2012-02-28 19:00,153.1292,-27.3917,69.80,68.00,94.01,220.00,5.00,0.00,29.94,M,6.21,M,FEW,M,M,M,1700.00,M,M,M,M,YBBN 281900Z 22005KT 9999 FEW017 21/20 Q1014 RMK FU
YBBN,2012-02-28 19:30,153.1292,-27.3917,68.00,68.00,100.00,290.00,5.00,0.00,29.97,M,6.21,M,FEW,M,M,M,1800.00,M,M,M,M,YBBN 281930Z 29005KT 9999 FEW018 20/20 Q1015 RMK FU
YBBN,2012-02-28 20:00,153.1292,-27.3917,69.80,68.00,94.01,210.00,6.00,0.00,29.97,M,6.21,M,FEW,M,M,M,1800.00,M,M,M,M,YBBN 282000Z 21006KT 9999 FEW018 21/20 Q1015 RMK FU
YBBN,2012-02-28 20:30,153.1292,-27.3917,69.80,69.80,100.00,240.00,5.00,0.00,29.97,M,6.21,M,FEW,M,M,M,2000.00,M,M,M,M,YBBN 282030Z 24005KT 9999 FEW020 21/21 Q1015
YBBN,2012-02-28 21:00,153.1292,-27.3917,71.60,69.80,94.06,210.00,6.00,0.00,29.97,M,6.21,M,FEW,M,M,M,2000.00,M,M,M,M,YBBN 282100Z 21006KT 9999 FEW020 22/21 Q1015 RMK HAZE/SMOKE
YBBN,2012-02-28 21:30,153.1292,-27.3917,73.40,69.80,88.51,220.00,6.00,0.00,30.00,M,6.21,M,FEW,M,M,M,2000.00,M,M,M,M,YBBN 282130Z 22006KT 9999 FEW020 23/21 Q1016
YBBN,2012-02-28 22:00,153.1292,-27.3917,77.00,69.80,78.48,220.00,6.00,0.00,30.00,M,6.21,M,FEW,M,M,M,2200.00,M,M,M,M,YBBN 282200Z 22006KT 9999 FEW022 25/21 Q1016
YBBN,2012-02-28 22:30,153.1292,-27.3917,78.80,69.80,73.95,240.00,5.00,0.00,30.00,M,6.21,M,FEW,M,M,M,2500.00,M,M,M,M,YBBN 282230Z 24005KT 9999 FEW025 26/21 Q1016
YBBN,2012-02-28 23:00,153.1292,-27.3917,78.80,68.00,69.52,290.00,5.00,0.00,30.00,M,6.21,M,FEW,M,M,M,2300.00,M,M,M,M,YBBN 282300Z 29005KT 9999 FEW023 26/20 Q1016
YBBN,2012-02-28 23:30,153.1292,-27.3917,80.60,68.00,65.54,350.00,6.00,0.00,30.00,M,6.21,M,FEW,M,M,M,2500.00,M,M,M,M,YBBN 282330Z 35006KT 9999 FEW025 27/20 Q1016
