#DEBUG: Format Typ    -> comma
#DEBUG: Time Period   -> 2013-03-14 00:00:00+00:00 2013-03-15 00:00:00+00:00
#DEBUG: Time Zone     -> Etc/UTC
#DEBUG: Data Contact   -> daryl herzmann akrherz@iastate.edu 515-294-5978
#DEBUG: Entries Found -> -1
station,valid,lon,lat,tmpf, dwpf, relh, drct, sknt, p01i, alti, mslp, vsby, gust, skyc1, skyc2, skyc3, skyc4, skyl1, skyl2, skyl3, skyl4, presentwx, metar
YBBN,2013-03-14 00:00,153.1292,-27.3917,78.80,59.00,50.69,200.00,9.00,0.00,29.77,M,6.21,M,FEW,M,M,M,2500.00,M,M,M,M,YBBN 140000Z 20009KT 9999 FEW025 26/15 Q1008
YBBN,2013-03-14 00:30,153.1292,-27.3917,80.60,60.80,50.95,210.00,11.00,0.00,29.77,M,6.21,M,FEW,M,M,M,2800.00,M,M,M,M,YBBN 140030Z 21011KT 9999 FEW028 27/16 Q1008
YBBN,2013-03-14 01:00,153.1292,-27.3917,80.60,60.80,50.95,190.00,9.00,0.00,29.77,M,6.21,M,FEW,M,M,M,3500.00,M,M,M,M,YBBN 140100Z 19009KT 9999 FEW035 27/16 Q1008
YBBN,2013-03-14 01:30,153.1292,-27.3917,80.60,60.80,50.95,180.00,9.00,0.00,29.77,M,6.21,M,FEW,BKN,M,M,3800.00,7100.00,M,M,M,YBBN 140130Z 18009KT 9999 FEW038 BKN071 27/16 Q1008
YBBN,2013-03-14 02:00,153.1292,-27.3917,80.60,60.80,50.95,190.00,7.00,0.00,29.77,M,6.21,M,SCT,BKN,M,M,3800.00,6900.00,M,M,M,YBBN 140200Z 19007KT 9999 SCT038 BKN069 27/16 Q1008 NOSIG
YBBN,2013-03-14 02:30,153.1292,-27.3917,82.40,62.60,51.21,190.00,9.00,0.00,29.74,M,6.21,M,FEW,BKN,M,M,3800.00,6900.00,M,M,M,YBBN 140230Z 19009KT 9999 FEW038 BKN069 28/17 Q1007
YBBN,2013-03-14 03:00,153.1292,-27.3917,82.40,62.60,51.21,190.00,8.00,0.00,29.74,M,6.21,M,FEW,BKN,M,M,3800.00,6500.00,M,M,M,YBBN 140300Z 19008KT 9999 FEW038 BKN065 28/17 Q1007 NOSIG
YBBN,2013-03-14 03:30,153.1292,-27.3917,82.40,60.80,48.05,200.00,9.00,0.00,29.74,M,6.21,M,FEW,BKN,M,M,4000.00,6700.00,M,M,M,YBBN 140330Z 20009KT 9999 FEW040 BKN067 28/16 Q1007
YBBN,2013-03-14 04:00,153.1292,-27.3917,82.40,60.80,48.05,190.00,7.00,0.00,29.71,M,6.21,M,FEW,BKN,M,M,4000.00,6100.00,M,M,M,YBBN 140400Z 19007KT 9999 FEW040 BKN061 28/16 Q1006 NOSIG
YBBN,2013-03-14 04:30,153.1292,-27.3917,78.80,66.20,65.33,110.00,7.00,0.00,29.74,M,6.21,M,FEW,BKN,M,M,4000.00,6600.00,M,M,M,YBBN 140430Z 11007KT 9999 FEW040 BKN066 26/19 Q1007
YBBN,2013-03-14 05:00,153.1292,-27.3917,82.40,62.60,51.21,120.00,8.00,0.00,29.71,M,6.21,M,FEW,SCT,BKN,M,4000.00,6400.00,7800.00,M,M,YBBN 140500Z 12008KT 9999 FEW040 SCT064 BKN078 28/17 Q1006 NOSIG
YBBN,2013-03-14 05:30,153.1292,-27.3917,82.40,64.40,54.55,130.00,8.00,0.00,29.71,M,6.21,M,FEW,BKN,BKN,M,4000.00,5600.00,6600.00,M,M,YBBN 140530Z 13008KT 9999 FEW040 BKN056 BKN066 28/18 Q1006
YBBN,2013-03-14 06:00,153.1292,-27.3917,77.00,68.00,73.78,110.00,9.00,0.00,29.74,M,6.21,M,FEW,BKN,BKN,M,4000.00,6300.00,6300.00,M,M,YBBN 140600Z 11009KT 9999 FEW040 BKN063 BKN063 25/20 Q1007
YBBN,2013-03-14 06:30,153.1292,-27.3917,78.80,66.20,65.33,120.00,8.00,0.00,29.74,M,6.21,M,FEW,BKN,M,M,4000.00,6700.00,M,M,M,YBBN 140630Z 12008KT 9999 FEW040 BKN067 26/19 Q1007
YBBN,2013-03-14 07:00,153.1292,-27.3917,77.00,66.20,69.33,120.00,10.00,0.00,29.77,M,6.21,M,FEW,BKN,M,M,4000.00,7300.00,M,M,M,YBBN 140700Z 12010KT 9999 FEW040 BKN073 25/19 Q1008
YBBN,2013-03-14 07:30,153.1292,-27.3917,77.00,64.40,65.12,130.00,10.00,0.00,29.77,M,6.21,M,FEW,BKN,M,M,4000.00,8100.00,M,M,M,YBBN 140730Z 13010KT 9999 FEW040 BKN081 25/18 Q1008
YBBN,2013-03-14 08:00,153.1292,-27.3917,77.00,64.40,65.12,130.00,8.00,0.00,29.77,M,6.21,M,M,M,M,M,M,M,M,M,M,YBBN 140800Z 13008KT CAVOK 25/18 Q1008
YBBN,2013-03-14 08:30,153.1292,-27.3917,77.00,64.40,65.12,130.00,9.00,0.00,29.80,M,6.21,M,M,M,M,M,M,M,M,M,M,YBBN 140830Z 13009KT CAVOK 25/18 Q1009
YBBN,2013-03-14 09:00,153.1292,-27.3917,75.20,66.20,73.61,130.00,8.00,0.00,29.80,M,6.21,M,M,M,M,M,M,M,M,M,M,YBBN 140900Z 13008KT CAVOK 24/19 Q1009
YBBN,2013-03-14 09:30,153.1292,-27.3917,75.20,66.20,73.61,130.00,9.00,0.00,29.80,M,6.21,M,M,M,M,M,M,M,M,M,M,YBBN 140930Z 13009KT CAVOK 24/19 Q1009
YBBN,2013-03-14 10:00,153.1292,-27.3917,75.20,66.20,73.61,160.00,6.00,0.00,29.83,M,6.21,M,M,M,M,M,M,M,M,M,M,YBBN 141000Z 16006KT CAVOK 24/19 Q1010
YBBN,2013-03-14 10:30,153.1292,-27.3917,73.40,66.20,78.19,150.00,6.00,0.00,29.85,M,6.21,M,M,M,M,M,M,M,M,M,M,YBBN 141030Z 15006KT CAVOK 23/19 Q1011
YBBN,2013-03-14 11:00,153.1292,-27.3917,73.40,66.20,78.19,140.00,6.00,0.00,29.85,M,6.21,M,M,M,M,M,M,M,M,M,M,YBBN 141100Z 14006KT CAVOK 23/19 Q1011
YBBN,2013-03-14 11:30,153.1292,-27.3917,73.40,66.20,78.19,150.00,5.00,0.00,29.85,M,6.21,M,M,M,M,M,M,M,M,M,M,YBBN 141130Z 15005KT CAVOK 23/19 Q1011
YBBN,2013-03-14 12:00,153.1292,-27.3917,71.60,64.40,78.04,170.00,6.00,0.00,29.88,M,6.21,M,M,M,M,M,M,M,M,M,M,YBBN 141200Z 17006KT CAVOK 22/18 Q1012
YBBN,2013-03-14 12:30,153.1292,-27.3917,71.60,64.40,78.04,180.00,6.00,0.00,29.85,M,6.21,M,M,M,M,M,M,M,M,M,M,YBBN 141230Z 18006KT CAVOK 22/18 Q1011
YBBN,2013-03-14 13:00,153.1292,-27.3917,71.60,64.40,78.04,170.00,8.00,0.00,29.85,M,6.21,M,M,M,M,M,M,M,M,M,M,YBBN 141300Z 17008KT CAVOK 22/18 Q1011 NOSIG
YBBN,2013-03-14 13:30,153.1292,-27.3917,71.60,64.40,78.04,180.00,8.00,0.00,29.85,M,6.21,M,M,M,M,M,M,M,M,M,M,YBBN 141330Z 18008KT CAVOK 22/18 Q1011
YBBN,2013-03-14 14:00,153.1292,-27.3917,69.80,62.60,77.90,190.00,5.00,0.00,29.85,M,6.21,M,M,M,M,M,M,M,M,M,M,YBBN 141400Z 19005KT CAVOK 21/17 Q1011
YBBN,2013-03-14 14:30,153.1292,-27.3917,68.00,62.60,82.86,200.00,6.00,0.00,29.85,M,6.21,M,M,M,M,M,M,M,M,M,M,YBBN 141430Z 20006KT CAVOK 20/17 Q1011
YBBN,2013-03-14 15:00,153.1292,-27.3917,68.00,62.60,82.86,210.00,6.00,0.00,29.85,M,6.21,M,M,M,M,M,M,M,M,M,M,YBBN 141500Z 21006KT CAVOK 20/17 Q1011
YBBN,2013-03-14 15:30,153.1292,-27.3917,66.20,62.60,88.18,220.00,6.00,0.00,29.85,M,6.21,M,M,M,M,M,M,M,M,M,M,YBBN 141530Z 22006KT CAVOK 19/17 Q1011
YBBN,2013-03-14 16:00,153.1292,-27.3917,66.20,62.60,88.18,210.00,6.00,0.00,29.85,M,6.21,M,M,M,M,M,M,M,M,M,M,YBBN 141600Z 21006KT CAVOK 19/17 Q1011
YBBN,2013-03-14 16:30,153.1292,-27.3917,66.20,62.60,88.18,210.00,7.00,0.00,29.85,M,6.21,M,M,M,M,M,M,M,M,M,M,YBBN 141630Z 21007KT CAVOK 19/17 Q1011
YBBN,2013-03-14 17:00,153.1292,-27.3917,66.20,62.60,88.18,220.00,6.00,0.00,29.85,M,6.21,M,M,M,M,M,M,M,M,M,M,YBBN 141700Z 22006KT CAVOK 19/17 Q1011
YBBN,2013-03-14 17:30,153.1292,-27.3917,66.20,62.60,88.18,210.00,7.00,0.00,29.85,M,6.21,M,M,M,M,M,M,M,M,M,M,YBBN 141730Z 21007KT CAVOK 19/17 Q1011
YBBN,2013-03-14 18:00,153.1292,-27.3917,64.40,62.60,93.88,210.00,6.00,0.00,29.85,M,6.21,M,M,M,M,M,M,M,M,M,M,YBBN 141800Z 21006KT CAVOK 18/17 Q1011 NOSIG
YBBN,2013-03-14 18:30,153.1292,-27.3917,64.40,60.80,88.09,240.00,4.00,0.00,29.85,M,6.21,M,M,M,M,M,M,M,M,M,M,YBBN 141830Z 24004KT CAVOK 18/16 Q1011
YBBN,2013-03-14 19:00,153.1292,-27.3917,64.40,62.60,93.88,220.00,5.00,0.00,29.85,M,6.21,M,M,M,M,M,M,M,M,M,M,YBBN 141900Z 22005KT CAVOK 18/17 Q1011
YBBN,2013-03-14 19:30,153.1292,-27.3917,64.40,60.80,88.09,210.00,5.00,0.00,29.88,M,6.21,M,M,M,M,M,M,M,M,M,M,YBBN 141930Z 21005KT CAVOK 18/16 Q1012
YBBN,2013-03-14 20:00,153.1292,-27.3917,64.40,62.60,93.88,210.00,6.00,0.00,29.88,M,6.21,M,M,M,M,M,M,M,M,M,M,YBBN 142000Z 21006KT CAVOK 18/17 Q1012 NOSIG
YBBN,2013-03-14 20:30,153.1292,-27.3917,64.40,62.60,93.88,210.00,6.00,0.00,29.88,M,6.21,M,FEW,M,M,M,2000.00,M,M,M,M,YBBN 142030Z 21006KT 9999 FEW020 18/17 Q1012
YBBN,2013-03-14 21:00,153.1292,-27.3917,68.00,62.60,82.86,210.00,7.00,0.00,29.91,M,6.21,M,FEW,M,M,M,2000.00,M,M,M,M,YBBN 142100Z 21007KT 9999 FEW020 20/17 Q1013 NOSIG
YBBN,2013-03-14 21:30,153.1292,-27.3917,71.60,64.40,78.04,210.00,9.00,0.00,29.91,M,6.21,M,FEW,M,M,M,2200.00,M,M,M,M,YBBN 142130Z 21009KT 9999 FEW022 22/18 Q1013
YBBN,2013-03-14 22:00,153.1292,-27.3917,73.40,62.60,68.94,210.00,10.00,0.00,29.91,M,6.21,M,FEW,M,M,M,2800.00,M,M,M,M,YBBN 142200Z 21010KT 9999 FEW028 23/17 Q1013
YBBN,2013-03-14 22:30,153.1292,-27.3917,75.20,62.60,64.91,210.00,9.00,0.00,29.91,M,6.21,M,FEW,M,M,M,2400.00,M,M,M,M,YBBN 142230Z 21009KT 9999 FEW024 24/17 Q1013
YBBN,2013-03-14 23:00,153.1292,-27.3917,77.00,62.60,61.13,210.00,10.00,0.00,29.91,M,6.21,M,FEW,M,M,M,3000.00,M,M,M,M,YBBN 142300Z 21010KT 9999 FEW030 25/17 Q1013 NOSIG
YBBN,2013-03-14 23:30,153.1292,-27.3917,77.00,60.80,57.36,190.00,7.00,0.00,29.94,M,6.21,M,FEW,M,M,M,3000.00,M,M,M,M,YBBN 142330Z 19007KT 9999 FEW030 25/16 Q1014
