#DEBUG: Format Typ    -> comma
#DEBUG: Time Period   -> 2015-01-07 00:00:00+00:00 2015-01-08 00:00:00+00:00
#DEBUG: Time Zone     -> Etc/UTC
#DEBUG: Data Contact   -> daryl herzmann akrherz@iastate.edu 515-294-5978
#DEBUG: Entries Found -> -1
station,valid,lon,lat,tmpf, dwpf, relh, drct, sknt, p01i, alti, mslp, vsby, gust, skyc1, skyc2, skyc3, skyc4, skyl1, skyl2, skyl3, skyl4, presentwx, metar
YBBN,2015-01-07 00:00,153.1292,-27.3917,77.00,66.20,69.33,120.00,11.00,0.00,30.03,M,6.21,M,SCT,BKN,M,M,2500.00,7000.00,M,M,M,YBBN 070000Z 12011KT 9999 SCT025 BKN070 25/19 Q1017
YBBN,2015-01-07 00:30,153.1292,-27.3917,77.00,66.20,69.33,120.00,11.00,0.00,30.03,M,6.21,M,SCT,BKN,M,M,2100.00,7000.00,M,M,-SHRA,YBBN 070030Z 12011KT 9999 -SHRA SCT021 BKN070 25/19 Q1017
YBBN,2015-01-07 00:48,153.1292,-27.3917,73.40,69.80,88.51,130.00,11.00,0.00,30.03,M,3.73,M,FEW,SCT,BKN,M,1500.00,2100.00,6500.00,M,-SHRA,YBBN 070048Z 13011KT 6000 -SHRA FEW015 SCT021 BKN065 23/21 Q1017
YBBN,2015-01-07 00:52,153.1292,-27.3917,71.60,69.80,94.06,130.00,11.00,0.00,30.03,M,2.49,M,FEW,BKN,M,M,1200.00,2000.00,M,M,-SHRA,YBBN 070052Z 13011KT 4000 -SHRA FEW012 BKN020 22/21 Q1017
YBBN,2015-01-07 00:55,153.1292,-27.3917,71.60,69.80,94.06,130.00,11.00,0.00,30.03,M,1.55,M,FEW,BKN,BKN,M,1200.00,1900.00,4500.00,M,-SHRA,YBBN 070055Z 13011KT 2500 -SHRA FEW012 BKN019 BKN045 22/21 Q1017
YBBN,2015-01-07 01:00,153.1292,-27.3917,71.60,69.80,94.06,130.00,9.00,0.00,30.03,M,1.24,M,FEW,BKN,BKN,M,1200.00,1900.00,4500.00,M,-SHRA,YBBN 070100Z 13009KT 2000 -SHRA FEW012 BKN019 BKN045 22/21 Q1017
YBBN,2015-01-07 01:08,153.1292,-27.3917,71.60,69.80,94.06,140.00,9.00,0.00,30.03,M,1.43,M,BKN,M,M,M,1000.00,M,M,M,-SHRA,YBBN 070108Z 14009KT 2300 -SHRA BKN010 22/21 Q1017
YBBN,2015-01-07 01:30,153.1292,-27.3917,71.60,69.80,94.06,130.00,10.00,0.00,30.03,M,2.17,M,FEW,SCT,BKN,M,800.00,1200.00,2000.00,M,-SHRA,YBBN 070130Z 13010KT 3500 -SHRA FEW008 SCT012 BKN020 22/21 Q1017
YBBN,2015-01-07 02:00,153.1292,-27.3917,73.40,71.60,94.10,150.00,9.00,0.00,30.03,M,3.73,19.00,FEW,SCT,BKN,M,700.00,1200.00,3800.00,M,-SHRA,YBBN 070200Z 15009G19KT 6000 2500S -SHRA FEW007 SCT012 BKN038 23/22 Q1017
YBBN,2015-01-07 02:20,153.1292,-27.3917,73.40,69.80,88.51,160.00,9.00,0.00,30.03,M,5.59,M,SCT,BKN,M,M,800.00,3900.00,M,M,-SHRA,YBBN 070220Z 16009KT 9000 4000SW -SHRA SCT008 BKN039 23/21 Q1017
YBBN,2015-01-07 02:30,153.1292,-27.3917,73.40,69.80,88.51,160.00,9.00,0.00,30.03,M,5.59,M,FEW,SCT,BKN,M,800.00,4000.00,6700.00,M,-SHRA,YBBN 070230Z 16009KT 9000 -SHRA FEW008 SCT040 BKN067 23/21 Q1017
YBBN,2015-01-07 03:00,153.1292,-27.3917,73.40,69.80,88.51,160.00,7.00,0.00,30.03,M,5.59,M,FEW,SCT,BKN,M,1000.00,3800.00,6500.00,M,-SHRA,YBBN 070300Z 16007KT 9000 -SHRA FEW010 SCT038 BKN065 23/21 Q1017
YBBN,2015-01-07 03:30,153.1292,-27.3917,75.20,66.20,73.61,130.00,9.00,0.00,30.03,M,6.21,M,SCT,BKN,M,M,1900.00,6000.00,M,M,VCSH,YBBN 070330Z 13009KT 9999 VCSH SCT019 BKN060 24/19 Q1017
YBBN,2015-01-07 04:00,153.1292,-27.3917,78.80,62.60,57.60,110.00,9.00,0.00,30.00,M,6.21,M,FEW,SCT,BKN,M,2000.00,4200.00,5700.00,M,-SHRA,YBBN 070400Z 11009KT 9999 -SHRA FEW020 SCT042 BKN057 26/17 Q1016
YBBN,2015-01-07 04:30,153.1292,-27.3917,78.80,64.40,61.36,120.00,9.00,0.00,30.00,M,6.21,M,FEW,BKN,M,M,2400.00,5200.00,M,M,M,YBBN 070430Z 12009KT 9999 FEW024 BKN052 26/18 Q1016
YBBN,2015-01-07 05:00,153.1292,-27.3917,78.80,62.60,57.60,120.00,10.00,0.00,30.00,M,6.21,M,FEW,BKN,M,M,2500.00,5500.00,M,M,-SHRA,YBBN 070500Z 12010KT 9999 -SHRA FEW025 BKN055 26/17 Q1016
YBBN,2015-01-07 05:30,153.1292,-27.3917,77.00,66.20,69.33,130.00,9.00,0.00,29.97,M,6.21,M,FEW,SCT,BKN,M,1800.00,2500.00,5600.00,M,-SHRA,YBBN 070530Z 13009KT 9999 -SHRA FEW018 SCT025 BKN056 25/19 Q1015
YBBN,2015-01-07 06:00,153.1292,-27.3917,71.60,64.40,78.04,140.00,9.00,0.00,30.00,M,5.59,M,SCT,BKN,M,M,2400.00,5400.00,M,M,-SHRA,YBBN 070600Z 14009KT 9000 -SHRA SCT024 BKN054 22/18 Q1016 NOSIG
YBBN,2015-01-07 06:30,153.1292,-27.3917,75.20,64.40,69.14,160.00,5.00,0.00,29.97,M,6.21,M,FEW,BKN,M,M,1800.00,5700.00,M,M,-SHRA,YBBN 070630Z 16005KT 9999 -SHRA FEW018 BKN057 24/18 Q1015
YBBN,2015-01-07 07:00,153.1292,-27.3917,77.00,66.20,69.33,140.00,5.00,0.00,30.00,M,6.21,M,FEW,BKN,M,M,2700.00,6000.00,M,M,M,YBBN 070700Z 14005KT 9999 FEW027 BKN060 25/19 Q1016 NOSIG
YBBN,2015-01-07 07:30,153.1292,-27.3917,77.00,66.20,69.33,130.00,6.00,0.00,30.00,M,6.21,M,FEW,BKN,M,M,1800.00,6500.00,M,M,M,YBBN 070730Z 13006KT 9999 FEW018 BKN065 25/19 Q1016
YBBN,2015-01-07 08:00,153.1292,-27.3917,77.00,64.40,65.12,120.00,8.00,0.00,30.00,M,6.21,M,FEW,BKN,M,M,1800.00,7500.00,M,M,M,YBBN 070800Z 12008KT 9999 FEW018 BKN075 25/18 Q1016
YBBN,2015-01-07 08:30,153.1292,-27.3917,77.00,64.40,65.12,130.00,9.00,0.00,30.00,M,6.21,M,FEW,BKN,M,M,1500.00,7800.00,M,M,M,YBBN 070830Z 13009KT 9999 FEW015 BKN078 25/18 Q1016
YBBN,2015-01-07 09:00,153.1292,-27.3917,77.00,62.60,61.13,130.00,8.00,0.00,30.03,M,6.21,M,FEW,BKN,M,M,1200.00,7800.00,M,M,M,YBBN 070900Z 13008KT 9999 FEW012 BKN078 25/17 Q1017
YBBN,2015-01-07 09:30,153.1292,-27.3917,75.20,62.60,64.91,140.00,7.00,0.00,30.03,M,6.21,M,FEW,BKN,M,M,1200.00,8000.00,M,M,M,YBBN 070930Z 14007KT 9999 FEW012 BKN080 24/17 Q1017
YBBN,2015-01-07 10:00,153.1292,-27.3917,75.20,62.60,64.91,150.00,6.00,0.00,30.03,M,6.21,M,FEW,SCT,M,M,1200.00,8000.00,M,M,M,YBBN 071000Z 15006KT 9999 FEW012 SCT080 24/17 Q1017 NOSIG
YBBN,2015-01-07 10:30,153.1292,-27.3917,73.40,62.60,68.94,160.00,6.00,0.00,30.03,M,6.21,M,FEW,SCT,M,M,1200.00,8000.00,M,M,M,YBBN 071030Z 16006KT 9999 FEW012 SCT080 23/17 Q1017
YBBN,2015-01-07 11:00,153.1292,-27.3917,71.60,62.60,73.27,160.00,5.00,0.00,30.03,M,6.21,M,FEW,SCT,M,M,1400.00,8000.00,M,M,M,YBBN 071100Z 16005KT 9999 FEW014 SCT080 22/17 Q1017
YBBN,2015-01-07 11:30,153.1292,-27.3917,71.60,62.60,73.27,170.00,5.00,0.00,30.03,M,6.21,M,FEW,M,M,M,1500.00,M,M,M,M,YBBN 071130Z 17005KT 9999 FEW015 22/17 Q1017
YBBN,2015-01-07 12:00,153.1292,-27.3917,71.60,62.60,73.27,170.00,5.00,0.00,30.03,M,6.21,M,FEW,SCT,M,M,2200.00,8000.00,M,M,M,YBBN 071200Z 17005KT 9999 FEW022 SCT080 22/17 Q1017
YBBN,2015-01-07 12:30,153.1292,-27.3917,71.60,64.40,78.04,170.00,5.00,0.00,30.03,M,6.21,M,FEW,SCT,M,M,2200.00,3000.00,M,M,M,YBBN 071230Z 17005KT 9999 FEW022 SCT030 22/18 Q1017
YBBN,2015-01-07 13:00,153.1292,-27.3917,69.80,64.40,82.98,190.00,5.00,0.00,30.00,M,6.21,M,FEW,SCT,M,M,2800.00,5500.00,M,M,M,YBBN 071300Z 19005KT 9999 FEW028 SCT055 21/18 Q1016
YBBN,2015-01-07 13:30,153.1292,-27.3917,69.80,62.60,77.90,200.00,6.00,0.00,30.00,M,6.21,M,FEW,M,M,M,2500.00,M,M,M,M,YBBN 071330Z 20006KT 9999 FEW025 21/17 Q1016
YBBN,2015-01-07 14:00,153.1292,-27.3917,68.00,62.60,82.86,190.00,6.00,0.00,30.00,M,6.21,M,FEW,M,M,M,2400.00,M,M,M,M,YBBN 071400Z 19006KT 9999 FEW024 20/17 Q1016 NOSIG
YBBN,2015-01-07 14:30,153.1292,-27.3917,69.80,62.60,77.90,200.00,6.00,0.00,30.00,M,6.21,M,FEW,SCT,M,M,2400.00,8800.00,M,M,M,YBBN 071430Z 20006KT 9999 FEW024 SCT088 21/17 Q1016
YBBN,2015-01-07 15:00,153.1292,-27.3917,69.80,62.60,77.90,200.00,7.00,0.00,29.97,M,6.21,M,FEW,SCT,M,M,2400.00,6000.00,M,M,M,YBBN 071500Z 20007KT 9999 FEW024 SCT060 21/17 Q1015
YBBN,2015-01-07 15:30,153.1292,-27.3917,69.80,62.60,77.90,200.00,7.00,0.00,29.97,M,6.21,M,FEW,M,M,M,2400.00,M,M,M,M,YBBN 071530Z 20007KT 9999 FEW024 21/17 Q1015
YBBN,2015-01-07 16:00,153.1292,-27.3917,69.80,62.60,77.90,200.00,6.00,0.00,29.97,M,6.21,M,FEW,SCT,M,M,2400.00,6000.00,M,M,M,YBBN 071600Z 20006KT 9999 FEW024 SCT060 21/17 Q1015
YBBN,2015-01-07 16:30,153.1292,-27.3917,69.80,62.60,77.90,200.00,7.00,0.00,29.94,M,6.21,M,FEW,M,M,M,2600.00,M,M,M,M,YBBN 071630Z 20007KT 9999 FEW026 21/17 Q1014
YBBN,2015-01-07 17:00,153.1292,-27.3917,68.00,62.60,82.86,200.00,7.00,0.00,29.97,M,6.21,M,FEW,M,M,M,2800.00,M,M,M,M,YBBN 071700Z 20007KT 9999 FEW028 20/17 Q1015 NOSIG
YBBN,2015-01-07 17:30,153.1292,-27.3917,66.20,62.60,88.18,210.00,7.00,0.00,29.97,M,6.21,M,FEW,M,M,M,2500.00,M,M,M,M,YBBN 071730Z 21007KT 9999 FEW025 19/17 Q1015
YBBN,2015-01-07 18:00,153.1292,-27.3917,66.20,62.60,88.18,210.00,8.00,0.00,29.97,M,6.21,M,FEW,M,M,M,1800.00,M,M,M,M,YBBN 071800Z 21008KT 9999 FEW018 19/17 Q1015
YBBN,2015-01-07 18:30,153.1292,-27.3917,64.40,62.60,93.88,210.00,6.00,0.00,29.97,M,6.21,M,FEW,M,M,M,1800.00,M,M,M,M,YBBN 071830Z 21006KT 9999 FEW018 18/17 Q1015
YBBN,2015-01-07 19:00,153.1292,-27.3917,66.20,62.60,88.18,200.00,7.00,0.00,29.97,M,6.21,M,FEW,M,M,M,1800.00,M,M,M,VCSH,YBBN 071900Z 20007KT 9999 VCSH FEW018 19/17 Q1015
YBBN,2015-01-07 19:30,153.1292,-27.3917,68.00,62.60,82.86,200.00,7.00,0.00,29.97,M,6.21,M,FEW,BKN,M,M,1500.00,7500.00,M,M,M,YBBN 071930Z 20007KT 9999 FEW015 BKN075 20/17 Q1015
YBBN,2015-01-07 20:00,153.1292,-27.3917,69.80,62.60,77.90,200.00,6.00,0.00,29.97,M,6.21,M,FEW,SCT,BKN,M,1500.00,5000.00,7500.00,M,M,YBBN 072000Z 20006KT 9999 FEW015 SCT050 BKN075 21/17 Q1015
YBBN,2015-01-07 20:30,153.1292,-27.3917,69.80,62.60,77.90,210.00,8.00,0.00,29.97,M,6.21,M,FEW,SCT,BKN,M,1500.00,4200.00,6200.00,M,VCSH,YBBN 072030Z 21008KT 9999 VCSH FEW015 SCT042 BKN062 21/17 Q1015
YBBN,2015-01-07 21:00,153.1292,-27.3917,71.60,62.60,73.27,200.00,7.00,0.00,30.00,M,6.21,M,FEW,BKN,M,M,1700.00,5000.00,M,M,VCSH,YBBN 072100Z 20007KT 9999 VCSH FEW017 BKN050 22/17 Q1016
YBBN,2015-01-07 21:30,153.1292,-27.3917,75.20,64.40,69.14,170.00,10.00,0.00,30.00,M,6.21,M,FEW,BKN,M,M,1700.00,5000.00,M,M,VCSH,YBBN 072130Z 17010KT 9999 VCSH FEW017 BKN050 24/18 Q1016
YBBN,2015-01-07 22:00,153.1292,-27.3917,75.20,66.20,73.61,160.00,8.00,0.00,30.00,M,6.21,M,FEW,BKN,M,M,1800.00,5200.00,M,M,VCSH,YBBN 072200Z 16008KT 9999 VCSH FEW018 BKN052 24/19 Q1016 RMK SHRA NE
YBBN,2015-01-07 22:30,153.1292,-27.3917,77.00,66.20,69.33,140.00,8.00,0.00,30.00,M,6.21,M,FEW,SCT,BKN,M,1800.00,4700.00,8200.00,M,VCSH,YBBN 072230Z 14008KT 9999 VCSH FEW018 SCT047 BKN082 25/19 Q1016
YBBN,2015-01-07 23:00,153.1292,-27.3917,77.00,66.20,69.33,130.00,10.00,0.00,29.97,M,6.21,M,FEW,SCT,BKN,M,1700.00,4300.00,5800.00,M,VCSH,YBBN 072300Z 13010KT 9999 VCSH FEW017 SCT043 BKN058 25/19 Q1015
YBBN,2015-01-07 23:30,153.1292,-27.3917,78.80,68.00,69.52,130.00,8.00,0.00,29.97,M,6.21,M,FEW,SCT,BKN,M,1700.00,4300.00,6800.00,M,VCSH,YBBN 072330Z 13008KT 9999 VCSH FEW017 SCT043 BKN068 26/20 Q1015
