#DEBUG: Format Typ    -> comma
#DEBUG: Time Period   -> 2011-02-26 00:00:00+00:00 2011-02-27 00:00:00+00:00
#DEBUG: Time Zone     -> Etc/UTC
#DEBUG: Data Contact   -> daryl herzmann akrherz@iastate.edu 515-294-5978
#DEBUG: Entries Found -> -1
station,valid,lon,lat,tmpf, dwpf, relh, drct, sknt, p01i, alti, mslp, vsby, gust, skyc1, skyc2, skyc3, skyc4, skyl1, skyl2, skyl3, skyl4, presentwx, metar
YBBN,2011-02-26 00:00,153.1292,-27.3917,78.80,64.40,61.36,360.00,7.00,M,29.94,M,6.21,M,SCT,M,M,M,3800.00,M,M,M,M,YBBN 260000Z 36007KT 9999 SCT038 26/18 Q1014 NOSIG
YBBN,2011-02-26 00:30,153.1292,-27.3917,80.60,64.40,57.84,40.00,7.00,M,29.91,M,6.21,M,SCT,M,M,M,3600.00,M,M,M,M,YBBN 260030Z 04007KT 9999 SCT036 27/18 Q1013 NOSIG
YBBN,2011-02-26 01:00,153.1292,-27.3917,80.60,62.60,54.30,40.00,6.00,M,29.91,M,6.21,M,SCT,M,M,M,3700.00,M,M,M,M,YBBN 260100Z 04006KT 9999 SCT037 27/17 Q1013 NOSIG
YBBN,2011-02-26 01:30,153.1292,-27.3917,82.40,59.00,45.07,30.00,8.00,M,29.91,M,6.21,M,FEW,M,M,M,4000.00,M,M,M,M,YBBN 260130Z 03008KT 9999 FEW040 28/15 Q1013 NOSIG
YBBN,2011-02-26 02:00,153.1292,-27.3917,82.40,59.00,45.07,40.00,8.00,M,29.91,M,6.21,M,FEW,M,M,M,4200.00,M,M,M,M,YBBN 260200Z 04008KT 9999 FEW042 28/15 Q1013 NOSIG
YBBN,2011-02-26 02:30,153.1292,-27.3917,82.40,60.80,48.05,40.00,8.00,M,29.88,M,6.21,M,FEW,M,M,M,4200.00,M,M,M,M,YBBN 260230Z 04008KT 9999 FEW042 28/16 Q1012 NOSIG
YBBN,2011-02-26 03:00,153.1292,-27.3917,82.40,59.00,45.07,40.00,10.00,M,29.88,M,6.21,M,SCT,FEW,M,M,4000.00,4200.00,M,M,M,YBBN 260300Z 04010KT 9999 SCT040 FEW042TCU 28/15 Q1012 RMK DIST SH S NOSIG
YBBN,2011-02-26 03:30,153.1292,-27.3917,82.40,60.80,48.05,40.00,9.00,M,29.88,M,6.21,M,SCT,FEW,M,M,4000.00,4000.00,M,M,M,YBBN 260330Z 04009KT 9999 SCT040 FEW040TCU 28/16 Q1012 NOSIG
YBBN,2011-02-26 04:00,153.1292,-27.3917,82.40,62.60,51.21,40.00,9.00,M,29.85,M,6.21,M,FEW,M,M,M,4000.00,M,M,M,M,YBBN 260400Z 04009KT 9999 FEW040 28/17 Q1011 NOSIG
YBBN,2011-02-26 04:30,153.1292,-27.3917,80.60,60.80,50.95,50.00,10.00,M,29.85,M,6.21,M,FEW,M,M,M,4000.00,M,M,M,M,YBBN 260430Z 05010KT 9999 FEW040 27/16 Q1011 NOSIG
YBBN,2011-02-26 05:00,153.1292,-27.3917,80.60,62.60,54.30,40.00,11.00,M,29.85,M,6.21,M,FEW,M,M,M,4000.00,M,M,M,M,YBBN 260500Z 04011KT 9999 FEW040 27/17 Q1011 RMK DISTANT TCU TOPS NOSIG
YBBN,2011-02-26 05:30,153.1292,-27.3917,80.60,60.80,50.95,50.00,11.00,M,29.85,M,6.21,M,FEW,FEW,M,M,4000.00,4000.00,M,M,M,YBBN 260530Z 05011KT 9999 FEW040 FEW040TCU 27/16 Q1011 NOSIG
YBBN,2011-02-26 06:00,153.1292,-27.3917,80.60,62.60,54.30,60.00,10.00,M,29.85,M,6.21,M,FEW,FEW,M,M,4000.00,4000.00,M,M,M,YBBN 260600Z 06010KT 9999 FEW040 FEW040TCU 27/17 Q1011 RMK DISTANT SH NOSIG
YBBN,2011-02-26 06:30,153.1292,-27.3917,80.60,64.40,57.84,50.00,11.00,M,29.83,M,6.21,M,FEW,FEW,M,M,3800.00,4000.00,M,M,M,YBBN 260630Z 05011KT 9999 FEW038 FEW040TCU 27/18 Q1010 RMK DISTANT SH NOSIG
YBBN,2011-02-26 07:00,153.1292,-27.3917,78.80,64.40,61.36,50.00,9.00,M,29.85,M,6.21,M,FEW,M,M,M,3200.00,M,M,M,M,YBBN 260700Z 05009KT 9999 FEW032 26/18 Q1011 RMK DIST SH NOSIG
YBBN,2011-02-26 07:30,153.1292,-27.3917,77.00,62.60,61.13,70.00,8.00,M,29.85,M,6.21,M,FEW,SCT,FEW,M,1800.00,12000.00,3500.00,M,M,YBBN 260730Z 07008KT 9999 FEW018 SCT120 FEW035TCU 25/17 Q1011 RMK DIST SH NOSIG
YBBN,2011-02-26 08:00,153.1292,-27.3917,77.00,62.60,61.13,60.00,7.00,M,29.85,M,6.21,M,FEW,SCT,M,M,2000.00,12000.00,M,M,M,YBBN 260800Z 06007KT 9999 FEW020 SCT120 25/17 Q1011 RMK DISTANT SHOWER NOSIG
YBBN,2011-02-26 08:30,153.1292,-27.3917,77.00,62.60,61.13,60.00,7.00,M,29.85,M,6.21,M,FEW,BKN,M,M,2000.00,12000.00,M,M,M,YBBN 260830Z 06007KT 9999 FEW020 BKN120 25/17 Q1011 RMK DISTANT SHOWER NOSIG
YBBN,2011-02-26 09:00,153.1292,-27.3917,77.00,62.60,61.13,50.00,6.00,M,29.88,M,6.21,M,M,M,M,M,M,M,M,M,M,YBBN 260900Z 05006KT CAVOK 25/17 Q1012 RMK 5AC120 NOSIG
YBBN,2011-02-26 09:30,153.1292,-27.3917,75.20,62.60,64.91,50.00,7.00,M,29.88,M,6.21,M,M,M,M,M,M,M,M,M,M,YBBN 260930Z 05007KT CAVOK 24/17 Q1012 RMK 5AC120 NOSIG
YBBN,2011-02-26 10:00,153.1292,-27.3917,75.20,62.60,64.91,30.00,8.00,M,29.88,M,6.21,M,M,M,M,M,M,M,M,M,M,YBBN 261000Z 03008KT CAVOK 24/17 Q1012 RMK 6AC120 NOSIG
YBBN,2011-02-26 10:30,153.1292,-27.3917,77.00,62.60,61.13,50.00,7.00,M,29.88,M,6.21,M,M,M,M,M,M,M,M,M,M,YBBN 261030Z 05007KT CAVOK 25/17 Q1012 RMK 7AC110 NOSIG
YBBN,2011-02-26 11:00,153.1292,-27.3917,75.20,62.60,64.91,40.00,7.00,M,29.88,M,6.21,M,M,M,M,M,M,M,M,M,M,YBBN 261100Z 04007KT CAVOK 24/17 Q1012 RMK DISTANT SHOWER 7AC120 NOSIG
YBBN,2011-02-26 11:30,153.1292,-27.3917,75.20,64.40,69.14,40.00,7.00,M,29.91,M,6.21,M,M,M,M,M,M,M,M,M,M,YBBN 261130Z 04007KT CAVOK 24/18 Q1013 RMK 7AC120 NOSIG
YBBN,2011-02-26 12:00,153.1292,-27.3917,75.20,64.40,69.14,40.00,8.00,M,29.91,M,6.21,M,FEW,BKN,M,M,2000.00,11000.00,M,M,M,YBBN 261200Z 04008KT 9999 FEW020 BKN110 24/18 Q1013 NOSIG
YBBN,2011-02-26 12:30,153.1292,-27.3917,75.20,64.40,69.14,40.00,6.00,M,29.91,M,6.21,M,FEW,BKN,M,M,2500.00,10500.00,M,M,M,YBBN 261230Z 04006KT 9999 FEW025 BKN105 24/18 Q1013 NOSIG
YBBN,2011-02-26 13:00,153.1292,-27.3917,75.20,64.40,69.14,40.00,5.00,M,29.91,M,6.21,M,FEW,BKN,M,M,2500.00,10500.00,M,M,M,YBBN 261300Z 04005KT 9999 FEW025 BKN105 24/18 Q1013 NOSIG
YBBN,2011-02-26 13:30,153.1292,-27.3917,75.20,64.40,69.14,30.00,9.00,M,29.88,M,6.21,M,FEW,BKN,M,M,3000.00,9500.00,M,M,M,YBBN 261330Z 03009KT 9999 FEW030 BKN095 24/18 Q1012 NOSIG
YBBN,2011-02-26 14:00,153.1292,-27.3917,75.20,64.40,69.14,40.00,9.00,M,29.88,M,6.21,M,FEW,BKN,M,M,2500.00,9500.00,M,M,M,YBBN 261400Z 04009KT 9999 FEW025 BKN095 24/18 Q1012 NOSIG
YBBN,2011-02-26 14:30,153.1292,-27.3917,75.20,64.40,69.14,40.00,7.00,M,29.88,M,6.21,M,FEW,BKN,M,M,2500.00,11000.00,M,M,M,YBBN 261430Z 04007KT 9999 FEW025 BKN110 24/18 Q1012 NOSIG
YBBN,2011-02-26 15:00,153.1292,-27.3917,75.20,64.40,69.14,30.00,7.00,M,29.88,M,6.21,M,FEW,BKN,M,M,3000.00,11500.00,M,M,M,YBBN 261500Z 03007KT 9999 FEW030 BKN115 24/18 Q1012 NOSIG
YBBN,2011-02-26 15:30,153.1292,-27.3917,75.20,64.40,69.14,30.00,8.00,M,29.85,M,6.21,M,FEW,BKN,M,M,3000.00,11000.00,M,M,M,YBBN 261530Z 03008KT 9999 FEW030 BKN110 24/18 Q1011 NOSIG
YBBN,2011-02-26 16:00,153.1292,-27.3917,75.20,64.40,69.14,40.00,7.00,M,29.85,M,6.21,M,FEW,SCT,M,M,3000.00,11000.00,M,M,M,YBBN 261600Z 04007KT 9999 FEW030 SCT110 24/18 Q1011 NOSIG
YBBN,2011-02-26 16:30,153.1292,-27.3917,75.20,64.40,69.14,40.00,7.00,M,29.85,M,6.21,M,SCT,SCT,M,M,3500.00,10000.00,M,M,M,YBBN 261630Z 04007KT 9999 SCT035 SCT100 24/18 Q1011 NOSIG
YBBN,2011-02-26 17:00,153.1292,-27.3917,75.20,66.20,73.61,330.00,5.00,M,29.85,M,6.21,M,SCT,SCT,M,M,3500.00,10000.00,M,M,M,YBBN 261700Z 33005KT 9999 SCT035 SCT100 24/19 Q1011 NOSIG
YBBN,2011-02-26 17:30,153.1292,-27.3917,73.40,66.20,78.19,270.00,3.00,M,29.85,M,6.21,M,SCT,SCT,M,M,3000.00,10000.00,M,M,M,YBBN 261730Z 27003KT 9999 SCT030 SCT100 23/19 Q1011 NOSIG
YBBN,2011-02-26 18:00,153.1292,-27.3917,73.40,66.20,78.19,270.00,4.00,M,29.85,M,6.21,M,FEW,BKN,M,M,3000.00,4800.00,M,M,M,YBBN 261800Z 27004KT 9999 FEW030 BKN048 23/19 Q1011 NOSIG
YBBN,2011-02-26 18:30,153.1292,-27.3917,73.40,66.20,78.19,250.00,2.00,M,29.85,M,6.21,M,FEW,SCT,M,M,2500.00,4500.00,M,M,M,YBBN 261830Z 25002KT 9999 FEW025 SCT045 23/19 Q1011 NOSIG
YBBN,2011-02-26 19:00,153.1292,-27.3917,71.60,66.20,83.09,0.00,0.00,M,29.85,M,6.21,M,FEW,SCT,M,M,2500.00,4000.00,M,M,M,YBBN 261900Z 00000KT 9999 FEW025 SCT040 22/19 Q1011 NOSIG
YBBN,2011-02-26 19:30,153.1292,-27.3917,71.60,66.20,83.09,250.00,1.00,M,29.88,M,6.21,M,FEW,SCT,M,M,2500.00,4000.00,M,M,M,YBBN 261930Z 25001KT 9999 FEW025 SCT040 22/19 Q1012 NOSIG
YBBN,2011-02-26 20:00,153.1292,-27.3917,71.60,66.20,83.09,240.00,2.00,M,29.88,M,6.21,M,FEW,M,M,M,3500.00,M,M,M,M,YBBN 262000Z 24002KT 9999 FEW035 22/19 Q1012 NOSIG
YBBN,2011-02-26 20:30,153.1292,-27.3917,73.40,66.20,78.19,0.00,0.00,M,29.88,M,6.21,M,FEW,M,M,M,3200.00,M,M,M,M,YBBN 262030Z 00000KT 9999 FEW032 23/19 Q1012 NOSIG
YBBN,2011-02-26 21:00,153.1292,-27.3917,77.00,66.20,69.33,200.00,3.00,M,29.91,M,6.21,M,FEW,M,M,M,3400.00,M,M,M,M,YBBN 262100Z 20003KT 9999 FEW034 25/19 Q1013 NOSIG
YBBN,2011-02-26 21:30,153.1292,-27.3917,77.00,64.40,65.12,260.00,4.00,M,29.91,M,6.21,M,FEW,M,M,M,3600.00,M,M,M,M,YBBN 262130Z 26004KT 9999 FEW036 25/18 Q1013 NOSIG
YBBN,2011-02-26 22:00,153.1292,-27.3917,78.80,64.40,61.36,300.00,4.00,M,29.91,M,6.21,M,FEW,M,M,M,4000.00,M,M,M,M,YBBN 262200Z 30004KT 9999 FEW040 26/18 Q1013 NOSIG
YBBN,2011-02-26 22:30,153.1292,-27.3917,80.60,66.20,61.58,340.00,5.00,M,29.91,M,6.21,M,FEW,M,M,M,3000.00,M,M,M,M,YBBN 262230Z 34005KT 9999 FEW030 27/19 Q1013 NOSIG
YBBN,2011-02-26 23:00,153.1292,-27.3917,78.80,64.40,61.36,350.00,5.00,M,29.91,M,6.21,M,SCT,M,M,M,3000.00,M,M,M,M,YBBN 262300Z 35005KT 9999 SCT030 26/18 Q1013 NOSIG
YBBN,2011-02-26 23:30,153.1292,-27.3917,80.60,64.40,57.84,20.00,7.00,M,29.91,M,6.21,M,SCT,M,M,M,3200.00,M,M,M,M,YBBN 262330Z 02007KT 9999 SCT032 27/18 Q1013 NOSIG
