#DEBUG: Format Typ    -> comma
#DEBUG: Time Period   -> 2013-11-29 00:00:00+00:00 2013-11-30 00:00:00+00:00
#DEBUG: Time Zone     -> Etc/UTC
#DEBUG: Data Contact   -> daryl herzmann akrherz@iastate.edu 515-294-5978
#DEBUG: Entries Found -> -1
station,valid,lon,lat,tmpf, dwpf, relh, drct, sknt, p01i, alti, mslp, vsby, gust, skyc1, skyc2, skyc3, skyc4, skyl1, skyl2, skyl3, skyl4, presentwx, metar
YBBN,2013-11-29 00:00,153.1292,-27.3917,80.60,62.60,54.30,10.00,8.00,0.00,29.80,M,6.21,M,M,M,M,M,M,M,M,M,M,YBBN 290000Z 01008KT CAVOK 27/17 Q1009 NOSIG
YBBN,2013-11-29 00:30,153.1292,-27.3917,82.40,64.40,54.55,30.00,12.00,0.00,29.80,M,6.21,M,M,M,M,M,M,M,M,M,M,YBBN 290030Z 03012KT CAVOK 28/18 Q1009
YBBN,2013-11-29 01:00,153.1292,-27.3917,84.20,62.60,48.32,20.00,13.00,0.00,29.77,M,6.21,M,M,M,M,M,M,M,M,M,M,YBBN 290100Z 02013KT CAVOK 29/17 Q1008 NOSIG
YBBN,2013-11-29 01:30,153.1292,-27.3917,82.40,64.40,54.55,30.00,19.00,0.00,29.77,M,6.21,M,M,M,M,M,M,M,M,M,M,YBBN 290130Z 03019KT CAVOK 28/18 Q1008 RMK HZ
YBBN,2013-11-29 02:00,153.1292,-27.3917,80.60,68.00,65.54,20.00,19.00,0.00,29.74,M,6.21,M,M,M,M,M,M,M,M,M,M,YBBN 290200Z 02019KT CAVOK 27/20 Q1007 RMK HZ
YBBN,2013-11-29 02:30,153.1292,-27.3917,82.40,69.80,65.74,20.00,20.00,0.00,29.74,M,6.21,M,M,M,M,M,M,M,M,M,M,YBBN 290230Z 02020KT CAVOK 28/21 Q1007 RMK HZ
YBBN,2013-11-29 03:00,153.1292,-27.3917,82.40,69.80,65.74,20.00,20.00,0.00,29.71,M,6.21,M,M,M,M,M,M,M,M,M,M,YBBN 290300Z 02020KT CAVOK 28/21 Q1006 RMK HZ
YBBN,2013-11-29 03:30,153.1292,-27.3917,80.60,69.80,69.71,20.00,21.00,0.00,29.71,M,6.21,M,M,M,M,M,M,M,M,M,M,YBBN 290330Z 02021KT CAVOK 27/21 Q1006 RMK HZ
YBBN,2013-11-29 04:00,153.1292,-27.3917,82.40,69.80,65.74,20.00,20.00,0.00,29.71,M,6.21,M,M,M,M,M,M,M,M,M,M,YBBN 290400Z 02020KT CAVOK 28/21 Q1006
YBBN,2013-11-29 04:30,153.1292,-27.3917,78.80,69.80,73.95,20.00,19.00,0.00,29.68,M,6.21,M,M,M,M,M,M,M,M,M,M,YBBN 290430Z 02019KT CAVOK 26/21 Q1005 RMK HZ
YBBN,2013-11-29 05:00,153.1292,-27.3917,80.60,69.80,69.71,10.00,22.00,0.00,29.68,M,6.21,M,M,M,M,M,M,M,M,M,M,YBBN 290500Z 01022KT CAVOK 27/21 Q1005 FM0500 02022KT CAVOK FM0600 02017KT CAVOK
YBBN,2013-11-29 05:30,153.1292,-27.3917,80.60,68.00,65.54,10.00,22.00,0.00,29.68,M,6.21,M,M,M,M,M,M,M,M,M,M,YBBN 290530Z 01022KT CAVOK 27/20 Q1005 RMK HZ
YBBN,2013-11-29 06:00,153.1292,-27.3917,78.80,68.00,69.52,10.00,21.00,0.00,29.68,M,6.21,M,M,M,M,M,M,M,M,M,M,YBBN 290600Z 01021KT CAVOK 26/20 Q1005
YBBN,2013-11-29 06:30,153.1292,-27.3917,78.80,68.00,69.52,10.00,20.00,0.00,29.68,M,6.21,M,M,M,M,M,M,M,M,M,M,YBBN 290630Z 01020KT CAVOK 26/20 Q1005 RMK HZ
YBBN,2013-11-29 07:00,153.1292,-27.3917,78.80,68.00,69.52,10.00,21.00,0.00,29.68,M,6.21,M,M,M,M,M,M,M,M,M,M,YBBN 290700Z 01021KT CAVOK 26/20 Q1005 NOSIG
YBBN,2013-11-29 07:30,153.1292,-27.3917,78.80,64.40,61.36,10.00,18.00,0.00,29.68,M,6.21,M,M,M,M,M,M,M,M,M,M,YBBN 290730Z 01018KT CAVOK 26/18 Q1005 RMK HZ
YBBN,2013-11-29 08:00,153.1292,-27.3917,78.80,64.40,61.36,360.00,18.00,0.00,29.68,M,6.21,M,M,M,M,M,M,M,M,M,M,YBBN 290800Z 36018KT CAVOK 26/18 Q1005 NOSIG
YBBN,2013-11-29 08:30,153.1292,-27.3917,78.80,66.20,65.33,360.00,18.00,0.00,29.71,M,6.21,M,M,M,M,M,M,M,M,M,M,YBBN 290830Z 36018KT CAVOK 26/19 Q1006
YBBN,2013-11-29 09:00,153.1292,-27.3917,77.00,66.20,69.33,360.00,18.00,0.00,29.71,M,6.21,M,M,M,M,M,M,M,M,M,M,YBBN 290900Z 36018KT CAVOK 25/19 Q1006
YBBN,2013-11-29 09:30,153.1292,-27.3917,77.00,68.00,73.78,360.00,17.00,0.00,29.71,M,6.21,M,M,M,M,M,M,M,M,M,M,YBBN 290930Z 36017KT CAVOK 25/20 Q1006
YBBN,2013-11-29 10:00,153.1292,-27.3917,77.00,68.00,73.78,360.00,16.00,0.00,29.71,M,6.21,M,M,M,M,M,M,M,M,M,M,YBBN 291000Z 36016KT CAVOK 25/20 Q1006
YBBN,2013-11-29 10:30,153.1292,-27.3917,77.00,66.20,69.33,350.00,12.00,0.00,29.74,M,6.21,M,M,M,M,M,M,M,M,M,M,YBBN 291030Z 35012KT CAVOK 25/19 Q1007 RMK 8AS210
YBBN,2013-11-29 11:00,153.1292,-27.3917,77.00,66.20,69.33,350.00,9.00,0.00,29.74,M,6.21,M,M,M,M,M,M,M,M,M,M,YBBN 291100Z 35009KT CAVOK 25/19 Q1007 RMK 7AS200
YBBN,2013-11-29 11:30,153.1292,-27.3917,77.00,64.40,65.12,330.00,6.00,0.00,29.74,M,6.21,M,M,M,M,M,M,M,M,M,M,YBBN 291130Z 33006KT CAVOK 25/18 Q1007 RMK 7AS200
YBBN,2013-11-29 12:00,153.1292,-27.3917,78.80,64.40,61.36,310.00,7.00,0.00,29.74,M,6.21,M,M,M,M,M,M,M,M,M,M,YBBN 291200Z 31007KT CAVOK 26/18 Q1007 TEMPO 1400/1500 3000 RA BKN010 BKN020
YBBN,2013-11-29 12:30,153.1292,-27.3917,77.00,66.20,69.33,200.00,9.00,0.00,29.77,M,6.21,M,M,M,M,M,M,M,M,M,M,YBBN 291230Z 20009KT CAVOK 25/19 Q1008 RMK 8AS180
YBBN,2013-11-29 13:00,153.1292,-27.3917,77.00,64.40,65.12,190.00,12.00,0.00,29.77,M,6.21,M,M,M,M,M,M,M,M,M,M,YBBN 291300Z 19012KT CAVOK 25/18 Q1008
YBBN,2013-11-29 13:30,153.1292,-27.3917,75.20,66.20,73.61,160.00,10.00,0.00,29.77,M,6.21,M,M,M,M,M,M,M,M,M,M,YBBN 291330Z 16010KT CAVOK 24/19 Q1008 RMK 8AS180
YBBN,2013-11-29 14:00,153.1292,-27.3917,75.20,66.20,73.61,160.00,8.00,0.00,29.77,M,6.21,M,M,M,M,M,M,M,M,M,M,YBBN 291400Z 16008KT CAVOK 24/19 Q1008 RMK 8AS180
YBBN,2013-11-29 14:30,153.1292,-27.3917,73.40,68.00,83.21,170.00,7.00,0.00,29.77,M,6.21,M,FEW,BKN,OVC,M,4000.00,7500.00,10000.00,M,-RA,YBBN 291430Z 17007KT 9999 -RA FEW040 BKN075 OVC100 23/20 Q1008
YBBN,2013-11-29 15:00,153.1292,-27.3917,71.60,68.00,88.43,170.00,4.00,0.00,29.77,M,6.21,M,BKN,OVC,M,M,4000.00,9000.00,M,M,-RA,YBBN 291500Z 17004KT 9999 -RA BKN040 OVC090 22/20 Q1008 TEMPO 1500/1800 5000 RA BKN010 BKN020
YBBN,2013-11-29 15:30,153.1292,-27.3917,71.60,68.00,88.43,160.00,6.00,0.00,29.77,M,6.21,M,FEW,SCT,OVC,M,2500.00,4000.00,11000.00,M,M,YBBN 291530Z 16006KT 9999 FEW025 SCT040 OVC110 22/20 Q1008
YBBN,2013-11-29 16:00,153.1292,-27.3917,71.60,68.00,88.43,140.00,5.00,0.00,29.77,M,6.21,M,FEW,SCT,OVC,M,700.00,5500.00,13000.00,M,-RA,YBBN 291600Z 14005KT 9999 -RA FEW007 SCT055 OVC130 22/20 Q1008
YBBN,2013-11-29 16:30,153.1292,-27.3917,69.80,68.00,94.01,160.00,5.00,0.00,29.77,M,6.21,M,FEW,SCT,OVC,M,700.00,1000.00,12000.00,M,-RA,YBBN 291630Z 16005KT 9999 -RA FEW007 SCT010 OVC120 21/20 Q1008
YBBN,2013-11-29 17:00,153.1292,-27.3917,69.80,68.00,94.01,150.00,6.00,0.00,29.77,M,6.21,M,FEW,BKN,OVC,M,800.00,1500.00,13000.00,M,-RA,YBBN 291700Z 15006KT 9999 -RA FEW008 BKN015 OVC130 21/20 Q1008
YBBN,2013-11-29 17:30,153.1292,-27.3917,69.80,68.00,94.01,140.00,6.00,0.00,29.80,M,6.21,M,FEW,BKN,M,M,800.00,1000.00,M,M,-RA,YBBN 291730Z 14006KT 9999 -RA FEW008 BKN010 21/20 Q1009
YBBN,2013-11-29 18:00,153.1292,-27.3917,69.80,68.00,94.01,140.00,5.00,0.00,29.80,M,6.21,M,FEW,BKN,M,M,800.00,1200.00,M,M,-RA,YBBN 291800Z 14005KT 9999 -RA FEW008 BKN012 21/20 Q1009
YBBN,2013-11-29 18:30,153.1292,-27.3917,69.80,68.00,94.01,120.00,7.00,0.00,29.80,M,6.21,M,FEW,BKN,M,M,800.00,1200.00,M,M,-RA,YBBN 291830Z 12007KT 9999 -RA FEW008 BKN012 21/20 Q1009
YBBN,2013-11-29 19:00,153.1292,-27.3917,69.80,66.20,88.34,140.00,7.00,0.00,29.80,M,6.21,M,FEW,BKN,BKN,M,800.00,1200.00,2300.00,M,-DZ,YBBN 291900Z 14007KT 9999 -DZ FEW008 BKN012 BKN023 21/19 Q1009
YBBN,2013-11-29 19:30,153.1292,-27.3917,68.00,66.20,93.97,150.00,8.00,0.00,29.83,M,6.21,M,FEW,BKN,M,M,1000.00,2200.00,M,M,M,YBBN 291930Z 15008KT 9999 FEW010 BKN022 20/19 Q1010
YBBN,2013-11-29 20:00,153.1292,-27.3917,68.00,64.40,88.26,120.00,10.00,0.00,29.83,M,6.21,M,FEW,BKN,M,M,1000.00,2200.00,M,M,-RA,YBBN 292000Z 12010KT 9999 -RA FEW010 BKN022 20/18 Q1010 TEMPO 2000/2300 5000 RA BKN010 BKN020
YBBN,2013-11-29 20:30,153.1292,-27.3917,68.00,64.40,88.26,150.00,10.00,0.00,29.85,M,6.21,M,SCT,BKN,M,M,1000.00,2500.00,M,M,-RA,YBBN 292030Z 15010KT 9999 -RA SCT010 BKN025 20/18 Q1011
YBBN,2013-11-29 21:00,153.1292,-27.3917,66.20,64.40,93.92,190.00,11.00,0.00,29.88,M,6.21,M,FEW,BKN,M,M,1000.00,2200.00,M,M,RA,YBBN 292100Z 19011KT 9999 5000S RA FEW010 BKN022 19/18 Q1012
YBBN,2013-11-29 21:15,153.1292,-27.3917,66.20,64.40,93.92,180.00,10.00,0.00,29.88,M,3.11,21.00,FEW,BKN,M,M,1000.00,4000.00,M,M,RA,YBBN 292115Z 18010G21KT 5000 RA FEW010 BKN040 19/18 Q1012 RERA
YBBN,2013-11-29 21:22,153.1292,-27.3917,66.20,64.40,93.92,180.00,9.00,0.00,29.88,M,3.11,M,FEW,BKN,M,M,1000.00,4000.00,M,M,RA,YBBN 292122Z 18009KT 5000 2000S RA FEW010 BKN040 19/18 Q1012 RERA
YBBN,2013-11-29 21:25,153.1292,-27.3917,66.20,64.40,93.92,190.00,10.00,0.00,29.88,M,1.86,M,SCT,BKN,M,M,1200.00,4000.00,M,M,+RA,YBBN 292125Z 19010KT 3000 2000S +RA SCT012 BKN040 19/18 Q1012 RERA
YBBN,2013-11-29 21:30,153.1292,-27.3917,66.20,64.40,93.92,190.00,10.00,0.00,29.88,M,1.55,M,SCT,BKN,M,M,1200.00,4000.00,M,M,RA,YBBN 292130Z 19010KT 2500 RA SCT012 BKN040 19/18 Q1012 RERA
YBBN,2013-11-29 21:38,153.1292,-27.3917,66.20,64.40,93.92,180.00,9.00,0.00,29.88,M,3.11,M,FEW,BKN,M,M,1200.00,2500.00,M,M,-RA,YBBN 292138Z 18009KT 5000 -RA FEW012 BKN025 19/18 Q1012 RERA
YBBN,2013-11-29 21:55,153.1292,-27.3917,66.20,64.40,93.92,170.00,9.00,0.00,29.88,M,6.21,M,FEW,BKN,M,M,1200.00,4000.00,M,M,-RA,YBBN 292155Z 17009KT 9999 -RA FEW012 BKN040 19/18 Q1012 RERA
YBBN,2013-11-29 22:00,153.1292,-27.3917,66.20,64.40,93.92,170.00,7.00,0.00,29.88,M,6.21,M,FEW,BKN,M,M,1200.00,5000.00,M,M,-RA,YBBN 292200Z 17007KT 9999 -RA FEW012 BKN050 19/18 Q1012 RERA
YBBN,2013-11-29 22:30,153.1292,-27.3917,66.20,64.40,93.92,180.00,7.00,0.00,29.88,M,6.21,M,FEW,BKN,M,M,1200.00,4600.00,M,M,-RA,YBBN 292230Z 18007KT 9999 -RA FEW012 BKN046 19/18 Q1012
YBBN,2013-11-29 23:00,153.1292,-27.3917,66.20,64.40,93.92,170.00,7.00,0.00,29.91,M,5.59,M,SCT,BKN,M,M,1000.00,5400.00,M,M,-RA,YBBN 292300Z 17007KT 9000 -RA SCT010 BKN054 19/18 Q1013
YBBN,2013-11-29 23:30,153.1292,-27.3917,66.20,64.40,93.92,200.00,8.00,0.00,29.91,M,6.21,M,FEW,BKN,M,M,800.00,5400.00,M,M,-RA,YBBN 292330Z 20008KT 9999 -RA FEW008 BKN054 19/18 Q1013
YBBN,2013-11-29 23:43,153.1292,-27.3917,66.20,64.40,93.92,200.00,8.00,0.00,29.91,M,2.17,M,SCT,BKN,M,M,800.00,3600.00,M,M,RA,YBBN 292343Z 20008KT 3500 RA SCT008 BKN036 19/18 Q1013
