#DEBUG: Format Typ    -> comma
#DEBUG: Time Period   -> 2014-12-27 00:00:00+00:00 2014-12-28 00:00:00+00:00
#DEBUG: Time Zone     -> Etc/UTC
#DEBUG: Data Contact   -> daryl herzmann akrherz@iastate.edu 515-294-5978
#DEBUG: Entries Found -> -1
station,valid,lon,lat,tmpf, dwpf, relh, drct, sknt, p01i, alti, mslp, vsby, gust, skyc1, skyc2, skyc3, skyc4, skyl1, skyl2, skyl3, skyl4, presentwx, metar
YBBN,2014-12-27 00:00,153.1292,-27.3917,71.60,69.80,94.06,200.00,7.00,0.00,29.94,M,4.97,M,FEW,SCT,BKN,M,400.00,800.00,1400.00,M,-RA,YBBN 270000Z 20007KT 8000 -RA FEW004 SCT008 BKN014 22/21 Q1014 RERA
YBBN,2014-12-27 00:30,153.1292,-27.3917,71.60,69.80,94.06,200.00,8.00,0.00,29.94,M,6.21,M,FEW,BKN,M,M,600.00,1000.00,M,M,VCSH,YBBN 270030Z 20008KT 9999 VCSH FEW006 BKN010 22/21 Q1014
YBBN,2014-12-27 01:00,153.1292,-27.3917,71.60,69.80,94.06,200.00,8.00,0.00,29.94,M,6.21,M,FEW,BKN,M,M,600.00,1000.00,M,M,-RA,YBBN 270100Z 20008KT 9999 -RA FEW006 BKN010 22/21 Q1014
YBBN,2014-12-27 01:26,153.1292,-27.3917,71.60,69.80,94.06,190.00,8.00,0.00,29.94,M,2.49,M,FEW,BKN,M,M,700.00,1400.00,M,M,RA,YBBN 270126Z 19008KT 4000 RA FEW007 BKN014 22/21 Q1014
YBBN,2014-12-27 01:30,153.1292,-27.3917,71.60,69.80,94.06,200.00,8.00,0.00,29.94,M,1.86,M,FEW,BKN,M,M,700.00,1400.00,M,M,RA,YBBN 270130Z 20008KT 3000 RA FEW007 BKN014 22/21 Q1014
YBBN,2014-12-27 02:00,153.1292,-27.3917,73.40,71.60,94.10,180.00,4.00,0.00,29.94,M,1.55,M,FEW,SCT,BKN,M,500.00,1300.00,2400.00,M,-RA,YBBN 270200Z 18004KT 2500 -RA FEW005 SCT013 BKN024 23/22 Q1014 RERA
YBBN,2014-12-27 02:13,153.1292,-27.3917,71.60,69.80,94.06,190.00,6.00,0.00,29.94,M,2.49,M,FEW,SCT,BKN,M,500.00,1200.00,2000.00,M,-RA,YBBN 270213Z 19006KT 4000 -RA FEW005 SCT012 BKN020 22/21 Q1014 RERA
YBBN,2014-12-27 02:30,153.1292,-27.3917,73.40,69.80,88.51,200.00,7.00,0.00,29.91,M,3.73,M,FEW,SCT,BKN,M,400.00,1300.00,2800.00,M,-RA,YBBN 270230Z 20007KT 6000 -RA FEW004 SCT013 BKN028 23/21 Q1013 RERA
YBBN,2014-12-27 02:41,153.1292,-27.3917,73.40,71.60,94.10,200.00,8.00,0.00,29.91,M,3.73,M,FEW,SCT,BKN,M,400.00,700.00,1200.00,M,-RA,YBBN 270241Z 20008KT 6000 -RA FEW004 SCT007 BKN012 23/22 Q1013 RERA
YBBN,2014-12-27 03:00,153.1292,-27.3917,73.40,71.60,94.10,210.00,7.00,0.00,29.91,M,5.59,M,FEW,BKN,M,M,400.00,900.00,M,M,-RA,YBBN 270300Z 21007KT 9000 -RA FEW004 BKN009 23/22 Q1013
YBBN,2014-12-27 03:30,153.1292,-27.3917,71.60,69.80,94.06,220.00,9.00,0.00,29.91,M,6.21,M,FEW,SCT,BKN,M,400.00,700.00,1200.00,M,-RA,YBBN 270330Z 22009KT 9999 -RA FEW004 SCT007 BKN012 22/21 Q1013
YBBN,2014-12-27 04:00,153.1292,-27.3917,73.40,71.60,94.10,220.00,9.00,0.00,29.91,M,4.97,M,FEW,BKN,BKN,M,400.00,1200.00,1700.00,M,-RA,YBBN 270400Z 22009KT 8000 -RA FEW004 BKN012 BKN017 23/22 Q1013
YBBN,2014-12-27 04:30,153.1292,-27.3917,71.60,69.80,94.06,200.00,11.00,0.00,29.91,M,6.21,M,FEW,SCT,BKN,M,600.00,900.00,1300.00,M,-RA,YBBN 270430Z 20011KT 9999 -RA FEW006 SCT009 BKN013 22/21 Q1013
YBBN,2014-12-27 05:00,153.1292,-27.3917,71.60,68.00,88.43,210.00,12.00,0.00,29.91,M,6.21,M,FEW,SCT,BKN,M,400.00,700.00,1000.00,M,-RA,YBBN 270500Z 21012KT 9999 -RA FEW004 SCT007 BKN010 22/20 Q1013
YBBN,2014-12-27 05:30,153.1292,-27.3917,71.60,68.00,88.43,200.00,11.00,0.00,29.91,M,5.59,M,BKN,SCT,M,M,800.00,1100.00,M,M,-RA,YBBN 270530Z 20011KT 9000 -RA BKN008 SCT011 22/20 Q1013
YBBN,2014-12-27 06:00,153.1292,-27.3917,69.80,68.00,94.01,210.00,11.00,0.00,29.91,M,4.97,M,BKN,SCT,M,M,800.00,3200.00,M,M,-RA,YBBN 270600Z 21011KT 8000 -RA BKN008 SCT032 21/20 Q1013
YBBN,2014-12-27 06:30,153.1292,-27.3917,69.80,68.00,94.01,200.00,9.00,0.00,29.91,M,3.73,M,FEW,BKN,M,M,600.00,800.00,M,M,-RA,YBBN 270630Z 20009KT 6000 -RA FEW006 BKN008 21/20 Q1013
YBBN,2014-12-27 06:38,153.1292,-27.3917,69.80,68.00,94.01,200.00,9.00,0.00,29.91,M,2.49,M,FEW,BKN,M,M,700.00,900.00,M,M,-RA,YBBN 270638Z 20009KT 4000 -RA FEW007 BKN009 21/20 Q1013
YBBN,2014-12-27 07:00,153.1292,-27.3917,69.80,68.00,94.01,200.00,10.00,0.00,29.94,M,2.17,M,FEW,SCT,BKN,M,400.00,1700.00,3200.00,M,-RA,YBBN 270700Z 20010KT 3500 -RA FEW004 SCT017 BKN032 21/20 Q1014 RERA
YBBN,2014-12-27 07:11,153.1292,-27.3917,68.00,68.00,100.00,200.00,8.00,0.00,29.94,M,3.11,M,FEW,SCT,BKN,M,500.00,1600.00,3200.00,M,-RA,YBBN 270711Z 20008KT 5000 -RA FEW005 SCT016 BKN032 20/20 Q1014
YBBN,2014-12-27 07:19,153.1292,-27.3917,68.00,68.00,100.00,200.00,8.00,0.00,29.94,M,3.73,M,FEW,SCT,BKN,M,500.00,800.00,1300.00,M,-RA,YBBN 270719Z 20008KT 6000 -RA FEW005 SCT008 BKN013 20/20 Q1014 RERA
YBBN,2014-12-27 07:30,153.1292,-27.3917,68.00,68.00,100.00,210.00,9.00,0.00,29.94,M,4.97,M,FEW,SCT,BKN,M,600.00,900.00,1400.00,M,-RA,YBBN 270730Z 21009KT 8000 -RA FEW006 SCT009 BKN014 20/20 Q1014
YBBN,2014-12-27 07:38,153.1292,-27.3917,68.00,68.00,100.00,210.00,10.00,0.00,29.94,M,2.17,M,FEW,SCT,BKN,M,500.00,900.00,1400.00,M,-RA,YBBN 270738Z 21010KT 3500 -RA FEW005 SCT009 BKN014 20/20 Q1014
YBBN,2014-12-27 08:00,153.1292,-27.3917,68.00,66.20,93.97,200.00,10.00,0.00,29.94,M,3.11,M,FEW,SCT,BKN,M,600.00,1400.00,3700.00,M,-RA,YBBN 270800Z 20010KT 5000 -RA FEW006 SCT014 BKN037 20/19 Q1014
YBBN,2014-12-27 08:15,153.1292,-27.3917,68.00,66.20,93.97,200.00,8.00,0.00,29.97,M,6.21,M,FEW,BKN,BKN,M,800.00,1200.00,3700.00,M,-RA,YBBN 270815Z 20008KT 9999 -RA FEW008 BKN012 BKN037 20/19 Q1015
YBBN,2014-12-27 08:30,153.1292,-27.3917,68.00,66.20,93.97,200.00,8.00,0.00,29.97,M,6.21,M,FEW,BKN,BKN,M,600.00,1200.00,3600.00,M,VCSH,YBBN 270830Z 20008KT 9999 VCSH FEW006 BKN012 BKN036 20/19 Q1015
YBBN,2014-12-27 08:51,153.1292,-27.3917,68.00,66.20,93.97,200.00,8.00,0.00,29.97,M,6.21,M,FEW,OVC,M,M,600.00,1000.00,M,M,M,YBBN 270851Z 20008KT 9999 FEW006 OVC010 20/19 Q1015
YBBN,2014-12-27 09:00,153.1292,-27.3917,68.00,66.20,93.97,200.00,7.00,0.00,29.97,M,6.21,M,FEW,BKN,OVC,M,600.00,800.00,1300.00,M,M,YBBN 270900Z 20007KT 9999 FEW006 BKN008 OVC013 20/19 Q1015
YBBN,2014-12-27 09:30,153.1292,-27.3917,68.00,66.20,93.97,200.00,8.00,0.00,29.97,M,6.21,M,FEW,BKN,OVC,M,600.00,800.00,1100.00,M,M,YBBN 270930Z 20008KT 9999 FEW006 BKN008 OVC011 20/19 Q1015
YBBN,2014-12-27 10:00,153.1292,-27.3917,68.00,66.20,93.97,200.00,9.00,0.00,30.00,M,6.21,M,FEW,BKN,OVC,M,500.00,800.00,1100.00,M,VCSH,YBBN 271000Z 20009KT 9999 VCSH FEW005 BKN008 OVC011 20/19 Q1016
YBBN,2014-12-27 10:30,153.1292,-27.3917,68.00,66.20,93.97,210.00,7.00,0.00,30.00,M,6.21,M,FEW,BKN,OVC,M,500.00,800.00,1000.00,M,M,YBBN 271030Z 21007KT 9999 FEW005 BKN008 OVC010 20/19 Q1016
YBBN,2014-12-27 11:00,153.1292,-27.3917,68.00,66.20,93.97,200.00,8.00,0.00,30.00,M,6.21,M,FEW,OVC,M,M,500.00,800.00,M,M,M,YBBN 271100Z 20008KT 9999 FEW005 OVC008 20/19 Q1016
YBBN,2014-12-27 11:30,153.1292,-27.3917,68.00,66.20,93.97,200.00,7.00,0.00,30.00,M,6.21,M,FEW,OVC,M,M,500.00,800.00,M,M,VCSH,YBBN 271130Z 20007KT 9999 VCSH FEW005 OVC008 20/19 Q1016
YBBN,2014-12-27 12:00,153.1292,-27.3917,68.00,66.20,93.97,200.00,8.00,0.00,30.00,M,6.21,M,OVC,M,M,M,600.00,M,M,M,M,YBBN 271200Z 20008KT 9999 OVC006 20/19 Q1016
YBBN,2014-12-27 12:30,153.1292,-27.3917,68.00,66.20,93.97,200.00,9.00,0.00,30.00,M,6.21,M,FEW,BKN,BKN,M,400.00,600.00,4000.00,M,-RA,YBBN 271230Z 20009KT 9999 -RA FEW004 BKN006 BKN040 20/19 Q1016
YBBN,2014-12-27 13:00,153.1292,-27.3917,68.00,66.20,93.97,190.00,6.00,0.00,30.00,M,6.21,M,FEW,OVC,M,M,400.00,600.00,M,M,-DZ,YBBN 271300Z 19006KT 9999 -DZ FEW004 OVC006 20/19 Q1016
YBBN,2014-12-27 13:30,153.1292,-27.3917,68.00,66.20,93.97,200.00,7.00,0.00,29.97,M,6.21,M,FEW,BKN,BKN,M,400.00,600.00,3500.00,M,-RA,YBBN 271330Z 20007KT 9999 -RA FEW004 BKN006 BKN035 20/19 Q1015
YBBN,2014-12-27 14:00,153.1292,-27.3917,68.00,66.20,93.97,200.00,7.00,0.00,29.94,M,6.21,M,FEW,BKN,OVC,M,500.00,4000.00,10000.00,M,M,YBBN 271400Z 20007KT 9999 FEW005 BKN040 OVC100 20/19 Q1014
YBBN,2014-12-27 14:30,153.1292,-27.3917,68.00,66.20,93.97,210.00,8.00,0.00,29.94,M,6.21,M,FEW,OVC,M,M,500.00,4500.00,M,M,M,YBBN 271430Z 21008KT 9999 FEW005 OVC045 20/19 Q1014
YBBN,2014-12-27 15:00,153.1292,-27.3917,68.00,66.20,93.97,210.00,9.00,0.00,29.94,M,6.21,M,SCT,BKN,M,M,400.00,6000.00,M,M,M,YBBN 271500Z 21009KT 9999 SCT004 BKN060 20/19 Q1014
YBBN,2014-12-27 15:09,153.1292,-27.3917,68.00,66.20,93.97,200.00,9.00,0.00,29.94,M,6.21,M,BKN,OVC,M,M,400.00,6000.00,M,M,M,YBBN 271509Z 20009KT 9999 BKN004 OVC060 20/19 Q1014
YBBN,2014-12-27 15:30,153.1292,-27.3917,68.00,66.20,93.97,210.00,9.00,0.00,29.94,M,6.21,M,FEW,BKN,BKN,M,400.00,4000.00,6500.00,M,M,YBBN 271530Z 21009KT 9999 FEW004 BKN040 BKN065 20/19 Q1014
YBBN,2014-12-27 16:00,153.1292,-27.3917,68.00,66.20,93.97,200.00,8.00,0.00,29.91,M,6.21,M,FEW,BKN,BKN,M,500.00,4500.00,5500.00,M,M,YBBN 271600Z 20008KT 9999 FEW005 BKN045 BKN055 20/19 Q1013
YBBN,2014-12-27 16:30,153.1292,-27.3917,68.00,66.20,93.97,210.00,10.00,0.00,29.91,M,6.21,M,FEW,BKN,M,M,700.00,5000.00,M,M,M,YBBN 271630Z 21010KT 9999 FEW007 BKN050 20/19 Q1013
YBBN,2014-12-27 17:00,153.1292,-27.3917,68.00,66.20,93.97,200.00,8.00,0.00,29.91,M,6.21,M,FEW,SCT,BKN,M,800.00,2500.00,5000.00,M,M,YBBN 271700Z 20008KT 9999 FEW008 SCT025 BKN050 20/19 Q1013
YBBN,2014-12-27 17:30,153.1292,-27.3917,68.00,66.20,93.97,200.00,7.00,0.00,29.91,M,6.21,M,FEW,SCT,BKN,M,1500.00,4000.00,8000.00,M,M,YBBN 271730Z 20007KT 9999 FEW015 SCT040 BKN080 20/19 Q1013
YBBN,2014-12-27 18:00,153.1292,-27.3917,68.00,66.20,93.97,190.00,6.00,0.00,29.88,M,6.21,M,FEW,SCT,BKN,M,1800.00,3700.00,4500.00,M,M,YBBN 271800Z 19006KT 9999 FEW018 SCT037 BKN045 20/19 Q1012
YBBN,2014-12-27 18:30,153.1292,-27.3917,68.00,66.20,93.97,200.00,7.00,0.00,29.91,M,6.21,M,FEW,BKN,M,M,1500.00,4500.00,M,M,M,YBBN 271830Z 20007KT 9999 FEW015 BKN045 20/19 Q1013
YBBN,2014-12-27 19:00,153.1292,-27.3917,68.00,66.20,93.97,200.00,7.00,0.00,29.91,M,6.21,M,FEW,BKN,BKN,M,600.00,1200.00,4500.00,M,M,YBBN 271900Z 20007KT 9999 FEW006 BKN012 BKN045 20/19 Q1013
YBBN,2014-12-27 19:21,153.1292,-27.3917,68.00,66.20,93.97,210.00,7.00,0.00,29.91,M,3.73,M,SCT,BKN,OVC,M,1200.00,2800.00,5500.00,M,SHRA,YBBN 271921Z 21007KT 6000 3500S SHRA SCT012 BKN028 OVC055 20/19 Q1013
YBBN,2014-12-27 19:30,153.1292,-27.3917,68.00,66.20,93.97,220.00,7.00,0.00,29.94,M,3.11,M,SCT,SCT,OVC,M,1400.00,2800.00,3800.00,M,-SHRA,YBBN 271930Z 22007KT 5000 3000S -SHRA SCT014 SCT028 OVC038 20/19 Q1014 RESHRA
YBBN,2014-12-27 19:45,153.1292,-27.3917,68.00,66.20,93.97,210.00,8.00,0.00,29.94,M,5.59,M,BKN,BKN,OVC,M,1600.00,2800.00,5000.00,M,-SHRA,YBBN 271945Z 21008KT 9000 -SHRA BKN016 BKN028 OVC050 20/19 Q1014
YBBN,2014-12-27 20:00,153.1292,-27.3917,68.00,66.20,93.97,220.00,8.00,0.00,29.94,M,6.21,M,FEW,BKN,M,M,1000.00,1400.00,M,M,-SHRA,YBBN 272000Z 22008KT 9999 -SHRA FEW010 BKN014 20/19 Q1014
YBBN,2014-12-27 20:30,153.1292,-27.3917,68.00,68.00,100.00,210.00,8.00,0.00,29.94,M,3.73,M,FEW,SCT,BKN,M,1000.00,1400.00,3000.00,M,-RA -SHRA,YBBN 272030Z 21008KT 6000 -RA -SHRA FEW010 SCT014 BKN030 20/20 Q1014
YBBN,2014-12-27 20:42,153.1292,-27.3917,68.00,68.00,100.00,210.00,9.00,0.00,29.94,M,2.17,M,FEW,SCT,BKN,M,1000.00,1400.00,2800.00,M,-RA -SHRA,YBBN 272042Z 21009KT 3500 -RA -SHRA FEW010 SCT014 BKN028 20/20 Q1014
YBBN,2014-12-27 21:00,153.1292,-27.3917,68.00,66.20,93.97,210.00,9.00,0.00,29.94,M,1.86,M,FEW,SCT,BKN,M,1000.00,1300.00,2800.00,M,-RA,YBBN 272100Z 21009KT 3000 -RA FEW010 SCT013 BKN028 20/19 Q1014
YBBN,2014-12-27 21:09,153.1292,-27.3917,68.00,68.00,100.00,210.00,9.00,0.00,29.94,M,1.86,M,FEW,SCT,BKN,M,500.00,1000.00,2200.00,M,RA DZ,YBBN 272109Z 21009KT 3000 2000S RA DZ FEW005 SCT010 BKN022 20/20 Q1014
YBBN,2014-12-27 21:30,153.1292,-27.3917,68.00,68.00,100.00,210.00,9.00,0.00,29.94,M,1.86,M,FEW,SCT,BKN,M,500.00,1400.00,2200.00,M,RA DZ,YBBN 272130Z 21009KT 3000 RA DZ FEW005 SCT014 BKN022 20/20 Q1014
YBBN,2014-12-27 21:47,153.1292,-27.3917,68.00,68.00,100.00,200.00,8.00,0.00,29.94,M,3.11,M,FEW,SCT,BKN,M,300.00,1400.00,2200.00,M,RA DZ,YBBN 272147Z 20008KT 5000 RA DZ FEW003 SCT014 BKN022 20/20 Q1014
YBBN,2014-12-27 22:00,153.1292,-27.3917,68.00,68.00,100.00,200.00,8.00,0.00,29.94,M,3.73,M,FEW,SCT,BKN,M,500.00,1400.00,3000.00,M,-RA -DZ,YBBN 272200Z 20008KT 6000 -RA -DZ FEW005 SCT014 BKN030 20/20 Q1014
YBBN,2014-12-27 22:30,153.1292,-27.3917,69.80,68.00,94.01,190.00,6.00,0.00,29.94,M,3.73,M,FEW,SCT,BKN,M,300.00,1400.00,3200.00,M,-RA -DZ,YBBN 272230Z 19006KT 6000 -RA -DZ FEW003 SCT014 BKN032 21/20 Q1014
YBBN,2014-12-27 23:00,153.1292,-27.3917,69.80,69.80,100.00,200.00,6.00,0.00,29.94,M,3.73,M,FEW,SCT,BKN,M,200.00,1400.00,3000.00,M,-RA -DZ,YBBN 272300Z 20006KT 6000 -RA -DZ FEW002 SCT014 BKN030 21/21 Q1014
YBBN,2014-12-27 23:30,153.1292,-27.3917,69.80,69.80,100.00,200.00,6.00,0.00,29.94,M,3.73,M,FEW,SCT,BKN,M,200.00,1400.00,3000.00,M,RA,YBBN 272330Z 20006KT 6000 RA FEW002 SCT014 BKN030 21/21 Q1014
YBBN,2014-12-27 23:46,153.1292,-27.3917,71.60,69.80,94.06,200.00,6.00,0.00,29.94,M,2.49,M,FEW,SCT,BKN,M,200.00,1400.00,2500.00,M,RA,YBBN 272346Z 20006KT 4000 RA FEW002 SCT014 BKN025 22/21 Q1014
