#DEBUG: Format Typ    -> comma
#DEBUG: Time Period   -> 2013-04-09 00:00:00+00:00 2013-04-10 00:00:00+00:00
#DEBUG: Time Zone     -> Etc/UTC
#DEBUG: Data Contact   -> daryl herzmann akrherz@iastate.edu 515-294-5978
#DEBUG: Entries Found -> -1
station,valid,lon,lat,tmpf, dwpf, relh, drct, sknt, p01i, alti, mslp, vsby, gust, skyc1, skyc2, skyc3, skyc4, skyl1, skyl2, skyl3, skyl4, presentwx, metar
YBBN,2013-04-09 00:00,153.1292,-27.3917,75.20,62.60,64.91,150.00,7.00,0.00,30.21,M,6.21,M,FEW,BKN,M,M,3200.00,30000.00,M,M,M,YBBN 090000Z 15007KT 9999 FEW032 BKN300 24/17 Q1023
YBBN,2013-04-09 00:30,153.1292,-27.3917,75.20,62.60,64.91,130.00,8.00,0.00,30.21,M,6.21,M,SCT,BKN,M,M,2800.00,30000.00,M,M,M,YBBN 090030Z 13008KT 9999 SCT028 BKN300 24/17 Q1023
YBBN,2013-04-09 01:00,153.1292,-27.3917,75.20,60.80,60.90,120.00,9.00,0.00,30.18,M,6.21,M,SCT,BKN,M,M,2500.00,28000.00,M,M,M,YBBN 090100Z 12009KT 9999 SCT025 BKN280 24/16 Q1022
YBBN,2013-04-09 01:30,153.1292,-27.3917,75.20,60.80,60.90,120.00,9.00,0.00,30.18,M,6.21,M,SCT,BKN,M,M,2800.00,28000.00,M,M,M,YBBN 090130Z 12009KT 9999 SCT028 BKN280 24/16 Q1022
YBBN,2013-04-09 02:00,153.1292,-27.3917,75.20,60.80,60.90,120.00,9.00,0.00,30.15,M,6.21,M,SCT,BKN,M,M,3000.00,28000.00,M,M,M,YBBN 090200Z 12009KT 9999 SCT030 BKN280 24/16 Q1021
YBBN,2013-04-09 02:30,153.1292,-27.3917,75.20,60.80,60.90,120.00,10.00,0.00,30.15,M,6.21,M,SCT,SCT,M,M,3000.00,28000.00,M,M,M,YBBN 090230Z 12010KT 9999 SCT030 SCT280 24/16 Q1021
YBBN,2013-04-09 03:00,153.1292,-27.3917,75.20,60.80,60.90,100.00,8.00,0.00,30.15,M,5.59,M,SCT,SCT,M,M,3200.00,28000.00,M,M,-SHRA,YBBN 090300Z 10008KT 9000 -SHRA SCT032 SCT280 24/16 Q1021 INTER 0300/0600 3000 SHRA BKN010
YBBN,2013-04-09 03:30,153.1292,-27.3917,75.20,60.80,60.90,120.00,10.00,0.00,30.12,M,5.59,M,SCT,SCT,M,M,3200.00,28000.00,M,M,VCSH,YBBN 090330Z 12010KT 9000 VCSH SCT032 SCT280 24/16 Q1020
YBBN,2013-04-09 04:00,153.1292,-27.3917,75.20,60.80,60.90,110.00,10.00,0.00,30.12,M,6.21,M,SCT,BKN,M,M,3200.00,28000.00,M,M,M,YBBN 090400Z 11010KT 9999 SCT032 BKN280 24/16 Q1020
YBBN,2013-04-09 04:30,153.1292,-27.3917,75.20,60.80,60.90,120.00,9.00,0.00,30.12,M,6.21,M,SCT,SCT,M,M,3000.00,28000.00,M,M,VCSH,YBBN 090430Z 12009KT 9999 VCSH SCT030 SCT280 24/16 Q1020
YBBN,2013-04-09 05:00,153.1292,-27.3917,73.40,62.60,68.94,70.00,11.00,0.00,30.12,M,4.97,M,SCT,SCT,M,M,2500.00,3500.00,M,M,-SHRA,YBBN 090500Z 07011KT 8000 -SHRA SCT025 SCT035 23/17 Q1020
YBBN,2013-04-09 05:30,153.1292,-27.3917,73.40,62.60,68.94,80.00,9.00,0.00,30.09,M,4.97,M,SCT,SCT,M,M,2500.00,4000.00,M,M,-SHRA,YBBN 090530Z 08009KT 8000 -SHRA SCT025 SCT040 23/17 Q1019
YBBN,2013-04-09 06:00,153.1292,-27.3917,73.40,62.60,68.94,90.00,7.00,0.00,30.09,M,6.21,M,FEW,BKN,M,M,2500.00,30000.00,M,M,M,YBBN 090600Z 09007KT 9999 FEW025 BKN300 23/17 Q1019 INTER 0600/0900 3000 SHRA BKN010
YBBN,2013-04-09 06:30,153.1292,-27.3917,73.40,60.80,64.69,110.00,6.00,0.00,30.09,M,6.21,M,NCD,M,M,M,M,M,M,M,//,YBBN 090630Z AUTO 11006KT 9999 // NCD 23/16 Q1019
YBBN,2013-04-09 07:00,153.1292,-27.3917,71.60,62.60,73.27,80.00,8.00,0.00,30.12,M,6.21,M,SCT,BKN,M,M,2500.00,3600.00,M,M,VCSH,YBBN 090700Z 08008KT 9999 VCSH SCT025 BKN036 22/17 Q1020 INTER 0700/1000 3000 SHRA BKN010
YBBN,2013-04-09 07:30,153.1292,-27.3917,69.80,60.80,73.09,90.00,6.00,0.00,30.12,M,6.21,M,FEW,SCT,BKN,M,2500.00,4500.00,7500.00,M,M,YBBN 090730Z 09006KT 9999 FEW025 SCT045 BKN075 21/16 Q1020
YBBN,2013-04-09 08:00,153.1292,-27.3917,69.80,60.80,73.09,130.00,6.00,0.00,30.12,M,6.21,M,FEW,SCT,BKN,M,2500.00,3500.00,30000.00,M,M,YBBN 090800Z 13006KT 9999 FEW025 SCT035 BKN300 21/16 Q1020
YBBN,2013-04-09 08:30,153.1292,-27.3917,69.80,60.80,73.09,130.00,8.00,0.00,30.12,M,6.21,M,FEW,SCT,BKN,M,2200.00,8000.00,30000.00,M,VCSH,YBBN 090830Z 13008KT 9999 VCSH FEW022 SCT080 BKN300 21/16 Q1020
YBBN,2013-04-09 09:00,153.1292,-27.3917,68.00,60.80,77.75,140.00,6.00,0.00,30.15,M,6.21,M,FEW,SCT,M,M,2200.00,8000.00,M,M,M,YBBN 090900Z 14006KT 9999 FEW022 SCT080 20/16 Q1021 INTER 0900/1200 3000 SHRA BKN010
YBBN,2013-04-09 09:30,153.1292,-27.3917,69.80,60.80,73.09,150.00,5.00,0.00,30.15,M,6.21,M,FEW,SCT,M,M,2000.00,10000.00,M,M,M,YBBN 090930Z 15005KT 9999 FEW020 SCT100 21/16 Q1021
YBBN,2013-04-09 10:00,153.1292,-27.3917,68.00,60.80,77.75,140.00,4.00,0.00,30.15,M,6.21,M,FEW,SCT,M,M,2000.00,28000.00,M,M,M,YBBN 091000Z 14004KT 9999 FEW020 SCT280 20/16 Q1021 INTER 1000/1300 3000 SHRA BKN010
YBBN,2013-04-09 10:30,153.1292,-27.3917,66.20,60.80,82.74,150.00,6.00,0.00,30.15,M,6.21,M,FEW,BKN,M,M,2000.00,28000.00,M,M,VCSH,YBBN 091030Z 15006KT 9999 VCSH FEW020 BKN280 19/16 Q1021
YBBN,2013-04-09 11:00,153.1292,-27.3917,66.20,60.80,82.74,180.00,4.00,0.00,30.15,M,6.21,M,FEW,SCT,BKN,M,2000.00,8500.00,28000.00,M,M,YBBN 091100Z 18004KT 9999 FEW020 SCT085 BKN280 19/16 Q1021 INTER 1100/1400 3000 SHRA BKN010
YBBN,2013-04-09 11:30,153.1292,-27.3917,66.20,60.80,82.74,180.00,4.00,0.00,30.15,M,6.21,M,FEW,SCT,M,M,2000.00,28000.00,M,M,M,YBBN 091130Z 18004KT 9999 FEW020 SCT280 19/16 Q1021
YBBN,2013-04-09 12:00,153.1292,-27.3917,66.20,60.80,82.74,190.00,4.00,0.00,30.15,M,6.21,M,FEW,SCT,M,M,2000.00,3800.00,M,M,M,YBBN 091200Z 19004KT 9999 FEW020 SCT038 19/16 Q1021 INTER 1200/1400 3000 SHRA BKN010
YBBN,2013-04-09 12:30,153.1292,-27.3917,66.20,60.80,82.74,190.00,5.00,0.00,30.15,M,6.21,M,FEW,SCT,M,M,2000.00,3500.00,M,M,VCSH,YBBN 091230Z 19005KT 9999 VCSH FEW020 SCT035 19/16 Q1021
YBBN,2013-04-09 13:00,153.1292,-27.3917,66.20,60.80,82.74,190.00,5.00,0.00,30.15,M,6.21,M,FEW,SCT,M,M,2000.00,8000.00,M,M,VCSH,YBBN 091300Z 19005KT 9999 VCSH FEW020 SCT080 19/16 Q1021 INTER 1300/1400 3000 SHRA BKN010
YBBN,2013-04-09 13:30,153.1292,-27.3917,66.20,60.80,82.74,170.00,7.00,0.00,30.15,M,6.21,M,FEW,SCT,M,M,2000.00,3600.00,M,M,VCSH,YBBN 091330Z 17007KT 9999 VCSH FEW020 SCT036 19/16 Q1021
YBBN,2013-04-09 14:00,153.1292,-27.3917,66.20,60.80,82.74,190.00,8.00,0.00,30.12,M,6.21,M,FEW,SCT,M,M,2000.00,28000.00,M,M,VCSH,YBBN 091400Z 19008KT 9999 VCSH FEW020 SCT280 19/16 Q1020
YBBN,2013-04-09 14:30,153.1292,-27.3917,66.20,60.80,82.74,190.00,6.00,0.00,30.12,M,6.21,M,FEW,SCT,M,M,2000.00,8500.00,M,M,VCSH,YBBN 091430Z 19006KT 9999 VCSH FEW020 SCT085 19/16 Q1020
YBBN,2013-04-09 15:00,153.1292,-27.3917,64.40,59.00,82.62,200.00,6.00,0.00,30.12,M,6.21,M,FEW,SCT,M,M,2000.00,9000.00,M,M,VCSH,YBBN 091500Z 20006KT 9999 VCSH FEW020 SCT090 18/15 Q1020
YBBN,2013-04-09 15:30,153.1292,-27.3917,64.40,60.80,88.09,200.00,6.00,0.00,30.09,M,6.21,M,FEW,SCT,M,M,2000.00,6000.00,M,M,VCSH,YBBN 091530Z 20006KT 9999 VCSH FEW020 SCT060 18/16 Q1019
YBBN,2013-04-09 16:00,153.1292,-27.3917,64.40,60.80,88.09,220.00,5.00,0.00,30.09,M,5.59,M,FEW,SCT,M,M,2000.00,6000.00,M,M,VCSH,YBBN 091600Z 22005KT 9000 VCSH FEW020 SCT060 18/16 Q1019
YBBN,2013-04-09 16:30,153.1292,-27.3917,64.40,60.80,88.09,350.00,4.00,0.00,30.09,M,6.21,M,FEW,SCT,M,M,1800.00,6000.00,M,M,-SHRA,YBBN 091630Z 35004KT 9999 -SHRA FEW018 SCT060 18/16 Q1019
YBBN,2013-04-09 17:00,153.1292,-27.3917,64.40,60.80,88.09,210.00,7.00,0.00,30.09,M,5.59,M,FEW,SCT,BKN,M,2000.00,6500.00,9000.00,M,VCSH,YBBN 091700Z 21007KT 9000 VCSH FEW020 SCT065 BKN090 18/16 Q1019
YBBN,2013-04-09 17:30,153.1292,-27.3917,62.60,60.80,93.83,210.00,8.00,0.00,30.09,M,6.21,M,FEW,SCT,BKN,M,2200.00,4000.00,9000.00,M,-SHRA,YBBN 091730Z 21008KT 9999 -SHRA FEW022 SCT040 BKN090 17/16 Q1019
YBBN,2013-04-09 18:00,153.1292,-27.3917,62.60,60.80,93.83,220.00,8.00,0.00,30.09,M,6.21,M,FEW,SCT,BKN,M,2200.00,5000.00,10500.00,M,-SHRA,YBBN 091800Z 22008KT 9999 -SHRA FEW022 SCT050 BKN105 17/16 Q1019
YBBN,2013-04-09 18:30,153.1292,-27.3917,62.60,60.80,93.83,210.00,8.00,0.00,30.09,M,5.59,M,FEW,BKN,M,M,2200.00,10000.00,M,M,VCSH,YBBN 091830Z 21008KT 9000 VCSH FEW022 BKN100 17/16 Q1019
YBBN,2013-04-09 19:00,153.1292,-27.3917,62.60,60.80,93.83,210.00,7.00,0.00,30.12,M,6.21,M,FEW,SCT,M,M,2200.00,3000.00,M,M,VCSH,YBBN 091900Z 21007KT 9999 VCSH FEW022 SCT030 17/16 Q1020
YBBN,2013-04-09 19:30,153.1292,-27.3917,62.60,60.80,93.83,210.00,8.00,0.00,30.09,M,6.21,M,FEW,SCT,M,M,2200.00,6000.00,M,M,VCSH,YBBN 091930Z 21008KT 9999 VCSH FEW022 SCT060 17/16 Q1019
YBBN,2013-04-09 20:00,153.1292,-27.3917,62.60,60.80,93.83,200.00,7.00,0.00,30.12,M,4.35,M,FEW,SCT,M,M,2200.00,3000.00,M,M,VCSH,YBBN 092000Z 20007KT 7000 VCSH FEW022 SCT030 17/16 Q1020
YBBN,2013-04-09 20:13,153.1292,-27.3917,62.60,60.80,93.83,150.00,4.00,0.00,30.12,M,3.11,M,FEW,BKN,BKN,M,1500.00,3000.00,6800.00,M,-SHRA,YBBN 092013Z 15004KT 5000 2500S -SHRA FEW015 BKN030 BKN068 17/16 Q1020
YBBN,2013-04-09 20:30,153.1292,-27.3917,62.60,60.80,93.83,260.00,6.00,0.00,30.12,M,6.21,M,FEW,SCT,BKN,M,1500.00,5300.00,7900.00,M,VCSH,YBBN 092030Z 26006KT 9999 VCSH FEW015 SCT053 BKN079 17/16 Q1020
YBBN,2013-04-09 21:00,153.1292,-27.3917,64.40,60.80,88.09,220.00,10.00,0.00,30.12,M,6.21,M,FEW,SCT,BKN,M,2000.00,7700.00,10000.00,M,VCSH,YBBN 092100Z 22010KT 9999 VCSH FEW020 SCT077 BKN100 18/16 Q1020
YBBN,2013-04-09 21:30,153.1292,-27.3917,64.40,60.80,88.09,210.00,9.00,0.00,30.15,M,6.21,M,FEW,SCT,BKN,M,2000.00,9600.00,26000.00,M,VCSH,YBBN 092130Z 21009KT 9999 VCSH FEW020 SCT096 BKN260 18/16 Q1021
YBBN,2013-04-09 22:00,153.1292,-27.3917,66.20,60.80,82.74,200.00,10.00,0.00,30.15,M,6.21,M,FEW,BKN,M,M,2500.00,26000.00,M,M,VCSH,YBBN 092200Z 20010KT 9999 VCSH FEW025 BKN260 19/16 Q1021
YBBN,2013-04-09 22:30,153.1292,-27.3917,66.20,62.60,88.18,160.00,8.00,0.00,30.15,M,6.21,M,SCT,BKN,M,M,2900.00,3800.00,M,M,VCSH,YBBN 092230Z 16008KT 9999 VCSH SCT029 BKN038 19/17 Q1021
YBBN,2013-04-09 23:00,153.1292,-27.3917,69.80,64.40,82.98,170.00,10.00,0.00,30.15,M,6.21,M,FEW,BKN,M,M,1000.00,26000.00,M,M,VCSH,YBBN 092300Z 17010KT 9999 VCSH FEW010 BKN260 21/18 Q1021
YBBN,2013-04-09 23:30,153.1292,-27.3917,68.00,64.40,88.26,160.00,10.00,0.00,30.15,M,6.21,M,FEW,BKN,BKN,M,1000.00,8000.00,26000.00,M,-SHRA,YBBN 092330Z 16010KT 9999 -SHRA FEW010 BKN080 BKN260 20/18 Q1021
