#DEBUG: Format Typ    -> comma
#DEBUG: Time Period   -> 2014-02-11 00:00:00+00:00 2014-02-12 00:00:00+00:00
#DEBUG: Time Zone     -> Etc/UTC
#DEBUG: Data Contact   -> daryl herzmann akrherz@iastate.edu 515-294-5978
#DEBUG: Entries Found -> -1
station,valid,lon,lat,tmpf, dwpf, relh, drct, sknt, p01i, alti, mslp, vsby, gust, skyc1, skyc2, skyc3, skyc4, skyl1, skyl2, skyl3, skyl4, presentwx, metar
YBBN,2014-02-11 00:00,153.1292,-27.3917,80.60,60.80,50.95,130.00,7.00,0.00,30.00,M,6.21,M,SCT,SCT,BKN,M,3400.00,5400.00,30000.00,M,M,YBBN 110000Z 13007KT 9999 SCT034 SCT054 BKN300 27/16 Q1016 NOSIG
YBBN,2014-02-11 00:30,153.1292,-27.3917,80.60,62.60,54.30,70.00,9.00,0.00,30.00,M,6.21,M,FEW,SCT,BKN,M,3400.00,5400.00,30000.00,M,M,YBBN 110030Z 07009KT 9999 FEW034 SCT054 BKN300 27/17 Q1016
YBBN,2014-02-11 01:00,153.1292,-27.3917,80.60,60.80,50.95,70.00,9.00,0.00,30.00,M,6.21,M,FEW,BKN,M,M,3800.00,30000.00,M,M,M,YBBN 110100Z 07009KT 9999 FEW038 BKN300 27/16 Q1016
YBBN,2014-02-11 01:30,153.1292,-27.3917,80.60,62.60,54.30,50.00,11.00,0.00,30.00,M,6.21,M,FEW,BKN,M,M,4000.00,30000.00,M,M,M,YBBN 110130Z 05011KT 9999 FEW040 BKN300 27/17 Q1016
YBBN,2014-02-11 02:00,153.1292,-27.3917,82.40,60.80,48.05,70.00,12.00,0.00,29.97,M,6.21,M,FEW,BKN,M,M,4000.00,28000.00,M,M,M,YBBN 110200Z 07012KT 9999 FEW040 BKN280 28/16 Q1015 NOSIG
YBBN,2014-02-11 02:30,153.1292,-27.3917,80.60,59.00,47.79,60.00,10.00,0.00,29.97,M,6.21,M,FEW,BKN,M,M,4000.00,28000.00,M,M,M,YBBN 110230Z 06010KT 9999 FEW040 BKN280 27/15 Q1015
YBBN,2014-02-11 03:00,153.1292,-27.3917,80.60,60.80,50.95,60.00,11.00,0.00,29.94,M,6.21,M,FEW,BKN,M,M,4000.00,28000.00,M,M,M,YBBN 110300Z 06011KT 9999 FEW040 BKN280 27/16 Q1014
YBBN,2014-02-11 03:30,153.1292,-27.3917,80.60,60.80,50.95,60.00,11.00,0.00,29.94,M,6.21,M,FEW,BKN,M,M,4000.00,28000.00,M,M,M,YBBN 110330Z 06011KT 9999 FEW040 BKN280 27/16 Q1014
YBBN,2014-02-11 04:00,153.1292,-27.3917,80.60,60.80,50.95,60.00,11.00,0.00,29.94,M,6.21,M,FEW,BKN,M,M,4000.00,28000.00,M,M,M,YBBN 110400Z 06011KT 9999 FEW040 BKN280 27/16 Q1014
YBBN,2014-02-11 04:30,153.1292,-27.3917,80.60,60.80,50.95,60.00,12.00,0.00,29.91,M,6.21,M,FEW,BKN,M,M,4000.00,28000.00,M,M,M,YBBN 110430Z 06012KT 9999 FEW040 BKN280 27/16 Q1013
YBBN,2014-02-11 05:00,153.1292,-27.3917,80.60,60.80,50.95,50.00,11.00,0.00,29.91,M,6.21,M,FEW,BKN,M,M,4000.00,28000.00,M,M,M,YBBN 110500Z 05011KT 9999 FEW040 BKN280 27/16 Q1013 NOSIG
YBBN,2014-02-11 05:30,153.1292,-27.3917,80.60,60.80,50.95,60.00,12.00,0.00,29.91,M,6.21,M,FEW,BKN,M,M,4000.00,28000.00,M,M,M,YBBN 110530Z 06012KT 9999 FEW040 BKN280 27/16 Q1013
YBBN,2014-02-11 06:00,153.1292,-27.3917,78.80,60.80,54.05,60.00,11.00,0.00,29.91,M,6.21,M,FEW,BKN,M,M,4000.00,28000.00,M,M,M,YBBN 110600Z 06011KT 9999 FEW040 BKN280 26/16 Q1013
YBBN,2014-02-11 06:30,153.1292,-27.3917,78.80,60.80,54.05,50.00,11.00,0.00,29.91,M,6.21,M,FEW,BKN,M,M,4000.00,28000.00,M,M,M,YBBN 110630Z 05011KT 9999 FEW040 BKN280 26/16 Q1013
YBBN,2014-02-11 07:00,153.1292,-27.3917,77.00,62.60,61.13,60.00,9.00,0.00,29.94,M,6.21,M,FEW,BKN,M,M,4000.00,28000.00,M,M,M,YBBN 110700Z 06009KT 9999 FEW040 BKN280 25/17 Q1014
YBBN,2014-02-11 07:30,153.1292,-27.3917,77.00,60.80,57.36,70.00,9.00,0.00,29.94,M,6.21,M,FEW,BKN,M,M,4000.00,28000.00,M,M,M,YBBN 110730Z 07009KT 9999 FEW040 BKN280 25/16 Q1014
YBBN,2014-02-11 08:00,153.1292,-27.3917,77.00,60.80,57.36,60.00,8.00,0.00,29.94,M,6.21,M,FEW,SCT,M,M,4000.00,28000.00,M,M,M,YBBN 110800Z 06008KT 9999 FEW040 SCT280 25/16 Q1014
YBBN,2014-02-11 08:30,153.1292,-27.3917,75.20,60.80,60.90,70.00,8.00,0.00,29.94,M,6.21,M,FEW,SCT,M,M,4000.00,28000.00,M,M,M,YBBN 110830Z 07008KT 9999 FEW040 SCT280 24/16 Q1014
YBBN,2014-02-11 09:00,153.1292,-27.3917,75.20,59.00,57.12,50.00,7.00,0.00,29.94,M,6.21,M,FEW,M,M,M,4000.00,M,M,M,M,YBBN 110900Z 05007KT 9999 FEW040 24/15 Q1014
YBBN,2014-02-11 09:30,153.1292,-27.3917,75.20,60.80,60.90,50.00,7.00,0.00,29.94,M,6.21,M,FEW,M,M,M,4000.00,M,M,M,M,YBBN 110930Z 05007KT 9999 FEW040 24/16 Q1014
YBBN,2014-02-11 10:00,153.1292,-27.3917,75.20,60.80,60.90,50.00,6.00,0.00,29.94,M,6.21,M,FEW,M,M,M,4000.00,M,M,M,M,YBBN 111000Z 05006KT 9999 FEW040 24/16 Q1014
YBBN,2014-02-11 10:30,153.1292,-27.3917,75.20,60.80,60.90,50.00,5.00,0.00,29.97,M,6.21,M,FEW,M,M,M,4000.00,M,M,M,M,YBBN 111030Z 05005KT 9999 FEW040 24/16 Q1015
YBBN,2014-02-11 11:00,153.1292,-27.3917,75.20,60.80,60.90,60.00,5.00,0.00,29.97,M,6.21,M,FEW,M,M,M,4000.00,M,M,M,M,YBBN 111100Z 06005KT 9999 FEW040 24/16 Q1015
YBBN,2014-02-11 11:30,153.1292,-27.3917,71.60,60.80,68.75,60.00,5.00,0.00,29.97,M,6.21,M,FEW,M,M,M,4000.00,M,M,M,M,YBBN 111130Z 06005KT 9999 FEW040 22/16 Q1015
YBBN,2014-02-11 12:00,153.1292,-27.3917,73.40,60.80,64.69,70.00,5.00,0.00,29.97,M,6.21,M,FEW,M,M,M,4000.00,M,M,M,M,YBBN 111200Z 07005KT 9999 FEW040 23/16 Q1015 NOSIG
YBBN,2014-02-11 12:30,153.1292,-27.3917,73.40,60.80,64.69,60.00,4.00,0.00,29.97,M,6.21,M,FEW,M,M,M,4000.00,M,M,M,M,YBBN 111230Z 06004KT 9999 FEW040 23/16 Q1015
YBBN,2014-02-11 13:00,153.1292,-27.3917,73.40,60.80,64.69,60.00,4.00,0.00,29.94,M,6.21,M,FEW,M,M,M,4000.00,M,M,M,M,YBBN 111300Z 06004KT 9999 FEW040 23/16 Q1014 NOSIG
YBBN,2014-02-11 13:30,153.1292,-27.3917,71.60,62.60,73.27,60.00,5.00,0.00,29.94,M,6.21,M,FEW,M,M,M,4000.00,M,M,M,M,YBBN 111330Z 06005KT 9999 FEW040 22/17 Q1014
YBBN,2014-02-11 14:00,153.1292,-27.3917,69.80,62.60,77.90,50.00,3.00,0.00,29.94,M,6.21,M,BKN,M,M,M,3000.00,M,M,M,M,YBBN 111400Z 05003KT 9999 BKN030 21/17 Q1014
YBBN,2014-02-11 14:30,153.1292,-27.3917,71.60,62.60,73.27,50.00,4.00,0.00,29.94,M,6.21,M,SCT,M,M,M,2900.00,M,M,M,M,YBBN 111430Z 05004KT 9999 SCT029 22/17 Q1014
YBBN,2014-02-11 15:00,153.1292,-27.3917,68.00,62.60,82.86,0.00,0.00,0.00,29.94,M,6.21,M,SCT,M,M,M,2900.00,M,M,M,M,YBBN 111500Z 00000KT 9999 SCT029 20/17 Q1014
YBBN,2014-02-11 15:30,153.1292,-27.3917,68.00,62.60,82.86,220.00,4.00,0.00,29.94,M,6.21,M,SCT,M,M,M,2900.00,M,M,M,M,YBBN 111530Z 22004KT 9999 SCT029 20/17 Q1014
YBBN,2014-02-11 16:00,153.1292,-27.3917,68.00,62.60,82.86,220.00,5.00,0.00,29.91,M,6.21,M,FEW,M,M,M,2900.00,M,M,M,M,YBBN 111600Z 22005KT 9999 FEW029 20/17 Q1013
YBBN,2014-02-11 16:30,153.1292,-27.3917,68.00,62.60,82.86,210.00,5.00,0.00,29.91,M,6.21,M,FEW,M,M,M,2900.00,M,M,M,M,YBBN 111630Z 21005KT 9999 FEW029 20/17 Q1013
YBBN,2014-02-11 17:00,153.1292,-27.3917,68.00,62.60,82.86,210.00,5.00,0.00,29.91,M,6.21,M,FEW,M,M,M,2900.00,M,M,M,M,YBBN 111700Z 21005KT 9999 FEW029 20/17 Q1013 NOSIG
YBBN,2014-02-11 17:30,153.1292,-27.3917,68.00,62.60,82.86,200.00,6.00,0.00,29.91,M,6.21,M,FEW,M,M,M,2900.00,M,M,M,M,YBBN 111730Z 20006KT 9999 FEW029 20/17 Q1013
YBBN,2014-02-11 18:00,153.1292,-27.3917,68.00,62.60,82.86,200.00,6.00,0.00,29.91,M,6.21,M,FEW,M,M,M,2900.00,M,M,M,M,YBBN 111800Z 20006KT 9999 FEW029 20/17 Q1013 NOSIG
YBBN,2014-02-11 18:30,153.1292,-27.3917,66.20,62.60,88.18,210.00,7.00,0.00,29.91,M,6.21,M,FEW,M,M,M,2900.00,M,M,M,M,YBBN 111830Z 21007KT 9999 FEW029 19/17 Q1013
YBBN,2014-02-11 19:00,153.1292,-27.3917,66.20,60.80,82.74,200.00,6.00,0.00,29.91,M,6.21,M,FEW,M,M,M,2900.00,M,M,M,M,YBBN 111900Z 20006KT 9999 FEW029 19/16 Q1013 NOSIG
YBBN,2014-02-11 19:30,153.1292,-27.3917,64.40,60.80,88.09,210.00,7.00,0.00,29.94,M,6.21,M,FEW,SCT,M,M,2900.00,4000.00,M,M,M,YBBN 111930Z 21007KT 9999 FEW029 SCT040 18/16 Q1014
YBBN,2014-02-11 20:00,153.1292,-27.3917,64.40,62.60,93.88,190.00,5.00,0.00,29.94,M,6.21,M,FEW,M,M,M,2900.00,M,M,M,M,YBBN 112000Z 19005KT 9999 FEW029 18/17 Q1014 NOSIG
YBBN,2014-02-11 20:30,153.1292,-27.3917,68.00,62.60,82.86,200.00,6.00,0.00,29.97,M,6.21,M,FEW,M,M,M,2900.00,M,M,M,M,YBBN 112030Z 20006KT 9999 FEW029 20/17 Q1015
YBBN,2014-02-11 21:00,153.1292,-27.3917,71.60,62.60,73.27,210.00,6.00,0.00,29.97,M,6.21,M,FEW,M,M,M,2900.00,M,M,M,M,YBBN 112100Z 21006KT 9999 FEW029 22/17 Q1015 NOSIG
YBBN,2014-02-11 21:30,153.1292,-27.3917,73.40,62.60,68.94,200.00,6.00,0.00,29.97,M,6.21,M,FEW,M,M,M,3000.00,M,M,M,M,YBBN 112130Z 20006KT 9999 FEW030 23/17 Q1015
YBBN,2014-02-11 22:00,153.1292,-27.3917,75.20,62.60,64.91,200.00,6.00,0.00,29.97,M,6.21,M,FEW,M,M,M,3000.00,M,M,M,M,YBBN 112200Z 20006KT 9999 FEW030 24/17 Q1015 FM2300 11008KT 9999 FEW030
YBBN,2014-02-11 22:30,153.1292,-27.3917,78.80,62.60,57.60,170.00,5.00,0.00,30.00,M,6.21,M,FEW,M,M,M,3100.00,M,M,M,M,YBBN 112230Z 17005KT 9999 FEW031 26/17 Q1016
YBBN,2014-02-11 23:00,153.1292,-27.3917,78.80,60.80,54.05,120.00,6.00,0.00,30.00,M,6.21,M,SCT,M,M,M,3100.00,M,M,M,M,YBBN 112300Z 12006KT 9999 SCT031 26/16 Q1016
YBBN,2014-02-11 23:30,153.1292,-27.3917,78.80,60.80,54.05,120.00,7.00,0.00,30.00,M,6.21,M,SCT,SCT,M,M,3500.00,4400.00,M,M,M,YBBN 112330Z 12007KT 9999 SCT035 SCT044 26/16 Q1016
