#DEBUG: Format Typ    -> comma
#DEBUG: Time Period   -> 2013-03-11 00:00:00+00:00 2013-03-12 00:00:00+00:00
#DEBUG: Time Zone     -> Etc/UTC
#DEBUG: Data Contact   -> daryl herzmann akrherz@iastate.edu 515-294-5978
#DEBUG: Entries Found -> -1
station,valid,lon,lat,tmpf, dwpf, relh, drct, sknt, p01i, alti, mslp, vsby, gust, skyc1, skyc2, skyc3, skyc4, skyl1, skyl2, skyl3, skyl4, presentwx, metar
YBBN,2013-03-11 00:00,153.1292,-27.3917,78.80,62.60,57.60,130.00,11.00,0.00,30.00,M,6.21,M,SCT,SCT,M,M,2200.00,26000.00,M,M,M,YBBN 110000Z 13011KT 9999 SCT022 SCT260 26/17 Q1016 NOSIG
YBBN,2013-03-11 00:30,153.1292,-27.3917,78.80,64.40,61.36,120.00,13.00,0.00,30.03,M,6.21,M,SCT,BKN,M,M,2200.00,3500.00,M,M,VCSH,YBBN 110030Z 12013KT 9999 VCSH SCT022 BKN035 26/18 Q1017
YBBN,2013-03-11 01:00,153.1292,-27.3917,77.00,62.60,61.13,120.00,11.00,0.00,30.00,M,5.59,M,SCT,BKN,M,M,2200.00,4000.00,M,M,VCSH,YBBN 110100Z 12011KT 9000 VCSH SCT022 BKN040 25/17 Q1016
YBBN,2013-03-11 01:30,153.1292,-27.3917,77.00,64.40,65.12,120.00,12.00,0.00,30.00,M,3.73,M,SCT,BKN,M,M,2000.00,3800.00,M,M,-SHRA,YBBN 110130Z 12012KT 6000 -SHRA SCT020 BKN038 25/18 Q1016
YBBN,2013-03-11 02:00,153.1292,-27.3917,77.00,64.40,65.12,120.00,12.00,0.00,30.00,M,4.97,22.00,SCT,BKN,M,M,2200.00,3800.00,M,M,-SHRA,YBBN 110200Z 12012G22KT 8000 -SHRA SCT022 BKN038 25/18 Q1016
YBBN,2013-03-11 02:30,153.1292,-27.3917,78.80,64.40,61.36,130.00,10.00,0.00,30.00,M,4.35,M,SCT,SCT,M,M,2400.00,4000.00,M,M,-SHRA,YBBN 110230Z 13010KT 7000 -SHRA SCT024 SCT040 26/18 Q1016 RMK -SHRA TO NE
YBBN,2013-03-11 03:00,153.1292,-27.3917,78.80,64.40,61.36,120.00,13.00,0.00,29.97,M,5.59,M,SCT,SCT,M,M,2600.00,4200.00,M,M,VCSH,YBBN 110300Z 12013KT 9000 VCSH SCT026 SCT042 26/18 Q1015
YBBN,2013-03-11 03:30,153.1292,-27.3917,78.80,62.60,57.60,120.00,13.00,0.00,29.97,M,5.59,24.00,SCT,SCT,M,M,3000.00,7500.00,M,M,VCSH,YBBN 110330Z 12013G24KT 9000 VCSH SCT030 SCT075 26/17 Q1015 RMK -SHRA TO NE
YBBN,2013-03-11 04:00,153.1292,-27.3917,77.00,64.40,65.12,110.00,15.00,0.00,29.97,M,6.21,25.00,SCT,SCT,M,M,3000.00,7500.00,M,M,VCSH,YBBN 110400Z 11015G25KT 9999 VCSH SCT030 SCT075 25/18 Q1015
YBBN,2013-03-11 04:30,153.1292,-27.3917,78.80,62.60,57.60,110.00,14.00,0.00,29.97,M,6.21,M,SCT,SCT,BKN,M,3200.00,7800.00,26000.00,M,M,YBBN 110430Z 11014KT 9999 SCT032 SCT078 BKN260 26/17 Q1015 RMK HZ
YBBN,2013-03-11 05:00,153.1292,-27.3917,78.80,62.60,57.60,120.00,14.00,0.00,29.94,M,6.21,M,FEW,M,M,M,3200.00,M,M,M,M,YBBN 110500Z 12014KT 9999 FEW032 26/17 Q1014
YBBN,2013-03-11 05:30,153.1292,-27.3917,77.00,60.80,57.36,120.00,13.00,0.00,29.94,M,6.21,M,FEW,M,M,M,3500.00,M,M,M,M,YBBN 110530Z 12013KT 9999 FEW035 25/16 Q1014 RMK HZ
YBBN,2013-03-11 06:00,153.1292,-27.3917,77.00,60.80,57.36,120.00,13.00,0.00,29.94,M,6.21,M,FEW,M,M,M,3500.00,M,M,M,M,YBBN 110600Z 12013KT 9999 FEW035 25/16 Q1014 RMK HZ
YBBN,2013-03-11 06:30,153.1292,-27.3917,78.80,60.80,54.05,120.00,13.00,0.00,29.94,M,6.21,M,FEW,M,M,M,3500.00,M,M,M,M,YBBN 110630Z 12013KT 9999 FEW035 26/16 Q1014
YBBN,2013-03-11 07:00,153.1292,-27.3917,77.00,59.00,53.80,120.00,11.00,0.00,29.97,M,6.21,M,FEW,M,M,M,3500.00,M,M,M,M,YBBN 110700Z 12011KT 9999 FEW035 25/15 Q1015 NOSIG
YBBN,2013-03-11 07:30,153.1292,-27.3917,77.00,60.80,57.36,130.00,11.00,0.00,29.97,M,6.21,M,SCT,M,M,M,3500.00,M,M,M,M,YBBN 110730Z 13011KT 9999 SCT035 25/16 Q1015
YBBN,2013-03-11 08:00,153.1292,-27.3917,75.20,62.60,64.91,130.00,11.00,0.00,29.97,M,6.21,M,SCT,M,M,M,3500.00,M,M,M,M,YBBN 110800Z 13011KT 9999 SCT035 24/17 Q1015 NOSIG
YBBN,2013-03-11 08:30,153.1292,-27.3917,75.20,62.60,64.91,120.00,10.00,0.00,29.97,M,6.21,M,FEW,M,M,M,3200.00,M,M,M,M,YBBN 110830Z 12010KT 9999 FEW032 24/17 Q1015
YBBN,2013-03-11 09:00,153.1292,-27.3917,75.20,62.60,64.91,120.00,11.00,0.00,30.00,M,6.21,M,SCT,M,M,M,3200.00,M,M,M,M,YBBN 110900Z 12011KT 9999 SCT032 24/17 Q1016 NOSIG
YBBN,2013-03-11 09:30,153.1292,-27.3917,75.20,64.40,69.14,110.00,11.00,0.00,30.00,M,6.21,M,FEW,M,M,M,3200.00,M,M,M,VCSH,YBBN 110930Z 11011KT 9999 VCSH FEW032 24/18 Q1016 RMK VCSH TO WNW
YBBN,2013-03-11 10:00,153.1292,-27.3917,73.40,64.40,73.44,130.00,11.00,0.00,30.00,M,3.11,24.00,FEW,BKN,M,M,1800.00,3000.00,M,M,+SHRA,YBBN 111000Z 13011G24KT 5000 +SHRA FEW018 BKN030 23/18 Q1016
YBBN,2013-03-11 10:15,153.1292,-27.3917,71.60,64.40,78.04,140.00,7.00,0.00,30.00,M,6.21,M,FEW,SCT,BKN,M,3000.00,4500.00,7000.00,M,VCSH,YBBN 111015Z 14007KT 9999 VCSH FEW030 SCT045 BKN070 22/18 Q1016 RESHRA
YBBN,2013-03-11 10:30,153.1292,-27.3917,71.60,64.40,78.04,160.00,6.00,0.00,30.00,M,6.21,M,FEW,BKN,M,M,3000.00,7000.00,M,M,VCSH,YBBN 111030Z 16006KT 9999 VCSH FEW030 BKN070 22/18 Q1016 RMK VCSH TO S
YBBN,2013-03-11 11:00,153.1292,-27.3917,71.60,64.40,78.04,160.00,7.00,0.00,30.03,M,6.21,M,FEW,M,M,M,3000.00,M,M,M,VCSH,YBBN 111100Z 16007KT 9999 VCSH FEW030 22/18 Q1017
YBBN,2013-03-11 11:30,153.1292,-27.3917,71.60,64.40,78.04,170.00,7.00,0.00,30.03,M,6.21,M,FEW,M,M,M,3000.00,M,M,M,M,YBBN 111130Z 17007KT 9999 FEW030 22/18 Q1017
YBBN,2013-03-11 12:00,153.1292,-27.3917,71.60,64.40,78.04,190.00,7.00,0.00,30.03,M,5.59,M,FEW,BKN,M,M,3000.00,4500.00,M,M,VCSH,YBBN 111200Z 19007KT 9000 VCSH FEW030 BKN045 22/18 Q1017
YBBN,2013-03-11 12:30,153.1292,-27.3917,69.80,64.40,82.98,170.00,7.00,0.00,30.03,M,5.59,M,FEW,SCT,BKN,M,1800.00,2700.00,4500.00,M,VCSH,YBBN 111230Z 17007KT 9000 VCSH FEW018 SCT027 BKN045 21/18 Q1017 RESHRA
YBBN,2013-03-11 13:00,153.1292,-27.3917,69.80,64.40,82.98,170.00,6.00,0.00,30.00,M,6.21,M,SCT,BKN,M,M,2700.00,8000.00,M,M,M,YBBN 111300Z 17006KT 9999 SCT027 BKN080 21/18 Q1016 NOSIG
YBBN,2013-03-11 13:30,153.1292,-27.3917,69.80,64.40,82.98,190.00,7.00,0.00,30.00,M,6.21,M,FEW,SCT,BKN,M,1800.00,2500.00,4500.00,M,VCSH,YBBN 111330Z 19007KT 9999 VCSH FEW018 SCT025 BKN045 21/18 Q1016
YBBN,2013-03-11 14:00,153.1292,-27.3917,69.80,64.40,82.98,170.00,6.00,0.00,30.00,M,6.21,M,SCT,BKN,M,M,2500.00,8000.00,M,M,M,YBBN 111400Z 17006KT 9999 SCT025 BKN080 21/18 Q1016
YBBN,2013-03-11 14:30,153.1292,-27.3917,69.80,66.20,88.34,190.00,5.00,0.00,30.00,M,6.21,M,SCT,M,M,M,2500.00,M,M,M,M,YBBN 111430Z 19005KT 9999 SCT025 21/19 Q1016
YBBN,2013-03-11 15:00,153.1292,-27.3917,69.80,64.40,82.98,180.00,5.00,0.00,29.97,M,6.21,M,FEW,SCT,M,M,2500.00,5000.00,M,M,M,YBBN 111500Z 18005KT 9999 FEW025 SCT050 21/18 Q1015
YBBN,2013-03-11 15:30,153.1292,-27.3917,68.00,64.40,88.26,200.00,6.00,0.00,29.97,M,6.21,M,FEW,SCT,M,M,2500.00,5000.00,M,M,M,YBBN 111530Z 20006KT 9999 FEW025 SCT050 20/18 Q1015
YBBN,2013-03-11 16:00,153.1292,-27.3917,68.00,64.40,88.26,190.00,5.00,0.00,29.97,M,6.21,M,FEW,M,M,M,2500.00,M,M,M,M,YBBN 111600Z 19005KT 9999 FEW025 20/18 Q1015
YBBN,2013-03-11 16:30,153.1292,-27.3917,68.00,64.40,88.26,210.00,6.00,0.00,29.94,M,6.21,M,SCT,M,M,M,2500.00,M,M,M,M,YBBN 111630Z 21006KT 9999 SCT025 20/18 Q1014
YBBN,2013-03-11 17:00,153.1292,-27.3917,66.20,64.40,93.92,210.00,7.00,0.00,29.94,M,6.21,M,BKN,M,M,M,2500.00,M,M,M,M,YBBN 111700Z 21007KT 9999 BKN025 19/18 Q1014
YBBN,2013-03-11 17:30,153.1292,-27.3917,68.00,64.40,88.26,210.00,7.00,0.00,29.94,M,6.21,M,BKN,M,M,M,2800.00,M,M,M,M,YBBN 111730Z 21007KT 9999 BKN028 20/18 Q1014
YBBN,2013-03-11 18:00,153.1292,-27.3917,66.20,64.40,93.92,210.00,8.00,0.00,29.94,M,6.21,M,FEW,M,M,M,2800.00,M,M,M,M,YBBN 111800Z 21008KT 9999 FEW028 19/18 Q1014
YBBN,2013-03-11 18:30,153.1292,-27.3917,66.20,64.40,93.92,210.00,7.00,0.00,29.94,M,6.21,M,FEW,M,M,M,2800.00,M,M,M,M,YBBN 111830Z 21007KT 9999 FEW028 19/18 Q1014
YBBN,2013-03-11 19:00,153.1292,-27.3917,68.00,64.40,88.26,200.00,7.00,0.00,29.94,M,6.21,M,SCT,M,M,M,2800.00,M,M,M,M,YBBN 111900Z 20007KT 9999 SCT028 20/18 Q1014
YBBN,2013-03-11 19:30,153.1292,-27.3917,68.00,64.40,88.26,190.00,7.00,0.00,29.94,M,6.21,M,FEW,SCT,M,M,2500.00,3500.00,M,M,VCSH,YBBN 111930Z 19007KT 9999 VCSH FEW025 SCT035 20/18 Q1014
YBBN,2013-03-11 20:00,153.1292,-27.3917,66.20,64.40,93.92,200.00,6.00,0.00,29.97,M,6.21,M,FEW,SCT,M,M,2200.00,5000.00,M,M,M,YBBN 112000Z 20006KT 9999 FEW022 SCT050 19/18 Q1015
YBBN,2013-03-11 20:30,153.1292,-27.3917,68.00,64.40,88.26,210.00,8.00,0.00,29.97,M,6.21,M,FEW,M,M,M,2000.00,M,M,M,M,YBBN 112030Z 21008KT 9999 FEW020 20/18 Q1015
YBBN,2013-03-11 21:00,153.1292,-27.3917,69.80,64.40,82.98,210.00,7.00,0.00,29.97,M,6.21,M,FEW,M,M,M,2200.00,M,M,M,M,YBBN 112100Z 21007KT 9999 FEW022 21/18 Q1015
YBBN,2013-03-11 21:30,153.1292,-27.3917,71.60,64.40,78.04,190.00,8.00,0.00,29.97,M,6.21,M,FEW,M,M,M,2300.00,M,M,M,M,YBBN 112130Z 19008KT 9999 FEW023 22/18 Q1015
YBBN,2013-03-11 22:00,153.1292,-27.3917,73.40,64.40,73.44,170.00,9.00,0.00,29.97,M,6.21,M,FEW,M,M,M,2500.00,M,M,M,M,YBBN 112200Z 17009KT 9999 FEW025 23/18 Q1015 NOSIG
YBBN,2013-03-11 22:30,153.1292,-27.3917,77.00,64.40,65.12,150.00,8.00,0.00,29.97,M,6.21,M,FEW,M,M,M,2500.00,M,M,M,M,YBBN 112230Z 15008KT 9999 FEW025 25/18 Q1015
YBBN,2013-03-11 23:00,153.1292,-27.3917,77.00,62.60,61.13,130.00,11.00,0.00,30.00,M,6.21,M,SCT,M,M,M,2500.00,M,M,M,M,YBBN 112300Z 13011KT 9999 SCT025 25/17 Q1016
YBBN,2013-03-11 23:30,153.1292,-27.3917,78.80,62.60,57.60,130.00,12.00,0.00,30.00,M,6.21,M,SCT,M,M,M,3000.00,M,M,M,VCSH,YBBN 112330Z 13012KT 9999 VCSH SCT030 26/17 Q1016 RMK HZ
