#DEBUG: Format Typ    -> comma
#DEBUG: Time Period   -> 2013-02-25 00:00:00+00:00 2013-02-26 00:00:00+00:00
#DEBUG: Time Zone     -> Etc/UTC
#DEBUG: Data Contact   -> daryl herzmann akrherz@iastate.edu 515-294-5978
#DEBUG: Entries Found -> -1
station,valid,lon,lat,tmpf, dwpf, relh, drct, sknt, p01i, alti, mslp, vsby, gust, skyc1, skyc2, skyc3, skyc4, skyl1, skyl2, skyl3, skyl4, presentwx, metar
YBBN,2013-02-25 00:00,153.1292,-27.3917,77.00,69.80,78.48,70.00,12.00,0.00,29.94,M,3.73,M,FEW,SCT,BKN,M,800.00,3000.00,5500.00,M,-RA,YBBN 250000Z 07012KT 6000 -RA FEW008 SCT030 BKN055 25/21 Q1014
YBBN,2013-02-25 00:30,153.1292,-27.3917,77.00,71.60,83.44,70.00,11.00,0.00,29.94,M,3.11,M,FEW,SCT,BKN,M,800.00,3000.00,5500.00,M,-RA,YBBN 250030Z 07011KT 5000 -RA FEW008 SCT030 BKN055 25/22 Q1014
YBBN,2013-02-25 01:00,153.1292,-27.3917,77.00,71.60,83.44,70.00,14.00,0.00,29.94,M,3.11,27.00,FEW,SCT,BKN,M,800.00,1800.00,5300.00,M,RA,YBBN 250100Z 07014G27KT 5000 3000W RA FEW008 SCT018 BKN053 25/22 Q1014
YBBN,2013-02-25 01:30,153.1292,-27.3917,77.00,71.60,83.44,60.00,15.00,0.00,29.94,M,3.11,M,FEW,SCT,BKN,M,600.00,1800.00,4600.00,M,-RA,YBBN 250130Z 06015KT 5000 -RA FEW006 SCT018 BKN046 25/22 Q1014
YBBN,2013-02-25 02:00,153.1292,-27.3917,77.00,73.40,88.67,60.00,11.00,0.00,29.94,M,3.11,M,FEW,SCT,BKN,M,600.00,3000.00,4300.00,M,RA,YBBN 250200Z 06011KT 5000 4000NW RA FEW006 SCT030 BKN043 25/23 Q1014
YBBN,2013-02-25 02:30,153.1292,-27.3917,77.00,71.60,83.44,50.00,13.00,0.00,29.94,M,3.73,M,FEW,SCT,BKN,M,900.00,3000.00,4800.00,M,-DZRA,YBBN 250230Z 05013KT 6000 -DZRA FEW009 SCT030 BKN048 25/22 Q1014
YBBN,2013-02-25 02:45,153.1292,-27.3917,75.20,71.60,88.59,60.00,10.00,0.00,29.94,M,3.11,M,FEW,SCT,BKN,M,800.00,1000.00,5200.00,M,RA,YBBN 250245Z 06010KT 5000 4000NE RA FEW008 SCT010 BKN052 24/22 Q1014
YBBN,2013-02-25 03:00,153.1292,-27.3917,75.20,73.40,94.14,70.00,10.00,0.00,29.91,M,2.49,M,FEW,SCT,BKN,M,600.00,1000.00,5000.00,M,+RA,YBBN 250300Z 07010KT 4000 2000NE +RA FEW006 SCT010 BKN050 24/23 Q1013
YBBN,2013-02-25 03:30,153.1292,-27.3917,73.40,71.60,94.10,50.00,12.00,0.00,29.91,M,1.86,M,FEW,SCT,BKN,M,400.00,600.00,4200.00,M,+RA,YBBN 250330Z 05012KT 3000 +RA FEW004 SCT006 BKN042 23/22 Q1013
YBBN,2013-02-25 04:00,153.1292,-27.3917,73.40,71.60,94.10,60.00,11.00,0.00,29.91,M,3.11,M,FEW,SCT,BKN,M,400.00,600.00,4000.00,M,RA,YBBN 250400Z 06011KT 5000 RA FEW004 SCT006 BKN040 23/22 Q1013 RERA
YBBN,2013-02-25 04:20,153.1292,-27.3917,73.40,71.60,94.10,70.00,12.00,0.00,29.91,M,1.86,M,FEW,SCT,BKN,M,400.00,600.00,4800.00,M,RA,YBBN 250420Z 07012KT 3000 RA FEW004 SCT006 BKN048 23/22 Q1013
YBBN,2013-02-25 04:30,153.1292,-27.3917,73.40,71.60,94.10,70.00,10.00,0.00,29.91,M,1.86,M,FEW,SCT,BKN,M,400.00,600.00,4800.00,M,RA,YBBN 250430Z 07010KT 3000 RA FEW004 SCT006 BKN048 23/22 Q1013
YBBN,2013-02-25 05:00,153.1292,-27.3917,73.40,71.60,94.10,80.00,11.00,0.00,29.91,M,1.24,M,FEW,SCT,BKN,M,400.00,900.00,4300.00,M,+RA,YBBN 250500Z 08011KT 2000 +RA FEW004 SCT009 BKN043 23/22 Q1013
YBBN,2013-02-25 05:24,153.1292,-27.3917,73.40,71.60,94.10,70.00,11.00,0.00,29.91,M,2.17,M,FEW,SCT,BKN,M,400.00,900.00,4300.00,M,RA,YBBN 250524Z 07011KT 3500 RA FEW004 SCT009 BKN043 23/22 Q1013 RERA
YBBN,2013-02-25 05:30,153.1292,-27.3917,73.40,71.60,94.10,70.00,10.00,0.00,29.91,M,2.49,M,FEW,SCT,M,M,400.00,800.00,M,M,RA,YBBN 250530Z 07010KT 4000 RA FEW004 SCT008 23/22 Q1013
YBBN,2013-02-25 06:00,153.1292,-27.3917,73.40,71.60,94.10,70.00,11.00,0.00,29.91,M,2.49,M,FEW,SCT,BKN,M,400.00,800.00,4600.00,M,RA,YBBN 250600Z 07011KT 4000 RA FEW004 SCT008 BKN046 23/22 Q1013
YBBN,2013-02-25 06:20,153.1292,-27.3917,73.40,71.60,94.10,60.00,7.00,0.00,29.91,M,1.86,M,FEW,BKN,M,M,400.00,800.00,M,M,RA,YBBN 250620Z 06007KT 3000 RA FEW004 BKN008 23/22 Q1013
YBBN,2013-02-25 06:25,153.1292,-27.3917,73.40,71.60,94.10,60.00,7.00,0.00,29.91,M,0.93,M,FEW,BKN,M,M,400.00,800.00,M,M,+RA,YBBN 250625Z 06007KT 1500 +RA FEW004 BKN008 23/22 Q1013
YBBN,2013-02-25 06:30,153.1292,-27.3917,73.40,73.40,100.00,60.00,9.00,0.00,29.91,M,0.93,M,FEW,SCT,BKN,M,400.00,800.00,3000.00,M,+RA,YBBN 250630Z 06009KT 1500 +RA FEW004 SCT008 BKN030 23/23 Q1013
YBBN,2013-02-25 06:41,153.1292,-27.3917,73.40,71.60,94.10,60.00,12.00,0.00,29.91,M,1.86,M,FEW,SCT,BKN,M,400.00,900.00,1500.00,M,RA,YBBN 250641Z 06012KT 3000 RA FEW004 SCT009 BKN015 23/22 Q1013 RERA
YBBN,2013-02-25 07:00,153.1292,-27.3917,73.40,71.60,94.10,50.00,11.00,0.00,29.91,M,2.49,M,FEW,SCT,BKN,M,400.00,800.00,1700.00,M,RA,YBBN 250700Z 05011KT 4000 RA FEW004 SCT008 BKN017 23/22 Q1013
YBBN,2013-02-25 07:30,153.1292,-27.3917,73.40,71.60,94.10,60.00,9.00,0.00,29.91,M,3.11,M,FEW,SCT,BKN,M,400.00,900.00,3800.00,M,RA,YBBN 250730Z 06009KT 5000 RA FEW004 SCT009 BKN038 23/22 Q1013
YBBN,2013-02-25 08:00,153.1292,-27.3917,73.40,71.60,94.10,60.00,9.00,0.00,29.94,M,3.11,M,FEW,SCT,BKN,M,500.00,800.00,9700.00,M,RA,YBBN 250800Z 06009KT 5000 RA FEW005 SCT008 BKN097 23/22 Q1014
YBBN,2013-02-25 08:30,153.1292,-27.3917,73.40,71.60,94.10,60.00,9.00,0.00,29.94,M,3.11,M,FEW,SCT,BKN,M,500.00,900.00,10000.00,M,RA,YBBN 250830Z 06009KT 5000 RA FEW005 SCT009 BKN100 23/22 Q1014
YBBN,2013-02-25 09:00,153.1292,-27.3917,73.40,71.60,94.10,80.00,6.00,0.00,29.94,M,3.73,M,FEW,SCT,BKN,M,500.00,900.00,4400.00,M,-RA,YBBN 250900Z 08006KT 6000 -RA FEW005 SCT009 BKN044 23/22 Q1014
YBBN,2013-02-25 09:30,153.1292,-27.3917,73.40,71.60,94.10,60.00,6.00,0.00,29.94,M,3.73,M,FEW,SCT,BKN,M,700.00,1400.00,3600.00,M,-RA VCSH,YBBN 250930Z 06006KT 6000 -RA VCSH FEW007 SCT014 BKN036 23/22 Q1014
YBBN,2013-02-25 09:48,153.1292,-27.3917,73.40,71.60,94.10,50.00,6.00,0.00,29.97,M,2.49,M,BKN,BKN,M,M,1400.00,4000.00,M,M,RA,YBBN 250948Z 05006KT 4000 RA BKN014 BKN040 23/22 Q1015
YBBN,2013-02-25 10:00,153.1292,-27.3917,73.40,71.60,94.10,60.00,7.00,0.00,29.97,M,3.11,M,BKN,BKN,M,M,1300.00,4200.00,M,M,RA,YBBN 251000Z 06007KT 5000 RA BKN013 BKN042 23/22 Q1015
YBBN,2013-02-25 10:19,153.1292,-27.3917,73.40,71.60,94.10,70.00,7.00,0.00,29.97,M,1.24,M,BKN,BKN,M,M,600.00,1300.00,M,M,+RA,YBBN 251019Z 07007KT 2000 +RA BKN006 BKN013 23/22 Q1015
YBBN,2013-02-25 10:30,153.1292,-27.3917,73.40,71.60,94.10,90.00,6.00,0.00,29.97,M,1.24,M,SCT,BKN,BKN,M,600.00,1300.00,2400.00,M,+RA,YBBN 251030Z 09006KT 2000 +RA SCT006 BKN013 BKN024 23/22 Q1015
YBBN,2013-02-25 11:00,153.1292,-27.3917,73.40,71.60,94.10,50.00,11.00,0.00,29.97,M,3.11,M,SCT,BKN,BKN,M,1500.00,3900.00,9000.00,M,-RA VCSH,YBBN 251100Z 05011KT 5000 -RA VCSH SCT015 BKN039 BKN090 23/22 Q1015 RERA
YBBN,2013-02-25 11:30,153.1292,-27.3917,73.40,71.60,94.10,60.00,11.00,0.00,29.97,M,2.49,M,FEW,SCT,BKN,M,1400.00,2900.00,6000.00,M,RA,YBBN 251130Z 06011KT 4000 RA FEW014 SCT029 BKN060 23/22 Q1015
YBBN,2013-02-25 12:00,153.1292,-27.3917,73.40,71.60,94.10,50.00,9.00,0.00,29.97,M,3.73,M,FEW,SCT,BKN,M,1400.00,1900.00,3600.00,M,-RA,YBBN 251200Z 05009KT 6000 -RA FEW014 SCT019 BKN036 23/22 Q1015 RERA
YBBN,2013-02-25 12:13,153.1292,-27.3917,73.40,71.60,94.10,50.00,9.00,0.00,29.97,M,3.73,M,FEW,SCT,BKN,M,600.00,1100.00,1700.00,M,-RA,YBBN 251213Z 05009KT 6000 -RA FEW006 SCT011 BKN017 23/22 Q1015
YBBN,2013-02-25 12:30,153.1292,-27.3917,73.40,71.60,94.10,50.00,9.00,0.00,29.97,M,3.11,M,FEW,BKN,BKN,M,600.00,1400.00,7100.00,M,-RA VCSH,YBBN 251230Z 05009KT 5000 -RA VCSH FEW006 BKN014 BKN071 23/22 Q1015
YBBN,2013-02-25 12:47,153.1292,-27.3917,73.40,71.60,94.10,50.00,10.00,0.00,29.97,M,1.86,M,SCT,BKN,BKN,M,1200.00,1800.00,5700.00,M,RA,YBBN 251247Z 05010KT 3000 RA SCT012 BKN018 BKN057 23/22 Q1015
YBBN,2013-02-25 13:00,153.1292,-27.3917,73.40,71.60,94.10,50.00,11.00,0.00,29.97,M,4.97,M,SCT,BKN,BKN,M,1000.00,1500.00,3500.00,M,-RA,YBBN 251300Z 05011KT 8000 -RA SCT010 BKN015 BKN035 23/22 Q1015
YBBN,2013-02-25 13:30,153.1292,-27.3917,73.40,71.60,94.10,50.00,10.00,0.00,29.97,M,6.21,M,SCT,BKN,BKN,M,1700.00,4200.00,7500.00,M,-RA,YBBN 251330Z 05010KT 9999 -RA SCT017 BKN042 BKN075 23/22 Q1015
YBBN,2013-02-25 13:47,153.1292,-27.3917,73.40,71.60,94.10,40.00,10.00,0.00,29.97,M,6.21,M,BKN,BKN,M,M,1300.00,5500.00,M,M,-RA,YBBN 251347Z 04010KT 9999 -RA BKN013 BKN055 23/22 Q1015
YBBN,2013-02-25 14:00,153.1292,-27.3917,73.40,71.60,94.10,40.00,9.00,0.00,29.97,M,6.21,M,BKN,M,M,M,1000.00,M,M,M,M,YBBN 251400Z 04009KT 9999 BKN010 23/22 Q1015
YBBN,2013-02-25 14:30,153.1292,-27.3917,73.40,71.60,94.10,50.00,11.00,0.00,29.94,M,6.21,M,BKN,BKN,M,M,1300.00,5100.00,M,M,-RA,YBBN 251430Z 05011KT 9999 -RA BKN013 BKN051 23/22 Q1014
YBBN,2013-02-25 15:00,153.1292,-27.3917,73.40,71.60,94.10,50.00,11.00,0.00,29.94,M,6.21,M,SCT,BKN,M,M,1300.00,8500.00,M,M,-RA,YBBN 251500Z 05011KT 9999 -RA SCT013 BKN085 23/22 Q1014
YBBN,2013-02-25 15:30,153.1292,-27.3917,73.40,71.60,94.10,40.00,9.00,0.00,29.94,M,6.21,M,FEW,BKN,M,M,1400.00,8500.00,M,M,M,YBBN 251530Z 04009KT 9999 FEW014 BKN085 23/22 Q1014
YBBN,2013-02-25 16:00,153.1292,-27.3917,73.40,71.60,94.10,50.00,7.00,0.00,29.91,M,6.21,M,SCT,BKN,M,M,1700.00,9000.00,M,M,-RA,YBBN 251600Z 05007KT 9999 -RA SCT017 BKN090 23/22 Q1013
YBBN,2013-02-25 16:30,153.1292,-27.3917,73.40,71.60,94.10,20.00,7.00,0.00,29.91,M,6.21,M,BKN,BKN,M,M,1300.00,7500.00,M,M,-RA,YBBN 251630Z 02007KT 9999 -RA BKN013 BKN075 23/22 Q1013
YBBN,2013-02-25 17:07,153.1292,-27.3917,73.40,71.60,94.10,30.00,8.00,0.00,29.91,M,2.49,M,FEW,BKN,BKN,M,1500.00,3700.00,9500.00,M,RA,YBBN 251707Z 03008KT 4000 RA FEW015 BKN037 BKN095 23/22 Q1013
YBBN,2013-02-25 17:30,153.1292,-27.3917,71.60,69.80,94.06,90.00,5.00,0.00,29.91,M,5.59,M,FEW,BKN,BKN,M,1000.00,4300.00,6200.00,M,-RA,YBBN 251730Z 09005KT 9000 -RA FEW010 BKN043 BKN062 22/21 Q1013 RERA
YBBN,2013-02-25 18:00,153.1292,-27.3917,71.60,69.80,94.06,70.00,3.00,0.00,29.91,M,5.59,M,SCT,BKN,BKN,M,1900.00,3500.00,6900.00,M,-RA,YBBN 251800Z 07003KT 9000 -RA SCT019 BKN035 BKN069 22/21 Q1013
YBBN,2013-02-25 18:15,153.1292,-27.3917,71.60,71.60,100.00,60.00,5.00,0.00,29.91,M,4.97,M,BKN,BKN,M,M,700.00,3300.00,M,M,-RA,YBBN 251815Z 06005KT 8000 -RA BKN007 BKN033 22/22 Q1013
YBBN,2013-02-25 18:30,153.1292,-27.3917,71.60,71.60,100.00,60.00,4.00,0.00,29.91,M,5.59,M,SCT,BKN,BKN,M,700.00,1500.00,5700.00,M,-RA,YBBN 251830Z 06004KT 9000 -RA SCT007 BKN015 BKN057 22/22 Q1013
YBBN,2013-02-25 19:00,153.1292,-27.3917,73.40,71.60,94.10,0.00,0.00,0.00,29.91,M,6.21,M,FEW,SCT,BKN,M,700.00,1100.00,6800.00,M,-RA,YBBN 251900Z 00000KT 9999 -RA FEW007 SCT011 BKN068 23/22 Q1013
YBBN,2013-02-25 19:30,153.1292,-27.3917,73.40,69.80,88.51,60.00,5.00,0.00,29.91,M,5.59,M,FEW,BKN,M,M,1800.00,5400.00,M,M,-RA,YBBN 251930Z 06005KT 9000 -RA FEW018 BKN054 23/21 Q1013
YBBN,2013-02-25 19:50,153.1292,-27.3917,73.40,69.80,88.51,50.00,7.00,0.00,29.94,M,3.11,M,FEW,SCT,BKN,M,1600.00,4000.00,5200.00,M,-RA,YBBN 251950Z 05007KT 5000 -RA FEW016 SCT040 BKN052 23/21 Q1014
YBBN,2013-02-25 19:55,153.1292,-27.3917,73.40,69.80,88.51,60.00,9.00,0.00,29.94,M,0.93,M,SCT,BKN,M,M,1300.00,5200.00,M,M,+RA,YBBN 251955Z 06009KT 1500 +RA SCT013 BKN052 23/21 Q1014
YBBN,2013-02-25 20:00,153.1292,-27.3917,73.40,69.80,88.51,70.00,7.00,0.00,29.94,M,1.24,M,SCT,BKN,BKN,M,1300.00,2000.00,5200.00,M,RA,YBBN 252000Z 07007KT 2000 RA SCT013 BKN020 BKN052 23/21 Q1014 RERA
YBBN,2013-02-25 20:15,153.1292,-27.3917,71.60,71.60,100.00,130.00,4.00,0.00,29.94,M,1.86,M,SCT,BKN,M,M,600.00,1200.00,M,M,SHRA VCSH,YBBN 252015Z 13004KT 3000 SHRA VCSH SCT006 BKN012 22/22 Q1014 RESHRA
YBBN,2013-02-25 20:30,153.1292,-27.3917,71.60,71.60,100.00,0.00,0.00,0.00,29.94,M,3.11,M,FEW,SCT,BKN,M,100.00,800.00,4200.00,M,SHRA VCSH,YBBN 252030Z 00000KT 5000 3000W SHRA VCSH FEW001 SCT008 BKN042 22/22 Q1014
YBBN,2013-02-25 21:00,153.1292,-27.3917,73.40,71.60,94.10,80.00,2.00,0.00,29.94,M,3.73,M,FEW,SCT,BKN,M,200.00,1700.00,5400.00,M,-SHRA,YBBN 252100Z 08002KT 6000 -SHRA FEW002 SCT017 BKN054 23/22 Q1014 RESHRA
YBBN,2013-02-25 21:30,153.1292,-27.3917,77.00,71.60,83.44,100.00,7.00,0.00,29.94,M,6.21,M,FEW,SCT,BKN,M,200.00,1900.00,6400.00,M,VCSH,YBBN 252130Z 10007KT 9999 VCSH FEW002 SCT019 BKN064 25/22 Q1014
YBBN,2013-02-25 22:00,153.1292,-27.3917,77.00,71.60,83.44,90.00,8.00,0.00,29.97,M,3.11,M,FEW,SCT,BKN,M,1200.00,1900.00,7000.00,M,SHRA VCSH,YBBN 252200Z 09008KT 5000 SHRA VCSH FEW012 SCT019 BKN070 25/22 Q1015
YBBN,2013-02-25 22:30,153.1292,-27.3917,77.00,73.40,88.67,100.00,7.00,0.00,29.97,M,6.21,M,FEW,SCT,BKN,M,1000.00,2000.00,6800.00,M,VCSH,YBBN 252230Z 10007KT 9999 VCSH FEW010 SCT020 BKN068 25/23 Q1015
YBBN,2013-02-25 23:00,153.1292,-27.3917,78.80,73.40,83.55,90.00,9.00,0.00,29.97,M,6.21,M,FEW,BKN,BKN,M,300.00,1500.00,8000.00,M,SHRA,YBBN 252300Z 09009KT 9999 5000NE SHRA FEW003 BKN015 BKN080 26/23 Q1015
YBBN,2013-02-25 23:08,153.1292,-27.3917,77.00,71.60,83.44,80.00,12.00,0.00,29.97,M,3.11,22.00,FEW,SCT,BKN,M,300.00,800.00,2000.00,M,SHRA,YBBN 252308Z 08012G22KT 5000 1500NE SHRA FEW003 SCT008 BKN020 25/22 Q1015
YBBN,2013-02-25 23:20,153.1292,-27.3917,71.60,69.80,94.06,70.00,16.00,0.00,29.97,M,1.55,M,FEW,BKN,BKN,M,1200.00,1900.00,4800.00,M,-SHRA,YBBN 252320Z 07016KT 2500 -SHRA FEW012 BKN019 BKN048 22/21 Q1015 RESHRA
YBBN,2013-02-25 23:30,153.1292,-27.3917,71.60,71.60,100.00,90.00,11.00,0.00,29.97,M,3.11,M,FEW,SCT,BKN,M,800.00,1900.00,4800.00,M,SHRA VCSH,YBBN 252330Z 09011KT 5000 SHRA VCSH FEW008 SCT019 BKN048 22/22 Q1015
