#DEBUG: Format Typ    -> comma
#DEBUG: Time Period   -> 2015-04-02 00:00:00+00:00 2015-04-03 00:00:00+00:00
#DEBUG: Time Zone     -> Etc/UTC
#DEBUG: Data Contact   -> daryl herzmann akrherz@iastate.edu 515-294-5978
#DEBUG: Entries Found -> -1
station,valid,lon,lat,tmpf, dwpf, relh, drct, sknt, p01i, alti, mslp, vsby, gust, skyc1, skyc2, skyc3, skyc4, skyl1, skyl2, skyl3, skyl4, presentwx, metar
YBBN,2015-04-02 00:00,153.1292,-27.3917,78.80,66.20,65.33,120.00,9.00,0.00,30.06,M,6.21,M,SCT,M,M,M,2800.00,M,M,M,VCSH,YBBN 020000Z 12009KT 9999 VCSH SCT028 26/19 Q1018
YBBN,2015-04-02 00:30,153.1292,-27.3917,75.20,69.80,83.32,70.00,6.00,0.00,30.06,M,6.21,M,SCT,BKN,M,M,2800.00,7000.00,M,M,VCSH,YBBN 020030Z 07006KT 9999 VCSH SCT028 BKN070 24/21 Q1018
YBBN,2015-04-02 01:00,153.1292,-27.3917,77.00,68.00,73.78,110.00,7.00,0.00,30.06,M,6.21,M,SCT,SCT,BKN,M,2900.00,7100.00,9400.00,M,VCSH,YBBN 020100Z 11007KT 9999 VCSH SCT029 SCT071 BKN094 25/20 Q1018
YBBN,2015-04-02 01:30,153.1292,-27.3917,78.80,68.00,69.52,90.00,9.00,0.00,30.03,M,6.21,M,SCT,BKN,M,M,2900.00,9900.00,M,M,M,YBBN 020130Z 09009KT 9999 SCT029 BKN099 26/20 Q1017
YBBN,2015-04-02 02:00,153.1292,-27.3917,78.80,68.00,69.52,80.00,10.00,0.00,30.03,M,6.21,M,BKN,BKN,M,M,2600.00,9900.00,M,M,M,YBBN 020200Z 08010KT 9999 BKN026 BKN099 26/20 Q1017
YBBN,2015-04-02 02:30,153.1292,-27.3917,77.00,68.00,73.78,60.00,15.00,0.00,30.03,M,6.21,M,BKN,BKN,M,M,2700.00,6700.00,M,M,VCSH,YBBN 020230Z 06015KT 9999 VCSH BKN027 BKN067 25/20 Q1017
YBBN,2015-04-02 03:00,153.1292,-27.3917,73.40,69.80,88.51,60.00,15.00,0.00,30.00,M,1.86,25.00,SCT,SCT,BKN,M,1400.00,2700.00,4300.00,M,-SHRA,YBBN 020300Z 06015G25KT 3000 -SHRA SCT014 SCT027 BKN043 23/21 Q1016
YBBN,2015-04-02 03:17,153.1292,-27.3917,73.40,69.80,88.51,60.00,11.00,0.00,30.00,M,6.21,M,FEW,SCT,BKN,M,1200.00,4100.00,6500.00,M,VCSH,YBBN 020317Z 06011KT 9999 VCSH FEW012 SCT041 BKN065 23/21 Q1016
YBBN,2015-04-02 03:30,153.1292,-27.3917,73.40,69.80,88.51,60.00,11.00,0.00,30.00,M,6.21,M,FEW,BKN,M,M,1200.00,6100.00,M,M,VCSH,YBBN 020330Z 06011KT 9999 VCSH FEW012 BKN061 23/21 Q1016
YBBN,2015-04-02 04:00,153.1292,-27.3917,77.00,69.80,78.48,90.00,9.00,0.00,30.00,M,6.21,M,FEW,SCT,BKN,M,2500.00,5900.00,14000.00,M,M,YBBN 020400Z 09009KT 9999 FEW025 SCT059 BKN140 25/21 Q1016
YBBN,2015-04-02 04:30,153.1292,-27.3917,77.00,71.60,83.44,90.00,7.00,0.00,29.97,M,6.21,M,FEW,SCT,BKN,M,2500.00,6100.00,15000.00,M,VCSH,YBBN 020430Z 09007KT 9999 VCSH FEW025 SCT061 BKN150 25/22 Q1015
YBBN,2015-04-02 05:00,153.1292,-27.3917,77.00,69.80,78.48,90.00,9.00,0.00,29.97,M,6.21,M,FEW,SCT,BKN,FEW,1200.00,5600.00,16000.00,2700.00,VCSH,YBBN 020500Z 09009KT 9999 VCSH FEW012 SCT056 BKN160 FEW027TCU 25/21 Q1015
YBBN,2015-04-02 05:30,153.1292,-27.3917,77.00,68.00,73.78,90.00,8.00,0.00,29.97,M,6.21,M,FEW,SCT,BKN,M,1200.00,2300.00,14000.00,M,VCSH,YBBN 020530Z 09008KT 9999 VCSH FEW012 SCT023 BKN140 25/20 Q1015
YBBN,2015-04-02 06:00,153.1292,-27.3917,77.00,69.80,78.48,100.00,7.00,0.00,29.97,M,6.21,M,FEW,SCT,BKN,M,1800.00,2600.00,4100.00,M,VCSH,YBBN 020600Z 10007KT 9999 VCSH FEW018 SCT026 BKN041 25/21 Q1015
YBBN,2015-04-02 06:30,153.1292,-27.3917,75.20,68.00,78.34,100.00,7.00,0.00,30.00,M,6.21,M,SCT,BKN,M,M,2600.00,4300.00,M,M,M,YBBN 020630Z 10007KT 9999 SCT026 BKN043 24/20 Q1016
YBBN,2015-04-02 06:48,153.1292,-27.3917,73.40,69.80,88.51,90.00,9.00,0.00,30.00,M,0.75,M,FEW,BKN,BKN,M,1400.00,2600.00,4100.00,M,SHRA,YBBN 020648Z 09009KT 1200 SHRA FEW014 BKN026 BKN041 23/21 Q1016
YBBN,2015-04-02 06:51,153.1292,-27.3917,71.60,69.80,94.06,90.00,11.00,0.00,30.00,M,0.31,M,FEW,BKN,OVC,M,500.00,2300.00,4100.00,M,+SHRA,YBBN 020651Z 09011KT 0500 +SHRA FEW005 BKN023 OVC041 22/21 Q1016
YBBN,2015-04-02 07:00,153.1292,-27.3917,71.60,69.80,94.06,100.00,9.00,0.00,30.00,M,4.97,M,FEW,BKN,BKN,M,500.00,2300.00,2700.00,M,-SHRA,YBBN 020700Z 10009KT 8000 -SHRA FEW005 BKN023 BKN027 22/21 Q1016 RERA
YBBN,2015-04-02 07:30,153.1292,-27.3917,71.60,68.00,88.43,130.00,7.00,0.00,30.00,M,6.21,M,FEW,SCT,BKN,M,1500.00,3800.00,5900.00,M,M,YBBN 020730Z 13007KT 9999 FEW015 SCT038 BKN059 22/20 Q1016
YBBN,2015-04-02 08:00,153.1292,-27.3917,71.60,69.80,94.06,150.00,5.00,0.00,30.00,M,6.21,M,FEW,BKN,BKN,M,1500.00,5200.00,6400.00,M,M,YBBN 020800Z 15005KT 9999 FEW015 BKN052 BKN064 22/21 Q1016
YBBN,2015-04-02 08:30,153.1292,-27.3917,71.60,69.80,94.06,150.00,5.00,0.00,30.03,M,6.21,M,FEW,BKN,BKN,M,1500.00,5600.00,7200.00,M,M,YBBN 020830Z 15005KT 9999 FEW015 BKN056 BKN072 22/21 Q1017
YBBN,2015-04-02 09:00,153.1292,-27.3917,71.60,69.80,94.06,170.00,5.00,0.00,30.03,M,6.21,M,FEW,SCT,BKN,M,1400.00,7000.00,8900.00,M,M,YBBN 020900Z 17005KT 9999 FEW014 SCT070 BKN089 22/21 Q1017
YBBN,2015-04-02 09:30,153.1292,-27.3917,71.60,69.80,94.06,170.00,7.00,0.00,30.03,M,6.21,M,FEW,SCT,BKN,M,1300.00,3000.00,8800.00,M,VCSH,YBBN 020930Z 17007KT 9999 VCSH FEW013 SCT030 BKN088 22/21 Q1017
YBBN,2015-04-02 10:00,153.1292,-27.3917,71.60,69.80,94.06,170.00,7.00,0.00,30.03,M,5.59,M,FEW,SCT,BKN,FEW,1300.00,2200.00,8800.00,2400.00,VCSH,YBBN 021000Z 17007KT 9000 VCSH FEW013 SCT022 BKN088 FEW024TCU 22/21 Q1017
YBBN,2015-04-02 10:30,153.1292,-27.3917,71.60,69.80,94.06,170.00,8.00,0.00,30.06,M,3.73,M,FEW,BKN,FEW,M,1300.00,2300.00,2400.00,M,-SHRA,YBBN 021030Z 17008KT 6000 -SHRA FEW013 BKN023 FEW024TCU 22/21 Q1018
YBBN,2015-04-02 10:49,153.1292,-27.3917,71.60,69.80,94.06,150.00,7.00,0.00,30.06,M,1.86,M,FEW,SCT,FEW,M,1300.00,2200.00,2400.00,M,+SHRA,YBBN 021049Z 15007KT 3000 +SHRA FEW013 SCT022 FEW024TCU 22/21 Q1018
YBBN,2015-04-02 11:00,153.1292,-27.3917,71.60,69.80,94.06,60.00,7.00,0.00,30.06,M,6.21,M,BKN,FEW,M,M,1400.00,2500.00,M,M,SHRA,YBBN 021100Z 06007KT 9999 SHRA BKN014 FEW025TCU 22/21 Q1018 RESHRA
YBBN,2015-04-02 11:30,153.1292,-27.3917,71.60,69.80,94.06,100.00,5.00,0.00,30.06,M,3.11,M,FEW,SCT,BKN,M,800.00,1300.00,2500.00,M,SHRA,YBBN 021130Z 10005KT 5000 SHRA FEW008 SCT013 BKN025 22/21 Q1018 RESHRA
YBBN,2015-04-02 11:46,153.1292,-27.3917,71.60,69.80,94.06,90.00,5.00,0.00,30.06,M,4.97,M,FEW,SCT,BKN,M,700.00,2400.00,5500.00,M,-SHRA,YBBN 021146Z 09005KT 8000 -SHRA FEW007 SCT024 BKN055 22/21 Q1018 RESHRA
YBBN,2015-04-02 12:00,153.1292,-27.3917,71.60,69.80,94.06,90.00,4.00,0.00,30.06,M,4.97,M,FEW,SCT,BKN,M,1400.00,2500.00,5700.00,M,-SHRA,YBBN 021200Z 09004KT 8000 -SHRA FEW014 SCT025 BKN057 22/21 Q1018
YBBN,2015-04-02 12:30,153.1292,-27.3917,71.60,69.80,94.06,100.00,4.00,0.00,30.06,M,6.21,M,FEW,BKN,M,M,1100.00,4500.00,M,M,-SHRA,YBBN 021230Z 10004KT 9999 -SHRA FEW011 BKN045 22/21 Q1018
YBBN,2015-04-02 13:00,153.1292,-27.3917,71.60,69.80,94.06,110.00,5.00,0.00,30.06,M,6.21,M,SCT,BKN,M,M,1200.00,9000.00,M,M,M,YBBN 021300Z 11005KT 9999 SCT012 BKN090 22/21 Q1018
YBBN,2015-04-02 13:30,153.1292,-27.3917,71.60,69.80,94.06,180.00,5.00,0.00,30.06,M,6.21,M,FEW,SCT,FEW,M,1300.00,2700.00,2800.00,M,VCSH,YBBN 021330Z 18005KT 9999 VCSH FEW013 SCT027 FEW028TCU 22/21 Q1018
YBBN,2015-04-02 13:46,153.1292,-27.3917,71.60,69.80,94.06,170.00,6.00,0.00,30.06,M,3.11,M,FEW,BKN,M,M,600.00,1700.00,M,M,SHRA,YBBN 021346Z 17006KT 5000 SHRA FEW006 BKN017 22/21 Q1018
YBBN,2015-04-02 14:00,153.1292,-27.3917,71.60,69.80,94.06,80.00,7.00,0.00,30.06,M,3.11,M,FEW,BKN,BKN,M,500.00,1500.00,3900.00,M,SHRA,YBBN 021400Z 08007KT 5000 SHRA FEW005 BKN015 BKN039 22/21 Q1018
YBBN,2015-04-02 14:30,153.1292,-27.3917,69.80,68.00,94.01,140.00,4.00,0.00,30.03,M,4.97,M,FEW,SCT,BKN,M,1000.00,2500.00,6500.00,M,-RA,YBBN 021430Z 14004KT 8000 -RA FEW010 SCT025 BKN065 21/20 Q1017 RESHRA
YBBN,2015-04-02 15:00,153.1292,-27.3917,69.80,69.80,100.00,160.00,5.00,0.00,30.03,M,6.21,M,SCT,BKN,M,M,800.00,6200.00,M,M,M,YBBN 021500Z 16005KT 9999 SCT008 BKN062 21/21 Q1017
YBBN,2015-04-02 15:30,153.1292,-27.3917,69.80,69.80,100.00,170.00,6.00,0.00,30.03,M,6.21,M,FEW,SCT,BKN,M,1200.00,2400.00,5200.00,M,M,YBBN 021530Z 17006KT 9999 FEW012 SCT024 BKN052 21/21 Q1017
YBBN,2015-04-02 16:00,153.1292,-27.3917,69.80,69.80,100.00,190.00,4.00,0.00,30.00,M,6.21,M,FEW,BKN,M,M,1400.00,7000.00,M,M,VCSH,YBBN 021600Z 19004KT 9999 VCSH FEW014 BKN070 21/21 Q1016
YBBN,2015-04-02 16:21,153.1292,-27.3917,69.80,69.80,100.00,220.00,6.00,0.00,30.00,M,3.11,M,FEW,SCT,BKN,M,1800.00,2200.00,5500.00,M,-SHRA,YBBN 021621Z 22006KT 5000 -SHRA FEW018 SCT022 BKN055 21/21 Q1016
YBBN,2015-04-02 16:30,153.1292,-27.3917,69.80,69.80,100.00,210.00,6.00,0.00,30.00,M,6.21,M,FEW,SCT,BKN,M,1200.00,2200.00,4300.00,M,VCSH,YBBN 021630Z 21006KT 9999 VCSH FEW012 SCT022 BKN043 21/21 Q1016
YBBN,2015-04-02 16:41,153.1292,-27.3917,69.80,69.80,100.00,210.00,5.00,0.00,30.00,M,1.86,M,FEW,BKN,M,M,1200.00,2200.00,M,M,+SHRA,YBBN 021641Z 21005KT 3000 +SHRA FEW012 BKN022 21/21 Q1016
YBBN,2015-04-02 17:00,153.1292,-27.3917,69.80,69.80,100.00,220.00,7.00,0.00,30.00,M,3.73,M,SCT,BKN,M,M,200.00,1100.00,M,M,-SHRA,YBBN 021700Z 22007KT 6000 -SHRA SCT002 BKN011 21/21 Q1016 RESHRA
YBBN,2015-04-02 17:29,153.1292,-27.3917,69.80,69.80,100.00,160.00,4.00,0.00,30.00,M,3.11,M,BKN,M,M,M,1200.00,M,M,M,SHRA,YBBN 021729Z 16004KT 5000 SHRA BKN012 21/21 Q1016
YBBN,2015-04-02 18:00,153.1292,-27.3917,69.80,69.80,100.00,190.00,6.00,0.00,30.00,M,3.11,M,FEW,BKN,M,M,1200.00,2000.00,M,M,SHRA,YBBN 021800Z 19006KT 5000 SHRA FEW012 BKN020 21/21 Q1016
YBBN,2015-04-02 18:30,153.1292,-27.3917,69.80,69.80,100.00,220.00,4.00,0.00,30.00,M,5.59,M,BKN,BKN,M,M,300.00,700.00,M,M,VCSH,YBBN 021830Z 22004KT 9000 VCSH BKN003 BKN007 21/21 Q1016
YBBN,2015-04-02 19:00,153.1292,-27.3917,69.80,69.80,100.00,200.00,7.00,0.00,30.00,M,4.97,M,BKN,M,M,M,400.00,M,M,M,VCSH,YBBN 021900Z 20007KT 8000 VCSH BKN004 21/21 Q1016
YBBN,2015-04-02 19:30,153.1292,-27.3917,71.60,69.80,94.06,80.00,3.00,0.00,30.00,M,3.11,M,FEW,BKN,M,M,800.00,2000.00,M,M,SHRA,YBBN 021930Z 08003KT 5000 SHRA FEW008 BKN020 22/21 Q1016
YBBN,2015-04-02 20:00,153.1292,-27.3917,71.60,69.80,94.06,0.00,0.00,0.00,30.03,M,3.73,M,FEW,BKN,M,M,1300.00,2000.00,M,M,-SHRA,YBBN 022000Z 00000KT 6000 -SHRA FEW013 BKN020 22/21 Q1017
YBBN,2015-04-02 20:30,153.1292,-27.3917,73.40,69.80,88.51,130.00,3.00,0.00,30.03,M,6.21,M,FEW,SCT,BKN,M,800.00,1800.00,10000.00,M,VCSH,YBBN 022030Z 13003KT 9999 VCSH FEW008 SCT018 BKN100 23/21 Q1017
YBBN,2015-04-02 21:00,153.1292,-27.3917,71.60,69.80,94.06,190.00,6.00,0.00,30.06,M,6.21,M,FEW,SCT,BKN,M,600.00,1800.00,10000.00,M,-SHRA,YBBN 022100Z 19006KT 9999 -SHRA FEW006 SCT018 BKN100 22/21 Q1018
YBBN,2015-04-02 21:30,153.1292,-27.3917,71.60,71.60,100.00,200.00,4.00,0.00,30.06,M,6.21,M,FEW,SCT,BKN,M,600.00,1900.00,10000.00,M,M,YBBN 022130Z 20004KT 9999 FEW006 SCT019 BKN100 22/22 Q1018
YBBN,2015-04-02 22:00,153.1292,-27.3917,73.40,71.60,94.10,200.00,5.00,0.00,30.06,M,6.21,M,FEW,SCT,BKN,M,600.00,1900.00,14000.00,M,VCSH,YBBN 022200Z 20005KT 9999 VCSH FEW006 SCT019 BKN140 23/22 Q1018
YBBN,2015-04-02 22:30,153.1292,-27.3917,73.40,71.60,94.10,210.00,6.00,0.00,30.06,M,3.73,M,FEW,SCT,BKN,M,600.00,1200.00,1900.00,M,-SHRA,YBBN 022230Z 21006KT 6000 -SHRA FEW006 SCT012 BKN019 23/22 Q1018
YBBN,2015-04-02 23:00,153.1292,-27.3917,77.00,71.60,83.44,90.00,6.00,0.00,30.06,M,6.21,M,FEW,SCT,BKN,M,600.00,1900.00,14000.00,M,M,YBBN 022300Z 09006KT 9999 FEW006 SCT019 BKN140 25/22 Q1018
YBBN,2015-04-02 23:30,153.1292,-27.3917,78.80,69.80,73.95,80.00,9.00,0.00,30.06,M,6.21,M,FEW,SCT,BKN,M,600.00,1900.00,14000.00,M,VCSH,YBBN 022330Z 08009KT 9999 VCSH FEW006 SCT019 BKN140 26/21 Q1018
