#DEBUG: Format Typ    -> comma
#DEBUG: Time Period   -> 2015-01-19 00:00:00+00:00 2015-01-20 00:00:00+00:00
#DEBUG: Time Zone     -> Etc/UTC
#DEBUG: Data Contact   -> daryl herzmann akrherz@iastate.edu 515-294-5978
#DEBUG: Entries Found -> -1
station,valid,lon,lat,tmpf, dwpf, relh, drct, sknt, p01i, alti, mslp, vsby, gust, skyc1, skyc2, skyc3, skyc4, skyl1, skyl2, skyl3, skyl4, presentwx, metar
YBBN,2015-01-19 00:00,153.1292,-27.3917,82.40,73.40,74.28,80.00,7.00,0.00,29.77,M,6.21,M,SCT,M,M,M,1800.00,M,M,M,M,YBBN 190000Z 08007KT 9999 SCT018 28/23 Q1008
YBBN,2015-01-19 00:30,153.1292,-27.3917,84.20,73.40,70.08,110.00,8.00,0.00,29.77,M,6.21,M,SCT,M,M,M,2400.00,M,M,M,M,YBBN 190030Z 11008KT 9999 SCT024 29/23 Q1008
YBBN,2015-01-19 01:00,153.1292,-27.3917,84.20,69.80,62.03,80.00,9.00,0.00,29.77,M,6.21,M,SCT,M,M,M,3000.00,M,M,M,M,YBBN 190100Z 08009KT 9999 SCT030 29/21 Q1008
YBBN,2015-01-19 01:30,153.1292,-27.3917,84.20,68.00,58.32,90.00,8.00,0.00,29.80,M,6.21,M,FEW,SCT,M,M,3500.00,6000.00,M,M,M,YBBN 190130Z 09008KT 9999 FEW035 SCT060 29/20 Q1009
YBBN,2015-01-19 02:00,153.1292,-27.3917,86.00,68.00,55.04,80.00,12.00,0.00,29.77,M,6.21,M,SCT,FEW,M,M,4000.00,4000.00,M,M,M,YBBN 190200Z 08012KT 9999 SCT040 FEW040TCU 30/20 Q1008
YBBN,2015-01-19 02:30,153.1292,-27.3917,84.20,71.60,65.95,70.00,13.00,0.00,29.77,M,6.21,M,FEW,SCT,M,M,3800.00,28000.00,M,M,M,YBBN 190230Z 07013KT 9999 FEW038 SCT280 29/22 Q1008
YBBN,2015-01-19 03:00,153.1292,-27.3917,86.00,71.60,62.25,70.00,13.00,0.00,29.77,M,6.21,M,FEW,SCT,M,M,3800.00,28000.00,M,M,M,YBBN 190300Z 07013KT 9999 FEW038 SCT280 30/22 Q1008
YBBN,2015-01-19 03:30,153.1292,-27.3917,86.00,71.60,62.25,70.00,12.00,0.00,29.77,M,6.21,M,FEW,SCT,M,M,3500.00,28000.00,M,M,M,YBBN 190330Z 07012KT 9999 FEW035 SCT280 30/22 Q1008
YBBN,2015-01-19 04:00,153.1292,-27.3917,86.00,68.00,55.04,60.00,11.00,0.00,29.77,M,6.21,M,FEW,SCT,M,M,3500.00,28000.00,M,M,M,YBBN 190400Z 06011KT 9999 FEW035 SCT280 30/20 Q1008
YBBN,2015-01-19 04:30,153.1292,-27.3917,86.00,69.80,58.55,60.00,10.00,0.00,29.74,M,6.21,M,FEW,SCT,M,M,3500.00,28000.00,M,M,M,YBBN 190430Z 06010KT 9999 FEW035 SCT280 30/21 Q1007
YBBN,2015-01-19 05:00,153.1292,-27.3917,86.00,68.00,55.04,50.00,9.00,0.00,29.74,M,6.21,M,FEW,SCT,FEW,M,3500.00,28000.00,3500.00,M,M,YBBN 190500Z 05009KT 9999 FEW035 SCT280 FEW035TCU 30/20 Q1007
YBBN,2015-01-19 05:30,153.1292,-27.3917,86.00,69.80,58.55,60.00,14.00,0.00,29.74,M,6.21,M,FEW,M,M,M,3500.00,M,M,M,M,YBBN 190530Z 06014KT 9999 FEW035 30/21 Q1007
YBBN,2015-01-19 06:00,153.1292,-27.3917,84.20,71.60,65.95,70.00,12.00,0.00,29.74,M,6.21,M,FEW,SCT,M,M,3000.00,28000.00,M,M,M,YBBN 190600Z 07012KT 9999 FEW030 SCT280 29/22 Q1007
YBBN,2015-01-19 06:30,153.1292,-27.3917,84.20,69.80,62.03,90.00,9.00,0.00,29.74,M,6.21,M,FEW,SCT,FEW,M,3000.00,28000.00,3000.00,M,M,YBBN 190630Z 09009KT 9999 FEW030 SCT280 FEW030CB 29/21 Q1007
YBBN,2015-01-19 07:00,153.1292,-27.3917,82.40,69.80,65.74,110.00,9.00,0.00,29.74,M,6.21,M,FEW,SCT,FEW,M,2000.00,2800.00,2800.00,M,VCSH,YBBN 190700Z 11009KT 9999 VCSH FEW020 SCT028 FEW028CB 28/21 Q1007
YBBN,2015-01-19 07:30,153.1292,-27.3917,82.40,69.80,65.74,110.00,9.00,0.00,29.77,M,6.21,M,SCT,M,M,M,2400.00,M,M,M,VCSH,YBBN 190730Z 11009KT 9999 VCSH SCT024 28/21 Q1008
YBBN,2015-01-19 08:00,153.1292,-27.3917,80.60,69.80,69.71,120.00,9.00,0.00,29.77,M,6.21,M,FEW,SCT,FEW,M,2400.00,28000.00,2400.00,M,M,YBBN 190800Z 12009KT 9999 FEW024 SCT280 FEW024CB 27/21 Q1008
YBBN,2015-01-19 08:30,153.1292,-27.3917,80.60,69.80,69.71,100.00,10.00,0.00,29.80,M,6.21,M,SCT,SCT,FEW,M,2400.00,28000.00,2400.00,M,M,YBBN 190830Z 10010KT 9999 SCT024 SCT280 FEW024CB 27/21 Q1009
YBBN,2015-01-19 09:00,153.1292,-27.3917,80.60,69.80,69.71,110.00,9.00,0.00,29.80,M,6.21,M,FEW,SCT,BKN,FEW,1800.00,2300.00,28000.00,2200.00,VCSH,YBBN 190900Z 11009KT 9999 VCSH FEW018 SCT023 BKN280 FEW022CB 27/21 Q1009
YBBN,2015-01-19 09:30,153.1292,-27.3917,80.60,71.60,74.11,80.00,9.00,0.00,29.80,M,6.21,M,SCT,BKN,FEW,M,2200.00,27000.00,2300.00,M,VCSH,YBBN 190930Z 08009KT 9999 VCSH SCT022 BKN270 FEW023CB 27/22 Q1009 RMK LIGHTNING SEEN TO NW  S  SE.
YBBN,2015-01-19 10:00,153.1292,-27.3917,80.60,69.80,69.71,80.00,8.00,0.00,29.80,M,6.21,M,SCT,SCT,BKN,M,2300.00,19000.00,27000.00,M,M,YBBN 191000Z 08008KT 9999 SCT023 SCT190 BKN270 27/21 Q1009
YBBN,2015-01-19 10:30,153.1292,-27.3917,80.60,69.80,69.71,70.00,8.00,0.00,29.83,M,6.21,M,SCT,BKN,BKN,M,2300.00,19000.00,27000.00,M,VCSH,YBBN 191030Z 07008KT 9999 VCSH SCT023 BKN190 BKN270 27/21 Q1010 RMK LIGHTNING SEEN TO SE.
YBBN,2015-01-19 11:00,153.1292,-27.3917,80.60,69.80,69.71,90.00,6.00,0.00,29.83,M,6.21,M,FEW,SCT,BKN,M,2000.00,2200.00,19000.00,M,VCSH,YBBN 191100Z 09006KT 9999 VCSH FEW020CB SCT022 BKN190 27/21 Q1010 RMK LIGHTNING SEEN TO SE.
YBBN,2015-01-19 11:30,153.1292,-27.3917,80.60,69.80,69.71,100.00,6.00,0.00,29.83,M,6.21,M,FEW,SCT,BKN,M,2000.00,2200.00,27000.00,M,VCSH,YBBN 191130Z 10006KT 9999 VCSH FEW020CB SCT022 BKN270 27/21 Q1010 RMK LIGHTNING SEEN TO SE.
YBBN,2015-01-19 11:54,153.1292,-27.3917,75.20,68.00,78.34,140.00,10.00,0.00,29.83,M,3.73,M,FEW,SCT,BKN,M,2000.00,2200.00,27000.00,M,-SHRA,YBBN 191154Z 14010KT 6000 -SHRA FEW020CB SCT022 BKN270 24/20 Q1010
YBBN,2015-01-19 12:00,153.1292,-27.3917,73.40,69.80,88.51,160.00,11.00,0.00,29.85,M,2.80,M,FEW,SCT,BKN,M,2000.00,2200.00,27000.00,M,SHRA,YBBN 191200Z 16011KT 4500 SHRA FEW020CB SCT022 BKN270 23/21 Q1011
YBBN,2015-01-19 12:16,153.1292,-27.3917,71.60,69.80,94.06,140.00,8.00,0.00,29.85,M,3.11,M,FEW,BKN,M,M,2000.00,2100.00,M,M,-SHRA,YBBN 191216Z 14008KT 5000 -SHRA FEW020CB BKN021 22/21 Q1011
YBBN,2015-01-19 12:22,153.1292,-27.3917,71.60,68.00,88.43,150.00,10.00,0.00,29.85,M,4.04,20.00,FEW,SCT,M,M,1900.00,2100.00,M,M,-TSRA,YBBN 191222Z 15010G20KT 6500 -TSRA FEW019CB SCT021 22/20 Q1011
YBBN,2015-01-19 12:30,153.1292,-27.3917,71.60,66.20,83.09,150.00,10.00,0.00,29.85,M,6.21,M,FEW,SCT,BKN,M,1800.00,2000.00,4200.00,M,VCTS,YBBN 191230Z 15010KT 9999 VCTS FEW018CB SCT020 BKN042 22/19 Q1011
YBBN,2015-01-19 12:53,153.1292,-27.3917,73.40,68.00,83.21,120.00,16.00,0.00,29.85,M,6.21,27.00,FEW,SCT,BKN,M,1900.00,2000.00,5000.00,M,-SHRA VCTS,YBBN 191253Z 12016G27KT 9999 -SHRA VCTS FEW019CB SCT020 BKN050 23/20 Q1011
YBBN,2015-01-19 13:00,153.1292,-27.3917,73.40,66.20,78.19,120.00,14.00,0.00,29.85,M,6.21,27.00,FEW,SCT,BKN,M,1900.00,2100.00,5600.00,M,-SHRA,YBBN 191300Z 12014G27KT 9999 -SHRA FEW019CB SCT021 BKN056 23/19 Q1011
YBBN,2015-01-19 13:30,153.1292,-27.3917,73.40,64.40,73.44,90.00,11.00,0.00,29.83,M,6.21,M,FEW,SCT,BKN,M,2000.00,2200.00,6000.00,M,-SHRA,YBBN 191330Z 09011KT 9999 -SHRA FEW020CB SCT022 BKN060 23/18 Q1010 RMK LIGHTNING SEEN TO W  SE.
YBBN,2015-01-19 14:00,153.1292,-27.3917,73.40,68.00,83.21,180.00,6.00,0.00,29.83,M,6.21,M,FEW,SCT,BKN,M,2000.00,11000.00,28000.00,M,VCSH,YBBN 191400Z 18006KT 9999 VCSH FEW020CB SCT110 BKN280 23/20 Q1010
YBBN,2015-01-19 14:30,153.1292,-27.3917,71.60,69.80,94.06,210.00,12.00,0.00,29.83,M,6.21,M,FEW,SCT,M,M,2100.00,2400.00,M,M,VCSH,YBBN 191430Z 21012KT 9999 VCSH FEW021CB SCT024 22/21 Q1010 RMK LIGHTNING TO N  SE.
YBBN,2015-01-19 15:00,153.1292,-27.3917,71.60,68.00,88.43,210.00,10.00,0.00,29.83,M,6.21,M,SCT,BKN,M,M,2400.00,18000.00,M,M,VCSH,YBBN 191500Z 21010KT 9999 VCSH SCT024 BKN180 22/20 Q1010
YBBN,2015-01-19 15:30,153.1292,-27.3917,71.60,68.00,88.43,210.00,7.00,0.00,29.83,M,6.21,M,FEW,SCT,BKN,M,2100.00,12000.00,19000.00,M,-SHRA,YBBN 191530Z 21007KT 9999 -SHRA FEW021CB SCT120 BKN190 22/20 Q1010 RMK LIGHTNING SEEN TO N E.
YBBN,2015-01-19 16:00,153.1292,-27.3917,71.60,68.00,88.43,210.00,8.00,0.00,29.80,M,6.21,M,FEW,BKN,BKN,M,2000.00,19000.00,25000.00,M,VCSH,YBBN 191600Z 21008KT 9999 VCSH FEW020CB BKN190 BKN250 22/20 Q1009
YBBN,2015-01-19 16:30,153.1292,-27.3917,71.60,68.00,88.43,270.00,6.00,0.00,29.80,M,6.21,M,FEW,SCT,BKN,FEW,1900.00,6000.00,25000.00,2000.00,-SHRA,YBBN 191630Z 27006KT 9999 -SHRA FEW019TCU SCT060 BKN250 FEW020CB 22/20 Q1009 RMK LIGHTNING SEEN TO E  NE.
YBBN,2015-01-19 16:44,153.1292,-27.3917,71.60,68.00,88.43,320.00,9.00,0.00,29.83,M,6.21,M,BKN,FEW,M,M,1200.00,2000.00,M,M,VCSH,YBBN 191644Z 32009KT 9999 VCSH BKN012 FEW020CB 22/20 Q1010 RMK LIGHTNING SEEN TO E.
YBBN,2015-01-19 17:00,153.1292,-27.3917,73.40,68.00,83.21,260.00,6.00,0.00,29.80,M,6.21,M,BKN,FEW,M,M,1200.00,2000.00,M,M,-SHRA,YBBN 191700Z 26006KT 9999 -SHRA BKN012 FEW020CB 23/20 Q1009
YBBN,2015-01-19 17:13,153.1292,-27.3917,71.60,68.00,88.43,220.00,7.00,0.00,29.80,M,5.59,M,BKN,FEW,M,M,1400.00,2000.00,M,M,-TSRA,YBBN 191713Z 22007KT 9000 -TSRA BKN014 FEW020CB 22/20 Q1009
YBBN,2015-01-19 17:19,153.1292,-27.3917,71.60,69.80,94.06,210.00,7.00,0.00,29.80,M,3.73,M,SCT,SCT,FEW,M,1400.00,2100.00,2000.00,M,TSRA,YBBN 191719Z 21007KT 6000 TSRA SCT014 SCT021 FEW020CB 22/21 Q1009
YBBN,2015-01-19 17:23,153.1292,-27.3917,71.60,69.80,94.06,180.00,6.00,0.00,29.83,M,2.49,M,SCT,SCT,FEW,M,1200.00,2100.00,2000.00,M,+TSRA,YBBN 191723Z 18006KT 4000 +TSRA SCT012 SCT021 FEW020CB 22/21 Q1010
YBBN,2015-01-19 17:30,153.1292,-27.3917,71.60,68.00,88.43,160.00,6.00,0.00,29.83,M,3.11,M,FEW,SCT,FEW,M,1200.00,2100.00,1900.00,M,TSRA,YBBN 191730Z 16006KT 5000 TSRA FEW012 SCT021 FEW019CB 22/20 Q1010
YBBN,2015-01-19 17:46,153.1292,-27.3917,69.80,64.40,82.98,160.00,5.00,0.00,29.83,M,4.35,M,FEW,SCT,FEW,M,1200.00,2200.00,1900.00,M,-TSRA,YBBN 191746Z 16005KT 7000 -TSRA FEW012 SCT022 FEW019CB 21/18 Q1010
YBBN,2015-01-19 18:00,153.1292,-27.3917,68.00,66.20,93.97,100.00,10.00,0.00,29.83,M,5.59,M,SCT,FEW,M,M,1200.00,2100.00,M,M,-SHRA,YBBN 191800Z 10010KT 9000 -SHRA SCT012 FEW021TCU 20/19 Q1010
YBBN,2015-01-19 18:30,153.1292,-27.3917,68.00,66.20,93.97,170.00,5.00,0.00,29.80,M,6.21,M,FEW,SCT,BKN,M,1300.00,2200.00,4000.00,M,-SHRA,YBBN 191830Z 17005KT 9999 -SHRA FEW013 SCT022 BKN040 20/19 Q1009
YBBN,2015-01-19 19:00,153.1292,-27.3917,69.80,68.00,94.01,130.00,5.00,0.00,29.83,M,6.21,M,FEW,SCT,BKN,M,2300.00,14000.00,25000.00,M,VCSH,YBBN 191900Z 13005KT 9999 VCSH FEW023 SCT140 BKN250 21/20 Q1010
YBBN,2015-01-19 19:30,153.1292,-27.3917,71.60,66.20,83.09,70.00,9.00,0.00,29.83,M,6.21,M,FEW,SCT,BKN,M,2300.00,14000.00,25000.00,M,M,YBBN 191930Z 07009KT 9999 FEW023 SCT140 BKN250 22/19 Q1010
YBBN,2015-01-19 20:00,153.1292,-27.3917,73.40,68.00,83.21,60.00,8.00,0.00,29.85,M,6.21,M,FEW,SCT,BKN,M,1000.00,15000.00,24000.00,M,M,YBBN 192000Z 06008KT 9999 FEW010 SCT150 BKN240 23/20 Q1011
YBBN,2015-01-19 20:30,153.1292,-27.3917,73.40,68.00,83.21,60.00,6.00,0.00,29.85,M,6.21,M,FEW,SCT,BKN,M,1000.00,15000.00,25000.00,M,M,YBBN 192030Z 06006KT 9999 FEW010 SCT150 BKN250 23/20 Q1011
YBBN,2015-01-19 21:00,153.1292,-27.3917,75.20,66.20,73.61,60.00,10.00,0.00,29.85,M,6.21,M,FEW,SCT,BKN,M,1000.00,15000.00,25000.00,M,M,YBBN 192100Z 06010KT 9999 FEW010 SCT150 BKN250 24/19 Q1011
YBBN,2015-01-19 21:30,153.1292,-27.3917,77.00,66.20,69.33,60.00,9.00,0.00,29.88,M,6.21,M,FEW,SCT,BKN,M,1000.00,15000.00,25000.00,M,M,YBBN 192130Z 06009KT 9999 FEW010 SCT150 BKN250 25/19 Q1012
YBBN,2015-01-19 22:00,153.1292,-27.3917,77.00,66.20,69.33,50.00,10.00,0.00,29.88,M,6.21,M,FEW,SCT,BKN,M,1000.00,15000.00,25000.00,M,M,YBBN 192200Z 05010KT 9999 FEW010 SCT150 BKN250 25/19 Q1012
YBBN,2015-01-19 22:30,153.1292,-27.3917,78.80,68.00,69.52,50.00,11.00,0.00,29.88,M,6.21,M,SCT,BKN,M,M,2000.00,25000.00,M,M,M,YBBN 192230Z 05011KT 9999 SCT020 BKN250 26/20 Q1012
YBBN,2015-01-19 23:00,153.1292,-27.3917,78.80,64.40,61.36,40.00,11.00,0.00,29.88,M,6.21,M,SCT,SCT,BKN,M,3200.00,5000.00,25000.00,M,M,YBBN 192300Z 04011KT 9999 SCT032 SCT050 BKN250 26/18 Q1012
YBBN,2015-01-19 23:30,153.1292,-27.3917,80.60,66.20,61.58,30.00,10.00,0.00,29.88,M,6.21,M,FEW,SCT,BKN,M,1500.00,3500.00,25000.00,M,VCSH,YBBN 192330Z 03010KT 9999 VCSH FEW015 SCT035 BKN250 27/19 Q1012
