#DEBUG: Format Typ    -> comma
#DEBUG: Time Period   -> 2012-01-15 00:00:00+00:00 2012-01-16 00:00:00+00:00
#DEBUG: Time Zone     -> Etc/UTC
#DEBUG: Data Contact   -> daryl herzmann akrherz@iastate.edu 515-294-5978
#DEBUG: Entries Found -> -1
station,valid,lon,lat,tmpf, dwpf, relh, drct, sknt, p01i, alti, mslp, vsby, gust, skyc1, skyc2, skyc3, skyc4, skyl1, skyl2, skyl3, skyl4, presentwx, metar
YBBN,2012-01-15 00:00,153.1292,-27.3917,78.80,60.80,54.05,80.00,11.00,M,29.94,M,6.21,M,SCT,BKN,   ,   ,3300.00,18000.00,M,M,M,YBBN 150000Z 08011KT 9999 SCT033 BKN180 26/16 Q1014
YBBN,2012-01-15 00:30,153.1292,-27.3917,75.20,62.60,64.91,120.00,11.00,M,29.94,M,6.21,M,BKN,SCT,   ,   ,3500.00,5200.00,M,M,VCSH,YBBN 150030Z 12011KT 9999 VCSH BKN035 SCT052 24/17 Q1014
YBBN,2012-01-15 01:00,153.1292,-27.3917,75.20,62.60,64.91,130.00,8.00,M,29.94,M,6.21,M,BKN,BKN,   ,   ,3900.00,7000.00,M,M,M,YBBN 150100Z 13008KT 9999 BKN039 BKN070 24/17 Q1014
YBBN,2012-01-15 01:30,153.1292,-27.3917,M,M,M,M,M,M,M,M,M,M,   ,   ,   ,   ,M,M,M,M,M,YBBN 150130Z NIL
YBBN,2012-01-15 01:34,153.1292,-27.3917,75.20,62.60,64.91,130.00,8.00,M,29.94,M,6.21,M,SCT,BKN,   ,   ,3900.00,7400.00,M,M,VCSH,YBBN 150134Z 13008KT 9999 VCSH SCT039 BKN074 24/17 Q1014
YBBN,2012-01-15 02:00,153.1292,-27.3917,69.80,62.60,77.90,140.00,11.00,M,29.94,M,6.21,M,SCT,BKN,   ,   ,3000.00,7800.00,M,M,-SHRA,YBBN 150200Z 14011KT 9999 5000S -SHRA SCT030 BKN078 21/17 Q1014
YBBN,2012-01-15 02:06,153.1292,-27.3917,69.80,62.60,77.90,M,M,M,29.94,M,6.21,M,SCT,BKN,   ,   ,3000.00,7800.00,M,M,M,YBBN 150206Z 1KT 9999 5000S -SHRA SCT030 BKN078 21/17 Q1014 RMK WS RWY01 FM0210 10012KT 9999 -SHRA SCT035 BKN050 BKN090 INTER 0200/0500 3000 SHRA BKN010
YBBN,2012-01-15 02:30,153.1292,-27.3917,77.00,60.80,57.36,100.00,9.00,M,29.94,M,6.21,M,SCT,SCT,BKN,   ,3000.00,7300.00,9500.00,M,VCSH,YBBN 150230Z 10009KT 9999 VCSH SCT030 SCT073 BKN095 25/16 Q1014
YBBN,2012-01-15 03:00,153.1292,-27.3917,78.80,60.80,54.05,100.00,9.00,M,29.94,M,6.21,M,FEW,SCT,BKN,   ,3500.00,7200.00,10000.00,M,M,YBBN 150300Z 10009KT 9999 VCSH FEW035 SCT072 BKN100 26/16 Q1014 INTER 0400/0600 3000 SHRA BKN010
YBBN,2012-01-15 03:30,153.1292,-27.3917,78.80,60.80,54.05,90.00,9.00,M,29.91,M,6.21,M,SCT,SCT,BKN,   ,3400.00,7000.00,10000.00,M,VCSH,YBBN 150330Z 09009KT 9999 VCSH SCT034 SCT070 BKN100 26/16 Q1013
YBBN,2012-01-15 04:00,153.1292,-27.3917,78.80,60.80,54.05,80.00,10.00,M,29.91,M,6.21,M,BKN,BKN,   ,   ,3600.00,10000.00,M,M,VCSH,YBBN 150400Z 08010KT 9999 VCSH BKN036 BKN100 26/16 Q1013
YBBN,2012-01-15 04:30,153.1292,-27.3917,75.20,62.60,64.91,90.00,12.00,M,29.91,M,6.21,M,BKN,BKN,   ,   ,3100.00,10000.00,M,M,-SHRA,YBBN 150430Z 09012KT 9999 -SHRA BKN031 BKN100 24/17 Q1013
YBBN,2012-01-15 05:00,153.1292,-27.3917,77.00,60.80,57.36,90.00,10.00,M,29.91,M,6.21,M,SCT,SCT,BKN,   ,3100.00,7500.00,8500.00,M,M,YBBN 150500Z 09010KT 9999 VCSH SCT031 SCT075 BKN085 25/16 Q1013 INTER 0500/0800 3000 SHRA BKN010
YBBN,2012-01-15 05:30,153.1292,-27.3917,75.20,62.60,64.91,100.00,11.00,M,29.91,M,6.21,M,SCT,SCT,BKN,   ,3100.00,8100.00,11000.00,M,VCSH,YBBN 150530Z 10011KT 9999 VCSH SCT031 SCT081 BKN110 24/17 Q1013
YBBN,2012-01-15 06:00,153.1292,-27.3917,75.20,62.60,64.91,100.00,11.00,M,29.91,M,6.21,M,FEW,SCT,BKN,   ,3100.00,11000.00,14000.00,M,VCSH,YBBN 150600Z 10011KT 9999 VCSH FEW031 SCT110 BKN140 24/17 Q1013
YBBN,2012-01-15 06:30,153.1292,-27.3917,69.80,64.40,82.98,80.00,10.00,M,29.91,M,3.11,M,FEW,SCT,BKN,   ,2000.00,3500.00,5300.00,M,-SHRA,YBBN 150630Z 08010KT 5000 -SHRA FEW020 SCT035 BKN053 21/18 Q1013
YBBN,2012-01-15 07:00,153.1292,-27.3917,71.60,66.20,83.09,70.00,7.00,M,29.91,M,6.21,M,FEW,BKN,BKN,   ,1700.00,2900.00,5100.00,M,VCSH,YBBN 150700Z 07007KT 9999 VCSH FEW017 BKN029 BKN051 22/19 Q1013
YBBN,2012-01-15 07:30,153.1292,-27.3917,71.60,66.20,83.09,110.00,9.00,M,29.91,M,6.21,M,FEW,SCT,BKN,   ,1500.00,3300.00,5700.00,M,VCSH,YBBN 150730Z 11009KT 9999 VCSH FEW015 SCT033 BKN057 22/19 Q1013
YBBN,2012-01-15 08:00,153.1292,-27.3917,73.40,64.40,73.44,100.00,11.00,M,29.94,M,6.21,M,FEW,BKN,BKN,   ,1500.00,3300.00,11500.00,M,-SHRA,YBBN 150800Z 10011KT 9999 9000S -SHRA FEW015 BKN033 BKN115 23/18 Q1014
YBBN,2012-01-15 08:22,153.1292,-27.3917,75.20,62.60,64.91,90.00,10.00,M,29.94,M,3.73,M,FEW,BKN,   ,   ,1000.00,2800.00,M,M,-SHRA VCSH,YBBN 150822Z 09010KT 6000 -SHRA VCSH FEW010 BKN028 24/17 Q1014 RMK SH N/NE FM0822 10010KT 9999 -SHRA SCT030 BKN050 BKN090 INTER 0822/1122 3000 SHRA BKN010
YBBN,2012-01-15 08:30,153.1292,-27.3917,75.20,62.60,64.91,90.00,8.00,M,29.94,M,3.73,M,FEW,SCT,BKN,FEW,800.00,2700.00,12000.00,2800.00,SHRA,YBBN 150830Z 09008KT 6000 SHRA FEW008 SCT027 BKN120 FEW028TCU 24/17 Q1014 RMK SH N/NW FM0830 10010KT 9999 -SHRA SCT030 BKN050 BKN090 INTER 0830/1130 3000 SHRA BKN010
YBBN,2012-01-15 09:00,153.1292,-27.3917,75.20,62.60,64.91,100.00,10.00,M,29.94,M,4.97,M,FEW,BKN,   ,   ,1000.00,2700.00,M,M,-SHRA VCSH,YBBN 150900Z 10010KT 8000 -SHRA VCSH FEW010 BKN027 24/17 Q1014
YBBN,2012-01-15 09:30,153.1292,-27.3917,75.20,62.60,64.91,100.00,9.00,M,29.97,M,4.97,M,FEW,BKN,   ,   ,1200.00,2700.00,M,M,-SHRA VCSH,YBBN 150930Z 10009KT 8000 -SHRA VCSH FEW012 BKN027 24/17 Q1015
YBBN,2012-01-15 10:00,153.1292,-27.3917,71.60,66.20,83.09,70.00,13.00,M,29.97,M,4.97,M,FEW,BKN,   ,   ,1200.00,2700.00,M,M,-SHRA VCSH,YBBN 151000Z 07013KT 8000 -SHRA VCSH FEW012 BKN027 22/19 Q1015 INTER 1000/1300 3000 SHRA BKN010
YBBN,2012-01-15 10:16,153.1292,-27.3917,71.60,66.20,83.09,70.00,13.00,M,29.97,M,3.73,M,FEW,SCT,BKN,   ,1300.00,2500.00,12500.00,M,-SHRA VCSH,YBBN 151016Z 07013KT 6000 -SHRA VCSH FEW013 SCT025 BKN125 22/19 Q1015
YBBN,2012-01-15 10:30,153.1292,-27.3917,73.40,66.20,78.19,70.00,11.00,M,29.97,M,3.73,M,FEW,SCT,BKN,   ,1400.00,2500.00,9700.00,M,-SHRA VCSH,YBBN 151030Z 07011KT 6000 -SHRA VCSH FEW014 SCT025 BKN097 23/19 Q1015
YBBN,2012-01-15 11:00,153.1292,-27.3917,73.40,62.60,68.94,70.00,6.00,M,29.97,M,4.97,M,FEW,SCT,BKN,   ,1400.00,2400.00,9700.00,M,-SHRA VCSH,YBBN 151100Z 07006KT 8000 -SHRA VCSH FEW014 SCT024 BKN097 23/17 Q1015
YBBN,2012-01-15 11:30,153.1292,-27.3917,71.60,66.20,83.09,90.00,9.00,M,29.97,M,4.97,M,FEW,SCT,BKN,   ,1300.00,2400.00,7200.00,M,-SHRA VCSH,YBBN 151130Z 09009KT 8000 -SHRA VCSH FEW013 SCT024 BKN072 22/19 Q1015
YBBN,2012-01-15 12:00,153.1292,-27.3917,69.80,64.40,82.98,100.00,10.00,M,29.97,M,5.59,M,FEW,SCT,BKN,   ,1600.00,5000.00,8000.00,M,M,YBBN 151200Z 10010KT 9000 -SHRADZ VCSH FEW016 SCT050 BKN080 21/18 Q1015 INTER 1200/1500 3000 SHRA BKN010
YBBN,2012-01-15 12:30,153.1292,-27.3917,71.60,66.20,83.09,70.00,8.00,M,29.97,M,6.21,M,FEW,SCT,BKN,   ,1500.00,2400.00,9800.00,M,VCSH,YBBN 151230Z 07008KT 9999 VCSH FEW015 SCT024 BKN098 22/19 Q1015
YBBN,2012-01-15 13:00,153.1292,-27.3917,71.60,66.20,83.09,110.00,6.00,M,29.97,M,3.73,M,FEW,BKN,   ,   ,1600.00,2300.00,M,M,SHRA VCSH,YBBN 151300Z 11006KT 6000 SHRA VCSH FEW016 BKN023 22/19 Q1015
YBBN,2012-01-15 13:30,153.1292,-27.3917,71.60,66.20,83.09,100.00,8.00,M,29.97,M,3.73,M,FEW,SCT,BKN,   ,1600.00,2200.00,6400.00,M,-SHRA VCSH,YBBN 151330Z 10008KT 6000 -SHRA VCSH FEW016 SCT022 BKN064 22/19 Q1015
YBBN,2012-01-15 14:00,153.1292,-27.3917,69.80,64.40,82.98,70.00,8.00,M,29.97,M,3.73,M,FEW,SCT,BKN,   ,900.00,1900.00,7200.00,M,-SHRA VCSH,YBBN 151400Z 07008KT 6000 -SHRA VCSH FEW009 SCT019 BKN072 21/18 Q1015 FM1415 10010KT 9999 -SHRA SCT015 BKN025 BKN090 INTER 1400/1700 3000 SHRA BKN010
YBBN,2012-01-15 14:08,153.1292,-27.3917,69.80,64.40,82.98,90.00,6.00,M,29.94,M,3.11,M,FEW,SCT,BKN,   ,900.00,1900.00,6800.00,M,-SHRA VCSH,YBBN 151408Z 09006KT 5000 -SHRA VCSH FEW009 SCT019 BKN068 21/18 Q1014
YBBN,2012-01-15 14:30,153.1292,-27.3917,69.80,66.20,88.34,110.00,1.00,M,29.94,M,3.73,M,FEW,SCT,BKN,   ,1000.00,1900.00,7900.00,M,-SHRA VCSH,YBBN 151430Z 11001KT 6000 -SHRA VCSH FEW010 SCT019 BKN079 21/19 Q1014
YBBN,2012-01-15 15:00,153.1292,-27.3917,68.00,66.20,93.97,240.00,5.00,M,29.94,M,3.11,M,FEW,SCT,BKN,   ,700.00,1500.00,3000.00,M,SHRA VCSH,YBBN 151500Z 24005KT 5000 SHRA VCSH FEW007 SCT015 BKN030 20/19 Q1014
YBBN,2012-01-15 15:16,153.1292,-27.3917,68.00,68.00,100.00,140.00,5.00,M,29.94,M,1.86,M,FEW,SCT,BKN,   ,600.00,900.00,3000.00,M,SHRA VCSH,YBBN 151516Z 14005KT 3000 SHRA VCSH FEW006 SCT009 BKN030 20/20 Q1014
YBBN,2012-01-15 15:30,153.1292,-27.3917,69.80,68.00,94.01,120.00,8.00,M,29.91,M,3.73,M,FEW,SCT,BKN,   ,700.00,1500.00,16000.00,M,-SHRA VCSH,YBBN 151530Z 12008KT 6000 -SHRA VCSH FEW007 SCT015 BKN160 21/20 Q1013
YBBN,2012-01-15 15:48,153.1292,-27.3917,69.80,64.40,82.98,100.00,8.00,M,29.91,M,6.21,M,FEW,BKN,   ,   ,800.00,6600.00,M,M,VCSH,YBBN 151548Z 10008KT 9999 VCSH FEW008 BKN066 21/18 Q1013
YBBN,2012-01-15 16:00,153.1292,-27.3917,69.80,66.20,88.34,100.00,8.00,M,29.91,M,6.21,M,FEW,SCT,BKN,   ,1100.00,2300.00,5800.00,M,VCSH,YBBN 151600Z 10008KT 9999 VCSH FEW011 SCT023 BKN058 21/19 Q1013
YBBN,2012-01-15 16:12,153.1292,-27.3917,69.80,66.20,88.34,110.00,10.00,M,29.91,M,3.73,M,FEW,SCT,BKN,   ,1200.00,2300.00,6000.00,M,SHRA VCSH,YBBN 151612Z 11010KT 6000 SHRA VCSH FEW012 SCT023 BKN060 21/19 Q1013 RMK SH E/NE FM1645 10010KT 9999 -SHRA SCT015 BKN025 BKN090 INTER 1612/1912 3000 SHRA BKN010
YBBN,2012-01-15 16:19,153.1292,-27.3917,69.80,66.20,88.34,100.00,12.00,M,29.94,M,3.11,24.00,FEW,SCT,BKN,   ,1200.00,2300.00,6000.00,M,SHRA VCSH,YBBN 151619Z 10012G24KT 5000 SHRA VCSH FEW012 SCT023 BKN060 21/19 Q1014
YBBN,2012-01-15 16:29,153.1292,-27.3917,68.00,64.40,88.26,100.00,10.00,M,29.91,M,3.73,M,FEW,SCT,BKN,   ,900.00,1300.00,6400.00,M,SHRA VCSH,YBBN 151629Z 10010KT 6000 SHRA VCSH FEW009 SCT013 BKN064 20/18 Q1013
YBBN,2012-01-15 16:30,153.1292,-27.3917,68.00,64.40,88.26,100.00,9.00,M,29.91,M,3.73,M,FEW,SCT,BKN,   ,900.00,1300.00,6400.00,M,SHRA VCSH,YBBN 151630Z 10009KT 6000 SHRA VCSH FEW009 SCT013 BKN064 20/18 Q1013
YBBN,2012-01-15 17:00,153.1292,-27.3917,68.00,66.20,93.97,100.00,9.00,M,29.91,M,3.73,M,FEW,SCT,BKN,   ,700.00,2000.00,7000.00,M,-SHRA VCSH,YBBN 151700Z 10009KT 6000 -SHRA VCSH FEW007 SCT020 BKN070 20/19 Q1013
YBBN,2012-01-15 17:30,153.1292,-27.3917,69.80,66.20,88.34,110.00,9.00,M,29.91,M,6.21,M,FEW,SCT,BKN,   ,700.00,1400.00,3900.00,M,VCSH,YBBN 151730Z 11009KT 9999 VCSH FEW007 SCT014 BKN039 21/19 Q1013
YBBN,2012-01-15 17:49,153.1292,-27.3917,69.80,68.00,94.01,100.00,9.00,M,29.91,M,3.73,M,FEW,SCT,BKN,   ,600.00,1000.00,2800.00,M,-SHRA VCSH,YBBN 151749Z 10009KT 6000 -SHRA VCSH FEW006 SCT010 BKN028 21/20 Q1013
YBBN,2012-01-15 18:00,153.1292,-27.3917,68.00,66.20,93.97,110.00,12.00,M,29.94,M,3.11,M,FEW,SCT,BKN,   ,600.00,1000.00,2800.00,M,SHRA VCSH,YBBN 151800Z 11012KT 5000 SHRA VCSH FEW006 SCT010 BKN028 20/19 Q1014
YBBN,2012-01-15 18:30,153.1292,-27.3917,68.00,66.20,93.97,100.00,10.00,M,29.94,M,3.11,M,FEW,SCT,BKN,   ,700.00,1100.00,2700.00,M,SHRA VCSH,YBBN 151830Z 10010KT 5000 SHRA VCSH FEW007 SCT011 BKN027 20/19 Q1014
YBBN,2012-01-15 19:00,153.1292,-27.3917,69.80,66.20,88.34,100.00,11.00,M,29.91,M,3.73,21.00,FEW,SCT,BKN,   ,700.00,1100.00,4400.00,M,-SHRA VCSH,YBBN 151900Z 10011G21KT 6000 -SHRA VCSH FEW007 SCT011 BKN044 21/19 Q1013 RESHRA
YBBN,2012-01-15 19:14,153.1292,-27.3917,68.00,66.20,93.97,90.00,12.00,M,29.94,M,3.11,M,FEW,SCT,BKN,   ,700.00,1000.00,4600.00,M,SHRA,YBBN 151914Z 09012KT 5000 SHRA FEW007 SCT010 BKN046 20/19 Q1014
YBBN,2012-01-15 19:30,153.1292,-27.3917,69.80,66.20,88.34,100.00,11.00,M,29.94,M,3.11,M,FEW,SCT,BKN,   ,700.00,1400.00,4800.00,M,-SHRA VCSH,YBBN 151930Z 10011KT 5000 -SHRA VCSH FEW007 SCT014 BKN048 21/19 Q1014
YBBN,2012-01-15 20:00,153.1292,-27.3917,69.80,66.20,88.34,90.00,9.00,M,29.94,M,3.73,M,SCT,BKN,   ,   ,600.00,1000.00,M,M,-SHRA VCSH,YBBN 152000Z 09009KT 6000 -SHRA VCSH SCT006 BKN010 21/19 Q1014
YBBN,2012-01-15 20:30,153.1292,-27.3917,69.80,66.20,88.34,100.00,10.00,M,29.97,M,4.35,M,FEW,SCT,BKN,   ,800.00,1500.00,4000.00,M,-SHRA VCSH,YBBN 152030Z 10010KT 7000 -SHRA VCSH FEW008 SCT015 BKN040 21/19 Q1015
YBBN,2012-01-15 21:00,153.1292,-27.3917,69.80,66.20,88.34,90.00,11.00,M,30.00,M,6.21,M,FEW,SCT,BKN,   ,1200.00,1800.00,4000.00,M,-RA VCSH,YBBN 152100Z 09011KT 9999 -RA VCSH FEW012 SCT018 BKN040 21/19 Q1016
YBBN,2012-01-15 21:30,153.1292,-27.3917,69.80,66.20,88.34,90.00,11.00,M,30.00,M,4.97,M,FEW,SCT,BKN,   ,1200.00,2000.00,4000.00,M,-RA VCSH,YBBN 152130Z 09011KT 8000 -RA VCSH FEW012 SCT020 BKN040 21/19 Q1016
YBBN,2012-01-15 22:00,153.1292,-27.3917,71.60,64.40,78.04,90.00,11.00,M,30.00,M,6.21,M,FEW,BKN,   ,   ,1500.00,6200.00,M,M,VCSH,YBBN 152200Z 09011KT 9999 VCSH FEW015 BKN062 22/18 Q1016
YBBN,2012-01-15 22:30,153.1292,-27.3917,71.60,62.60,73.27,90.00,11.00,M,30.00,M,6.21,M,FEW,BKN,   ,   ,1200.00,6300.00,M,M,VCSH,YBBN 152230Z 09011KT 9999 VCSH FEW012 BKN063 22/17 Q1016
YBBN,2012-01-15 23:00,153.1292,-27.3917,71.60,66.20,83.09,100.00,10.00,M,30.00,M,6.21,M,FEW,SCT,BKN,   ,1500.00,2800.00,6500.00,M,-RA VCSH,YBBN 152300Z 10010KT 9999 -RA VCSH FEW015 SCT028 BKN065 22/19 Q1016
YBBN,2012-01-15 23:30,153.1292,-27.3917,69.80,66.20,88.34,90.00,8.00,M,30.00,M,1.86,M,FEW,SCT,BKN,   ,1500.00,2800.00,6000.00,M,-SHRA VCSH,YBBN 152330Z 09008KT 3000 -SHRA VCSH FEW015 SCT028 BKN060 21/19 Q1016
YBBN,2012-01-15 23:46,153.1292,-27.3917,69.80,68.00,94.01,110.00,6.00,M,30.00,M,1.24,M,FEW,SCT,BKN,   ,1500.00,2500.00,4200.00,M,RA VCSH,YBBN 152346Z 11006KT 2000 RA VCSH FEW015 SCT025 BKN042 21/20 Q1016
