#DEBUG: Format Typ    -> comma
#DEBUG: Time Period   -> 2013-10-07 00:00:00+00:00 2013-10-08 00:00:00+00:00
#DEBUG: Time Zone     -> Etc/UTC
#DEBUG: Data Contact   -> daryl herzmann akrherz@iastate.edu 515-294-5978
#DEBUG: Entries Found -> -1
station,valid,lon,lat,tmpf, dwpf, relh, drct, sknt, p01i, alti, mslp, vsby, gust, skyc1, skyc2, skyc3, skyc4, skyl1, skyl2, skyl3, skyl4, presentwx, metar
YBBN,2013-10-07 00:00,153.1292,-27.3917,82.40,57.20,42.25,50.00,6.00,0.00,29.80,M,6.21,M,M,M,M,M,M,M,M,M,M,YBBN 070000Z 05006KT CAVOK 28/14 Q1009 NOSIG
YBBN,2013-10-07 00:30,153.1292,-27.3917,82.40,62.60,51.21,30.00,8.00,0.00,29.77,M,6.21,M,M,M,M,M,M,M,M,M,M,YBBN 070030Z 03008KT CAVOK 28/17 Q1008 RMK HZ
YBBN,2013-10-07 01:00,153.1292,-27.3917,82.40,60.80,48.05,30.00,8.00,0.00,29.77,M,6.21,M,M,M,M,M,M,M,M,M,M,YBBN 070100Z 03008KT CAVOK 28/16 Q1008 NOSIG
YBBN,2013-10-07 01:30,153.1292,-27.3917,82.40,60.80,48.05,30.00,11.00,0.00,29.74,M,6.21,M,M,M,M,M,M,M,M,M,M,YBBN 070130Z 03011KT CAVOK 28/16 Q1007
YBBN,2013-10-07 02:00,153.1292,-27.3917,82.40,60.80,48.05,30.00,11.00,0.00,29.74,M,6.21,M,M,M,M,M,M,M,M,M,M,YBBN 070200Z 03011KT CAVOK 28/16 Q1007
YBBN,2013-10-07 02:30,153.1292,-27.3917,82.40,60.80,48.05,20.00,14.00,0.00,29.71,M,6.21,M,FEW,M,M,M,4800.00,M,M,M,M,YBBN 070230Z 02014KT 9999 FEW048 28/16 Q1006
YBBN,2013-10-07 03:00,153.1292,-27.3917,82.40,62.60,51.21,20.00,13.00,0.00,29.68,M,6.21,M,M,M,M,M,M,M,M,M,M,YBBN 070300Z 02013KT CAVOK 28/17 Q1005 NOSIG
YBBN,2013-10-07 03:30,153.1292,-27.3917,82.40,64.40,54.55,30.00,14.00,0.00,29.68,M,6.21,M,M,M,M,M,M,M,M,M,M,YBBN 070330Z 03014KT CAVOK 28/18 Q1005
YBBN,2013-10-07 04:00,153.1292,-27.3917,84.20,64.40,51.47,30.00,14.00,0.00,29.68,M,6.21,M,M,M,M,M,M,M,M,M,M,YBBN 070400Z 03014KT CAVOK 29/18 Q1005
YBBN,2013-10-07 04:30,153.1292,-27.3917,82.40,64.40,54.55,30.00,15.00,0.00,29.65,M,6.21,M,M,M,M,M,M,M,M,M,M,YBBN 070430Z 03015KT CAVOK 28/18 Q1004
YBBN,2013-10-07 05:00,153.1292,-27.3917,82.40,66.20,58.08,20.00,14.00,0.00,29.65,M,6.21,M,M,M,M,M,M,M,M,M,M,YBBN 070500Z 02014KT CAVOK 28/19 Q1004 FM0630 14018KT 9999 SCT030
YBBN,2013-10-07 05:30,153.1292,-27.3917,78.80,64.40,61.36,20.00,15.00,0.00,29.65,M,6.21,M,M,M,M,M,M,M,M,M,M,YBBN 070530Z 02015KT CAVOK 26/18 Q1004
YBBN,2013-10-07 06:00,153.1292,-27.3917,78.80,66.20,65.33,20.00,13.00,0.00,29.65,M,6.21,M,M,M,M,M,M,M,M,M,M,YBBN 070600Z 02013KT CAVOK 26/19 Q1004 RMK 5AC160
YBBN,2013-10-07 06:30,153.1292,-27.3917,78.80,66.20,65.33,30.00,12.00,0.00,29.65,M,6.21,M,M,M,M,M,M,M,M,M,M,YBBN 070630Z 03012KT CAVOK 26/19 Q1004 RMK 6AC160
YBBN,2013-10-07 07:08,153.1292,-27.3917,75.20,64.40,69.14,120.00,13.00,0.00,29.68,M,6.21,M,FEW,BKN,M,M,1500.00,18000.00,M,M,M,YBBN 070708Z 12013KT 9999 FEW015 BKN180 24/18 Q1005
YBBN,2013-10-07 07:30,153.1292,-27.3917,75.20,64.40,69.14,130.00,12.00,0.00,29.71,M,6.21,M,FEW,BKN,M,M,1500.00,17000.00,M,M,M,YBBN 070730Z 13012KT 9999 FEW015 BKN170 24/18 Q1006
YBBN,2013-10-07 07:49,153.1292,-27.3917,73.40,64.40,73.44,140.00,15.00,0.00,29.71,M,6.21,26.00,FEW,BKN,M,M,1500.00,16000.00,M,M,M,YBBN 070749Z 14015G26KT 9999 FEW015 BKN160 23/18 Q1006 RMK SEV TURB REPORTED WITHIN 5NM OF AERODROME / HAZE
YBBN,2013-10-07 08:00,153.1292,-27.3917,73.40,64.40,73.44,130.00,14.00,0.00,29.74,M,6.21,27.00,FEW,BKN,M,M,1500.00,16000.00,M,M,M,YBBN 070800Z 13014G27KT 9999 FEW015 BKN160 23/18 Q1007 FM0800 MOD/SEV TURB BLW 5000FT TILL 0830
YBBN,2013-10-07 08:30,153.1292,-27.3917,73.40,64.40,73.44,140.00,14.00,0.00,29.77,M,6.21,26.00,M,M,M,M,M,M,M,M,M,YBBN 070830Z 14014G26KT CAVOK 23/18 Q1008 RMK 7AC160
YBBN,2013-10-07 08:39,153.1292,-27.3917,73.40,62.60,68.94,140.00,16.00,0.00,29.77,M,6.21,28.00,M,M,M,M,M,M,M,M,M,YBBN 070839Z 14016G28KT CAVOK 23/17 Q1008 RMK 6AC160
YBBN,2013-10-07 09:00,153.1292,-27.3917,73.40,62.60,68.94,140.00,16.00,0.00,29.77,M,6.21,M,M,M,M,M,M,M,M,M,M,YBBN 070900Z 14016KT CAVOK 23/17 Q1008 NOSIG
YBBN,2013-10-07 09:02,153.1292,-27.3917,73.40,62.60,68.94,140.00,15.00,0.00,29.77,M,6.21,27.00,M,M,M,M,M,M,M,M,M,YBBN 070902Z 14015G27KT CAVOK 23/17 Q1008
YBBN,2013-10-07 09:30,153.1292,-27.3917,71.60,62.60,73.27,140.00,14.00,0.00,29.80,M,6.21,28.00,FEW,BKN,M,M,2000.00,17000.00,M,M,M,YBBN 070930Z 14014G28KT 9999 FEW020 BKN170 22/17 Q1009
YBBN,2013-10-07 10:00,153.1292,-27.3917,71.60,62.60,73.27,130.00,15.00,0.00,29.80,M,6.21,27.00,M,M,M,M,M,M,M,M,M,YBBN 071000Z 13015G27KT CAVOK 22/17 Q1009
YBBN,2013-10-07 10:33,153.1292,-27.3917,71.60,60.80,68.75,130.00,15.00,0.00,29.80,M,6.21,25.00,M,M,M,M,M,M,M,M,M,YBBN 071033Z 13015G25KT CAVOK 22/16 Q1009
YBBN,2013-10-07 11:00,153.1292,-27.3917,71.60,60.80,68.75,130.00,13.00,0.00,29.83,M,6.21,M,FEW,BKN,M,M,2500.00,14000.00,M,M,M,YBBN 071100Z 13013KT 9999 FEW025 BKN140 22/16 Q1010 NOSIG
YBBN,2013-10-07 11:30,153.1292,-27.3917,71.60,62.60,73.27,150.00,9.00,0.00,29.83,M,6.21,M,FEW,SCT,M,M,2300.00,14000.00,M,M,M,YBBN 071130Z 15009KT 9999 FEW023 SCT140 22/17 Q1010
YBBN,2013-10-07 12:00,153.1292,-27.3917,71.60,62.60,73.27,150.00,9.00,0.00,29.85,M,6.21,M,SCT,SCT,M,M,2300.00,14000.00,M,M,M,YBBN 071200Z 15009KT 9999 SCT023 SCT140 22/17 Q1011
YBBN,2013-10-07 12:30,153.1292,-27.3917,69.80,62.60,77.90,160.00,7.00,0.00,29.85,M,6.21,M,SCT,M,M,M,2500.00,M,M,M,M,YBBN 071230Z 16007KT 9999 SCT025 21/17 Q1011
YBBN,2013-10-07 13:00,153.1292,-27.3917,69.80,62.60,77.90,170.00,5.00,0.00,29.85,M,6.21,M,FEW,M,M,M,2500.00,M,M,M,M,YBBN 071300Z 17005KT 9999 FEW025 21/17 Q1011 NOSIG
YBBN,2013-10-07 13:30,153.1292,-27.3917,68.00,62.60,82.86,160.00,4.00,0.00,29.85,M,6.21,M,FEW,M,M,M,2300.00,M,M,M,M,YBBN 071330Z 16004KT 9999 FEW023 20/17 Q1011
YBBN,2013-10-07 14:00,153.1292,-27.3917,68.00,62.60,82.86,180.00,5.00,0.00,29.85,M,6.21,M,FEW,M,M,M,2300.00,M,M,M,M,YBBN 071400Z 18005KT 9999 FEW023 20/17 Q1011
YBBN,2013-10-07 14:30,153.1292,-27.3917,68.00,60.80,77.75,170.00,7.00,0.00,29.85,M,6.21,M,SCT,M,M,M,2500.00,M,M,M,M,YBBN 071430Z 17007KT 9999 SCT025 20/16 Q1011
YBBN,2013-10-07 15:00,153.1292,-27.3917,68.00,60.80,77.75,180.00,8.00,0.00,29.85,M,6.21,M,FEW,SCT,M,M,2300.00,3000.00,M,M,M,YBBN 071500Z 18008KT 9999 FEW023 SCT030 20/16 Q1011 NOSIG
YBBN,2013-10-07 15:30,153.1292,-27.3917,66.20,60.80,82.74,180.00,6.00,0.00,29.85,M,6.21,M,FEW,SCT,M,M,2500.00,4000.00,M,M,M,YBBN 071530Z 18006KT 9999 FEW025 SCT040 19/16 Q1011
YBBN,2013-10-07 16:00,153.1292,-27.3917,66.20,60.80,82.74,170.00,6.00,0.00,29.85,M,6.21,M,BKN,M,M,M,4000.00,M,M,M,M,YBBN 071600Z 17006KT 9999 BKN040 19/16 Q1011 NOSIG
YBBN,2013-10-07 16:30,153.1292,-27.3917,66.20,59.00,77.60,160.00,5.00,0.00,29.83,M,6.21,M,BKN,M,M,M,4300.00,M,M,M,M,YBBN 071630Z 16005KT 9999 BKN043 19/15 Q1010
YBBN,2013-10-07 17:00,153.1292,-27.3917,66.20,59.00,77.60,170.00,4.00,0.00,29.83,M,6.21,M,SCT,M,M,M,4500.00,M,M,M,M,YBBN 071700Z 17004KT 9999 SCT045 19/15 Q1010 NOSIG
YBBN,2013-10-07 17:30,153.1292,-27.3917,66.20,59.00,77.60,170.00,5.00,0.00,29.85,M,6.21,M,BKN,M,M,M,4500.00,M,M,M,M,YBBN 071730Z 17005KT 9999 BKN045 19/15 Q1011
YBBN,2013-10-07 18:00,153.1292,-27.3917,66.20,59.00,77.60,170.00,5.00,0.00,29.85,M,6.21,M,BKN,M,M,M,4500.00,M,M,M,M,YBBN 071800Z 17005KT 9999 BKN045 19/15 Q1011
YBBN,2013-10-07 18:30,153.1292,-27.3917,64.40,59.00,82.62,190.00,6.00,0.00,29.85,M,6.21,M,BKN,M,M,M,4500.00,M,M,M,M,YBBN 071830Z 19006KT 9999 BKN045 18/15 Q1011
YBBN,2013-10-07 19:00,153.1292,-27.3917,66.20,59.00,77.60,190.00,5.00,0.00,29.85,M,6.21,M,BKN,M,M,M,4700.00,M,M,M,M,YBBN 071900Z 19005KT 9999 BKN047 19/15 Q1011
YBBN,2013-10-07 19:30,153.1292,-27.3917,66.20,59.00,77.60,190.00,5.00,0.00,29.88,M,6.21,M,FEW,SCT,M,M,3000.00,4700.00,M,M,M,YBBN 071930Z 19005KT 9999 FEW030 SCT047 19/15 Q1012
YBBN,2013-10-07 20:00,153.1292,-27.3917,66.20,59.00,77.60,170.00,3.00,0.00,29.88,M,6.21,M,FEW,M,M,M,3000.00,M,M,M,M,YBBN 072000Z 17003KT 9999 FEW030 19/15 Q1012 NOSIG
YBBN,2013-10-07 20:30,153.1292,-27.3917,68.00,59.00,72.92,210.00,5.00,0.00,29.88,M,6.21,M,FEW,M,M,M,2600.00,M,M,M,M,YBBN 072030Z 21005KT 9999 FEW026 20/15 Q1012
YBBN,2013-10-07 21:00,153.1292,-27.3917,69.80,59.00,68.55,170.00,6.00,0.00,29.88,M,6.21,M,SCT,M,M,M,2600.00,M,M,M,M,YBBN 072100Z 17006KT 9999 SCT026 21/15 Q1012 NOSIG
YBBN,2013-10-07 21:30,153.1292,-27.3917,71.60,59.00,64.48,170.00,5.00,0.00,29.91,M,6.21,M,SCT,M,M,M,2400.00,M,M,M,M,YBBN 072130Z 17005KT 9999 SCT024 22/15 Q1013
YBBN,2013-10-07 22:00,153.1292,-27.3917,71.60,60.80,68.75,170.00,5.00,0.00,29.91,M,6.21,M,BKN,M,M,M,2100.00,M,M,M,M,YBBN 072200Z 17005KT 9999 BKN021 22/16 Q1013
YBBN,2013-10-07 22:30,153.1292,-27.3917,71.60,59.00,64.48,130.00,5.00,0.00,29.91,M,6.21,M,SCT,M,M,M,2400.00,M,M,M,M,YBBN 072230Z 13005KT 9999 SCT024 22/15 Q1013
YBBN,2013-10-07 23:00,153.1292,-27.3917,77.00,60.80,57.36,130.00,5.00,0.00,29.91,M,6.21,M,SCT,M,M,M,2700.00,M,M,M,M,YBBN 072300Z 13005KT 9999 SCT027 25/16 Q1013 NOSIG
YBBN,2013-10-07 23:30,153.1292,-27.3917,73.40,59.00,60.67,40.00,10.00,0.00,29.88,M,6.21,M,SCT,M,M,M,3000.00,M,M,M,M,YBBN 072330Z 04010KT 9999 SCT030 23/15 Q1012
