#DEBUG: Format Typ    -> comma
#DEBUG: Time Period   -> 2011-01-23 00:00:00+00:00 2011-01-24 00:00:00+00:00
#DEBUG: Time Zone     -> Etc/UTC
#DEBUG: Data Contact   -> daryl herzmann akrherz@iastate.edu 515-294-5978
#DEBUG: Entries Found -> -1
station,valid,lon,lat,tmpf, dwpf, relh, drct, sknt, p01i, alti, mslp, vsby, gust, skyc1, skyc2, skyc3, skyc4, skyl1, skyl2, skyl3, skyl4, presentwx, metar
YBBN,2011-01-23 00:00,153.1292,-27.3917,80.60,57.20,44.80,160.00,9.00,M,29.85,M,6.21,M,FEW,BKN,M,M,3200.00,7500.00,M,M,VCSH,YBBN 230000Z 16009KT 9999 VCSH FEW032 BKN075 27/14 Q1011 RMK SH NE NOSIG
YBBN,2011-01-23 00:30,153.1292,-27.3917,78.80,55.40,44.52,130.00,12.00,M,29.85,M,6.21,M,FEW,SCT,M,M,4000.00,7800.00,M,M,M,YBBN 230030Z 13012KT 9999 FEW040 SCT078 26/13 Q1011 RMK DIST SH NE TO NW NOSIG
YBBN,2011-01-23 01:00,153.1292,-27.3917,80.60,59.00,47.79,120.00,12.00,M,29.83,M,6.21,M,SCT,M,M,M,4300.00,M,M,M,M,YBBN 230100Z 12012KT 9999 SCT043 27/15 Q1010 RMK DIST SH NE SECTOR NOSIG
YBBN,2011-01-23 01:30,153.1292,-27.3917,80.60,60.80,50.95,130.00,11.00,M,29.83,M,6.21,M,SCT,M,M,M,4500.00,M,M,M,M,YBBN 230130Z 13011KT 9999 SCT045 27/16 Q1010 RMK DIST SH NORTH NOSIG
YBBN,2011-01-23 02:00,153.1292,-27.3917,80.60,57.20,44.80,120.00,11.00,M,29.83,M,6.21,M,SCT,M,M,M,4500.00,M,M,M,M,YBBN 230200Z 12011KT 9999 SCT045 27/14 Q1010 NOSIG
YBBN,2011-01-23 02:30,153.1292,-27.3917,80.60,59.00,47.79,110.00,11.00,M,29.83,M,6.21,M,SCT,M,M,M,4600.00,M,M,M,M,YBBN 230230Z 11011KT 9999 SCT046 27/15 Q1010 NOSIG
YBBN,2011-01-23 03:00,153.1292,-27.3917,80.60,60.80,50.95,120.00,12.00,M,29.80,M,6.21,M,SCT,M,M,M,4700.00,M,M,M,M,YBBN 230300Z 12012KT 9999 SCT047 27/16 Q1009 NOSIG
YBBN,2011-01-23 03:30,153.1292,-27.3917,80.60,60.80,50.95,110.00,12.00,M,29.80,M,6.21,M,SCT,M,M,M,4500.00,M,M,M,M,YBBN 230330Z 11012KT 9999 SCT045 27/16 Q1009 NOSIG
YBBN,2011-01-23 04:00,153.1292,-27.3917,80.60,60.80,50.95,110.00,13.00,M,29.80,M,6.21,M,SCT,M,M,M,4300.00,M,M,M,M,YBBN 230400Z 11013KT 9999 SCT043 27/16 Q1009 NOSIG
YBBN,2011-01-23 04:30,153.1292,-27.3917,80.60,60.80,50.95,110.00,13.00,M,29.80,M,6.21,M,SCT,M,M,M,4300.00,M,M,M,M,YBBN 230430Z 11013KT 9999 SCT043 27/16 Q1009 NOSIG
YBBN,2011-01-23 05:00,153.1292,-27.3917,80.60,60.80,50.95,110.00,13.00,M,29.77,M,6.21,M,FEW,M,M,M,4200.00,M,M,M,M,YBBN 230500Z 11013KT 9999 FEW042 27/16 Q1008 NOSIG
YBBN,2011-01-23 05:30,153.1292,-27.3917,80.60,60.80,50.95,110.00,13.00,M,29.77,M,6.21,M,FEW,M,M,M,4000.00,M,M,M,M,YBBN 230530Z 11013KT 9999 FEW040 27/16 Q1008 NOSIG
YBBN,2011-01-23 06:00,153.1292,-27.3917,78.80,60.80,54.05,120.00,13.00,M,29.77,M,6.21,M,FEW,M,M,M,3800.00,M,M,M,M,YBBN 230600Z 12013KT 9999 FEW038 26/16 Q1008 NOSIG
YBBN,2011-01-23 06:30,153.1292,-27.3917,78.80,60.80,54.05,120.00,12.00,M,29.77,M,6.21,M,FEW,M,M,M,3700.00,M,M,M,M,YBBN 230630Z 12012KT 9999 FEW037 26/16 Q1008 NOSIG
YBBN,2011-01-23 07:00,153.1292,-27.3917,78.80,62.60,57.60,120.00,13.00,M,29.77,M,6.21,M,FEW,M,M,M,3600.00,M,M,M,M,YBBN 230700Z 12013KT 9999 FEW036 26/17 Q1008 NOSIG
YBBN,2011-01-23 07:30,153.1292,-27.3917,77.00,62.60,61.13,130.00,12.00,M,29.80,M,6.21,M,FEW,M,M,M,3200.00,M,M,M,M,YBBN 230730Z 13012KT 9999 FEW032 25/17 Q1009 NOSIG
YBBN,2011-01-23 08:00,153.1292,-27.3917,77.00,62.60,61.13,130.00,12.00,M,29.80,M,6.21,M,FEW,M,M,M,3000.00,M,M,M,M,YBBN 230800Z 13012KT 9999 FEW030 25/17 Q1009 NOSIG
YBBN,2011-01-23 08:30,153.1292,-27.3917,75.20,60.80,60.90,120.00,10.00,M,29.83,M,6.21,M,FEW,M,M,M,2800.00,M,M,M,M,YBBN 230830Z 12010KT 9999 FEW028 24/16 Q1010 NOSIG
YBBN,2011-01-23 09:00,153.1292,-27.3917,75.20,62.60,64.91,120.00,10.00,M,29.83,M,6.21,M,FEW,M,M,M,2700.00,M,M,M,M,YBBN 230900Z 12010KT 9999 FEW027 24/17 Q1010 NOSIG
YBBN,2011-01-23 09:30,153.1292,-27.3917,75.20,64.40,69.14,110.00,10.00,M,29.83,M,6.21,M,FEW,M,M,M,2700.00,M,M,M,M,YBBN 230930Z 11010KT 9999 FEW027 24/18 Q1010 NOSIG
YBBN,2011-01-23 10:00,153.1292,-27.3917,73.40,64.40,73.44,110.00,8.00,M,29.83,M,6.21,M,FEW,M,M,M,2700.00,M,M,M,M,YBBN 231000Z 11008KT 9999 FEW027 23/18 Q1010 NOSIG
YBBN,2011-01-23 10:30,153.1292,-27.3917,73.40,66.20,78.19,100.00,7.00,M,29.83,M,6.21,M,FEW,M,M,M,2300.00,M,M,M,M,YBBN 231030Z 10007KT 9999 FEW023 23/19 Q1010 NOSIG
YBBN,2011-01-23 11:00,153.1292,-27.3917,73.40,64.40,73.44,100.00,6.00,M,29.83,M,6.21,M,SCT,M,M,M,2500.00,M,M,M,M,YBBN 231100Z 10006KT 9999 SCT025 23/18 Q1010 NOSIG
YBBN,2011-01-23 11:30,153.1292,-27.3917,73.40,64.40,73.44,90.00,6.00,M,29.85,M,6.21,M,FEW,M,M,M,2500.00,M,M,M,M,YBBN 231130Z 09006KT 9999 FEW025 23/18 Q1011 NOSIG
YBBN,2011-01-23 12:00,153.1292,-27.3917,73.40,62.60,68.94,90.00,5.00,M,29.83,M,6.21,M,SCT,M,M,M,3200.00,M,M,M,M,YBBN 231200Z 09005KT 9999 SCT032 23/17 Q1010 NOSIG
YBBN,2011-01-23 12:30,153.1292,-27.3917,73.40,64.40,73.44,90.00,6.00,M,29.83,M,6.21,M,FEW,SCT,M,M,3000.00,3800.00,M,M,M,YBBN 231230Z 09006KT 9999 FEW030 SCT038 23/18 Q1010 NOSIG
YBBN,2011-01-23 13:00,153.1292,-27.3917,73.40,64.40,73.44,90.00,5.00,M,29.83,M,6.21,M,FEW,SCT,M,M,3000.00,4000.00,M,M,M,YBBN 231300Z 09005KT 9999 FEW030 SCT040 23/18 Q1010 NOSIG
YBBN,2011-01-23 13:30,153.1292,-27.3917,73.40,64.40,73.44,100.00,5.00,M,29.83,M,6.21,M,FEW,SCT,M,M,3000.00,4000.00,M,M,M,YBBN 231330Z 10005KT 9999 FEW030 SCT040 23/18 Q1010 NOSIG
YBBN,2011-01-23 14:00,153.1292,-27.3917,73.40,64.40,73.44,100.00,4.00,M,29.80,M,6.21,M,FEW,SCT,M,M,3000.00,4000.00,M,M,M,YBBN 231400Z 10004KT 9999 FEW030 SCT040 23/18 Q1009 NOSIG
YBBN,2011-01-23 14:30,153.1292,-27.3917,71.60,64.40,78.04,200.00,5.00,M,29.80,M,6.21,M,FEW,M,M,M,3000.00,M,M,M,M,YBBN 231430Z 20005KT 9999 FEW030 22/18 Q1009 NOSIG
YBBN,2011-01-23 15:00,153.1292,-27.3917,69.80,64.40,82.98,210.00,5.00,M,29.80,M,6.21,M,FEW,M,M,M,3000.00,M,M,M,M,YBBN 231500Z 21005KT 9999 FEW030 21/18 Q1009 NOSIG
YBBN,2011-01-23 15:30,153.1292,-27.3917,68.00,64.40,88.26,210.00,5.00,M,29.80,M,6.21,M,FEW,M,M,M,3000.00,M,M,M,M,YBBN 231530Z 21005KT 9999 FEW030 20/18 Q1009 NOSIG
YBBN,2011-01-23 16:00,153.1292,-27.3917,68.00,64.40,88.26,200.00,4.00,M,29.77,M,6.21,M,FEW,M,M,M,3000.00,M,M,M,M,YBBN 231600Z 20004KT 9999 FEW030 20/18 Q1008 NOSIG
YBBN,2011-01-23 16:30,153.1292,-27.3917,66.20,64.40,93.92,210.00,5.00,M,29.77,M,6.21,M,FEW,M,M,M,3000.00,M,M,M,M,YBBN 231630Z 21005KT 9999 FEW030 19/18 Q1008 NOSIG
YBBN,2011-01-23 17:00,153.1292,-27.3917,66.20,62.60,88.18,210.00,5.00,M,29.77,M,6.21,M,FEW,M,M,M,3000.00,M,M,M,M,YBBN 231700Z 21005KT 9999 FEW030 19/17 Q1008 NOSIG
YBBN,2011-01-23 17:30,153.1292,-27.3917,66.20,62.60,88.18,220.00,6.00,M,29.77,M,6.21,M,FEW,M,M,M,2800.00,M,M,M,M,YBBN 231730Z 22006KT 9999 FEW028 19/17 Q1008 NOSIG
YBBN,2011-01-23 18:00,153.1292,-27.3917,64.40,62.60,93.88,220.00,6.00,M,29.80,M,6.21,M,FEW,M,M,M,2800.00,M,M,M,M,YBBN 231800Z 22006KT 9999 FEW028 18/17 Q1009 NOSIG
YBBN,2011-01-23 18:30,153.1292,-27.3917,64.40,62.60,93.88,210.00,7.00,M,29.80,M,6.21,M,FEW,M,M,M,2800.00,M,M,M,M,YBBN 231830Z 21007KT 9999 FEW028 18/17 Q1009 NOSIG
YBBN,2011-01-23 19:00,153.1292,-27.3917,64.40,62.60,93.88,210.00,5.00,M,29.80,M,6.21,M,FEW,M,M,M,2800.00,M,M,M,M,YBBN 231900Z 21005KT 9999 FEW028 18/17 Q1009 NOSIG
YBBN,2011-01-23 19:30,153.1292,-27.3917,64.40,62.60,93.88,220.00,7.00,M,29.83,M,6.21,M,FEW,M,M,M,2800.00,M,M,M,M,YBBN 231930Z 22007KT 9999 FEW028 18/17 Q1010 NOSIG
YBBN,2011-01-23 20:00,153.1292,-27.3917,66.20,62.60,88.18,220.00,6.00,M,29.83,M,6.21,M,FEW,M,M,M,2500.00,M,M,M,M,YBBN 232000Z 22006KT 9999 FEW025 19/17 Q1010 NOSIG
YBBN,2011-01-23 20:30,153.1292,-27.3917,68.00,64.40,88.26,220.00,6.00,M,29.85,M,6.21,M,FEW,M,M,M,3500.00,M,M,M,M,YBBN 232030Z 22006KT 9999 FEW035 20/18 Q1011 NOSIG
YBBN,2011-01-23 21:00,153.1292,-27.3917,71.60,64.40,78.04,220.00,7.00,M,29.85,M,6.21,M,FEW,M,M,M,3000.00,M,M,M,M,YBBN 232100Z 22007KT 9999 FEW030 22/18 Q1011 NOSIG
YBBN,2011-01-23 21:30,153.1292,-27.3917,73.40,60.80,64.69,210.00,5.00,M,29.85,M,6.21,M,FEW,M,M,M,3000.00,M,M,M,M,YBBN 232130Z 21005KT 9999 FEW030 23/16 Q1011 NOSIG
YBBN,2011-01-23 22:00,153.1292,-27.3917,75.20,60.80,60.90,190.00,4.00,M,29.83,M,6.21,M,FEW,M,M,M,3000.00,M,M,M,M,YBBN 232200Z 19004KT 9999 FEW030 24/16 Q1010 NOSIG
YBBN,2011-01-23 22:30,153.1292,-27.3917,77.00,60.80,57.36,170.00,4.00,M,29.83,M,6.21,M,FEW,M,M,M,3500.00,M,M,M,M,YBBN 232230Z 17004KT 9999 FEW035 25/16 Q1010 NOSIG
YBBN,2011-01-23 23:00,153.1292,-27.3917,78.80,62.60,57.60,110.00,6.00,M,29.83,M,6.21,M,FEW,M,M,M,3500.00,M,M,M,M,YBBN 232300Z 11006KT 9999 FEW035 26/17 Q1010 NOSIG
YBBN,2011-01-23 23:30,153.1292,-27.3917,78.80,60.80,54.05,90.00,4.00,M,29.83,M,6.21,M,FEW,M,M,M,3500.00,M,M,M,M,YBBN 232330Z 09004KT 9999 FEW035 26/16 Q1010 NOSIG
