#DEBUG: Format Typ    -> comma
#DEBUG: Time Period   -> 2012-12-30 00:00:00+00:00 2012-12-31 00:00:00+00:00
#DEBUG: Time Zone     -> Etc/UTC
#DEBUG: Data Contact   -> daryl herzmann akrherz@iastate.edu 515-294-5978
#DEBUG: Entries Found -> -1
station,valid,lon,lat,tmpf, dwpf, relh, drct, sknt, p01i, alti, mslp, vsby, gust, skyc1, skyc2, skyc3, skyc4, skyl1, skyl2, skyl3, skyl4, presentwx, metar
YBBN,2012-12-30 00:00,153.1292,-27.3917,80.60,57.20,44.80,110.00,15.00,0.00,30.00,M,6.21,M,FEW,SCT,M,M,3500.00,4900.00,M,M,M,YBBN 300000Z 11015KT 9999 FEW035 SCT049 27/14 Q1016 NOSIG
YBBN,2012-12-30 00:16,153.1292,-27.3917,82.40,59.00,45.07,120.00,15.00,0.00,30.00,M,6.21,25.00,FEW,M,M,M,3500.00,M,M,M,M,YBBN 300016Z 12015G25KT 9999 FEW035 28/15 Q1016
YBBN,2012-12-30 00:30,153.1292,-27.3917,82.40,55.40,39.58,120.00,13.00,0.00,30.00,M,6.21,M,FEW,M,M,M,3800.00,M,M,M,M,YBBN 300030Z 12013KT 9999 FEW038 28/13 Q1016
YBBN,2012-12-30 01:00,153.1292,-27.3917,82.40,55.40,39.58,130.00,14.00,0.00,30.00,M,6.21,M,FEW,M,M,M,4000.00,M,M,M,M,YBBN 300100Z 13014KT 9999 FEW040 28/13 Q1016
YBBN,2012-12-30 01:30,153.1292,-27.3917,84.20,57.20,39.86,130.00,14.00,0.00,30.00,M,6.21,M,FEW,M,M,M,4200.00,M,M,M,M,YBBN 300130Z 13014KT 9999 FEW042 29/14 Q1016
YBBN,2012-12-30 02:00,153.1292,-27.3917,82.40,53.60,37.07,120.00,13.00,0.00,30.00,M,6.21,M,SCT,M,M,M,4500.00,M,M,M,M,YBBN 300200Z 12013KT 9999 SCT045 28/12 Q1016 FM0200 12017KT 9999 SCT040
YBBN,2012-12-30 02:17,153.1292,-27.3917,84.20,57.20,39.86,120.00,16.00,0.00,30.00,M,6.21,26.00,SCT,M,M,M,4500.00,M,M,M,M,YBBN 300217Z 12016G26KT 9999 SCT045 29/14 Q1016
YBBN,2012-12-30 02:30,153.1292,-27.3917,84.20,57.20,39.86,110.00,14.00,0.00,30.00,M,6.21,M,SCT,M,M,M,4500.00,M,M,M,M,YBBN 300230Z 11014KT 9999 SCT045 29/14 Q1016
YBBN,2012-12-30 03:00,153.1292,-27.3917,82.40,59.00,45.07,120.00,14.00,0.00,29.97,M,6.21,M,SCT,M,M,M,4800.00,M,M,M,M,YBBN 300300Z 12014KT 9999 SCT048 28/15 Q1015 NOSIG
YBBN,2012-12-30 03:30,153.1292,-27.3917,82.40,59.00,45.07,110.00,14.00,0.00,29.97,M,6.21,M,FEW,M,M,M,4800.00,M,M,M,M,YBBN 300330Z 11014KT 9999 FEW048 28/15 Q1015
YBBN,2012-12-30 03:46,153.1292,-27.3917,82.40,59.00,45.07,120.00,16.00,0.00,29.97,M,6.21,26.00,FEW,M,M,M,4800.00,M,M,M,M,YBBN 300346Z 12016G26KT 9999 FEW048 28/15 Q1015
YBBN,2012-12-30 04:00,153.1292,-27.3917,82.40,60.80,48.05,110.00,15.00,0.00,29.97,M,6.21,25.00,FEW,M,M,M,4800.00,M,M,M,M,YBBN 300400Z 11015G25KT 9999 FEW048 28/16 Q1015
YBBN,2012-12-30 04:30,153.1292,-27.3917,80.60,60.80,50.95,110.00,15.00,0.00,29.97,M,6.21,27.00,FEW,M,M,M,4800.00,M,M,M,M,YBBN 300430Z 11015G27KT 9999 FEW048 27/16 Q1015
YBBN,2012-12-30 05:00,153.1292,-27.3917,80.60,60.80,50.95,120.00,16.00,0.00,29.97,M,6.21,26.00,FEW,M,M,M,4800.00,M,M,M,M,YBBN 300500Z 12016G26KT 9999 FEW048 27/16 Q1015
YBBN,2012-12-30 05:30,153.1292,-27.3917,80.60,59.00,47.79,120.00,16.00,0.00,29.97,M,6.21,28.00,FEW,M,M,M,4800.00,M,M,M,M,YBBN 300530Z 12016G28KT 9999 FEW048 27/15 Q1015
YBBN,2012-12-30 06:00,153.1292,-27.3917,78.80,60.80,54.05,120.00,17.00,0.00,29.97,M,6.21,27.00,FEW,M,M,M,4800.00,M,M,M,M,YBBN 300600Z 12017G27KT 9999 FEW048 26/16 Q1015
YBBN,2012-12-30 06:30,153.1292,-27.3917,78.80,60.80,54.05,120.00,16.00,0.00,29.97,M,6.21,28.00,FEW,M,M,M,4800.00,M,M,M,M,YBBN 300630Z 12016G28KT 9999 FEW048 26/16 Q1015
YBBN,2012-12-30 07:00,153.1292,-27.3917,78.80,55.40,44.52,120.00,15.00,0.00,30.00,M,6.21,26.00,FEW,M,M,M,2500.00,M,M,M,M,YBBN 300700Z 12015G26KT 9999 FEW025 26/13 Q1016
YBBN,2012-12-30 07:30,153.1292,-27.3917,78.80,55.40,44.52,120.00,15.00,0.00,30.00,M,6.21,M,FEW,M,M,M,2500.00,M,M,M,M,YBBN 300730Z 12015KT 9999 FEW025 26/13 Q1016
YBBN,2012-12-30 08:00,153.1292,-27.3917,78.80,59.00,50.69,130.00,13.00,0.00,30.03,M,6.21,M,FEW,M,M,M,2500.00,M,M,M,M,YBBN 300800Z 13013KT 9999 FEW025 26/15 Q1017 NOSIG
YBBN,2012-12-30 08:30,153.1292,-27.3917,77.00,60.80,57.36,140.00,9.00,0.00,30.03,M,6.21,M,FEW,M,M,M,2500.00,M,M,M,M,YBBN 300830Z 14009KT 9999 FEW025 25/16 Q1017
YBBN,2012-12-30 09:00,153.1292,-27.3917,77.00,62.60,61.13,140.00,10.00,0.00,30.03,M,6.21,M,SCT,M,M,M,3000.00,M,M,M,M,YBBN 300900Z 14010KT 9999 SCT030 25/17 Q1017
YBBN,2012-12-30 09:30,153.1292,-27.3917,77.00,62.60,61.13,140.00,11.00,0.00,30.03,M,6.21,M,FEW,SCT,M,M,3000.00,5000.00,M,M,M,YBBN 300930Z 14011KT 9999 FEW030 SCT050 25/17 Q1017
YBBN,2012-12-30 10:00,153.1292,-27.3917,77.00,62.60,61.13,130.00,11.00,0.00,30.06,M,6.21,M,FEW,M,M,M,3000.00,M,M,M,M,YBBN 301000Z 13011KT 9999 FEW030 25/17 Q1018 NOSIG
YBBN,2012-12-30 10:30,153.1292,-27.3917,77.00,62.60,61.13,140.00,11.00,0.00,30.06,M,6.21,M,FEW,SCT,M,M,3000.00,5500.00,M,M,M,YBBN 301030Z 14011KT 9999 FEW030 SCT055 25/17 Q1018
YBBN,2012-12-30 11:00,153.1292,-27.3917,77.00,62.60,61.13,130.00,11.00,0.00,30.06,M,6.21,M,SCT,SCT,M,M,3000.00,5000.00,M,M,M,YBBN 301100Z 13011KT 9999 SCT030 SCT050 25/17 Q1018 NOSIG
YBBN,2012-12-30 11:30,153.1292,-27.3917,75.20,62.60,64.91,130.00,10.00,0.00,30.06,M,6.21,M,FEW,SCT,M,M,3000.00,5000.00,M,M,M,YBBN 301130Z 13010KT 9999 FEW030 SCT050 24/17 Q1018
YBBN,2012-12-30 12:00,153.1292,-27.3917,75.20,60.80,60.90,120.00,11.00,0.00,30.06,M,6.21,M,FEW,M,M,M,3000.00,M,M,M,M,YBBN 301200Z 12011KT 9999 FEW030 24/16 Q1018 NOSIG
YBBN,2012-12-30 12:30,153.1292,-27.3917,75.20,60.80,60.90,120.00,9.00,0.00,30.06,M,6.21,M,FEW,SCT,M,M,3000.00,5000.00,M,M,M,YBBN 301230Z 12009KT 9999 FEW030 SCT050 24/16 Q1018
YBBN,2012-12-30 13:00,153.1292,-27.3917,75.20,60.80,60.90,110.00,9.00,0.00,30.03,M,6.21,M,FEW,BKN,M,M,3000.00,5000.00,M,M,M,YBBN 301300Z 11009KT 9999 FEW030 BKN050 24/16 Q1017
YBBN,2012-12-30 13:30,153.1292,-27.3917,75.20,60.80,60.90,110.00,11.00,0.00,30.03,M,6.21,M,FEW,SCT,M,M,3300.00,5000.00,M,M,M,YBBN 301330Z 11011KT 9999 FEW033 SCT050 24/16 Q1017
YBBN,2012-12-30 14:00,153.1292,-27.3917,73.40,60.80,64.69,110.00,9.00,0.00,30.03,M,6.21,M,FEW,SCT,M,M,3400.00,5000.00,M,M,M,YBBN 301400Z 11009KT 9999 FEW034 SCT050 23/16 Q1017 NOSIG
YBBN,2012-12-30 14:30,153.1292,-27.3917,73.40,60.80,64.69,130.00,10.00,0.00,30.03,M,6.21,M,FEW,M,M,M,3400.00,M,M,M,M,YBBN 301430Z 13010KT 9999 FEW034 23/16 Q1017
YBBN,2012-12-30 15:00,153.1292,-27.3917,71.60,60.80,68.75,140.00,9.00,0.00,30.00,M,6.21,M,FEW,SCT,M,M,3400.00,5000.00,M,M,M,YBBN 301500Z 14009KT 9999 FEW034 SCT050 22/16 Q1016 NOSIG
YBBN,2012-12-30 15:30,153.1292,-27.3917,71.60,60.80,68.75,160.00,6.00,0.00,30.00,M,6.21,M,FEW,SCT,M,M,3500.00,5000.00,M,M,M,YBBN 301530Z 16006KT 9999 FEW035 SCT050 22/16 Q1016
YBBN,2012-12-30 16:00,153.1292,-27.3917,71.60,60.80,68.75,120.00,8.00,0.00,30.00,M,6.21,M,FEW,SCT,M,M,3500.00,5000.00,M,M,M,YBBN 301600Z 12008KT 9999 FEW035 SCT050 22/16 Q1016 NOSIG
YBBN,2012-12-30 16:30,153.1292,-27.3917,73.40,59.00,60.67,110.00,10.00,0.00,30.00,M,6.21,M,FEW,M,M,M,3500.00,M,M,M,M,YBBN 301630Z 11010KT 9999 FEW035 23/15 Q1016
YBBN,2012-12-30 17:00,153.1292,-27.3917,75.20,55.40,50.17,110.00,9.00,0.00,30.00,M,6.21,M,FEW,M,M,M,3500.00,M,M,M,M,YBBN 301700Z 11009KT 9999 FEW035 24/13 Q1016
YBBN,2012-12-30 17:30,153.1292,-27.3917,75.20,57.20,53.55,130.00,8.00,0.00,30.00,M,6.21,M,FEW,SCT,M,M,3500.00,5000.00,M,M,M,YBBN 301730Z 13008KT 9999 FEW035 SCT050 24/14 Q1016
YBBN,2012-12-30 18:00,153.1292,-27.3917,69.80,59.00,68.55,180.00,6.00,0.00,30.00,M,6.21,M,FEW,M,M,M,3500.00,M,M,M,M,YBBN 301800Z 18006KT 9999 FEW035 21/15 Q1016 NOSIG
YBBN,2012-12-30 18:30,153.1292,-27.3917,69.80,59.00,68.55,160.00,6.00,0.00,30.00,M,6.21,M,FEW,M,M,M,3500.00,M,M,M,M,YBBN 301830Z 16006KT 9999 FEW035 21/15 Q1016
YBBN,2012-12-30 19:00,153.1292,-27.3917,69.80,59.00,68.55,190.00,5.00,0.00,30.00,M,6.21,M,FEW,M,M,M,3500.00,M,M,M,M,YBBN 301900Z 19005KT 9999 FEW035 21/15 Q1016 NOSIG
YBBN,2012-12-30 19:30,153.1292,-27.3917,69.80,59.00,68.55,200.00,6.00,0.00,30.00,M,6.21,M,FEW,M,M,M,3500.00,M,M,M,M,YBBN 301930Z 20006KT 9999 FEW035 21/15 Q1016
YBBN,2012-12-30 20:00,153.1292,-27.3917,71.60,59.00,64.48,210.00,6.00,0.00,30.03,M,6.21,M,FEW,BKN,M,M,3500.00,4500.00,M,M,M,YBBN 302000Z 21006KT 9999 FEW035 BKN045 22/15 Q1017 NOSIG
YBBN,2012-12-30 20:30,153.1292,-27.3917,73.40,59.00,60.67,180.00,7.00,0.00,30.03,M,6.21,M,FEW,SCT,M,M,3500.00,6000.00,M,M,M,YBBN 302030Z 18007KT 9999 FEW035 SCT060 23/15 Q1017
YBBN,2012-12-30 21:00,153.1292,-27.3917,75.20,59.00,57.12,190.00,7.00,0.00,30.03,M,6.21,M,SCT,BKN,M,M,4000.00,6000.00,M,M,M,YBBN 302100Z 19007KT 9999 SCT040 BKN060 24/15 Q1017
YBBN,2012-12-30 21:30,153.1292,-27.3917,78.80,60.80,54.05,130.00,11.00,0.00,30.03,M,6.21,M,SCT,BKN,M,M,3700.00,6500.00,M,M,M,YBBN 302130Z 13011KT 9999 SCT037 BKN065 26/16 Q1017
YBBN,2012-12-30 22:00,153.1292,-27.3917,78.80,62.60,57.60,130.00,11.00,0.00,30.06,M,6.21,M,SCT,SCT,BKN,M,3700.00,4500.00,6500.00,M,M,YBBN 302200Z 13011KT 9999 SCT037 SCT045 BKN065 26/17 Q1018 NOSIG
YBBN,2012-12-30 22:30,153.1292,-27.3917,78.80,62.60,57.60,130.00,11.00,0.00,30.06,M,6.21,M,SCT,BKN,M,M,3500.00,6500.00,M,M,M,YBBN 302230Z 13011KT 9999 SCT035 BKN065 26/17 Q1018
YBBN,2012-12-30 23:00,153.1292,-27.3917,80.60,62.60,54.30,120.00,12.00,0.00,30.06,M,6.21,M,SCT,SCT,BKN,M,3500.00,4500.00,6500.00,M,M,YBBN 302300Z 12012KT 9999 SCT035 SCT045 BKN065 27/17 Q1018
YBBN,2012-12-30 23:30,153.1292,-27.3917,78.80,62.60,57.60,120.00,12.00,0.00,30.06,M,6.21,M,FEW,SCT,M,M,3700.00,7000.00,M,M,M,YBBN 302330Z 12012KT 9999 FEW037 SCT070 26/17 Q1018
