#DEBUG: Format Typ    -> comma
#DEBUG: Time Period   -> 2014-02-24 00:00:00+00:00 2014-02-25 00:00:00+00:00
#DEBUG: Time Zone     -> Etc/UTC
#DEBUG: Data Contact   -> daryl herzmann akrherz@iastate.edu 515-294-5978
#DEBUG: Entries Found -> -1
station,valid,lon,lat,tmpf, dwpf, relh, drct, sknt, p01i, alti, mslp, vsby, gust, skyc1, skyc2, skyc3, skyc4, skyl1, skyl2, skyl3, skyl4, presentwx, metar
YBBN,2014-02-24 00:00,153.1292,-27.3917,78.80,60.80,54.05,120.00,9.00,0.00,30.03,M,6.21,M,SCT,M,M,M,3700.00,M,M,M,VCSH,YBBN 240000Z 12009KT 9999 VCSH SCT037 26/16 Q1017
YBBN,2014-02-24 00:30,153.1292,-27.3917,78.80,62.60,57.60,110.00,11.00,0.00,30.03,M,6.21,M,SCT,M,M,M,3500.00,M,M,M,VCSH,YBBN 240030Z 11011KT 9999 VCSH SCT035 26/17 Q1017
YBBN,2014-02-24 01:00,153.1292,-27.3917,82.40,59.00,45.07,120.00,12.00,0.00,30.03,M,6.21,M,SCT,M,M,M,3500.00,M,M,M,M,YBBN 240100Z 12012KT 9999 SCT035 28/15 Q1017
YBBN,2014-02-24 01:30,153.1292,-27.3917,80.60,60.80,50.95,120.00,11.00,0.00,30.03,M,6.21,M,SCT,M,M,M,3000.00,M,M,M,VCSH,YBBN 240130Z 12011KT 9999 VCSH SCT030 27/16 Q1017
YBBN,2014-02-24 02:00,153.1292,-27.3917,80.60,60.80,50.95,120.00,10.00,0.00,30.00,M,6.21,M,SCT,M,M,M,3500.00,M,M,M,VCSH,YBBN 240200Z 12010KT 9999 VCSH SCT035 27/16 Q1016 NOSIG
YBBN,2014-02-24 02:30,153.1292,-27.3917,80.60,59.00,47.79,120.00,13.00,0.00,30.00,M,6.21,M,SCT,M,M,M,3800.00,M,M,M,M,YBBN 240230Z 12013KT 9999 SCT038 27/15 Q1016
YBBN,2014-02-24 03:00,153.1292,-27.3917,80.60,59.00,47.79,120.00,12.00,0.00,30.00,M,6.21,M,SCT,M,M,M,4000.00,M,M,M,M,YBBN 240300Z 12012KT 9999 SCT040 27/15 Q1016
YBBN,2014-02-24 03:30,153.1292,-27.3917,80.60,59.00,47.79,110.00,11.00,0.00,30.00,M,6.21,M,SCT,SCT,M,M,4000.00,7000.00,M,M,M,YBBN 240330Z 11011KT 9999 SCT040 SCT070 27/15 Q1016
YBBN,2014-02-24 04:00,153.1292,-27.3917,80.60,57.20,44.80,110.00,11.00,0.00,29.97,M,6.21,M,SCT,SCT,M,M,4000.00,7000.00,M,M,M,YBBN 240400Z 11011KT 9999 SCT040 SCT070 27/14 Q1015 NOSIG
YBBN,2014-02-24 04:30,153.1292,-27.3917,82.40,55.40,39.58,120.00,11.00,0.00,29.97,M,6.21,M,FEW,SCT,M,M,4000.00,7400.00,M,M,M,YBBN 240430Z 12011KT 9999 FEW040 SCT074 28/13 Q1015
YBBN,2014-02-24 05:00,153.1292,-27.3917,82.40,55.40,39.58,120.00,11.00,0.00,29.97,M,6.21,M,FEW,SCT,M,M,4000.00,7000.00,M,M,M,YBBN 240500Z 12011KT 9999 FEW040 SCT070 28/13 Q1015 NOSIG
YBBN,2014-02-24 05:30,153.1292,-27.3917,78.80,59.00,50.69,120.00,11.00,0.00,29.97,M,6.21,M,FEW,BKN,M,M,4400.00,7000.00,M,M,M,YBBN 240530Z 12011KT 9999 FEW044 BKN070 26/15 Q1015
YBBN,2014-02-24 06:00,153.1292,-27.3917,78.80,59.00,50.69,120.00,12.00,0.00,29.97,M,6.21,M,FEW,BKN,M,M,4400.00,6700.00,M,M,M,YBBN 240600Z 12012KT 9999 FEW044 BKN067 26/15 Q1015
YBBN,2014-02-24 06:30,153.1292,-27.3917,78.80,59.00,50.69,120.00,9.00,0.00,29.97,M,6.21,M,FEW,BKN,M,M,4000.00,6000.00,M,M,M,YBBN 240630Z 12009KT 9999 FEW040 BKN060 26/15 Q1015
YBBN,2014-02-24 07:00,153.1292,-27.3917,77.00,59.00,53.80,110.00,10.00,0.00,29.97,M,6.21,M,FEW,BKN,M,M,4000.00,6500.00,M,M,M,YBBN 240700Z 11010KT 9999 FEW040 BKN065 25/15 Q1015 NOSIG
YBBN,2014-02-24 07:30,153.1292,-27.3917,77.00,59.00,53.80,130.00,8.00,0.00,30.00,M,6.21,M,FEW,BKN,M,M,4000.00,6500.00,M,M,M,YBBN 240730Z 13008KT 9999 FEW040 BKN065 25/15 Q1016
YBBN,2014-02-24 08:00,153.1292,-27.3917,75.20,60.80,60.90,120.00,8.00,0.00,30.00,M,6.21,M,FEW,SCT,M,M,4000.00,7000.00,M,M,M,YBBN 240800Z 12008KT 9999 FEW040 SCT070 24/16 Q1016 NOSIG
YBBN,2014-02-24 08:30,153.1292,-27.3917,75.20,60.80,60.90,120.00,8.00,0.00,30.00,M,6.21,M,FEW,SCT,M,M,3500.00,8200.00,M,M,M,YBBN 240830Z 12008KT 9999 FEW035 SCT082 24/16 Q1016
YBBN,2014-02-24 09:00,153.1292,-27.3917,75.20,62.60,64.91,120.00,8.00,0.00,30.00,M,6.21,M,FEW,BKN,M,M,3200.00,8400.00,M,M,M,YBBN 240900Z 12008KT 9999 FEW032 BKN084 24/17 Q1016 NOSIG
YBBN,2014-02-24 09:30,153.1292,-27.3917,75.20,62.60,64.91,120.00,9.00,0.00,30.00,M,6.21,M,FEW,BKN,M,M,3200.00,8400.00,M,M,M,YBBN 240930Z 12009KT 9999 FEW032 BKN084 24/17 Q1016
YBBN,2014-02-24 10:00,153.1292,-27.3917,75.20,62.60,64.91,110.00,8.00,0.00,30.03,M,6.21,M,FEW,SCT,M,M,3000.00,8400.00,M,M,M,YBBN 241000Z 11008KT 9999 FEW030 SCT084 24/17 Q1017
YBBN,2014-02-24 10:30,153.1292,-27.3917,75.20,62.60,64.91,130.00,8.00,0.00,30.03,M,6.21,M,SCT,M,M,M,3400.00,M,M,M,M,YBBN 241030Z 13008KT 9999 SCT034 24/17 Q1017
YBBN,2014-02-24 11:00,153.1292,-27.3917,75.20,62.60,64.91,120.00,9.00,0.00,30.03,M,6.21,M,SCT,M,M,M,3200.00,M,M,M,M,YBBN 241100Z 12009KT 9999 SCT032 24/17 Q1017 NOSIG
YBBN,2014-02-24 11:30,153.1292,-27.3917,75.20,62.60,64.91,110.00,9.00,0.00,30.03,M,6.21,M,FEW,M,M,M,3000.00,M,M,M,M,YBBN 241130Z 11009KT 9999 FEW030 24/17 Q1017
YBBN,2014-02-24 12:00,153.1292,-27.3917,75.20,62.60,64.91,120.00,7.00,0.00,30.03,M,6.21,M,FEW,M,M,M,3000.00,M,M,M,M,YBBN 241200Z 12007KT 9999 FEW030 24/17 Q1017 NOSIG
YBBN,2014-02-24 12:30,153.1292,-27.3917,71.60,64.40,78.04,130.00,7.00,0.00,30.00,M,6.21,M,FEW,M,M,M,2800.00,M,M,M,M,YBBN 241230Z 13007KT 9999 FEW028 22/18 Q1016
YBBN,2014-02-24 13:00,153.1292,-27.3917,69.80,62.60,77.90,190.00,5.00,0.00,30.00,M,6.21,M,BKN,M,M,M,2800.00,M,M,M,M,YBBN 241300Z 19005KT 9999 BKN028 21/17 Q1016 NOSIG
YBBN,2014-02-24 13:30,153.1292,-27.3917,71.60,64.40,78.04,190.00,6.00,0.00,30.00,M,6.21,M,BKN,SCT,M,M,2400.00,5900.00,M,M,M,YBBN 241330Z 19006KT 9999 BKN024 SCT059 22/18 Q1016
YBBN,2014-02-24 14:00,153.1292,-27.3917,69.80,64.40,82.98,170.00,8.00,0.00,30.00,M,6.21,M,FEW,SCT,BKN,M,3000.00,4600.00,7800.00,M,M,YBBN 241400Z 17008KT 9999 FEW030 SCT046 BKN078 21/18 Q1016
YBBN,2014-02-24 14:30,153.1292,-27.3917,69.80,64.40,82.98,190.00,7.00,0.00,30.00,M,6.21,M,FEW,BKN,M,M,3000.00,7600.00,M,M,M,YBBN 241430Z 19007KT 9999 FEW030 BKN076 21/18 Q1016
YBBN,2014-02-24 15:00,153.1292,-27.3917,69.80,64.40,82.98,180.00,7.00,0.00,30.00,M,6.21,M,FEW,BKN,M,M,3300.00,7400.00,M,M,M,YBBN 241500Z 18007KT 9999 FEW033 BKN074 21/18 Q1016 INTER 1600/1800 4000 SHRA SCT014 BKN020
YBBN,2014-02-24 15:30,153.1292,-27.3917,69.80,64.40,82.98,180.00,5.00,0.00,29.97,M,6.21,M,SCT,BKN,M,M,3000.00,7600.00,M,M,VCSH,YBBN 241530Z 18005KT 9999 VCSH SCT030 BKN076 21/18 Q1015
YBBN,2014-02-24 16:00,153.1292,-27.3917,68.00,66.20,93.97,120.00,8.00,0.00,29.97,M,6.21,M,SCT,BKN,BKN,M,1700.00,2600.00,4500.00,M,-SHRA,YBBN 241600Z 12008KT 9999 -SHRA SCT017 BKN026 BKN045 20/19 Q1015 INTER 1600/1900 4000 SHRA SCT014 BKN020
YBBN,2014-02-24 16:30,153.1292,-27.3917,69.80,66.20,88.34,190.00,6.00,0.00,29.97,M,6.21,M,FEW,BKN,M,M,3000.00,5500.00,M,M,M,YBBN 241630Z 19006KT 9999 FEW030 BKN055 21/19 Q1015
YBBN,2014-02-24 17:00,153.1292,-27.3917,68.00,66.20,93.97,160.00,7.00,0.00,29.97,M,6.21,M,FEW,BKN,M,M,2400.00,4900.00,M,M,VCSH,YBBN 241700Z 16007KT 9999 VCSH FEW024 BKN049 20/19 Q1015 INTER 1700/2000 4000 SHRA SCT014 BKN020
YBBN,2014-02-24 17:30,153.1292,-27.3917,68.00,66.20,93.97,170.00,7.00,0.00,29.97,M,6.21,M,FEW,SCT,BKN,M,1300.00,3400.00,3800.00,M,VCSH,YBBN 241730Z 17007KT 9999 VCSH FEW013 SCT034 BKN038 20/19 Q1015
YBBN,2014-02-24 18:00,153.1292,-27.3917,68.00,66.20,93.97,200.00,6.00,0.00,29.97,M,6.21,M,FEW,BKN,M,M,2000.00,8500.00,M,M,M,YBBN 241800Z 20006KT 9999 FEW020 BKN085 20/19 Q1015
YBBN,2014-02-24 18:30,153.1292,-27.3917,68.00,66.20,93.97,200.00,7.00,0.00,29.97,M,6.21,M,FEW,SCT,M,M,3400.00,8500.00,M,M,M,YBBN 241830Z 20007KT 9999 FEW034 SCT085 20/19 Q1015
YBBN,2014-02-24 19:00,153.1292,-27.3917,66.20,64.40,93.92,200.00,7.00,0.00,29.97,M,6.21,M,FEW,SCT,M,M,3000.00,8500.00,M,M,M,YBBN 241900Z 20007KT 9999 FEW030 SCT085 19/18 Q1015 INTER 1900/2200 4000 SHRA SCT014 BKN020
YBBN,2014-02-24 19:30,153.1292,-27.3917,66.20,64.40,93.92,200.00,7.00,0.00,29.97,M,6.21,M,FEW,SCT,M,M,3000.00,8000.00,M,M,M,YBBN 241930Z 20007KT 9999 FEW030 SCT080 19/18 Q1015
YBBN,2014-02-24 20:00,153.1292,-27.3917,66.20,64.40,93.92,200.00,6.00,0.00,30.00,M,6.21,M,FEW,BKN,M,M,3000.00,8000.00,M,M,M,YBBN 242000Z 20006KT 9999 FEW030 BKN080 19/18 Q1016 INTER 2000/2200 4000 SHRA SCT014 BKN020
YBBN,2014-02-24 20:30,153.1292,-27.3917,69.80,66.20,88.34,200.00,7.00,0.00,30.00,M,6.21,M,FEW,SCT,M,M,3000.00,8000.00,M,M,M,YBBN 242030Z 20007KT 9999 FEW030 SCT080 21/19 Q1016
YBBN,2014-02-24 21:00,153.1292,-27.3917,71.60,66.20,83.09,200.00,7.00,0.00,30.00,M,6.21,M,FEW,SCT,M,M,3000.00,8000.00,M,M,VCSH,YBBN 242100Z 20007KT 9999 VCSH FEW030 SCT080 22/19 Q1016 NOSIG
YBBN,2014-02-24 21:30,153.1292,-27.3917,71.60,66.20,83.09,200.00,7.00,0.00,30.00,M,6.21,M,FEW,BKN,M,M,3000.00,8000.00,M,M,M,YBBN 242130Z 20007KT 9999 FEW030 BKN080 22/19 Q1016
YBBN,2014-02-24 22:00,153.1292,-27.3917,73.40,66.20,78.19,190.00,7.00,0.00,30.00,M,6.21,M,FEW,BKN,M,M,3000.00,8000.00,M,M,M,YBBN 242200Z 19007KT 9999 FEW030 BKN080 23/19 Q1016 NOSIG
YBBN,2014-02-24 22:30,153.1292,-27.3917,77.00,66.20,69.33,170.00,6.00,0.00,30.00,M,6.21,M,FEW,BKN,M,M,3000.00,8000.00,M,M,M,YBBN 242230Z 17006KT 9999 FEW030 BKN080 25/19 Q1016
YBBN,2014-02-24 23:00,153.1292,-27.3917,78.80,62.60,57.60,140.00,8.00,0.00,30.00,M,6.21,M,SCT,M,M,M,3500.00,M,M,M,M,YBBN 242300Z 14008KT 9999 SCT035 26/17 Q1016 NOSIG
YBBN,2014-02-24 23:30,153.1292,-27.3917,78.80,62.60,57.60,120.00,9.00,0.00,30.00,M,6.21,M,SCT,M,M,M,3300.00,M,M,M,M,YBBN 242330Z 12009KT 9999 SCT033 26/17 Q1016
