#DEBUG: Format Typ    -> comma
#DEBUG: Time Period   -> 2013-04-17 00:00:00+00:00 2013-04-18 00:00:00+00:00
#DEBUG: Time Zone     -> Etc/UTC
#DEBUG: Data Contact   -> daryl herzmann akrherz@iastate.edu 515-294-5978
#DEBUG: Entries Found -> -1
station,valid,lon,lat,tmpf, dwpf, relh, drct, sknt, p01i, alti, mslp, vsby, gust, skyc1, skyc2, skyc3, skyc4, skyl1, skyl2, skyl3, skyl4, presentwx, metar
YBBN,2013-04-17 00:00,153.1292,-27.3917,73.40,60.80,64.69,180.00,3.00,0.00,29.97,M,6.21,M,FEW,M,M,M,2700.00,M,M,M,M,YBBN 170000Z 18003KT 9999 FEW027 23/16 Q1015
YBBN,2013-04-17 00:30,153.1292,-27.3917,75.20,60.80,60.90,90.00,5.00,0.00,29.97,M,6.21,M,FEW,M,M,M,2800.00,M,M,M,M,YBBN 170030Z 09005KT 9999 FEW028 24/16 Q1015
YBBN,2013-04-17 01:00,153.1292,-27.3917,75.20,62.60,64.91,70.00,2.00,0.00,29.94,M,6.21,M,FEW,M,M,M,3000.00,M,M,M,M,YBBN 170100Z 07002KT 9999 FEW030 24/17 Q1014
YBBN,2013-04-17 01:30,153.1292,-27.3917,77.00,62.60,61.13,90.00,3.00,0.00,29.94,M,6.21,M,FEW,M,M,M,3000.00,M,M,M,M,YBBN 170130Z 09003KT 9999 FEW030 25/17 Q1014
YBBN,2013-04-17 02:00,153.1292,-27.3917,75.20,60.80,60.90,30.00,3.00,0.00,29.94,M,6.21,M,FEW,M,M,M,3000.00,M,M,M,M,YBBN 170200Z 03003KT 9999 FEW030 24/16 Q1014
YBBN,2013-04-17 02:30,153.1292,-27.3917,77.00,62.60,61.13,60.00,4.00,0.00,29.91,M,6.21,M,FEW,M,M,M,3000.00,M,M,M,M,YBBN 170230Z 06004KT 9999 FEW030 25/17 Q1013
YBBN,2013-04-17 03:00,153.1292,-27.3917,75.20,62.60,64.91,30.00,6.00,0.00,29.88,M,6.21,M,FEW,M,M,M,3000.00,M,M,M,M,YBBN 170300Z 03006KT 9999 FEW030 24/17 Q1012 NOSIG
YBBN,2013-04-17 03:30,153.1292,-27.3917,77.00,59.00,53.80,50.00,6.00,0.00,29.88,M,6.21,M,FEW,M,M,M,3500.00,M,M,M,M,YBBN 170330Z 05006KT 9999 FEW035 25/15 Q1012
YBBN,2013-04-17 04:00,153.1292,-27.3917,77.00,60.80,57.36,40.00,7.00,0.00,29.88,M,6.21,M,FEW,M,M,M,3500.00,M,M,M,M,YBBN 170400Z 04007KT 9999 FEW035 25/16 Q1012 NOSIG
YBBN,2013-04-17 04:30,153.1292,-27.3917,77.00,62.60,61.13,70.00,7.00,0.00,29.88,M,6.21,M,FEW,M,M,M,3200.00,M,M,M,M,YBBN 170430Z 07007KT 9999 FEW032 25/17 Q1012
YBBN,2013-04-17 05:00,153.1292,-27.3917,75.20,62.60,64.91,80.00,7.00,0.00,29.88,M,6.21,M,FEW,M,M,M,3200.00,M,M,M,M,YBBN 170500Z 08007KT 9999 FEW032 24/17 Q1012
YBBN,2013-04-17 05:30,153.1292,-27.3917,75.20,62.60,64.91,50.00,8.00,0.00,29.85,M,6.21,M,FEW,M,M,M,3200.00,M,M,M,M,YBBN 170530Z 05008KT 9999 FEW032 24/17 Q1011
YBBN,2013-04-17 06:00,153.1292,-27.3917,75.20,62.60,64.91,30.00,6.00,0.00,29.85,M,6.21,M,FEW,SCT,M,M,3200.00,26000.00,M,M,M,YBBN 170600Z 03006KT 9999 FEW032 SCT260 24/17 Q1011 NOSIG
YBBN,2013-04-17 06:30,153.1292,-27.3917,75.20,64.40,69.14,40.00,9.00,0.00,29.85,M,6.21,M,FEW,M,M,M,3200.00,M,M,M,M,YBBN 170630Z 04009KT 9999 FEW032 24/18 Q1011 RMK CB TOPS TO SW
YBBN,2013-04-17 07:00,153.1292,-27.3917,73.40,64.40,73.44,60.00,7.00,0.00,29.88,M,6.21,M,FEW,BKN,M,M,3200.00,12000.00,M,M,M,YBBN 170700Z 06007KT 9999 FEW032 BKN120 23/18 Q1012
YBBN,2013-04-17 07:30,153.1292,-27.3917,73.40,64.40,73.44,50.00,7.00,0.00,29.88,M,6.21,M,FEW,SCT,BKN,M,3000.00,16500.00,25000.00,M,M,YBBN 170730Z 05007KT 9999 FEW030 SCT165 BKN250 23/18 Q1012
YBBN,2013-04-17 08:00,153.1292,-27.3917,73.40,66.20,78.19,70.00,5.00,0.00,29.91,M,6.21,M,FEW,SCT,BKN,M,2200.00,14000.00,22000.00,M,M,YBBN 170800Z 07005KT 9999 FEW022 SCT140 BKN220 23/19 Q1013 INTER 0900/1030 3000 TSRA BKN015 SCT030CB
YBBN,2013-04-17 08:30,153.1292,-27.3917,73.40,66.20,78.19,50.00,5.00,0.00,29.91,M,6.21,M,SCT,SCT,BKN,M,3000.00,9400.00,11000.00,M,M,YBBN 170830Z 05005KT 9999 SCT030 SCT094 BKN110 23/19 Q1013 RMK DIST LIGHTNING TO S
YBBN,2013-04-17 09:00,153.1292,-27.3917,73.40,66.20,78.19,360.00,5.00,0.00,29.94,M,6.21,M,BKN,BKN,M,M,2200.00,3800.00,M,M,VCSH,YBBN 170900Z 36005KT 9999 VCSH BKN022 BKN038 23/19 Q1014 INTER 0900/1030 2000 TSRA BKN015 SCT030CB
YBBN,2013-04-17 09:07,153.1292,-27.3917,73.40,66.20,78.19,350.00,6.00,0.00,29.94,M,1.24,M,BKN,SCT,BKN,M,2200.00,2700.00,3800.00,M,-TSRA,YBBN 170907Z 35006KT 2000 -TSRA BKN022 SCT027 BKN038 23/19 Q1014
YBBN,2013-04-17 09:15,153.1292,-27.3917,68.00,62.60,82.86,280.00,18.00,0.00,29.94,M,0.56,M,FEW,BKN,SCT,M,1100.00,2000.00,2700.00,M,TSRA,YBBN 170915Z 28018KT 0900 TSRA FEW011 BKN020 SCT027CB 20/17 Q1014
YBBN,2013-04-17 09:22,153.1292,-27.3917,68.00,57.20,68.35,250.00,18.00,0.00,29.94,M,1.24,M,SCT,BKN,SCT,M,1100.00,2000.00,2500.00,M,-TSRA SHRA,YBBN 170922Z 25018KT 2000 -TSRA SHRA SCT011 BKN020 SCT025CB 20/14 Q1014
YBBN,2013-04-17 09:30,153.1292,-27.3917,66.20,60.80,82.74,330.00,8.00,0.00,29.94,M,6.21,M,SCT,SCT,BKN,SCT,900.00,2000.00,6800.00,2500.00,-TSRA,YBBN 170930Z 33008KT 9999 -TSRA SCT009 SCT020 BKN068 SCT025CB 19/16 Q1014 RETS
YBBN,2013-04-17 10:00,153.1292,-27.3917,64.40,62.60,93.88,30.00,6.00,0.00,29.97,M,6.21,M,SCT,BKN,BKN,M,3000.00,4300.00,6700.00,M,-SHRA,YBBN 171000Z 03006KT 9999 -SHRA SCT030 BKN043 BKN067 18/17 Q1015
YBBN,2013-04-17 10:30,153.1292,-27.3917,66.20,62.60,88.18,80.00,5.00,0.00,29.94,M,6.21,M,FEW,BKN,BKN,M,3000.00,6700.00,11500.00,M,-SHRA,YBBN 171030Z 08005KT 9999 -SHRA FEW030 BKN067 BKN115 19/17 Q1014
YBBN,2013-04-17 11:00,153.1292,-27.3917,66.20,64.40,93.92,140.00,5.00,0.00,29.94,M,6.21,M,FEW,SCT,BKN,M,3000.00,6500.00,11000.00,M,M,YBBN 171100Z 14005KT 9999 FEW030 SCT065 BKN110 19/18 Q1014
YBBN,2013-04-17 11:30,153.1292,-27.3917,66.20,64.40,93.92,220.00,4.00,0.00,29.94,M,6.21,M,FEW,SCT,BKN,M,3000.00,9800.00,12000.00,M,M,YBBN 171130Z 22004KT 9999 FEW030 SCT098 BKN120 19/18 Q1014
YBBN,2013-04-17 12:00,153.1292,-27.3917,66.20,64.40,93.92,290.00,6.00,0.00,29.97,M,6.21,M,FEW,BKN,M,M,4000.00,12000.00,M,M,M,YBBN 171200Z 29006KT 9999 FEW040 BKN120 19/18 Q1015
YBBN,2013-04-17 12:30,153.1292,-27.3917,66.20,64.40,93.92,270.00,5.00,0.00,29.94,M,6.21,M,FEW,BKN,M,M,4000.00,9600.00,M,M,-SHRA,YBBN 171230Z 27005KT 9999 -SHRA FEW040 BKN096 19/18 Q1014
YBBN,2013-04-17 13:00,153.1292,-27.3917,66.20,64.40,93.92,160.00,4.00,0.00,29.94,M,6.21,M,FEW,BKN,M,M,4000.00,9800.00,M,M,M,YBBN 171300Z 16004KT 9999 FEW040 BKN098 19/18 Q1014
YBBN,2013-04-17 13:30,153.1292,-27.3917,66.20,64.40,93.92,150.00,4.00,0.00,29.94,M,6.21,M,FEW,BKN,M,M,4000.00,9000.00,M,M,M,YBBN 171330Z 15004KT 9999 FEW040 BKN090 19/18 Q1014
YBBN,2013-04-17 14:00,153.1292,-27.3917,66.20,66.20,100.00,290.00,3.00,0.00,29.94,M,6.21,M,M,M,M,M,M,M,M,M,M,YBBN 171400Z 29003KT CAVOK 19/19 Q1014
YBBN,2013-04-17 14:30,153.1292,-27.3917,66.20,66.20,100.00,320.00,4.00,0.00,29.94,M,6.21,M,M,M,M,M,M,M,M,M,M,YBBN 171430Z 32004KT CAVOK 19/19 Q1014 RMK 7AC130
YBBN,2013-04-17 15:00,153.1292,-27.3917,66.20,66.20,100.00,310.00,3.00,0.00,29.94,M,6.21,M,FEW,BKN,M,M,4000.00,13000.00,M,M,M,YBBN 171500Z 31003KT 9999 FEW040 BKN130 19/19 Q1014
YBBN,2013-04-17 15:30,153.1292,-27.3917,66.20,66.20,100.00,0.00,0.00,0.00,29.94,M,6.21,M,SCT,BKN,M,M,1800.00,11500.00,M,M,M,YBBN 171530Z 00000KT 9999 SCT018 BKN115 19/19 Q1014
YBBN,2013-04-17 16:00,153.1292,-27.3917,66.20,66.20,100.00,0.00,0.00,0.00,29.91,M,6.21,M,FEW,BKN,M,M,1800.00,13000.00,M,M,M,YBBN 171600Z 00000KT 9999 FEW018 BKN130 19/19 Q1013
YBBN,2013-04-17 16:30,153.1292,-27.3917,64.40,64.40,100.00,0.00,0.00,0.00,29.91,M,6.21,M,FEW,M,M,M,1800.00,M,M,M,M,YBBN 171630Z 00000KT 9999 FEW018 18/18 Q1013
YBBN,2013-04-17 17:00,153.1292,-27.3917,66.20,64.40,93.92,270.00,5.00,0.00,29.91,M,6.21,M,FEW,M,M,M,1500.00,M,M,M,M,YBBN 171700Z 27005KT 9999 FEW015 19/18 Q1013
YBBN,2013-04-17 17:30,153.1292,-27.3917,64.40,64.40,100.00,210.00,5.00,0.00,29.91,M,6.21,M,FEW,M,M,M,1500.00,M,M,M,M,YBBN 171730Z 21005KT 9999 FEW015 18/18 Q1013
YBBN,2013-04-17 17:50,153.1292,-27.3917,64.40,64.40,100.00,210.00,3.00,0.00,29.91,M,6.21,M,FEW,SCT,M,M,1500.00,15000.00,M,M,MIFG,YBBN 171750Z 21003KT 9999 MIFG FEW015 SCT150 18/18 Q1013
YBBN,2013-04-17 18:00,153.1292,-27.3917,64.40,64.40,100.00,210.00,1.00,0.00,29.91,M,6.21,M,FEW,SCT,M,M,1500.00,15000.00,M,M,MIFG,YBBN 171800Z 21001KT 9999 MIFG FEW015 SCT150 18/18 Q1013
YBBN,2013-04-17 18:28,153.1292,-27.3917,64.40,62.60,93.88,180.00,4.00,0.00,29.91,M,6.21,M,FEW,BKN,M,M,1600.00,22000.00,M,M,MIFG,YBBN 171828Z 18004KT 9999 MIFG FEW016 BKN220 18/17 Q1013
YBBN,2013-04-17 18:30,153.1292,-27.3917,64.40,62.60,93.88,180.00,4.00,0.00,29.91,M,6.21,M,FEW,BKN,M,M,1600.00,22000.00,M,M,MIFG,YBBN 171830Z 18004KT 9999 MIFG FEW016 BKN220 18/17 Q1013
YBBN,2013-04-17 19:00,153.1292,-27.3917,66.20,64.40,93.92,190.00,5.00,0.00,29.91,M,6.21,M,BKN,M,M,M,1400.00,M,M,M,MIFG,YBBN 171900Z 19005KT 9999 MIFG BKN014 19/18 Q1013
YBBN,2013-04-17 19:30,153.1292,-27.3917,64.40,64.40,100.00,200.00,6.00,0.00,29.94,M,6.21,M,BKN,M,M,M,1400.00,M,M,M,M,YBBN 171930Z 20006KT 9999 BKN014 18/18 Q1014
YBBN,2013-04-17 20:00,153.1292,-27.3917,64.40,62.60,93.88,210.00,6.00,0.00,29.94,M,6.21,M,FEW,BKN,M,M,1400.00,24000.00,M,M,M,YBBN 172000Z 21006KT 9999 FEW014 BKN240 18/17 Q1014
YBBN,2013-04-17 20:30,153.1292,-27.3917,64.40,64.40,100.00,200.00,4.00,0.00,29.94,M,6.21,M,FEW,BKN,M,M,1500.00,18000.00,M,M,M,YBBN 172030Z 20004KT 9999 FEW015 BKN180 18/18 Q1014
YBBN,2013-04-17 21:00,153.1292,-27.3917,66.20,64.40,93.92,200.00,2.00,0.00,29.94,M,6.21,M,FEW,BKN,M,M,1500.00,24000.00,M,M,M,YBBN 172100Z 20002KT 9999 FEW015 BKN240 19/18 Q1014
YBBN,2013-04-17 21:30,153.1292,-27.3917,66.20,64.40,93.92,0.00,0.00,0.00,29.94,M,6.21,M,M,M,M,M,M,M,M,M,M,YBBN 172130Z 00000KT CAVOK 19/18 Q1014
YBBN,2013-04-17 22:00,153.1292,-27.3917,68.00,66.20,93.97,260.00,3.00,0.00,29.94,M,6.21,M,M,M,M,M,M,M,M,M,M,YBBN 172200Z 26003KT CAVOK 20/19 Q1014
YBBN,2013-04-17 22:30,153.1292,-27.3917,69.80,64.40,82.98,290.00,3.00,0.00,29.97,M,6.21,M,M,M,M,M,M,M,M,M,M,YBBN 172230Z 29003KT CAVOK 21/18 Q1015
YBBN,2013-04-17 23:00,153.1292,-27.3917,71.60,64.40,78.04,310.00,6.00,0.00,29.97,M,6.21,M,FEW,M,M,M,2500.00,M,M,M,M,YBBN 172300Z 31006KT 9999 FEW025 22/18 Q1015
YBBN,2013-04-17 23:30,153.1292,-27.3917,73.40,66.20,78.19,350.00,7.00,0.00,29.94,M,6.21,M,FEW,M,M,M,1800.00,M,M,M,M,YBBN 172330Z 35007KT 9999 FEW018 23/19 Q1014
