#DEBUG: Format Typ    -> comma
#DEBUG: Time Period   -> 2010-11-18 00:00:00+00:00 2010-11-19 00:00:00+00:00
#DEBUG: Time Zone     -> Etc/UTC
#DEBUG: Data Contact   -> daryl herzmann akrherz@iastate.edu 515-294-5978
#DEBUG: Entries Found -> -1
station,valid,lon,lat,tmpf, dwpf, relh, drct, sknt, p01i, alti, mslp, vsby, gust, skyc1, skyc2, skyc3, skyc4, skyl1, skyl2, skyl3, skyl4, presentwx, metar
YBBN,2010-11-18 13:30,153.1292,-27.3917,66.20,66.20,100.00,230.00,8.00,M,29.94,M,4.97,M,FEW,BKN,BKN,M,400.00,600.00,1000.00,M,-DZ VCSH,YBBN 181330Z 23008KT 8000 -DZ VCSH FEW004 BKN006 BKN010 19/19 Q1014 RMK VIS RED IN SHRA TO E FM1330 23008KT 8000 -RA SCT006 SCT020 BKN040 TEMPO 1330/1630 3000 SHRA SCT006 BKN010
YBBN,2010-11-18 23:46,153.1292,-27.3917,73.40,66.20,78.19,230.00,9.00,M,29.97,M,6.21,M,FEW,BKN,BKN,M,1400.00,2000.00,10000.00,M,M,YBBN 182346Z 23009KT 9999 FEW014 BKN020 BKN100 23/19 Q1015 RMK CLEARING FM2346 18008KT 9999 -SHRA SCT020 BKN050 INTER 2346/0200 3000 SHRA BKN010
