#DEBUG: Format Typ    -> comma
#DEBUG: Time Period   -> 2015-01-18 00:00:00+00:00 2015-01-19 00:00:00+00:00
#DEBUG: Time Zone     -> Etc/UTC
#DEBUG: Data Contact   -> daryl herzmann akrherz@iastate.edu 515-294-5978
#DEBUG: Entries Found -> -1
station,valid,lon,lat,tmpf, dwpf, relh, drct, sknt, p01i, alti, mslp, vsby, gust, skyc1, skyc2, skyc3, skyc4, skyl1, skyl2, skyl3, skyl4, presentwx, metar
YBBN,2015-01-18 00:00,153.1292,-27.3917,89.60,73.40,59.01,180.00,5.00,0.00,29.80,M,6.21,M,FEW,M,M,M,2500.00,M,M,M,M,YBBN 180000Z 18005KT 9999 FEW025 32/23 Q1009
YBBN,2015-01-18 00:30,153.1292,-27.3917,89.60,73.40,59.01,350.00,6.00,0.00,29.77,M,6.21,M,FEW,M,M,M,2500.00,M,M,M,M,YBBN 180030Z 35006KT 9999 FEW025 32/23 Q1008
YBBN,2015-01-18 01:00,153.1292,-27.3917,89.60,75.20,62.68,360.00,5.00,0.00,29.77,M,6.21,M,FEW,M,M,M,2800.00,M,M,M,M,YBBN 180100Z 36005KT 9999 FEW028 32/24 Q1008
YBBN,2015-01-18 01:30,153.1292,-27.3917,91.40,77.00,62.90,30.00,8.00,0.00,29.77,M,6.21,M,FEW,M,M,M,3000.00,M,M,M,M,YBBN 180130Z 03008KT 9999 FEW030 33/25 Q1008
YBBN,2015-01-18 02:00,153.1292,-27.3917,89.60,75.20,62.68,30.00,8.00,0.00,29.77,M,6.21,M,FEW,M,M,M,3500.00,M,M,M,M,YBBN 180200Z 03008KT 9999 FEW035 32/24 Q1008 NOSIG
YBBN,2015-01-18 02:30,153.1292,-27.3917,91.40,75.20,59.24,40.00,10.00,0.00,29.74,M,6.21,M,FEW,M,M,M,4000.00,M,M,M,M,YBBN 180230Z 04010KT 9999 FEW040 33/24 Q1007
YBBN,2015-01-18 03:00,153.1292,-27.3917,91.40,73.40,55.77,30.00,12.00,0.00,29.74,M,6.21,M,FEW,M,M,M,4500.00,M,M,M,M,YBBN 180300Z 03012KT 9999 FEW045 33/23 Q1007 NOSIG
YBBN,2015-01-18 03:30,153.1292,-27.3917,91.40,73.40,55.77,40.00,12.00,0.00,29.74,M,6.21,M,M,M,M,M,M,M,M,M,M,YBBN 180330Z 04012KT CAVOK 33/23 Q1007
YBBN,2015-01-18 04:00,153.1292,-27.3917,93.20,73.40,52.73,50.00,12.00,0.00,29.71,M,6.21,M,M,M,M,M,M,M,M,M,M,YBBN 180400Z 05012KT CAVOK 34/23 Q1006 NOSIG
YBBN,2015-01-18 04:30,153.1292,-27.3917,91.40,71.60,52.48,30.00,13.00,0.00,29.71,M,6.21,M,M,M,M,M,M,M,M,M,M,YBBN 180430Z 03013KT CAVOK 33/22 Q1006
YBBN,2015-01-18 05:00,153.1292,-27.3917,91.40,75.20,59.24,40.00,10.00,0.00,29.71,M,6.21,M,M,M,M,M,M,M,M,M,M,YBBN 180500Z 04010KT CAVOK 33/24 Q1006 NOSIG
YBBN,2015-01-18 05:30,153.1292,-27.3917,89.60,77.00,66.55,40.00,11.00,0.00,29.71,M,6.21,M,M,M,M,M,M,M,M,M,M,YBBN 180530Z 04011KT CAVOK 32/25 Q1006
YBBN,2015-01-18 06:00,153.1292,-27.3917,87.80,77.00,70.45,40.00,11.00,0.00,29.68,M,6.21,M,M,M,M,M,M,M,M,M,M,YBBN 180600Z 04011KT CAVOK 31/25 Q1005 NOSIG
YBBN,2015-01-18 06:30,153.1292,-27.3917,87.80,73.40,62.47,50.00,12.00,0.00,29.71,M,6.21,M,FEW,M,M,M,2500.00,M,M,M,M,YBBN 180630Z 05012KT 9999 FEW025 31/23 Q1006
YBBN,2015-01-18 07:00,153.1292,-27.3917,86.00,78.80,79.18,20.00,12.00,0.00,29.71,M,6.21,M,FEW,M,M,M,1700.00,M,M,M,M,YBBN 180700Z 02012KT 9999 FEW017 30/26 Q1006
YBBN,2015-01-18 07:30,153.1292,-27.3917,84.20,77.00,79.04,20.00,12.00,0.00,29.71,M,6.21,M,FEW,M,M,M,1700.00,M,M,M,M,YBBN 180730Z 02012KT 9999 FEW017 29/25 Q1006
YBBN,2015-01-18 08:00,153.1292,-27.3917,82.40,77.00,83.77,10.00,13.00,0.00,29.71,M,6.21,M,FEW,M,M,M,1700.00,M,M,M,M,YBBN 180800Z 01013KT 9999 FEW017 28/25 Q1006
YBBN,2015-01-18 08:30,153.1292,-27.3917,82.40,78.80,88.90,10.00,12.00,0.00,29.74,M,6.21,M,SCT,M,M,M,1700.00,M,M,M,M,YBBN 180830Z 01012KT 9999 SCT017 28/26 Q1007
YBBN,2015-01-18 09:00,153.1292,-27.3917,82.40,78.80,88.90,10.00,13.00,0.00,29.74,M,6.21,M,FEW,SCT,M,M,900.00,1500.00,M,M,M,YBBN 180900Z 01013KT 9999 FEW009 SCT015 28/26 Q1007
YBBN,2015-01-18 09:30,153.1292,-27.3917,82.40,77.00,83.77,10.00,12.00,0.00,29.74,M,6.21,M,FEW,SCT,M,M,900.00,1300.00,M,M,M,YBBN 180930Z 01012KT 9999 FEW009 SCT013 28/25 Q1007 RMK DISTANT TCU TOP TO SW.
YBBN,2015-01-18 10:00,153.1292,-27.3917,80.60,77.00,88.83,360.00,11.00,0.00,29.74,M,6.21,M,FEW,SCT,M,M,800.00,1200.00,M,M,M,YBBN 181000Z 36011KT 9999 FEW008 SCT012 27/25 Q1007
YBBN,2015-01-18 10:30,153.1292,-27.3917,82.40,77.00,83.77,360.00,11.00,0.00,29.74,M,6.21,M,FEW,SCT,M,M,900.00,1200.00,M,M,M,YBBN 181030Z 36011KT 9999 FEW009 SCT012 28/25 Q1007
YBBN,2015-01-18 11:00,153.1292,-27.3917,82.40,78.80,88.90,360.00,10.00,0.00,29.77,M,6.21,M,FEW,SCT,M,M,900.00,1300.00,M,M,M,YBBN 181100Z 36010KT 9999 FEW009 SCT013 28/26 Q1008
YBBN,2015-01-18 11:30,153.1292,-27.3917,80.60,78.80,94.27,360.00,11.00,0.00,29.77,M,6.21,M,SCT,M,M,M,1000.00,M,M,M,M,YBBN 181130Z 36011KT 9999 SCT010 27/26 Q1008
YBBN,2015-01-18 12:00,153.1292,-27.3917,80.60,78.80,94.27,360.00,11.00,0.00,29.77,M,6.21,M,FEW,SCT,M,M,900.00,1200.00,M,M,M,YBBN 181200Z 36011KT 9999 FEW009 SCT012 27/26 Q1008
YBBN,2015-01-18 12:39,153.1292,-27.3917,82.40,77.00,83.77,360.00,12.00,0.00,29.74,M,6.21,M,BKN,M,M,M,1100.00,M,M,M,M,YBBN 181239Z 36012KT 9999 BKN011 28/25 Q1007
YBBN,2015-01-18 13:00,153.1292,-27.3917,80.60,77.00,88.83,360.00,10.00,0.00,29.74,M,6.21,M,BKN,M,M,M,1100.00,M,M,M,M,YBBN 181300Z 36010KT 9999 BKN011 27/25 Q1007
YBBN,2015-01-18 13:30,153.1292,-27.3917,80.60,77.00,88.83,360.00,9.00,0.00,29.74,M,6.21,M,BKN,M,M,M,1100.00,M,M,M,M,YBBN 181330Z 36009KT 9999 BKN011 27/25 Q1007
YBBN,2015-01-18 14:00,153.1292,-27.3917,80.60,78.80,94.27,10.00,6.00,0.00,29.74,M,6.21,M,BKN,M,M,M,1000.00,M,M,M,M,YBBN 181400Z 01006KT 9999 BKN010 27/26 Q1007
YBBN,2015-01-18 14:30,153.1292,-27.3917,80.60,78.80,94.27,250.00,2.00,0.00,29.74,M,6.21,M,FEW,SCT,M,M,800.00,1300.00,M,M,M,YBBN 181430Z 25002KT 9999 FEW008 SCT013 27/26 Q1007
YBBN,2015-01-18 14:50,153.1292,-27.3917,80.60,77.00,88.83,0.00,0.00,0.00,29.74,M,6.21,M,FEW,SCT,M,M,900.00,1300.00,M,M,M,YBBN 181450Z 00000KT 9999 FEW009 SCT013 27/25 Q1007
YBBN,2015-01-18 15:00,153.1292,-27.3917,80.60,77.00,88.83,0.00,0.00,0.00,29.74,M,6.21,M,SCT,M,M,M,1300.00,M,M,M,M,YBBN 181500Z 00000KT 9999 SCT013 27/25 Q1007
YBBN,2015-01-18 15:30,153.1292,-27.3917,80.60,77.00,88.83,50.00,3.00,0.00,29.71,M,6.21,M,SCT,M,M,M,800.00,M,M,M,M,YBBN 181530Z 05003KT 9999 SCT008 27/25 Q1006
YBBN,2015-01-18 16:00,153.1292,-27.3917,80.60,77.00,88.83,40.00,5.00,0.00,29.71,M,6.21,M,FEW,M,M,M,800.00,M,M,M,M,YBBN 181600Z 04005KT 9999 FEW008 27/25 Q1006
YBBN,2015-01-18 16:30,153.1292,-27.3917,80.60,77.00,88.83,50.00,4.00,0.00,29.71,M,6.21,M,FEW,M,M,M,800.00,M,M,M,M,YBBN 181630Z 05004KT 9999 FEW008 27/25 Q1006
YBBN,2015-01-18 17:00,153.1292,-27.3917,78.80,77.00,94.23,50.00,3.00,0.00,29.71,M,6.21,M,FEW,SCT,M,M,900.00,1300.00,M,M,M,YBBN 181700Z 05003KT 9999 FEW009 SCT013 26/25 Q1006
YBBN,2015-01-18 17:30,153.1292,-27.3917,78.80,77.00,94.23,30.00,4.00,0.00,29.71,M,6.21,M,FEW,M,M,M,1300.00,M,M,M,M,YBBN 181730Z 03004KT 9999 FEW013 26/25 Q1006
YBBN,2015-01-18 18:00,153.1292,-27.3917,78.80,77.00,94.23,30.00,2.00,0.00,29.71,M,6.21,M,FEW,M,M,M,1500.00,M,M,M,M,YBBN 181800Z 03002KT 9999 FEW015 26/25 Q1006
YBBN,2015-01-18 18:30,153.1292,-27.3917,77.00,75.20,94.19,40.00,5.00,0.00,29.71,M,6.21,M,FEW,M,M,M,1500.00,M,M,M,M,YBBN 181830Z 04005KT 9999 FEW015 25/24 Q1006
YBBN,2015-01-18 19:00,153.1292,-27.3917,78.80,75.20,88.75,50.00,5.00,0.00,29.71,M,6.21,M,FEW,M,M,M,1300.00,M,M,M,M,YBBN 181900Z 05005KT 9999 FEW013 26/24 Q1006
YBBN,2015-01-18 19:30,153.1292,-27.3917,77.00,75.20,94.19,280.00,4.00,0.00,29.74,M,6.21,M,FEW,SCT,M,M,1100.00,33000.00,M,M,M,YBBN 181930Z 28004KT 9999 FEW011 SCT330 25/24 Q1007
YBBN,2015-01-18 20:00,153.1292,-27.3917,78.80,75.20,88.75,280.00,3.00,0.00,29.74,M,6.21,M,FEW,SCT,FEW,M,1200.00,33000.00,2000.00,M,VCSH,YBBN 182000Z 28003KT 9999 VCSH FEW012 SCT330 FEW020TCU 26/24 Q1007
YBBN,2015-01-18 20:30,153.1292,-27.3917,78.80,77.00,94.23,300.00,4.00,0.00,29.77,M,6.21,M,FEW,M,M,M,1200.00,M,M,M,VCSH,YBBN 182030Z 30004KT 9999 VCSH FEW012 26/25 Q1008
YBBN,2015-01-18 21:00,153.1292,-27.3917,82.40,77.00,83.77,320.00,3.00,0.00,29.77,M,6.21,M,FEW,SCT,FEW,M,1200.00,2000.00,2000.00,M,M,YBBN 182100Z 32003KT 9999 FEW012 SCT020 FEW020TCU 28/25 Q1008
YBBN,2015-01-18 21:30,153.1292,-27.3917,82.40,77.00,83.77,360.00,7.00,0.00,29.77,M,6.21,M,SCT,SCT,M,M,1200.00,1300.00,M,M,VCSH,YBBN 182130Z 36007KT 9999 VCSH SCT012 SCT013 28/25 Q1008
YBBN,2015-01-18 22:00,153.1292,-27.3917,82.40,75.20,78.90,360.00,7.00,0.00,29.77,M,6.21,M,FEW,SCT,FEW,M,1200.00,1400.00,1400.00,M,VCSH,YBBN 182200Z 36007KT 9999 VCSH FEW012 SCT014 FEW014TCU 28/24 Q1008
YBBN,2015-01-18 22:30,153.1292,-27.3917,82.40,75.20,78.90,20.00,7.00,0.00,29.77,M,6.21,M,FEW,SCT,FEW,M,1200.00,1500.00,1500.00,M,VCSH,YBBN 182230Z 02007KT 9999 VCSH FEW012 SCT015 FEW015TCU 28/24 Q1008
YBBN,2015-01-18 23:00,153.1292,-27.3917,84.20,75.20,74.44,10.00,5.00,0.00,29.77,M,6.21,M,FEW,SCT,M,M,1200.00,1800.00,M,M,-SHRA,YBBN 182300Z 01005KT 9999 -SHRA FEW012 SCT018 29/24 Q1008
YBBN,2015-01-18 23:30,153.1292,-27.3917,82.40,73.40,74.28,50.00,7.00,0.00,29.77,M,6.21,M,SCT,M,M,M,1800.00,M,M,M,M,YBBN 182330Z 05007KT 9999 SCT018 28/23 Q1008
