#DEBUG: Format Typ    -> comma
#DEBUG: Time Period   -> 2011-07-29 00:00:00+00:00 2011-07-30 00:00:00+00:00
#DEBUG: Time Zone     -> Etc/UTC
#DEBUG: Data Contact   -> daryl herzmann akrherz@iastate.edu 515-294-5978
#DEBUG: Entries Found -> -1
station,valid,lon,lat,tmpf, dwpf, relh, drct, sknt, p01i, alti, mslp, vsby, gust, skyc1, skyc2, skyc3, skyc4, skyl1, skyl2, skyl3, skyl4, presentwx, metar
YBBN,2011-07-29 00:00,153.1292,-27.3917,62.60,48.20,59.26,190.00,7.00,M,30.30,M,6.21,M,FEW,SCT,M,M,2800.00,7000.00,M,M,M,YBBN 290000Z 19007KT 9999 FEW028 SCT070 17/09 Q1026 NOSIG
YBBN,2011-07-29 00:30,153.1292,-27.3917,64.40,50.00,59.50,190.00,7.00,M,30.30,M,6.21,M,FEW,M,M,M,3000.00,M,M,M,M,YBBN 290030Z 19007KT 9999 FEW030 18/10 Q1026 NOSIG
YBBN,2011-07-29 01:00,153.1292,-27.3917,66.20,50.00,55.88,150.00,8.00,M,30.27,M,6.21,M,FEW,M,M,M,3000.00,M,M,M,M,YBBN 290100Z 15008KT 9999 FEW030 19/10 Q1025 NOSIG
YBBN,2011-07-29 01:30,153.1292,-27.3917,68.00,51.80,56.13,130.00,11.00,M,30.27,M,6.21,M,SCT,M,M,M,3000.00,M,M,M,M,YBBN 290130Z 13011KT 9999 SCT030 20/11 Q1025 NOSIG
YBBN,2011-07-29 02:00,153.1292,-27.3917,68.00,50.00,52.51,140.00,11.00,M,30.24,M,6.21,M,SCT,M,M,M,3000.00,M,M,M,M,YBBN 290200Z 14011KT 9999 SCT030 20/10 Q1024 NOSIG
YBBN,2011-07-29 02:30,153.1292,-27.3917,68.00,50.00,52.51,120.00,11.00,M,30.24,M,6.21,M,FEW,M,M,M,3500.00,M,M,M,M,YBBN 290230Z 12011KT 9999 FEW035 20/10 Q1024 NOSIG
YBBN,2011-07-29 03:00,153.1292,-27.3917,68.00,50.00,52.51,130.00,9.00,M,30.21,M,6.21,M,FEW,M,M,M,3500.00,M,M,M,M,YBBN 290300Z 13009KT 9999 FEW035 20/10 Q1023 NOSIG
YBBN,2011-07-29 03:30,153.1292,-27.3917,68.00,51.80,56.13,110.00,10.00,M,30.21,M,6.21,M,SCT,M,M,M,3500.00,M,M,M,M,YBBN 290330Z 11010KT 9999 SCT035 20/11 Q1023 NOSIG
YBBN,2011-07-29 04:00,153.1292,-27.3917,64.40,51.80,63.60,120.00,12.00,M,30.21,M,6.21,M,SCT,M,M,M,3500.00,M,M,M,M,YBBN 290400Z 12012KT 9999 SCT035 18/11 Q1023 NOSIG
YBBN,2011-07-29 04:30,153.1292,-27.3917,66.20,50.00,55.88,130.00,10.00,M,30.21,M,6.21,M,FEW,SCT,M,M,3800.00,8000.00,M,M,M,YBBN 290430Z 13010KT 9999 FEW038 SCT080 19/10 Q1023 NOSIG
YBBN,2011-07-29 05:00,153.1292,-27.3917,64.40,48.20,55.63,120.00,8.00,M,30.21,M,6.21,M,FEW,SCT,M,M,3800.00,8000.00,M,M,VCSH,YBBN 290500Z 12008KT 9999 VCSH FEW038 SCT080 18/09 Q1023 NOSIG
YBBN,2011-07-29 05:30,153.1292,-27.3917,66.20,51.80,59.74,110.00,9.00,M,30.21,M,6.21,M,FEW,SCT,M,M,3800.00,8000.00,M,M,M,YBBN 290530Z 11009KT 9999 FEW038 SCT080 19/11 Q1023 NOSIG
YBBN,2011-07-29 06:00,153.1292,-27.3917,66.20,51.80,59.74,120.00,9.00,M,30.21,M,6.21,M,FEW,M,M,M,4000.00,M,M,M,M,YBBN 290600Z 12009KT 9999 FEW040 19/11 Q1023 NOSIG
YBBN,2011-07-29 06:30,153.1292,-27.3917,64.40,51.80,63.60,120.00,9.00,M,30.21,M,6.21,M,FEW,SCT,M,M,4000.00,8000.00,M,M,M,YBBN 290630Z 12009KT 9999 FEW040 SCT080 18/11 Q1023 NOSIG
YBBN,2011-07-29 07:00,153.1292,-27.3917,64.40,51.80,63.60,120.00,8.00,M,30.21,M,6.21,M,FEW,SCT,M,M,4000.00,8000.00,M,M,M,YBBN 290700Z 12008KT 9999 FEW040 SCT080 18/11 Q1023 NOSIG
YBBN,2011-07-29 07:30,153.1292,-27.3917,62.60,51.80,67.75,140.00,6.00,M,30.24,M,6.21,M,FEW,SCT,M,M,3500.00,8000.00,M,M,VCSH,YBBN 290730Z 14006KT 9999 VCSH FEW035 SCT080 17/11 Q1024 NOSIG
YBBN,2011-07-29 08:00,153.1292,-27.3917,62.60,51.80,67.75,150.00,5.00,M,30.24,M,6.21,M,FEW,M,M,M,3500.00,M,M,M,M,YBBN 290800Z 15005KT 9999 FEW035 17/11 Q1024 NOSIG
YBBN,2011-07-29 08:30,153.1292,-27.3917,60.80,51.80,72.20,170.00,5.00,M,30.24,M,6.21,M,FEW,M,M,M,3000.00,M,M,M,M,YBBN 290830Z 17005KT 9999 FEW030 16/11 Q1024 NOSIG
YBBN,2011-07-29 09:00,153.1292,-27.3917,60.80,51.80,72.20,160.00,5.00,M,30.24,M,6.21,M,FEW,M,M,M,3000.00,M,M,M,M,YBBN 290900Z 16005KT 9999 FEW030 16/11 Q1024 NOSIG
YBBN,2011-07-29 09:30,153.1292,-27.3917,60.80,51.80,72.20,140.00,5.00,M,30.24,M,6.21,M,FEW,M,M,M,3000.00,M,M,M,M,YBBN 290930Z 14005KT 9999 FEW030 16/11 Q1024 NOSIG
YBBN,2011-07-29 10:00,153.1292,-27.3917,59.00,51.80,76.98,160.00,5.00,M,30.24,M,6.21,M,FEW,BKN,M,M,3000.00,7600.00,M,M,M,YBBN 291000Z 16005KT 9999 FEW030 BKN076 15/11 Q1024 NOSIG
YBBN,2011-07-29 10:30,153.1292,-27.3917,59.00,51.80,76.98,170.00,6.00,M,30.27,M,6.21,M,FEW,BKN,M,M,3000.00,7600.00,M,M,M,YBBN 291030Z 17006KT 9999 FEW030 BKN076 15/11 Q1025 NOSIG
YBBN,2011-07-29 11:00,153.1292,-27.3917,57.20,50.00,76.82,190.00,4.00,M,30.27,M,6.21,M,M,M,M,M,M,M,M,M,M,YBBN 291100Z 19004KT CAVOK 14/10 Q1025 NOSIG
YBBN,2011-07-29 11:30,153.1292,-27.3917,57.20,51.80,82.12,190.00,4.00,M,30.27,M,6.21,M,M,M,M,M,M,M,M,M,M,YBBN 291130Z 19004KT CAVOK 14/11 Q1025 RMK 6SC074 NOSIG
YBBN,2011-07-29 12:00,153.1292,-27.3917,59.00,51.80,76.98,180.00,4.00,M,30.24,M,6.21,M,FEW,BKN,M,M,4200.00,7400.00,M,M,M,YBBN 291200Z 18004KT 9999 FEW042 BKN074 15/11 Q1024 NOSIG
YBBN,2011-07-29 12:30,153.1292,-27.3917,59.00,51.80,76.98,180.00,5.00,M,30.24,M,6.21,M,M,M,M,M,M,M,M,M,M,YBBN 291230Z 18005KT CAVOK 15/11 Q1024 RMK 6SC074 NOSIG
YBBN,2011-07-29 13:00,153.1292,-27.3917,57.20,51.80,82.12,180.00,5.00,M,30.24,M,6.21,M,FEW,BKN,M,M,4800.00,7200.00,M,M,M,YBBN 291300Z 18005KT 9999 FEW048 BKN072 14/11 Q1024 NOSIG
YBBN,2011-07-29 13:30,153.1292,-27.3917,57.20,51.80,82.12,180.00,6.00,M,30.24,M,6.21,M,M,M,M,M,M,M,M,M,M,YBBN 291330Z 18006KT CAVOK 14/11 Q1024 NOSIG
YBBN,2011-07-29 14:00,153.1292,-27.3917,57.20,50.00,76.82,180.00,5.00,M,30.24,M,6.21,M,M,M,M,M,M,M,M,M,M,YBBN 291400Z 18005KT CAVOK 14/10 Q1024 NOSIG
YBBN,2011-07-29 14:30,153.1292,-27.3917,57.20,50.00,76.82,190.00,5.00,M,30.21,M,6.21,M,FEW,M,M,M,3400.00,M,M,M,M,YBBN 291430Z 19005KT 9999 FEW034 14/10 Q1023 NOSIG
YBBN,2011-07-29 15:00,153.1292,-27.3917,53.60,50.00,87.56,210.00,6.00,M,30.21,M,6.21,M,FEW,SCT,M,M,3400.00,4900.00,M,M,M,YBBN 291500Z 21006KT 9999 FEW034 SCT049 12/10 Q1023 NOSIG
YBBN,2011-07-29 15:30,153.1292,-27.3917,51.80,48.20,87.47,210.00,6.00,M,30.21,M,6.21,M,FEW,M,M,M,3000.00,M,M,M,M,YBBN 291530Z 21006KT 9999 FEW030 11/09 Q1023 NOSIG
YBBN,2011-07-29 16:00,153.1292,-27.3917,53.60,50.00,87.56,220.00,7.00,M,30.21,M,6.21,M,FEW,M,M,M,3000.00,M,M,M,M,YBBN 291600Z 22007KT 9999 FEW030 12/10 Q1023 NOSIG
YBBN,2011-07-29 16:30,153.1292,-27.3917,53.60,50.00,87.56,220.00,7.00,M,30.21,M,6.21,M,SCT,BKN,M,M,4300.00,5600.00,M,M,M,YBBN 291630Z 22007KT 9999 SCT043 BKN056 12/10 Q1023 NOSIG
YBBN,2011-07-29 17:00,153.1292,-27.3917,51.80,48.20,87.47,220.00,7.00,M,30.21,M,6.21,M,FEW,BKN,M,M,4300.00,5500.00,M,M,M,YBBN 291700Z 22007KT 9999 FEW043 BKN055 11/09 Q1023 NOSIG
YBBN,2011-07-29 17:30,153.1292,-27.3917,50.00,48.20,93.50,220.00,7.00,M,30.21,M,6.21,M,FEW,M,M,M,4300.00,M,M,M,M,YBBN 291730Z 22007KT 9999 FEW043 10/09 Q1023 NOSIG
YBBN,2011-07-29 18:00,153.1292,-27.3917,51.80,48.20,87.47,220.00,8.00,M,30.21,M,6.21,M,FEW,M,M,M,4300.00,M,M,M,M,YBBN 291800Z 22008KT 9999 FEW043 11/09 Q1023 NOSIG
YBBN,2011-07-29 18:30,153.1292,-27.3917,51.80,48.20,87.47,210.00,8.00,M,30.21,M,6.21,M,FEW,M,M,M,4300.00,M,M,M,M,YBBN 291830Z 21008KT 9999 FEW043 11/09 Q1023 NOSIG
YBBN,2011-07-29 19:00,153.1292,-27.3917,50.00,48.20,93.50,210.00,8.00,M,30.21,M,6.21,M,FEW,M,M,M,4300.00,M,M,M,M,YBBN 291900Z 21008KT 9999 FEW043 10/09 Q1023 NOSIG
YBBN,2011-07-29 19:30,153.1292,-27.3917,50.00,46.40,87.37,210.00,8.00,M,30.21,M,6.21,M,FEW,M,M,M,4300.00,M,M,M,M,YBBN 291930Z 21008KT 9999 FEW043 10/08 Q1023 NOSIG
YBBN,2011-07-29 20:00,153.1292,-27.3917,51.80,48.20,87.47,200.00,8.00,M,30.21,M,6.21,M,FEW,M,M,M,4300.00,M,M,M,M,YBBN 292000Z 20008KT 9999 FEW043 11/09 Q1023 NOSIG
YBBN,2011-07-29 20:30,153.1292,-27.3917,51.80,48.20,87.47,210.00,6.00,M,30.24,M,6.21,M,FEW,M,M,M,3000.00,M,M,M,M,YBBN 292030Z 21006KT 9999 FEW030 11/09 Q1024 NOSIG
YBBN,2011-07-29 21:00,153.1292,-27.3917,51.80,48.20,87.47,200.00,6.00,M,30.24,M,6.21,M,FEW,M,M,M,4000.00,M,M,M,M,YBBN 292100Z 20006KT 9999 FEW040 11/09 Q1024 NOSIG
YBBN,2011-07-29 21:30,153.1292,-27.3917,53.60,48.20,81.87,200.00,8.00,M,30.24,M,6.21,M,FEW,M,M,M,4000.00,M,M,M,M,YBBN 292130Z 20008KT 9999 FEW040 12/09 Q1024 NOSIG
YBBN,2011-07-29 22:00,153.1292,-27.3917,55.40,50.00,81.99,200.00,7.00,M,30.24,M,6.21,M,FEW,M,M,M,4000.00,M,M,M,M,YBBN 292200Z 20007KT 9999 FEW040 13/10 Q1024 NOSIG
YBBN,2011-07-29 22:30,153.1292,-27.3917,59.00,48.20,67.33,200.00,7.00,M,30.24,M,6.21,M,FEW,M,M,M,3000.00,M,M,M,M,YBBN 292230Z 20007KT 9999 FEW030 15/09 Q1024 NOSIG
YBBN,2011-07-29 23:00,153.1292,-27.3917,62.60,50.00,63.38,200.00,6.00,M,30.24,M,6.21,M,FEW,M,M,M,3800.00,M,M,M,M,YBBN 292300Z 20006KT 9999 FEW038 17/10 Q1024 NOSIG
YBBN,2011-07-29 23:30,153.1292,-27.3917,64.40,50.00,59.50,170.00,8.00,M,30.24,M,6.21,M,FEW,M,M,M,3800.00,M,M,M,M,YBBN 292330Z 17008KT 9999 FEW038 18/10 Q1024 NOSIG
