#DEBUG: Format Typ    -> comma
#DEBUG: Time Period   -> 2015-03-31 00:00:00+00:00 2015-04-01 00:00:00+00:00
#DEBUG: Time Zone     -> Etc/UTC
#DEBUG: Data Contact   -> daryl herzmann akrherz@iastate.edu 515-294-5978
#DEBUG: Entries Found -> -1
station,valid,lon,lat,tmpf, dwpf, relh, drct, sknt, p01i, alti, mslp, vsby, gust, skyc1, skyc2, skyc3, skyc4, skyl1, skyl2, skyl3, skyl4, presentwx, metar
YBBN,2015-03-31 00:00,153.1292,-27.3917,73.40,66.20,78.19,160.00,4.00,0.00,30.21,M,6.21,M,FEW,SCT,BKN,M,3000.00,12000.00,22000.00,M,-SHRA,YBBN 310000Z 16004KT 9999 -SHRA FEW030 SCT120 BKN220 23/19 Q1023
YBBN,2015-03-31 00:30,153.1292,-27.3917,73.40,66.20,78.19,150.00,5.00,0.00,30.18,M,6.21,M,FEW,SCT,BKN,M,2500.00,12000.00,22000.00,M,-SHRA,YBBN 310030Z 15005KT 9999 -SHRA FEW025 SCT120 BKN220 23/19 Q1022
YBBN,2015-03-31 01:00,153.1292,-27.3917,73.40,66.20,78.19,140.00,4.00,0.00,30.18,M,6.21,M,FEW,SCT,BKN,M,2500.00,6000.00,12000.00,M,-SHRA,YBBN 310100Z 14004KT 9999 -SHRA FEW025 SCT060 BKN120 23/19 Q1022
YBBN,2015-03-31 01:30,153.1292,-27.3917,73.40,68.00,83.21,180.00,5.00,0.00,30.18,M,6.21,M,SCT,SCT,BKN,M,2500.00,6000.00,12000.00,M,-SHRA,YBBN 310130Z 18005KT 9999 -SHRA SCT025 SCT060 BKN120 23/20 Q1022
YBBN,2015-03-31 02:00,153.1292,-27.3917,73.40,66.20,78.19,160.00,5.00,0.00,30.18,M,6.21,M,SCT,SCT,BKN,M,2100.00,6000.00,12000.00,M,-SHRA,YBBN 310200Z 16005KT 9999 -SHRA SCT021 SCT060 BKN120 23/19 Q1022
YBBN,2015-03-31 02:30,153.1292,-27.3917,75.20,66.20,73.61,100.00,7.00,0.00,30.15,M,6.21,M,FEW,SCT,BKN,M,2200.00,6000.00,12000.00,M,-SHRA,YBBN 310230Z 10007KT 9999 -SHRA FEW022 SCT060 BKN120 24/19 Q1021
YBBN,2015-03-31 03:00,153.1292,-27.3917,75.20,62.60,64.91,90.00,7.00,0.00,30.15,M,6.21,M,FEW,SCT,BKN,M,2200.00,6000.00,12000.00,M,VCSH,YBBN 310300Z 09007KT 9999 VCSH FEW022 SCT060 BKN120 24/17 Q1021
YBBN,2015-03-31 03:30,153.1292,-27.3917,75.20,60.80,60.90,80.00,7.00,0.00,30.15,M,6.21,M,FEW,SCT,BKN,M,2500.00,7500.00,12000.00,M,VCSH,YBBN 310330Z 08007KT 9999 VCSH FEW025 SCT075 BKN120 24/16 Q1021
YBBN,2015-03-31 04:00,153.1292,-27.3917,75.20,62.60,64.91,90.00,7.00,0.00,30.12,M,6.21,M,FEW,SCT,BKN,M,2500.00,6000.00,12000.00,M,VCSH,YBBN 310400Z 09007KT 9999 VCSH FEW025 SCT060 BKN120 24/17 Q1020
YBBN,2015-03-31 04:30,153.1292,-27.3917,77.00,62.60,61.13,90.00,6.00,0.00,30.12,M,6.21,M,SCT,SCT,BKN,M,3000.00,7500.00,12000.00,M,-SHRA,YBBN 310430Z 09006KT 9999 -SHRA SCT030 SCT075 BKN120 25/17 Q1020
YBBN,2015-03-31 05:00,153.1292,-27.3917,75.20,60.80,60.90,90.00,6.00,0.00,30.12,M,6.21,M,FEW,SCT,BKN,M,3000.00,7500.00,12000.00,M,M,YBBN 310500Z 09006KT 9999 FEW030 SCT075 BKN120 24/16 Q1020
YBBN,2015-03-31 05:30,153.1292,-27.3917,75.20,60.80,60.90,90.00,7.00,0.00,30.12,M,6.21,M,FEW,SCT,BKN,M,3000.00,7500.00,13000.00,M,M,YBBN 310530Z 09007KT 9999 FEW030 SCT075 BKN130 24/16 Q1020
YBBN,2015-03-31 06:00,153.1292,-27.3917,73.40,64.40,73.44,120.00,9.00,0.00,30.12,M,6.21,M,FEW,SCT,BKN,M,3000.00,7500.00,13000.00,M,M,YBBN 310600Z 12009KT 9999 FEW030 SCT075 BKN130 23/18 Q1020
YBBN,2015-03-31 06:30,153.1292,-27.3917,73.40,64.40,73.44,120.00,4.00,0.00,30.12,M,6.21,M,SCT,SCT,BKN,M,3000.00,7500.00,13000.00,M,M,YBBN 310630Z 12004KT 9999 SCT030 SCT075 BKN130 23/18 Q1020
YBBN,2015-03-31 07:00,153.1292,-27.3917,71.60,66.20,83.09,140.00,8.00,0.00,30.12,M,6.21,M,FEW,SCT,BKN,M,1500.00,2500.00,12000.00,M,-SHRA,YBBN 310700Z 14008KT 9999 -SHRA FEW015 SCT025 BKN120 22/19 Q1020
YBBN,2015-03-31 07:30,153.1292,-27.3917,69.80,66.20,88.34,130.00,6.00,0.00,30.12,M,5.59,M,FEW,SCT,BKN,M,1500.00,2500.00,7000.00,M,-SHRA,YBBN 310730Z 13006KT 9000 5000N -SHRA FEW015 SCT025 BKN070 21/19 Q1020
YBBN,2015-03-31 08:00,153.1292,-27.3917,69.80,66.20,88.34,150.00,4.00,0.00,30.12,M,6.21,M,SCT,BKN,BKN,M,2500.00,7000.00,13000.00,M,-SHRA,YBBN 310800Z 15004KT 9999 -SHRA SCT025 BKN070 BKN130 21/19 Q1020
YBBN,2015-03-31 08:30,153.1292,-27.3917,71.60,66.20,83.09,150.00,5.00,0.00,30.15,M,6.21,M,FEW,SCT,BKN,M,1200.00,3200.00,10500.00,M,-SHRA,YBBN 310830Z 15005KT 9999 -SHRA FEW012 SCT032 BKN105 22/19 Q1021 RMK -SHRA NORTH
YBBN,2015-03-31 09:00,153.1292,-27.3917,69.80,66.20,88.34,170.00,4.00,0.00,30.15,M,6.21,M,FEW,SCT,BKN,M,1200.00,10000.00,15000.00,M,-SHRA,YBBN 310900Z 17004KT 9999 -SHRA FEW012 SCT100 BKN150 21/19 Q1021
YBBN,2015-03-31 09:30,153.1292,-27.3917,69.80,66.20,88.34,180.00,6.00,0.00,30.15,M,6.21,M,FEW,SCT,BKN,M,1200.00,3200.00,26000.00,M,-SHRA,YBBN 310930Z 18006KT 9999 -SHRA FEW012 SCT032 BKN260 21/19 Q1021
YBBN,2015-03-31 10:00,153.1292,-27.3917,71.60,66.20,83.09,160.00,5.00,0.00,30.18,M,3.73,M,FEW,SCT,BKN,M,1000.00,1700.00,3200.00,M,SHRA,YBBN 311000Z 16005KT 6000 SHRA FEW010 SCT017 BKN032 22/19 Q1022
YBBN,2015-03-31 10:15,153.1292,-27.3917,69.80,66.20,88.34,140.00,8.00,0.00,30.18,M,1.86,M,FEW,SCT,BKN,M,700.00,1300.00,2800.00,M,+SHRA,YBBN 311015Z 14008KT 3000 +SHRA FEW007 SCT013 BKN028 21/19 Q1022
YBBN,2015-03-31 10:30,153.1292,-27.3917,68.00,66.20,93.97,150.00,9.00,0.00,30.18,M,3.73,M,FEW,SCT,BKN,M,600.00,1200.00,2900.00,M,-SHRA,YBBN 311030Z 15009KT 6000 -SHRA FEW006 SCT012 BKN029 20/19 Q1022 RESHRA
YBBN,2015-03-31 11:00,153.1292,-27.3917,68.00,66.20,93.97,130.00,6.00,0.00,30.18,M,4.97,M,FEW,SCT,BKN,M,700.00,1800.00,5800.00,M,-SHRA,YBBN 311100Z 13006KT 8000 -SHRA FEW007 SCT018 BKN058 20/19 Q1022
YBBN,2015-03-31 11:30,153.1292,-27.3917,68.00,66.20,93.97,170.00,6.00,0.00,30.15,M,6.21,M,FEW,SCT,BKN,FEW,800.00,3800.00,8000.00,2000.00,-SHRA,YBBN 311130Z 17006KT 9999 -SHRA FEW008 SCT038 BKN080 FEW020TCU 20/19 Q1021
YBBN,2015-03-31 12:00,153.1292,-27.3917,69.80,66.20,88.34,180.00,6.00,0.00,30.15,M,6.21,M,FEW,SCT,BKN,FEW,1200.00,4000.00,12000.00,2000.00,-SHRA,YBBN 311200Z 18006KT 9999 -SHRA FEW012 SCT040 BKN120 FEW020TCU 21/19 Q1021 RMK +SHRA APR FM EAST
YBBN,2015-03-31 12:30,153.1292,-27.3917,69.80,66.20,88.34,190.00,7.00,0.00,30.15,M,6.21,M,FEW,SCT,BKN,FEW,1400.00,2800.00,6800.00,2000.00,-SHRA,YBBN 311230Z 19007KT 9999 -SHRA FEW014 SCT028 BKN068 FEW020TCU 21/19 Q1021
YBBN,2015-03-31 13:00,153.1292,-27.3917,68.00,66.20,93.97,190.00,8.00,0.00,30.15,M,3.73,M,FEW,SCT,BKN,FEW,900.00,1500.00,3800.00,1900.00,SHRA,YBBN 311300Z 19008KT 6000 SHRA FEW009 SCT015 BKN038 FEW019TCU 20/19 Q1021
YBBN,2015-03-31 13:30,153.1292,-27.3917,68.00,66.20,93.97,190.00,6.00,0.00,30.15,M,3.73,M,FEW,SCT,BKN,FEW,800.00,2200.00,3800.00,2300.00,SHRA,YBBN 311330Z 19006KT 6000 SHRA FEW008 SCT022 BKN038 FEW023TCU 20/19 Q1021
YBBN,2015-03-31 13:52,153.1292,-27.3917,68.00,66.20,93.97,170.00,5.00,0.00,30.15,M,2.49,M,FEW,SCT,BKN,FEW,800.00,1400.00,3800.00,2300.00,SHRA,YBBN 311352Z 17005KT 4000 SHRA FEW008 SCT014 BKN038 FEW023CB 20/19 Q1021
YBBN,2015-03-31 14:00,153.1292,-27.3917,68.00,66.20,93.97,170.00,6.00,0.00,30.15,M,1.86,M,FEW,SCT,BKN,FEW,500.00,1200.00,2600.00,2300.00,SHRA,YBBN 311400Z 17006KT 3000 SHRA FEW005 SCT012 BKN026 FEW023CB 20/19 Q1021
YBBN,2015-03-31 14:21,153.1292,-27.3917,68.00,66.20,93.97,180.00,7.00,0.00,30.15,M,2.49,M,SCT,BKN,FEW,M,500.00,1000.00,2200.00,M,SHRA,YBBN 311421Z 18007KT 4000 SHRA SCT005 BKN010 FEW022CB 20/19 Q1021
YBBN,2015-03-31 14:30,153.1292,-27.3917,68.00,66.20,93.97,170.00,7.00,0.00,30.15,M,2.80,M,FEW,BKN,FEW,M,500.00,900.00,2200.00,M,SHRA,YBBN 311430Z 17007KT 4500 SHRA FEW005 BKN009 FEW022CB 20/19 Q1021
YBBN,2015-03-31 14:44,153.1292,-27.3917,68.00,66.20,93.97,170.00,7.00,0.00,30.12,M,3.73,M,FEW,BKN,M,M,500.00,800.00,M,M,SHRA,YBBN 311444Z 17007KT 6000 SHRA FEW005 BKN008 20/19 Q1020
YBBN,2015-03-31 15:00,153.1292,-27.3917,68.00,66.20,93.97,190.00,7.00,0.00,30.12,M,3.73,M,FEW,SCT,BKN,FEW,500.00,800.00,2900.00,2200.00,SHRA,YBBN 311500Z 19007KT 6000 SHRA FEW005 SCT008 BKN029 FEW022CB 20/19 Q1020
YBBN,2015-03-31 15:17,153.1292,-27.3917,68.00,66.20,93.97,180.00,6.00,0.00,30.12,M,3.11,M,FEW,BKN,FEW,M,500.00,900.00,2200.00,M,SHRA,YBBN 311517Z 18006KT 5000 SHRA FEW005 BKN009 FEW022CB 20/19 Q1020
YBBN,2015-03-31 15:30,153.1292,-27.3917,68.00,66.20,93.97,200.00,6.00,0.00,30.12,M,3.73,M,FEW,SCT,FEW,M,500.00,900.00,2000.00,M,RA,YBBN 311530Z 20006KT 6000 RA FEW005 SCT009 FEW020CB 20/19 Q1020
YBBN,2015-03-31 15:40,153.1292,-27.3917,68.00,66.20,93.97,190.00,6.00,0.00,30.12,M,1.86,M,FEW,BKN,FEW,M,200.00,700.00,2000.00,M,+RA,YBBN 311540Z 19006KT 3000 +RA FEW002 BKN007 FEW020CB 20/19 Q1020
YBBN,2015-03-31 16:00,153.1292,-27.3917,68.00,66.20,93.97,170.00,5.00,0.00,30.12,M,1.55,M,SCT,BKN,FEW,M,200.00,800.00,1800.00,M,+RA,YBBN 311600Z 17005KT 2500 +RA SCT002 BKN008 FEW018CB 20/19 Q1020
YBBN,2015-03-31 16:30,153.1292,-27.3917,68.00,68.00,100.00,240.00,8.00,0.00,30.09,M,2.49,M,SCT,BKN,M,M,300.00,800.00,M,M,RA,YBBN 311630Z 24008KT 4000 RA SCT003 BKN008 20/20 Q1019
YBBN,2015-03-31 17:00,153.1292,-27.3917,66.20,66.20,100.00,200.00,9.00,0.00,30.09,M,3.73,M,FEW,BKN,M,M,300.00,1000.00,M,M,RA,YBBN 311700Z 20009KT 6000 RA FEW003 BKN010 19/19 Q1019
YBBN,2015-03-31 17:15,153.1292,-27.3917,66.20,66.20,100.00,180.00,6.00,0.00,30.09,M,3.73,M,FEW,BKN,M,M,300.00,1300.00,M,M,RA,YBBN 311715Z 18006KT 6000 RA FEW003 BKN013 19/19 Q1019
YBBN,2015-03-31 17:30,153.1292,-27.3917,66.20,66.20,100.00,160.00,7.00,0.00,30.09,M,3.11,M,FEW,BKN,FEW,M,300.00,900.00,1800.00,M,RA,YBBN 311730Z 16007KT 5000 RA FEW003 BKN009 FEW018CB 19/19 Q1019
YBBN,2015-03-31 17:53,153.1292,-27.3917,66.20,66.20,100.00,170.00,7.00,0.00,30.09,M,1.55,M,FEW,SCT,BKN,FEW,200.00,900.00,2800.00,1800.00,+SHRA,YBBN 311753Z 17007KT 2500 +SHRA FEW002 SCT009 BKN028 FEW018CB 19/19 Q1019
YBBN,2015-03-31 18:00,153.1292,-27.3917,66.20,66.20,100.00,160.00,6.00,0.00,30.09,M,0.93,M,FEW,BKN,BKN,FEW,200.00,800.00,2800.00,1800.00,+SHRA,YBBN 311800Z 16006KT 1500 +SHRA FEW002 BKN008 BKN028 FEW018CB 19/19 Q1019
YBBN,2015-03-31 18:14,153.1292,-27.3917,68.00,66.20,93.97,50.00,5.00,0.00,30.09,M,1.55,M,FEW,BKN,FEW,M,200.00,700.00,1800.00,M,+SHRA,YBBN 311814Z 05005KT 2500 +SHRA FEW002 BKN007 FEW018CB 20/19 Q1019
YBBN,2015-03-31 18:30,153.1292,-27.3917,68.00,66.20,93.97,90.00,5.00,0.00,30.12,M,1.86,M,FEW,SCT,BKN,FEW,200.00,700.00,2400.00,1800.00,+SHRA,YBBN 311830Z 09005KT 3000 +SHRA FEW002 SCT007 BKN024 FEW018CB 20/19 Q1020
YBBN,2015-03-31 18:45,153.1292,-27.3917,66.20,66.20,100.00,160.00,3.00,0.00,30.12,M,2.49,M,FEW,SCT,BKN,FEW,200.00,1100.00,2600.00,1800.00,SHRA,YBBN 311845Z 16003KT 4000 SHRA FEW002 SCT011 BKN026 FEW018CB 19/19 Q1020
YBBN,2015-03-31 19:00,153.1292,-27.3917,68.00,66.20,93.97,190.00,5.00,0.00,30.12,M,2.49,M,FEW,SCT,BKN,FEW,200.00,1400.00,2900.00,1800.00,RA,YBBN 311900Z 19005KT 4000 RA FEW002 SCT014 BKN029 FEW018CB 20/19 Q1020
YBBN,2015-03-31 19:30,153.1292,-27.3917,68.00,66.20,93.97,210.00,7.00,0.00,30.12,M,2.49,M,FEW,BKN,FEW,M,200.00,700.00,1700.00,M,RA,YBBN 311930Z 21007KT 4000 RA FEW002 BKN007 FEW017CB 20/19 Q1020
YBBN,2015-03-31 19:44,153.1292,-27.3917,68.00,66.20,93.97,180.00,7.00,0.00,30.12,M,1.24,M,FEW,SCT,BKN,FEW,200.00,700.00,2200.00,1700.00,+RA,YBBN 311944Z 18007KT 2000 +RA FEW002 SCT007 BKN022 FEW017CB 20/19 Q1020
YBBN,2015-03-31 20:00,153.1292,-27.3917,68.00,66.20,93.97,170.00,5.00,0.00,30.15,M,1.12,M,FEW,SCT,BKN,FEW,200.00,700.00,2200.00,1700.00,+RA,YBBN 312000Z 17005KT 1800 +RA FEW002 SCT007 BKN022 FEW017CB 20/19 Q1021
YBBN,2015-03-31 20:30,153.1292,-27.3917,66.20,66.20,100.00,230.00,8.00,0.00,30.15,M,1.12,M,SCT,BKN,FEW,M,1000.00,1400.00,1700.00,M,RA,YBBN 312030Z 23008KT 1800 RA SCT010 BKN014 FEW017CB 19/19 Q1021 RERA
YBBN,2015-03-31 21:00,153.1292,-27.3917,68.00,66.20,93.97,250.00,12.00,0.00,30.15,M,0.56,M,SCT,BKN,BKN,FEW,300.00,600.00,1200.00,1700.00,+RA,YBBN 312100Z 25012KT 0900 +RA SCT003 BKN006 BKN012 FEW017CB 20/19 Q1021
YBBN,2015-03-31 21:14,153.1292,-27.3917,66.20,66.20,100.00,250.00,7.00,0.00,30.15,M,3.73,M,BKN,OVC,FEW,M,400.00,1200.00,1700.00,M,-RA,YBBN 312114Z 25007KT 6000 -RA BKN004 OVC012 FEW017CB 19/19 Q1021 RERA
YBBN,2015-03-31 21:30,153.1292,-27.3917,68.00,66.20,93.97,150.00,3.00,0.00,30.18,M,6.21,M,BKN,BKN,BKN,M,600.00,1200.00,1700.00,M,-RA,YBBN 312130Z 15003KT 9999 -RA BKN006 BKN012 BKN017 20/19 Q1022 RERA
YBBN,2015-03-31 22:00,153.1292,-27.3917,68.00,66.20,93.97,170.00,7.00,0.00,30.18,M,6.21,M,FEW,SCT,BKN,M,900.00,4600.00,6200.00,M,-RA,YBBN 312200Z 17007KT 9999 -RA FEW009 SCT046 BKN062 20/19 Q1022
YBBN,2015-03-31 22:30,153.1292,-27.3917,68.00,66.20,93.97,190.00,8.00,0.00,30.18,M,6.21,M,FEW,SCT,BKN,M,1000.00,2000.00,11500.00,M,VCSH,YBBN 312230Z 19008KT 9999 VCSH FEW010 SCT020 BKN115 20/19 Q1022
YBBN,2015-03-31 23:00,153.1292,-27.3917,68.00,66.20,93.97,200.00,8.00,0.00,30.21,M,6.21,M,FEW,BKN,BKN,M,1000.00,5300.00,10000.00,M,-RA,YBBN 312300Z 20008KT 9999 -RA FEW010 BKN053 BKN100 20/19 Q1023
YBBN,2015-03-31 23:30,153.1292,-27.3917,68.00,66.20,93.97,200.00,9.00,0.00,30.18,M,6.21,M,FEW,SCT,BKN,M,1000.00,4600.00,5900.00,M,-RA,YBBN 312330Z 20009KT 9999 -RA FEW010 SCT046 BKN059 20/19 Q1022
