#DEBUG: Format Typ    -> comma
#DEBUG: Time Period   -> 2012-05-24 00:00:00+00:00 2012-05-25 00:00:00+00:00
#DEBUG: Time Zone     -> Etc/UTC
#DEBUG: Data Contact   -> daryl herzmann akrherz@iastate.edu 515-294-5978
#DEBUG: Entries Found -> -1
station,valid,lon,lat,tmpf, dwpf, relh, drct, sknt, p01i, alti, mslp, vsby, gust, skyc1, skyc2, skyc3, skyc4, skyl1, skyl2, skyl3, skyl4, presentwx, metar
YBBN,2012-05-24 00:00,153.1292,-27.3917,73.40,60.80,64.69,60.00,6.00,0.00,30.21,M,6.21,M,FEW,BKN,M,M,3000.00,28000.00,M,M,M,YBBN 240000Z 06006KT 9999 FEW030 BKN280 23/16 Q1023 NOSIG
YBBN,2012-05-24 00:30,153.1292,-27.3917,75.20,60.80,60.90,40.00,7.00,0.00,30.18,M,6.21,M,FEW,BKN,M,M,3500.00,28000.00,M,M,M,YBBN 240030Z 04007KT 9999 FEW035 BKN280 24/16 Q1022
YBBN,2012-05-24 01:00,153.1292,-27.3917,73.40,62.60,68.94,30.00,8.00,0.00,30.18,M,6.21,M,SCT,BKN,M,M,3500.00,28000.00,M,M,M,YBBN 240100Z 03008KT 9999 SCT035 BKN280 23/17 Q1022
YBBN,2012-05-24 01:30,153.1292,-27.3917,73.40,59.00,60.67,40.00,11.00,0.00,30.18,M,6.21,M,FEW,BKN,M,M,3500.00,28000.00,M,M,M,YBBN 240130Z 04011KT 9999 FEW035 BKN280 23/15 Q1022
YBBN,2012-05-24 02:00,153.1292,-27.3917,73.40,57.20,56.88,40.00,9.00,0.00,30.18,M,6.21,M,FEW,BKN,M,M,3800.00,28000.00,M,M,M,YBBN 240200Z 04009KT 9999 FEW038 BKN280 23/14 Q1022
YBBN,2012-05-24 02:30,153.1292,-27.3917,75.20,60.80,60.90,40.00,10.00,0.00,30.15,M,6.21,M,FEW,SCT,BKN,M,3800.00,5600.00,28000.00,M,M,YBBN 240230Z 04010KT 9999 FEW038 SCT056 BKN280 24/16 Q1021
YBBN,2012-05-24 03:00,153.1292,-27.3917,73.40,59.00,60.67,30.00,9.00,0.00,30.15,M,6.21,M,SCT,BKN,M,M,3500.00,5100.00,M,M,VCSH,YBBN 240300Z 03009KT 9999 VCSH SCT035 BKN051 23/15 Q1021 NOSIG
YBBN,2012-05-24 03:17,153.1292,-27.3917,68.00,60.80,77.75,50.00,13.00,0.00,30.15,M,5.59,M,FEW,BKN,M,M,2500.00,4900.00,M,M,-SHRA,YBBN 240317Z 05013KT 9000 6000S -SHRA FEW025 BKN049 20/16 Q1021
YBBN,2012-05-24 03:30,153.1292,-27.3917,68.00,60.80,77.75,360.00,7.00,0.00,30.15,M,0.93,M,SCT,BKN,M,M,3500.00,4500.00,M,M,VCSH,YBBN 240330Z 36007KT 1500 7000SE VCSH SCT035 BKN045 20/16 Q1021
YBBN,2012-05-24 03:44,153.1292,-27.3917,69.80,64.40,82.98,10.00,4.00,0.00,30.12,M,6.21,M,FEW,BKN,M,M,3500.00,4500.00,M,M,M,YBBN 240344Z 01004KT 9999 FEW035 BKN045 21/18 Q1020
YBBN,2012-05-24 04:00,153.1292,-27.3917,69.80,60.80,73.09,40.00,6.00,0.00,30.15,M,6.21,M,FEW,BKN,M,M,3500.00,5200.00,M,M,M,YBBN 240400Z 04006KT 9999 FEW035 BKN052 21/16 Q1021
YBBN,2012-05-24 04:30,153.1292,-27.3917,73.40,62.60,68.94,30.00,9.00,0.00,30.12,M,6.21,M,FEW,SCT,BKN,M,3500.00,5400.00,30000.00,M,M,YBBN 240430Z 03009KT 9999 FEW035 SCT054 BKN300 23/17 Q1020
YBBN,2012-05-24 05:00,153.1292,-27.3917,71.60,60.80,68.75,360.00,7.00,0.00,30.12,M,6.21,M,FEW,SCT,BKN,M,3500.00,14000.00,30000.00,M,M,YBBN 240500Z 36007KT 9999 FEW035 SCT140 BKN300 22/16 Q1020 NOSIG
YBBN,2012-05-24 05:30,153.1292,-27.3917,71.60,62.60,73.27,30.00,7.00,0.00,30.12,M,6.21,M,FEW,BKN,M,M,3500.00,26000.00,M,M,M,YBBN 240530Z 03007KT 9999 FEW035 BKN260 22/17 Q1020
YBBN,2012-05-24 06:00,153.1292,-27.3917,71.60,62.60,73.27,40.00,7.00,0.00,30.12,M,6.21,M,FEW,BKN,M,M,3500.00,27000.00,M,M,M,YBBN 240600Z 04007KT 9999 FEW035 BKN270 22/17 Q1020
YBBN,2012-05-24 06:30,153.1292,-27.3917,69.80,60.80,73.09,50.00,6.00,0.00,30.12,M,6.21,M,FEW,BKN,M,M,3500.00,26000.00,M,M,M,YBBN 240630Z 05006KT 9999 FEW035 BKN260 21/16 Q1020
YBBN,2012-05-24 07:00,153.1292,-27.3917,69.80,60.80,73.09,60.00,6.00,0.00,30.12,M,6.21,M,FEW,BKN,M,M,3500.00,25000.00,M,M,M,YBBN 240700Z 06006KT 9999 FEW035 BKN250 21/16 Q1020
YBBN,2012-05-24 07:30,153.1292,-27.3917,69.80,60.80,73.09,50.00,7.00,0.00,30.12,M,6.21,M,FEW,BKN,M,M,3500.00,20000.00,M,M,M,YBBN 240730Z 05007KT 9999 FEW035 BKN200 21/16 Q1020
YBBN,2012-05-24 08:00,153.1292,-27.3917,69.80,62.60,77.90,50.00,8.00,0.00,30.12,M,6.21,M,M,M,M,M,M,M,M,M,M,YBBN 240800Z 05008KT CAVOK 21/17 Q1020
YBBN,2012-05-24 08:30,153.1292,-27.3917,69.80,62.60,77.90,40.00,8.00,0.00,30.12,M,6.21,M,M,M,M,M,M,M,M,M,M,YBBN 240830Z 04008KT CAVOK 21/17 Q1020
YBBN,2012-05-24 09:00,153.1292,-27.3917,68.00,60.80,77.75,40.00,8.00,0.00,30.12,M,6.21,M,FEW,BKN,M,M,2000.00,20000.00,M,M,M,YBBN 240900Z 04008KT 9999 FEW020 BKN200 20/16 Q1020
YBBN,2012-05-24 09:30,153.1292,-27.3917,68.00,60.80,77.75,40.00,7.00,0.00,30.12,M,6.21,M,FEW,BKN,M,M,2000.00,22000.00,M,M,M,YBBN 240930Z 04007KT 9999 FEW020 BKN220 20/16 Q1020
YBBN,2012-05-24 10:00,153.1292,-27.3917,68.00,62.60,82.86,30.00,6.00,0.00,30.12,M,6.21,M,FEW,BKN,M,M,2000.00,20000.00,M,M,M,YBBN 241000Z 03006KT 9999 FEW020 BKN200 20/17 Q1020
YBBN,2012-05-24 10:30,153.1292,-27.3917,68.00,62.60,82.86,20.00,6.00,0.00,30.12,M,6.21,M,FEW,SCT,BKN,M,2000.00,12000.00,20000.00,M,M,YBBN 241030Z 02006KT 9999 FEW020 SCT120 BKN200 20/17 Q1020
YBBN,2012-05-24 11:00,153.1292,-27.3917,68.00,62.60,82.86,40.00,7.00,0.00,30.12,M,6.21,M,FEW,BKN,M,M,2200.00,20000.00,M,M,M,YBBN 241100Z 04007KT 9999 FEW022 BKN200 20/17 Q1020
YBBN,2012-05-24 11:30,153.1292,-27.3917,68.00,59.00,72.92,30.00,9.00,0.00,30.12,M,6.21,M,M,M,M,M,M,M,M,M,M,YBBN 241130Z 03009KT CAVOK 20/15 Q1020
YBBN,2012-05-24 12:00,153.1292,-27.3917,68.00,59.00,72.92,40.00,8.00,0.00,30.12,M,6.21,M,M,M,M,M,M,M,M,M,M,YBBN 241200Z 04008KT CAVOK 20/15 Q1020
YBBN,2012-05-24 12:30,153.1292,-27.3917,68.00,60.80,77.75,40.00,8.00,0.00,30.12,M,6.21,M,M,M,M,M,M,M,M,M,M,YBBN 241230Z 04008KT CAVOK 20/16 Q1020
YBBN,2012-05-24 13:00,153.1292,-27.3917,69.80,59.00,68.55,40.00,7.00,0.00,30.09,M,6.21,M,M,M,M,M,M,M,M,M,M,YBBN 241300Z 04007KT CAVOK 21/15 Q1019
YBBN,2012-05-24 13:30,153.1292,-27.3917,68.00,60.80,77.75,30.00,8.00,0.00,30.09,M,6.21,M,M,M,M,M,M,M,M,M,M,YBBN 241330Z 03008KT CAVOK 20/16 Q1019
YBBN,2012-05-24 14:00,153.1292,-27.3917,68.00,60.80,77.75,30.00,5.00,0.00,30.09,M,6.21,M,FEW,SCT,BKN,M,3000.00,18000.00,21000.00,M,M,YBBN 241400Z 03005KT 9999 FEW030 SCT180 BKN210 20/16 Q1019
YBBN,2012-05-24 14:30,153.1292,-27.3917,68.00,62.60,82.86,350.00,5.00,0.00,30.09,M,6.21,M,FEW,SCT,BKN,M,3000.00,11000.00,16000.00,M,M,YBBN 241430Z 35005KT 9999 FEW030 SCT110 BKN160 20/17 Q1019
YBBN,2012-05-24 15:00,153.1292,-27.3917,66.20,62.60,88.18,0.00,0.00,0.00,30.09,M,6.21,M,FEW,SCT,BKN,M,3000.00,11000.00,16000.00,M,M,YBBN 241500Z 00000KT 9999 FEW030 SCT110 BKN160 19/17 Q1019 RMK RA TO NW
YBBN,2012-05-24 15:30,153.1292,-27.3917,66.20,62.60,88.18,220.00,1.00,0.00,30.09,M,6.21,M,FEW,SCT,BKN,M,3000.00,6000.00,11000.00,M,-RA,YBBN 241530Z 22001KT 9999 -RA FEW030 SCT060 BKN110 19/17 Q1019
YBBN,2012-05-24 16:00,153.1292,-27.3917,64.40,62.60,93.88,210.00,5.00,0.00,30.09,M,6.21,M,FEW,SCT,BKN,M,2800.00,5400.00,11000.00,M,M,YBBN 241600Z 21005KT 9999 FEW028 SCT054 BKN110 18/17 Q1019 RMK RA TO WNW
YBBN,2012-05-24 16:30,153.1292,-27.3917,66.20,62.60,88.18,240.00,3.00,0.00,30.09,M,6.21,M,FEW,BKN,BKN,M,2800.00,5400.00,11000.00,M,VCSH,YBBN 241630Z 24003KT 9999 VCSH FEW028 BKN054 BKN110 19/17 Q1019
YBBN,2012-05-24 17:00,153.1292,-27.3917,66.20,62.60,88.18,210.00,5.00,0.00,30.06,M,6.21,M,FEW,SCT,BKN,M,2500.00,4100.00,11000.00,M,-RA,YBBN 241700Z 21005KT 9999 -RA FEW025 SCT041 BKN110 19/17 Q1018 TEMPO 1800/2000 3000 RA BKN010
YBBN,2012-05-24 17:30,153.1292,-27.3917,64.40,62.60,93.88,220.00,4.00,0.00,30.06,M,6.21,M,FEW,SCT,BKN,M,2500.00,4100.00,11000.00,M,-RA,YBBN 241730Z 22004KT 9999 -RA FEW025 SCT041 BKN110 18/17 Q1018
YBBN,2012-05-24 18:00,153.1292,-27.3917,64.40,62.60,93.88,210.00,2.00,0.00,30.06,M,6.21,M,FEW,SCT,BKN,M,2400.00,3500.00,6100.00,M,-RA VCSH,YBBN 241800Z 21002KT 9999 -RA VCSH FEW024 SCT035 BKN061 18/17 Q1018
YBBN,2012-05-24 18:30,153.1292,-27.3917,64.40,62.60,93.88,130.00,1.00,0.00,30.06,M,6.21,M,FEW,BKN,BKN,M,4000.00,6000.00,10000.00,M,M,YBBN 241830Z 13001KT 9999 FEW040 BKN060 BKN100 18/17 Q1018
YBBN,2012-05-24 19:00,153.1292,-27.3917,64.40,62.60,93.88,210.00,5.00,0.00,30.06,M,6.21,M,FEW,BKN,BKN,M,3600.00,5700.00,11000.00,M,M,YBBN 241900Z 21005KT 9999 FEW036 BKN057 BKN110 18/17 Q1018 TEMPO 1900/2200 3000 RA BKN010
YBBN,2012-05-24 19:30,153.1292,-27.3917,64.40,62.60,93.88,190.00,4.00,0.00,30.06,M,6.21,M,SCT,BKN,BKN,M,3000.00,5700.00,11000.00,M,M,YBBN 241930Z 19004KT 9999 SCT030 BKN057 BKN110 18/17 Q1018
YBBN,2012-05-24 19:45,153.1292,-27.3917,64.40,62.60,93.88,190.00,4.00,0.00,30.06,M,6.21,M,FEW,BKN,M,M,2400.00,3600.00,M,M,-RA,YBBN 241945Z 19004KT 9999 4000NW -RA FEW024 BKN036 18/17 Q1018
YBBN,2012-05-24 19:49,153.1292,-27.3917,64.40,62.60,93.88,200.00,4.00,0.00,30.06,M,6.21,M,FEW,SCT,BKN,M,1000.00,2400.00,3600.00,M,-RA,YBBN 241949Z 20004KT 9999 2500NW -RA FEW010 SCT024 BKN036 18/17 Q1018
YBBN,2012-05-24 19:53,153.1292,-27.3917,64.40,62.60,93.88,190.00,4.00,0.00,30.06,M,2.49,M,FEW,SCT,BKN,M,1000.00,2400.00,3600.00,M,RA,YBBN 241953Z 19004KT 4000 RA FEW010 SCT024 BKN036 18/17 Q1018
YBBN,2012-05-24 20:00,153.1292,-27.3917,64.40,62.60,93.88,150.00,4.00,0.00,30.06,M,3.11,M,FEW,BKN,M,M,1000.00,2900.00,M,M,RA,YBBN 242000Z 15004KT 5000 RA FEW010 BKN029 18/17 Q1018
YBBN,2012-05-24 20:30,153.1292,-27.3917,64.40,62.60,93.88,0.00,0.00,0.00,30.06,M,1.55,M,FEW,SCT,BKN,M,900.00,1400.00,3600.00,M,RA,YBBN 242030Z 00000KT 2500 RA FEW009 SCT014 BKN036 18/17 Q1018
YBBN,2012-05-24 20:51,153.1292,-27.3917,64.40,62.60,93.88,190.00,5.00,0.00,30.06,M,2.17,M,SCT,OVC,M,M,1200.00,3500.00,M,M,//,YBBN 242051Z AUTO 19005KT 3500 // SCT012 OVC035 18/17 Q1018
YBBN,2012-05-24 21:00,153.1292,-27.3917,64.40,62.60,93.88,200.00,6.00,0.00,30.06,M,2.49,M,FEW,BKN,M,M,1000.00,3500.00,M,M,-RA,YBBN 242100Z 20006KT 4000 -RA FEW010 BKN035 18/17 Q1018
YBBN,2012-05-24 21:08,153.1292,-27.3917,64.40,62.60,93.88,210.00,7.00,0.00,30.06,M,3.73,M,FEW,SCT,BKN,M,1000.00,3200.00,4200.00,M,-RA,YBBN 242108Z 21007KT 6000 -RA FEW010 SCT032 BKN042 18/17 Q1018
YBBN,2012-05-24 21:30,153.1292,-27.3917,64.40,62.60,93.88,180.00,5.00,0.00,30.06,M,3.11,M,SCT,SCT,BKN,M,1000.00,3200.00,4200.00,M,-DZRA,YBBN 242130Z 18005KT 5000 3000E -DZRA SCT010 SCT032 BKN042 18/17 Q1018
YBBN,2012-05-24 22:00,153.1292,-27.3917,64.40,62.60,93.88,210.00,8.00,0.00,30.06,M,3.73,M,SCT,SCT,BKN,M,900.00,2800.00,5000.00,M,-DZ,YBBN 242200Z 21008KT 6000 -DZ SCT009 SCT028 BKN050 18/17 Q1018
YBBN,2012-05-24 22:30,153.1292,-27.3917,64.40,62.60,93.88,190.00,5.00,0.00,30.06,M,4.97,M,FEW,SCT,BKN,M,900.00,4400.00,13500.00,M,-DZ,YBBN 242230Z 19005KT 8000 -DZ FEW009 SCT044 BKN135 18/17 Q1018
YBBN,2012-05-24 23:00,153.1292,-27.3917,66.20,62.60,88.18,190.00,5.00,0.00,30.06,M,3.73,M,FEW,SCT,BKN,M,900.00,3800.00,5000.00,M,-RA,YBBN 242300Z 19005KT 6000 -RA FEW009 SCT038 BKN050 19/17 Q1018
YBBN,2012-05-24 23:30,153.1292,-27.3917,66.20,64.40,93.92,210.00,5.00,0.00,30.06,M,3.73,M,FEW,SCT,BKN,M,900.00,3200.00,4400.00,M,-DZ,YBBN 242330Z 21005KT 6000 -DZ FEW009 SCT032 BKN044 19/18 Q1018
YBBN,2012-05-24 23:50,153.1292,-27.3917,66.20,64.40,93.92,240.00,7.00,0.00,30.06,M,3.11,M,FEW,SCT,BKN,M,700.00,1000.00,4200.00,M,SHRA,YBBN 242350Z 24007KT 5000 SHRA FEW007 SCT010 BKN042 19/18 Q1018
