#DEBUG: Format Typ    -> comma
#DEBUG: Time Period   -> 2014-03-05 00:00:00+00:00 2014-03-06 00:00:00+00:00
#DEBUG: Time Zone     -> Etc/UTC
#DEBUG: Data Contact   -> daryl herzmann akrherz@iastate.edu 515-294-5978
#DEBUG: Entries Found -> -1
station,valid,lon,lat,tmpf, dwpf, relh, drct, sknt, p01i, alti, mslp, vsby, gust, skyc1, skyc2, skyc3, skyc4, skyl1, skyl2, skyl3, skyl4, presentwx, metar
YBBN,2014-03-05 00:00,153.1292,-27.3917,73.40,62.60,68.94,140.00,5.00,0.00,30.09,M,6.21,M,FEW,SCT,BKN,M,1100.00,2300.00,5000.00,M,VCSH,YBBN 050000Z 14005KT 9999 VCSH FEW011 SCT023 BKN050 23/17 Q1019
YBBN,2014-03-05 00:30,153.1292,-27.3917,77.00,66.20,69.33,160.00,7.00,0.00,30.09,M,6.21,M,FEW,BKN,M,M,2100.00,5800.00,M,M,M,YBBN 050030Z 16007KT 9999 FEW021 BKN058 25/19 Q1019
YBBN,2014-03-05 01:00,153.1292,-27.3917,75.20,62.60,64.91,140.00,7.00,0.00,30.06,M,6.21,M,FEW,SCT,BKN,M,800.00,2500.00,5500.00,M,M,YBBN 050100Z 14007KT 9999 FEW008 SCT025 BKN055 24/17 Q1018
YBBN,2014-03-05 01:30,153.1292,-27.3917,77.00,62.60,61.13,120.00,7.00,0.00,30.06,M,6.21,M,FEW,SCT,BKN,M,1400.00,2600.00,6000.00,M,VCSH,YBBN 050130Z 12007KT 9999 VCSH FEW014 SCT026 BKN060 25/17 Q1018
YBBN,2014-03-05 02:00,153.1292,-27.3917,75.20,62.60,64.91,120.00,7.00,0.00,30.06,M,6.21,M,FEW,SCT,BKN,M,2400.00,2600.00,6000.00,M,M,YBBN 050200Z 12007KT 9999 FEW024 SCT026 BKN060 24/17 Q1018 NOSIG
YBBN,2014-03-05 02:30,153.1292,-27.3917,77.00,62.60,61.13,120.00,6.00,0.00,30.03,M,6.21,M,FEW,SCT,BKN,M,2400.00,2600.00,5500.00,M,M,YBBN 050230Z 12006KT 9999 FEW024 SCT026 BKN055 25/17 Q1017
YBBN,2014-03-05 03:00,153.1292,-27.3917,77.00,59.00,53.80,130.00,6.00,0.00,30.03,M,6.21,M,SCT,BKN,M,M,3000.00,5600.00,M,M,M,YBBN 050300Z 13006KT 9999 SCT030 BKN056 25/15 Q1017 WS RWY01
YBBN,2014-03-05 03:30,153.1292,-27.3917,78.80,59.00,50.69,100.00,8.00,0.00,30.03,M,6.21,M,SCT,M,M,M,3500.00,M,M,M,M,YBBN 050330Z 10008KT 9999 SCT035 26/15 Q1017
YBBN,2014-03-05 04:00,153.1292,-27.3917,78.80,60.80,54.05,60.00,11.00,0.00,30.03,M,6.21,M,SCT,M,M,M,3500.00,M,M,M,M,YBBN 050400Z 06011KT 9999 SCT035 26/16 Q1017 NOSIG
YBBN,2014-03-05 04:30,153.1292,-27.3917,78.80,57.20,47.52,70.00,10.00,0.00,30.00,M,6.21,M,SCT,M,M,M,3500.00,M,M,M,M,YBBN 050430Z 07010KT 9999 SCT035 26/14 Q1016
YBBN,2014-03-05 05:00,153.1292,-27.3917,78.80,59.00,50.69,60.00,11.00,0.00,30.00,M,6.21,M,FEW,M,M,M,3500.00,M,M,M,M,YBBN 050500Z 06011KT 9999 FEW035 26/15 Q1016
YBBN,2014-03-05 05:30,153.1292,-27.3917,78.80,60.80,54.05,50.00,10.00,0.00,30.00,M,6.21,M,FEW,SCT,M,M,3500.00,28000.00,M,M,M,YBBN 050530Z 05010KT 9999 FEW035 SCT280 26/16 Q1016
YBBN,2014-03-05 06:00,153.1292,-27.3917,77.00,59.00,53.80,60.00,10.00,0.00,30.00,M,6.21,M,FEW,SCT,M,M,3800.00,19000.00,M,M,M,YBBN 050600Z 06010KT 9999 FEW038 SCT190 25/15 Q1016
YBBN,2014-03-05 06:30,153.1292,-27.3917,77.00,59.00,53.80,60.00,10.00,0.00,30.00,M,6.21,M,SCT,M,M,M,3800.00,M,M,M,M,YBBN 050630Z 06010KT 9999 SCT038 25/15 Q1016
YBBN,2014-03-05 07:00,153.1292,-27.3917,77.00,59.00,53.80,50.00,10.00,0.00,30.00,M,6.21,M,SCT,M,M,M,3800.00,M,M,M,M,YBBN 050700Z 05010KT 9999 SCT038 25/15 Q1016
YBBN,2014-03-05 07:30,153.1292,-27.3917,75.20,59.00,57.12,60.00,9.00,0.00,30.00,M,6.21,M,FEW,M,M,M,3800.00,M,M,M,M,YBBN 050730Z 06009KT 9999 FEW038 24/15 Q1016
YBBN,2014-03-05 08:00,153.1292,-27.3917,75.20,57.20,53.55,60.00,9.00,0.00,30.00,M,6.21,M,M,M,M,M,M,M,M,M,M,YBBN 050800Z 06009KT CAVOK 24/14 Q1016 NOSIG
YBBN,2014-03-05 08:30,153.1292,-27.3917,73.40,59.00,60.67,50.00,7.00,0.00,30.00,M,6.21,M,FEW,M,M,M,2400.00,M,M,M,M,YBBN 050830Z 05007KT 9999 FEW024 23/15 Q1016
YBBN,2014-03-05 09:00,153.1292,-27.3917,73.40,60.80,64.69,70.00,5.00,0.00,30.03,M,6.21,M,FEW,M,M,M,2400.00,M,M,M,M,YBBN 050900Z 07005KT 9999 FEW024 23/16 Q1017 NOSIG
YBBN,2014-03-05 09:30,153.1292,-27.3917,73.40,59.00,60.67,70.00,4.00,0.00,30.03,M,6.21,M,FEW,M,M,M,2400.00,M,M,M,M,YBBN 050930Z 07004KT 9999 FEW024 23/15 Q1017
YBBN,2014-03-05 10:00,153.1292,-27.3917,73.40,60.80,64.69,80.00,4.00,0.00,30.03,M,6.21,M,FEW,M,M,M,3200.00,M,M,M,M,YBBN 051000Z 08004KT 9999 FEW032 23/16 Q1017
YBBN,2014-03-05 10:30,153.1292,-27.3917,73.40,60.80,64.69,100.00,5.00,0.00,30.03,M,6.21,M,FEW,M,M,M,2400.00,M,M,M,M,YBBN 051030Z 10005KT 9999 FEW024 23/16 Q1017
YBBN,2014-03-05 11:00,153.1292,-27.3917,71.60,60.80,68.75,90.00,4.00,0.00,30.03,M,6.21,M,FEW,M,M,M,2300.00,M,M,M,M,YBBN 051100Z 09004KT 9999 FEW023 22/16 Q1017 NOSIG
YBBN,2014-03-05 11:30,153.1292,-27.3917,71.60,62.60,73.27,60.00,4.00,0.00,30.03,M,6.21,M,FEW,SCT,M,M,2400.00,3200.00,M,M,M,YBBN 051130Z 06004KT 9999 FEW024 SCT032 22/17 Q1017
YBBN,2014-03-05 12:00,153.1292,-27.3917,71.60,60.80,68.75,50.00,5.00,0.00,30.03,M,6.21,M,FEW,SCT,M,M,2300.00,2700.00,M,M,M,YBBN 051200Z 05005KT 9999 FEW023 SCT027 22/16 Q1017 NOSIG
YBBN,2014-03-05 12:30,153.1292,-27.3917,71.60,60.80,68.75,60.00,4.00,0.00,30.03,M,6.21,M,FEW,M,M,M,2300.00,M,M,M,M,YBBN 051230Z 06004KT 9999 FEW023 22/16 Q1017
YBBN,2014-03-05 13:00,153.1292,-27.3917,71.60,60.80,68.75,50.00,3.00,0.00,30.03,M,6.21,M,FEW,M,M,M,2400.00,M,M,M,M,YBBN 051300Z 05003KT 9999 FEW024 22/16 Q1017 NOSIG
YBBN,2014-03-05 13:30,153.1292,-27.3917,68.00,62.60,82.86,70.00,3.00,0.00,30.03,M,6.21,M,FEW,SCT,M,M,2300.00,3500.00,M,M,M,YBBN 051330Z 07003KT 9999 FEW023 SCT035 20/17 Q1017
YBBN,2014-03-05 14:00,153.1292,-27.3917,68.00,62.60,82.86,170.00,3.00,0.00,30.03,M,6.21,M,FEW,SCT,M,M,2300.00,3000.00,M,M,M,YBBN 051400Z 17003KT 9999 FEW023 SCT030 20/17 Q1017
YBBN,2014-03-05 14:30,153.1292,-27.3917,69.80,62.60,77.90,200.00,3.00,0.00,30.03,M,6.21,M,FEW,SCT,M,M,2400.00,3200.00,M,M,M,YBBN 051430Z 20003KT 9999 FEW024 SCT032 21/17 Q1017
YBBN,2014-03-05 15:00,153.1292,-27.3917,68.00,62.60,82.86,210.00,4.00,0.00,30.03,M,6.21,M,FEW,M,M,M,2300.00,M,M,M,M,YBBN 051500Z 21004KT 9999 FEW023 20/17 Q1017
YBBN,2014-03-05 15:30,153.1292,-27.3917,66.20,62.60,88.18,210.00,5.00,0.00,30.00,M,6.21,M,FEW,M,M,M,2400.00,M,M,M,M,YBBN 051530Z 21005KT 9999 FEW024 19/17 Q1016
YBBN,2014-03-05 16:00,153.1292,-27.3917,66.20,62.60,88.18,210.00,5.00,0.00,30.00,M,6.21,M,FEW,M,M,M,2400.00,M,M,M,M,YBBN 051600Z 21005KT 9999 FEW024 19/17 Q1016
YBBN,2014-03-05 16:30,153.1292,-27.3917,66.20,62.60,88.18,200.00,5.00,0.00,30.00,M,6.21,M,FEW,M,M,M,2400.00,M,M,M,M,YBBN 051630Z 20005KT 9999 FEW024 19/17 Q1016
YBBN,2014-03-05 17:00,153.1292,-27.3917,66.20,62.60,88.18,210.00,6.00,0.00,30.00,M,6.21,M,FEW,M,M,M,2400.00,M,M,M,M,YBBN 051700Z 21006KT 9999 FEW024 19/17 Q1016
YBBN,2014-03-05 17:30,153.1292,-27.3917,64.40,60.80,88.09,200.00,7.00,0.00,30.00,M,6.21,M,FEW,M,M,M,2200.00,M,M,M,M,YBBN 051730Z 20007KT 9999 FEW022 18/16 Q1016
YBBN,2014-03-05 18:00,153.1292,-27.3917,64.40,60.80,88.09,200.00,7.00,0.00,30.00,M,6.21,M,FEW,M,M,M,2200.00,M,M,M,M,YBBN 051800Z 20007KT 9999 FEW022 18/16 Q1016
YBBN,2014-03-05 18:30,153.1292,-27.3917,62.60,60.80,93.83,200.00,7.00,0.00,30.00,M,6.21,M,FEW,M,M,M,2200.00,M,M,M,M,YBBN 051830Z 20007KT 9999 FEW022 17/16 Q1016
YBBN,2014-03-05 19:00,153.1292,-27.3917,62.60,60.80,93.83,200.00,7.00,0.00,30.00,M,6.21,M,FEW,M,M,M,2000.00,M,M,M,M,YBBN 051900Z 20007KT 9999 FEW020 17/16 Q1016 NOSIG
YBBN,2014-03-05 19:30,153.1292,-27.3917,62.60,60.80,93.83,200.00,7.00,0.00,30.00,M,6.21,M,FEW,M,M,M,1900.00,M,M,M,M,YBBN 051930Z 20007KT 9999 FEW019 17/16 Q1016
YBBN,2014-03-05 20:00,153.1292,-27.3917,62.60,60.80,93.83,200.00,7.00,0.00,30.03,M,6.21,M,FEW,M,M,M,1900.00,M,M,M,M,YBBN 052000Z 20007KT 9999 FEW019 17/16 Q1017 NOSIG
YBBN,2014-03-05 20:30,153.1292,-27.3917,64.40,60.80,88.09,200.00,7.00,0.00,30.03,M,6.21,M,FEW,M,M,M,2000.00,M,M,M,M,YBBN 052030Z 20007KT 9999 FEW020 18/16 Q1017
YBBN,2014-03-05 21:00,153.1292,-27.3917,68.00,62.60,82.86,200.00,7.00,0.00,30.03,M,6.21,M,FEW,M,M,M,2000.00,M,M,M,M,YBBN 052100Z 20007KT 9999 FEW020 20/17 Q1017 NOSIG
YBBN,2014-03-05 21:30,153.1292,-27.3917,71.60,62.60,73.27,200.00,6.00,0.00,30.03,M,6.21,M,FEW,M,M,M,2500.00,M,M,M,M,YBBN 052130Z 20006KT 9999 FEW025 22/17 Q1017
YBBN,2014-03-05 22:00,153.1292,-27.3917,73.40,60.80,64.69,200.00,6.00,0.00,30.06,M,6.21,M,FEW,M,M,M,2500.00,M,M,M,M,YBBN 052200Z 20006KT 9999 FEW025 23/16 Q1018 NOSIG
YBBN,2014-03-05 22:30,153.1292,-27.3917,77.00,60.80,57.36,160.00,5.00,0.00,30.06,M,6.21,M,FEW,M,M,M,2500.00,M,M,M,M,YBBN 052230Z 16005KT 9999 FEW025 25/16 Q1018
YBBN,2014-03-05 23:00,153.1292,-27.3917,78.80,59.00,50.69,130.00,7.00,0.00,30.06,M,6.21,M,FEW,M,M,M,2500.00,M,M,M,M,YBBN 052300Z 13007KT 9999 FEW025 26/15 Q1018 NOSIG
YBBN,2014-03-05 23:30,153.1292,-27.3917,78.80,57.20,47.52,100.00,8.00,0.00,30.06,M,6.21,M,FEW,M,M,M,2800.00,M,M,M,M,YBBN 052330Z 10008KT 9999 FEW028 26/14 Q1018
