#DEBUG: Format Typ    -> comma
#DEBUG: Time Period   -> 2016-12-04 00:00:00+00:00 2016-12-05 00:00:00+00:00
#DEBUG: Time Zone     -> Etc/UTC
#DEBUG: Data Contact   -> daryl herzmann akrherz@iastate.edu 515-294-5978
#DEBUG: Entries Found -> -1
station,valid,lon,lat,tmpf, dwpf, relh, drct, sknt, p01i, alti, mslp, vsby, gust, skyc1, skyc2, skyc3, skyc4, skyl1, skyl2, skyl3, skyl4, presentwx, metar
YBBN,2016-12-04 00:00,153.1292,-27.3917,80.60,69.80,69.71,20.00,12.00,0.00,29.97,M,6.21,M,FEW,M,M,M,2500.00,M,M,M,M,YBBN 040000Z 02012KT 9999 FEW025 27/21 Q1015 NOSIG
YBBN,2016-12-04 00:30,153.1292,-27.3917,80.60,69.80,69.71,20.00,15.00,0.00,29.97,M,6.21,M,FEW,M,M,M,2800.00,M,M,M,M,YBBN 040030Z 02015KT 9999 FEW028 27/21 Q1015 NOSIG
YBBN,2016-12-04 01:00,153.1292,-27.3917,80.60,69.80,69.71,20.00,16.00,0.00,29.97,M,6.21,M,FEW,M,M,M,3000.00,M,M,M,M,YBBN 040100Z 02016KT 9999 FEW030 27/21 Q1015 NOSIG
YBBN,2016-12-04 01:30,153.1292,-27.3917,80.60,71.60,74.11,20.00,16.00,0.00,29.94,M,6.21,M,FEW,M,M,M,3200.00,M,M,M,M,YBBN 040130Z 02016KT 9999 FEW032 27/22 Q1014 NOSIG
YBBN,2016-12-04 02:00,153.1292,-27.3917,82.40,71.60,69.90,20.00,17.00,0.00,29.94,M,6.21,M,FEW,M,M,M,3500.00,M,M,M,M,YBBN 040200Z 02017KT 9999 FEW035 28/22 Q1014
YBBN,2016-12-04 02:30,153.1292,-27.3917,80.60,71.60,74.11,20.00,19.00,0.00,29.94,M,6.21,M,FEW,M,M,M,3500.00,M,M,M,M,YBBN 040230Z 02019KT 9999 FEW035 27/22 Q1014 NOSIG
YBBN,2016-12-04 03:00,153.1292,-27.3917,80.60,73.40,78.76,20.00,20.00,0.00,29.91,M,6.21,M,FEW,M,M,M,3500.00,M,M,M,M,YBBN 040300Z 02020KT 9999 FEW035 27/23 Q1013
YBBN,2016-12-04 03:30,153.1292,-27.3917,80.60,73.40,78.76,20.00,18.00,0.00,29.91,M,6.21,M,FEW,M,M,M,3500.00,M,M,M,M,YBBN 040330Z 02018KT 9999 FEW035 27/23 Q1013 NOSIG
YBBN,2016-12-04 04:00,153.1292,-27.3917,82.40,71.60,69.90,20.00,19.00,0.00,29.91,M,6.21,M,FEW,M,M,M,3500.00,M,M,M,M,YBBN 040400Z 02019KT 9999 FEW035 28/22 Q1013
YBBN,2016-12-04 04:30,153.1292,-27.3917,80.60,73.40,78.76,10.00,18.00,0.00,29.91,M,6.21,M,FEW,M,M,M,3000.00,M,M,M,M,YBBN 040430Z 01018KT 9999 FEW030 27/23 Q1013
YBBN,2016-12-04 05:00,153.1292,-27.3917,80.60,73.40,78.76,20.00,19.00,0.00,29.91,M,6.21,M,FEW,M,M,M,3000.00,M,M,M,M,YBBN 040500Z 02019KT 9999 FEW030 27/23 Q1013 NOSIG
YBBN,2016-12-04 05:30,153.1292,-27.3917,80.60,73.40,78.76,20.00,18.00,0.00,29.88,M,6.21,M,FEW,M,M,M,3000.00,M,M,M,M,YBBN 040530Z 02018KT 9999 FEW030 27/23 Q1012 NOSIG
YBBN,2016-12-04 06:00,153.1292,-27.3917,78.80,71.60,78.62,10.00,18.00,0.00,29.88,M,6.21,M,FEW,M,M,M,2800.00,M,M,M,M,YBBN 040600Z 01018KT 9999 FEW028 26/22 Q1012
YBBN,2016-12-04 06:30,153.1292,-27.3917,78.80,71.60,78.62,20.00,17.00,0.00,29.88,M,6.21,M,FEW,M,M,M,1200.00,M,M,M,M,YBBN 040630Z 02017KT 9999 FEW012 26/22 Q1012 NOSIG
YBBN,2016-12-04 07:00,153.1292,-27.3917,78.80,71.60,78.62,10.00,18.00,0.00,29.91,M,6.21,M,FEW,M,M,M,1200.00,M,M,M,M,YBBN 040700Z 01018KT 9999 FEW012 26/22 Q1013 NOSIG
YBBN,2016-12-04 07:30,153.1292,-27.3917,77.00,71.60,83.44,20.00,17.00,0.00,29.91,M,6.21,M,SCT,M,M,M,1400.00,M,M,M,M,YBBN 040730Z 02017KT 9999 SCT014 25/22 Q1013 NOSIG
YBBN,2016-12-04 08:00,153.1292,-27.3917,77.00,71.60,83.44,20.00,16.00,0.00,29.91,M,6.21,M,SCT,M,M,M,1400.00,M,M,M,M,YBBN 040800Z 02016KT 9999 SCT014 25/22 Q1013
YBBN,2016-12-04 08:30,153.1292,-27.3917,77.00,71.60,83.44,20.00,14.00,0.00,29.91,M,6.21,M,SCT,M,M,M,1400.00,M,M,M,M,YBBN 040830Z 02014KT 9999 SCT014 25/22 Q1013 NOSIG
YBBN,2016-12-04 09:00,153.1292,-27.3917,77.00,71.60,83.44,10.00,15.00,0.00,29.91,M,6.21,M,SCT,M,M,M,1400.00,M,M,M,M,YBBN 040900Z 01015KT 9999 SCT014 25/22 Q1013
YBBN,2016-12-04 09:30,153.1292,-27.3917,77.00,71.60,83.44,10.00,15.00,0.00,29.91,M,6.21,M,SCT,M,M,M,1400.00,M,M,M,M,YBBN 040930Z 01015KT 9999 SCT014 25/22 Q1013 NOSIG
YBBN,2016-12-04 10:00,153.1292,-27.3917,77.00,71.60,83.44,10.00,15.00,0.00,29.94,M,6.21,M,SCT,M,M,M,1400.00,M,M,M,M,YBBN 041000Z 01015KT 9999 SCT014 25/22 Q1014
YBBN,2016-12-04 10:30,153.1292,-27.3917,77.00,71.60,83.44,360.00,15.00,0.00,29.94,M,6.21,M,FEW,M,M,M,1400.00,M,M,M,M,YBBN 041030Z 36015KT 9999 FEW014 25/22 Q1014 NOSIG
YBBN,2016-12-04 11:00,153.1292,-27.3917,77.00,71.60,83.44,360.00,15.00,0.00,29.94,M,6.21,M,FEW,M,M,M,1300.00,M,M,M,M,YBBN 041100Z 36015KT 9999 FEW013 25/22 Q1014
YBBN,2016-12-04 11:30,153.1292,-27.3917,77.00,71.60,83.44,10.00,13.00,0.00,29.94,M,6.21,M,SCT,M,M,M,1300.00,M,M,M,M,YBBN 041130Z 01013KT 9999 SCT013 25/22 Q1014 NOSIG
YBBN,2016-12-04 12:00,153.1292,-27.3917,77.00,71.60,83.44,10.00,14.00,0.00,29.94,M,6.21,M,SCT,M,M,M,1300.00,M,M,M,M,YBBN 041200Z 01014KT 9999 SCT013 25/22 Q1014
YBBN,2016-12-04 12:30,153.1292,-27.3917,75.20,71.60,88.59,10.00,13.00,0.00,29.97,M,6.21,M,FEW,M,M,M,1300.00,M,M,M,M,YBBN 041230Z 01013KT 9999 FEW013 24/22 Q1015
YBBN,2016-12-04 13:00,153.1292,-27.3917,75.20,71.60,88.59,10.00,13.00,0.00,29.94,M,6.21,M,FEW,M,M,M,1300.00,M,M,M,M,YBBN 041300Z 01013KT 9999 FEW013 24/22 Q1014 NOSIG
YBBN,2016-12-04 13:30,153.1292,-27.3917,75.20,71.60,88.59,10.00,15.00,0.00,29.94,M,6.21,M,FEW,M,M,M,1300.00,M,M,M,M,YBBN 041330Z 01015KT 9999 FEW013 24/22 Q1014 NOSIG
YBBN,2016-12-04 14:00,153.1292,-27.3917,75.20,71.60,88.59,10.00,12.00,0.00,29.94,M,6.21,M,FEW,M,M,M,1300.00,M,M,M,M,YBBN 041400Z 01012KT 9999 FEW013 24/22 Q1014
YBBN,2016-12-04 14:30,153.1292,-27.3917,75.20,71.60,88.59,10.00,13.00,0.00,29.94,M,6.21,M,SCT,M,M,M,1300.00,M,M,M,M,YBBN 041430Z 01013KT 9999 SCT013 24/22 Q1014 NOSIG
YBBN,2016-12-04 15:00,153.1292,-27.3917,75.20,71.60,88.59,10.00,12.00,0.00,29.94,M,6.21,M,FEW,M,M,M,1200.00,M,M,M,M,YBBN 041500Z 01012KT 9999 FEW012 24/22 Q1014 NOSIG
YBBN,2016-12-04 15:30,153.1292,-27.3917,75.20,71.60,88.59,10.00,13.00,0.00,29.94,M,6.21,M,FEW,M,M,M,1300.00,M,M,M,M,YBBN 041530Z 01013KT 9999 FEW013 24/22 Q1014 NOSIG
YBBN,2016-12-04 16:00,153.1292,-27.3917,75.20,71.60,88.59,360.00,13.00,0.00,29.94,M,6.21,M,FEW,M,M,M,1200.00,M,M,M,M,YBBN 041600Z 36013KT 9999 FEW012 24/22 Q1014
YBBN,2016-12-04 16:30,153.1292,-27.3917,75.20,69.80,83.32,10.00,13.00,0.00,29.94,M,6.21,M,FEW,M,M,M,1300.00,M,M,M,M,YBBN 041630Z 01013KT 9999 FEW013 24/21 Q1014 NOSIG
YBBN,2016-12-04 17:00,153.1292,-27.3917,75.20,71.60,88.59,360.00,15.00,0.00,29.94,M,6.21,M,SCT,M,M,M,1500.00,M,M,M,M,YBBN 041700Z 36015KT 9999 SCT015 24/22 Q1014
YBBN,2016-12-04 17:30,153.1292,-27.3917,75.20,69.80,83.32,350.00,13.00,0.00,29.94,M,6.21,M,SCT,M,M,M,1500.00,M,M,M,M,YBBN 041730Z 35013KT 9999 SCT015 24/21 Q1014 NOSIG
YBBN,2016-12-04 18:00,153.1292,-27.3917,73.40,69.80,88.51,350.00,10.00,0.00,29.94,M,6.21,M,FEW,M,M,M,1300.00,M,M,M,M,YBBN 041800Z 35010KT 9999 FEW013 23/21 Q1014
YBBN,2016-12-04 18:30,153.1292,-27.3917,75.20,71.60,88.59,360.00,13.00,0.00,29.94,M,6.21,M,FEW,M,M,M,1000.00,M,M,M,M,YBBN 041830Z 36013KT 9999 FEW010 24/22 Q1014 NOSIG
YBBN,2016-12-04 19:00,153.1292,-27.3917,75.20,71.60,88.59,360.00,15.00,0.00,29.94,M,6.21,M,FEW,M,M,M,1000.00,M,M,M,M,YBBN 041900Z 36015KT 9999 FEW010 24/22 Q1014 NOSIG
YBBN,2016-12-04 19:30,153.1292,-27.3917,75.20,71.60,88.59,360.00,11.00,0.00,29.97,M,6.21,M,SCT,M,M,M,1000.00,M,M,M,M,YBBN 041930Z 36011KT 9999 SCT010 24/22 Q1015 NOSIG
YBBN,2016-12-04 20:00,153.1292,-27.3917,75.20,71.60,88.59,360.00,12.00,0.00,29.97,M,6.21,M,SCT,M,M,M,1000.00,M,M,M,M,YBBN 042000Z 36012KT 9999 SCT010 24/22 Q1015
YBBN,2016-12-04 20:30,153.1292,-27.3917,77.00,71.60,83.44,360.00,14.00,0.00,29.97,M,6.21,M,SCT,M,M,M,1300.00,M,M,M,M,YBBN 042030Z 36014KT 9999 SCT013 25/22 Q1015 NOSIG
YBBN,2016-12-04 21:00,153.1292,-27.3917,78.80,71.60,78.62,360.00,15.00,0.00,29.97,M,6.21,M,SCT,M,M,M,1500.00,M,M,M,M,YBBN 042100Z 36015KT 9999 SCT015 26/22 Q1015 NOSIG
YBBN,2016-12-04 21:30,153.1292,-27.3917,78.80,71.60,78.62,360.00,14.00,0.00,29.97,M,6.21,M,SCT,M,M,M,1800.00,M,M,M,M,YBBN 042130Z 36014KT 9999 SCT018 26/22 Q1015 NOSIG
YBBN,2016-12-04 22:00,153.1292,-27.3917,80.60,69.80,69.71,10.00,14.00,0.00,29.97,M,6.21,M,FEW,M,M,M,1800.00,M,M,M,M,YBBN 042200Z 01014KT 9999 FEW018 27/21 Q1015 NOSIG
YBBN,2016-12-04 22:30,153.1292,-27.3917,80.60,71.60,74.11,10.00,15.00,0.00,29.97,M,6.21,M,FEW,M,M,M,2500.00,M,M,M,M,YBBN 042230Z 01015KT 9999 FEW025 27/22 Q1015 NOSIG
YBBN,2016-12-04 23:00,153.1292,-27.3917,80.60,71.60,74.11,10.00,15.00,0.00,29.97,M,6.21,M,FEW,M,M,M,2500.00,M,M,M,M,YBBN 042300Z 01015KT 9999 FEW025 27/22 Q1015 NOSIG
YBBN,2016-12-04 23:30,153.1292,-27.3917,80.60,73.40,78.76,20.00,17.00,0.00,29.94,M,6.21,M,FEW,M,M,M,2500.00,M,M,M,M,YBBN 042330Z 02017KT 9999 FEW025 27/23 Q1014 NOSIG
