#DEBUG: Format Typ    -> comma
#DEBUG: Time Period   -> 2014-03-04 00:00:00+00:00 2014-03-05 00:00:00+00:00
#DEBUG: Time Zone     -> Etc/UTC
#DEBUG: Data Contact   -> daryl herzmann akrherz@iastate.edu 515-294-5978
#DEBUG: Entries Found -> -1
station,valid,lon,lat,tmpf, dwpf, relh, drct, sknt, p01i, alti, mslp, vsby, gust, skyc1, skyc2, skyc3, skyc4, skyl1, skyl2, skyl3, skyl4, presentwx, metar
YBBN,2014-03-04 00:00,153.1292,-27.3917,77.00,59.00,53.80,110.00,9.00,0.00,30.21,M,6.21,M,BKN,M,M,M,3000.00,M,M,M,VCSH,YBBN 040000Z 11009KT 9999 VCSH BKN030 25/15 Q1023
YBBN,2014-03-04 00:30,153.1292,-27.3917,78.80,60.80,54.05,80.00,12.00,0.00,30.18,M,6.21,M,BKN,SCT,M,M,3200.00,25000.00,M,M,M,YBBN 040030Z 08012KT 9999 BKN032 SCT250 26/16 Q1022
YBBN,2014-03-04 01:00,153.1292,-27.3917,80.60,59.00,47.79,100.00,11.00,0.00,30.18,M,6.21,M,SCT,BKN,M,M,3500.00,25000.00,M,M,M,YBBN 040100Z 10011KT 9999 SCT035 BKN250 27/15 Q1022 NOSIG
YBBN,2014-03-04 01:30,153.1292,-27.3917,78.80,57.20,47.52,100.00,9.00,0.00,30.18,M,6.21,19.00,SCT,BKN,M,M,3600.00,25000.00,M,M,M,YBBN 040130Z 10009G19KT 9999 SCT036 BKN250 26/14 Q1022
YBBN,2014-03-04 02:00,153.1292,-27.3917,80.60,55.40,41.97,110.00,10.00,0.00,30.18,M,6.21,M,SCT,BKN,M,M,4000.00,25000.00,M,M,M,YBBN 040200Z 11010KT 9999 SCT040 BKN250 27/13 Q1022 NOSIG
YBBN,2014-03-04 02:30,153.1292,-27.3917,80.60,57.20,44.80,120.00,10.00,0.00,30.18,M,6.21,M,SCT,BKN,M,M,3800.00,25000.00,M,M,M,YBBN 040230Z 12010KT 9999 SCT038 BKN250 27/14 Q1022
YBBN,2014-03-04 03:00,153.1292,-27.3917,80.60,57.20,44.80,90.00,9.00,0.00,30.15,M,6.21,M,FEW,BKN,M,M,3700.00,25000.00,M,M,M,YBBN 040300Z 09009KT 9999 FEW037 BKN250 27/14 Q1021 NOSIG
YBBN,2014-03-04 03:30,153.1292,-27.3917,80.60,59.00,47.79,110.00,11.00,0.00,30.15,M,6.21,M,FEW,SCT,M,M,3500.00,25000.00,M,M,M,YBBN 040330Z 11011KT 9999 FEW035 SCT250 27/15 Q1021
YBBN,2014-03-04 04:00,153.1292,-27.3917,80.60,59.00,47.79,120.00,10.00,0.00,30.15,M,6.21,M,FEW,BKN,M,M,3500.00,25000.00,M,M,M,YBBN 040400Z 12010KT 9999 FEW035 BKN250 27/15 Q1021 NOSIG
YBBN,2014-03-04 04:30,153.1292,-27.3917,80.60,59.00,47.79,120.00,11.00,0.00,30.12,M,6.21,M,SCT,BKN,M,M,3300.00,25000.00,M,M,M,YBBN 040430Z 12011KT 9999 SCT033 BKN250 27/15 Q1020
YBBN,2014-03-04 05:00,153.1292,-27.3917,80.60,59.00,47.79,120.00,9.00,0.00,30.12,M,6.21,M,FEW,BKN,M,M,3200.00,25000.00,M,M,M,YBBN 040500Z 12009KT 9999 FEW032 BKN250 27/15 Q1020 NOSIG
YBBN,2014-03-04 05:30,153.1292,-27.3917,77.00,60.80,57.36,110.00,10.00,0.00,30.12,M,6.21,M,SCT,SCT,M,M,2600.00,26000.00,M,M,VCSH,YBBN 040530Z 11010KT 9999 VCSH SCT026 SCT260 25/16 Q1020
YBBN,2014-03-04 06:00,153.1292,-27.3917,77.00,62.60,61.13,80.00,9.00,0.00,30.12,M,6.21,M,BKN,SCT,M,M,2600.00,26000.00,M,M,M,YBBN 040600Z 08009KT 9999 BKN026 SCT260 25/17 Q1020
YBBN,2014-03-04 06:30,153.1292,-27.3917,77.00,60.80,57.36,120.00,9.00,0.00,30.12,M,6.21,M,SCT,M,M,M,2600.00,M,M,M,-SHRA,YBBN 040630Z 12009KT 9999 -SHRA SCT026 25/16 Q1020 RMK VIRGA
YBBN,2014-03-04 07:00,153.1292,-27.3917,73.40,64.40,73.44,110.00,14.00,0.00,30.12,M,6.21,M,SCT,M,M,M,2400.00,M,M,M,VCSH,YBBN 040700Z 11014KT 9999 VCSH SCT024 23/18 Q1020
YBBN,2014-03-04 07:30,153.1292,-27.3917,71.60,60.80,68.75,140.00,11.00,0.00,30.12,M,6.21,M,FEW,BKN,M,M,2400.00,6700.00,M,M,-SHRA,YBBN 040730Z 14011KT 9999 -SHRA FEW024 BKN067 22/16 Q1020 RMK SHRA TO SOUTH
YBBN,2014-03-04 08:00,153.1292,-27.3917,73.40,62.60,68.94,150.00,5.00,0.00,30.12,M,6.21,M,FEW,BKN,BKN,M,2000.00,6000.00,7500.00,M,VCSH,YBBN 040800Z 15005KT 9999 VCSH FEW020 BKN060 BKN075 23/17 Q1020
YBBN,2014-03-04 08:30,153.1292,-27.3917,73.40,60.80,64.69,120.00,8.00,0.00,30.12,M,6.21,M,FEW,BKN,M,M,1800.00,5800.00,M,M,M,YBBN 040830Z 12008KT 9999 FEW018 BKN058 23/16 Q1020 RMK DIST SHRA E/SE
YBBN,2014-03-04 09:00,153.1292,-27.3917,73.40,62.60,68.94,120.00,7.00,0.00,30.12,M,6.21,M,FEW,SCT,BKN,M,2000.00,5800.00,7600.00,M,M,YBBN 040900Z 12007KT 9999 FEW020 SCT058 BKN076 23/17 Q1020
YBBN,2014-03-04 09:30,153.1292,-27.3917,73.40,64.40,73.44,120.00,10.00,0.00,30.12,M,6.21,M,FEW,SCT,BKN,M,1700.00,2000.00,7400.00,M,VCSH,YBBN 040930Z 12010KT 9999 VCSH FEW017 SCT020 BKN074 23/18 Q1020 RMK SHRA SE
YBBN,2014-03-04 10:00,153.1292,-27.3917,71.60,66.20,83.09,110.00,9.00,0.00,30.15,M,6.21,M,FEW,SCT,BKN,M,900.00,4800.00,7300.00,M,-SHRA,YBBN 041000Z 11009KT 9999 -SHRA FEW009 SCT048 BKN073 22/19 Q1021 INTER 1000/1300 3000 SHRA BKN010
YBBN,2014-03-04 10:30,153.1292,-27.3917,71.60,62.60,73.27,120.00,5.00,0.00,30.15,M,6.21,M,FEW,SCT,BKN,M,1400.00,4600.00,7400.00,M,VCSH,YBBN 041030Z 12005KT 9999 VCSH FEW014 SCT046 BKN074 22/17 Q1021
YBBN,2014-03-04 11:00,153.1292,-27.3917,73.40,64.40,73.44,130.00,5.00,0.00,30.15,M,6.21,M,FEW,SCT,BKN,M,1800.00,3200.00,7200.00,M,M,YBBN 041100Z 13005KT 9999 FEW018 SCT032 BKN072 23/18 Q1021 INTER 1100/1400 3000 SHRA BKN010
YBBN,2014-03-04 11:30,153.1292,-27.3917,71.60,64.40,78.04,160.00,5.00,0.00,30.15,M,6.21,M,FEW,SCT,BKN,M,1800.00,5800.00,7600.00,M,M,YBBN 041130Z 16005KT 9999 FEW018 SCT058 BKN076 22/18 Q1021 RMK DIST SHRA S/SE
YBBN,2014-03-04 12:00,153.1292,-27.3917,71.60,64.40,78.04,180.00,5.00,0.00,30.15,M,6.21,M,FEW,SCT,BKN,M,1800.00,3200.00,23000.00,M,M,YBBN 041200Z 18005KT 9999 FEW018 SCT032 BKN230 22/18 Q1021 INTER 1200/1500 3000 SHRA BKN010
YBBN,2014-03-04 12:30,153.1292,-27.3917,69.80,64.40,82.98,160.00,6.00,0.00,30.12,M,6.21,M,FEW,SCT,BKN,M,1600.00,2200.00,23000.00,M,-SHRA,YBBN 041230Z 16006KT 9999 -SHRA FEW016 SCT022 BKN230 21/18 Q1020 RMK SHRA E/SE
YBBN,2014-03-04 12:51,153.1292,-27.3917,69.80,66.20,88.34,150.00,7.00,0.00,30.12,M,3.73,M,FEW,SCT,BKN,M,1600.00,2200.00,7300.00,M,SHRA,YBBN 041251Z 15007KT 6000 SHRA FEW016 SCT022 BKN073 21/19 Q1020
YBBN,2014-03-04 13:00,153.1292,-27.3917,69.80,66.20,88.34,140.00,7.00,0.00,30.12,M,3.73,M,FEW,SCT,BKN,M,1100.00,2100.00,3600.00,M,SHRA,YBBN 041300Z 14007KT 6000 SHRA FEW011 SCT021 BKN036 21/19 Q1020
YBBN,2014-03-04 13:30,153.1292,-27.3917,68.00,66.20,93.97,150.00,8.00,0.00,30.12,M,3.11,M,FEW,SCT,BKN,M,700.00,1500.00,4200.00,M,SHRA,YBBN 041330Z 15008KT 5000 SHRA FEW007 SCT015 BKN042 20/19 Q1020
YBBN,2014-03-04 13:47,153.1292,-27.3917,68.00,66.20,93.97,170.00,5.00,0.00,30.12,M,3.73,M,FEW,SCT,BKN,M,900.00,1500.00,3400.00,M,-SHRA,YBBN 041347Z 17005KT 6000 -SHRA FEW009 SCT015 BKN034 20/19 Q1020
YBBN,2014-03-04 14:00,153.1292,-27.3917,68.00,66.20,93.97,170.00,6.00,0.00,30.12,M,3.73,M,FEW,SCT,BKN,M,600.00,1300.00,3000.00,M,SHRA,YBBN 041400Z 17006KT 6000 SHRA FEW006 SCT013 BKN030 20/19 Q1020
YBBN,2014-03-04 14:18,153.1292,-27.3917,68.00,66.20,93.97,180.00,7.00,0.00,30.12,M,5.59,M,FEW,SCT,BKN,M,600.00,2000.00,3200.00,M,-SHRA,YBBN 041418Z 18007KT 9000 -SHRA FEW006 SCT020 BKN032 20/19 Q1020
YBBN,2014-03-04 14:30,153.1292,-27.3917,68.00,66.20,93.97,180.00,8.00,0.00,30.12,M,6.21,M,FEW,SCT,BKN,M,900.00,3700.00,8700.00,M,VCSH,YBBN 041430Z 18008KT 9999 VCSH FEW009 SCT037 BKN087 20/19 Q1020
YBBN,2014-03-04 15:00,153.1292,-27.3917,68.00,64.40,88.26,200.00,7.00,0.00,30.09,M,6.21,M,FEW,SCT,BKN,M,1000.00,4200.00,7300.00,M,VCSH,YBBN 041500Z 20007KT 9999 VCSH FEW010 SCT042 BKN073 20/18 Q1019 INTER 1500/1800 3000 SHRA BKN010
YBBN,2014-03-04 15:30,153.1292,-27.3917,68.00,64.40,88.26,190.00,8.00,0.00,30.09,M,6.21,M,FEW,SCT,BKN,M,900.00,3400.00,6000.00,M,VCSH,YBBN 041530Z 19008KT 9999 VCSH FEW009 SCT034 BKN060 20/18 Q1019
YBBN,2014-03-04 16:00,153.1292,-27.3917,68.00,64.40,88.26,190.00,8.00,0.00,30.09,M,4.97,M,FEW,SCT,BKN,M,800.00,1500.00,3800.00,M,-SHRA,YBBN 041600Z 19008KT 8000 -SHRA FEW008 SCT015 BKN038 20/18 Q1019 INTER 1600/1900 3000 SHRA BKN010
YBBN,2014-03-04 16:30,153.1292,-27.3917,66.20,64.40,93.92,180.00,7.00,0.00,30.09,M,6.21,M,FEW,SCT,BKN,M,700.00,1500.00,4000.00,M,-SHRA,YBBN 041630Z 18007KT 9999 -SHRA FEW007 SCT015 BKN040 19/18 Q1019
YBBN,2014-03-04 17:00,153.1292,-27.3917,66.20,64.40,93.92,200.00,8.00,0.00,30.06,M,5.59,M,FEW,BKN,M,M,500.00,3800.00,M,M,-SHRA,YBBN 041700Z 20008KT 9000 -SHRA FEW005 BKN038 19/18 Q1018 INTER 1700/2000 3000 SHRA BKN010
YBBN,2014-03-04 17:30,153.1292,-27.3917,66.20,64.40,93.92,200.00,7.00,0.00,30.06,M,6.21,M,FEW,SCT,BKN,M,500.00,1500.00,4000.00,M,VCSH,YBBN 041730Z 20007KT 9999 VCSH FEW005 SCT015 BKN040 19/18 Q1018
YBBN,2014-03-04 18:00,153.1292,-27.3917,66.20,64.40,93.92,200.00,7.00,0.00,30.06,M,6.21,M,FEW,SCT,BKN,M,500.00,1400.00,4200.00,M,-SHRA,YBBN 041800Z 20007KT 9999 -SHRA FEW005 SCT014 BKN042 19/18 Q1018 INTER 1800/2100 3000 SHRA BKN010
YBBN,2014-03-04 18:08,153.1292,-27.3917,66.20,64.40,93.92,200.00,6.00,0.00,30.06,M,3.73,M,FEW,SCT,BKN,M,500.00,1400.00,3800.00,M,-SHRA,YBBN 041808Z 20006KT 6000 -SHRA FEW005 SCT014 BKN038 19/18 Q1018
YBBN,2014-03-04 18:30,153.1292,-27.3917,66.20,64.40,93.92,190.00,6.00,0.00,30.06,M,6.21,M,FEW,SCT,BKN,M,600.00,1500.00,3800.00,M,-DZ,YBBN 041830Z 19006KT 9999 -DZ FEW006 SCT015 BKN038 19/18 Q1018
YBBN,2014-03-04 19:00,153.1292,-27.3917,66.20,64.40,93.92,190.00,7.00,0.00,30.06,M,6.21,M,FEW,SCT,BKN,M,500.00,1600.00,4200.00,M,-DZ,YBBN 041900Z 19007KT 9999 -DZ FEW005 SCT016 BKN042 19/18 Q1018 INTER 1900/2200 3000 SHRA BKN010
YBBN,2014-03-04 19:30,153.1292,-27.3917,66.20,64.40,93.92,190.00,7.00,0.00,30.09,M,3.73,M,FEW,SCT,BKN,M,700.00,1400.00,1600.00,M,-SHRA,YBBN 041930Z 19007KT 6000 -SHRA FEW007 SCT014 BKN016 19/18 Q1019
YBBN,2014-03-04 19:48,153.1292,-27.3917,66.20,64.40,93.92,190.00,7.00,0.00,30.09,M,3.73,M,FEW,BKN,M,M,600.00,1300.00,M,M,-SHRA,YBBN 041948Z 19007KT 6000 -SHRA FEW006 BKN013 19/18 Q1019 FM1948 20008KT 9999 -SHRA SCT020 BKN040 INTER 1948/2248 3000 SHRA BKN010
YBBN,2014-03-04 20:00,153.1292,-27.3917,66.20,64.40,93.92,190.00,5.00,0.00,30.09,M,3.73,M,FEW,BKN,M,M,600.00,1300.00,M,M,-DZ,YBBN 042000Z 19005KT 6000 -DZ FEW006 BKN013 19/18 Q1019
YBBN,2014-03-04 20:30,153.1292,-27.3917,66.20,66.20,100.00,190.00,6.00,0.00,30.09,M,3.73,M,FEW,BKN,M,M,500.00,1800.00,M,M,-DZ,YBBN 042030Z 19006KT 6000 -DZ FEW005 BKN018 19/19 Q1019
YBBN,2014-03-04 20:38,153.1292,-27.3917,66.20,64.40,93.92,190.00,6.00,0.00,30.09,M,3.73,M,FEW,SCT,BKN,M,500.00,1600.00,2200.00,M,-SHRA,YBBN 042038Z 19006KT 6000 3000S -SHRA FEW005 SCT016 BKN022 19/18 Q1019
YBBN,2014-03-04 21:00,153.1292,-27.3917,66.20,66.20,100.00,180.00,7.00,0.00,30.09,M,1.55,M,FEW,SCT,BKN,M,500.00,1700.00,2600.00,M,-SHRA,YBBN 042100Z 18007KT 2500 -SHRA FEW005 SCT017 BKN026 19/19 Q1019
YBBN,2014-03-04 21:14,153.1292,-27.3917,66.20,66.20,100.00,190.00,6.00,0.00,30.09,M,4.97,M,SCT,BKN,M,M,1800.00,3400.00,M,M,VCSH,YBBN 042114Z 19006KT 8000 VCSH SCT018 BKN034 19/19 Q1019
YBBN,2014-03-04 21:30,153.1292,-27.3917,68.00,66.20,93.97,200.00,5.00,0.00,30.09,M,6.21,M,FEW,SCT,BKN,M,1300.00,3500.00,4600.00,M,VCSH,YBBN 042130Z 20005KT 9999 VCSH FEW013 SCT035 BKN046 20/19 Q1019
YBBN,2014-03-04 22:00,153.1292,-27.3917,69.80,66.20,88.34,190.00,6.00,0.00,30.09,M,6.21,M,FEW,SCT,BKN,M,1100.00,2500.00,4500.00,M,VCSH,YBBN 042200Z 19006KT 9999 VCSH FEW011 SCT025 BKN045 21/19 Q1019 INTER 2200/2400 3000 SHRA BKN010
YBBN,2014-03-04 22:30,153.1292,-27.3917,69.80,66.20,88.34,190.00,7.00,0.00,30.09,M,6.21,M,FEW,SCT,BKN,M,600.00,1500.00,3600.00,M,VCSH,YBBN 042230Z 19007KT 9999 VCSH FEW006 SCT015 BKN036 21/19 Q1019
YBBN,2014-03-04 23:00,153.1292,-27.3917,69.80,66.20,88.34,170.00,7.00,0.00,30.09,M,4.97,M,FEW,SCT,BKN,M,1100.00,2000.00,4000.00,M,-SHRA,YBBN 042300Z 17007KT 8000 -SHRA FEW011 SCT020 BKN040 21/19 Q1019 INTER 2300/2400 3000 SHRA BKN010
YBBN,2014-03-04 23:11,153.1292,-27.3917,69.80,68.00,94.01,180.00,6.00,0.00,30.09,M,3.11,M,FEW,SCT,BKN,M,1100.00,2000.00,4000.00,M,-SHRA VCSH,YBBN 042311Z 18006KT 5000 -SHRA VCSH FEW011 SCT020 BKN040 21/20 Q1019
YBBN,2014-03-04 23:30,153.1292,-27.3917,69.80,66.20,88.34,160.00,7.00,0.00,30.12,M,3.73,M,SCT,BKN,BKN,M,1100.00,2200.00,4000.00,M,-DZ,YBBN 042330Z 16007KT 6000 -DZ SCT011 BKN022 BKN040 21/19 Q1020
