#DEBUG: Format Typ    -> comma
#DEBUG: Time Period   -> 2011-03-09 00:00:00+00:00 2011-03-10 00:00:00+00:00
#DEBUG: Time Zone     -> Etc/UTC
#DEBUG: Data Contact   -> daryl herzmann akrherz@iastate.edu 515-294-5978
#DEBUG: Entries Found -> -1
station,valid,lon,lat,tmpf, dwpf, relh, drct, sknt, p01i, alti, mslp, vsby, gust, skyc1, skyc2, skyc3, skyc4, skyl1, skyl2, skyl3, skyl4, presentwx, metar
YBBN,2011-03-09 00:00,153.1292,-27.3917,78.80,60.80,54.05,110.00,7.00,M,30.03,M,6.21,M,FEW,BKN,M,M,2800.00,7000.00,M,M,M,YBBN 090000Z 11007KT 9999 FEW028 BKN070 26/16 Q1017 NOSIG
YBBN,2011-03-09 00:30,153.1292,-27.3917,78.80,60.80,54.05,130.00,8.00,M,30.03,M,6.21,M,FEW,BKN,BKN,M,2800.00,7000.00,25000.00,M,M,YBBN 090030Z 13008KT 9999 FEW028 BKN070 BKN250 26/16 Q1017 NOSIG
YBBN,2011-03-09 01:00,153.1292,-27.3917,78.80,60.80,54.05,120.00,7.00,M,30.03,M,6.21,M,FEW,BKN,M,M,2800.00,7000.00,M,M,VCSH,YBBN 090100Z 12007KT 9999 VCSH FEW028 BKN070 26/16 Q1017 NOSIG
YBBN,2011-03-09 01:30,153.1292,-27.3917,73.40,66.20,78.19,140.00,8.00,M,30.03,M,6.21,M,FEW,BKN,M,M,3500.00,6700.00,M,M,-SHRA,YBBN 090130Z 14008KT 9999 -SHRA FEW035 BKN067 23/19 Q1017 NOSIG
YBBN,2011-03-09 02:00,153.1292,-27.3917,77.00,59.00,53.80,100.00,5.00,M,30.00,M,6.21,M,FEW,BKN,M,M,3500.00,7000.00,M,M,M,YBBN 090200Z 10005KT 9999 FEW035 BKN070 25/15 Q1016 NOSIG
YBBN,2011-03-09 02:35,153.1292,-27.3917,78.80,64.40,61.36,110.00,11.00,M,30.00,M,6.21,M,FEW,BKN,M,M,3500.00,7000.00,M,M,M,YBBN 090235Z 11011KT 9999 FEW035 BKN070 26/18 Q1016 NOSIG
YBBN,2011-03-09 03:00,153.1292,-27.3917,77.00,60.80,57.36,120.00,9.00,M,30.00,M,6.21,M,FEW,BKN,BKN,M,3500.00,7000.00,27000.00,M,M,YBBN 090300Z 12009KT 9999 FEW035 BKN070 BKN270 25/16 Q1016 NOSIG
YBBN,2011-03-09 03:30,153.1292,-27.3917,77.00,59.00,53.80,130.00,8.00,M,29.97,M,6.21,M,FEW,BKN,M,M,3500.00,7000.00,M,M,M,YBBN 090330Z 13008KT 9999 FEW035 BKN070 25/15 Q1015 NOSIG
YBBN,2011-03-09 04:00,153.1292,-27.3917,77.00,62.60,61.13,140.00,8.00,M,29.97,M,6.21,M,FEW,BKN,M,M,3500.00,7000.00,M,M,M,YBBN 090400Z 14008KT 9999 FEW035 BKN070 25/17 Q1015 NOSIG
YBBN,2011-03-09 04:30,153.1292,-27.3917,77.00,62.60,61.13,130.00,8.00,M,29.97,M,6.21,M,FEW,SCT,BKN,M,3500.00,7000.00,27000.00,M,M,YBBN 090430Z 13008KT 9999 FEW035 SCT070 BKN270 25/17 Q1015 NOSIG
YBBN,2011-03-09 05:00,153.1292,-27.3917,77.00,64.40,65.12,110.00,10.00,M,29.97,M,6.21,M,FEW,SCT,BKN,M,3500.00,7000.00,27000.00,M,M,YBBN 090500Z 11010KT 9999 FEW035 SCT070 BKN270 25/18 Q1015 NOSIG
YBBN,2011-03-09 05:30,153.1292,-27.3917,75.20,64.40,69.14,100.00,8.00,M,29.97,M,6.21,M,FEW,BKN,BKN,M,3500.00,7000.00,27000.00,M,M,YBBN 090530Z 10008KT 9999 FEW035 BKN070 BKN270 24/18 Q1015 NOSIG
YBBN,2011-03-09 06:00,153.1292,-27.3917,77.00,64.40,65.12,110.00,7.00,M,29.97,M,6.21,M,FEW,BKN,BKN,M,3500.00,7000.00,27000.00,M,M,YBBN 090600Z 11007KT 9999 FEW035 BKN070 BKN270 25/18 Q1015 NOSIG
YBBN,2011-03-09 06:30,153.1292,-27.3917,75.20,64.40,69.14,100.00,8.00,M,29.97,M,6.21,M,FEW,BKN,M,M,3500.00,6500.00,M,M,M,YBBN 090630Z 10008KT 9999 FEW035 BKN065 24/18 Q1015 NOSIG
YBBN,2011-03-09 07:00,153.1292,-27.3917,75.20,62.60,64.91,110.00,7.00,M,29.97,M,6.21,M,FEW,BKN,M,M,3500.00,6500.00,M,M,M,YBBN 090700Z 11007KT 9999 FEW035 BKN065 24/17 Q1015 NOSIG
YBBN,2011-03-09 07:30,153.1292,-27.3917,75.20,62.60,64.91,110.00,6.00,M,29.97,M,6.21,M,FEW,BKN,BKN,M,3500.00,7000.00,27000.00,M,M,YBBN 090730Z 11006KT 9999 FEW035 BKN070 BKN270 24/17 Q1015 NOSIG
YBBN,2011-03-09 08:00,153.1292,-27.3917,75.20,62.60,64.91,110.00,7.00,M,29.97,M,6.21,M,FEW,SCT,BKN,M,3500.00,7000.00,24000.00,M,M,YBBN 090800Z 11007KT 9999 FEW035 SCT070 BKN240 24/17 Q1015 NOSIG
YBBN,2011-03-09 08:30,153.1292,-27.3917,73.40,62.60,68.94,90.00,7.00,M,30.00,M,6.21,M,FEW,SCT,BKN,M,1800.00,7600.00,24000.00,M,VCSH,YBBN 090830Z 09007KT 9999 VCSH FEW018 SCT076 BKN240 23/17 Q1016 NOSIG
YBBN,2011-03-09 09:00,153.1292,-27.3917,73.40,64.40,73.44,110.00,5.00,M,30.00,M,6.21,M,FEW,SCT,BKN,M,1800.00,6200.00,24000.00,M,VCSH,YBBN 090900Z 11005KT 9999 VCSH FEW018 SCT062 BKN240 23/18 Q1016 NOSIG
YBBN,2011-03-09 09:30,153.1292,-27.3917,73.40,64.40,73.44,110.00,6.00,M,30.00,M,6.21,M,FEW,SCT,BKN,M,2000.00,6200.00,24000.00,M,M,YBBN 090930Z 11006KT 9999 FEW020 SCT062 BKN240 23/18 Q1016 NOSIG
YBBN,2011-03-09 10:00,153.1292,-27.3917,73.40,64.40,73.44,110.00,7.00,M,30.00,M,6.21,M,FEW,SCT,BKN,M,2000.00,6200.00,7800.00,M,M,YBBN 091000Z 11007KT 9999 FEW020 SCT062 BKN078 23/18 Q1016 NOSIG
YBBN,2011-03-09 10:30,153.1292,-27.3917,73.40,64.40,73.44,100.00,6.00,M,30.00,M,6.21,M,FEW,SCT,BKN,M,2000.00,6200.00,8000.00,M,M,YBBN 091030Z 10006KT 9999 FEW020 SCT062 BKN080 23/18 Q1016 NOSIG
YBBN,2011-03-09 11:00,153.1292,-27.3917,73.40,62.60,68.94,100.00,6.00,M,30.00,M,6.21,M,FEW,SCT,BKN,M,2000.00,6200.00,8000.00,M,M,YBBN 091100Z 10006KT 9999 FEW020 SCT062 BKN080 23/17 Q1016 NOSIG
YBBN,2011-03-09 11:30,153.1292,-27.3917,73.40,64.40,73.44,100.00,7.00,M,30.00,M,6.21,M,FEW,SCT,BKN,M,2200.00,8000.00,24000.00,M,M,YBBN 091130Z 10007KT 9999 FEW022 SCT080 BKN240 23/18 Q1016 NOSIG
YBBN,2011-03-09 12:00,153.1292,-27.3917,73.40,64.40,73.44,100.00,5.00,M,30.00,M,6.21,M,FEW,SCT,BKN,M,2400.00,8000.00,24000.00,M,M,YBBN 091200Z 10005KT 9999 FEW024 SCT080 BKN240 23/18 Q1016 NOSIG
YBBN,2011-03-09 12:30,153.1292,-27.3917,73.40,64.40,73.44,90.00,5.00,M,30.00,M,6.21,M,FEW,SCT,BKN,M,2400.00,8000.00,24000.00,M,M,YBBN 091230Z 09005KT 9999 FEW024 SCT080 BKN240 23/18 Q1016 NOSIG
YBBN,2011-03-09 13:00,153.1292,-27.3917,73.40,64.40,73.44,90.00,4.00,M,29.97,M,6.21,M,FEW,SCT,BKN,M,2400.00,8000.00,24000.00,M,M,YBBN 091300Z 09004KT 9999 FEW024 SCT080 BKN240 23/18 Q1015 NOSIG
YBBN,2011-03-09 13:30,153.1292,-27.3917,73.40,64.40,73.44,60.00,3.00,M,29.97,M,6.21,M,FEW,SCT,BKN,M,2400.00,8000.00,22000.00,M,M,YBBN 091330Z 06003KT 9999 FEW024 SCT080 BKN220 23/18 Q1015 NOSIG
YBBN,2011-03-09 14:00,153.1292,-27.3917,69.80,66.20,88.34,20.00,4.00,M,29.97,M,6.21,M,FEW,SCT,BKN,M,2500.00,8000.00,24000.00,M,M,YBBN 091400Z 02004KT 9999 FEW025 SCT080 BKN240 21/19 Q1015 NOSIG
YBBN,2011-03-09 14:30,153.1292,-27.3917,69.80,66.20,88.34,240.00,5.00,M,29.97,M,6.21,M,SCT,BKN,M,M,2500.00,24000.00,M,M,M,YBBN 091430Z 24005KT 9999 SCT025 BKN240 21/19 Q1015 NOSIG
YBBN,2011-03-09 15:00,153.1292,-27.3917,69.80,66.20,88.34,240.00,1.00,M,29.97,M,6.21,M,SCT,BKN,M,M,2500.00,24000.00,M,M,M,YBBN 091500Z 24001KT 9999 SCT025 BKN240 21/19 Q1015 NOSIG
YBBN,2011-03-09 15:30,153.1292,-27.3917,69.80,66.20,88.34,220.00,6.00,M,29.97,M,6.21,M,SCT,BKN,M,M,2500.00,24000.00,M,M,M,YBBN 091530Z 22006KT 9999 SCT025 BKN240 21/19 Q1015 NOSIG
YBBN,2011-03-09 16:00,153.1292,-27.3917,68.00,64.40,88.26,220.00,5.00,M,29.94,M,6.21,M,FEW,BKN,M,M,2500.00,24000.00,M,M,M,YBBN 091600Z 22005KT 9999 FEW025 BKN240 20/18 Q1014 NOSIG
YBBN,2011-03-09 16:30,153.1292,-27.3917,68.00,64.40,88.26,210.00,5.00,M,29.94,M,6.21,M,FEW,SCT,BKN,M,2500.00,7200.00,24000.00,M,M,YBBN 091630Z 21005KT 9999 FEW025 SCT072 BKN240 20/18 Q1014 NOSIG
YBBN,2011-03-09 17:00,153.1292,-27.3917,68.00,64.40,88.26,220.00,5.00,M,29.94,M,6.21,M,FEW,SCT,BKN,M,2500.00,7200.00,24000.00,M,VCSH,YBBN 091700Z 22005KT 9999 VCSH FEW025 SCT072 BKN240 20/18 Q1014 NOSIG
YBBN,2011-03-09 17:30,153.1292,-27.3917,68.00,64.40,88.26,220.00,7.00,M,29.94,M,6.21,M,FEW,SCT,BKN,M,2500.00,7400.00,24000.00,M,M,YBBN 091730Z 22007KT 9999 FEW025 SCT074 BKN240 20/18 Q1014 NOSIG
YBBN,2011-03-09 18:00,153.1292,-27.3917,66.20,64.40,93.92,220.00,7.00,M,29.94,M,6.21,M,FEW,BKN,M,M,2500.00,22000.00,M,M,M,YBBN 091800Z 22007KT 9999 FEW025 BKN220 19/18 Q1014 NOSIG
YBBN,2011-03-09 18:30,153.1292,-27.3917,66.20,62.60,88.18,210.00,6.00,M,29.94,M,6.21,M,FEW,BKN,M,M,2500.00,24000.00,M,M,M,YBBN 091830Z 21006KT 9999 FEW025 BKN240 19/17 Q1014 NOSIG
YBBN,2011-03-09 19:00,153.1292,-27.3917,66.20,64.40,93.92,210.00,7.00,M,29.94,M,6.21,M,FEW,SCT,M,M,2600.00,7400.00,M,M,M,YBBN 091900Z 21007KT 9999 FEW026 SCT074 19/18 Q1014 NOSIG
YBBN,2011-03-09 19:30,153.1292,-27.3917,66.20,64.40,93.92,210.00,7.00,M,29.97,M,6.21,M,FEW,SCT,M,M,2600.00,22000.00,M,M,M,YBBN 091930Z 21007KT 9999 FEW026 SCT220 19/18 Q1015 NOSIG
YBBN,2011-03-09 20:00,153.1292,-27.3917,66.20,62.60,88.18,210.00,7.00,M,29.97,M,6.21,M,FEW,SCT,M,M,2600.00,6200.00,M,M,M,YBBN 092000Z 21007KT 9999 FEW026 SCT062 19/17 Q1015 NOSIG
YBBN,2011-03-09 20:30,153.1292,-27.3917,68.00,62.60,82.86,210.00,7.00,M,29.97,M,6.21,M,FEW,SCT,M,M,2600.00,6000.00,M,M,M,YBBN 092030Z 21007KT 9999 FEW026 SCT060 20/17 Q1015 NOSIG
YBBN,2011-03-09 21:00,153.1292,-27.3917,69.80,64.40,82.98,220.00,7.00,M,29.97,M,6.21,M,FEW,BKN,M,M,2500.00,7200.00,M,M,M,YBBN 092100Z 22007KT 9999 FEW025 BKN072 21/18 Q1015 NOSIG
YBBN,2011-03-09 21:30,153.1292,-27.3917,71.60,64.40,78.04,210.00,8.00,M,29.97,M,6.21,M,FEW,BKN,M,M,2700.00,7200.00,M,M,M,YBBN 092130Z 21008KT 9999 FEW027 BKN072 22/18 Q1015 NOSIG
YBBN,2011-03-09 22:00,153.1292,-27.3917,75.20,64.40,69.14,210.00,7.00,M,29.97,M,6.21,M,FEW,SCT,M,M,2700.00,7200.00,M,M,M,YBBN 092200Z 21007KT 9999 FEW027 SCT072 24/18 Q1015 NOSIG
YBBN,2011-03-09 22:30,153.1292,-27.3917,77.00,66.20,69.33,200.00,6.00,M,29.97,M,6.21,M,FEW,SCT,M,M,2600.00,7500.00,M,M,M,YBBN 092230Z 20006KT 9999 FEW026 SCT075 25/19 Q1015 NOSIG
YBBN,2011-03-09 23:00,153.1292,-27.3917,77.00,64.40,65.12,130.00,5.00,M,29.97,M,6.21,M,FEW,BKN,M,M,2600.00,7500.00,M,M,M,YBBN 092300Z 13005KT 9999 FEW026 BKN075 25/18 Q1015 NOSIG
YBBN,2011-03-09 23:30,153.1292,-27.3917,78.80,64.40,61.36,110.00,7.00,M,29.97,M,6.21,M,SCT,SCT,M,M,2600.00,7500.00,M,M,M,YBBN 092330Z 11007KT 9999 SCT026 SCT075 26/18 Q1015 NOSIG
