#DEBUG: Format Typ    -> comma
#DEBUG: Time Period   -> 2013-08-03 00:00:00+00:00 2013-08-04 00:00:00+00:00
#DEBUG: Time Zone     -> Etc/UTC
#DEBUG: Data Contact   -> daryl herzmann akrherz@iastate.edu 515-294-5978
#DEBUG: Entries Found -> -1
station,valid,lon,lat,tmpf, dwpf, relh, drct, sknt, p01i, alti, mslp, vsby, gust, skyc1, skyc2, skyc3, skyc4, skyl1, skyl2, skyl3, skyl4, presentwx, metar
YBBN,2013-08-03 00:00,153.1292,-27.3917,69.80,37.40,30.49,250.00,9.00,0.00,30.06,M,6.21,M,M,M,M,M,M,M,M,M,M,YBBN 030000Z 25009KT CAVOK 21/03 Q1018
YBBN,2013-08-03 00:30,153.1292,-27.3917,69.80,37.40,30.49,290.00,9.00,0.00,30.03,M,6.21,M,M,M,M,M,M,M,M,M,M,YBBN 030030Z 29009KT CAVOK 21/03 Q1017
YBBN,2013-08-03 01:00,153.1292,-27.3917,69.80,35.60,28.39,270.00,10.00,0.00,30.03,M,6.21,M,M,M,M,M,M,M,M,M,M,YBBN 030100Z 27010KT CAVOK 21/02 Q1017 NOSIG
YBBN,2013-08-03 01:30,153.1292,-27.3917,69.80,33.80,26.43,240.00,13.00,0.00,30.03,M,6.21,M,M,M,M,M,M,M,M,M,M,YBBN 030130Z 24013KT CAVOK 21/01 Q1017
YBBN,2013-08-03 02:00,153.1292,-27.3917,71.60,37.40,28.68,230.00,13.00,0.00,30.00,M,6.21,M,M,M,M,M,M,M,M,M,M,YBBN 030200Z 23013KT CAVOK 22/03 Q1016 NOSIG
YBBN,2013-08-03 02:30,153.1292,-27.3917,71.60,35.60,26.71,270.00,11.00,0.00,30.00,M,6.21,M,M,M,M,M,M,M,M,M,M,YBBN 030230Z 27011KT CAVOK 22/02 Q1016
YBBN,2013-08-03 03:00,153.1292,-27.3917,71.60,35.60,26.71,250.00,9.00,0.00,29.97,M,6.21,M,M,M,M,M,M,M,M,M,M,YBBN 030300Z 25009KT CAVOK 22/02 Q1015
YBBN,2013-08-03 03:30,153.1292,-27.3917,71.60,33.80,24.86,290.00,11.00,0.00,29.97,M,6.21,M,M,M,M,M,M,M,M,M,M,YBBN 030330Z 29011KT CAVOK 22/01 Q1015
YBBN,2013-08-03 04:00,153.1292,-27.3917,73.40,32.00,21.76,290.00,9.00,0.00,29.94,M,6.21,M,M,M,M,M,M,M,M,M,M,YBBN 030400Z 29009KT CAVOK 23/00 Q1014 NOSIG
YBBN,2013-08-03 04:30,153.1292,-27.3917,73.40,26.60,17.46,260.00,12.00,0.00,29.94,M,6.21,M,M,M,M,M,M,M,M,M,M,YBBN 030430Z 26012KT CAVOK 23/M03 Q1014
YBBN,2013-08-03 05:00,153.1292,-27.3917,73.40,24.80,16.20,250.00,13.00,0.00,29.94,M,6.21,M,M,M,M,M,M,M,M,M,M,YBBN 030500Z 25013KT CAVOK 23/M04 Q1014
YBBN,2013-08-03 05:30,153.1292,-27.3917,73.40,24.80,16.20,260.00,15.00,0.00,29.94,M,6.21,M,M,M,M,M,M,M,M,M,M,YBBN 030530Z 26015KT CAVOK 23/M04 Q1014
YBBN,2013-08-03 06:00,153.1292,-27.3917,71.60,26.60,18.55,270.00,12.00,0.00,29.97,M,6.21,M,M,M,M,M,M,M,M,M,M,YBBN 030600Z 27012KT CAVOK 22/M03 Q1015
YBBN,2013-08-03 06:30,153.1292,-27.3917,69.80,28.40,21.24,270.00,11.00,0.00,29.97,M,6.21,M,M,M,M,M,M,M,M,M,M,YBBN 030630Z 27011KT CAVOK 21/M02 Q1015
YBBN,2013-08-03 07:00,153.1292,-27.3917,68.00,28.40,22.59,290.00,9.00,0.00,29.97,M,6.21,M,M,M,M,M,M,M,M,M,M,YBBN 030700Z 29009KT CAVOK 20/M02 Q1015
YBBN,2013-08-03 07:30,153.1292,-27.3917,66.20,32.00,27.83,290.00,7.00,0.00,29.97,M,6.21,M,M,M,M,M,M,M,M,M,M,YBBN 030730Z 29007KT CAVOK 19/00 Q1015
YBBN,2013-08-03 08:00,153.1292,-27.3917,64.40,33.80,31.85,290.00,7.00,0.00,30.00,M,6.21,M,M,M,M,M,M,M,M,M,M,YBBN 030800Z 29007KT CAVOK 18/01 Q1016
YBBN,2013-08-03 08:30,153.1292,-27.3917,62.60,35.60,36.45,290.00,7.00,0.00,30.00,M,6.21,M,M,M,M,M,M,M,M,M,M,YBBN 030830Z 29007KT CAVOK 17/02 Q1016
YBBN,2013-08-03 09:00,153.1292,-27.3917,62.60,35.60,36.45,290.00,6.00,0.00,30.00,M,6.21,M,M,M,M,M,M,M,M,M,M,YBBN 030900Z 29006KT CAVOK 17/02 Q1016 NOSIG
YBBN,2013-08-03 09:30,153.1292,-27.3917,62.60,35.60,36.45,290.00,6.00,0.00,30.00,M,6.21,M,M,M,M,M,M,M,M,M,M,YBBN 030930Z 29006KT CAVOK 17/02 Q1016
YBBN,2013-08-03 10:00,153.1292,-27.3917,60.80,37.40,41.71,280.00,6.00,0.00,30.03,M,6.21,M,M,M,M,M,M,M,M,M,M,YBBN 031000Z 28006KT CAVOK 16/03 Q1017 NOSIG
YBBN,2013-08-03 10:30,153.1292,-27.3917,55.40,41.00,58.27,300.00,5.00,0.00,30.03,M,6.21,M,M,M,M,M,M,M,M,M,M,YBBN 031030Z 30005KT CAVOK 13/05 Q1017
YBBN,2013-08-03 11:00,153.1292,-27.3917,55.40,39.20,54.34,310.00,5.00,0.00,30.03,M,6.21,M,M,M,M,M,M,M,M,M,M,YBBN 031100Z 31005KT CAVOK 13/04 Q1017
YBBN,2013-08-03 11:30,153.1292,-27.3917,53.60,39.20,58.02,300.00,7.00,0.00,30.03,M,6.21,M,M,M,M,M,M,M,M,M,M,YBBN 031130Z 30007KT CAVOK 12/04 Q1017
YBBN,2013-08-03 12:00,153.1292,-27.3917,55.40,37.40,50.64,290.00,8.00,0.00,30.03,M,6.21,M,M,M,M,M,M,M,M,M,M,YBBN 031200Z 29008KT CAVOK 13/03 Q1017 NOSIG
YBBN,2013-08-03 12:30,153.1292,-27.3917,59.00,37.40,44.47,270.00,7.00,0.00,30.03,M,6.21,M,M,M,M,M,M,M,M,M,M,YBBN 031230Z 27007KT CAVOK 15/03 Q1017
YBBN,2013-08-03 13:00,153.1292,-27.3917,53.60,39.20,58.02,330.00,4.00,0.00,30.03,M,6.21,M,M,M,M,M,M,M,M,M,M,YBBN 031300Z 33004KT CAVOK 12/04 Q1017 NOSIG
YBBN,2013-08-03 13:30,153.1292,-27.3917,50.00,41.00,71.07,350.00,7.00,0.00,30.03,M,6.21,M,M,M,M,M,M,M,M,M,M,YBBN 031330Z 35007KT CAVOK 10/05 Q1017
YBBN,2013-08-03 14:00,153.1292,-27.3917,50.00,41.00,71.07,330.00,4.00,0.00,30.03,M,6.21,M,M,M,M,M,M,M,M,M,M,YBBN 031400Z 33004KT CAVOK 10/05 Q1017 NOSIG
YBBN,2013-08-03 14:30,153.1292,-27.3917,53.60,37.40,54.07,330.00,6.00,0.00,30.03,M,6.21,M,M,M,M,M,M,M,M,M,M,YBBN 031430Z 33006KT CAVOK 12/03 Q1017
YBBN,2013-08-03 15:00,153.1292,-27.3917,53.60,39.20,58.02,290.00,5.00,0.00,30.03,M,6.21,M,M,M,M,M,M,M,M,M,M,YBBN 031500Z 29005KT CAVOK 12/04 Q1017 NOSIG
YBBN,2013-08-03 15:30,153.1292,-27.3917,50.00,39.20,66.27,220.00,4.00,0.00,30.00,M,6.21,M,M,M,M,M,M,M,M,M,M,YBBN 031530Z 22004KT CAVOK 10/04 Q1016
YBBN,2013-08-03 16:00,153.1292,-27.3917,50.00,39.20,66.27,280.00,2.00,0.00,30.00,M,6.21,M,M,M,M,M,M,M,M,M,M,YBBN 031600Z 28002KT CAVOK 10/04 Q1016 NOSIG
YBBN,2013-08-03 16:30,153.1292,-27.3917,50.00,39.20,66.27,0.00,0.00,0.00,30.00,M,6.21,M,M,M,M,M,M,M,M,M,M,YBBN 031630Z 00000KT CAVOK 10/04 Q1016
YBBN,2013-08-03 17:00,153.1292,-27.3917,51.80,39.20,61.99,220.00,5.00,0.00,30.00,M,6.21,M,M,M,M,M,M,M,M,M,M,YBBN 031700Z 22005KT CAVOK 11/04 Q1016 NOSIG
YBBN,2013-08-03 17:30,153.1292,-27.3917,48.20,39.20,70.88,210.00,7.00,0.00,30.00,M,6.21,M,M,M,M,M,M,M,M,M,M,YBBN 031730Z 21007KT CAVOK 09/04 Q1016
YBBN,2013-08-03 18:00,153.1292,-27.3917,48.20,39.20,70.88,0.00,0.00,0.00,30.00,M,6.21,M,M,M,M,M,M,M,M,M,M,YBBN 031800Z 00000KT CAVOK 09/04 Q1016
YBBN,2013-08-03 18:30,153.1292,-27.3917,44.60,39.20,81.20,200.00,4.00,0.00,30.00,M,6.21,M,M,M,M,M,M,M,M,M,M,YBBN 031830Z 20004KT CAVOK 07/04 Q1016
YBBN,2013-08-03 19:00,153.1292,-27.3917,44.60,41.00,87.09,220.00,5.00,0.00,30.03,M,6.21,M,M,M,M,M,M,M,M,M,M,YBBN 031900Z 22005KT CAVOK 07/05 Q1017 NOSIG
YBBN,2013-08-03 19:30,153.1292,-27.3917,44.60,39.20,81.20,200.00,4.00,0.00,30.03,M,6.21,M,M,M,M,M,M,M,M,M,M,YBBN 031930Z 20004KT CAVOK 07/04 Q1017
YBBN,2013-08-03 20:00,153.1292,-27.3917,44.60,39.20,81.20,0.00,0.00,0.00,30.03,M,6.21,M,M,M,M,M,M,M,M,M,M,YBBN 032000Z 00000KT CAVOK 07/04 Q1017 NOSIG
YBBN,2013-08-03 20:30,153.1292,-27.3917,46.40,41.00,81.34,230.00,5.00,0.00,30.03,M,6.21,M,M,M,M,M,M,M,M,M,M,YBBN 032030Z 23005KT CAVOK 08/05 Q1017
YBBN,2013-08-03 21:00,153.1292,-27.3917,44.60,41.00,87.09,0.00,0.00,0.00,30.06,M,6.21,M,M,M,M,M,M,M,M,M,M,YBBN 032100Z 00000KT CAVOK 07/05 Q1018 NOSIG
YBBN,2013-08-03 21:30,153.1292,-27.3917,50.00,42.80,76.18,210.00,5.00,0.00,30.06,M,6.21,M,M,M,M,M,M,M,M,M,M,YBBN 032130Z 21005KT CAVOK 10/06 Q1018
YBBN,2013-08-03 22:00,153.1292,-27.3917,53.60,44.60,71.45,210.00,5.00,0.00,30.06,M,6.21,M,M,M,M,M,M,M,M,M,M,YBBN 032200Z 21005KT CAVOK 12/07 Q1018
YBBN,2013-08-03 22:30,153.1292,-27.3917,55.40,46.40,71.64,200.00,4.00,0.00,30.09,M,6.21,M,M,M,M,M,M,M,M,M,M,YBBN 032230Z 20004KT CAVOK 13/08 Q1019
YBBN,2013-08-03 23:00,153.1292,-27.3917,60.80,44.60,55.12,290.00,3.00,0.00,30.09,M,6.21,M,M,M,M,M,M,M,M,M,M,YBBN 032300Z 29003KT CAVOK 16/07 Q1019
YBBN,2013-08-03 23:30,153.1292,-27.3917,64.40,42.80,45.32,300.00,5.00,0.00,30.06,M,6.21,M,M,M,M,M,M,M,M,M,M,YBBN 032330Z 30005KT CAVOK 18/06 Q1018
