#DEBUG: Format Typ    -> comma
#DEBUG: Time Period   -> 2015-01-25 00:00:00+00:00 2015-01-26 00:00:00+00:00
#DEBUG: Time Zone     -> Etc/UTC
#DEBUG: Data Contact   -> daryl herzmann akrherz@iastate.edu 515-294-5978
#DEBUG: Entries Found -> -1
station,valid,lon,lat,tmpf, dwpf, relh, drct, sknt, p01i, alti, mslp, vsby, gust, skyc1, skyc2, skyc3, skyc4, skyl1, skyl2, skyl3, skyl4, presentwx, metar
YBBN,2015-01-25 00:00,153.1292,-27.3917,84.20,73.40,70.08,20.00,8.00,0.00,29.68,M,6.21,M,FEW,M,M,M,3500.00,M,M,M,M,YBBN 250000Z 02008KT 9999 FEW035 29/23 Q1005
YBBN,2015-01-25 00:30,153.1292,-27.3917,84.20,73.40,70.08,20.00,9.00,0.00,29.68,M,6.21,M,FEW,M,M,M,3500.00,M,M,M,M,YBBN 250030Z 02009KT 9999 FEW035 29/23 Q1005
YBBN,2015-01-25 01:00,153.1292,-27.3917,86.00,75.20,70.27,20.00,8.00,0.00,29.68,M,6.21,M,FEW,M,M,M,3700.00,M,M,M,M,YBBN 250100Z 02008KT 9999 FEW037 30/24 Q1005
YBBN,2015-01-25 01:30,153.1292,-27.3917,86.00,75.20,70.27,40.00,7.00,0.00,29.65,M,6.21,M,FEW,M,M,M,3700.00,M,M,M,M,YBBN 250130Z 04007KT 9999 FEW037 30/24 Q1004
YBBN,2015-01-25 02:00,153.1292,-27.3917,87.80,75.20,66.35,20.00,9.00,0.00,29.65,M,6.21,M,FEW,M,M,M,3700.00,M,M,M,M,YBBN 250200Z 02009KT 9999 FEW037 31/24 Q1004 NOSIG
YBBN,2015-01-25 02:30,153.1292,-27.3917,87.80,75.20,66.35,20.00,9.00,0.00,29.62,M,6.21,M,FEW,M,M,M,4000.00,M,M,M,M,YBBN 250230Z 02009KT 9999 FEW040 31/24 Q1003
YBBN,2015-01-25 03:00,153.1292,-27.3917,87.80,75.20,66.35,20.00,11.00,0.00,29.62,M,6.21,M,FEW,M,M,M,4500.00,M,M,M,M,YBBN 250300Z 02011KT 9999 FEW045 31/24 Q1003 NOSIG
YBBN,2015-01-25 03:30,153.1292,-27.3917,86.00,75.20,70.27,20.00,13.00,0.00,29.62,M,6.21,M,FEW,M,M,M,4500.00,M,M,M,M,YBBN 250330Z 02013KT 9999 FEW045 30/24 Q1003
YBBN,2015-01-25 04:00,153.1292,-27.3917,86.00,77.00,74.61,20.00,12.00,0.00,29.62,M,6.21,M,FEW,M,M,M,4200.00,M,M,M,M,YBBN 250400Z 02012KT 9999 FEW042TCU 30/25 Q1003
YBBN,2015-01-25 04:30,153.1292,-27.3917,86.00,77.00,74.61,10.00,13.00,0.00,29.62,M,6.21,M,FEW,M,M,M,4200.00,M,M,M,M,YBBN 250430Z 01013KT 9999 FEW042 30/25 Q1003 RMK CB TOP TO NW
YBBN,2015-01-25 05:00,153.1292,-27.3917,86.00,77.00,74.61,10.00,14.00,0.00,29.59,M,6.21,M,M,M,M,M,M,M,M,M,M,YBBN 250500Z 01014KT CAVOK 30/25 Q1002
YBBN,2015-01-25 05:30,153.1292,-27.3917,84.20,77.00,79.04,10.00,13.00,0.00,29.62,M,6.21,M,M,M,M,M,M,M,M,M,M,YBBN 250530Z 01013KT CAVOK 29/25 Q1003
YBBN,2015-01-25 06:00,153.1292,-27.3917,84.20,78.80,83.88,10.00,13.00,0.00,29.59,M,6.21,M,M,M,M,M,M,M,M,M,M,YBBN 250600Z 01013KT CAVOK 29/26 Q1002 NOSIG
YBBN,2015-01-25 06:30,153.1292,-27.3917,84.20,77.00,79.04,20.00,11.00,0.00,29.59,M,6.21,M,M,M,M,M,M,M,M,M,M,YBBN 250630Z 02011KT CAVOK 29/25 Q1002
YBBN,2015-01-25 07:00,153.1292,-27.3917,84.20,77.00,79.04,10.00,12.00,0.00,29.59,M,6.21,M,M,M,M,M,M,M,M,M,M,YBBN 250700Z 01012KT CAVOK 29/25 Q1002 NOSIG
YBBN,2015-01-25 07:30,153.1292,-27.3917,82.40,78.80,88.90,10.00,13.00,0.00,29.59,M,6.21,M,M,M,M,M,M,M,M,M,M,YBBN 250730Z 01013KT CAVOK 28/26 Q1002 RMK DIST CB TOPS TO N S
YBBN,2015-01-25 08:00,153.1292,-27.3917,82.40,78.80,88.90,10.00,13.00,0.00,29.62,M,6.21,M,FEW,M,M,M,3500.00,M,M,M,M,YBBN 250800Z 01013KT 9999 FEW035 28/26 Q1003
YBBN,2015-01-25 08:30,153.1292,-27.3917,80.60,78.80,94.27,10.00,14.00,0.00,29.62,M,6.21,M,FEW,M,M,M,2000.00,M,M,M,M,YBBN 250830Z 01014KT 9999 FEW020 27/26 Q1003 RMK CB TOPS TO N AND S
YBBN,2015-01-25 09:00,153.1292,-27.3917,80.60,78.80,94.27,10.00,11.00,0.00,29.65,M,6.21,M,FEW,M,M,M,2000.00,M,M,M,M,YBBN 250900Z 01011KT 9999 FEW020 27/26 Q1004
YBBN,2015-01-25 09:30,153.1292,-27.3917,80.60,78.80,94.27,20.00,9.00,0.00,29.68,M,6.21,M,FEW,M,M,M,2000.00,M,M,M,M,YBBN 250930Z 02009KT 9999 FEW020 27/26 Q1005 RMK CB TOP TO S
YBBN,2015-01-25 10:00,153.1292,-27.3917,80.60,78.80,94.27,360.00,9.00,0.00,29.68,M,6.21,M,FEW,M,M,M,2000.00,M,M,M,M,YBBN 251000Z 36009KT 9999 FEW020 27/26 Q1005
YBBN,2015-01-25 10:30,153.1292,-27.3917,80.60,78.80,94.27,10.00,8.00,0.00,29.68,M,6.21,M,FEW,M,M,M,2000.00,M,M,M,M,YBBN 251030Z 01008KT 9999 FEW020 27/26 Q1005
YBBN,2015-01-25 11:00,153.1292,-27.3917,80.60,78.80,94.27,10.00,7.00,0.00,29.68,M,6.21,M,FEW,M,M,M,2000.00,M,M,M,M,YBBN 251100Z 01007KT 9999 FEW020 27/26 Q1005 NOSIG
YBBN,2015-01-25 11:30,153.1292,-27.3917,80.60,78.80,94.27,10.00,5.00,0.00,29.71,M,6.21,M,FEW,M,M,M,2000.00,M,M,M,M,YBBN 251130Z 01005KT 9999 FEW020 27/26 Q1006
YBBN,2015-01-25 12:00,153.1292,-27.3917,80.60,78.80,94.27,120.00,3.00,0.00,29.71,M,6.21,M,FEW,M,M,M,2000.00,M,M,M,M,YBBN 251200Z 12003KT 9999 FEW020 27/26 Q1006 NOSIG
YBBN,2015-01-25 12:09,153.1292,-27.3917,80.60,78.80,94.27,110.00,4.00,0.00,29.71,M,6.21,M,BKN,M,M,M,700.00,M,M,M,M,YBBN 251209Z 11004KT 9999 BKN007 27/26 Q1006
YBBN,2015-01-25 12:30,153.1292,-27.3917,80.60,78.80,94.27,90.00,3.00,0.00,29.68,M,6.21,M,BKN,M,M,M,700.00,M,M,M,M,YBBN 251230Z 09003KT 9999 BKN007 27/26 Q1005
YBBN,2015-01-25 13:00,153.1292,-27.3917,80.60,78.80,94.27,10.00,4.00,0.00,29.68,M,6.21,M,FEW,SCT,M,M,700.00,1500.00,M,M,M,YBBN 251300Z 01004KT 9999 FEW007 SCT015 27/26 Q1005
YBBN,2015-01-25 13:30,153.1292,-27.3917,80.60,78.80,94.27,70.00,4.00,0.00,29.71,M,6.21,M,FEW,SCT,M,M,700.00,9000.00,M,M,M,YBBN 251330Z 07004KT 9999 FEW007 SCT090 27/26 Q1006
YBBN,2015-01-25 14:00,153.1292,-27.3917,80.60,78.80,94.27,80.00,2.00,0.00,29.71,M,6.21,M,FEW,SCT,M,M,700.00,9000.00,M,M,M,YBBN 251400Z 08002KT 9999 FEW007 SCT090 27/26 Q1006
YBBN,2015-01-25 14:23,153.1292,-27.3917,80.60,78.80,94.27,0.00,0.00,0.00,29.71,M,6.21,M,BKN,BKN,M,M,700.00,8500.00,M,M,M,YBBN 251423Z 00000KT 9999 BKN007 BKN085 27/26 Q1006
YBBN,2015-01-25 14:30,153.1292,-27.3917,80.60,78.80,94.27,80.00,1.00,0.00,29.71,M,6.21,M,BKN,BKN,M,M,700.00,8000.00,M,M,M,YBBN 251430Z 08001KT 9999 BKN007 BKN080 27/26 Q1006
YBBN,2015-01-25 15:00,153.1292,-27.3917,80.60,78.80,94.27,0.00,0.00,0.00,29.68,M,6.21,M,SCT,BKN,M,M,700.00,8500.00,M,M,M,YBBN 251500Z 00000KT 9999 SCT007 BKN085 27/26 Q1005
YBBN,2015-01-25 15:20,153.1292,-27.3917,80.60,78.80,94.27,60.00,5.00,0.00,29.68,M,6.21,M,BKN,BKN,M,M,700.00,8500.00,M,M,M,YBBN 251520Z 06005KT 9999 BKN007 BKN085 27/26 Q1005
YBBN,2015-01-25 15:30,153.1292,-27.3917,80.60,78.80,94.27,40.00,6.00,0.00,29.68,M,6.21,M,BKN,BKN,M,M,700.00,8500.00,M,M,M,YBBN 251530Z 04006KT 9999 BKN007 BKN085 27/26 Q1005
YBBN,2015-01-25 16:00,153.1292,-27.3917,80.60,78.80,94.27,40.00,5.00,0.00,29.68,M,6.21,M,FEW,SCT,BKN,M,700.00,1100.00,8000.00,M,M,YBBN 251600Z 04005KT 9999 FEW007 SCT011 BKN080 27/26 Q1005
YBBN,2015-01-25 16:30,153.1292,-27.3917,80.60,78.80,94.27,50.00,4.00,0.00,29.68,M,6.21,M,FEW,SCT,M,M,1100.00,8000.00,M,M,M,YBBN 251630Z 05004KT 9999 FEW011 SCT080 27/26 Q1005
YBBN,2015-01-25 17:00,153.1292,-27.3917,80.60,78.80,94.27,60.00,3.00,0.00,29.65,M,6.21,M,FEW,SCT,M,M,1000.00,8000.00,M,M,M,YBBN 251700Z 06003KT 9999 FEW010 SCT080 27/26 Q1004
YBBN,2015-01-25 17:30,153.1292,-27.3917,78.80,78.80,100.00,0.00,0.00,0.00,29.65,M,6.21,M,FEW,M,M,M,1000.00,M,M,M,M,YBBN 251730Z 00000KT 9999 FEW010 26/26 Q1004
YBBN,2015-01-25 18:00,153.1292,-27.3917,78.80,77.00,94.23,0.00,0.00,0.00,29.68,M,6.21,M,FEW,M,M,M,1000.00,M,M,M,M,YBBN 251800Z 00000KT 9999 FEW010 26/25 Q1005
YBBN,2015-01-25 18:30,153.1292,-27.3917,78.80,77.00,94.23,190.00,5.00,0.00,29.68,M,6.21,M,FEW,SCT,M,M,500.00,1500.00,M,M,M,YBBN 251830Z 19005KT 9999 FEW005 SCT015 26/25 Q1005
YBBN,2015-01-25 19:00,153.1292,-27.3917,78.80,77.00,94.23,150.00,4.00,0.00,29.68,M,6.21,M,FEW,SCT,M,M,500.00,1100.00,M,M,M,YBBN 251900Z 15004KT 9999 FEW005 SCT011 26/25 Q1005
YBBN,2015-01-25 19:30,153.1292,-27.3917,78.80,77.00,94.23,120.00,1.00,0.00,29.68,M,6.21,M,SCT,M,M,M,600.00,M,M,M,M,YBBN 251930Z 12001KT 9999 SCT006 26/25 Q1005
YBBN,2015-01-25 20:00,153.1292,-27.3917,77.00,75.20,94.19,140.00,2.00,0.00,29.71,M,6.21,M,FEW,BKN,M,M,600.00,1000.00,M,M,M,YBBN 252000Z 14002KT 9999 FEW006 BKN010 25/24 Q1006
YBBN,2015-01-25 20:30,153.1292,-27.3917,78.80,75.20,88.75,160.00,3.00,0.00,29.71,M,6.21,M,SCT,M,M,M,800.00,M,M,M,M,YBBN 252030Z 16003KT 9999 SCT008 26/24 Q1006
YBBN,2015-01-25 21:00,153.1292,-27.3917,80.60,75.20,83.66,160.00,4.00,0.00,29.71,M,6.21,M,SCT,M,M,M,800.00,M,M,M,M,YBBN 252100Z 16004KT 9999 SCT008 27/24 Q1006
YBBN,2015-01-25 21:30,153.1292,-27.3917,80.60,75.20,83.66,210.00,5.00,0.00,29.71,M,6.21,M,FEW,M,M,M,800.00,M,M,M,M,YBBN 252130Z 21005KT 9999 FEW008 27/24 Q1006
YBBN,2015-01-25 22:00,153.1292,-27.3917,82.40,77.00,83.77,330.00,3.00,0.00,29.71,M,6.21,M,SCT,M,M,M,1000.00,M,M,M,M,YBBN 252200Z 33003KT 9999 SCT010 28/25 Q1006 NOSIG
YBBN,2015-01-25 22:30,153.1292,-27.3917,84.20,77.00,79.04,340.00,4.00,0.00,29.74,M,6.21,M,SCT,M,M,M,1300.00,M,M,M,M,YBBN 252230Z 34004KT 9999 SCT013 29/25 Q1007
YBBN,2015-01-25 23:00,153.1292,-27.3917,84.20,77.00,79.04,110.00,5.00,0.00,29.74,M,6.21,M,FEW,M,M,M,1300.00,M,M,M,M,YBBN 252300Z 11005KT 9999 FEW013 29/25 Q1007 NOSIG
YBBN,2015-01-25 23:30,153.1292,-27.3917,84.20,78.80,83.88,70.00,8.00,0.00,29.74,M,6.21,M,FEW,M,M,M,1300.00,M,M,M,M,YBBN 252330Z 07008KT 9999 FEW013 29/26 Q1007
