#DEBUG: Format Typ    -> comma
#DEBUG: Time Period   -> 2013-09-18 00:00:00+00:00 2013-09-19 00:00:00+00:00
#DEBUG: Time Zone     -> Etc/UTC
#DEBUG: Data Contact   -> daryl herzmann akrherz@iastate.edu 515-294-5978
#DEBUG: Entries Found -> -1
station,valid,lon,lat,tmpf, dwpf, relh, drct, sknt, p01i, alti, mslp, vsby, gust, skyc1, skyc2, skyc3, skyc4, skyl1, skyl2, skyl3, skyl4, presentwx, metar
YBBN,2013-09-18 00:00,153.1292,-27.3917,75.20,46.40,35.94,300.00,9.00,0.00,29.83,M,6.21,M,M,M,M,M,M,M,M,M,M,YBBN 180000Z 30009KT CAVOK 24/08 Q1010
YBBN,2013-09-18 00:30,153.1292,-27.3917,77.00,42.80,29.51,300.00,9.00,0.00,29.80,M,6.21,M,FEW,M,M,M,2500.00,M,M,M,M,YBBN 180030Z 30009KT 9999 FEW025 25/06 Q1009
YBBN,2013-09-18 01:00,153.1292,-27.3917,78.80,42.80,27.81,260.00,14.00,0.00,29.80,M,6.21,M,FEW,M,M,M,2800.00,M,M,M,M,YBBN 180100Z 26014KT 9999 FEW028 26/06 Q1009 NOSIG
YBBN,2013-09-18 01:30,153.1292,-27.3917,78.80,44.60,29.79,330.00,12.00,0.00,29.80,M,6.21,M,FEW,M,M,M,3000.00,M,M,M,M,YBBN 180130Z 33012KT 9999 FEW030 26/07 Q1009
YBBN,2013-09-18 02:00,153.1292,-27.3917,80.60,41.00,24.46,290.00,11.00,0.00,29.77,M,6.21,M,FEW,M,M,M,3000.00,M,M,M,M,YBBN 180200Z 29011KT 9999 FEW030 27/05 Q1008 NOSIG
YBBN,2013-09-18 02:30,153.1292,-27.3917,80.60,42.80,26.22,270.00,16.00,0.00,29.77,M,6.21,M,FEW,M,M,M,3000.00,M,M,M,M,YBBN 180230Z 27016KT 9999 FEW030 27/06 Q1008
YBBN,2013-09-18 03:00,153.1292,-27.3917,80.60,42.80,26.22,310.00,13.00,0.00,29.74,M,6.21,M,FEW,M,M,M,3500.00,M,M,M,M,YBBN 180300Z 31013KT 9999 FEW035 27/06 Q1007 FM0400 010014KT 9999 FEW030
YBBN,2013-09-18 03:30,153.1292,-27.3917,82.40,46.40,28.36,340.00,15.00,0.00,29.74,M,6.21,M,FEW,M,M,M,4000.00,M,M,M,M,YBBN 180330Z 34015KT 9999 FEW040 28/08 Q1007
YBBN,2013-09-18 04:00,153.1292,-27.3917,82.40,42.80,24.72,320.00,13.00,0.00,29.71,M,6.21,M,FEW,M,M,M,4000.00,M,M,M,M,YBBN 180400Z 32013KT 9999 FEW040 28/06 Q1006
YBBN,2013-09-18 04:30,153.1292,-27.3917,82.40,44.60,26.49,330.00,12.00,0.00,29.71,M,6.21,M,FEW,M,M,M,4500.00,M,M,M,M,YBBN 180430Z 33012KT 9999 FEW045 28/07 Q1006
YBBN,2013-09-18 05:00,153.1292,-27.3917,82.40,42.80,24.72,320.00,12.00,0.00,29.71,M,6.21,M,M,M,M,M,M,M,M,M,M,YBBN 180500Z 32012KT CAVOK 28/06 Q1006
YBBN,2013-09-18 05:30,153.1292,-27.3917,78.80,53.60,41.69,10.00,12.00,0.00,29.71,M,6.21,M,M,M,M,M,M,M,M,M,M,YBBN 180530Z 01012KT CAVOK 26/12 Q1006
YBBN,2013-09-18 06:00,153.1292,-27.3917,77.00,53.60,44.25,10.00,14.00,0.00,29.71,M,6.21,M,M,M,M,M,M,M,M,M,M,YBBN 180600Z 01014KT CAVOK 25/12 Q1006 NOSIG
YBBN,2013-09-18 06:30,153.1292,-27.3917,75.20,57.20,53.55,10.00,15.00,0.00,29.71,M,6.21,M,M,M,M,M,M,M,M,M,M,YBBN 180630Z 01015KT CAVOK 24/14 Q1006
YBBN,2013-09-18 07:00,153.1292,-27.3917,73.40,59.00,60.67,10.00,12.00,0.00,29.71,M,6.21,M,M,M,M,M,M,M,M,M,M,YBBN 180700Z 01012KT CAVOK 23/15 Q1006
YBBN,2013-09-18 07:30,153.1292,-27.3917,71.60,60.80,68.75,360.00,11.00,0.00,29.74,M,6.21,M,M,M,M,M,M,M,M,M,M,YBBN 180730Z 36011KT CAVOK 22/16 Q1007
YBBN,2013-09-18 08:00,153.1292,-27.3917,69.80,62.60,77.90,350.00,9.00,0.00,29.74,M,6.21,M,M,M,M,M,M,M,M,M,M,YBBN 180800Z 35009KT CAVOK 21/17 Q1007
YBBN,2013-09-18 08:30,153.1292,-27.3917,69.80,64.40,82.98,360.00,10.00,0.00,29.77,M,6.21,M,M,M,M,M,M,M,M,M,M,YBBN 180830Z 36010KT CAVOK 21/18 Q1008
YBBN,2013-09-18 09:00,153.1292,-27.3917,69.80,64.40,82.98,360.00,8.00,0.00,29.77,M,6.21,M,M,M,M,M,M,M,M,M,M,YBBN 180900Z 36008KT CAVOK 21/18 Q1008
YBBN,2013-09-18 09:30,153.1292,-27.3917,69.80,66.20,88.34,10.00,8.00,0.00,29.80,M,6.21,M,M,M,M,M,M,M,M,M,M,YBBN 180930Z 01008KT CAVOK 21/19 Q1009
YBBN,2013-09-18 10:00,153.1292,-27.3917,69.80,66.20,88.34,360.00,7.00,0.00,29.80,M,6.21,M,M,M,M,M,M,M,M,M,M,YBBN 181000Z 36007KT CAVOK 21/19 Q1009 NOSIG
YBBN,2013-09-18 10:30,153.1292,-27.3917,69.80,68.00,94.01,360.00,8.00,0.00,29.80,M,6.21,M,M,M,M,M,M,M,M,M,M,YBBN 181030Z 36008KT CAVOK 21/20 Q1009
YBBN,2013-09-18 11:00,153.1292,-27.3917,69.80,68.00,94.01,360.00,9.00,0.00,29.80,M,6.21,M,M,M,M,M,M,M,M,M,M,YBBN 181100Z 36009KT CAVOK 21/20 Q1009 NOSIG
YBBN,2013-09-18 11:30,153.1292,-27.3917,69.80,68.00,94.01,360.00,7.00,0.00,29.83,M,6.21,M,M,M,M,M,M,M,M,M,M,YBBN 181130Z 36007KT CAVOK 21/20 Q1010
YBBN,2013-09-18 12:00,153.1292,-27.3917,66.20,64.40,93.92,290.00,6.00,0.00,29.83,M,6.21,M,M,M,M,M,M,M,M,M,M,YBBN 181200Z 29006KT CAVOK 19/18 Q1010
YBBN,2013-09-18 12:30,153.1292,-27.3917,66.20,64.40,93.92,280.00,1.00,0.00,29.83,M,6.21,M,M,M,M,M,M,M,M,M,M,YBBN 181230Z 28001KT CAVOK 19/18 Q1010
YBBN,2013-09-18 13:00,153.1292,-27.3917,64.40,62.60,93.88,350.00,4.00,0.00,29.83,M,6.21,M,M,M,M,M,M,M,M,M,M,YBBN 181300Z 35004KT CAVOK 18/17 Q1010
YBBN,2013-09-18 13:30,153.1292,-27.3917,64.40,62.60,93.88,350.00,4.00,0.00,29.83,M,6.21,M,M,M,M,M,M,M,M,M,M,YBBN 181330Z 35004KT CAVOK 18/17 Q1010
YBBN,2013-09-18 14:00,153.1292,-27.3917,60.80,60.80,100.00,360.00,1.00,0.00,29.83,M,6.21,M,M,M,M,M,M,M,M,M,M,YBBN 181400Z 36001KT CAVOK 16/16 Q1010
YBBN,2013-09-18 14:30,153.1292,-27.3917,60.80,57.20,87.92,350.00,7.00,0.00,29.80,M,6.21,M,M,M,M,M,M,M,M,M,M,YBBN 181430Z 35007KT CAVOK 16/14 Q1009
YBBN,2013-09-18 15:00,153.1292,-27.3917,60.80,53.60,77.14,280.00,5.00,0.00,29.80,M,6.21,M,M,M,M,M,M,M,M,M,M,YBBN 181500Z 28005KT CAVOK 16/12 Q1009 NOSIG
YBBN,2013-09-18 15:30,153.1292,-27.3917,59.00,53.60,82.25,340.00,3.00,0.00,29.80,M,6.21,M,M,M,M,M,M,M,M,M,M,YBBN 181530Z 34003KT CAVOK 15/12 Q1009
YBBN,2013-09-18 16:00,153.1292,-27.3917,57.20,53.60,87.74,0.00,0.00,0.00,29.80,M,6.21,M,M,M,M,M,M,M,M,M,M,YBBN 181600Z 00000KT CAVOK 14/12 Q1009
YBBN,2013-09-18 16:30,153.1292,-27.3917,57.20,53.60,87.74,270.00,4.00,0.00,29.77,M,6.21,M,M,M,M,M,M,M,M,M,M,YBBN 181630Z 27004KT CAVOK 14/12 Q1008
YBBN,2013-09-18 17:00,153.1292,-27.3917,57.20,51.80,82.12,0.00,0.00,0.00,29.77,M,6.21,M,M,M,M,M,M,M,M,M,M,YBBN 181700Z 00000KT CAVOK 14/11 Q1008 NOSIG
YBBN,2013-09-18 17:30,153.1292,-27.3917,57.20,51.80,82.12,320.00,4.00,0.00,29.77,M,6.21,M,M,M,M,M,M,M,M,M,M,YBBN 181730Z 32004KT CAVOK 14/11 Q1008
YBBN,2013-09-18 18:00,153.1292,-27.3917,55.40,51.80,87.65,240.00,5.00,0.00,29.77,M,6.21,M,M,M,M,M,M,M,M,M,M,YBBN 181800Z 24005KT CAVOK 13/11 Q1008 NOSIG
YBBN,2013-09-18 18:30,153.1292,-27.3917,59.00,55.40,87.83,210.00,5.00,0.00,29.80,M,6.21,M,M,M,M,M,M,M,M,M,M,YBBN 181830Z 21005KT CAVOK 15/13 Q1009
YBBN,2013-09-18 19:00,153.1292,-27.3917,57.20,55.40,93.69,220.00,5.00,0.00,29.80,M,6.21,M,FEW,M,M,M,1500.00,M,M,M,M,YBBN 181900Z 22005KT 9999 FEW015 14/13 Q1009
YBBN,2013-09-18 19:14,153.1292,-27.3917,57.20,55.40,93.69,210.00,3.00,0.00,29.80,M,6.21,M,FEW,M,M,M,1500.00,M,M,M,MIFG,YBBN 181914Z 21003KT 9999 MIFG FEW015 14/13 Q1009
YBBN,2013-09-18 19:30,153.1292,-27.3917,57.20,55.40,93.69,240.00,2.00,0.00,29.80,M,6.21,M,FEW,M,M,M,1500.00,M,M,M,MIFG,YBBN 181930Z 24002KT 9999 MIFG FEW015 14/13 Q1009
YBBN,2013-09-18 20:00,153.1292,-27.3917,55.40,53.60,93.65,210.00,1.00,0.00,29.80,M,6.21,M,FEW,M,M,M,1500.00,M,M,M,MIFG,YBBN 182000Z 21001KT 9999 MIFG FEW015 13/12 Q1009
YBBN,2013-09-18 20:30,153.1292,-27.3917,57.20,55.40,93.69,350.00,2.00,0.00,29.83,M,6.21,M,FEW,M,M,M,1500.00,M,M,M,M,YBBN 182030Z 35002KT 9999 FEW015 14/13 Q1010
YBBN,2013-09-18 21:00,153.1292,-27.3917,60.80,59.00,93.79,320.00,3.00,0.00,29.83,M,6.21,M,FEW,M,M,M,1500.00,M,M,M,M,YBBN 182100Z 32003KT 9999 FEW015 16/15 Q1010 NOSIG
YBBN,2013-09-18 21:30,153.1292,-27.3917,66.20,62.60,88.18,330.00,5.00,0.00,29.83,M,6.21,M,FEW,M,M,M,500.00,M,M,M,M,YBBN 182130Z 33005KT 9999 FEW005 19/17 Q1010 RMK DIST FOG TO W
YBBN,2013-09-18 22:00,153.1292,-27.3917,66.20,62.60,88.18,330.00,7.00,0.00,29.83,M,6.21,M,FEW,M,M,M,500.00,M,M,M,M,YBBN 182200Z 33007KT 9999 FEW005 19/17 Q1010 NOSIG
YBBN,2013-09-18 22:30,153.1292,-27.3917,68.00,62.60,82.86,350.00,8.00,0.00,29.83,M,6.21,M,FEW,M,M,M,500.00,M,M,M,M,YBBN 182230Z 35008KT 9999 FEW005 20/17 Q1010 RMK HZ
YBBN,2013-09-18 23:00,153.1292,-27.3917,69.80,60.80,73.09,360.00,10.00,0.00,29.83,M,6.21,M,M,M,M,M,M,M,M,M,M,YBBN 182300Z 36010KT CAVOK 21/16 Q1010 RMK HAZE
YBBN,2013-09-18 23:30,153.1292,-27.3917,69.80,60.80,73.09,360.00,10.00,0.00,29.83,M,6.21,M,M,M,M,M,M,M,M,M,M,YBBN 182330Z 36010KT CAVOK 21/16 Q1010 RMK HAZE
