#DEBUG: Format Typ    -> comma
#DEBUG: Time Period   -> 2015-10-31 00:00:00+00:00 2015-11-01 00:00:00+00:00
#DEBUG: Time Zone     -> Etc/UTC
#DEBUG: Data Contact   -> daryl herzmann akrherz@iastate.edu 515-294-5978
#DEBUG: Entries Found -> -1
station,valid,lon,lat,tmpf, dwpf, relh, drct, sknt, p01i, alti, mslp, vsby, gust, skyc1, skyc2, skyc3, skyc4, skyl1, skyl2, skyl3, skyl4, presentwx, metar
YBBN,2015-10-31 00:00,153.1292,-27.3917,73.40,55.40,53.29,30.00,9.00,0.00,30.18,M,6.21,M,BKN,M,M,M,3800.00,M,M,M,M,YBBN 310000Z 03009KT 9999 BKN038 23/13 Q1022
YBBN,2015-10-31 00:30,153.1292,-27.3917,73.40,55.40,53.29,30.00,11.00,0.00,30.18,M,6.21,M,SCT,SCT,M,M,3900.00,6000.00,M,M,M,YBBN 310030Z 03011KT 9999 SCT039 SCT060 23/13 Q1022
YBBN,2015-10-31 01:00,153.1292,-27.3917,73.40,55.40,53.29,40.00,10.00,0.00,30.18,M,6.21,M,SCT,BKN,M,M,4000.00,6000.00,M,M,M,YBBN 310100Z 04010KT 9999 SCT040 BKN060 23/13 Q1022 NOSIG
YBBN,2015-10-31 01:30,153.1292,-27.3917,73.40,53.60,49.90,50.00,9.00,0.00,30.18,M,6.21,M,SCT,BKN,M,M,4000.00,6000.00,M,M,M,YBBN 310130Z 05009KT 9999 SCT040 BKN060 23/12 Q1022
YBBN,2015-10-31 02:00,153.1292,-27.3917,73.40,55.40,53.29,50.00,10.00,0.00,30.18,M,6.21,M,FEW,BKN,M,M,4000.00,6000.00,M,M,M,YBBN 310200Z 05010KT 9999 FEW040 BKN060 23/13 Q1022 NOSIG
YBBN,2015-10-31 02:30,153.1292,-27.3917,75.20,55.40,50.17,50.00,13.00,0.00,30.15,M,6.21,M,FEW,SCT,M,M,4000.00,6200.00,M,M,M,YBBN 310230Z 05013KT 9999 FEW040 SCT062 24/13 Q1021
YBBN,2015-10-31 03:00,153.1292,-27.3917,75.20,55.40,50.17,50.00,11.00,0.00,30.15,M,6.21,M,FEW,SCT,M,M,4000.00,6500.00,M,M,M,YBBN 310300Z 05011KT 9999 FEW040 SCT065 24/13 Q1021 NOSIG
YBBN,2015-10-31 03:30,153.1292,-27.3917,75.20,55.40,50.17,50.00,11.00,0.00,30.15,M,6.21,M,FEW,M,M,M,4000.00,M,M,M,M,YBBN 310330Z 05011KT 9999 FEW040 24/13 Q1021
YBBN,2015-10-31 04:00,153.1292,-27.3917,75.20,55.40,50.17,50.00,11.00,0.00,30.12,M,6.21,M,FEW,M,M,M,4000.00,M,M,M,M,YBBN 310400Z 05011KT 9999 FEW040 24/13 Q1020 NOSIG
YBBN,2015-10-31 04:30,153.1292,-27.3917,73.40,53.60,49.90,50.00,12.00,0.00,30.12,M,6.21,M,FEW,M,M,M,4000.00,M,M,M,M,YBBN 310430Z 05012KT 9999 FEW040 23/12 Q1020
YBBN,2015-10-31 05:00,153.1292,-27.3917,75.20,53.60,46.98,60.00,11.00,0.00,30.09,M,6.21,M,FEW,M,M,M,4000.00,M,M,M,M,YBBN 310500Z 06011KT 9999 FEW040 24/12 Q1019 NOSIG
YBBN,2015-10-31 05:30,153.1292,-27.3917,73.40,53.60,49.90,60.00,9.00,0.00,30.09,M,6.21,M,FEW,M,M,M,4000.00,M,M,M,M,YBBN 310530Z 06009KT 9999 FEW040 23/12 Q1019
YBBN,2015-10-31 06:00,153.1292,-27.3917,73.40,53.60,49.90,70.00,8.00,0.00,30.09,M,6.21,M,FEW,M,M,M,4000.00,M,M,M,M,YBBN 310600Z 07008KT 9999 FEW040 23/12 Q1019
YBBN,2015-10-31 06:30,153.1292,-27.3917,73.40,51.80,46.71,60.00,8.00,0.00,30.12,M,6.21,M,FEW,M,M,M,4000.00,M,M,M,M,YBBN 310630Z 06008KT 9999 FEW040 23/11 Q1020
YBBN,2015-10-31 07:00,153.1292,-27.3917,71.60,51.80,49.64,50.00,10.00,0.00,30.09,M,6.21,M,FEW,M,M,M,4500.00,M,M,M,M,YBBN 310700Z 05010KT 9999 FEW045 22/11 Q1019 NOSIG
YBBN,2015-10-31 07:30,153.1292,-27.3917,71.60,53.60,53.03,40.00,9.00,0.00,30.12,M,6.21,M,FEW,M,M,M,4000.00,M,M,M,M,YBBN 310730Z 04009KT 9999 FEW040 22/12 Q1020
YBBN,2015-10-31 08:00,153.1292,-27.3917,69.80,51.80,52.77,50.00,7.00,0.00,30.12,M,6.21,M,FEW,SCT,M,M,3000.00,30000.00,M,M,M,YBBN 310800Z 05007KT 9999 FEW030 SCT300 21/11 Q1020 NOSIG
YBBN,2015-10-31 08:30,153.1292,-27.3917,69.80,51.80,52.77,50.00,9.00,0.00,30.12,M,6.21,M,M,M,M,M,M,M,M,M,M,YBBN 310830Z 05009KT CAVOK 21/11 Q1020
YBBN,2015-10-31 09:00,153.1292,-27.3917,68.00,53.60,59.97,40.00,9.00,0.00,30.12,M,6.21,M,M,M,M,M,M,M,M,M,M,YBBN 310900Z 04009KT CAVOK 20/12 Q1020 NOSIG
YBBN,2015-10-31 09:30,153.1292,-27.3917,66.20,55.40,68.15,30.00,7.00,0.00,30.15,M,6.21,M,M,M,M,M,M,M,M,M,M,YBBN 310930Z 03007KT CAVOK 19/13 Q1021
YBBN,2015-10-31 10:00,153.1292,-27.3917,66.20,55.40,68.15,40.00,7.00,0.00,30.15,M,6.21,M,M,M,M,M,M,M,M,M,M,YBBN 311000Z 04007KT CAVOK 19/13 Q1021
YBBN,2015-10-31 10:30,153.1292,-27.3917,66.20,57.20,72.74,40.00,7.00,0.00,30.15,M,6.21,M,M,M,M,M,M,M,M,M,M,YBBN 311030Z 04007KT CAVOK 19/14 Q1021
YBBN,2015-10-31 11:00,153.1292,-27.3917,66.20,57.20,72.74,30.00,9.00,0.00,30.15,M,6.21,M,FEW,SCT,M,M,3500.00,30000.00,M,M,M,YBBN 311100Z 03009KT 9999 FEW035 SCT300 19/14 Q1021
YBBN,2015-10-31 11:30,153.1292,-27.3917,68.00,57.20,68.35,30.00,10.00,0.00,30.15,M,6.21,M,FEW,SCT,M,M,3500.00,30000.00,M,M,M,YBBN 311130Z 03010KT 9999 FEW035 SCT300 20/14 Q1021
YBBN,2015-10-31 12:00,153.1292,-27.3917,68.00,57.20,68.35,30.00,9.00,0.00,30.15,M,6.21,M,SCT,M,M,M,4000.00,M,M,M,M,YBBN 311200Z 03009KT 9999 SCT040 20/14 Q1021 NOSIG
YBBN,2015-10-31 12:30,153.1292,-27.3917,68.00,57.20,68.35,40.00,8.00,0.00,30.15,M,6.21,M,SCT,M,M,M,4000.00,M,M,M,M,YBBN 311230Z 04008KT 9999 SCT040 20/14 Q1021
YBBN,2015-10-31 13:00,153.1292,-27.3917,66.20,57.20,72.74,40.00,7.00,0.00,30.15,M,6.21,M,SCT,BKN,M,M,3800.00,30000.00,M,M,M,YBBN 311300Z 04007KT 9999 SCT038 BKN300 19/14 Q1021
YBBN,2015-10-31 13:30,153.1292,-27.3917,68.00,59.00,72.92,40.00,7.00,0.00,30.12,M,6.21,M,SCT,BKN,M,M,3800.00,30000.00,M,M,M,YBBN 311330Z 04007KT 9999 SCT038 BKN300 20/15 Q1020
YBBN,2015-10-31 14:00,153.1292,-27.3917,68.00,59.00,72.92,40.00,7.00,0.00,30.12,M,6.21,M,BKN,M,M,M,3600.00,M,M,M,M,YBBN 311400Z 04007KT 9999 BKN036 20/15 Q1020
YBBN,2015-10-31 14:30,153.1292,-27.3917,66.20,59.00,77.60,260.00,4.00,0.00,30.09,M,6.21,M,SCT,M,M,M,3400.00,M,M,M,M,YBBN 311430Z 26004KT 9999 SCT034 19/15 Q1019
YBBN,2015-10-31 15:00,153.1292,-27.3917,66.20,57.20,72.74,290.00,4.00,0.00,30.09,M,6.21,M,SCT,M,M,M,3600.00,M,M,M,M,YBBN 311500Z 29004KT 9999 SCT036 19/14 Q1019 NOSIG
YBBN,2015-10-31 15:30,153.1292,-27.3917,64.40,57.20,77.45,310.00,4.00,0.00,30.09,M,6.21,M,SCT,M,M,M,3500.00,M,M,M,M,YBBN 311530Z 31004KT 9999 SCT035 18/14 Q1019
YBBN,2015-10-31 16:00,153.1292,-27.3917,64.40,57.20,77.45,290.00,3.00,0.00,30.09,M,6.21,M,SCT,M,M,M,4500.00,M,M,M,M,YBBN 311600Z 29003KT 9999 SCT045 18/14 Q1019 NOSIG
YBBN,2015-10-31 16:30,153.1292,-27.3917,64.40,57.20,77.45,0.00,0.00,0.00,30.09,M,6.21,M,SCT,M,M,M,3500.00,M,M,M,M,YBBN 311630Z 00000KT 9999 SCT035 18/14 Q1019
YBBN,2015-10-31 17:00,153.1292,-27.3917,64.40,59.00,82.62,270.00,3.00,0.00,30.09,M,6.21,M,SCT,M,M,M,3800.00,M,M,M,M,YBBN 311700Z 27003KT 9999 SCT038 18/15 Q1019 NOSIG
YBBN,2015-10-31 17:30,153.1292,-27.3917,62.60,57.20,82.50,260.00,4.00,0.00,30.09,M,6.21,M,FEW,BKN,M,M,3500.00,12000.00,M,M,M,YBBN 311730Z 26004KT 9999 FEW035 BKN120 17/14 Q1019
YBBN,2015-10-31 18:00,153.1292,-27.3917,62.60,57.20,82.50,210.00,6.00,0.00,30.09,M,6.21,M,FEW,SCT,M,M,3500.00,12000.00,M,M,M,YBBN 311800Z 21006KT 9999 FEW035 SCT120 17/14 Q1019
YBBN,2015-10-31 18:30,153.1292,-27.3917,60.80,57.20,87.92,0.00,0.00,0.00,30.09,M,6.21,M,FEW,BKN,M,M,3500.00,12000.00,M,M,M,YBBN 311830Z 00000KT 9999 FEW035 BKN120 16/14 Q1019
YBBN,2015-10-31 19:00,153.1292,-27.3917,62.60,57.20,82.50,230.00,1.00,0.00,30.09,M,6.21,M,FEW,SCT,M,M,3500.00,12000.00,M,M,M,YBBN 311900Z 23001KT 9999 FEW035 SCT120 17/14 Q1019
YBBN,2015-10-31 19:30,153.1292,-27.3917,62.60,57.20,82.50,210.00,5.00,0.00,30.12,M,6.21,M,FEW,BKN,M,M,3000.00,30000.00,M,M,M,YBBN 311930Z 21005KT 9999 FEW030 BKN300 17/14 Q1020
YBBN,2015-10-31 20:00,153.1292,-27.3917,64.40,59.00,82.62,200.00,5.00,0.00,30.12,M,6.21,M,FEW,BKN,M,M,3200.00,30000.00,M,M,M,YBBN 312000Z 20005KT 9999 FEW032 BKN300 18/15 Q1020 NOSIG
YBBN,2015-10-31 20:30,153.1292,-27.3917,66.20,59.00,77.60,200.00,3.00,0.00,30.12,M,6.21,M,FEW,BKN,M,M,2500.00,25000.00,M,M,M,YBBN 312030Z 20003KT 9999 FEW025 BKN250 19/15 Q1020
YBBN,2015-10-31 21:00,153.1292,-27.3917,68.00,57.20,68.35,200.00,4.00,0.00,30.12,M,6.21,M,FEW,BKN,M,M,2500.00,27000.00,M,M,M,YBBN 312100Z 20004KT 9999 FEW025 BKN270 20/14 Q1020
YBBN,2015-10-31 21:30,153.1292,-27.3917,69.80,57.20,64.26,230.00,4.00,0.00,30.12,M,6.21,M,FEW,BKN,M,M,2500.00,27000.00,M,M,M,YBBN 312130Z 23004KT 9999 FEW025 BKN270 21/14 Q1020
YBBN,2015-10-31 22:00,153.1292,-27.3917,71.60,57.20,60.44,290.00,4.00,0.00,30.12,M,6.21,M,FEW,BKN,M,M,2500.00,27000.00,M,M,M,YBBN 312200Z 29004KT 250V340 9999 FEW025 BKN270 22/14 Q1020
YBBN,2015-10-31 22:30,153.1292,-27.3917,71.60,57.20,60.44,340.00,5.00,0.00,30.12,M,6.21,M,FEW,BKN,M,M,2500.00,27000.00,M,M,M,YBBN 312230Z 34005KT 9999 FEW025 BKN270 22/14 Q1020
YBBN,2015-10-31 23:00,153.1292,-27.3917,73.40,57.20,56.88,350.00,7.00,0.00,30.12,M,6.21,M,FEW,BKN,M,M,2700.00,27000.00,M,M,M,YBBN 312300Z 35007KT 9999 FEW027 BKN270 23/14 Q1020 NOSIG
YBBN,2015-10-31 23:30,153.1292,-27.3917,75.20,59.00,57.12,10.00,8.00,0.00,30.12,M,6.21,M,FEW,BKN,M,M,3000.00,30000.00,M,M,M,YBBN 312330Z 01008KT 9999 FEW030 BKN300 24/15 Q1020
