#DEBUG: Format Typ    -> comma
#DEBUG: Time Period   -> 2012-11-08 00:00:00+00:00 2012-11-09 00:00:00+00:00
#DEBUG: Time Zone     -> Etc/UTC
#DEBUG: Data Contact   -> daryl herzmann akrherz@iastate.edu 515-294-5978
#DEBUG: Entries Found -> -1
station,valid,lon,lat,tmpf, dwpf, relh, drct, sknt, p01i, alti, mslp, vsby, gust, skyc1, skyc2, skyc3, skyc4, skyl1, skyl2, skyl3, skyl4, presentwx, metar
YBBN,2012-11-08 00:00,153.1292,-27.3917,77.00,68.00,73.78,30.00,16.00,0.00,29.97,M,6.21,M,FEW,SCT,BKN,M,1500.00,2500.00,6500.00,M,M,YBBN 080000Z 03016KT 9999 FEW015 SCT025 BKN065 25/20 Q1015 NOSIG
YBBN,2012-11-08 00:30,153.1292,-27.3917,78.80,66.20,65.33,20.00,18.00,0.00,29.97,M,6.21,M,FEW,M,M,M,1600.00,M,M,M,M,YBBN 080030Z 02018KT 9999 FEW016 26/19 Q1015
YBBN,2012-11-08 01:00,153.1292,-27.3917,77.00,66.20,69.33,20.00,18.00,0.00,29.97,M,6.21,M,FEW,M,M,M,2500.00,M,M,M,M,YBBN 080100Z 02018KT 9999 FEW025 25/19 Q1015 NOSIG
YBBN,2012-11-08 01:30,153.1292,-27.3917,78.80,66.20,65.33,20.00,17.00,0.00,29.97,M,6.21,M,FEW,M,M,M,1800.00,M,M,M,M,YBBN 080130Z 02017KT 9999 FEW018 26/19 Q1015
YBBN,2012-11-08 02:00,153.1292,-27.3917,78.80,66.20,65.33,20.00,18.00,0.00,29.97,M,6.21,M,FEW,M,M,M,1900.00,M,M,M,M,YBBN 080200Z 02018KT 9999 FEW019 26/19 Q1015
YBBN,2012-11-08 02:30,153.1292,-27.3917,77.00,66.20,69.33,20.00,18.00,0.00,29.94,M,6.21,M,FEW,M,M,M,2000.00,M,M,M,M,YBBN 080230Z 02018KT 9999 FEW020 25/19 Q1014
YBBN,2012-11-08 03:00,153.1292,-27.3917,77.00,64.40,65.12,20.00,18.00,0.00,29.94,M,6.21,M,FEW,M,M,M,2000.00,M,M,M,M,YBBN 080300Z 02018KT 9999 FEW020 25/18 Q1014 NOSIG
YBBN,2012-11-08 03:30,153.1292,-27.3917,78.80,66.20,65.33,30.00,17.00,0.00,29.94,M,6.21,M,FEW,M,M,M,1800.00,M,M,M,M,YBBN 080330Z 03017KT 9999 FEW018 26/19 Q1014
YBBN,2012-11-08 04:00,153.1292,-27.3917,77.00,64.40,65.12,20.00,17.00,0.00,29.94,M,6.21,M,FEW,M,M,M,1800.00,M,M,M,M,YBBN 080400Z 02017KT 9999 FEW018 25/18 Q1014
YBBN,2012-11-08 04:30,153.1292,-27.3917,77.00,64.40,65.12,30.00,17.00,0.00,29.91,M,6.21,M,FEW,SCT,M,M,1800.00,25000.00,M,M,M,YBBN 080430Z 03017KT 9999 FEW018 SCT250 25/18 Q1013
YBBN,2012-11-08 05:00,153.1292,-27.3917,78.80,64.40,61.36,20.00,18.00,0.00,29.91,M,6.21,M,FEW,M,M,M,2000.00,M,M,M,M,YBBN 080500Z 02018KT 9999 FEW020 26/18 Q1013
YBBN,2012-11-08 05:30,153.1292,-27.3917,77.00,64.40,65.12,20.00,19.00,0.00,29.91,M,6.21,M,FEW,M,M,M,2500.00,M,M,M,M,YBBN 080530Z 02019KT 9999 FEW025 25/18 Q1013
YBBN,2012-11-08 06:00,153.1292,-27.3917,77.00,64.40,65.12,10.00,17.00,0.00,29.91,M,6.21,M,FEW,M,M,M,2800.00,M,M,M,M,YBBN 080600Z 01017KT 9999 FEW028 25/18 Q1013
YBBN,2012-11-08 06:30,153.1292,-27.3917,77.00,62.60,61.13,20.00,18.00,0.00,29.91,M,6.21,M,FEW,M,M,M,2800.00,M,M,M,M,YBBN 080630Z 02018KT 9999 FEW028 25/17 Q1013
YBBN,2012-11-08 07:00,153.1292,-27.3917,75.20,62.60,64.91,20.00,17.00,0.00,29.94,M,6.21,M,FEW,M,M,M,2500.00,M,M,M,M,YBBN 080700Z 02017KT 9999 FEW025 24/17 Q1014 NOSIG
YBBN,2012-11-08 07:30,153.1292,-27.3917,75.20,62.60,64.91,20.00,15.00,0.00,29.94,M,6.21,M,FEW,M,M,M,2500.00,M,M,M,M,YBBN 080730Z 02015KT 9999 FEW025 24/17 Q1014
YBBN,2012-11-08 08:00,153.1292,-27.3917,73.40,62.60,68.94,20.00,14.00,0.00,29.94,M,6.21,M,FEW,M,M,M,2300.00,M,M,M,M,YBBN 080800Z 02014KT 9999 FEW023 23/17 Q1014
YBBN,2012-11-08 08:30,153.1292,-27.3917,73.40,62.60,68.94,20.00,15.00,0.00,29.97,M,6.21,M,FEW,M,M,M,2000.00,M,M,M,M,YBBN 080830Z 02015KT 9999 FEW020 23/17 Q1015
YBBN,2012-11-08 09:00,153.1292,-27.3917,73.40,62.60,68.94,20.00,15.00,0.00,29.97,M,6.21,M,FEW,M,M,M,2000.00,M,M,M,M,YBBN 080900Z 02015KT 9999 FEW020 23/17 Q1015
YBBN,2012-11-08 09:30,153.1292,-27.3917,73.40,62.60,68.94,20.00,15.00,0.00,29.97,M,6.21,M,FEW,M,M,M,2000.00,M,M,M,M,YBBN 080930Z 02015KT 9999 FEW020 23/17 Q1015
YBBN,2012-11-08 10:00,153.1292,-27.3917,73.40,64.40,73.44,20.00,15.00,0.00,29.97,M,6.21,M,FEW,M,M,M,2000.00,M,M,M,M,YBBN 081000Z 02015KT 9999 FEW020 23/18 Q1015
YBBN,2012-11-08 10:30,153.1292,-27.3917,73.40,62.60,68.94,20.00,16.00,0.00,29.97,M,6.21,M,FEW,M,M,M,2000.00,M,M,M,M,YBBN 081030Z 02016KT 9999 FEW020 23/17 Q1015
YBBN,2012-11-08 11:00,153.1292,-27.3917,73.40,64.40,73.44,10.00,15.00,0.00,30.00,M,6.21,M,FEW,M,M,M,2000.00,M,M,M,M,YBBN 081100Z 01015KT 9999 FEW020 23/18 Q1016 NOSIG
YBBN,2012-11-08 11:30,153.1292,-27.3917,73.40,64.40,73.44,20.00,15.00,0.00,30.00,M,6.21,M,FEW,M,M,M,2000.00,M,M,M,M,YBBN 081130Z 02015KT 9999 FEW020 23/18 Q1016
YBBN,2012-11-08 12:00,153.1292,-27.3917,71.60,64.40,78.04,20.00,15.00,0.00,30.00,M,6.21,M,FEW,M,M,M,2000.00,M,M,M,M,YBBN 081200Z 02015KT 9999 FEW020 22/18 Q1016
YBBN,2012-11-08 12:30,153.1292,-27.3917,73.40,64.40,73.44,10.00,15.00,0.00,30.00,M,6.21,M,FEW,SCT,M,M,2000.00,4000.00,M,M,M,YBBN 081230Z 01015KT 9999 FEW020 SCT040 23/18 Q1016
YBBN,2012-11-08 13:00,153.1292,-27.3917,73.40,64.40,73.44,10.00,14.00,0.00,30.00,M,6.21,M,SCT,BKN,M,M,2300.00,4000.00,M,M,M,YBBN 081300Z 01014KT 9999 SCT023 BKN040 23/18 Q1016 NOSIG
YBBN,2012-11-08 13:30,153.1292,-27.3917,73.40,64.40,73.44,10.00,13.00,0.00,30.00,M,6.21,M,SCT,BKN,M,M,2100.00,4000.00,M,M,M,YBBN 081330Z 01013KT 9999 SCT021 BKN040 23/18 Q1016
YBBN,2012-11-08 14:00,153.1292,-27.3917,73.40,64.40,73.44,10.00,14.00,0.00,29.97,M,6.21,M,SCT,BKN,M,M,2000.00,4000.00,M,M,M,YBBN 081400Z 01014KT 9999 SCT020 BKN040 23/18 Q1015
YBBN,2012-11-08 14:30,153.1292,-27.3917,73.40,66.20,78.19,10.00,14.00,0.00,29.97,M,6.21,M,BKN,BKN,M,M,2000.00,4000.00,M,M,M,YBBN 081430Z 01014KT 9999 BKN020 BKN040 23/19 Q1015
YBBN,2012-11-08 15:00,153.1292,-27.3917,71.60,66.20,83.09,360.00,15.00,0.00,29.97,M,6.21,M,BKN,M,M,M,2000.00,M,M,M,M,YBBN 081500Z 36015KT 9999 BKN020 22/19 Q1015 NOSIG
YBBN,2012-11-08 15:30,153.1292,-27.3917,71.60,68.00,88.43,310.00,8.00,0.00,29.97,M,6.21,M,BKN,M,M,M,1800.00,M,M,M,M,YBBN 081530Z 31008KT 9999 BKN018 22/20 Q1015
YBBN,2012-11-08 16:00,153.1292,-27.3917,71.60,66.20,83.09,360.00,9.00,0.00,29.94,M,6.21,M,BKN,M,M,M,1900.00,M,M,M,M,YBBN 081600Z 36009KT 9999 BKN019 22/19 Q1014
YBBN,2012-11-08 16:30,153.1292,-27.3917,71.60,66.20,83.09,360.00,9.00,0.00,29.94,M,6.21,M,SCT,BKN,M,M,1800.00,4000.00,M,M,M,YBBN 081630Z 36009KT 9999 SCT018 BKN040 22/19 Q1014
YBBN,2012-11-08 17:00,153.1292,-27.3917,71.60,66.20,83.09,360.00,11.00,0.00,29.94,M,6.21,M,FEW,SCT,M,M,1500.00,1800.00,M,M,M,YBBN 081700Z 36011KT 9999 FEW015 SCT018 22/19 Q1014
YBBN,2012-11-08 17:30,153.1292,-27.3917,71.60,66.20,83.09,350.00,11.00,0.00,29.97,M,6.21,M,FEW,SCT,BKN,M,1500.00,1800.00,3400.00,M,M,YBBN 081730Z 35011KT 9999 FEW015 SCT018 BKN034 22/19 Q1015
YBBN,2012-11-08 18:00,153.1292,-27.3917,73.40,66.20,78.19,350.00,10.00,0.00,29.97,M,6.21,M,FEW,BKN,M,M,1600.00,3800.00,M,M,M,YBBN 081800Z 35010KT 9999 FEW016 BKN038 23/19 Q1015 NOSIG
YBBN,2012-11-08 18:30,153.1292,-27.3917,71.60,66.20,83.09,310.00,9.00,0.00,29.97,M,6.21,M,FEW,BKN,M,M,1700.00,4000.00,M,M,M,YBBN 081830Z 31009KT 9999 FEW017 BKN040 22/19 Q1015
YBBN,2012-11-08 19:00,153.1292,-27.3917,71.60,66.20,83.09,280.00,5.00,0.00,30.00,M,6.21,M,FEW,SCT,M,M,2000.00,4000.00,M,M,M,YBBN 081900Z 28005KT 9999 FEW020 SCT040 22/19 Q1016
YBBN,2012-11-08 19:30,153.1292,-27.3917,71.60,66.20,83.09,270.00,4.00,0.00,30.00,M,6.21,M,FEW,BKN,M,M,1700.00,5000.00,M,M,M,YBBN 081930Z 27004KT 9999 FEW017 BKN050 22/19 Q1016
YBBN,2012-11-08 20:00,153.1292,-27.3917,73.40,66.20,78.19,290.00,5.00,0.00,30.00,M,6.21,M,FEW,BKN,M,M,1800.00,6000.00,M,M,M,YBBN 082000Z 29005KT 9999 FEW018 BKN060 23/19 Q1016 NOSIG
YBBN,2012-11-08 20:30,153.1292,-27.3917,73.40,64.40,73.44,300.00,5.00,0.00,30.00,M,6.21,M,FEW,M,M,M,2500.00,M,M,M,M,YBBN 082030Z 30005KT 9999 FEW025 23/18 Q1016
YBBN,2012-11-08 21:00,153.1292,-27.3917,75.20,64.40,69.14,340.00,7.00,0.00,30.00,M,6.21,M,FEW,M,M,M,2500.00,M,M,M,M,YBBN 082100Z 34007KT 9999 FEW025 24/18 Q1016 NOSIG
YBBN,2012-11-08 21:30,153.1292,-27.3917,77.00,64.40,65.12,10.00,8.00,0.00,30.03,M,6.21,M,FEW,M,M,M,2500.00,M,M,M,M,YBBN 082130Z 01008KT 9999 FEW025 25/18 Q1017
YBBN,2012-11-08 22:00,153.1292,-27.3917,77.00,66.20,69.33,360.00,8.00,0.00,30.03,M,6.21,M,FEW,M,M,M,2500.00,M,M,M,M,YBBN 082200Z 36008KT 9999 FEW025 25/19 Q1017 NOSIG
YBBN,2012-11-08 22:30,153.1292,-27.3917,78.80,64.40,61.36,10.00,12.00,0.00,30.03,M,6.21,M,FEW,M,M,M,2800.00,M,M,M,M,YBBN 082230Z 01012KT 9999 FEW028 26/18 Q1017
YBBN,2012-11-08 23:00,153.1292,-27.3917,78.80,66.20,65.33,20.00,14.00,0.00,30.03,M,6.21,M,FEW,M,M,M,2800.00,M,M,M,M,YBBN 082300Z 02014KT 9999 FEW028 26/19 Q1017 NOSIG
YBBN,2012-11-08 23:30,153.1292,-27.3917,78.80,66.20,65.33,10.00,12.00,0.00,30.00,M,6.21,M,FEW,M,M,M,2800.00,M,M,M,M,YBBN 082330Z 01012KT 9999 FEW028 26/19 Q1016
