#DEBUG: Format Typ    -> comma
#DEBUG: Time Period   -> 2012-02-20 00:00:00+00:00 2012-02-21 00:00:00+00:00
#DEBUG: Time Zone     -> Etc/UTC
#DEBUG: Data Contact   -> daryl herzmann akrherz@iastate.edu 515-294-5978
#DEBUG: Entries Found -> -1
station,valid,lon,lat,tmpf, dwpf, relh, drct, sknt, p01i, alti, mslp, vsby, gust, skyc1, skyc2, skyc3, skyc4, skyl1, skyl2, skyl3, skyl4, presentwx, metar
YBBN,2012-02-20 00:00,153.1292,-27.3917,82.40,69.80,65.74,10.00,7.00,0.00,29.91,M,6.21,M,FEW,BKN,M,M,2800.00,30000.00,M,M,M,YBBN 200000Z 01007KT 9999 FEW028 BKN300 28/21 Q1013
YBBN,2012-02-20 00:30,153.1292,-27.3917,84.20,68.00,58.32,10.00,8.00,0.00,29.88,M,6.21,M,FEW,BKN,M,M,3000.00,30000.00,M,M,M,YBBN 200030Z 01008KT 9999 FEW030 BKN300 29/20 Q1012
YBBN,2012-02-20 01:00,153.1292,-27.3917,84.20,69.80,62.03,20.00,11.00,0.00,29.88,M,6.21,M,FEW,BKN,M,M,3000.00,30000.00,M,M,M,YBBN 200100Z 02011KT 9999 FEW030 BKN300 29/21 Q1012
YBBN,2012-02-20 01:30,153.1292,-27.3917,84.20,69.80,62.03,20.00,10.00,0.00,29.88,M,6.21,M,FEW,SCT,M,M,3000.00,30000.00,M,M,M,YBBN 200130Z 02010KT 9999 FEW030 SCT300 29/21 Q1012
YBBN,2012-02-20 02:00,153.1292,-27.3917,84.20,69.80,62.03,40.00,10.00,0.00,29.85,M,6.21,M,FEW,SCT,M,M,3200.00,30000.00,M,M,M,YBBN 200200Z 04010KT 9999 FEW032 SCT300 29/21 Q1011 NOSIG
YBBN,2012-02-20 02:30,153.1292,-27.3917,84.20,71.60,65.95,30.00,13.00,0.00,29.85,M,6.21,M,FEW,BKN,M,M,3500.00,30000.00,M,M,M,YBBN 200230Z 03013KT 9999 FEW035 BKN300 29/22 Q1011
YBBN,2012-02-20 03:00,153.1292,-27.3917,84.20,71.60,65.95,40.00,14.00,0.00,29.85,M,6.21,M,FEW,SCT,M,M,3500.00,30000.00,M,M,M,YBBN 200300Z 04014KT 9999 FEW035 SCT300 29/22 Q1011 NOSIG
YBBN,2012-02-20 03:30,153.1292,-27.3917,84.20,71.60,65.95,30.00,13.00,0.00,29.83,M,6.21,M,FEW,BKN,M,M,3500.00,30000.00,M,M,M,YBBN 200330Z 03013KT 9999 FEW035 BKN300 29/22 Q1010
YBBN,2012-02-20 04:00,153.1292,-27.3917,84.20,71.60,65.95,30.00,14.00,0.00,29.83,M,6.21,M,FEW,BKN,M,M,3500.00,30000.00,M,M,M,YBBN 200400Z 03014KT 9999 FEW035 BKN300 29/22 Q1010 NOSIG
YBBN,2012-02-20 04:30,153.1292,-27.3917,84.20,73.40,70.08,30.00,13.00,0.00,29.83,M,6.21,M,FEW,BKN,M,M,3500.00,30000.00,M,M,M,YBBN 200430Z 03013KT 9999 FEW035 BKN300 29/23 Q1010
YBBN,2012-02-20 05:00,153.1292,-27.3917,82.40,71.60,69.90,20.00,12.00,0.00,29.83,M,6.21,M,FEW,BKN,M,M,3800.00,30000.00,M,M,M,YBBN 200500Z 02012KT 9999 FEW038 BKN300 28/22 Q1010 NOSIG
YBBN,2012-02-20 05:30,153.1292,-27.3917,80.60,71.60,74.11,20.00,13.00,0.00,29.80,M,6.21,M,FEW,BKN,M,M,3800.00,30000.00,M,M,M,YBBN 200530Z 02013KT 9999 FEW038 BKN300 27/22 Q1009
YBBN,2012-02-20 06:00,153.1292,-27.3917,82.40,73.40,74.28,20.00,12.00,0.00,29.80,M,6.21,M,FEW,SCT,M,M,3800.00,30000.00,M,M,M,YBBN 200600Z 02012KT 9999 FEW038 SCT300 28/23 Q1009 NOSIG
YBBN,2012-02-20 06:30,153.1292,-27.3917,80.60,71.60,74.11,20.00,14.00,0.00,29.80,M,6.21,M,FEW,SCT,M,M,3500.00,30000.00,M,M,M,YBBN 200630Z 02014KT 9999 FEW035 SCT300 27/22 Q1009
YBBN,2012-02-20 07:00,153.1292,-27.3917,80.60,71.60,74.11,10.00,15.00,0.00,29.77,M,6.21,M,FEW,SCT,M,M,3500.00,14000.00,M,M,M,YBBN 200700Z 01015KT 9999 FEW035 SCT140 27/22 Q1008
YBBN,2012-02-20 07:30,153.1292,-27.3917,80.60,71.60,74.11,10.00,17.00,0.00,29.77,M,6.21,M,FEW,M,M,M,3500.00,M,M,M,M,YBBN 200730Z 01017KT 9999 FEW035 27/22 Q1008 RMK DIST CB TOP TO S
YBBN,2012-02-20 08:00,153.1292,-27.3917,78.80,69.80,73.95,10.00,14.00,0.00,29.80,M,6.21,M,FEW,M,M,M,3500.00,M,M,M,M,YBBN 200800Z 01014KT 9999 FEW035 26/21 Q1009 NOSIG
YBBN,2012-02-20 08:30,153.1292,-27.3917,78.80,71.60,78.62,10.00,16.00,0.00,29.80,M,6.21,M,FEW,SCT,M,M,3500.00,30000.00,M,M,M,YBBN 200830Z 01016KT 9999 FEW035 SCT300 26/22 Q1009
YBBN,2012-02-20 09:00,153.1292,-27.3917,78.80,71.60,78.62,10.00,15.00,0.00,29.80,M,6.21,M,FEW,SCT,M,M,3500.00,30000.00,M,M,M,YBBN 200900Z 01015KT 9999 FEW035 SCT300 26/22 Q1009 NOSIG
YBBN,2012-02-20 09:30,153.1292,-27.3917,78.80,71.60,78.62,10.00,15.00,0.00,29.80,M,6.21,M,FEW,SCT,M,M,2000.00,30000.00,M,M,M,YBBN 200930Z 01015KT 9999 FEW020 SCT300 26/22 Q1009
YBBN,2012-02-20 10:00,153.1292,-27.3917,78.80,71.60,78.62,10.00,15.00,0.00,29.83,M,6.21,M,FEW,SCT,M,M,2500.00,15000.00,M,M,M,YBBN 201000Z 01015KT 9999 FEW025 SCT150 26/22 Q1010 NOSIG
YBBN,2012-02-20 10:30,153.1292,-27.3917,78.80,71.60,78.62,10.00,13.00,0.00,29.83,M,6.21,M,FEW,M,M,M,1600.00,M,M,M,M,YBBN 201030Z 01013KT 9999 FEW016 26/22 Q1010
YBBN,2012-02-20 11:00,153.1292,-27.3917,78.80,71.60,78.62,10.00,13.00,0.00,29.83,M,6.21,M,FEW,SCT,M,M,1600.00,11500.00,M,M,M,YBBN 201100Z 01013KT 9999 FEW016 SCT115 26/22 Q1010 NOSIG
YBBN,2012-02-20 11:30,153.1292,-27.3917,78.80,71.60,78.62,10.00,13.00,0.00,29.83,M,6.21,M,FEW,SCT,M,M,1600.00,12000.00,M,M,M,YBBN 201130Z 01013KT 9999 FEW016 SCT120 26/22 Q1010
YBBN,2012-02-20 12:00,153.1292,-27.3917,78.80,71.60,78.62,10.00,14.00,0.00,29.83,M,6.21,M,FEW,SCT,M,M,1800.00,12000.00,M,M,M,YBBN 201200Z 01014KT 9999 FEW018 SCT120 26/22 Q1010 NOSIG
YBBN,2012-02-20 12:30,153.1292,-27.3917,78.80,73.40,83.55,360.00,14.00,0.00,29.83,M,6.21,M,FEW,SCT,M,M,1700.00,12000.00,M,M,M,YBBN 201230Z 36014KT 9999 FEW017 SCT120 26/23 Q1010 RMK DIST LIGHTNING TO SW
YBBN,2012-02-20 13:00,153.1292,-27.3917,78.80,73.40,83.55,360.00,11.00,0.00,29.83,M,6.21,M,FEW,SCT,M,M,1600.00,12000.00,M,M,M,YBBN 201300Z 36011KT 9999 FEW016 SCT120 26/23 Q1010
YBBN,2012-02-20 13:30,153.1292,-27.3917,78.80,73.40,83.55,360.00,14.00,0.00,29.83,M,6.21,M,FEW,SCT,M,M,1600.00,8500.00,M,M,M,YBBN 201330Z 36014KT 9999 FEW016 SCT085 26/23 Q1010
YBBN,2012-02-20 14:00,153.1292,-27.3917,77.00,71.60,83.44,310.00,9.00,0.00,29.83,M,6.21,M,FEW,SCT,M,M,1600.00,7500.00,M,M,M,YBBN 201400Z 31009KT 9999 FEW016 SCT075 25/22 Q1010
YBBN,2012-02-20 14:30,153.1292,-27.3917,77.00,71.60,83.44,10.00,10.00,0.00,29.77,M,6.21,M,FEW,BKN,M,M,1600.00,25000.00,M,M,M,YBBN 201430Z 01010KT 9999 FEW016 BKN250 25/22 Q1008
YBBN,2012-02-20 15:00,153.1292,-27.3917,77.00,73.40,88.67,360.00,12.00,0.00,29.80,M,6.21,M,FEW,SCT,BKN,M,1600.00,8000.00,11000.00,M,M,YBBN 201500Z 36012KT 9999 FEW016 SCT080 BKN110 25/23 Q1009 NOSIG
YBBN,2012-02-20 15:30,153.1292,-27.3917,77.00,71.60,83.44,360.00,9.00,0.00,29.80,M,6.21,M,FEW,SCT,M,M,1600.00,10000.00,M,M,M,YBBN 201530Z 36009KT 9999 FEW016 SCT100 25/22 Q1009
YBBN,2012-02-20 16:00,153.1292,-27.3917,77.00,71.60,83.44,360.00,7.00,0.00,29.77,M,6.21,M,FEW,SCT,BKN,M,1600.00,10000.00,16000.00,M,VCSH,YBBN 201600Z 36007KT 9999 VCSH FEW016 SCT100 BKN160 25/22 Q1008
YBBN,2012-02-20 16:30,153.1292,-27.3917,75.20,71.60,88.59,230.00,7.00,0.00,29.80,M,6.21,M,FEW,BKN,M,M,1600.00,14000.00,M,M,VCSH,YBBN 201630Z 23007KT 9999 VCSH FEW016 BKN140 24/22 Q1009 RMK LIGHTNING TO DIST SE
YBBN,2012-02-20 17:00,153.1292,-27.3917,75.20,71.60,88.59,230.00,5.00,0.00,29.80,M,5.59,M,FEW,BKN,FEW,M,1600.00,12000.00,3000.00,M,VCSH,YBBN 201700Z 23005KT 9000 VCSH FEW016 BKN120 FEW030CB 24/22 Q1009 INTER 1800/2000 3000 SHRA BKN010
YBBN,2012-02-20 17:30,153.1292,-27.3917,75.20,73.40,94.14,260.00,6.00,0.00,29.80,M,3.73,M,FEW,SCT,BKN,FEW,1600.00,4000.00,12000.00,3500.00,VCTS -RA,YBBN 201730Z 26006KT 6000 VCTS -RA FEW016 SCT040 BKN120 FEW035CB 24/23 Q1009
YBBN,2012-02-20 17:53,153.1292,-27.3917,75.20,73.40,94.14,220.00,5.00,0.00,29.80,M,5.59,M,FEW,SCT,BKN,FEW,1600.00,4000.00,8000.00,3500.00,VCTS -SHRA,YBBN 201753Z 22005KT 9000 VCTS -SHRA FEW016 SCT040 BKN080 FEW035CB 24/23 Q1009
YBBN,2012-02-20 18:00,153.1292,-27.3917,75.20,73.40,94.14,220.00,6.00,0.00,29.80,M,4.97,M,FEW,BKN,FEW,M,1500.00,8000.00,3500.00,M,-SHRA VCTS,YBBN 201800Z 22006KT 8000 -SHRA VCTS FEW015 BKN080 FEW035CB 24/23 Q1009
YBBN,2012-02-20 18:08,153.1292,-27.3917,75.20,73.40,94.14,210.00,8.00,0.00,29.80,M,6.21,M,FEW,SCT,BKN,FEW,1500.00,4000.00,8000.00,3500.00,TSRA,YBBN 201808Z 21008KT 9999 4000SW TSRA FEW015 SCT040 BKN080 FEW035CB 24/23 Q1009
YBBN,2012-02-20 18:24,153.1292,-27.3917,75.20,73.40,94.14,200.00,8.00,0.00,29.80,M,6.21,M,FEW,SCT,BKN,FEW,600.00,1500.00,8000.00,3500.00,-SHRA VCTS,YBBN 201824Z 20008KT 9999 5000E -SHRA VCTS FEW006 SCT015 BKN080 FEW035CB 24/23 Q1009
YBBN,2012-02-20 18:30,153.1292,-27.3917,73.40,71.60,94.10,190.00,9.00,0.00,29.80,M,4.35,M,FEW,BKN,FEW,M,1500.00,6500.00,3500.00,M,VCTS -SHRA,YBBN 201830Z 19009KT 7000 VCTS -SHRA FEW015 BKN065 FEW035CB 23/22 Q1009 RETS
YBBN,2012-02-20 18:48,153.1292,-27.3917,73.40,71.60,94.10,150.00,6.00,0.00,29.80,M,6.21,M,FEW,BKN,FEW,M,1500.00,8000.00,3500.00,M,VCTS -SHRA,YBBN 201848Z 15006KT 9999 VCTS -SHRA FEW015 BKN080 FEW035CB 23/22 Q1009 RETS
YBBN,2012-02-20 19:00,153.1292,-27.3917,73.40,71.60,94.10,140.00,5.00,0.00,29.80,M,6.21,M,FEW,BKN,M,M,1200.00,7000.00,M,M,VCSH,YBBN 201900Z 14005KT 9999 VCSH FEW012 BKN070 23/22 Q1009 RETS
YBBN,2012-02-20 19:30,153.1292,-27.3917,73.40,71.60,94.10,200.00,5.00,0.00,29.83,M,6.21,M,SCT,BKN,M,M,800.00,1300.00,M,M,VCSH,YBBN 201930Z 20005KT 9999 VCSH SCT008 BKN013 23/22 Q1010
YBBN,2012-02-20 19:46,153.1292,-27.3917,73.40,71.60,94.10,200.00,2.00,0.00,29.83,M,6.21,M,SCT,SCT,BKN,M,800.00,4000.00,7000.00,M,VCSH,YBBN 201946Z 20002KT 9999 VCSH SCT008 SCT040 BKN070 23/22 Q1010
YBBN,2012-02-20 20:00,153.1292,-27.3917,73.40,71.60,94.10,210.00,3.00,0.00,29.83,M,6.21,M,SCT,SCT,M,M,700.00,1300.00,M,M,VCSH,YBBN 202000Z 21003KT 9999 VCSH SCT007 SCT013 23/22 Q1010
YBBN,2012-02-20 20:30,153.1292,-27.3917,73.40,71.60,94.10,200.00,3.00,0.00,29.83,M,6.21,M,SCT,BKN,BKN,M,900.00,6800.00,8500.00,M,VCSH,YBBN 202030Z 20003KT 9999 VCSH SCT009 BKN068 BKN085 23/22 Q1010
YBBN,2012-02-20 21:00,153.1292,-27.3917,73.40,71.60,94.10,220.00,5.00,0.00,29.83,M,6.21,M,BKN,BKN,M,M,700.00,3100.00,M,M,M,YBBN 202100Z 22005KT 9999 BKN007 BKN031 23/22 Q1010
YBBN,2012-02-20 21:30,153.1292,-27.3917,73.40,71.60,94.10,80.00,3.00,0.00,29.83,M,6.21,M,BKN,BKN,M,M,700.00,4000.00,M,M,M,YBBN 202130Z 08003KT 9999 BKN007 BKN040 23/22 Q1010
YBBN,2012-02-20 22:00,153.1292,-27.3917,77.00,71.60,83.44,70.00,5.00,0.00,29.83,M,6.21,M,BKN,BKN,M,M,800.00,30000.00,M,M,VCSH,YBBN 202200Z 07005KT 9999 VCSH BKN008 BKN300 25/22 Q1010
YBBN,2012-02-20 22:30,153.1292,-27.3917,77.00,71.60,83.44,70.00,4.00,0.00,29.80,M,6.21,M,SCT,SCT,BKN,M,1000.00,3000.00,30000.00,M,M,YBBN 202230Z 07004KT 9999 SCT010 SCT030 BKN300 25/22 Q1009
YBBN,2012-02-20 23:00,153.1292,-27.3917,77.00,73.40,88.67,60.00,5.00,0.00,29.80,M,6.21,M,BKN,M,M,M,1200.00,M,M,M,M,YBBN 202300Z 06005KT 9999 BKN012 25/23 Q1009
YBBN,2012-02-20 23:30,153.1292,-27.3917,78.80,73.40,83.55,60.00,6.00,0.00,29.80,M,6.21,M,SCT,BKN,M,M,1200.00,2100.00,M,M,M,YBBN 202330Z 06006KT 9999 SCT012 BKN021 26/23 Q1009
