#DEBUG: Format Typ    -> comma
#DEBUG: Time Period   -> 2015-12-18 00:00:00+00:00 2015-12-19 00:00:00+00:00
#DEBUG: Time Zone     -> Etc/UTC
#DEBUG: Data Contact   -> daryl herzmann akrherz@iastate.edu 515-294-5978
#DEBUG: Entries Found -> -1
station,valid,lon,lat,tmpf, dwpf, relh, drct, sknt, p01i, alti, mslp, vsby, gust, skyc1, skyc2, skyc3, skyc4, skyl1, skyl2, skyl3, skyl4, presentwx, metar
YBBN,2015-12-18 00:00,153.1292,-27.3917,75.20,64.40,69.14,70.00,7.00,0.00,30.03,M,6.21,M,SCT,BKN,M,M,3000.00,6000.00,M,M,VCSH,YBBN 180000Z 07007KT 9999 VCSH SCT030 BKN060 24/18 Q1017
YBBN,2015-12-18 00:30,153.1292,-27.3917,77.00,64.40,65.12,80.00,6.00,0.00,30.03,M,6.21,M,SCT,SCT,M,M,3000.00,7000.00,M,M,VCSH,YBBN 180030Z 08006KT 9999 VCSH SCT030 SCT070 25/18 Q1017 NOSIG
YBBN,2015-12-18 01:00,153.1292,-27.3917,80.60,64.40,57.84,60.00,10.00,0.00,30.00,M,6.21,M,SCT,M,M,M,3200.00,M,M,M,VCSH,YBBN 180100Z 06010KT 9999 VCSH SCT032 27/18 Q1016 NOSIG
YBBN,2015-12-18 01:30,153.1292,-27.3917,78.80,62.60,57.60,70.00,11.00,0.00,30.00,M,6.21,M,SCT,M,M,M,2800.00,M,M,M,VCSH,YBBN 180130Z 07011KT 9999 VCSH SCT028 26/17 Q1016 NOSIG
YBBN,2015-12-18 02:00,153.1292,-27.3917,80.60,62.60,54.30,70.00,10.00,0.00,30.00,M,6.21,M,SCT,M,M,M,2800.00,M,M,M,VCSH,YBBN 180200Z 07010KT 9999 VCSH SCT028 27/17 Q1016 NOSIG
YBBN,2015-12-18 02:30,153.1292,-27.3917,80.60,62.60,54.30,90.00,11.00,0.00,30.00,M,6.21,M,SCT,M,M,M,3000.00,M,M,M,M,YBBN 180230Z 09011KT 9999 SCT030 27/17 Q1016 NOSIG
YBBN,2015-12-18 03:00,153.1292,-27.3917,80.60,62.60,54.30,70.00,9.00,0.00,30.00,M,6.21,M,FEW,M,M,M,3000.00,M,M,M,M,YBBN 180300Z 07009KT 9999 FEW030 27/17 Q1016
YBBN,2015-12-18 03:30,153.1292,-27.3917,80.60,62.60,54.30,60.00,13.00,0.00,29.97,M,6.21,M,SCT,M,M,M,3000.00,M,M,M,M,YBBN 180330Z 06013KT 9999 SCT030 27/17 Q1015 NOSIG
YBBN,2015-12-18 04:00,153.1292,-27.3917,80.60,62.60,54.30,70.00,11.00,0.00,29.97,M,6.21,M,FEW,M,M,M,3000.00,M,M,M,M,YBBN 180400Z 07011KT 9999 FEW030 27/17 Q1015 NOSIG
YBBN,2015-12-18 04:30,153.1292,-27.3917,78.80,62.60,57.60,70.00,11.00,0.00,29.97,M,6.21,M,FEW,M,M,M,3000.00,M,M,M,M,YBBN 180430Z 07011KT 9999 FEW030 26/17 Q1015 NOSIG
YBBN,2015-12-18 05:00,153.1292,-27.3917,80.60,60.80,50.95,60.00,12.00,0.00,29.97,M,6.21,M,FEW,M,M,M,3000.00,M,M,M,M,YBBN 180500Z 06012KT 9999 FEW030 27/16 Q1015 NOSIG
YBBN,2015-12-18 05:30,153.1292,-27.3917,78.80,62.60,57.60,70.00,11.00,0.00,29.94,M,6.21,M,FEW,M,M,M,3000.00,M,M,M,M,YBBN 180530Z 07011KT 9999 FEW030 26/17 Q1014 NOSIG
YBBN,2015-12-18 06:00,153.1292,-27.3917,78.80,62.60,57.60,70.00,11.00,0.00,29.94,M,6.21,M,FEW,M,M,M,3500.00,M,M,M,M,YBBN 180600Z 07011KT 9999 FEW035 26/17 Q1014 NOSIG
YBBN,2015-12-18 06:30,153.1292,-27.3917,78.80,62.60,57.60,70.00,10.00,0.00,29.94,M,6.21,M,FEW,M,M,M,3300.00,M,M,M,M,YBBN 180630Z 07010KT 9999 FEW033 26/17 Q1014 NOSIG
YBBN,2015-12-18 07:00,153.1292,-27.3917,78.80,59.00,50.69,70.00,8.00,0.00,29.97,M,6.21,M,FEW,M,M,M,3300.00,M,M,M,M,YBBN 180700Z 07008KT 9999 FEW033 26/15 Q1015 NOSIG
YBBN,2015-12-18 09:00,153.1292,-27.3917,75.20,62.60,64.91,80.00,7.00,0.00,30.00,M,6.21,M,FEW,M,M,M,2800.00,M,M,M,M,YBBN 180900Z 08007KT 9999 FEW028 24/17 Q1016
YBBN,2015-12-18 09:30,153.1292,-27.3917,75.20,62.60,64.91,80.00,7.00,0.00,30.00,M,6.21,M,FEW,M,M,M,2800.00,M,M,M,M,YBBN 180930Z 08007KT 9999 FEW028 24/17 Q1016 NOSIG
YBBN,2015-12-18 10:00,153.1292,-27.3917,73.40,62.60,68.94,80.00,6.00,0.00,30.00,M,6.21,M,FEW,M,M,M,3000.00,M,M,M,M,YBBN 181000Z 08006KT 9999 FEW030 23/17 Q1016 NOSIG
YBBN,2015-12-18 10:30,153.1292,-27.3917,73.40,62.60,68.94,80.00,6.00,0.00,30.00,M,6.21,M,FEW,M,M,M,3100.00,M,M,M,M,YBBN 181030Z 08006KT 9999 FEW031 23/17 Q1016 NOSIG
YBBN,2015-12-18 11:00,153.1292,-27.3917,73.40,62.60,68.94,80.00,7.00,0.00,30.03,M,6.21,M,FEW,M,M,M,3300.00,M,M,M,M,YBBN 181100Z 08007KT 9999 FEW033 23/17 Q1017 NOSIG
YBBN,2015-12-18 11:30,153.1292,-27.3917,73.40,62.60,68.94,90.00,5.00,0.00,30.03,M,6.21,M,FEW,M,M,M,3000.00,M,M,M,M,YBBN 181130Z 09005KT 9999 FEW030 23/17 Q1017 NOSIG
YBBN,2015-12-18 12:00,153.1292,-27.3917,73.40,62.60,68.94,70.00,4.00,0.00,30.03,M,6.21,M,FEW,M,M,M,3000.00,M,M,M,M,YBBN 181200Z 07004KT 9999 FEW030 23/17 Q1017
YBBN,2015-12-18 12:30,153.1292,-27.3917,73.40,62.60,68.94,70.00,5.00,0.00,30.03,M,6.21,M,FEW,M,M,M,3000.00,M,M,M,M,YBBN 181230Z 07005KT 9999 FEW030 23/17 Q1017 NOSIG
YBBN,2015-12-18 13:00,153.1292,-27.3917,71.60,62.60,73.27,70.00,4.00,0.00,30.00,M,6.21,M,FEW,M,M,M,2800.00,M,M,M,M,YBBN 181300Z 07004KT 9999 FEW028 22/17 Q1016
YBBN,2015-12-18 13:30,153.1292,-27.3917,71.60,64.40,78.04,0.00,0.00,0.00,30.00,M,6.21,M,FEW,M,M,M,2500.00,M,M,M,M,YBBN 181330Z 00000KT 9999 FEW025 22/18 Q1016 NOSIG
YBBN,2015-12-18 14:00,153.1292,-27.3917,71.60,62.60,73.27,80.00,2.00,0.00,30.00,M,6.21,M,FEW,M,M,M,4000.00,M,M,M,M,YBBN 181400Z 08002KT 9999 FEW040 22/17 Q1016
YBBN,2015-12-18 14:30,153.1292,-27.3917,69.80,62.60,77.90,50.00,4.00,0.00,30.00,M,6.21,M,FEW,M,M,M,2900.00,M,M,M,M,YBBN 181430Z 05004KT 9999 FEW029 21/17 Q1016
YBBN,2015-12-18 15:00,153.1292,-27.3917,71.60,62.60,73.27,60.00,4.00,0.00,30.00,M,6.21,M,FEW,M,M,M,3000.00,M,M,M,M,YBBN 181500Z 06004KT 9999 FEW030 22/17 Q1016
YBBN,2015-12-18 15:30,153.1292,-27.3917,69.80,62.60,77.90,40.00,1.00,0.00,29.97,M,6.21,M,FEW,M,M,M,3000.00,M,M,M,M,YBBN 181530Z 04001KT 9999 FEW030 21/17 Q1015 NOSIG
YBBN,2015-12-18 16:00,153.1292,-27.3917,66.20,62.60,88.18,0.00,0.00,0.00,29.97,M,6.21,M,M,M,M,M,M,M,M,M,M,YBBN 181600Z 00000KT CAVOK 19/17 Q1015
YBBN,2015-12-18 16:30,153.1292,-27.3917,66.20,62.60,88.18,210.00,5.00,0.00,29.97,M,6.21,M,M,M,M,M,M,M,M,M,M,YBBN 181630Z 21005KT CAVOK 19/17 Q1015 NOSIG
YBBN,2015-12-18 17:00,153.1292,-27.3917,68.00,64.40,88.26,210.00,5.00,0.00,29.97,M,6.21,M,FEW,SCT,M,M,3000.00,5000.00,M,M,M,YBBN 181700Z 21005KT 9999 FEW030 SCT050 20/18 Q1015
YBBN,2015-12-18 17:30,153.1292,-27.3917,68.00,62.60,82.86,190.00,6.00,0.00,29.97,M,6.21,M,FEW,M,M,M,3000.00,M,M,M,M,YBBN 181730Z 19006KT 9999 FEW030 20/17 Q1015 NOSIG
YBBN,2015-12-18 18:00,153.1292,-27.3917,66.20,62.60,88.18,200.00,5.00,0.00,29.97,M,6.21,M,FEW,M,M,M,3000.00,M,M,M,M,YBBN 181800Z 20005KT 9999 FEW030 19/17 Q1015
YBBN,2015-12-18 18:30,153.1292,-27.3917,68.00,62.60,82.86,190.00,6.00,0.00,29.97,M,6.21,M,FEW,M,M,M,3000.00,M,M,M,M,YBBN 181830Z 19006KT 9999 FEW030 20/17 Q1015 NOSIG
YBBN,2015-12-18 19:00,153.1292,-27.3917,66.20,62.60,88.18,200.00,7.00,0.00,30.00,M,6.21,M,FEW,M,M,M,3500.00,M,M,M,M,YBBN 181900Z 20007KT 9999 FEW035 19/17 Q1016
YBBN,2015-12-18 19:30,153.1292,-27.3917,66.20,62.60,88.18,210.00,7.00,0.00,30.00,M,6.21,M,FEW,M,M,M,3000.00,M,M,M,M,YBBN 181930Z 21007KT 9999 FEW030 19/17 Q1016 NOSIG
YBBN,2015-12-18 20:00,153.1292,-27.3917,69.80,62.60,77.90,200.00,6.00,0.00,30.00,M,6.21,M,FEW,M,M,M,2800.00,M,M,M,M,YBBN 182000Z 20006KT 9999 FEW028 21/17 Q1016
YBBN,2015-12-18 20:30,153.1292,-27.3917,69.80,64.40,82.98,210.00,7.00,0.00,30.03,M,6.21,M,FEW,M,M,M,2800.00,M,M,M,M,YBBN 182030Z 21007KT 9999 FEW028 21/18 Q1017 NOSIG
YBBN,2015-12-18 21:00,153.1292,-27.3917,73.40,62.60,68.94,210.00,7.00,0.00,30.03,M,6.21,M,FEW,M,M,M,3000.00,M,M,M,M,YBBN 182100Z 21007KT 9999 FEW030 23/17 Q1017
YBBN,2015-12-18 22:00,153.1292,-27.3917,77.00,59.00,53.80,110.00,6.00,0.00,30.03,M,6.21,M,FEW,M,M,M,3800.00,M,M,M,M,YBBN 182200Z 11006KT 9999 FEW038 25/15 Q1017 NOSIG
YBBN,2015-12-18 22:30,153.1292,-27.3917,78.80,59.00,50.69,80.00,7.00,0.00,30.03,M,6.21,M,SCT,M,M,M,4000.00,M,M,M,M,YBBN 182230Z 08007KT 050V140 9999 SCT040 26/15 Q1017 NOSIG
YBBN,2015-12-18 23:00,153.1292,-27.3917,78.80,59.00,50.69,70.00,7.00,0.00,30.03,M,6.21,M,FEW,M,M,M,4200.00,M,M,M,M,YBBN 182300Z 07007KT 050V120 9999 FEW042 26/15 Q1017 NOSIG
YBBN,2015-12-18 23:30,153.1292,-27.3917,78.80,59.00,50.69,90.00,7.00,0.00,30.03,M,6.21,M,FEW,M,M,M,4500.00,M,M,M,M,YBBN 182330Z 09007KT 060V120 9999 FEW045 26/15 Q1017 NOSIG
