#DEBUG: Format Typ    -> comma
#DEBUG: Time Period   -> 2014-03-09 00:00:00+00:00 2014-03-10 00:00:00+00:00
#DEBUG: Time Zone     -> Etc/UTC
#DEBUG: Data Contact   -> daryl herzmann akrherz@iastate.edu 515-294-5978
#DEBUG: Entries Found -> -1
station,valid,lon,lat,tmpf, dwpf, relh, drct, sknt, p01i, alti, mslp, vsby, gust, skyc1, skyc2, skyc3, skyc4, skyl1, skyl2, skyl3, skyl4, presentwx, metar
YBBN,2014-03-09 00:00,153.1292,-27.3917,78.80,62.60,57.60,100.00,9.00,0.00,30.12,M,6.21,M,SCT,BKN,M,M,3500.00,25000.00,M,M,M,YBBN 090000Z 10009KT 9999 SCT035 BKN250 26/17 Q1020
YBBN,2014-03-09 00:30,153.1292,-27.3917,78.80,62.60,57.60,110.00,10.00,0.00,30.09,M,6.21,M,SCT,BKN,M,M,3500.00,25000.00,M,M,M,YBBN 090030Z 11010KT 9999 SCT035 BKN250 26/17 Q1019
YBBN,2014-03-09 01:00,153.1292,-27.3917,77.00,64.40,65.12,130.00,11.00,0.00,30.09,M,5.59,M,FEW,BKN,M,M,3200.00,7500.00,M,M,-SHRA VCSH,YBBN 090100Z 13011KT 9000 -SHRA VCSH FEW032 BKN075 25/18 Q1019
YBBN,2014-03-09 01:30,153.1292,-27.3917,78.80,62.60,57.60,110.00,11.00,0.00,30.09,M,6.21,M,FEW,BKN,M,M,3200.00,7500.00,M,M,M,YBBN 090130Z 11011KT 9999 FEW032 BKN075 26/17 Q1019
YBBN,2014-03-09 02:00,153.1292,-27.3917,78.80,64.40,61.36,70.00,15.00,0.00,30.09,M,6.21,M,SCT,BKN,M,M,3400.00,4800.00,M,M,M,YBBN 090200Z 07015KT 9999 SCT034 BKN048 26/18 Q1019
YBBN,2014-03-09 02:30,153.1292,-27.3917,77.00,60.80,57.36,90.00,12.00,0.00,30.06,M,6.21,M,SCT,BKN,M,M,3400.00,5000.00,M,M,VCSH,YBBN 090230Z 09012KT 9999 VCSH SCT034 BKN050 25/16 Q1018
YBBN,2014-03-09 03:00,153.1292,-27.3917,78.80,62.60,57.60,90.00,9.00,0.00,30.06,M,6.21,M,FEW,BKN,M,M,3200.00,6500.00,M,M,M,YBBN 090300Z 09009KT 9999 FEW032 BKN065 26/17 Q1018 NOSIG
YBBN,2014-03-09 03:30,153.1292,-27.3917,80.60,60.80,50.95,110.00,11.00,0.00,30.03,M,6.21,M,FEW,BKN,M,M,3500.00,6500.00,M,M,M,YBBN 090330Z 11011KT 9999 FEW035 BKN065 27/16 Q1017
YBBN,2014-03-09 04:00,153.1292,-27.3917,77.00,62.60,61.13,70.00,13.00,0.00,30.03,M,3.73,M,FEW,SCT,BKN,M,1600.00,3500.00,7500.00,M,-SHRA,YBBN 090400Z 07013KT 6000 -SHRA FEW016 SCT035 BKN075 25/17 Q1017
YBBN,2014-03-09 04:30,153.1292,-27.3917,73.40,66.20,78.19,80.00,8.00,0.00,30.06,M,5.59,M,FEW,SCT,BKN,M,1800.00,3200.00,6700.00,M,VCSH,YBBN 090430Z 08008KT 9000 6000E VCSH FEW018 SCT032 BKN067 23/19 Q1018
YBBN,2014-03-09 04:44,153.1292,-27.3917,71.60,64.40,78.04,120.00,11.00,0.00,30.06,M,1.86,M,FEW,SCT,BKN,M,1300.00,2200.00,6500.00,M,SHRA,YBBN 090444Z 12011KT 3000 SHRA FEW013 SCT022 BKN065 22/18 Q1018
YBBN,2014-03-09 05:00,153.1292,-27.3917,73.40,62.60,68.94,130.00,7.00,0.00,30.06,M,3.73,M,FEW,SCT,BKN,M,1300.00,2400.00,4800.00,M,-SHRA VCSH,YBBN 090500Z 13007KT 6000 -SHRA VCSH FEW013 SCT024 BKN048 23/17 Q1018
YBBN,2014-03-09 05:30,153.1292,-27.3917,73.40,66.20,78.19,110.00,8.00,0.00,30.06,M,5.59,M,FEW,SCT,BKN,M,1300.00,2400.00,4500.00,M,VCSH,YBBN 090530Z 11008KT 9000 VCSH FEW013 SCT024 BKN045 23/19 Q1018
YBBN,2014-03-09 06:00,153.1292,-27.3917,77.00,64.40,65.12,100.00,8.00,0.00,30.03,M,6.21,M,SCT,BKN,M,M,2800.00,6500.00,M,M,VCSH,YBBN 090600Z 10008KT 9999 VCSH SCT028 BKN065 25/18 Q1017
YBBN,2014-03-09 06:30,153.1292,-27.3917,77.00,62.60,61.13,100.00,9.00,0.00,30.03,M,6.21,M,FEW,BKN,M,M,3000.00,6500.00,M,M,VCSH,YBBN 090630Z 10009KT 9999 VCSH FEW030 BKN065 25/17 Q1017
YBBN,2014-03-09 07:00,153.1292,-27.3917,77.00,62.60,61.13,100.00,9.00,0.00,30.06,M,6.21,M,FEW,BKN,M,M,3000.00,9500.00,M,M,M,YBBN 090700Z 10009KT 9999 FEW030 BKN095 25/17 Q1018 NOSIG
YBBN,2014-03-09 07:30,153.1292,-27.3917,77.00,62.60,61.13,100.00,9.00,0.00,30.06,M,6.21,M,FEW,BKN,M,M,3200.00,9000.00,M,M,M,YBBN 090730Z 10009KT 9999 FEW032 BKN090 25/17 Q1018
YBBN,2014-03-09 08:00,153.1292,-27.3917,75.20,62.60,64.91,110.00,8.00,0.00,30.06,M,6.21,M,FEW,BKN,M,M,3500.00,10000.00,M,M,M,YBBN 090800Z 11008KT 9999 FEW035 BKN100 24/17 Q1018 NOSIG
YBBN,2014-03-09 08:30,153.1292,-27.3917,75.20,60.80,60.90,110.00,8.00,0.00,30.06,M,6.21,M,FEW,BKN,M,M,2800.00,9200.00,M,M,M,YBBN 090830Z 11008KT 9999 FEW028 BKN092 24/16 Q1018
YBBN,2014-03-09 09:00,153.1292,-27.3917,75.20,62.60,64.91,100.00,7.00,0.00,30.09,M,6.21,M,FEW,SCT,BKN,M,2400.00,2800.00,9000.00,M,M,YBBN 090900Z 10007KT 9999 FEW024 SCT028 BKN090 24/17 Q1019 NOSIG
YBBN,2014-03-09 09:30,153.1292,-27.3917,75.20,62.60,64.91,100.00,7.00,0.00,30.09,M,6.21,M,FEW,SCT,BKN,M,2200.00,2800.00,9000.00,M,M,YBBN 090930Z 10007KT 9999 FEW022 SCT028 BKN090 24/17 Q1019 RMK DIST SHRA NW
YBBN,2014-03-09 10:00,153.1292,-27.3917,75.20,62.60,64.91,110.00,7.00,0.00,30.09,M,6.21,M,FEW,SCT,BKN,M,2000.00,2700.00,8200.00,M,VCSH,YBBN 091000Z 11007KT 9999 VCSH FEW020 SCT027 BKN082 24/17 Q1019 NOSIG
YBBN,2014-03-09 10:30,153.1292,-27.3917,75.20,62.60,64.91,110.00,7.00,0.00,30.09,M,6.21,M,FEW,SCT,BKN,M,2000.00,4400.00,9000.00,M,VCSH,YBBN 091030Z 11007KT 9999 VCSH FEW020 SCT044 BKN090 24/17 Q1019
YBBN,2014-03-09 11:00,153.1292,-27.3917,75.20,62.60,64.91,110.00,6.00,0.00,30.09,M,6.21,M,FEW,SCT,BKN,M,2000.00,4400.00,25000.00,M,VCSH,YBBN 091100Z 11006KT 9999 VCSH FEW020 SCT044 BKN250 24/17 Q1019 NOSIG
YBBN,2014-03-09 11:30,153.1292,-27.3917,75.20,62.60,64.91,110.00,7.00,0.00,30.09,M,6.21,M,FEW,SCT,BKN,M,2000.00,2800.00,26000.00,M,VCSH,YBBN 091130Z 11007KT 9999 VCSH FEW020 SCT028 BKN260 24/17 Q1019
YBBN,2014-03-09 12:00,153.1292,-27.3917,75.20,62.60,64.91,110.00,7.00,0.00,30.09,M,6.21,M,FEW,BKN,M,M,2200.00,28000.00,M,M,M,YBBN 091200Z 11007KT 9999 FEW022 BKN280 24/17 Q1019 INTER 1400/1500 3000 SHRA BKN012
YBBN,2014-03-09 12:30,153.1292,-27.3917,75.20,62.60,64.91,120.00,7.00,0.00,30.09,M,6.21,M,FEW,SCT,BKN,M,2000.00,7800.00,28000.00,M,M,YBBN 091230Z 12007KT 9999 FEW020 SCT078 BKN280 24/17 Q1019 RMK DIST SH N/NE
YBBN,2014-03-09 13:00,153.1292,-27.3917,75.20,64.40,69.14,90.00,8.00,0.00,30.09,M,6.21,M,FEW,SCT,BKN,M,1900.00,2700.00,9000.00,M,VCSH,YBBN 091300Z 09008KT 9999 VCSH FEW019 SCT027 BKN090 24/18 Q1019 INTER 1400/1600 3000 SHRA BKN012
YBBN,2014-03-09 13:30,153.1292,-27.3917,75.20,64.40,69.14,100.00,7.00,0.00,30.09,M,6.21,M,FEW,BKN,M,M,1900.00,4300.00,M,M,VCSH,YBBN 091330Z 10007KT 9999 VCSH FEW019 BKN043 24/18 Q1019 RMK SHRA W/SW
YBBN,2014-03-09 14:00,153.1292,-27.3917,75.20,64.40,69.14,120.00,5.00,0.00,30.09,M,6.21,M,FEW,SCT,BKN,M,1900.00,4200.00,5300.00,M,VCSH,YBBN 091400Z 12005KT 9999 VCSH FEW019 SCT042 BKN053 24/18 Q1019
YBBN,2014-03-09 14:30,153.1292,-27.3917,75.20,64.40,69.14,120.00,7.00,0.00,30.06,M,6.21,M,FEW,SCT,BKN,FEW,1800.00,2800.00,5600.00,3000.00,VCSH,YBBN 091430Z 12007KT 9999 VCSH FEW018 SCT028 BKN056 FEW030TCU 24/18 Q1018
YBBN,2014-03-09 15:00,153.1292,-27.3917,71.60,64.40,78.04,120.00,6.00,0.00,30.06,M,6.21,M,FEW,SCT,BKN,M,1800.00,2800.00,9000.00,M,VCSH,YBBN 091500Z 12006KT 9999 VCSH FEW018 SCT028 BKN090 22/18 Q1018 INTER 1500/1800 3000 SHRA BKN012
YBBN,2014-03-09 15:30,153.1292,-27.3917,71.60,64.40,78.04,150.00,7.00,0.00,30.06,M,6.21,M,FEW,SCT,BKN,M,1800.00,2800.00,7800.00,M,-SHRA,YBBN 091530Z 15007KT 9999 -SHRA FEW018 SCT028 BKN078 22/18 Q1018 RMK SHRA N/W
YBBN,2014-03-09 16:00,153.1292,-27.3917,69.80,64.40,82.98,180.00,6.00,0.00,30.06,M,6.21,M,FEW,SCT,BKN,M,1900.00,2800.00,9000.00,M,VCSH,YBBN 091600Z 18006KT 9999 VCSH FEW019 SCT028 BKN090 21/18 Q1018 INTER 1600/1900 3000 SHRA BKN012
YBBN,2014-03-09 16:30,153.1292,-27.3917,69.80,64.40,82.98,160.00,5.00,0.00,30.03,M,6.21,M,FEW,SCT,BKN,FEW,1900.00,4000.00,8700.00,3000.00,-SHRA,YBBN 091630Z 16005KT 9999 -SHRA FEW019 SCT040 BKN087 FEW030TCU 21/18 Q1017 RMK -SHRA NW
YBBN,2014-03-09 17:00,153.1292,-27.3917,69.80,64.40,82.98,170.00,5.00,0.00,30.03,M,6.21,M,FEW,SCT,BKN,M,1700.00,2800.00,9000.00,M,VCSH,YBBN 091700Z 17005KT 9999 VCSH FEW017 SCT028 BKN090 21/18 Q1017 INTER 1700/2000 3000 SHRA BKN012
YBBN,2014-03-09 17:21,153.1292,-27.3917,69.80,64.40,82.98,180.00,6.00,0.00,30.03,M,3.11,M,FEW,SCT,BKN,M,1700.00,2800.00,6300.00,M,SHRA,YBBN 091721Z 18006KT 5000 SHRA FEW017 SCT028 BKN063 21/18 Q1017
YBBN,2014-03-09 17:30,153.1292,-27.3917,68.00,66.20,93.97,160.00,6.00,0.00,30.03,M,4.97,M,FEW,SCT,BKN,FEW,1700.00,2800.00,6300.00,3000.00,SHRA,YBBN 091730Z 16006KT 8000 SHRA FEW017 SCT028 BKN063 FEW030TCU 20/19 Q1017
YBBN,2014-03-09 18:00,153.1292,-27.3917,71.60,66.20,83.09,110.00,8.00,0.00,30.03,M,6.21,M,FEW,SCT,BKN,M,2000.00,2800.00,9000.00,M,VCSH,YBBN 091800Z 11008KT 9999 VCSH FEW020 SCT028 BKN090 22/19 Q1017 INTER 1800/2100 3000 SHRA BKN012
YBBN,2014-03-09 18:23,153.1292,-27.3917,69.80,66.20,88.34,110.00,9.00,0.00,30.06,M,3.73,20.00,FEW,SCT,BKN,M,1800.00,2800.00,9000.00,M,SHRA,YBBN 091823Z 11009G20KT 6000 SHRA FEW018 SCT028 BKN090 21/19 Q1018
YBBN,2014-03-09 18:30,153.1292,-27.3917,69.80,66.20,88.34,120.00,11.00,0.00,30.03,M,3.73,M,FEW,SCT,BKN,M,1600.00,2800.00,6200.00,M,SHRA,YBBN 091830Z 12011KT 6000 SHRA FEW016 SCT028 BKN062 21/19 Q1017
YBBN,2014-03-09 18:50,153.1292,-27.3917,71.60,66.20,83.09,110.00,10.00,0.00,30.06,M,4.97,M,FEW,SCT,BKN,M,1600.00,1900.00,6000.00,M,-SHRA,YBBN 091850Z 11010KT 8000 -SHRA FEW016 SCT019 BKN060 22/19 Q1018 RESHRA
YBBN,2014-03-09 19:00,153.1292,-27.3917,71.60,66.20,83.09,100.00,10.00,0.00,30.06,M,5.59,M,FEW,SCT,BKN,M,1600.00,1900.00,6400.00,M,-SHRA,YBBN 091900Z 10010KT 9000 -SHRA FEW016 SCT019 BKN064 22/19 Q1018 INTER 1900/2200 3000 SHRA BKN012
YBBN,2014-03-09 19:30,153.1292,-27.3917,69.80,64.40,82.98,110.00,13.00,0.00,30.06,M,4.97,M,FEW,SCT,BKN,M,1200.00,1800.00,5800.00,M,-SHRA,YBBN 091930Z 11013KT 8000 -SHRA FEW012 SCT018 BKN058 21/18 Q1018
YBBN,2014-03-09 20:00,153.1292,-27.3917,69.80,64.40,82.98,110.00,6.00,0.00,30.06,M,6.21,M,FEW,SCT,BKN,M,1200.00,4200.00,5700.00,M,-SHRA,YBBN 092000Z 11006KT 9999 -SHRA FEW012 SCT042 BKN057 21/18 Q1018
YBBN,2014-03-09 20:30,153.1292,-27.3917,69.80,62.60,77.90,180.00,6.00,0.00,30.09,M,6.21,M,FEW,SCT,BKN,M,1200.00,2800.00,5600.00,M,VCSH,YBBN 092030Z 18006KT 9999 VCSH FEW012 SCT028 BKN056 21/17 Q1019
YBBN,2014-03-09 21:00,153.1292,-27.3917,71.60,60.80,68.75,100.00,6.00,0.00,30.09,M,6.21,M,FEW,SCT,BKN,M,1200.00,4200.00,5900.00,M,-SHRA,YBBN 092100Z 10006KT 9999 -SHRA FEW012 SCT042 BKN059 22/16 Q1019 INTER 2100/2400 3000 SHRA BKN012
YBBN,2014-03-09 21:30,153.1292,-27.3917,71.60,64.40,78.04,180.00,7.00,0.00,30.09,M,6.21,M,FEW,BKN,M,M,1200.00,6900.00,M,M,M,YBBN 092130Z 18007KT 9999 FEW012 BKN069 22/18 Q1019
YBBN,2014-03-09 22:00,153.1292,-27.3917,71.60,64.40,78.04,190.00,6.00,0.00,30.09,M,6.21,M,FEW,SCT,BKN,M,1500.00,7300.00,9200.00,M,M,YBBN 092200Z 19006KT 9999 FEW015 SCT073 BKN092 22/18 Q1019
YBBN,2014-03-09 22:30,153.1292,-27.3917,73.40,66.20,78.19,190.00,9.00,0.00,30.12,M,6.21,M,FEW,SCT,BKN,M,1500.00,3500.00,9200.00,M,M,YBBN 092230Z 19009KT 9999 FEW015 SCT035 BKN092 23/19 Q1020
YBBN,2014-03-09 23:00,153.1292,-27.3917,77.00,66.20,69.33,150.00,6.00,0.00,30.09,M,6.21,M,FEW,SCT,M,M,1600.00,3800.00,M,M,M,YBBN 092300Z 15006KT 9999 FEW016 SCT038 25/19 Q1019 NOSIG
