#DEBUG: Format Typ    -> comma
#DEBUG: Time Period   -> 2013-03-09 00:00:00+00:00 2013-03-10 00:00:00+00:00
#DEBUG: Time Zone     -> Etc/UTC
#DEBUG: Data Contact   -> daryl herzmann akrherz@iastate.edu 515-294-5978
#DEBUG: Entries Found -> -1
station,valid,lon,lat,tmpf, dwpf, relh, drct, sknt, p01i, alti, mslp, vsby, gust, skyc1, skyc2, skyc3, skyc4, skyl1, skyl2, skyl3, skyl4, presentwx, metar
YBBN,2013-03-09 00:00,153.1292,-27.3917,75.20,64.40,69.14,120.00,11.00,0.00,30.06,M,6.21,M,FEW,BKN,M,M,3000.00,7000.00,M,M,M,YBBN 090000Z 12011KT 9999 FEW030 BKN070 24/18 Q1018 INTER 0000/0300 3000 SHRA BKN014
YBBN,2013-03-09 00:30,153.1292,-27.3917,77.00,64.40,65.12,110.00,11.00,0.00,30.06,M,6.21,M,FEW,BKN,M,M,3000.00,7000.00,M,M,M,YBBN 090030Z 11011KT 9999 FEW030 BKN070 25/18 Q1018
YBBN,2013-03-09 01:00,153.1292,-27.3917,77.00,64.40,65.12,130.00,10.00,0.00,30.06,M,6.21,M,FEW,SCT,BKN,M,2500.00,3000.00,6500.00,M,M,YBBN 090100Z 13010KT 9999 FEW025 SCT030 BKN065 25/18 Q1018 INTER 0100/0400 3000 SHRA BKN014
YBBN,2013-03-09 01:30,153.1292,-27.3917,77.00,64.40,65.12,120.00,11.00,0.00,30.03,M,6.21,M,FEW,SCT,BKN,M,2800.00,3000.00,6500.00,M,VCSH,YBBN 090130Z 12011KT 9999 VCSH FEW028 SCT030 BKN065 25/18 Q1017 RMK SHOWERS TO THE NORTH AND NORTH EAST
YBBN,2013-03-09 02:00,153.1292,-27.3917,77.00,64.40,65.12,130.00,9.00,0.00,30.03,M,6.21,M,FEW,SCT,BKN,M,1500.00,2700.00,6000.00,M,VCSH,YBBN 090200Z 13009KT 9999 VCSH FEW015 SCT027 BKN060 25/18 Q1017
YBBN,2013-03-09 02:30,153.1292,-27.3917,77.00,64.40,65.12,130.00,11.00,0.00,30.03,M,6.21,M,FEW,SCT,BKN,M,1200.00,2700.00,4500.00,M,VCSH,YBBN 090230Z 13011KT 9999 VCSH FEW012 SCT027 BKN045 25/18 Q1017
YBBN,2013-03-09 02:49,153.1292,-27.3917,75.20,64.40,69.14,70.00,13.00,0.00,30.03,M,6.21,M,FEW,BKN,BKN,M,1200.00,2800.00,4500.00,M,-SHRA,YBBN 090249Z 07013KT 9999 4000N -SHRA FEW012 BKN028 BKN045 24/18 Q1017
YBBN,2013-03-09 03:00,153.1292,-27.3917,71.60,68.00,88.43,80.00,11.00,0.00,30.03,M,6.21,M,FEW,SCT,BKN,M,1500.00,3000.00,5000.00,M,-SHRA,YBBN 090300Z 08011KT 9999 5000NW -SHRA FEW015 SCT030 BKN050 22/20 Q1017
YBBN,2013-03-09 03:19,153.1292,-27.3917,77.00,68.00,73.78,90.00,7.00,0.00,30.00,M,6.21,M,FEW,BKN,BKN,M,1000.00,2500.00,5000.00,M,M,YBBN 090319Z 09007KT 9999 FEW010 BKN025 BKN050 25/20 Q1016
YBBN,2013-03-09 03:30,153.1292,-27.3917,77.00,66.20,69.33,90.00,10.00,0.00,30.00,M,6.21,M,FEW,SCT,BKN,M,1000.00,2500.00,5000.00,M,M,YBBN 090330Z 09010KT 9999 FEW010 SCT025 BKN050 25/19 Q1016
YBBN,2013-03-09 04:00,153.1292,-27.3917,77.00,68.00,73.78,80.00,8.00,0.00,30.00,M,6.21,M,FEW,BKN,M,M,1200.00,6500.00,M,M,M,YBBN 090400Z 08008KT 9999 FEW012 BKN065 25/20 Q1016 INTER 0400/0700 3000 SHRA BKN014
YBBN,2013-03-09 04:13,153.1292,-27.3917,73.40,64.40,73.44,80.00,11.00,0.00,30.00,M,6.21,M,FEW,SCT,BKN,M,1500.00,2300.00,6500.00,M,-SHRA,YBBN 090413Z 08011KT 9999 5000N -SHRA FEW015 SCT023 BKN065 23/18 Q1016
YBBN,2013-03-09 04:30,153.1292,-27.3917,73.40,66.20,78.19,90.00,7.00,0.00,30.00,M,6.21,M,FEW,SCT,BKN,M,1800.00,4000.00,5000.00,M,M,YBBN 090430Z 09007KT 9999 FEW018 SCT040 BKN050 23/19 Q1016
YBBN,2013-03-09 04:35,153.1292,-27.3917,73.40,66.20,78.19,90.00,7.00,0.00,30.00,M,6.21,M,SCT,SCT,OVC,M,2300.00,3000.00,5300.00,M,-SHRA,YBBN 090435Z AUTO 09007KT 9999 -SHRA SCT023 SCT030 OVC053 23/19 Q1016
YBBN,2013-03-09 05:00,153.1292,-27.3917,77.00,64.40,65.12,100.00,8.00,0.00,30.00,M,6.21,M,FEW,SCT,BKN,M,1800.00,4000.00,5500.00,M,M,YBBN 090500Z 10008KT 9999 FEW018 SCT040 BKN055 25/18 Q1016
YBBN,2013-03-09 05:30,153.1292,-27.3917,75.20,64.40,69.14,100.00,9.00,0.00,30.00,M,6.21,M,FEW,BKN,M,M,2800.00,5500.00,M,M,M,YBBN 090530Z 10009KT 9999 FEW028 BKN055 24/18 Q1016
YBBN,2013-03-09 06:00,153.1292,-27.3917,75.20,62.60,64.91,110.00,11.00,0.00,30.00,M,6.21,M,FEW,SCT,BKN,M,2700.00,5500.00,6500.00,M,M,YBBN 090600Z 11011KT 9999 FEW027 SCT055 BKN065 24/17 Q1016 INTER 0600/0900 3000 SHRA BKN015
YBBN,2013-03-09 06:30,153.1292,-27.3917,77.00,59.00,53.80,110.00,11.00,0.00,30.00,M,6.21,M,FEW,SCT,BKN,M,2800.00,5500.00,6500.00,M,M,YBBN 090630Z 11011KT 9999 FEW028 SCT055 BKN065 25/15 Q1016
YBBN,2013-03-09 07:00,153.1292,-27.3917,75.20,59.00,57.12,110.00,10.00,0.00,30.00,M,6.21,M,FEW,BKN,M,M,3000.00,6000.00,M,M,M,YBBN 090700Z 11010KT 9999 FEW030 BKN060 24/15 Q1016 INTER 0700/1000 3000 SHRA BKN015
YBBN,2013-03-09 07:30,153.1292,-27.3917,75.20,59.00,57.12,120.00,6.00,0.00,30.00,M,6.21,M,FEW,BKN,M,M,3000.00,6000.00,M,M,M,YBBN 090730Z 12006KT 9999 FEW030 BKN060 24/15 Q1016
YBBN,2013-03-09 08:00,153.1292,-27.3917,75.20,59.00,57.12,140.00,6.00,0.00,30.03,M,6.21,M,FEW,BKN,M,M,3000.00,6000.00,M,M,M,YBBN 090800Z 14006KT 9999 FEW030 BKN060 24/15 Q1017 INTER 0800/1100 3000 SHRA BKN015
YBBN,2013-03-09 08:30,153.1292,-27.3917,75.20,60.80,60.90,130.00,6.00,0.00,30.03,M,6.21,M,FEW,BKN,M,M,3000.00,6400.00,M,M,M,YBBN 090830Z 13006KT 9999 FEW030 BKN064 24/16 Q1017
YBBN,2013-03-09 09:00,153.1292,-27.3917,73.40,60.80,64.69,160.00,7.00,0.00,30.03,M,6.21,M,FEW,BKN,M,M,3000.00,6800.00,M,M,M,YBBN 090900Z 16007KT 9999 FEW030 BKN068 23/16 Q1017
YBBN,2013-03-09 09:30,153.1292,-27.3917,73.40,62.60,68.94,160.00,6.00,0.00,30.03,M,6.21,M,FEW,BKN,M,M,3000.00,7000.00,M,M,M,YBBN 090930Z 16006KT 9999 FEW030 BKN070 23/17 Q1017
YBBN,2013-03-09 10:00,153.1292,-27.3917,73.40,62.60,68.94,170.00,8.00,0.00,30.03,M,6.21,M,FEW,BKN,M,M,3000.00,6800.00,M,M,M,YBBN 091000Z 17008KT 9999 FEW030 BKN068 23/17 Q1017
YBBN,2013-03-09 10:30,153.1292,-27.3917,71.60,62.60,73.27,190.00,7.00,0.00,30.06,M,6.21,M,SCT,BKN,M,M,3000.00,6800.00,M,M,M,YBBN 091030Z 19007KT 9999 SCT030 BKN068 22/17 Q1018
YBBN,2013-03-09 11:00,153.1292,-27.3917,71.60,62.60,73.27,190.00,8.00,0.00,30.03,M,6.21,M,FEW,SCT,M,M,3000.00,6800.00,M,M,M,YBBN 091100Z 19008KT 9999 FEW030 SCT068 22/17 Q1017
YBBN,2013-03-09 11:30,153.1292,-27.3917,71.60,62.60,73.27,180.00,9.00,0.00,30.03,M,6.21,M,FEW,M,M,M,3000.00,M,M,M,M,YBBN 091130Z 18009KT 9999 FEW030 22/17 Q1017
YBBN,2013-03-09 12:00,153.1292,-27.3917,71.60,62.60,73.27,170.00,8.00,0.00,30.03,M,6.21,M,FEW,M,M,M,3000.00,M,M,M,M,YBBN 091200Z 17008KT 9999 FEW030 22/17 Q1017 INTER 1400/1500 3000 SHRA BKN015
YBBN,2013-03-09 12:30,153.1292,-27.3917,71.60,62.60,73.27,170.00,9.00,0.00,30.03,M,6.21,M,FEW,BKN,M,M,3000.00,6800.00,M,M,M,YBBN 091230Z 17009KT 9999 FEW030 BKN068 22/17 Q1017
YBBN,2013-03-09 13:00,153.1292,-27.3917,71.60,62.60,73.27,180.00,8.00,0.00,30.03,M,6.21,M,FEW,BKN,M,M,3000.00,6800.00,M,M,M,YBBN 091300Z 18008KT 9999 FEW030 BKN068 22/17 Q1017
YBBN,2013-03-09 13:30,153.1292,-27.3917,71.60,60.80,68.75,190.00,7.00,0.00,30.03,M,6.21,M,FEW,BKN,M,M,3000.00,7000.00,M,M,M,YBBN 091330Z 19007KT 9999 FEW030 BKN070 22/16 Q1017
YBBN,2013-03-09 14:00,153.1292,-27.3917,69.80,62.60,77.90,190.00,7.00,0.00,30.03,M,6.21,M,FEW,BKN,M,M,3000.00,6100.00,M,M,VCSH,YBBN 091400Z 19007KT 9999 VCSH FEW030 BKN061 21/17 Q1017 INTER 1400/1700 3000 SHRA BKN015
YBBN,2013-03-09 14:30,153.1292,-27.3917,69.80,62.60,77.90,170.00,5.00,0.00,30.00,M,6.21,M,FEW,SCT,BKN,M,3000.00,4600.00,6300.00,M,VCSH,YBBN 091430Z 17005KT 9999 VCSH FEW030 SCT046 BKN063 21/17 Q1016
YBBN,2013-03-09 15:00,153.1292,-27.3917,69.80,64.40,82.98,150.00,8.00,0.00,30.03,M,6.21,M,SCT,BKN,M,M,1900.00,3800.00,M,M,-SHRA,YBBN 091500Z 15008KT 9999 -SHRA SCT019 BKN038 21/18 Q1017
YBBN,2013-03-09 15:30,153.1292,-27.3917,68.00,64.40,88.26,170.00,8.00,0.00,30.00,M,6.21,M,FEW,BKN,M,M,2000.00,4000.00,M,M,M,YBBN 091530Z 17008KT 9999 FEW020 BKN040 20/18 Q1016
YBBN,2013-03-09 16:00,153.1292,-27.3917,68.00,64.40,88.26,190.00,6.00,0.00,30.00,M,6.21,M,FEW,BKN,M,M,2000.00,6000.00,M,M,M,YBBN 091600Z 19006KT 9999 FEW020 BKN060 20/18 Q1016 INTER 1600/1900 3000 SHRA BKN015
YBBN,2013-03-09 16:30,153.1292,-27.3917,68.00,64.40,88.26,210.00,6.00,0.00,29.97,M,6.21,M,FEW,SCT,BKN,M,2500.00,4000.00,6000.00,M,M,YBBN 091630Z 21006KT 9999 FEW025 SCT040 BKN060 20/18 Q1015
YBBN,2013-03-09 17:00,153.1292,-27.3917,68.00,64.40,88.26,200.00,7.00,0.00,29.97,M,6.21,M,FEW,BKN,M,M,2500.00,4000.00,M,M,M,YBBN 091700Z 20007KT 9999 FEW025 BKN040 20/18 Q1015 INTER 1700/2000 3000 SHRA BKN015
YBBN,2013-03-09 17:30,153.1292,-27.3917,68.00,64.40,88.26,200.00,7.00,0.00,29.97,M,6.21,M,FEW,BKN,M,M,2500.00,4500.00,M,M,M,YBBN 091730Z 20007KT 9999 FEW025 BKN045 20/18 Q1015
YBBN,2013-03-09 18:00,153.1292,-27.3917,69.80,64.40,82.98,200.00,7.00,0.00,29.97,M,6.21,M,FEW,BKN,M,M,2500.00,4500.00,M,M,M,YBBN 091800Z 20007KT 9999 FEW025 BKN045 21/18 Q1015 INTER 1800/2100 3000 SHRA BKN015
YBBN,2013-03-09 18:30,153.1292,-27.3917,69.80,64.40,82.98,180.00,6.00,0.00,29.97,M,6.21,M,SCT,BKN,M,M,2500.00,4500.00,M,M,VCSH,YBBN 091830Z 18006KT 9999 VCSH SCT025 BKN045 21/18 Q1015
YBBN,2013-03-09 19:00,153.1292,-27.3917,68.00,66.20,93.97,150.00,5.00,0.00,30.00,M,6.21,M,SCT,BKN,M,M,2500.00,4500.00,M,M,VCSH,YBBN 091900Z 15005KT 9999 VCSH SCT025 BKN045 20/19 Q1016
YBBN,2013-03-09 19:30,153.1292,-27.3917,68.00,66.20,93.97,190.00,6.00,0.00,30.00,M,6.21,M,SCT,BKN,M,M,2800.00,4500.00,M,M,M,YBBN 091930Z 19006KT 9999 SCT028 BKN045 20/19 Q1016
YBBN,2013-03-09 20:00,153.1292,-27.3917,68.00,66.20,93.97,210.00,9.00,0.00,30.00,M,6.21,M,FEW,BKN,M,M,2800.00,4500.00,M,M,M,YBBN 092000Z 21009KT 9999 FEW028 BKN045 20/19 Q1016 INTER 2000/2300 3000 SHRA BKN015
YBBN,2013-03-09 20:30,153.1292,-27.3917,68.00,64.40,88.26,210.00,8.00,0.00,30.00,M,6.21,M,FEW,BKN,M,M,2800.00,4500.00,M,M,VCSH,YBBN 092030Z 21008KT 9999 VCSH FEW028 BKN045 20/18 Q1016
YBBN,2013-03-09 21:00,153.1292,-27.3917,68.00,64.40,88.26,210.00,9.00,0.00,30.00,M,6.21,M,FEW,BKN,M,M,2500.00,4500.00,M,M,M,YBBN 092100Z 21009KT 9999 FEW025 BKN045 20/18 Q1016 INTER 2100/2400 3000 SHRA BKN015
YBBN,2013-03-09 21:30,153.1292,-27.3917,69.80,66.20,88.34,210.00,8.00,0.00,30.00,M,6.21,M,FEW,BKN,M,M,2300.00,4500.00,M,M,VCSH,YBBN 092130Z 21008KT 9999 VCSH FEW023 BKN045 21/19 Q1016 RMK SHOWERS TO THE NORTH
YBBN,2013-03-09 22:00,153.1292,-27.3917,69.80,66.20,88.34,190.00,8.00,0.00,30.03,M,6.21,M,FEW,BKN,M,M,2300.00,5000.00,M,M,M,YBBN 092200Z 19008KT 9999 FEW023 BKN050 21/19 Q1017
YBBN,2013-03-09 22:30,153.1292,-27.3917,71.60,66.20,83.09,190.00,7.00,0.00,30.03,M,6.21,M,FEW,SCT,BKN,M,2300.00,4500.00,7000.00,M,M,YBBN 092230Z 19007KT 9999 FEW023 SCT045 BKN070 22/19 Q1017
YBBN,2013-03-09 23:00,153.1292,-27.3917,73.40,66.20,78.19,190.00,7.00,0.00,30.03,M,6.21,M,FEW,BKN,M,M,2500.00,7000.00,M,M,M,YBBN 092300Z 19007KT 9999 FEW025 BKN070 23/19 Q1017
YBBN,2013-03-09 23:30,153.1292,-27.3917,77.00,66.20,69.33,150.00,7.00,0.00,30.03,M,6.21,M,FEW,BKN,M,M,2800.00,7000.00,M,M,M,YBBN 092330Z 15007KT 9999 FEW028 BKN070 25/19 Q1017
