#DEBUG: Format Typ    -> comma
#DEBUG: Time Period   -> 2014-03-23 00:00:00+00:00 2014-03-24 00:00:00+00:00
#DEBUG: Time Zone     -> Etc/UTC
#DEBUG: Data Contact   -> daryl herzmann akrherz@iastate.edu 515-294-5978
#DEBUG: Entries Found -> -1
station,valid,lon,lat,tmpf, dwpf, relh, drct, sknt, p01i, alti, mslp, vsby, gust, skyc1, skyc2, skyc3, skyc4, skyl1, skyl2, skyl3, skyl4, presentwx, metar
YBBN,2014-03-23 00:00,153.1292,-27.3917,78.80,64.40,61.36,100.00,4.00,0.00,30.06,M,6.21,M,BKN,SCT,M,M,2700.00,27000.00,M,M,M,YBBN 230000Z 10004KT 9999 BKN027 SCT270 26/18 Q1018
YBBN,2014-03-23 00:30,153.1292,-27.3917,80.60,64.40,57.84,70.00,5.00,0.00,30.03,M,6.21,M,BKN,SCT,M,M,2900.00,27000.00,M,M,M,YBBN 230030Z 07005KT 9999 BKN029 SCT270 27/18 Q1017
YBBN,2014-03-23 01:00,153.1292,-27.3917,82.40,64.40,54.55,30.00,5.00,0.00,30.03,M,6.21,M,BKN,SCT,M,M,3300.00,27000.00,M,M,M,YBBN 230100Z 03005KT 9999 BKN033 SCT270 28/18 Q1017
YBBN,2014-03-23 01:30,153.1292,-27.3917,80.60,60.80,50.95,30.00,8.00,0.00,30.00,M,6.21,M,BKN,M,M,M,3500.00,M,M,M,M,YBBN 230130Z 03008KT 9999 BKN035 27/16 Q1016
YBBN,2014-03-23 02:00,153.1292,-27.3917,82.40,62.60,51.21,120.00,5.00,0.00,30.00,M,6.21,M,SCT,M,M,M,3800.00,M,M,M,M,YBBN 230200Z 12005KT 9999 SCT038 28/17 Q1016 NOSIG
YBBN,2014-03-23 02:30,153.1292,-27.3917,84.20,62.60,48.32,50.00,11.00,0.00,29.97,M,6.21,M,SCT,M,M,M,3800.00,M,M,M,M,YBBN 230230Z 05011KT 9999 SCT038 29/17 Q1015
YBBN,2014-03-23 03:00,153.1292,-27.3917,82.40,64.40,54.55,60.00,10.00,0.00,29.97,M,6.21,M,SCT,M,M,M,4000.00,M,M,M,M,YBBN 230300Z 06010KT 9999 SCT040 28/18 Q1015 NOSIG
YBBN,2014-03-23 03:30,153.1292,-27.3917,82.40,64.40,54.55,50.00,10.00,0.00,29.97,M,6.21,M,SCT,M,M,M,4000.00,M,M,M,M,YBBN 230330Z 05010KT 9999 SCT040 28/18 Q1015
YBBN,2014-03-23 04:00,153.1292,-27.3917,82.40,66.20,58.08,60.00,11.00,0.00,29.94,M,6.21,M,SCT,M,M,M,4000.00,M,M,M,M,YBBN 230400Z 06011KT 9999 SCT040 28/19 Q1014
YBBN,2014-03-23 04:30,153.1292,-27.3917,82.40,66.20,58.08,60.00,12.00,0.00,29.94,M,6.21,M,FEW,M,M,M,3500.00,M,M,M,M,YBBN 230430Z 06012KT 9999 FEW035 28/19 Q1014
YBBN,2014-03-23 05:00,153.1292,-27.3917,80.60,66.20,61.58,60.00,12.00,0.00,29.94,M,6.21,M,FEW,M,M,M,3500.00,M,M,M,M,YBBN 230500Z 06012KT 9999 FEW035 27/19 Q1014 NOSIG
YBBN,2014-03-23 05:30,153.1292,-27.3917,80.60,66.20,61.58,70.00,12.00,0.00,29.94,M,6.21,M,FEW,M,M,M,3500.00,M,M,M,M,YBBN 230530Z 07012KT 9999 FEW035 27/19 Q1014
YBBN,2014-03-23 06:00,153.1292,-27.3917,80.60,64.40,57.84,60.00,11.00,0.00,29.94,M,6.21,M,FEW,M,M,M,3500.00,M,M,M,M,YBBN 230600Z 06011KT 9999 FEW035 27/18 Q1014 NOSIG
YBBN,2014-03-23 06:30,153.1292,-27.3917,78.80,64.40,61.36,60.00,11.00,0.00,29.94,M,6.21,M,FEW,M,M,M,3000.00,M,M,M,M,YBBN 230630Z 06011KT 9999 FEW030 26/18 Q1014
YBBN,2014-03-23 07:00,153.1292,-27.3917,78.80,66.20,65.33,70.00,11.00,0.00,29.94,M,6.21,M,FEW,M,M,M,3000.00,M,M,M,M,YBBN 230700Z 07011KT 9999 FEW030 26/19 Q1014 NOSIG
YBBN,2014-03-23 07:30,153.1292,-27.3917,77.00,66.20,69.33,70.00,9.00,0.00,29.94,M,6.21,M,FEW,M,M,M,3000.00,M,M,M,M,YBBN 230730Z 07009KT 9999 FEW030 25/19 Q1014
YBBN,2014-03-23 08:00,153.1292,-27.3917,77.00,66.20,69.33,60.00,8.00,0.00,29.97,M,6.21,M,FEW,M,M,M,1500.00,M,M,M,M,YBBN 230800Z 06008KT 9999 FEW015 25/19 Q1015 NOSIG
YBBN,2014-03-23 08:30,153.1292,-27.3917,77.00,66.20,69.33,70.00,6.00,0.00,29.97,M,6.21,M,FEW,M,M,M,3000.00,M,M,M,M,YBBN 230830Z 07006KT 9999 FEW030 25/19 Q1015
YBBN,2014-03-23 09:00,153.1292,-27.3917,75.20,66.20,73.61,60.00,7.00,0.00,29.97,M,6.21,M,FEW,M,M,M,2800.00,M,M,M,M,YBBN 230900Z 06007KT 9999 FEW028 24/19 Q1015 NOSIG
YBBN,2014-03-23 09:30,153.1292,-27.3917,75.20,66.20,73.61,60.00,6.00,0.00,30.00,M,6.21,M,SCT,M,M,M,2300.00,M,M,M,M,YBBN 230930Z 06006KT 9999 SCT023 24/19 Q1016
YBBN,2014-03-23 10:00,153.1292,-27.3917,75.20,66.20,73.61,50.00,7.00,0.00,30.00,M,6.21,M,SCT,M,M,M,2300.00,M,M,M,M,YBBN 231000Z 05007KT 9999 SCT023 24/19 Q1016
YBBN,2014-03-23 10:30,153.1292,-27.3917,75.20,66.20,73.61,60.00,4.00,0.00,30.00,M,6.21,M,SCT,M,M,M,2300.00,M,M,M,M,YBBN 231030Z 06004KT 9999 SCT023 24/19 Q1016
YBBN,2014-03-23 11:00,153.1292,-27.3917,73.40,66.20,78.19,40.00,3.00,0.00,30.03,M,6.21,M,FEW,M,M,M,2300.00,M,M,M,M,YBBN 231100Z 04003KT 9999 FEW023 23/19 Q1017 NOSIG
YBBN,2014-03-23 11:30,153.1292,-27.3917,73.40,66.20,78.19,50.00,3.00,0.00,30.00,M,6.21,M,FEW,M,M,M,2300.00,M,M,M,M,YBBN 231130Z 05003KT 9999 FEW023 23/19 Q1016
YBBN,2014-03-23 12:00,153.1292,-27.3917,73.40,66.20,78.19,50.00,4.00,0.00,30.00,M,6.21,M,FEW,M,M,M,2300.00,M,M,M,M,YBBN 231200Z 05004KT 9999 FEW023 23/19 Q1016 NOSIG
YBBN,2014-03-23 12:30,153.1292,-27.3917,71.60,66.20,83.09,40.00,5.00,0.00,30.00,M,6.21,M,FEW,M,M,M,2700.00,M,M,M,M,YBBN 231230Z 04005KT 9999 FEW027 22/19 Q1016
YBBN,2014-03-23 13:00,153.1292,-27.3917,71.60,66.20,83.09,50.00,5.00,0.00,30.00,M,6.21,M,FEW,M,M,M,2600.00,M,M,M,M,YBBN 231300Z 05005KT 9999 FEW026 22/19 Q1016
YBBN,2014-03-23 13:30,153.1292,-27.3917,71.60,66.20,83.09,20.00,5.00,0.00,30.00,M,6.21,M,FEW,M,M,M,2500.00,M,M,M,M,YBBN 231330Z 02005KT 9999 FEW025 22/19 Q1016
YBBN,2014-03-23 14:00,153.1292,-27.3917,69.80,66.20,88.34,30.00,4.00,0.00,29.97,M,6.21,M,FEW,M,M,M,2500.00,M,M,M,M,YBBN 231400Z 03004KT 9999 FEW025 21/19 Q1015 NOSIG
YBBN,2014-03-23 14:30,153.1292,-27.3917,71.60,66.20,83.09,50.00,4.00,0.00,29.97,M,6.21,M,FEW,M,M,M,2500.00,M,M,M,M,YBBN 231430Z 05004KT 9999 FEW025 22/19 Q1015
YBBN,2014-03-23 15:00,153.1292,-27.3917,69.80,66.20,88.34,30.00,4.00,0.00,29.97,M,6.21,M,FEW,M,M,M,2500.00,M,M,M,M,YBBN 231500Z 03004KT 9999 FEW025 21/19 Q1015 NOSIG
YBBN,2014-03-23 15:30,153.1292,-27.3917,68.00,64.40,88.26,310.00,4.00,0.00,29.97,M,6.21,M,FEW,M,M,M,2500.00,M,M,M,M,YBBN 231530Z 31004KT 9999 FEW025 20/18 Q1015
YBBN,2014-03-23 16:00,153.1292,-27.3917,69.80,66.20,88.34,240.00,6.00,0.00,29.97,M,6.21,M,SCT,M,M,M,2200.00,M,M,M,M,YBBN 231600Z 24006KT 9999 SCT022 21/19 Q1015 NOSIG
YBBN,2014-03-23 16:30,153.1292,-27.3917,69.80,66.20,88.34,210.00,4.00,0.00,29.94,M,6.21,M,SCT,M,M,M,2200.00,M,M,M,M,YBBN 231630Z 21004KT 9999 SCT022 21/19 Q1014
YBBN,2014-03-23 17:00,153.1292,-27.3917,69.80,66.20,88.34,200.00,5.00,0.00,29.94,M,6.21,M,FEW,M,M,M,2400.00,M,M,M,M,YBBN 231700Z 20005KT 9999 FEW024 21/19 Q1014 NOSIG
YBBN,2014-03-23 17:30,153.1292,-27.3917,69.80,66.20,88.34,200.00,4.00,0.00,29.94,M,6.21,M,FEW,M,M,M,2200.00,M,M,M,M,YBBN 231730Z 20004KT 9999 FEW022 21/19 Q1014
YBBN,2014-03-23 18:00,153.1292,-27.3917,69.80,66.20,88.34,200.00,4.00,0.00,29.94,M,6.21,M,FEW,M,M,M,2400.00,M,M,M,M,YBBN 231800Z 20004KT 9999 FEW024 21/19 Q1014
YBBN,2014-03-23 18:30,153.1292,-27.3917,69.80,66.20,88.34,210.00,5.00,0.00,29.94,M,6.21,M,FEW,M,M,M,2400.00,M,M,M,M,YBBN 231830Z 21005KT 9999 FEW024 21/19 Q1014
YBBN,2014-03-23 19:00,153.1292,-27.3917,69.80,66.20,88.34,210.00,5.00,0.00,29.94,M,6.21,M,FEW,M,M,M,2200.00,M,M,M,M,YBBN 231900Z 21005KT 9999 FEW022 21/19 Q1014
YBBN,2014-03-23 19:30,153.1292,-27.3917,69.80,66.20,88.34,190.00,5.00,0.00,29.94,M,6.21,M,FEW,SCT,M,M,2200.00,28000.00,M,M,M,YBBN 231930Z 19005KT 9999 FEW022 SCT280 21/19 Q1014
YBBN,2014-03-23 20:00,153.1292,-27.3917,68.00,66.20,93.97,190.00,5.00,0.00,29.97,M,6.21,M,FEW,SCT,M,M,2200.00,28000.00,M,M,M,YBBN 232000Z 19005KT 9999 FEW022 SCT280 20/19 Q1015
YBBN,2014-03-23 20:30,153.1292,-27.3917,69.80,66.20,88.34,200.00,5.00,0.00,29.97,M,6.21,M,FEW,BKN,M,M,2200.00,30000.00,M,M,M,YBBN 232030Z 20005KT 9999 FEW022 BKN300 21/19 Q1015
YBBN,2014-03-23 21:00,153.1292,-27.3917,71.60,68.00,88.43,190.00,5.00,0.00,29.97,M,6.21,M,FEW,SCT,BKN,M,2200.00,22000.00,30000.00,M,M,YBBN 232100Z 19005KT 9999 FEW022 SCT220 BKN300 22/20 Q1015
YBBN,2014-03-23 21:30,153.1292,-27.3917,73.40,68.00,83.21,190.00,6.00,0.00,30.00,M,6.21,M,FEW,BKN,M,M,2300.00,30000.00,M,M,M,YBBN 232130Z 19006KT 9999 FEW023 BKN300 23/20 Q1016
YBBN,2014-03-23 22:00,153.1292,-27.3917,75.20,66.20,73.61,200.00,6.00,0.00,30.00,M,6.21,M,FEW,BKN,M,M,2400.00,30000.00,M,M,M,YBBN 232200Z 20006KT 9999 FEW024 BKN300 24/19 Q1016
YBBN,2014-03-23 22:30,153.1292,-27.3917,77.00,66.20,69.33,300.00,4.00,0.00,30.00,M,6.21,M,FEW,SCT,BKN,M,2200.00,22000.00,30000.00,M,M,YBBN 232230Z 30004KT 9999 FEW022 SCT220 BKN300 25/19 Q1016
YBBN,2014-03-23 23:00,153.1292,-27.3917,78.80,66.20,65.33,340.00,4.00,0.00,29.97,M,6.21,M,FEW,SCT,BKN,M,2000.00,2400.00,30000.00,M,M,YBBN 232300Z 34004KT 9999 FEW020 SCT024 BKN300 26/19 Q1015 RMK DIST CB TOP EAST
YBBN,2014-03-23 23:30,153.1292,-27.3917,78.80,66.20,65.33,350.00,7.00,0.00,30.00,M,6.21,M,FEW,SCT,BKN,M,2200.00,2500.00,30000.00,M,M,YBBN 232330Z 35007KT 9999 FEW022 SCT025 BKN300 26/19 Q1016 RMK DIST CB TOP EAST
