#DEBUG: Format Typ    -> comma
#DEBUG: Time Period   -> 2011-11-17 00:00:00+00:00 2011-11-18 00:00:00+00:00
#DEBUG: Time Zone     -> Etc/UTC
#DEBUG: Data Contact   -> daryl herzmann akrherz@iastate.edu 515-294-5978
#DEBUG: Entries Found -> -1
station,valid,lon,lat,tmpf, dwpf, relh, drct, sknt, p01i, alti, mslp, vsby, gust, skyc1, skyc2, skyc3, skyc4, skyl1, skyl2, skyl3, skyl4, presentwx, metar
YBBN,2011-11-17 00:00,153.1292,-27.3917,78.80,62.60,57.60,10.00,7.00,M,30.09,M,6.21,M,FEW,BKN,M,M,3000.00,27000.00,M,M,M,YBBN 170000Z 01007KT 9999 FEW030 BKN270 26/17 Q1019 NOSIG
YBBN,2011-11-17 00:30,153.1292,-27.3917,78.80,62.60,57.60,10.00,7.00,M,30.06,M,6.21,M,FEW,BKN,M,M,3000.00,27000.00,M,M,M,YBBN 170030Z 01007KT 9999 FEW030 BKN270 26/17 Q1018
YBBN,2011-11-17 01:00,153.1292,-27.3917,78.80,62.60,57.60,30.00,7.00,M,30.06,M,6.21,M,FEW,BKN,M,M,3500.00,27000.00,M,M,M,YBBN 170100Z 03007KT 9999 FEW035 BKN270 26/17 Q1018 NOSIG
YBBN,2011-11-17 01:30,153.1292,-27.3917,78.80,62.60,57.60,20.00,7.00,M,30.06,M,6.21,M,FEW,BKN,M,M,3500.00,27000.00,M,M,M,YBBN 170130Z 02007KT 9999 FEW035 BKN270 26/17 Q1018
YBBN,2011-11-17 02:00,153.1292,-27.3917,80.60,64.40,57.84,50.00,7.00,M,30.03,M,6.21,M,FEW,BKN,M,M,3800.00,27000.00,M,M,M,YBBN 170200Z 05007KT 9999 FEW038 BKN270 27/18 Q1017 NOSIG
YBBN,2011-11-17 02:30,153.1292,-27.3917,80.60,62.60,54.30,20.00,8.00,M,30.03,M,6.21,M,FEW,BKN,M,M,3500.00,27000.00,M,M,M,YBBN 170230Z 02008KT 9999 FEW035 BKN270 27/17 Q1017
YBBN,2011-11-17 03:00,153.1292,-27.3917,80.60,62.60,54.30,30.00,8.00,M,30.03,M,6.21,M,FEW,BKN,M,M,3500.00,27000.00,M,M,M,YBBN 170300Z 03008KT 9999 FEW035 BKN270 27/17 Q1017 NOSIG
YBBN,2011-11-17 03:30,153.1292,-27.3917,78.80,62.60,57.60,30.00,9.00,M,30.00,M,6.21,M,FEW,BKN,M,M,3500.00,27000.00,M,M,M,YBBN 170330Z 03009KT 9999 FEW035 BKN270 26/17 Q1016
YBBN,2011-11-17 04:00,153.1292,-27.3917,78.80,64.40,61.36,20.00,9.00,M,30.00,M,6.21,M,FEW,BKN,M,M,3500.00,27000.00,M,M,M,YBBN 170400Z 02009KT 9999 FEW035 BKN270 26/18 Q1016 NOSIG
YBBN,2011-11-17 04:30,153.1292,-27.3917,78.80,62.60,57.60,30.00,9.00,M,30.00,M,6.21,M,FEW,BKN,M,M,3500.00,27000.00,M,M,M,YBBN 170430Z 03009KT 9999 FEW035 BKN270 26/17 Q1016
YBBN,2011-11-17 05:00,153.1292,-27.3917,78.80,62.60,57.60,40.00,7.00,M,30.00,M,6.21,M,FEW,BKN,M,M,3500.00,27000.00,M,M,M,YBBN 170500Z 04007KT 9999 FEW035 BKN270 26/17 Q1016 NOSIG
YBBN,2011-11-17 05:30,153.1292,-27.3917,78.80,64.40,61.36,40.00,8.00,M,30.00,M,6.21,M,FEW,BKN,M,M,3500.00,27000.00,M,M,M,YBBN 170530Z 04008KT 9999 FEW035 BKN270 26/18 Q1016
YBBN,2011-11-17 06:00,153.1292,-27.3917,77.00,64.40,65.12,60.00,9.00,M,30.00,M,6.21,M,FEW,BKN,M,M,3000.00,27000.00,M,M,M,YBBN 170600Z 06009KT 9999 FEW030 BKN270 25/18 Q1016 NOSIG
YBBN,2011-11-17 06:30,153.1292,-27.3917,77.00,64.40,65.12,50.00,8.00,M,30.00,M,6.21,M,FEW,BKN,M,M,3000.00,27000.00,M,M,M,YBBN 170630Z 05008KT 9999 FEW030 BKN270 25/18 Q1016
YBBN,2011-11-17 07:00,153.1292,-27.3917,75.20,64.40,69.14,60.00,7.00,M,30.00,M,6.21,M,M,M,M,M,M,M,M,M,M,YBBN 170700Z 06007KT CAVOK 24/18 Q1016 NOSIG
YBBN,2011-11-17 07:30,153.1292,-27.3917,75.20,64.40,69.14,60.00,7.00,M,30.00,M,6.21,M,M,M,M,M,M,M,M,M,M,YBBN 170730Z 06007KT CAVOK 24/18 Q1016
YBBN,2011-11-17 08:00,153.1292,-27.3917,75.20,64.40,69.14,50.00,8.00,M,30.03,M,6.21,M,FEW,BKN,M,M,2500.00,27000.00,M,M,M,YBBN 170800Z 05008KT 9999 FEW025 BKN270 24/18 Q1017 NOSIG
YBBN,2011-11-17 08:30,153.1292,-27.3917,73.40,64.40,73.44,60.00,8.00,M,30.03,M,6.21,M,FEW,BKN,M,M,2500.00,27000.00,M,M,M,YBBN 170830Z 06008KT 9999 FEW025 BKN270 23/18 Q1017
YBBN,2011-11-17 09:00,153.1292,-27.3917,73.40,64.40,73.44,50.00,7.00,M,30.03,M,6.21,M,FEW,BKN,M,M,2500.00,27000.00,M,M,M,YBBN 170900Z 05007KT 9999 FEW025 BKN270 23/18 Q1017 NOSIG
YBBN,2011-11-17 09:30,153.1292,-27.3917,71.60,64.40,78.04,40.00,7.00,M,30.06,M,6.21,M,FEW,BKN,M,M,2000.00,27000.00,M,M,M,YBBN 170930Z 04007KT 9999 FEW020 BKN270 22/18 Q1018
YBBN,2011-11-17 10:00,153.1292,-27.3917,71.60,64.40,78.04,40.00,7.00,M,30.06,M,6.21,M,FEW,BKN,M,M,2000.00,27000.00,M,M,M,YBBN 171000Z 04007KT 9999 FEW020 BKN270 22/18 Q1018 NOSIG
YBBN,2011-11-17 10:30,153.1292,-27.3917,71.60,64.40,78.04,40.00,7.00,M,30.06,M,6.21,M,FEW,BKN,M,M,2000.00,27000.00,M,M,M,YBBN 171030Z 04007KT 9999 FEW020 BKN270 22/18 Q1018
YBBN,2011-11-17 11:00,153.1292,-27.3917,71.60,64.40,78.04,30.00,7.00,M,30.06,M,6.21,M,FEW,BKN,M,M,2000.00,27000.00,M,M,M,YBBN 171100Z 03007KT 9999 FEW020 BKN270 22/18 Q1018 NOSIG
YBBN,2011-11-17 11:30,153.1292,-27.3917,69.80,64.40,82.98,40.00,5.00,M,30.06,M,6.21,M,FEW,BKN,M,M,2000.00,27000.00,M,M,M,YBBN 171130Z 04005KT 9999 FEW020 BKN270 21/18 Q1018
YBBN,2011-11-17 12:00,153.1292,-27.3917,69.80,64.40,82.98,40.00,6.00,M,30.06,M,6.21,M,FEW,BKN,M,M,2000.00,26000.00,M,M,M,YBBN 171200Z 04006KT 9999 FEW020 BKN260 21/18 Q1018 NOSIG
YBBN,2011-11-17 12:30,153.1292,-27.3917,69.80,64.40,82.98,40.00,7.00,M,30.06,M,6.21,M,FEW,BKN,M,M,2000.00,26000.00,M,M,M,YBBN 171230Z 04007KT 9999 FEW020 BKN260 21/18 Q1018
YBBN,2011-11-17 13:00,153.1292,-27.3917,69.80,64.40,82.98,40.00,6.00,M,30.06,M,6.21,M,FEW,BKN,M,M,2000.00,26000.00,M,M,M,YBBN 171300Z 04006KT 9999 FEW020 BKN260 21/18 Q1018 NOSIG
YBBN,2011-11-17 13:30,153.1292,-27.3917,69.80,64.40,82.98,30.00,5.00,M,30.06,M,6.21,M,FEW,BKN,M,M,2200.00,26000.00,M,M,M,YBBN 171330Z 03005KT 9999 FEW022 BKN260 21/18 Q1018
YBBN,2011-11-17 14:00,153.1292,-27.3917,69.80,64.40,82.98,30.00,6.00,M,30.03,M,6.21,M,FEW,BKN,M,M,2200.00,26000.00,M,M,M,YBBN 171400Z 03006KT 9999 FEW022 BKN260 21/18 Q1017 NOSIG
YBBN,2011-11-17 14:30,153.1292,-27.3917,69.80,64.40,82.98,30.00,5.00,M,30.03,M,6.21,M,SCT,BKN,M,M,2200.00,26000.00,M,M,M,YBBN 171430Z 03005KT 9999 SCT022 BKN260 21/18 Q1017
YBBN,2011-11-17 15:00,153.1292,-27.3917,69.80,64.40,82.98,30.00,5.00,M,30.03,M,6.21,M,FEW,SCT,BKN,M,2000.00,2500.00,26000.00,M,M,YBBN 171500Z 03005KT 9999 FEW020 SCT025 BKN260 21/18 Q1017 NOSIG
YBBN,2011-11-17 15:30,153.1292,-27.3917,69.80,66.20,88.34,50.00,7.00,M,30.03,M,6.21,M,FEW,SCT,BKN,M,2000.00,2500.00,26000.00,M,M,YBBN 171530Z 05007KT 9999 FEW020 SCT025 BKN260 21/19 Q1017
YBBN,2011-11-17 16:00,153.1292,-27.3917,69.80,64.40,82.98,50.00,5.00,M,30.00,M,6.21,M,FEW,BKN,M,M,2500.00,26000.00,M,M,M,YBBN 171600Z 05005KT 9999 FEW025 BKN260 21/18 Q1016 NOSIG
YBBN,2011-11-17 16:30,153.1292,-27.3917,71.60,64.40,78.04,50.00,6.00,M,30.00,M,6.21,M,FEW,SCT,BKN,M,1800.00,2200.00,2900.00,M,M,YBBN 171630Z 05006KT 9999 FEW018 SCT022 BKN029 22/18 Q1016
YBBN,2011-11-17 17:00,153.1292,-27.3917,69.80,64.40,82.98,50.00,7.00,M,30.00,M,6.21,M,FEW,SCT,BKN,M,1800.00,2200.00,26000.00,M,M,YBBN 171700Z 05007KT 9999 FEW018 SCT022 BKN260 21/18 Q1016 NOSIG
YBBN,2011-11-17 17:30,153.1292,-27.3917,71.60,64.40,78.04,50.00,6.00,M,30.00,M,6.21,M,FEW,SCT,BKN,M,1800.00,2200.00,2700.00,M,M,YBBN 171730Z 05006KT 9999 FEW018 SCT022 BKN027 22/18 Q1016
YBBN,2011-11-17 18:00,153.1292,-27.3917,71.60,66.20,83.09,50.00,6.00,M,30.00,M,6.21,M,FEW,SCT,BKN,M,1800.00,2200.00,2700.00,M,M,YBBN 171800Z 05006KT 9999 FEW018 SCT022 BKN027 22/19 Q1016 NOSIG
YBBN,2011-11-17 18:30,153.1292,-27.3917,73.40,66.20,78.19,50.00,8.00,M,30.03,M,6.21,M,FEW,BKN,M,M,1800.00,2200.00,M,M,M,YBBN 171830Z 05008KT 9999 FEW018 BKN022 23/19 Q1017
YBBN,2011-11-17 19:00,153.1292,-27.3917,73.40,66.20,78.19,40.00,7.00,M,30.03,M,6.21,M,FEW,BKN,BKN,M,1800.00,2200.00,26000.00,M,M,YBBN 171900Z 04007KT 9999 FEW018 BKN022 BKN260 23/19 Q1017 NOSIG
YBBN,2011-11-17 19:30,153.1292,-27.3917,71.60,66.20,83.09,270.00,5.00,M,30.03,M,6.21,M,FEW,SCT,BKN,M,1800.00,2200.00,26000.00,M,M,YBBN 171930Z 27005KT 9999 FEW018 SCT022 BKN260 22/19 Q1017
YBBN,2011-11-17 20:00,153.1292,-27.3917,71.60,66.20,83.09,260.00,5.00,M,30.06,M,6.21,M,FEW,SCT,BKN,M,1800.00,2200.00,26000.00,M,M,YBBN 172000Z 26005KT 9999 FEW018 SCT022 BKN260 22/19 Q1018 NOSIG
YBBN,2011-11-17 20:30,153.1292,-27.3917,73.40,66.20,78.19,320.00,5.00,M,30.06,M,6.21,M,FEW,BKN,M,M,2200.00,3800.00,M,M,M,YBBN 172030Z 32005KT 9999 FEW022 BKN038 23/19 Q1018
YBBN,2011-11-17 21:00,153.1292,-27.3917,73.40,66.20,78.19,320.00,4.00,M,30.06,M,6.21,M,FEW,SCT,BKN,M,2000.00,2200.00,2700.00,M,M,YBBN 172100Z 32004KT 9999 FEW020 SCT022 BKN027 23/19 Q1018 NOSIG
YBBN,2011-11-17 21:30,153.1292,-27.3917,73.40,66.20,78.19,280.00,3.00,M,30.06,M,6.21,M,FEW,SCT,BKN,M,2200.00,2400.00,3000.00,M,M,YBBN 172130Z 28003KT 9999 FEW022 SCT024 BKN030 23/19 Q1018
YBBN,2011-11-17 22:00,153.1292,-27.3917,75.20,66.20,73.61,340.00,5.00,M,30.09,M,6.21,M,SCT,SCT,BKN,M,2200.00,3000.00,23000.00,M,M,YBBN 172200Z 34005KT 9999 SCT022 SCT030 BKN230 24/19 Q1019 NOSIG
YBBN,2011-11-17 22:30,153.1292,-27.3917,75.20,66.20,73.61,10.00,5.00,M,30.09,M,6.21,M,SCT,BKN,M,M,2200.00,23000.00,M,M,M,YBBN 172230Z 01005KT 9999 SCT022 BKN230 24/19 Q1019
YBBN,2011-11-17 23:00,153.1292,-27.3917,77.00,64.40,65.12,350.00,7.00,M,30.06,M,6.21,M,SCT,BKN,M,M,2200.00,24000.00,M,M,M,YBBN 172300Z 35007KT 9999 SCT022 BKN240 25/18 Q1018
YBBN,2011-11-17 23:30,153.1292,-27.3917,78.80,64.40,61.36,10.00,7.00,M,30.06,M,6.21,M,SCT,BKN,M,M,2500.00,24000.00,M,M,M,YBBN 172330Z 01007KT 9999 SCT025 BKN240 26/18 Q1018
