#DEBUG: Format Typ    -> comma
#DEBUG: Time Period   -> 2015-11-10 00:00:00+00:00 2015-11-11 00:00:00+00:00
#DEBUG: Time Zone     -> Etc/UTC
#DEBUG: Data Contact   -> daryl herzmann akrherz@iastate.edu 515-294-5978
#DEBUG: Entries Found -> -1
station,valid,lon,lat,tmpf, dwpf, relh, drct, sknt, p01i, alti, mslp, vsby, gust, skyc1, skyc2, skyc3, skyc4, skyl1, skyl2, skyl3, skyl4, presentwx, metar
YBBN,2015-11-10 00:00,153.1292,-27.3917,73.40,59.00,60.67,60.00,7.00,0.00,30.00,M,6.21,M,SCT,M,M,M,4000.00,M,M,M,M,YBBN 100000Z 06007KT 9999 SCT040 23/15 Q1016 NOSIG
YBBN,2015-11-10 00:30,153.1292,-27.3917,75.20,60.80,60.90,60.00,9.00,0.00,29.97,M,6.21,M,BKN,M,M,M,4000.00,M,M,M,M,YBBN 100030Z 06009KT 9999 BKN040 24/16 Q1015
YBBN,2015-11-10 01:00,153.1292,-27.3917,75.20,57.20,53.55,50.00,9.00,0.00,29.97,M,6.21,M,SCT,M,M,M,4000.00,M,M,M,M,YBBN 100100Z 05009KT 9999 SCT040 24/14 Q1015 NOSIG
YBBN,2015-11-10 01:30,153.1292,-27.3917,75.20,59.00,57.12,60.00,9.00,0.00,29.97,M,6.21,M,SCT,M,M,M,4000.00,M,M,M,M,YBBN 100130Z 06009KT 9999 SCT040 24/15 Q1015
YBBN,2015-11-10 02:00,153.1292,-27.3917,75.20,57.20,53.55,60.00,8.00,0.00,29.97,M,6.21,M,SCT,M,M,M,4500.00,M,M,M,M,YBBN 100200Z 06008KT 9999 SCT045 24/14 Q1015 NOSIG
YBBN,2015-11-10 02:30,153.1292,-27.3917,75.20,57.20,53.55,50.00,9.00,0.00,29.94,M,6.21,M,SCT,M,M,M,4500.00,M,M,M,M,YBBN 100230Z 05009KT 9999 SCT045 24/14 Q1014
YBBN,2015-11-10 03:00,153.1292,-27.3917,77.00,60.80,57.36,60.00,10.00,0.00,29.94,M,6.21,M,SCT,M,M,M,4500.00,M,M,M,M,YBBN 100300Z 06010KT 9999 SCT045 25/16 Q1014
YBBN,2015-11-10 03:30,153.1292,-27.3917,77.00,57.20,50.43,60.00,9.00,0.00,29.94,M,6.21,M,SCT,M,M,M,4500.00,M,M,M,M,YBBN 100330Z 06009KT 9999 SCT045 25/14 Q1014
YBBN,2015-11-10 04:00,153.1292,-27.3917,77.00,57.20,50.43,60.00,10.00,0.00,29.91,M,6.21,M,FEW,M,M,M,4500.00,M,M,M,M,YBBN 100400Z 06010KT 9999 FEW045 25/14 Q1013 NOSIG
YBBN,2015-11-10 04:30,153.1292,-27.3917,75.20,57.20,53.55,60.00,10.00,0.00,29.91,M,6.21,M,FEW,M,M,M,4500.00,M,M,M,M,YBBN 100430Z 06010KT 9999 FEW045 24/14 Q1013
YBBN,2015-11-10 05:00,153.1292,-27.3917,77.00,59.00,53.80,60.00,10.00,0.00,29.91,M,6.21,M,M,M,M,M,M,M,M,M,M,YBBN 100500Z 06010KT CAVOK 25/15 Q1013 NOSIG
YBBN,2015-11-10 05:30,153.1292,-27.3917,75.20,59.00,57.12,60.00,11.00,0.00,29.91,M,6.21,M,FEW,M,M,M,4500.00,M,M,M,M,YBBN 100530Z 06011KT 9999 FEW045 24/15 Q1013
YBBN,2015-11-10 06:00,153.1292,-27.3917,75.20,57.20,53.55,90.00,10.00,0.00,29.91,M,6.21,M,FEW,M,M,M,4500.00,M,M,M,M,YBBN 100600Z 09010KT 9999 FEW045 24/14 Q1013 NOSIG
YBBN,2015-11-10 06:30,153.1292,-27.3917,75.20,59.00,57.12,70.00,9.00,0.00,29.91,M,6.21,M,FEW,M,M,M,4000.00,M,M,M,M,YBBN 100630Z 07009KT 9999 FEW040 24/15 Q1013
YBBN,2015-11-10 07:00,153.1292,-27.3917,73.40,59.00,60.67,60.00,10.00,0.00,29.91,M,6.21,M,FEW,M,M,M,4000.00,M,M,M,M,YBBN 100700Z 06010KT 9999 FEW040 23/15 Q1013 NOSIG
YBBN,2015-11-10 07:30,153.1292,-27.3917,73.40,57.20,56.88,60.00,9.00,0.00,29.91,M,6.21,M,FEW,M,M,M,4000.00,M,M,M,M,YBBN 100730Z 06009KT 9999 FEW040 23/14 Q1013
YBBN,2015-11-10 08:00,153.1292,-27.3917,71.60,57.20,60.44,60.00,8.00,0.00,29.94,M,6.21,M,M,M,M,M,M,M,M,M,M,YBBN 100800Z 06008KT CAVOK 22/14 Q1014
YBBN,2015-11-10 08:30,153.1292,-27.3917,71.60,57.20,60.44,80.00,8.00,0.00,29.94,M,6.21,M,M,M,M,M,M,M,M,M,M,YBBN 100830Z 08008KT CAVOK 22/14 Q1014
YBBN,2015-11-10 09:00,153.1292,-27.3917,71.60,59.00,64.48,80.00,6.00,0.00,29.97,M,6.21,M,M,M,M,M,M,M,M,M,M,YBBN 100900Z 08006KT CAVOK 22/15 Q1015 NOSIG
YBBN,2015-11-10 09:30,153.1292,-27.3917,71.60,59.00,64.48,70.00,6.00,0.00,29.97,M,6.21,M,M,M,M,M,M,M,M,M,M,YBBN 100930Z 07006KT CAVOK 22/15 Q1015
YBBN,2015-11-10 10:00,153.1292,-27.3917,69.80,59.00,68.55,60.00,6.00,0.00,29.97,M,6.21,M,M,M,M,M,M,M,M,M,M,YBBN 101000Z 06006KT CAVOK 21/15 Q1015
YBBN,2015-11-10 10:30,153.1292,-27.3917,69.80,59.00,68.55,70.00,5.00,0.00,30.00,M,6.21,M,FEW,M,M,M,4000.00,M,M,M,M,YBBN 101030Z 07005KT 9999 FEW040 21/15 Q1016
YBBN,2015-11-10 11:00,153.1292,-27.3917,69.80,59.00,68.55,70.00,4.00,0.00,30.00,M,6.21,M,FEW,M,M,M,4000.00,M,M,M,M,YBBN 101100Z 07004KT 9999 FEW040 21/15 Q1016 NOSIG
YBBN,2015-11-10 11:30,153.1292,-27.3917,69.80,59.00,68.55,60.00,5.00,0.00,30.00,M,6.21,M,FEW,M,M,M,3000.00,M,M,M,M,YBBN 101130Z 06005KT 9999 FEW030 21/15 Q1016
YBBN,2015-11-10 12:00,153.1292,-27.3917,69.80,59.00,68.55,70.00,5.00,0.00,30.00,M,6.21,M,FEW,M,M,M,3000.00,M,M,M,M,YBBN 101200Z 07005KT 9999 FEW030 21/15 Q1016 NOSIG
YBBN,2015-11-10 12:30,153.1292,-27.3917,69.80,59.00,68.55,60.00,4.00,0.00,30.00,M,6.21,M,FEW,M,M,M,2800.00,M,M,M,M,YBBN 101230Z 06004KT 9999 FEW028 21/15 Q1016
YBBN,2015-11-10 13:00,153.1292,-27.3917,69.80,59.00,68.55,80.00,4.00,0.00,30.00,M,6.21,M,FEW,M,M,M,2800.00,M,M,M,M,YBBN 101300Z 08004KT 9999 FEW028 21/15 Q1016
YBBN,2015-11-10 13:30,153.1292,-27.3917,69.80,59.00,68.55,110.00,4.00,0.00,30.00,M,6.21,M,FEW,M,M,M,2800.00,M,M,M,M,YBBN 101330Z 11004KT 9999 FEW028 21/15 Q1016
YBBN,2015-11-10 14:00,153.1292,-27.3917,69.80,59.00,68.55,90.00,5.00,0.00,30.00,M,6.21,M,FEW,M,M,M,2800.00,M,M,M,M,YBBN 101400Z 09005KT 9999 FEW028 21/15 Q1016
YBBN,2015-11-10 14:30,153.1292,-27.3917,69.80,57.20,64.26,100.00,4.00,0.00,30.00,M,6.21,M,FEW,M,M,M,2800.00,M,M,M,M,YBBN 101430Z 10004KT 9999 FEW028 21/14 Q1016
YBBN,2015-11-10 15:00,153.1292,-27.3917,68.00,59.00,72.92,100.00,4.00,0.00,29.97,M,6.21,M,FEW,M,M,M,3000.00,M,M,M,M,YBBN 101500Z 10004KT 9999 FEW030 20/15 Q1015
YBBN,2015-11-10 15:30,153.1292,-27.3917,64.40,60.80,88.09,100.00,4.00,0.00,29.97,M,6.21,M,FEW,M,M,M,3000.00,M,M,M,M,YBBN 101530Z 10004KT 9999 FEW030 18/16 Q1015
YBBN,2015-11-10 16:00,153.1292,-27.3917,64.40,60.80,88.09,210.00,4.00,0.00,29.97,M,6.21,M,FEW,M,M,M,3000.00,M,M,M,M,YBBN 101600Z 21004KT 9999 FEW030 18/16 Q1015 NOSIG
YBBN,2015-11-10 16:30,153.1292,-27.3917,64.40,59.00,82.62,0.00,0.00,0.00,29.97,M,6.21,M,FEW,M,M,M,3000.00,M,M,M,M,YBBN 101630Z 00000KT 9999 FEW030 18/15 Q1015
YBBN,2015-11-10 17:00,153.1292,-27.3917,64.40,60.80,88.09,170.00,4.00,0.00,29.97,M,6.21,M,FEW,M,M,M,3000.00,M,M,M,M,YBBN 101700Z 17004KT 9999 FEW030 18/16 Q1015 NOSIG
YBBN,2015-11-10 17:30,153.1292,-27.3917,64.40,59.00,82.62,180.00,3.00,0.00,29.97,M,6.21,M,M,M,M,M,M,M,M,M,M,YBBN 101730Z 18003KT CAVOK 18/15 Q1015
YBBN,2015-11-10 18:00,153.1292,-27.3917,64.40,59.00,82.62,220.00,5.00,0.00,29.97,M,6.21,M,M,M,M,M,M,M,M,M,M,YBBN 101800Z 22005KT CAVOK 18/15 Q1015
YBBN,2015-11-10 18:30,153.1292,-27.3917,62.60,59.00,88.00,210.00,5.00,0.00,29.97,M,6.21,M,FEW,M,M,M,3000.00,M,M,M,M,YBBN 101830Z 21005KT 9999 FEW030 17/15 Q1015
YBBN,2015-11-10 19:00,153.1292,-27.3917,62.60,59.00,88.00,210.00,4.00,0.00,30.00,M,6.21,M,FEW,M,M,M,3000.00,M,M,M,M,YBBN 101900Z 21004KT 9999 FEW030 17/15 Q1016 NOSIG
YBBN,2015-11-10 19:30,153.1292,-27.3917,62.60,59.00,88.00,200.00,5.00,0.00,30.00,M,6.21,M,FEW,M,M,M,2500.00,M,M,M,M,YBBN 101930Z 20005KT 9999 FEW025 17/15 Q1016
YBBN,2015-11-10 20:00,153.1292,-27.3917,66.20,60.80,82.74,210.00,5.00,0.00,30.00,M,6.21,M,FEW,SCT,M,M,2500.00,4000.00,M,M,M,YBBN 102000Z 21005KT 9999 FEW025 SCT040 19/16 Q1016 NOSIG
YBBN,2015-11-10 20:30,153.1292,-27.3917,68.00,59.00,72.92,190.00,4.00,0.00,30.03,M,6.21,M,FEW,SCT,M,M,2500.00,4000.00,M,M,M,YBBN 102030Z 19004KT 9999 FEW025 SCT040 20/15 Q1017
YBBN,2015-11-10 21:00,153.1292,-27.3917,69.80,59.00,68.55,200.00,5.00,0.00,30.03,M,6.21,M,FEW,SCT,M,M,2500.00,3700.00,M,M,M,YBBN 102100Z 20005KT 9999 FEW025 SCT037 21/15 Q1017 NOSIG
YBBN,2015-11-10 21:30,153.1292,-27.3917,73.40,59.00,60.67,140.00,7.00,0.00,30.03,M,6.21,M,FEW,M,M,M,2500.00,M,M,M,M,YBBN 102130Z 14007KT 110V170 9999 FEW025 23/15 Q1017
YBBN,2015-11-10 22:00,153.1292,-27.3917,73.40,60.80,64.69,130.00,6.00,0.00,30.06,M,6.21,M,SCT,SCT,M,M,3000.00,4700.00,M,M,M,YBBN 102200Z 13006KT 100V160 9999 SCT030 SCT047 23/16 Q1018 NOSIG
YBBN,2015-11-10 22:30,153.1292,-27.3917,71.60,59.00,64.48,130.00,8.00,0.00,30.06,M,6.21,M,BKN,BKN,M,M,3100.00,4800.00,M,M,VCSH,YBBN 102230Z 13008KT 9999 VCSH BKN031 BKN048 22/15 Q1018
YBBN,2015-11-10 23:00,153.1292,-27.3917,73.40,57.20,56.88,130.00,8.00,0.00,30.09,M,6.21,M,BKN,BKN,M,M,3200.00,4600.00,M,M,VCSH,YBBN 102300Z 13008KT 9999 VCSH BKN032 BKN046 23/14 Q1019 NOSIG
YBBN,2015-11-10 23:30,153.1292,-27.3917,73.40,59.00,60.67,140.00,8.00,0.00,30.09,M,6.21,M,BKN,BKN,M,M,3200.00,4800.00,M,M,M,YBBN 102330Z 14008KT 9999 BKN032 BKN048 23/15 Q1019
