#DEBUG: Format Typ    -> comma
#DEBUG: Time Period   -> 2012-04-01 00:00:00+00:00 2012-04-02 00:00:00+00:00
#DEBUG: Time Zone     -> Etc/UTC
#DEBUG: Data Contact   -> daryl herzmann akrherz@iastate.edu 515-294-5978
#DEBUG: Entries Found -> -1
station,valid,lon,lat,tmpf, dwpf, relh, drct, sknt, p01i, alti, mslp, vsby, gust, skyc1, skyc2, skyc3, skyc4, skyl1, skyl2, skyl3, skyl4, presentwx, metar
YBBN,2012-04-01 00:00,153.1292,-27.3917,77.00,60.80,57.36,210.00,10.00,0.00,29.97,M,6.21,M,FEW,M,M,M,3000.00,M,M,M,M,YBBN 010000Z 21010KT 9999 FEW030 25/16 Q1015 NOSIG
YBBN,2012-04-01 00:30,153.1292,-27.3917,77.00,60.80,57.36,200.00,6.00,0.00,29.97,M,6.21,M,SCT,M,M,M,3400.00,M,M,M,M,YBBN 010030Z 20006KT 9999 SCT034 25/16 Q1015
YBBN,2012-04-01 01:00,153.1292,-27.3917,78.80,59.00,50.69,180.00,9.00,0.00,29.94,M,6.21,M,SCT,M,M,M,3600.00,M,M,M,M,YBBN 010100Z 18009KT 9999 SCT036 26/15 Q1014 NOSIG
YBBN,2012-04-01 01:30,153.1292,-27.3917,78.80,60.80,54.05,190.00,7.00,0.00,29.94,M,6.21,M,SCT,M,M,M,4000.00,M,M,M,M,YBBN 010130Z 19007KT 9999 SCT040 26/16 Q1014
YBBN,2012-04-01 02:00,153.1292,-27.3917,80.60,60.80,50.95,220.00,9.00,0.00,29.91,M,6.21,M,SCT,M,M,M,4500.00,M,M,M,M,YBBN 010200Z 22009KT 9999 SCT045 27/16 Q1013
YBBN,2012-04-01 02:30,153.1292,-27.3917,78.80,60.80,54.05,60.00,6.00,0.00,29.91,M,6.21,M,BKN,M,M,M,4200.00,M,M,M,M,YBBN 010230Z 06006KT 9999 BKN042 26/16 Q1013
YBBN,2012-04-01 03:00,153.1292,-27.3917,78.80,59.00,50.69,150.00,7.00,0.00,29.91,M,6.21,M,BKN,M,M,M,4400.00,M,M,M,M,YBBN 010300Z 15007KT 9999 BKN044 26/15 Q1013
YBBN,2012-04-01 03:30,153.1292,-27.3917,78.80,60.80,54.05,90.00,6.00,0.00,29.88,M,6.21,M,BKN,M,M,M,4400.00,M,M,M,VCSH,YBBN 010330Z 09006KT 9999 VCSH BKN044 26/16 Q1012
YBBN,2012-04-01 04:00,153.1292,-27.3917,73.40,62.60,68.94,190.00,6.00,0.00,29.88,M,6.21,M,FEW,BKN,M,M,2500.00,4000.00,M,M,-SHRA,YBBN 010400Z 19006KT 9999 -SHRA FEW025 BKN040 23/17 Q1012
YBBN,2012-04-01 04:30,153.1292,-27.3917,77.00,68.00,73.78,180.00,5.00,0.00,29.88,M,6.21,M,FEW,SCT,M,M,4000.00,6000.00,M,M,M,YBBN 010430Z 18005KT 9999 FEW040 SCT060 25/20 Q1012
YBBN,2012-04-01 05:00,153.1292,-27.3917,80.60,60.80,50.95,150.00,6.00,0.00,29.88,M,6.21,M,SCT,SCT,M,M,4000.00,6000.00,M,M,VCSH,YBBN 010500Z 15006KT 9999 VCSH SCT040 SCT060 27/16 Q1012
YBBN,2012-04-01 05:30,153.1292,-27.3917,80.60,59.00,47.79,60.00,7.00,0.00,29.88,M,6.21,M,FEW,M,M,M,4000.00,M,M,M,M,YBBN 010530Z 06007KT 9999 FEW040 27/15 Q1012
YBBN,2012-04-01 06:00,153.1292,-27.3917,80.60,57.20,44.80,90.00,9.00,0.00,29.88,M,6.21,M,FEW,M,M,M,4000.00,M,M,M,M,YBBN 010600Z 09009KT 9999 FEW040 27/14 Q1012
YBBN,2012-04-01 06:30,153.1292,-27.3917,78.80,59.00,50.69,130.00,7.00,0.00,29.88,M,6.21,M,FEW,M,M,M,4000.00,M,M,M,M,YBBN 010630Z 13007KT 9999 FEW040 26/15 Q1012
YBBN,2012-04-01 07:00,153.1292,-27.3917,78.80,59.00,50.69,100.00,6.00,0.00,29.88,M,6.21,M,FEW,M,M,M,4000.00,M,M,M,M,YBBN 010700Z 10006KT 9999 FEW040 26/15 Q1012 NOSIG
YBBN,2012-04-01 07:30,153.1292,-27.3917,75.20,64.40,69.14,110.00,9.00,0.00,29.91,M,6.21,M,FEW,M,M,M,3000.00,M,M,M,M,YBBN 010730Z 11009KT 9999 FEW030 24/18 Q1013
YBBN,2012-04-01 08:00,153.1292,-27.3917,75.20,62.60,64.91,130.00,5.00,0.00,29.91,M,6.21,M,FEW,M,M,M,2800.00,M,M,M,M,YBBN 010800Z 13005KT 9999 FEW028 24/17 Q1013
YBBN,2012-04-01 09:00,153.1292,-27.3917,73.40,60.80,64.69,140.00,8.00,0.00,29.94,M,6.21,M,FEW,M,M,M,2800.00,M,M,M,M,YBBN 010900Z 14008KT 9999 FEW028 23/16 Q1014
YBBN,2012-04-01 09:30,153.1292,-27.3917,73.40,59.00,60.67,140.00,7.00,0.00,29.94,M,6.21,M,FEW,M,M,M,2800.00,M,M,M,M,YBBN 010930Z 14007KT 9999 FEW028 23/15 Q1014
YBBN,2012-04-01 10:00,153.1292,-27.3917,71.60,59.00,64.48,170.00,7.00,0.00,29.94,M,6.21,M,M,M,M,M,M,M,M,M,M,YBBN 011000Z 17007KT CAVOK 22/15 Q1014
YBBN,2012-04-01 10:30,153.1292,-27.3917,69.80,60.80,73.09,170.00,7.00,0.00,29.94,M,6.21,M,M,M,M,M,M,M,M,M,M,YBBN 011030Z 17007KT CAVOK 21/16 Q1014
YBBN,2012-04-01 11:00,153.1292,-27.3917,69.80,60.80,73.09,190.00,5.00,0.00,29.94,M,6.21,M,M,M,M,M,M,M,M,M,M,YBBN 011100Z 19005KT CAVOK 21/16 Q1014
YBBN,2012-04-01 11:30,153.1292,-27.3917,69.80,59.00,68.55,200.00,5.00,0.00,29.94,M,6.21,M,M,M,M,M,M,M,M,M,M,YBBN 011130Z 20005KT CAVOK 21/15 Q1014
YBBN,2012-04-01 12:00,153.1292,-27.3917,69.80,59.00,68.55,200.00,6.00,0.00,29.97,M,6.21,M,M,M,M,M,M,M,M,M,M,YBBN 011200Z 20006KT CAVOK 21/15 Q1015
YBBN,2012-04-01 12:30,153.1292,-27.3917,69.80,59.00,68.55,200.00,6.00,0.00,29.97,M,6.21,M,M,M,M,M,M,M,M,M,M,YBBN 011230Z 20006KT CAVOK 21/15 Q1015
YBBN,2012-04-01 13:00,153.1292,-27.3917,66.20,59.00,77.60,210.00,6.00,0.00,29.97,M,6.21,M,M,M,M,M,M,M,M,M,M,YBBN 011300Z 21006KT CAVOK 19/15 Q1015
YBBN,2012-04-01 13:30,153.1292,-27.3917,64.40,59.00,82.62,240.00,7.00,0.00,29.94,M,6.21,M,M,M,M,M,M,M,M,M,M,YBBN 011330Z 24007KT CAVOK 18/15 Q1014
YBBN,2012-04-01 14:00,153.1292,-27.3917,66.20,59.00,77.60,220.00,7.00,0.00,29.94,M,6.21,M,M,M,M,M,M,M,M,M,M,YBBN 011400Z 22007KT CAVOK 19/15 Q1014
YBBN,2012-04-01 14:30,153.1292,-27.3917,64.40,59.00,82.62,220.00,7.00,0.00,29.94,M,6.21,M,M,M,M,M,M,M,M,M,M,YBBN 011430Z 22007KT CAVOK 18/15 Q1014
YBBN,2012-04-01 15:00,153.1292,-27.3917,64.40,59.00,82.62,240.00,6.00,0.00,29.94,M,6.21,M,M,M,M,M,M,M,M,M,M,YBBN 011500Z 24006KT CAVOK 18/15 Q1014
YBBN,2012-04-01 15:30,153.1292,-27.3917,64.40,59.00,82.62,230.00,6.00,0.00,29.91,M,6.21,M,FEW,M,M,M,2800.00,M,M,M,M,YBBN 011530Z 23006KT 9999 FEW028 18/15 Q1013
YBBN,2012-04-01 16:00,153.1292,-27.3917,66.20,55.40,68.15,210.00,7.00,0.00,29.91,M,6.21,M,M,M,M,M,M,M,M,M,M,YBBN 011600Z 21007KT CAVOK 19/13 Q1013
YBBN,2012-04-01 16:30,153.1292,-27.3917,66.20,55.40,68.15,220.00,7.00,0.00,29.91,M,6.21,M,M,M,M,M,M,M,M,M,M,YBBN 011630Z 22007KT CAVOK 19/13 Q1013
YBBN,2012-04-01 17:00,153.1292,-27.3917,64.40,57.20,77.45,210.00,7.00,0.00,29.91,M,6.21,M,M,M,M,M,M,M,M,M,M,YBBN 011700Z 21007KT CAVOK 18/14 Q1013
YBBN,2012-04-01 17:30,153.1292,-27.3917,66.20,57.20,72.74,220.00,7.00,0.00,29.91,M,6.21,M,M,M,M,M,M,M,M,M,M,YBBN 011730Z 22007KT CAVOK 19/14 Q1013
YBBN,2012-04-01 18:00,153.1292,-27.3917,66.20,57.20,72.74,210.00,8.00,0.00,29.91,M,6.21,M,M,M,M,M,M,M,M,M,M,YBBN 011800Z 21008KT CAVOK 19/14 Q1013
YBBN,2012-04-01 18:30,153.1292,-27.3917,66.20,57.20,72.74,200.00,9.00,0.00,29.91,M,6.21,M,M,M,M,M,M,M,M,M,M,YBBN 011830Z 20009KT CAVOK 19/14 Q1013
YBBN,2012-04-01 19:00,153.1292,-27.3917,64.40,57.20,77.45,210.00,9.00,0.00,29.94,M,6.21,M,FEW,M,M,M,2800.00,M,M,M,M,YBBN 011900Z 21009KT 9999 FEW028 18/14 Q1014
YBBN,2012-04-01 19:30,153.1292,-27.3917,64.40,57.20,77.45,210.00,9.00,0.00,29.94,M,6.21,M,FEW,M,M,M,2500.00,M,M,M,M,YBBN 011930Z 21009KT 9999 FEW025 18/14 Q1014
YBBN,2012-04-01 20:00,153.1292,-27.3917,64.40,59.00,82.62,210.00,8.00,0.00,29.94,M,6.21,M,FEW,M,M,M,2500.00,M,M,M,M,YBBN 012000Z 21008KT 9999 FEW025 18/15 Q1014
YBBN,2012-04-01 20:30,153.1292,-27.3917,64.40,59.00,82.62,210.00,8.00,0.00,29.94,M,6.21,M,FEW,M,M,M,2500.00,M,M,M,M,YBBN 012030Z 21008KT 9999 FEW025 18/15 Q1014
YBBN,2012-04-01 21:00,153.1292,-27.3917,68.00,59.00,72.92,210.00,9.00,0.00,29.97,M,6.21,M,FEW,M,M,M,2500.00,M,M,M,M,YBBN 012100Z 21009KT 9999 FEW025 20/15 Q1015
YBBN,2012-04-01 21:30,153.1292,-27.3917,69.80,60.80,73.09,210.00,11.00,0.00,29.97,M,6.21,M,FEW,M,M,M,2800.00,M,M,M,M,YBBN 012130Z 21011KT 9999 FEW028 21/16 Q1015
YBBN,2012-04-01 22:00,153.1292,-27.3917,71.60,60.80,68.75,220.00,11.00,0.00,29.97,M,6.21,M,FEW,M,M,M,2800.00,M,M,M,M,YBBN 012200Z 22011KT 9999 FEW028 22/16 Q1015
YBBN,2012-04-01 22:30,153.1292,-27.3917,73.40,60.80,64.69,220.00,11.00,0.00,29.97,M,6.21,M,FEW,M,M,M,3000.00,M,M,M,M,YBBN 012230Z 22011KT 9999 FEW030 23/16 Q1015
YBBN,2012-04-01 23:00,153.1292,-27.3917,75.20,60.80,60.90,220.00,8.00,0.00,29.97,M,6.21,M,FEW,M,M,M,3000.00,M,M,M,M,YBBN 012300Z 22008KT 9999 FEW030 24/16 Q1015
YBBN,2012-04-01 23:30,153.1292,-27.3917,77.00,62.60,61.13,210.00,9.00,0.00,29.97,M,6.21,M,FEW,M,M,M,3500.00,M,M,M,M,YBBN 012330Z 21009KT 9999 FEW035 25/17 Q1015
