#DEBUG: Format Typ    -> comma
#DEBUG: Time Period   -> 2014-06-24 00:00:00+00:00 2014-06-25 00:00:00+00:00
#DEBUG: Time Zone     -> Etc/UTC
#DEBUG: Data Contact   -> daryl herzmann akrherz@iastate.edu 515-294-5978
#DEBUG: Entries Found -> -1
station,valid,lon,lat,tmpf, dwpf, relh, drct, sknt, p01i, alti, mslp, vsby, gust, skyc1, skyc2, skyc3, skyc4, skyl1, skyl2, skyl3, skyl4, presentwx, metar
YBBN,2014-06-24 00:00,153.1292,-27.3917,66.20,39.20,37.03,290.00,13.00,0.00,29.94,M,6.21,M,M,M,M,M,M,M,M,M,M,YBBN 240000Z 29013KT CAVOK 19/04 Q1014 RMK 6AC190
YBBN,2014-06-24 00:30,153.1292,-27.3917,66.20,37.40,34.51,290.00,14.00,0.00,29.94,M,6.21,M,M,M,M,M,M,M,M,M,M,YBBN 240030Z 29014KT CAVOK 19/03 Q1014 RMK 6AC196
YBBN,2014-06-24 01:00,153.1292,-27.3917,66.20,33.80,29.92,270.00,15.00,0.00,29.94,M,6.21,M,M,M,M,M,M,M,M,M,M,YBBN 240100Z 27015KT CAVOK 19/01 Q1014 FM0100 MOD TURB BLW 5000FT
YBBN,2014-06-24 01:30,153.1292,-27.3917,64.40,35.60,34.22,270.00,13.00,0.00,29.94,M,6.21,M,M,M,M,M,M,M,M,M,M,YBBN 240130Z 27013KT CAVOK 18/02 Q1014
YBBN,2014-06-24 02:00,153.1292,-27.3917,64.40,35.60,34.22,270.00,15.00,0.00,29.91,M,6.21,M,M,M,M,M,M,M,M,M,M,YBBN 240200Z 27015KT CAVOK 18/02 Q1013 FM0200 MOD TURB BLW 5000FT
YBBN,2014-06-24 02:30,153.1292,-27.3917,64.40,33.80,31.85,270.00,13.00,0.00,29.91,M,6.21,M,M,M,M,M,M,M,M,M,M,YBBN 240230Z 27013KT CAVOK 18/01 Q1013
YBBN,2014-06-24 03:00,153.1292,-27.3917,64.40,35.60,34.22,280.00,13.00,0.00,29.88,M,6.21,M,M,M,M,M,M,M,M,M,M,YBBN 240300Z 28013KT CAVOK 18/02 Q1012 FM0300 MOD TURB BLW 5000FT
YBBN,2014-06-24 03:30,153.1292,-27.3917,66.20,35.60,32.14,290.00,14.00,0.00,29.88,M,6.21,M,M,M,M,M,M,M,M,M,M,YBBN 240330Z 29014KT CAVOK 19/02 Q1012
YBBN,2014-06-24 04:00,153.1292,-27.3917,68.00,33.80,28.11,280.00,14.00,0.00,29.85,M,6.21,M,M,M,M,M,M,M,M,M,M,YBBN 240400Z 28014KT CAVOK 20/01 Q1011
YBBN,2014-06-24 04:13,153.1292,-27.3917,69.80,30.20,22.86,270.00,17.00,0.00,29.85,M,6.21,27.00,M,M,M,M,M,M,M,M,M,YBBN 240413Z 27017G27KT CAVOK 21/M01 Q1011
YBBN,2014-06-24 04:30,153.1292,-27.3917,68.00,28.40,22.59,260.00,23.00,0.00,29.88,M,6.21,M,M,M,M,M,M,M,M,M,M,YBBN 240430Z 26023KT CAVOK 20/M02 Q1012
YBBN,2014-06-24 04:37,153.1292,-27.3917,68.00,30.20,24.32,270.00,21.00,0.00,29.88,M,6.21,32.00,M,M,M,M,M,M,M,M,M,YBBN 240437Z 27021G32KT CAVOK 20/M01 Q1012
YBBN,2014-06-24 05:00,153.1292,-27.3917,68.00,30.20,24.32,270.00,18.00,0.00,29.88,M,6.21,M,M,M,M,M,M,M,M,M,M,YBBN 240500Z 27018KT CAVOK 20/M01 Q1012 FM0500 MOD TURB BLW 5000FT
YBBN,2014-06-24 05:30,153.1292,-27.3917,68.00,28.40,22.59,260.00,18.00,0.00,29.88,M,6.21,M,M,M,M,M,M,M,M,M,M,YBBN 240530Z 26018KT CAVOK 20/M02 Q1012
YBBN,2014-06-24 05:40,153.1292,-27.3917,68.00,30.20,24.32,250.00,18.00,0.00,29.88,M,6.21,28.00,M,M,M,M,M,M,M,M,M,YBBN 240540Z 25018G28KT CAVOK 20/M01 Q1012
YBBN,2014-06-24 06:00,153.1292,-27.3917,68.00,26.60,20.98,250.00,19.00,0.00,29.88,M,6.21,M,M,M,M,M,M,M,M,M,M,YBBN 240600Z 25019KT CAVOK 20/M03 Q1012 FM0600 MOD TURB BLW 5000FT
YBBN,2014-06-24 06:30,153.1292,-27.3917,66.20,28.40,24.04,270.00,16.00,0.00,29.91,M,6.21,M,M,M,M,M,M,M,M,M,M,YBBN 240630Z 27016KT CAVOK 19/M02 Q1013
YBBN,2014-06-24 07:00,153.1292,-27.3917,64.40,30.20,27.55,270.00,13.00,0.00,29.91,M,6.21,M,M,M,M,M,M,M,M,M,M,YBBN 240700Z 27013KT CAVOK 18/M01 Q1013 FM0700 MOD TURB BLW 5000FT
YBBN,2014-06-24 07:30,153.1292,-27.3917,62.60,28.40,27.27,260.00,11.00,0.00,29.91,M,6.21,M,M,M,M,M,M,M,M,M,M,YBBN 240730Z 26011KT CAVOK 17/M02 Q1013
YBBN,2014-06-24 08:00,153.1292,-27.3917,62.60,28.40,27.27,220.00,4.00,0.00,29.94,M,6.21,M,M,M,M,M,M,M,M,M,M,YBBN 240800Z 22004KT CAVOK 17/M02 Q1014 FM0800 MOD TURB BLW 5000FT
YBBN,2014-06-24 08:30,153.1292,-27.3917,62.60,28.40,27.27,260.00,10.00,0.00,29.94,M,6.21,M,M,M,M,M,M,M,M,M,M,YBBN 240830Z 26010KT CAVOK 17/M02 Q1014
YBBN,2014-06-24 09:00,153.1292,-27.3917,62.60,26.60,25.32,270.00,17.00,0.00,29.94,M,6.21,M,M,M,M,M,M,M,M,M,M,YBBN 240900Z 27017KT CAVOK 17/M03 Q1014 FM0900 MOD TURB BLW 5000FT
YBBN,2014-06-24 09:30,153.1292,-27.3917,62.60,26.60,25.32,260.00,13.00,0.00,29.97,M,6.21,23.00,M,M,M,M,M,M,M,M,M,YBBN 240930Z 26013G23KT CAVOK 17/M03 Q1015
YBBN,2014-06-24 10:00,153.1292,-27.3917,60.80,26.60,26.98,260.00,9.00,0.00,29.97,M,6.21,M,M,M,M,M,M,M,M,M,M,YBBN 241000Z 26009KT CAVOK 16/M03 Q1015
YBBN,2014-06-24 10:30,153.1292,-27.3917,60.80,26.60,26.98,260.00,16.00,0.00,29.97,M,6.21,M,M,M,M,M,M,M,M,M,M,YBBN 241030Z 26016KT CAVOK 16/M03 Q1015
YBBN,2014-06-24 11:00,153.1292,-27.3917,60.80,26.60,26.98,250.00,12.00,0.00,30.00,M,6.21,M,M,M,M,M,M,M,M,M,M,YBBN 241100Z 25012KT CAVOK 16/M03 Q1016 FM1100 MOD TURB BLW 5000FT
YBBN,2014-06-24 11:30,153.1292,-27.3917,59.00,28.40,30.98,260.00,9.00,0.00,30.00,M,6.21,M,M,M,M,M,M,M,M,M,M,YBBN 241130Z 26009KT CAVOK 15/M02 Q1016
YBBN,2014-06-24 12:00,153.1292,-27.3917,59.00,30.20,33.35,280.00,5.00,0.00,30.03,M,6.21,M,M,M,M,M,M,M,M,M,M,YBBN 241200Z 28005KT CAVOK 15/M01 Q1017
YBBN,2014-06-24 12:30,153.1292,-27.3917,57.20,30.20,35.57,290.00,5.00,0.00,30.03,M,6.21,M,M,M,M,M,M,M,M,M,M,YBBN 241230Z 29005KT CAVOK 14/M01 Q1017
YBBN,2014-06-24 13:00,153.1292,-27.3917,57.20,30.20,35.57,290.00,8.00,0.00,30.03,M,6.21,M,M,M,M,M,M,M,M,M,M,YBBN 241300Z 29008KT CAVOK 14/M01 Q1017 FM1300 MOD TURB BLW 5000FT
YBBN,2014-06-24 13:30,153.1292,-27.3917,57.20,30.20,35.57,280.00,8.00,0.00,30.03,M,6.21,M,M,M,M,M,M,M,M,M,M,YBBN 241330Z 28008KT CAVOK 14/M01 Q1017
YBBN,2014-06-24 14:00,153.1292,-27.3917,57.20,32.00,38.26,280.00,8.00,0.00,30.03,M,6.21,M,M,M,M,M,M,M,M,M,M,YBBN 241400Z 28008KT CAVOK 14/00 Q1017
YBBN,2014-06-24 14:30,153.1292,-27.3917,55.40,33.80,43.90,310.00,1.00,0.00,30.03,M,6.21,M,M,M,M,M,M,M,M,M,M,YBBN 241430Z 31001KT CAVOK 13/01 Q1017
YBBN,2014-06-24 15:00,153.1292,-27.3917,53.60,33.80,46.88,250.00,5.00,0.00,30.03,M,6.21,M,M,M,M,M,M,M,M,M,M,YBBN 241500Z 25005KT CAVOK 12/01 Q1017
YBBN,2014-06-24 15:30,153.1292,-27.3917,53.60,35.60,50.36,260.00,9.00,0.00,30.03,M,6.21,M,M,M,M,M,M,M,M,M,M,YBBN 241530Z 26009KT CAVOK 12/02 Q1017
YBBN,2014-06-24 16:00,153.1292,-27.3917,55.40,33.80,43.90,220.00,4.00,0.00,30.03,M,6.21,M,M,M,M,M,M,M,M,M,M,YBBN 241600Z 22004KT CAVOK 13/01 Q1017 FM1600 MOD TURB BLW 5000FT
YBBN,2014-06-24 16:30,153.1292,-27.3917,55.40,32.00,40.84,350.00,4.00,0.00,30.03,M,6.21,M,M,M,M,M,M,M,M,M,M,YBBN 241630Z 35004KT CAVOK 13/M00 Q1017
YBBN,2014-06-24 17:00,153.1292,-27.3917,57.20,32.00,38.26,260.00,9.00,0.00,30.03,M,6.21,M,M,M,M,M,M,M,M,M,M,YBBN 241700Z 26009KT CAVOK 14/M00 Q1017
YBBN,2014-06-24 17:30,153.1292,-27.3917,55.40,32.00,40.84,290.00,6.00,0.00,30.03,M,6.21,M,M,M,M,M,M,M,M,M,M,YBBN 241730Z 29006KT CAVOK 13/M00 Q1017
YBBN,2014-06-24 18:00,153.1292,-27.3917,55.40,30.20,37.97,270.00,8.00,0.00,30.03,M,6.21,M,M,M,M,M,M,M,M,M,M,YBBN 241800Z 27008KT CAVOK 13/M01 Q1017 FM1800 MOD TURB BLW 5000FT
YBBN,2014-06-24 18:30,153.1292,-27.3917,55.40,32.00,40.84,250.00,7.00,0.00,30.00,M,6.21,M,M,M,M,M,M,M,M,M,M,YBBN 241830Z 25007KT CAVOK 13/00 Q1016
YBBN,2014-06-24 19:00,153.1292,-27.3917,55.40,32.00,40.84,260.00,5.00,0.00,30.03,M,6.21,M,M,M,M,M,M,M,M,M,M,YBBN 241900Z 26005KT CAVOK 13/00 Q1017 FM1900 MOD TURB BLW 5000FT
YBBN,2014-06-24 19:30,153.1292,-27.3917,57.20,32.00,38.26,240.00,6.00,0.00,30.03,M,6.21,M,M,M,M,M,M,M,M,M,M,YBBN 241930Z 24006KT CAVOK 14/M00 Q1017 RMK 7AS180
YBBN,2014-06-24 20:00,153.1292,-27.3917,55.40,32.00,40.84,230.00,9.00,0.00,30.03,M,6.21,M,M,M,M,M,M,M,M,M,M,YBBN 242000Z 23009KT CAVOK 13/00 Q1017 FM2000 MOD TURB BLW 5000FT
YBBN,2014-06-24 20:30,153.1292,-27.3917,57.20,32.00,38.26,240.00,12.00,0.00,30.06,M,6.21,M,M,M,M,M,M,M,M,M,M,YBBN 242030Z 24012KT CAVOK 14/00 Q1018 RMK 7AS200
YBBN,2014-06-24 21:00,153.1292,-27.3917,57.20,33.80,41.13,240.00,12.00,0.00,30.06,M,6.21,M,M,M,M,M,M,M,M,M,M,YBBN 242100Z 24012KT CAVOK 14/01 Q1018
YBBN,2014-06-24 21:30,153.1292,-27.3917,57.20,33.80,41.13,230.00,10.00,0.00,30.06,M,6.21,M,M,M,M,M,M,M,M,M,M,YBBN 242130Z 23010KT CAVOK 14/01 Q1018 RMK 7AS190
YBBN,2014-06-24 22:00,153.1292,-27.3917,59.00,33.80,38.56,240.00,11.00,0.00,30.09,M,6.21,M,M,M,M,M,M,M,M,M,M,YBBN 242200Z 24011KT CAVOK 15/01 Q1019 FM2200 MOD TURB BLW 5000FT TILL 2330
YBBN,2014-06-24 22:30,153.1292,-27.3917,60.80,33.80,36.16,270.00,6.00,0.00,30.09,M,6.21,M,M,M,M,M,M,M,M,M,M,YBBN 242230Z 27006KT CAVOK 16/01 Q1019
YBBN,2014-06-24 23:00,153.1292,-27.3917,62.60,33.80,33.93,240.00,12.00,0.00,30.09,M,6.21,M,M,M,M,M,M,M,M,M,M,YBBN 242300Z 24012KT CAVOK 17/01 Q1019 NOSIG
YBBN,2014-06-24 23:30,153.1292,-27.3917,60.80,33.80,36.16,240.00,14.00,0.00,30.12,M,6.21,M,M,M,M,M,M,M,M,M,M,YBBN 242330Z 24014KT CAVOK 16/01 Q1020
