#DEBUG: Format Typ    -> comma
#DEBUG: Time Period   -> 2010-05-20 00:00:00+00:00 2010-05-21 00:00:00+00:00
#DEBUG: Time Zone     -> Etc/UTC
#DEBUG: Data Contact   -> daryl herzmann akrherz@iastate.edu 515-294-5978
#DEBUG: Entries Found -> -1
station,valid,lon,lat,tmpf, dwpf, relh, drct, sknt, p01i, alti, mslp, vsby, gust, skyc1, skyc2, skyc3, skyc4, skyl1, skyl2, skyl3, skyl4, presentwx, metar
YBBN,2010-05-20 00:00,153.1292,-27.3917,69.80,55.40,60.21,180.00,7.00,M,30.12,M,6.21,M,FEW,SCT,BKN,M,2500.00,20000.00,27000.00,M,M,YBBN 200000Z 18007KT 9999 FEW025 SCT200 BKN270 21/13 Q1020 NOSIG
YBBN,2010-05-20 00:30,153.1292,-27.3917,71.60,55.40,56.63,170.00,6.00,M,30.12,M,6.21,M,FEW,SCT,BKN,M,3000.00,20000.00,30000.00,M,M,YBBN 200030Z 17006KT 9999 FEW030 SCT200 BKN300 22/13 Q1020 NOSIG
YBBN,2010-05-20 01:00,153.1292,-27.3917,71.60,57.20,60.44,110.00,7.00,M,30.12,M,6.21,M,FEW,SCT,BKN,M,3000.00,20000.00,30000.00,M,M,YBBN 200100Z 11007KT 9999 FEW030 SCT200 BKN300 22/14 Q1020 NOSIG
YBBN,2010-05-20 01:30,153.1292,-27.3917,71.60,55.40,56.63,120.00,7.00,M,30.09,M,6.21,M,FEW,BKN,M,M,3500.00,30000.00,M,M,M,YBBN 200130Z 12007KT 9999 FEW035 BKN300 22/13 Q1019 NOSIG
YBBN,2010-05-20 02:00,153.1292,-27.3917,71.60,57.20,60.44,120.00,7.00,M,30.09,M,6.21,M,FEW,BKN,M,M,3500.00,30000.00,M,M,M,YBBN 200200Z 12007KT 9999 FEW035 BKN300 22/14 Q1019 NOSIG
YBBN,2010-05-20 02:30,153.1292,-27.3917,73.40,57.20,56.88,120.00,7.00,M,30.06,M,6.21,M,FEW,BKN,M,M,3500.00,30000.00,M,M,M,YBBN 200230Z 12007KT 9999 FEW035 BKN300 23/14 Q1018 NOSIG
YBBN,2010-05-20 03:00,153.1292,-27.3917,71.60,57.20,60.44,120.00,8.00,M,30.06,M,6.21,M,FEW,BKN,M,M,3500.00,30000.00,M,M,M,YBBN 200300Z 12008KT 9999 FEW035 BKN300 22/14 Q1018 NOSIG
YBBN,2010-05-20 03:30,153.1292,-27.3917,71.60,59.00,64.48,110.00,8.00,M,30.06,M,6.21,M,FEW,BKN,M,M,3500.00,30000.00,M,M,M,YBBN 200330Z 11008KT 9999 FEW035 BKN300 22/15 Q1018 NOSIG
YBBN,2010-05-20 04:00,153.1292,-27.3917,71.60,57.20,60.44,110.00,7.00,M,30.06,M,6.21,M,SCT,BKN,M,M,3500.00,30000.00,M,M,M,YBBN 200400Z 11007KT 9999 SCT035 BKN300 22/14 Q1018 NOSIG
YBBN,2010-05-20 04:30,153.1292,-27.3917,71.60,57.20,60.44,100.00,7.00,M,30.06,M,6.21,M,FEW,BKN,M,M,3500.00,30000.00,M,M,M,YBBN 200430Z 10007KT 9999 FEW035 BKN300 22/14 Q1018 NOSIG
YBBN,2010-05-20 05:00,153.1292,-27.3917,69.80,59.00,68.55,110.00,7.00,M,30.06,M,6.21,M,FEW,BKN,M,M,3500.00,30000.00,M,M,M,YBBN 200500Z 11007KT 9999 FEW035 BKN300 21/15 Q1018 NOSIG
YBBN,2010-05-20 05:30,153.1292,-27.3917,69.80,59.00,68.55,110.00,6.00,M,30.06,M,6.21,M,FEW,SCT,BKN,M,3500.00,20000.00,27000.00,M,M,YBBN 200530Z 11006KT 9999 FEW035 SCT200 BKN270 21/15 Q1018 NOSIG
YBBN,2010-05-20 06:00,153.1292,-27.3917,69.80,59.00,68.55,110.00,6.00,M,30.06,M,6.21,M,FEW,SCT,BKN,M,3000.00,20000.00,27000.00,M,M,YBBN 200600Z 11006KT 9999 FEW030 SCT200 BKN270 21/15 Q1018 NOSIG
YBBN,2010-05-20 06:30,153.1292,-27.3917,68.00,60.80,77.75,100.00,6.00,M,30.06,M,6.21,M,FEW,OVC,M,M,3000.00,27000.00,M,M,M,YBBN 200630Z 10006KT 9999 FEW030 OVC270 20/16 Q1018 NOSIG
YBBN,2010-05-20 07:00,153.1292,-27.3917,68.00,60.80,77.75,90.00,7.00,M,30.06,M,6.21,M,FEW,SCT,BKN,M,2500.00,20000.00,27000.00,M,M,YBBN 200700Z 09007KT 9999 FEW025 SCT200 BKN270 20/16 Q1018 NOSIG
YBBN,2010-05-20 07:30,153.1292,-27.3917,66.20,62.60,88.18,50.00,6.00,M,30.06,M,6.21,M,FEW,SCT,BKN,M,2500.00,11000.00,20000.00,M,M,YBBN 200730Z 05006KT 9999 FEW025 SCT110 BKN200 19/17 Q1018 NOSIG
YBBN,2010-05-20 08:00,153.1292,-27.3917,66.20,62.60,88.18,50.00,7.00,M,30.06,M,6.21,M,FEW,BKN,M,M,2500.00,20000.00,M,M,M,YBBN 200800Z 05007KT 9999 FEW025 BKN200 19/17 Q1018 NOSIG
YBBN,2010-05-20 08:30,153.1292,-27.3917,66.20,62.60,88.18,60.00,8.00,M,30.09,M,6.21,M,FEW,BKN,M,M,2500.00,20000.00,M,M,M,YBBN 200830Z 06008KT 9999 FEW025 BKN200 19/17 Q1019 NOSIG
YBBN,2010-05-20 09:00,153.1292,-27.3917,66.20,60.80,82.74,50.00,6.00,M,30.09,M,6.21,M,FEW,SCT,BKN,M,2500.00,11000.00,20000.00,M,M,YBBN 200900Z 05006KT 9999 FEW025 SCT110 BKN200 19/16 Q1019 NOSIG
YBBN,2010-05-20 09:30,153.1292,-27.3917,64.40,60.80,88.09,50.00,6.00,M,30.09,M,6.21,M,FEW,BKN,M,M,2500.00,18000.00,M,M,M,YBBN 200930Z 05006KT 9999 FEW025 BKN180 18/16 Q1019 NOSIG
YBBN,2010-05-20 10:00,153.1292,-27.3917,64.40,60.80,88.09,30.00,4.00,M,30.09,M,6.21,M,FEW,SCT,BKN,M,2500.00,12000.00,18000.00,M,M,YBBN 201000Z 03004KT 9999 FEW025 SCT120 BKN180 18/16 Q1019 NOSIG
YBBN,2010-05-20 10:30,153.1292,-27.3917,66.20,60.80,82.74,180.00,1.00,M,30.09,M,6.21,M,FEW,BKN,OVC,M,2700.00,4500.00,18000.00,M,M,YBBN 201030Z 18001KT 9999 FEW027 BKN045 OVC180 19/16 Q1019 NOSIG
YBBN,2010-05-20 11:00,153.1292,-27.3917,64.40,60.80,88.09,0.00,0.00,M,30.09,M,6.21,M,FEW,BKN,OVC,M,2500.00,3500.00,16000.00,M,M,YBBN 201100Z 00000KT 9999 FEW025 BKN035 OVC160 18/16 Q1019 NOSIG
YBBN,2010-05-20 11:30,153.1292,-27.3917,64.40,60.80,88.09,270.00,4.00,M,30.09,M,6.21,M,FEW,BKN,OVC,M,2700.00,4000.00,16000.00,M,M,YBBN 201130Z 27004KT 9999 FEW027 BKN040 OVC160 18/16 Q1019 NOSIG
YBBN,2010-05-20 12:00,153.1292,-27.3917,64.40,62.60,93.88,260.00,6.00,M,30.09,M,6.21,M,FEW,BKN,BKN,M,2700.00,4500.00,9500.00,M,M,YBBN 201200Z 26006KT 9999 FEW027 BKN045 BKN095 18/17 Q1019 NOSIG
YBBN,2010-05-20 12:30,153.1292,-27.3917,64.40,62.60,93.88,190.00,3.00,M,30.09,M,6.21,M,FEW,BKN,OVC,M,2700.00,9000.00,16000.00,M,M,YBBN 201230Z 19003KT 9999 FEW027 BKN090 OVC160 18/17 Q1019 NOSIG
YBBN,2010-05-20 13:00,153.1292,-27.3917,64.40,62.60,93.88,150.00,4.00,M,30.09,M,6.21,M,FEW,BKN,M,M,2700.00,9500.00,M,M,M,YBBN 201300Z 15004KT 9999 FEW027 BKN095 18/17 Q1019 NOSIG
YBBN,2010-05-20 13:30,153.1292,-27.3917,64.40,60.80,88.09,200.00,4.00,M,30.09,M,6.21,M,FEW,BKN,M,M,2700.00,8000.00,M,M,M,YBBN 201330Z 20004KT 9999 FEW027 BKN080 18/16 Q1019 NOSIG
YBBN,2010-05-20 14:00,153.1292,-27.3917,64.40,60.80,88.09,160.00,5.00,M,30.06,M,6.21,M,FEW,BKN,M,M,2700.00,8500.00,M,M,M,YBBN 201400Z 16005KT 9999 FEW027 BKN085 18/16 Q1018 NOSIG
YBBN,2010-05-20 14:30,153.1292,-27.3917,64.40,60.80,88.09,170.00,4.00,M,30.06,M,6.21,M,FEW,BKN,M,M,4000.00,7500.00,M,M,M,YBBN 201430Z 17004KT 9999 FEW040 BKN075 18/16 Q1018 NOSIG
YBBN,2010-05-20 15:00,153.1292,-27.3917,64.40,60.80,88.09,190.00,3.00,M,30.06,M,6.21,M,FEW,BKN,M,M,4000.00,7500.00,M,M,M,YBBN 201500Z 19003KT 9999 FEW040 BKN075 18/16 Q1018 NOSIG
YBBN,2010-05-20 15:30,153.1292,-27.3917,62.60,59.00,88.00,190.00,4.00,M,30.06,M,6.21,M,M,M,M,M,M,M,M,M,M,YBBN 201530Z 19004KT CAVOK 17/15 Q1018 RMK 5SC075 8AS180 INTER 1800/1830 3000 SHRA BKN015
YBBN,2010-05-20 16:00,153.1292,-27.3917,62.60,59.00,88.00,210.00,5.00,M,30.06,M,6.21,M,M,M,M,M,M,M,M,M,M,YBBN 201600Z 21005KT CAVOK 17/15 Q1018 RMK 5SC075 8AS180 INTER 1800/1900 3000 SHRA BKN015
YBBN,2010-05-20 16:30,153.1292,-27.3917,62.60,59.00,88.00,200.00,5.00,M,30.03,M,6.21,M,M,M,M,M,M,M,M,M,M,YBBN 201630Z 20005KT CAVOK 17/15 Q1017 RMK 7AC090 INTER 1800/1930 3000 SHRA BKN015
YBBN,2010-05-20 17:00,153.1292,-27.3917,62.60,60.80,93.83,190.00,5.00,M,30.03,M,6.21,M,M,M,M,M,M,M,M,M,M,YBBN 201700Z 19005KT CAVOK 17/16 Q1017 RMK 7AC090 INTER 1800/2000 3000 SHRA BKN015
YBBN,2010-05-20 17:30,153.1292,-27.3917,62.60,59.00,88.00,180.00,4.00,M,30.03,M,6.21,M,M,M,M,M,M,M,M,M,M,YBBN 201730Z 18004KT CAVOK 17/15 Q1017 RMK 7AC090 INTER 1730/2030 3000 SHRA BKN015
