#DEBUG: Format Typ    -> comma
#DEBUG: Time Period   -> 2016-01-23 00:00:00+00:00 2016-01-24 00:00:00+00:00
#DEBUG: Time Zone     -> Etc/UTC
#DEBUG: Data Contact   -> daryl herzmann akrherz@iastate.edu 515-294-5978
#DEBUG: Entries Found -> -1
station,valid,lon,lat,tmpf, dwpf, relh, drct, sknt, p01i, alti, mslp, vsby, gust, skyc1, skyc2, skyc3, skyc4, skyl1, skyl2, skyl3, skyl4, presentwx, metar
YBBN,2016-01-23 00:00,153.1292,-27.3917,78.80,68.00,69.52,10.00,9.00,0.00,29.80,M,6.21,M,NSC,M,M,M,M,M,M,M,VCSH,YBBN 230000Z 01009KT 9999 VCSH NSC 26/20 Q1009
YBBN,2016-01-23 00:30,153.1292,-27.3917,82.40,68.00,61.81,20.00,9.00,0.00,29.80,M,6.21,M,NSC,M,M,M,M,M,M,M,VCSH,YBBN 230030Z 02009KT 9999 VCSH NSC 28/20 Q1009 NOSIG
YBBN,2016-01-23 01:00,153.1292,-27.3917,80.60,68.00,65.54,40.00,9.00,0.00,29.77,M,6.21,M,M,M,M,M,M,M,M,M,M,YBBN 230100Z 04009KT CAVOK 27/20 Q1008
YBBN,2016-01-23 01:30,153.1292,-27.3917,82.40,69.80,65.74,20.00,10.00,0.00,29.77,M,6.21,M,M,M,M,M,M,M,M,M,M,YBBN 230130Z 02010KT CAVOK 28/21 Q1008 NOSIG
YBBN,2016-01-23 02:00,153.1292,-27.3917,82.40,69.80,65.74,10.00,11.00,0.00,29.74,M,6.21,M,M,M,M,M,M,M,M,M,M,YBBN 230200Z 01011KT CAVOK 28/21 Q1007 NOSIG
YBBN,2016-01-23 02:30,153.1292,-27.3917,82.40,69.80,65.74,20.00,12.00,0.00,29.74,M,6.21,M,NSC,M,M,M,M,M,M,M,VCSH,YBBN 230230Z 02012KT 9999 VCSH NSC 28/21 Q1007
YBBN,2016-01-23 03:00,153.1292,-27.3917,80.60,71.60,74.11,30.00,11.00,0.00,29.74,M,6.21,M,FEW,SCT,BKN,M,4000.00,14000.00,16000.00,M,VCSH,YBBN 230300Z 03011KT 9999 VCSH FEW040 SCT140 BKN160 27/22 Q1007
YBBN,2016-01-23 03:30,153.1292,-27.3917,84.20,71.60,65.95,20.00,13.00,0.00,29.74,M,6.21,M,M,M,M,M,M,M,M,M,M,YBBN 230330Z 02013KT CAVOK 29/22 Q1007 NOSIG
YBBN,2016-01-23 04:00,153.1292,-27.3917,82.40,71.60,69.90,30.00,13.00,0.00,29.71,M,6.21,M,M,M,M,M,M,M,M,M,M,YBBN 230400Z 03013KT CAVOK 28/22 Q1006
YBBN,2016-01-23 04:30,153.1292,-27.3917,80.60,71.60,74.11,30.00,12.00,0.00,29.71,M,6.21,M,M,M,M,M,M,M,M,M,M,YBBN 230430Z 03012KT CAVOK 27/22 Q1006 NOSIG
YBBN,2016-01-23 05:00,153.1292,-27.3917,80.60,71.60,74.11,30.00,14.00,0.00,29.68,M,6.21,M,NSC,M,M,M,M,M,M,M,VCSH,YBBN 230500Z 03014KT 9999 VCSH NSC 27/22 Q1005
YBBN,2016-01-23 05:30,153.1292,-27.3917,80.60,73.40,78.76,20.00,13.00,0.00,29.68,M,6.21,M,NSC,M,M,M,M,M,M,M,VCSH,YBBN 230530Z 02013KT 9999 VCSH NSC 27/23 Q1005 NOSIG
YBBN,2016-01-23 06:00,153.1292,-27.3917,80.60,71.60,74.11,10.00,14.00,0.00,29.68,M,6.21,M,FEW,SCT,BKN,M,3200.00,16500.00,20000.00,M,M,YBBN 230600Z 01014KT 9999 FEW032 SCT165 BKN200 27/22 Q1005
YBBN,2016-01-23 06:30,153.1292,-27.3917,80.60,73.40,78.76,10.00,13.00,0.00,29.68,M,6.21,M,FEW,SCT,BKN,M,3000.00,16000.00,23000.00,M,M,YBBN 230630Z 01013KT 9999 FEW030 SCT160 BKN230 27/23 Q1005
YBBN,2016-01-23 07:00,153.1292,-27.3917,80.60,71.60,74.11,10.00,13.00,0.00,29.68,M,6.21,M,FEW,SCT,BKN,M,3000.00,23500.00,25000.00,M,M,YBBN 230700Z 01013KT 9999 FEW030 SCT235 BKN250 27/22 Q1005
YBBN,2016-01-23 07:30,153.1292,-27.3917,80.60,71.60,74.11,10.00,12.00,0.00,29.68,M,6.21,M,FEW,BKN,M,M,3000.00,25000.00,M,M,M,YBBN 230730Z 01012KT 9999 FEW030 BKN250 27/22 Q1005 NOSIG
YBBN,2016-01-23 08:00,153.1292,-27.3917,78.80,73.40,83.55,20.00,9.00,0.00,29.71,M,6.21,M,FEW,SCT,BKN,M,1800.00,14000.00,25000.00,M,M,YBBN 230800Z 02009KT 9999 FEW018 SCT140 BKN250 26/23 Q1006
YBBN,2016-01-23 08:30,153.1292,-27.3917,78.80,73.40,83.55,40.00,7.00,0.00,29.74,M,6.21,M,FEW,SCT,BKN,M,1800.00,14000.00,25000.00,M,M,YBBN 230830Z 04007KT 9999 FEW018 SCT140 BKN250 26/23 Q1007 NOSIG
YBBN,2016-01-23 09:00,153.1292,-27.3917,78.80,73.40,83.55,80.00,5.00,0.00,29.74,M,6.21,M,FEW,SCT,M,M,2800.00,10000.00,M,M,M,YBBN 230900Z 08005KT 050V110 9999 FEW028 SCT100 26/23 Q1007
YBBN,2016-01-23 11:00,153.1292,-27.3917,78.80,73.40,83.55,160.00,5.00,0.00,29.77,M,6.21,M,FEW,SCT,FEW,M,1700.00,7500.00,3000.00,M,VCTS -SHRA,YBBN 231100Z 16005KT 9999 VCTS -SHRA FEW017 SCT075 FEW030CB 26/23 Q1008
YBBN,2016-01-23 12:00,153.1292,-27.3917,77.00,73.40,88.67,100.00,4.00,0.00,29.77,M,6.21,M,FEW,SCT,BKN,M,2500.00,8000.00,14000.00,M,-RA,YBBN 231200Z 10004KT 9999 -RA FEW025 SCT080 BKN140 25/23 Q1008
YBBN,2016-01-23 12:30,153.1292,-27.3917,77.00,73.40,88.67,110.00,4.00,0.00,29.77,M,6.21,M,FEW,SCT,M,M,2200.00,14000.00,M,M,M,YBBN 231230Z 11004KT 9999 FEW022 SCT140 25/23 Q1008 NOSIG
YBBN,2016-01-23 13:00,153.1292,-27.3917,77.00,75.20,94.19,140.00,7.00,0.00,29.77,M,6.21,M,FEW,BKN,M,M,700.00,9000.00,M,M,M,YBBN 231300Z 14007KT 9999 FEW007 BKN090 25/24 Q1008
YBBN,2016-01-23 13:30,153.1292,-27.3917,75.20,73.40,94.14,140.00,2.00,0.00,29.77,M,6.21,M,FEW,BKN,M,M,1700.00,9500.00,M,M,M,YBBN 231330Z 14002KT 9999 FEW017 BKN095 24/23 Q1008 NOSIG
YBBN,2016-01-23 14:00,153.1292,-27.3917,75.20,73.40,94.14,190.00,6.00,0.00,29.77,M,6.21,M,FEW,SCT,M,M,1600.00,10000.00,M,M,M,YBBN 231400Z 19006KT 9999 FEW016 SCT100 24/23 Q1008
YBBN,2016-01-23 14:30,153.1292,-27.3917,73.40,71.60,94.10,170.00,3.00,0.00,29.77,M,6.21,M,BKN,M,M,M,1700.00,M,M,M,M,YBBN 231430Z 17003KT 9999 BKN017 23/22 Q1008 NOSIG
YBBN,2016-01-23 15:00,153.1292,-27.3917,73.40,71.60,94.10,170.00,4.00,0.00,29.77,M,6.21,M,FEW,BKN,M,M,1700.00,2000.00,M,M,M,YBBN 231500Z 17004KT 9999 FEW017 BKN020 23/22 Q1008
YBBN,2016-01-23 15:30,153.1292,-27.3917,75.20,71.60,88.59,160.00,4.00,0.00,29.77,M,6.21,M,BKN,M,M,M,2400.00,M,M,M,M,YBBN 231530Z 16004KT 9999 BKN024 24/22 Q1008 NOSIG
YBBN,2016-01-23 16:00,153.1292,-27.3917,73.40,71.60,94.10,160.00,5.00,0.00,29.77,M,6.21,M,FEW,BKN,M,M,2400.00,11000.00,M,M,M,YBBN 231600Z 16005KT 9999 FEW024 BKN110 23/22 Q1008
YBBN,2016-01-23 16:30,153.1292,-27.3917,71.60,69.80,94.06,210.00,5.00,0.00,29.77,M,6.21,M,FEW,M,M,M,2200.00,M,M,M,M,YBBN 231630Z 21005KT 9999 FEW022 22/21 Q1008 NOSIG
YBBN,2016-01-23 17:00,153.1292,-27.3917,71.60,69.80,94.06,0.00,0.00,0.00,29.77,M,6.21,M,FEW,M,M,M,2200.00,M,M,M,M,YBBN 231700Z 00000KT 9999 FEW022 22/21 Q1008
YBBN,2016-01-23 17:30,153.1292,-27.3917,69.80,68.00,94.01,200.00,1.00,0.00,29.77,M,6.21,M,FEW,M,M,M,2200.00,M,M,M,M,YBBN 231730Z 20001KT 9999 FEW022 21/20 Q1008 NOSIG
YBBN,2016-01-23 18:00,153.1292,-27.3917,69.80,68.00,94.01,200.00,4.00,0.00,29.77,M,6.21,M,FEW,M,M,M,2200.00,M,M,M,M,YBBN 231800Z 20004KT 170V230 9999 FEW022 21/20 Q1008
YBBN,2016-01-23 18:30,153.1292,-27.3917,69.80,66.20,88.34,200.00,5.00,0.00,29.77,M,6.21,M,FEW,SCT,M,M,2200.00,10500.00,M,M,M,YBBN 231830Z 20005KT 9999 FEW022 SCT105 21/19 Q1008 NOSIG
YBBN,2016-01-23 19:00,153.1292,-27.3917,69.80,66.20,88.34,200.00,5.00,0.00,29.80,M,6.21,M,FEW,M,M,M,2000.00,M,M,M,M,YBBN 231900Z 20005KT 9999 FEW020 21/19 Q1009
YBBN,2016-01-23 21:00,153.1292,-27.3917,75.20,68.00,78.34,180.00,6.00,0.00,29.83,M,6.21,M,SCT,SCT,M,M,3800.00,6300.00,M,M,M,YBBN 232100Z 18006KT 9999 SCT038 SCT063 24/20 Q1010
YBBN,2016-01-23 22:00,153.1292,-27.3917,78.80,69.80,73.95,150.00,5.00,0.00,29.83,M,6.21,M,FEW,BKN,BKN,M,1600.00,3800.00,6500.00,M,M,YBBN 232200Z 15005KT 9999 FEW016 BKN038 BKN065 26/21 Q1010
YBBN,2016-01-23 22:30,153.1292,-27.3917,78.80,68.00,69.52,130.00,6.00,0.00,29.83,M,6.21,M,FEW,BKN,M,M,2200.00,4000.00,M,M,M,YBBN 232230Z 13006KT 9999 FEW022 BKN040 26/20 Q1010 NOSIG
YBBN,2016-01-23 23:00,153.1292,-27.3917,80.60,69.80,69.71,120.00,7.00,0.00,29.83,M,6.21,M,FEW,BKN,M,M,2500.00,4200.00,M,M,M,YBBN 232300Z 12007KT 9999 FEW025 BKN042 27/21 Q1010
YBBN,2016-01-23 23:30,153.1292,-27.3917,80.60,69.80,69.71,120.00,9.00,0.00,29.83,M,6.21,M,FEW,BKN,M,M,2800.00,4400.00,M,M,M,YBBN 232330Z 12009KT 9999 FEW028 BKN044 27/21 Q1010 NOSIG
