#DEBUG: Format Typ    -> comma
#DEBUG: Time Period   -> 2011-01-08 00:00:00+00:00 2011-01-09 00:00:00+00:00
#DEBUG: Time Zone     -> Etc/UTC
#DEBUG: Data Contact   -> daryl herzmann akrherz@iastate.edu 515-294-5978
#DEBUG: Entries Found -> -1
station,valid,lon,lat,tmpf, dwpf, relh, drct, sknt, p01i, alti, mslp, vsby, gust, skyc1, skyc2, skyc3, skyc4, skyl1, skyl2, skyl3, skyl4, presentwx, metar
YBBN,2011-01-08 17:06,153.1292,-27.3917,73.40,69.80,88.51,170.00,6.00,M,29.68,M,6.21,M,M,M,M,M,M,M,M,M,// //////,YBBN 081706Z 17006KT //// // ////// 23/21 Q1005 RMK VIS:9999 FM1706 14008KT 8000 -RA SCT012 BKN020 OVC040 TEMPO 1706/2006 2000 RA BKN008
YBBN,2011-01-08 21:46,153.1292,-27.3917,75.20,73.40,94.14,130.00,6.00,M,29.74,M,4.97,M,FEW,SCT,BKN,FEW,100.00,1400.00,2800.00,1800.00,-SHRA -RA,YBBN 082146Z 13006KT 8000 -SHRA -RA FEW001 SCT014 BKN028 FEW018TCU 24/23 Q1007 RMK CLEARING FM2146 14012KT 8000 -SHRA SCT020 BKN040 INTER 2146/2200 3000 SHRA BKN010 TEMPO 2200/0046 2000 RA BKN010
