#DEBUG: Format Typ    -> comma
#DEBUG: Time Period   -> 2015-07-09 00:00:00+00:00 2015-07-10 00:00:00+00:00
#DEBUG: Time Zone     -> Etc/UTC
#DEBUG: Data Contact   -> daryl herzmann akrherz@iastate.edu 515-294-5978
#DEBUG: Entries Found -> -1
station,valid,lon,lat,tmpf, dwpf, relh, drct, sknt, p01i, alti, mslp, vsby, gust, skyc1, skyc2, skyc3, skyc4, skyl1, skyl2, skyl3, skyl4, presentwx, metar
YBBN,2015-07-09 00:00,153.1292,-27.3917,64.40,51.80,63.60,160.00,7.00,0.00,30.36,M,6.21,M,FEW,BKN,M,M,2500.00,6000.00,M,M,VCSH,YBBN 090000Z 16007KT 9999 VCSH FEW025 BKN060 18/11 Q1028
YBBN,2015-07-09 00:30,153.1292,-27.3917,62.60,55.40,77.29,120.00,9.00,0.00,30.36,M,6.21,M,FEW,SCT,BKN,M,2300.00,4000.00,6200.00,M,VCSH,YBBN 090030Z 12009KT 9999 VCSH FEW023 SCT040 BKN062 17/13 Q1028
YBBN,2015-07-09 01:00,153.1292,-27.3917,60.80,55.40,82.37,100.00,7.00,0.00,30.36,M,6.21,M,SCT,BKN,M,M,3000.00,4500.00,M,M,VCSH,YBBN 090100Z 10007KT 9999 VCSH SCT030 BKN045 16/13 Q1028
YBBN,2015-07-09 01:30,153.1292,-27.3917,64.40,51.80,63.60,110.00,4.00,0.00,30.33,M,6.21,M,FEW,BKN,M,M,2500.00,6000.00,M,M,VCSH,YBBN 090130Z 11004KT 9999 VCSH FEW025 BKN060 18/11 Q1027
YBBN,2015-07-09 02:00,153.1292,-27.3917,66.20,50.00,55.88,120.00,7.00,0.00,30.33,M,6.21,M,BKN,BKN,M,M,2800.00,6500.00,M,M,VCSH,YBBN 090200Z 12007KT 9999 VCSH BKN028 BKN065 19/10 Q1027
YBBN,2015-07-09 02:30,153.1292,-27.3917,62.60,53.60,72.38,60.00,8.00,0.00,30.30,M,6.21,M,BKN,SCT,M,M,2800.00,6000.00,M,M,VCSH,YBBN 090230Z 06008KT 9999 VCSH BKN028 SCT060 17/12 Q1026
YBBN,2015-07-09 03:00,153.1292,-27.3917,62.60,51.80,67.75,60.00,7.00,0.00,30.30,M,6.21,M,SCT,BKN,M,M,3500.00,5900.00,M,M,VCSH,YBBN 090300Z 06007KT 9999 VCSH SCT035 BKN059 17/11 Q1026
YBBN,2015-07-09 03:30,153.1292,-27.3917,62.60,53.60,72.38,60.00,10.00,0.00,30.30,M,6.21,M,SCT,BKN,M,M,3800.00,7900.00,M,M,VCSH,YBBN 090330Z 06010KT 9999 VCSH SCT038 BKN079 17/12 Q1026
YBBN,2015-07-09 04:00,153.1292,-27.3917,64.40,51.80,63.60,80.00,6.00,0.00,30.27,M,6.21,M,FEW,SCT,M,M,4000.00,5900.00,M,M,M,YBBN 090400Z 08006KT 9999 FEW040 SCT059 18/11 Q1025
YBBN,2015-07-09 04:30,153.1292,-27.3917,64.40,50.00,59.50,110.00,8.00,0.00,30.27,M,6.21,M,SCT,SCT,M,M,4500.00,8300.00,M,M,M,YBBN 090430Z 11008KT 9999 SCT045 SCT083 18/10 Q1025
YBBN,2015-07-09 05:00,153.1292,-27.3917,64.40,51.80,63.60,120.00,8.00,0.00,30.27,M,6.21,M,SCT,SCT,M,M,4800.00,6000.00,M,M,M,YBBN 090500Z 12008KT 9999 SCT048 SCT060 18/11 Q1025
YBBN,2015-07-09 05:30,153.1292,-27.3917,64.40,48.20,55.63,110.00,5.00,0.00,30.27,M,6.21,M,FEW,BKN,M,M,2000.00,5900.00,M,M,M,YBBN 090530Z 11005KT 9999 FEW020 BKN059 18/09 Q1025
YBBN,2015-07-09 06:00,153.1292,-27.3917,64.40,51.80,63.60,120.00,6.00,0.00,30.27,M,6.21,M,FEW,BKN,M,M,2000.00,7700.00,M,M,M,YBBN 090600Z 12006KT 9999 FEW020 BKN077 18/11 Q1025
YBBN,2015-07-09 06:30,153.1292,-27.3917,64.40,51.80,63.60,150.00,7.00,0.00,30.27,M,6.21,M,FEW,BKN,M,M,2500.00,6100.00,M,M,M,YBBN 090630Z 15007KT 9999 FEW025 BKN061 18/11 Q1025
YBBN,2015-07-09 07:00,153.1292,-27.3917,62.60,50.00,63.38,140.00,6.00,0.00,30.27,M,6.21,M,FEW,SCT,M,M,2500.00,8300.00,M,M,M,YBBN 090700Z 14006KT 9999 FEW025 SCT083 17/10 Q1025 NOSIG
YBBN,2015-07-09 07:30,153.1292,-27.3917,62.60,50.00,63.38,150.00,4.00,0.00,30.27,M,6.21,M,M,M,M,M,M,M,M,M,M,YBBN 090730Z 15004KT CAVOK 17/10 Q1025
YBBN,2015-07-09 08:00,153.1292,-27.3917,60.80,51.80,72.20,160.00,4.00,0.00,30.30,M,6.21,M,M,M,M,M,M,M,M,M,M,YBBN 090800Z 16004KT CAVOK 16/11 Q1026
YBBN,2015-07-09 08:30,153.1292,-27.3917,59.00,51.80,76.98,160.00,4.00,0.00,30.30,M,6.21,M,M,M,M,M,M,M,M,M,M,YBBN 090830Z 16004KT CAVOK 15/11 Q1026
YBBN,2015-07-09 09:00,153.1292,-27.3917,57.20,51.80,82.12,170.00,5.00,0.00,30.30,M,6.21,M,M,M,M,M,M,M,M,M,M,YBBN 090900Z 17005KT CAVOK 14/11 Q1026 NOSIG
YBBN,2015-07-09 09:30,153.1292,-27.3917,57.20,51.80,82.12,180.00,4.00,0.00,30.30,M,6.21,M,M,M,M,M,M,M,M,M,M,YBBN 090930Z 18004KT CAVOK 14/11 Q1026
YBBN,2015-07-09 10:00,153.1292,-27.3917,57.20,51.80,82.12,180.00,4.00,0.00,30.30,M,6.21,M,M,M,M,M,M,M,M,M,M,YBBN 091000Z 18004KT CAVOK 14/11 Q1026 NOSIG
YBBN,2015-07-09 10:30,153.1292,-27.3917,57.20,51.80,82.12,170.00,5.00,0.00,30.30,M,6.21,M,M,M,M,M,M,M,M,M,M,YBBN 091030Z 17005KT CAVOK 14/11 Q1026
YBBN,2015-07-09 11:00,153.1292,-27.3917,57.20,50.00,76.82,190.00,4.00,0.00,30.30,M,6.21,M,M,M,M,M,M,M,M,M,M,YBBN 091100Z 19004KT CAVOK 14/10 Q1026 NOSIG
YBBN,2015-07-09 11:30,153.1292,-27.3917,55.40,50.00,81.99,200.00,5.00,0.00,30.30,M,6.21,M,M,M,M,M,M,M,M,M,M,YBBN 091130Z 20005KT CAVOK 13/10 Q1026
YBBN,2015-07-09 12:00,153.1292,-27.3917,53.60,50.00,87.56,200.00,5.00,0.00,30.30,M,6.21,M,M,M,M,M,M,M,M,M,M,YBBN 091200Z 20005KT CAVOK 12/10 Q1026 NOSIG
YBBN,2015-07-09 12:30,153.1292,-27.3917,53.60,50.00,87.56,200.00,5.00,0.00,30.30,M,6.21,M,M,M,M,M,M,M,M,M,M,YBBN 091230Z 20005KT CAVOK 12/10 Q1026
YBBN,2015-07-09 13:00,153.1292,-27.3917,53.60,50.00,87.56,190.00,6.00,0.00,30.30,M,6.21,M,M,M,M,M,M,M,M,M,M,YBBN 091300Z 19006KT CAVOK 12/10 Q1026 NOSIG
YBBN,2015-07-09 13:30,153.1292,-27.3917,51.80,50.00,93.55,190.00,5.00,0.00,30.30,M,6.21,M,M,M,M,M,M,M,M,M,M,YBBN 091330Z 19005KT CAVOK 11/10 Q1026
YBBN,2015-07-09 14:00,153.1292,-27.3917,50.00,48.20,93.50,210.00,5.00,0.00,30.30,M,6.21,M,M,M,M,M,M,M,M,M,M,YBBN 091400Z 21005KT CAVOK 10/09 Q1026 NOSIG
YBBN,2015-07-09 14:30,153.1292,-27.3917,51.80,50.00,93.55,210.00,6.00,0.00,30.30,M,6.21,M,M,M,M,M,M,M,M,M,M,YBBN 091430Z 21006KT CAVOK 11/10 Q1026
YBBN,2015-07-09 15:00,153.1292,-27.3917,50.00,48.20,93.50,210.00,7.00,0.00,30.30,M,6.21,M,M,M,M,M,M,M,M,M,M,YBBN 091500Z 21007KT CAVOK 10/09 Q1026 NOSIG
YBBN,2015-07-09 15:30,153.1292,-27.3917,53.60,50.00,87.56,190.00,7.00,0.00,30.27,M,6.21,M,FEW,M,M,M,4200.00,M,M,M,M,YBBN 091530Z 19007KT 9999 FEW042 12/10 Q1025
YBBN,2015-07-09 16:00,153.1292,-27.3917,53.60,50.00,87.56,200.00,7.00,0.00,30.27,M,6.21,M,FEW,M,M,M,4200.00,M,M,M,M,YBBN 091600Z 20007KT 9999 FEW042 12/10 Q1025 NOSIG
YBBN,2015-07-09 16:30,153.1292,-27.3917,51.80,48.20,87.47,200.00,7.00,0.00,30.27,M,6.21,M,FEW,M,M,M,4200.00,M,M,M,M,YBBN 091630Z 20007KT 9999 FEW042 11/09 Q1025
YBBN,2015-07-09 17:00,153.1292,-27.3917,51.80,48.20,87.47,200.00,6.00,0.00,30.27,M,6.21,M,FEW,M,M,M,4200.00,M,M,M,M,YBBN 091700Z 20006KT 9999 FEW042 11/09 Q1025 NOSIG
YBBN,2015-07-09 17:30,153.1292,-27.3917,48.20,48.20,100.00,210.00,7.00,0.00,30.27,M,6.21,M,M,M,M,M,M,M,M,M,M,YBBN 091730Z 21007KT CAVOK 09/09 Q1025
YBBN,2015-07-09 18:00,153.1292,-27.3917,48.20,46.40,93.45,210.00,7.00,0.00,30.24,M,6.21,M,M,M,M,M,M,M,M,M,M,YBBN 091800Z 21007KT CAVOK 09/08 Q1024 NOSIG
YBBN,2015-07-09 18:30,153.1292,-27.3917,50.00,48.20,93.50,210.00,7.00,0.00,30.24,M,6.21,M,M,M,M,M,M,M,M,M,M,YBBN 091830Z 21007KT CAVOK 10/09 Q1024
YBBN,2015-07-09 19:00,153.1292,-27.3917,51.80,48.20,87.47,200.00,7.00,0.00,30.24,M,6.21,M,M,M,M,M,M,M,M,M,M,YBBN 091900Z 20007KT CAVOK 11/09 Q1024 NOSIG
YBBN,2015-07-09 19:30,153.1292,-27.3917,50.00,48.20,93.50,200.00,8.00,0.00,30.27,M,6.21,M,M,M,M,M,M,M,M,M,M,YBBN 091930Z 20008KT CAVOK 10/09 Q1025
YBBN,2015-07-09 20:00,153.1292,-27.3917,51.80,48.20,87.47,200.00,8.00,0.00,30.27,M,6.21,M,FEW,M,M,M,2800.00,M,M,M,M,YBBN 092000Z 20008KT 9999 FEW028 11/09 Q1025 NOSIG
YBBN,2015-07-09 20:30,153.1292,-27.3917,51.80,48.20,87.47,200.00,9.00,0.00,30.27,M,6.21,M,FEW,M,M,M,2500.00,M,M,M,M,YBBN 092030Z 20009KT 9999 FEW025 11/09 Q1025
YBBN,2015-07-09 21:00,153.1292,-27.3917,50.00,48.20,93.50,210.00,9.00,0.00,30.27,M,6.21,M,FEW,M,M,M,2500.00,M,M,M,M,YBBN 092100Z 21009KT 9999 FEW025 10/09 Q1025 NOSIG
YBBN,2015-07-09 21:30,153.1292,-27.3917,51.80,48.20,87.47,200.00,9.00,0.00,30.27,M,6.21,M,FEW,SCT,M,M,2500.00,9000.00,M,M,M,YBBN 092130Z 20009KT 9999 FEW025 SCT090 11/09 Q1025
YBBN,2015-07-09 22:00,153.1292,-27.3917,53.60,50.00,87.56,210.00,9.00,0.00,30.27,M,6.21,M,FEW,BKN,M,M,2500.00,9000.00,M,M,M,YBBN 092200Z 21009KT 9999 FEW025 BKN090 12/10 Q1025
YBBN,2015-07-09 22:30,153.1292,-27.3917,55.40,50.00,81.99,210.00,9.00,0.00,30.27,M,6.21,M,FEW,SCT,BKN,M,2500.00,4000.00,9000.00,M,M,YBBN 092230Z 21009KT 9999 FEW025 SCT040 BKN090 13/10 Q1025
YBBN,2015-07-09 23:00,153.1292,-27.3917,55.40,50.00,81.99,210.00,9.00,0.00,30.27,M,6.21,M,FEW,SCT,BKN,M,2500.00,4000.00,9000.00,M,M,YBBN 092300Z 21009KT 9999 FEW025 SCT040 BKN090 13/10 Q1025
YBBN,2015-07-09 23:30,153.1292,-27.3917,59.00,50.00,72.01,210.00,8.00,0.00,30.27,M,6.21,M,FEW,BKN,M,M,2500.00,9000.00,M,M,M,YBBN 092330Z 21008KT 9999 FEW025 BKN090 15/10 Q1025
