#DEBUG: Format Typ    -> comma
#DEBUG: Time Period   -> 2014-02-22 00:00:00+00:00 2014-02-23 00:00:00+00:00
#DEBUG: Time Zone     -> Etc/UTC
#DEBUG: Data Contact   -> daryl herzmann akrherz@iastate.edu 515-294-5978
#DEBUG: Entries Found -> -1
station,valid,lon,lat,tmpf, dwpf, relh, drct, sknt, p01i, alti, mslp, vsby, gust, skyc1, skyc2, skyc3, skyc4, skyl1, skyl2, skyl3, skyl4, presentwx, metar
YBBN,2014-02-22 00:00,153.1292,-27.3917,78.80,66.20,65.33,140.00,13.00,0.00,29.97,M,6.21,M,FEW,SCT,BKN,M,2200.00,2800.00,6600.00,M,M,YBBN 220000Z 14013KT 9999 FEW022 SCT028 BKN066 26/19 Q1015
YBBN,2014-02-22 00:30,153.1292,-27.3917,78.80,66.20,65.33,170.00,12.00,0.00,29.97,M,6.21,M,FEW,SCT,BKN,M,2300.00,3000.00,6300.00,M,M,YBBN 220030Z 17012KT 9999 FEW023 SCT030 BKN063 26/19 Q1015
YBBN,2014-02-22 01:00,153.1292,-27.3917,80.60,66.20,61.58,120.00,11.00,0.00,29.97,M,6.21,M,FEW,SCT,BKN,M,2300.00,3200.00,6400.00,M,M,YBBN 220100Z 12011KT 9999 FEW023 SCT032 BKN064 27/19 Q1015
YBBN,2014-02-22 01:30,153.1292,-27.3917,78.80,64.40,61.36,120.00,13.00,0.00,29.97,M,6.21,M,FEW,SCT,BKN,M,2300.00,3200.00,4000.00,M,M,YBBN 220130Z 12013KT 9999 FEW023 SCT032 BKN040 26/18 Q1015 RMK DIST -SHRA SE
YBBN,2014-02-22 02:00,153.1292,-27.3917,78.80,64.40,61.36,140.00,13.00,0.00,29.97,M,6.21,M,FEW,SCT,BKN,M,2200.00,3000.00,4400.00,M,M,YBBN 220200Z 14013KT 9999 FEW022 SCT030 BKN044 26/18 Q1015 NOSIG
YBBN,2014-02-22 02:30,153.1292,-27.3917,78.80,64.40,61.36,140.00,10.00,0.00,29.97,M,6.21,M,OVC,M,M,M,3400.00,M,M,M,//,YBBN 220230Z AUTO 14010KT 9999 // OVC034 26/18 Q1015
YBBN,2014-02-22 03:00,153.1292,-27.3917,77.00,64.40,65.12,130.00,11.00,0.00,29.97,M,6.21,M,FEW,SCT,BKN,M,2300.00,2800.00,3800.00,M,-SHRA,YBBN 220300Z 13011KT 9999 -SHRA FEW023 SCT028 BKN038 25/18 Q1015
YBBN,2014-02-22 03:30,153.1292,-27.3917,75.20,64.40,69.14,140.00,10.00,0.00,29.97,M,4.97,M,FEW,SCT,BKN,M,1900.00,2800.00,3800.00,M,-SHRA,YBBN 220330Z 14010KT 8000 -SHRA FEW019 SCT028 BKN038 24/18 Q1015
YBBN,2014-02-22 04:00,153.1292,-27.3917,75.20,64.40,69.14,140.00,9.00,0.00,29.97,M,6.21,M,FEW,SCT,BKN,M,1900.00,2800.00,4400.00,M,-SHRA,YBBN 220400Z 14009KT 9999 -SHRA FEW019 SCT028 BKN044 24/18 Q1015
YBBN,2014-02-22 04:30,153.1292,-27.3917,77.00,64.40,65.12,150.00,11.00,0.00,29.97,M,6.21,M,FEW,SCT,BKN,M,2000.00,2800.00,4800.00,M,VCSH,YBBN 220430Z 15011KT 9999 VCSH FEW020 SCT028 BKN048 25/18 Q1015
YBBN,2014-02-22 05:00,153.1292,-27.3917,77.00,64.40,65.12,130.00,11.00,0.00,29.97,M,6.21,M,FEW,SCT,BKN,M,1900.00,2700.00,4700.00,M,VCSH,YBBN 220500Z 13011KT 9999 VCSH FEW019 SCT027 BKN047 25/18 Q1015
YBBN,2014-02-22 05:30,153.1292,-27.3917,77.00,64.40,65.12,150.00,8.00,0.00,29.94,M,6.21,M,FEW,SCT,BKN,M,1800.00,2600.00,5300.00,M,M,YBBN 220530Z 15008KT 9999 FEW018 SCT026 BKN053 25/18 Q1014
YBBN,2014-02-22 06:00,153.1292,-27.3917,77.00,64.40,65.12,130.00,9.00,0.00,29.94,M,6.21,M,FEW,SCT,BKN,M,1900.00,3600.00,5200.00,M,M,YBBN 220600Z 13009KT 9999 FEW019 SCT036 BKN052 25/18 Q1014 NOSIG
YBBN,2014-02-22 06:30,153.1292,-27.3917,77.00,62.60,61.13,130.00,10.00,0.00,29.94,M,6.21,M,FEW,SCT,BKN,M,2000.00,2600.00,5200.00,M,M,YBBN 220630Z 13010KT 9999 FEW020 SCT026 BKN052 25/17 Q1014 RMK DIST -SHRA W/SW
YBBN,2014-02-22 07:00,153.1292,-27.3917,77.00,64.40,65.12,140.00,9.00,0.00,29.97,M,6.21,M,M,M,M,M,M,M,M,M,M,YBBN 220700Z 14009KT 9999 25/18 Q1015
YBBN,2014-02-22 07:30,153.1292,-27.3917,75.20,64.40,69.14,140.00,11.00,0.00,29.97,M,6.21,M,SCT,BKN,M,M,2800.00,5200.00,M,M,M,YBBN 220730Z 14011KT 9999 SCT028 BKN052 24/18 Q1015 RMK DIST SHRA TO W
YBBN,2014-02-22 08:00,153.1292,-27.3917,75.20,62.60,64.91,150.00,8.00,0.00,29.97,M,6.21,M,FEW,BKN,M,M,2000.00,4600.00,M,M,M,YBBN 220800Z 15008KT 9999 FEW020 BKN046 24/17 Q1015 NOSIG
YBBN,2014-02-22 08:30,153.1292,-27.3917,75.20,62.60,64.91,150.00,7.00,0.00,30.00,M,6.21,17.00,FEW,SCT,OVC,M,2000.00,4500.00,6000.00,M,M,YBBN 220830Z 15007G17KT 9999 FEW020 SCT045 OVC060 24/17 Q1016
YBBN,2014-02-22 09:00,153.1292,-27.3917,75.20,62.60,64.91,150.00,8.00,0.00,30.00,M,6.21,M,FEW,SCT,BKN,M,2000.00,3500.00,6300.00,M,M,YBBN 220900Z 15008KT 9999 FEW020 SCT035 BKN063 24/17 Q1016 NOSIG
YBBN,2014-02-22 09:30,153.1292,-27.3917,75.20,62.60,64.91,160.00,12.00,0.00,30.00,M,6.21,M,SCT,BKN,BKN,M,3000.00,4500.00,6000.00,M,VCSH,YBBN 220930Z 16012KT 9999 VCSH SCT030 BKN045 BKN060 24/17 Q1016
YBBN,2014-02-22 10:00,153.1292,-27.3917,75.20,62.60,64.91,160.00,8.00,0.00,30.00,M,6.21,M,FEW,OVC,M,M,3000.00,4500.00,M,M,M,YBBN 221000Z 16008KT 9999 FEW030 OVC045 24/17 Q1016 NOSIG
YBBN,2014-02-22 10:30,153.1292,-27.3917,73.40,64.40,73.44,170.00,8.00,0.00,30.03,M,6.21,M,FEW,BKN,BKN,M,3000.00,4500.00,6000.00,M,M,YBBN 221030Z 17008KT 9999 FEW030 BKN045 BKN060 23/18 Q1017
YBBN,2014-02-22 11:00,153.1292,-27.3917,73.40,62.60,68.94,160.00,7.00,0.00,30.03,M,6.21,M,SCT,BKN,M,M,4500.00,6000.00,M,M,M,YBBN 221100Z 16007KT 9999 SCT045 BKN060 23/17 Q1017
YBBN,2014-02-22 11:30,153.1292,-27.3917,73.40,62.60,68.94,160.00,8.00,0.00,30.03,M,6.21,M,FEW,BKN,M,M,4500.00,6500.00,M,M,M,YBBN 221130Z 16008KT 9999 FEW045 BKN065 23/17 Q1017
YBBN,2014-02-22 12:00,153.1292,-27.3917,73.40,62.60,68.94,170.00,6.00,0.00,30.03,M,6.21,M,FEW,BKN,M,M,4500.00,6500.00,M,M,M,YBBN 221200Z 17006KT 9999 FEW045 BKN065 23/17 Q1017
YBBN,2014-02-22 12:30,153.1292,-27.3917,75.20,60.80,60.90,190.00,8.00,0.00,30.03,M,6.21,M,FEW,BKN,M,M,4500.00,6500.00,M,M,M,YBBN 221230Z 19008KT 9999 FEW045 BKN065 24/16 Q1017
YBBN,2014-02-22 13:00,153.1292,-27.3917,73.40,62.60,68.94,180.00,7.00,0.00,30.03,M,6.21,M,FEW,SCT,BKN,M,3000.00,4500.00,6500.00,M,M,YBBN 221300Z 18007KT 9999 FEW030 SCT045 BKN065 23/17 Q1017 NOSIG
YBBN,2014-02-22 13:30,153.1292,-27.3917,73.40,60.80,64.69,180.00,7.00,0.00,30.03,M,6.21,M,FEW,BKN,M,M,4000.00,6500.00,M,M,M,YBBN 221330Z 18007KT 9999 FEW040 BKN065 23/16 Q1017
YBBN,2014-02-22 14:00,153.1292,-27.3917,73.40,60.80,64.69,180.00,7.00,0.00,30.00,M,6.21,M,FEW,SCT,BKN,M,3800.00,5500.00,18000.00,M,M,YBBN 221400Z 18007KT 9999 FEW038 SCT055 BKN180 23/16 Q1016
YBBN,2014-02-22 14:30,153.1292,-27.3917,73.40,62.60,68.94,180.00,7.00,0.00,30.00,M,6.21,M,M,M,M,M,M,M,M,M,M,YBBN 221430Z 18007KT CAVOK 23/17 Q1016
YBBN,2014-02-22 15:00,153.1292,-27.3917,71.60,62.60,73.27,180.00,7.00,0.00,30.00,M,6.21,M,SCT,SCT,M,M,3500.00,14000.00,M,M,M,YBBN 221500Z 18007KT 9999 SCT035 SCT140 22/17 Q1016 NOSIG
YBBN,2014-02-22 15:30,153.1292,-27.3917,71.60,62.60,73.27,170.00,7.00,0.00,30.00,M,6.21,M,FEW,SCT,M,M,3500.00,13000.00,M,M,M,YBBN 221530Z 17007KT 9999 FEW035 SCT130 22/17 Q1016
YBBN,2014-02-22 16:00,153.1292,-27.3917,71.60,62.60,73.27,190.00,7.00,0.00,30.00,M,6.21,M,FEW,M,M,M,4000.00,M,M,M,M,YBBN 221600Z 19007KT 9999 FEW040 22/17 Q1016
YBBN,2014-02-22 16:30,153.1292,-27.3917,71.60,62.60,73.27,180.00,7.00,0.00,29.97,M,6.21,M,FEW,SCT,M,M,4000.00,21000.00,M,M,M,YBBN 221630Z 18007KT 9999 FEW040 SCT210 22/17 Q1015
YBBN,2014-02-22 17:00,153.1292,-27.3917,71.60,62.60,73.27,180.00,6.00,0.00,29.97,M,6.21,M,FEW,SCT,M,M,4000.00,21000.00,M,M,M,YBBN 221700Z 18006KT 9999 FEW040 SCT210 22/17 Q1015 NOSIG
YBBN,2014-02-22 17:30,153.1292,-27.3917,71.60,62.60,73.27,170.00,9.00,0.00,30.00,M,6.21,M,FEW,BKN,M,M,4000.00,23000.00,M,M,M,YBBN 221730Z 17009KT 9999 FEW040 BKN230 22/17 Q1016
YBBN,2014-02-22 18:00,153.1292,-27.3917,71.60,60.80,68.75,160.00,10.00,0.00,29.97,M,6.21,M,FEW,SCT,M,M,4000.00,24000.00,M,M,M,YBBN 221800Z 16010KT 9999 FEW040 SCT240 22/16 Q1015
YBBN,2014-02-22 18:30,153.1292,-27.3917,71.60,60.80,68.75,170.00,9.00,0.00,30.00,M,6.21,M,M,M,M,M,M,M,M,M,M,YBBN 221830Z 17009KT CAVOK 22/16 Q1016
YBBN,2014-02-22 19:00,153.1292,-27.3917,71.60,60.80,68.75,180.00,8.00,0.00,30.00,M,6.21,M,FEW,SCT,BKN,M,4000.00,7000.00,21000.00,M,M,YBBN 221900Z 18008KT 9999 FEW040 SCT070 BKN210 22/16 Q1016 NOSIG
YBBN,2014-02-22 19:30,153.1292,-27.3917,73.40,60.80,64.69,170.00,9.00,0.00,30.00,M,6.21,M,FEW,BKN,BKN,M,2200.00,6500.00,21000.00,M,M,YBBN 221930Z 17009KT 9999 FEW022 BKN065 BKN210 23/16 Q1016
YBBN,2014-02-22 20:00,153.1292,-27.3917,73.40,59.00,60.67,190.00,10.00,0.00,30.00,M,6.21,M,FEW,BKN,M,M,2200.00,6000.00,M,M,M,YBBN 222000Z 19010KT 9999 FEW022 BKN060 23/15 Q1016
YBBN,2014-02-22 20:30,153.1292,-27.3917,73.40,59.00,60.67,170.00,8.00,0.00,30.00,M,6.21,M,FEW,BKN,M,M,2000.00,5600.00,M,M,M,YBBN 222030Z 17008KT 9999 FEW020 BKN056 23/15 Q1016 RMK DIST -SHRA E/NE
YBBN,2014-02-22 21:00,153.1292,-27.3917,73.40,59.00,60.67,170.00,9.00,0.00,30.03,M,6.21,M,FEW,BKN,M,M,2200.00,5600.00,M,M,M,YBBN 222100Z 17009KT 9999 FEW022 BKN056 23/15 Q1017 NOSIG
YBBN,2014-02-22 21:30,153.1292,-27.3917,73.40,59.00,60.67,160.00,10.00,0.00,30.03,M,6.21,M,FEW,BKN,M,M,2200.00,5000.00,M,M,M,YBBN 222130Z 16010KT 9999 FEW022 BKN050 23/15 Q1017
YBBN,2014-02-22 22:00,153.1292,-27.3917,75.20,59.00,57.12,160.00,12.00,0.00,30.03,M,6.21,M,FEW,BKN,M,M,2200.00,4800.00,M,M,M,YBBN 222200Z 16012KT 9999 FEW022 BKN048 24/15 Q1017 NOSIG
YBBN,2014-02-22 22:30,153.1292,-27.3917,77.00,59.00,53.80,160.00,13.00,0.00,30.03,M,6.21,M,FEW,BKN,M,M,2300.00,6400.00,M,M,M,YBBN 222230Z 16013KT 9999 FEW023 BKN064 25/15 Q1017
YBBN,2014-02-22 23:00,153.1292,-27.3917,78.80,57.20,47.52,140.00,13.00,0.00,30.03,M,6.21,M,FEW,SCT,BKN,M,2400.00,3800.00,6800.00,M,M,YBBN 222300Z 14013KT 9999 FEW024 SCT038 BKN068 26/14 Q1017 NOSIG
YBBN,2014-02-22 23:23,153.1292,-27.3917,78.80,57.20,47.52,140.00,15.00,0.00,30.03,M,6.21,25.00,FEW,SCT,BKN,M,2400.00,3900.00,6300.00,M,M,YBBN 222323Z 14015G25KT 9999 FEW024 SCT039 BKN063 26/14 Q1017
YBBN,2014-02-22 23:30,153.1292,-27.3917,78.80,55.40,44.52,130.00,16.00,0.00,30.03,M,6.21,26.00,FEW,SCT,BKN,M,2400.00,4000.00,6300.00,M,M,YBBN 222330Z 13016G26KT 9999 FEW024 SCT040 BKN063 26/13 Q1017
