#DEBUG: Format Typ    -> comma
#DEBUG: Time Period   -> 2013-11-07 00:00:00+00:00 2013-11-08 00:00:00+00:00
#DEBUG: Time Zone     -> Etc/UTC
#DEBUG: Data Contact   -> daryl herzmann akrherz@iastate.edu 515-294-5978
#DEBUG: Entries Found -> -1
station,valid,lon,lat,tmpf, dwpf, relh, drct, sknt, p01i, alti, mslp, vsby, gust, skyc1, skyc2, skyc3, skyc4, skyl1, skyl2, skyl3, skyl4, presentwx, metar
YBBN,2013-11-07 00:06,153.1292,-27.3917,75.20,51.80,43.97,10.00,9.00,0.00,30.06,M,6.21,M,FEW,M,M,M,4200.00,M,M,M,M,YBBN 070006Z 01009KT 9999 FEW042 24/11 Q1018 WS RWY01
YBBN,2013-11-07 00:30,153.1292,-27.3917,75.20,51.80,43.97,40.00,8.00,0.00,30.06,M,6.21,M,FEW,M,M,M,4200.00,M,M,M,M,YBBN 070030Z 04008KT 9999 FEW042 24/11 Q1018 WS RWY01
YBBN,2013-11-07 01:00,153.1292,-27.3917,75.20,51.80,43.97,40.00,9.00,0.00,30.06,M,6.21,M,FEW,M,M,M,4500.00,M,M,M,M,YBBN 070100Z 04009KT 9999 FEW045 24/11 Q1018 WS RWY01
YBBN,2013-11-07 01:30,153.1292,-27.3917,75.20,51.80,43.97,30.00,9.00,0.00,30.03,M,6.21,M,FEW,M,M,M,4500.00,M,M,M,M,YBBN 070130Z 03009KT 9999 FEW045 24/11 Q1017
YBBN,2013-11-07 02:00,153.1292,-27.3917,75.20,51.80,43.97,30.00,11.00,0.00,30.03,M,6.21,M,FEW,M,M,M,4500.00,M,M,M,M,YBBN 070200Z 03011KT 9999 FEW045 24/11 Q1017 NOSIG
YBBN,2013-11-07 02:30,153.1292,-27.3917,77.00,48.20,36.22,40.00,12.00,0.00,30.03,M,6.21,M,FEW,M,M,M,4500.00,M,M,M,M,YBBN 070230Z 04012KT 9999 FEW045 25/09 Q1017
YBBN,2013-11-07 03:00,153.1292,-27.3917,77.00,51.80,41.42,40.00,13.00,0.00,30.00,M,6.21,M,M,M,M,M,M,M,M,M,M,YBBN 070300Z 04013KT CAVOK 25/11 Q1016 NOSIG
YBBN,2013-11-07 03:30,153.1292,-27.3917,77.00,55.40,47.25,30.00,13.00,0.00,30.00,M,6.21,M,M,M,M,M,M,M,M,M,M,YBBN 070330Z 03013KT CAVOK 25/13 Q1016
YBBN,2013-11-07 04:00,153.1292,-27.3917,77.00,57.20,50.43,30.00,14.00,0.00,30.00,M,6.21,M,M,M,M,M,M,M,M,M,M,YBBN 070400Z 03014KT CAVOK 25/14 Q1016 NOSIG
YBBN,2013-11-07 04:30,153.1292,-27.3917,75.20,55.40,50.17,30.00,14.00,0.00,29.97,M,6.21,M,M,M,M,M,M,M,M,M,M,YBBN 070430Z 03014KT CAVOK 24/13 Q1015
YBBN,2013-11-07 05:00,153.1292,-27.3917,75.20,55.40,50.17,20.00,13.00,0.00,29.97,M,6.21,M,M,M,M,M,M,M,M,M,M,YBBN 070500Z 02013KT CAVOK 24/13 Q1015 NOSIG
YBBN,2013-11-07 05:30,153.1292,-27.3917,75.20,57.20,53.55,10.00,13.00,0.00,29.97,M,6.21,M,M,M,M,M,M,M,M,M,M,YBBN 070530Z 01013KT CAVOK 24/14 Q1015
YBBN,2013-11-07 06:00,153.1292,-27.3917,75.20,57.20,53.55,10.00,14.00,0.00,29.97,M,6.21,M,M,M,M,M,M,M,M,M,M,YBBN 070600Z 01014KT CAVOK 24/14 Q1015 NOSIG
YBBN,2013-11-07 06:30,153.1292,-27.3917,73.40,57.20,56.88,10.00,14.00,0.00,29.97,M,6.21,M,M,M,M,M,M,M,M,M,M,YBBN 070630Z 01014KT CAVOK 23/14 Q1015
YBBN,2013-11-07 07:00,153.1292,-27.3917,73.40,57.20,56.88,10.00,14.00,0.00,29.97,M,6.21,M,M,M,M,M,M,M,M,M,M,YBBN 070700Z 01014KT CAVOK 23/14 Q1015 NOSIG
YBBN,2013-11-07 07:30,153.1292,-27.3917,71.60,57.20,60.44,10.00,13.00,0.00,29.97,M,6.21,M,M,M,M,M,M,M,M,M,M,YBBN 070730Z 01013KT CAVOK 22/14 Q1015 RMK FU
YBBN,2013-11-07 08:00,153.1292,-27.3917,69.80,55.40,60.21,10.00,11.00,0.00,30.00,M,6.21,M,M,M,M,M,M,M,M,M,M,YBBN 070800Z 01011KT CAVOK 21/13 Q1016 NOSIG
YBBN,2013-11-07 08:30,153.1292,-27.3917,69.80,55.40,60.21,10.00,12.00,0.00,30.00,M,6.21,M,M,M,M,M,M,M,M,M,M,YBBN 070830Z 01012KT CAVOK 21/13 Q1016
YBBN,2013-11-07 09:00,153.1292,-27.3917,68.00,57.20,68.35,20.00,10.00,0.00,30.00,M,6.21,M,M,M,M,M,M,M,M,M,M,YBBN 070900Z 02010KT CAVOK 20/14 Q1016 NOSIG
YBBN,2013-11-07 09:30,153.1292,-27.3917,68.00,55.40,64.04,10.00,11.00,0.00,30.00,M,6.21,M,M,M,M,M,M,M,M,M,M,YBBN 070930Z 01011KT CAVOK 20/13 Q1016
YBBN,2013-11-07 10:00,153.1292,-27.3917,68.00,55.40,64.04,10.00,11.00,0.00,30.00,M,6.21,M,M,M,M,M,M,M,M,M,M,YBBN 071000Z 01011KT CAVOK 20/13 Q1016
YBBN,2013-11-07 10:30,153.1292,-27.3917,68.00,55.40,64.04,10.00,9.00,0.00,30.03,M,6.21,M,M,M,M,M,M,M,M,M,M,YBBN 071030Z 01009KT CAVOK 20/13 Q1017
YBBN,2013-11-07 11:00,153.1292,-27.3917,68.00,55.40,64.04,10.00,9.00,0.00,30.03,M,6.21,M,M,M,M,M,M,M,M,M,M,YBBN 071100Z 01009KT CAVOK 20/13 Q1017
YBBN,2013-11-07 11:30,153.1292,-27.3917,68.00,57.20,68.35,10.00,11.00,0.00,30.03,M,6.21,M,M,M,M,M,M,M,M,M,M,YBBN 071130Z 01011KT CAVOK 20/14 Q1017
YBBN,2013-11-07 12:00,153.1292,-27.3917,68.00,57.20,68.35,10.00,11.00,0.00,30.03,M,6.21,M,M,M,M,M,M,M,M,M,M,YBBN 071200Z 01011KT CAVOK 20/14 Q1017 NOSIG
YBBN,2013-11-07 12:30,153.1292,-27.3917,68.00,57.20,68.35,360.00,11.00,0.00,30.03,M,6.21,M,M,M,M,M,M,M,M,M,M,YBBN 071230Z 36011KT CAVOK 20/14 Q1017
YBBN,2013-11-07 13:00,153.1292,-27.3917,68.00,57.20,68.35,360.00,9.00,0.00,30.03,M,6.21,M,M,M,M,M,M,M,M,M,M,YBBN 071300Z 36009KT CAVOK 20/14 Q1017
YBBN,2013-11-07 13:30,153.1292,-27.3917,66.20,57.20,72.74,300.00,7.00,0.00,30.03,M,6.21,M,M,M,M,M,M,M,M,M,M,YBBN 071330Z 30007KT CAVOK 19/14 Q1017
YBBN,2013-11-07 14:00,153.1292,-27.3917,64.40,55.40,72.56,290.00,5.00,0.00,30.00,M,6.21,M,M,M,M,M,M,M,M,M,M,YBBN 071400Z 29005KT CAVOK 18/13 Q1016
YBBN,2013-11-07 14:30,153.1292,-27.3917,64.40,55.40,72.56,280.00,5.00,0.00,30.00,M,6.21,M,M,M,M,M,M,M,M,M,M,YBBN 071430Z 28005KT CAVOK 18/13 Q1016
YBBN,2013-11-07 15:00,153.1292,-27.3917,64.40,55.40,72.56,280.00,5.00,0.00,30.00,M,6.21,M,M,M,M,M,M,M,M,M,M,YBBN 071500Z 28005KT CAVOK 18/13 Q1016 NOSIG
YBBN,2013-11-07 15:30,153.1292,-27.3917,62.60,55.40,77.29,290.00,4.00,0.00,30.00,M,6.21,M,M,M,M,M,M,M,M,M,M,YBBN 071530Z 29004KT CAVOK 17/13 Q1016
YBBN,2013-11-07 16:00,153.1292,-27.3917,62.60,55.40,77.29,0.00,0.00,0.00,30.00,M,6.21,M,M,M,M,M,M,M,M,M,M,YBBN 071600Z 00000KT CAVOK 17/13 Q1016 NOSIG
YBBN,2013-11-07 16:30,153.1292,-27.3917,62.60,55.40,77.29,0.00,0.00,0.00,29.97,M,6.21,M,M,M,M,M,M,M,M,M,M,YBBN 071630Z 00000KT CAVOK 17/13 Q1015
YBBN,2013-11-07 17:00,153.1292,-27.3917,60.80,55.40,82.37,310.00,4.00,0.00,29.97,M,6.21,M,M,M,M,M,M,M,M,M,M,YBBN 071700Z 31004KT CAVOK 16/13 Q1015 NOSIG
YBBN,2013-11-07 17:30,153.1292,-27.3917,60.80,55.40,82.37,270.00,1.00,0.00,29.97,M,6.21,M,M,M,M,M,M,M,M,M,M,YBBN 071730Z 27001KT CAVOK 16/13 Q1015
YBBN,2013-11-07 18:00,153.1292,-27.3917,59.00,55.40,87.83,290.00,3.00,0.00,30.00,M,6.21,M,M,M,M,M,M,M,M,M,M,YBBN 071800Z 29003KT CAVOK 15/13 Q1016 NOSIG
YBBN,2013-11-07 18:30,153.1292,-27.3917,60.80,55.40,82.37,270.00,2.00,0.00,30.00,M,6.21,M,M,M,M,M,M,M,M,M,M,YBBN 071830Z 27002KT CAVOK 16/13 Q1016
YBBN,2013-11-07 19:00,153.1292,-27.3917,59.00,55.40,87.83,250.00,3.00,0.00,30.00,M,6.21,M,M,M,M,M,M,M,M,M,M,YBBN 071900Z 25003KT CAVOK 15/13 Q1016
YBBN,2013-11-07 19:30,153.1292,-27.3917,59.00,55.40,87.83,250.00,2.00,0.00,30.00,M,6.21,M,M,M,M,M,M,M,M,M,M,YBBN 071930Z 25002KT CAVOK 15/13 Q1016
YBBN,2013-11-07 20:00,153.1292,-27.3917,62.60,57.20,82.50,0.00,0.00,0.00,30.03,M,6.21,M,M,M,M,M,M,M,M,M,M,YBBN 072000Z 00000KT CAVOK 17/14 Q1017
YBBN,2013-11-07 20:30,153.1292,-27.3917,66.20,57.20,72.74,210.00,4.00,0.00,30.03,M,6.21,M,M,M,M,M,M,M,M,M,M,YBBN 072030Z 21004KT CAVOK 19/14 Q1017
YBBN,2013-11-07 21:00,153.1292,-27.3917,69.80,55.40,60.21,300.00,3.00,0.00,30.03,M,6.21,M,M,M,M,M,M,M,M,M,M,YBBN 072100Z 30003KT CAVOK 21/13 Q1017 NOSIG
YBBN,2013-11-07 21:30,153.1292,-27.3917,71.60,55.40,56.63,330.00,5.00,0.00,30.03,M,6.21,M,M,M,M,M,M,M,M,M,M,YBBN 072130Z 33005KT CAVOK 22/13 Q1017
YBBN,2013-11-07 22:00,153.1292,-27.3917,71.60,53.60,53.03,340.00,5.00,0.00,30.03,M,6.21,M,M,M,M,M,M,M,M,M,M,YBBN 072200Z 34005KT CAVOK 22/12 Q1017 NOSIG
YBBN,2013-11-07 22:30,153.1292,-27.3917,75.20,53.60,46.98,10.00,7.00,0.00,30.00,M,6.21,M,M,M,M,M,M,M,M,M,M,YBBN 072230Z 01007KT CAVOK 24/12 Q1016
YBBN,2013-11-07 23:00,153.1292,-27.3917,75.20,53.60,46.98,360.00,8.00,0.00,30.00,M,6.21,M,M,M,M,M,M,M,M,M,M,YBBN 072300Z 36008KT CAVOK 24/12 Q1016
YBBN,2013-11-07 23:30,153.1292,-27.3917,75.20,55.40,50.17,20.00,10.00,0.00,30.00,M,6.21,M,M,M,M,M,M,M,M,M,M,YBBN 072330Z 02010KT CAVOK 24/13 Q1016
