#DEBUG: Format Typ    -> comma
#DEBUG: Time Period   -> 2013-05-06 00:00:00+00:00 2013-05-07 00:00:00+00:00
#DEBUG: Time Zone     -> Etc/UTC
#DEBUG: Data Contact   -> daryl herzmann akrherz@iastate.edu 515-294-5978
#DEBUG: Entries Found -> -1
station,valid,lon,lat,tmpf, dwpf, relh, drct, sknt, p01i, alti, mslp, vsby, gust, skyc1, skyc2, skyc3, skyc4, skyl1, skyl2, skyl3, skyl4, presentwx, metar
YBBN,2013-05-06 00:00,153.1292,-27.3917,71.60,60.80,68.75,140.00,6.00,0.00,30.18,M,6.21,M,SCT,BKN,M,M,2400.00,4700.00,M,M,M,YBBN 060000Z 14006KT 9999 SCT024 BKN047 22/16 Q1022 NOSIG
YBBN,2013-05-06 00:30,153.1292,-27.3917,71.60,59.00,64.48,130.00,7.00,0.00,30.18,M,6.21,M,BKN,SCT,M,M,2400.00,5700.00,M,M,M,YBBN 060030Z 13007KT 9999 BKN024 SCT057 22/15 Q1022
YBBN,2013-05-06 01:00,153.1292,-27.3917,71.60,59.00,64.48,110.00,9.00,0.00,30.18,M,6.21,M,SCT,BKN,M,M,3000.00,5500.00,M,M,M,YBBN 060100Z 11009KT 9999 SCT030 BKN055 22/15 Q1022 NOSIG
YBBN,2013-05-06 01:30,153.1292,-27.3917,71.60,57.20,60.44,120.00,11.00,0.00,30.15,M,6.21,M,SCT,SCT,M,M,3000.00,5700.00,M,M,M,YBBN 060130Z 12011KT 9999 SCT030 SCT057 22/14 Q1021
YBBN,2013-05-06 02:00,153.1292,-27.3917,71.60,57.20,60.44,120.00,10.00,0.00,30.15,M,6.21,M,SCT,SCT,M,M,3500.00,6300.00,M,M,M,YBBN 060200Z 12010KT 9999 SCT035 SCT063 22/14 Q1021 NOSIG
YBBN,2013-05-06 02:30,153.1292,-27.3917,73.40,57.20,56.88,110.00,10.00,0.00,30.15,M,6.21,M,SCT,BKN,M,M,3800.00,8000.00,M,M,M,YBBN 060230Z 11010KT 9999 SCT038 BKN080 23/14 Q1021
YBBN,2013-05-06 03:00,153.1292,-27.3917,71.60,59.00,64.48,110.00,10.00,0.00,30.12,M,6.21,M,FEW,SCT,M,M,4000.00,5700.00,M,M,M,YBBN 060300Z 11010KT 9999 FEW040 SCT057 22/15 Q1020 NOSIG
YBBN,2013-05-06 03:30,153.1292,-27.3917,69.80,59.00,68.55,110.00,12.00,0.00,30.12,M,6.21,M,FEW,SCT,BKN,M,2000.00,3100.00,8400.00,M,VCSH,YBBN 060330Z 11012KT 9999 VCSH FEW020 SCT031 BKN084 21/15 Q1020
YBBN,2013-05-06 04:00,153.1292,-27.3917,71.60,60.80,68.75,110.00,10.00,0.00,30.12,M,6.21,M,SCT,M,M,M,3100.00,M,M,M,M,YBBN 060400Z 11010KT 9999 SCT031 22/16 Q1020
YBBN,2013-05-06 04:30,153.1292,-27.3917,71.60,59.00,64.48,110.00,11.00,0.00,30.12,M,6.21,M,SCT,M,M,M,3100.00,M,M,M,M,YBBN 060430Z 11011KT 9999 SCT031 22/15 Q1020
YBBN,2013-05-06 05:00,153.1292,-27.3917,69.80,59.00,68.55,110.00,10.00,0.00,30.12,M,6.21,M,SCT,M,M,M,3100.00,M,M,M,M,YBBN 060500Z 11010KT 9999 SCT031 21/15 Q1020 NOSIG
YBBN,2013-05-06 05:30,153.1292,-27.3917,69.80,57.20,64.26,120.00,11.00,0.00,30.12,M,6.21,M,SCT,M,M,M,3300.00,M,M,M,M,YBBN 060530Z 12011KT 9999 SCT033 21/14 Q1020
YBBN,2013-05-06 06:00,153.1292,-27.3917,69.80,57.20,64.26,120.00,10.00,0.00,30.12,M,6.21,M,FEW,M,M,M,3100.00,M,M,M,M,YBBN 060600Z 12010KT 9999 FEW031 21/14 Q1020 NOSIG
YBBN,2013-05-06 06:30,153.1292,-27.3917,69.80,57.20,64.26,120.00,11.00,0.00,30.12,M,6.21,M,FEW,M,M,M,2900.00,M,M,M,M,YBBN 060630Z 12011KT 9999 FEW029 21/14 Q1020
YBBN,2013-05-06 07:00,153.1292,-27.3917,69.80,57.20,64.26,130.00,8.00,0.00,30.15,M,6.21,M,FEW,M,M,M,2900.00,M,M,M,M,YBBN 060700Z 13008KT 9999 FEW029 21/14 Q1021 NOSIG
YBBN,2013-05-06 07:30,153.1292,-27.3917,68.00,57.20,68.35,140.00,9.00,0.00,30.15,M,6.21,M,FEW,M,M,M,2900.00,M,M,M,M,YBBN 060730Z 14009KT 9999 FEW029 20/14 Q1021
YBBN,2013-05-06 08:00,153.1292,-27.3917,68.00,57.20,68.35,150.00,7.00,0.00,30.15,M,6.21,M,FEW,M,M,M,2900.00,M,M,M,M,YBBN 060800Z 15007KT 9999 FEW029 20/14 Q1021
YBBN,2013-05-06 08:30,153.1292,-27.3917,68.00,59.00,72.92,140.00,7.00,0.00,30.18,M,6.21,M,FEW,M,M,M,2800.00,M,M,M,M,YBBN 060830Z 14007KT 9999 FEW028 20/15 Q1022
YBBN,2013-05-06 09:00,153.1292,-27.3917,66.20,57.20,72.74,150.00,7.00,0.00,30.18,M,6.21,M,FEW,M,M,M,2500.00,M,M,M,M,YBBN 060900Z 15007KT 9999 FEW025 19/14 Q1022 NOSIG
YBBN,2013-05-06 09:30,153.1292,-27.3917,66.20,57.20,72.74,150.00,7.00,0.00,30.18,M,6.21,M,M,M,M,M,M,M,M,M,M,YBBN 060930Z 15007KT CAVOK 19/14 Q1022
YBBN,2013-05-06 10:00,153.1292,-27.3917,68.00,59.00,72.92,130.00,8.00,0.00,30.18,M,6.21,M,FEW,SCT,M,M,2500.00,20000.00,M,M,M,YBBN 061000Z 13008KT 9999 FEW025 SCT200 20/15 Q1022 NOSIG
YBBN,2013-05-06 10:30,153.1292,-27.3917,64.40,59.00,82.62,130.00,6.00,0.00,30.18,M,6.21,M,FEW,SCT,M,M,2500.00,24000.00,M,M,M,YBBN 061030Z 13006KT 9999 FEW025 SCT240 18/15 Q1022
YBBN,2013-05-06 11:00,153.1292,-27.3917,64.40,59.00,82.62,190.00,7.00,0.00,30.21,M,6.21,M,FEW,SCT,M,M,2500.00,3000.00,M,M,M,YBBN 061100Z 19007KT 9999 FEW025 SCT030 18/15 Q1023
YBBN,2013-05-06 11:30,153.1292,-27.3917,64.40,59.00,82.62,150.00,6.00,0.00,30.18,M,6.21,M,FEW,SCT,M,M,2900.00,4000.00,M,M,-SHRA,YBBN 061130Z 15006KT 9999 -SHRA FEW029 SCT040 18/15 Q1022
YBBN,2013-05-06 12:00,153.1292,-27.3917,66.20,59.00,77.60,140.00,5.00,0.00,30.18,M,6.21,M,M,M,M,M,M,M,M,M,M,YBBN 061200Z 14005KT CAVOK 19/15 Q1022
YBBN,2013-05-06 12:36,153.1292,-27.3917,62.60,60.80,93.83,150.00,10.00,0.00,30.21,M,3.11,M,FEW,SCT,BKN,M,1900.00,2100.00,6500.00,M,SHRA,YBBN 061236Z 15010KT 5000 SHRA FEW019 SCT021 BKN065 17/16 Q1023
YBBN,2013-05-06 13:00,153.1292,-27.3917,62.60,60.80,93.83,150.00,7.00,0.00,30.21,M,5.59,M,FEW,SCT,BKN,M,1900.00,2200.00,2900.00,M,-SHRA,YBBN 061300Z 15007KT 9000 -SHRA FEW019 SCT022 BKN029 17/16 Q1023 RESHRA NOSIG
YBBN,2013-05-06 13:30,153.1292,-27.3917,62.60,60.80,93.83,180.00,5.00,0.00,30.18,M,6.21,M,FEW,SCT,BKN,M,2000.00,2500.00,3400.00,M,-SHRA,YBBN 061330Z 18005KT 9999 -SHRA FEW020 SCT025 BKN034 17/16 Q1022
YBBN,2013-05-06 14:00,153.1292,-27.3917,62.60,60.80,93.83,190.00,6.00,0.00,30.18,M,6.21,M,FEW,BKN,BKN,M,3300.00,5200.00,7000.00,M,VCSH,YBBN 061400Z 19006KT 9999 VCSH FEW033 BKN052 BKN070 17/16 Q1022
YBBN,2013-05-06 14:30,153.1292,-27.3917,62.60,60.80,93.83,210.00,5.00,0.00,30.18,M,6.21,M,FEW,BKN,BKN,M,3300.00,5200.00,7000.00,M,VCSH,YBBN 061430Z 21005KT 9999 VCSH FEW033 BKN052 BKN070 17/16 Q1022
YBBN,2013-05-06 15:00,153.1292,-27.3917,62.60,60.80,93.83,210.00,5.00,0.00,30.18,M,6.21,M,FEW,SCT,BKN,M,3000.00,4700.00,9000.00,M,M,YBBN 061500Z 21005KT 9999 FEW030 SCT047 BKN090 17/16 Q1022
YBBN,2013-05-06 15:30,153.1292,-27.3917,62.60,60.80,93.83,200.00,5.00,0.00,30.18,M,6.21,M,FEW,BKN,M,M,3300.00,9500.00,M,M,M,YBBN 061530Z 20005KT 9999 FEW033 BKN095 17/16 Q1022
YBBN,2013-05-06 16:00,153.1292,-27.3917,60.80,59.00,93.79,210.00,6.00,0.00,30.18,M,6.21,M,FEW,BKN,M,M,3300.00,9500.00,M,M,M,YBBN 061600Z 21006KT 9999 FEW033 BKN095 16/15 Q1022
YBBN,2013-05-06 16:30,153.1292,-27.3917,60.80,59.00,93.79,210.00,6.00,0.00,30.18,M,6.21,M,M,M,M,M,M,M,M,M,M,YBBN 061630Z 21006KT CAVOK 16/15 Q1022
YBBN,2013-05-06 17:00,153.1292,-27.3917,59.00,57.20,93.74,200.00,7.00,0.00,30.18,M,6.21,M,FEW,SCT,M,M,3000.00,4200.00,M,M,M,YBBN 061700Z 20007KT 9999 FEW030 SCT042 15/14 Q1022 INTER 1700/2000 3000 SHRA BKN012
YBBN,2013-05-06 17:30,153.1292,-27.3917,60.80,57.20,87.92,200.00,6.00,0.00,30.18,M,6.21,M,FEW,SCT,M,M,3200.00,3800.00,M,M,M,YBBN 061730Z 20006KT 9999 FEW032 SCT038 16/14 Q1022
YBBN,2013-05-06 18:00,153.1292,-27.3917,60.80,57.20,87.92,180.00,5.00,0.00,30.18,M,6.21,M,FEW,SCT,BKN,M,3000.00,3800.00,7400.00,M,VCSH,YBBN 061800Z 18005KT 9999 VCSH FEW030 SCT038 BKN074 16/14 Q1022
YBBN,2013-05-06 18:30,153.1292,-27.3917,59.00,55.40,87.83,210.00,7.00,0.00,30.18,M,6.21,M,FEW,M,M,M,3000.00,M,M,M,M,YBBN 061830Z 21007KT 9999 FEW030 15/13 Q1022
YBBN,2013-05-06 19:00,153.1292,-27.3917,57.20,55.40,93.69,210.00,7.00,0.00,30.18,M,6.21,M,M,M,M,M,M,M,M,M,M,YBBN 061900Z 21007KT CAVOK 14/13 Q1022
YBBN,2013-05-06 19:30,153.1292,-27.3917,57.20,55.40,93.69,200.00,8.00,0.00,30.21,M,6.21,M,FEW,M,M,M,2500.00,M,M,M,M,YBBN 061930Z 20008KT 9999 FEW025 14/13 Q1023
YBBN,2013-05-06 20:00,153.1292,-27.3917,59.00,55.40,87.83,200.00,8.00,0.00,30.21,M,6.21,M,FEW,M,M,M,2500.00,M,M,M,VCSH,YBBN 062000Z 20008KT 9999 VCSH FEW025 15/13 Q1023 INTER 2000/2300 3000 SHRA BKN012
YBBN,2013-05-06 20:30,153.1292,-27.3917,57.20,55.40,93.69,200.00,8.00,0.00,30.24,M,6.21,M,FEW,M,M,M,2500.00,M,M,M,VCSH,YBBN 062030Z 20008KT 9999 VCSH FEW025 14/13 Q1024
YBBN,2013-05-06 21:00,153.1292,-27.3917,60.80,57.20,87.92,200.00,5.00,0.00,30.24,M,6.21,M,BKN,M,M,M,2400.00,M,M,M,M,YBBN 062100Z 20005KT 9999 BKN024 16/14 Q1024 INTER 2100/2400 3000 SHRA BKN012
YBBN,2013-05-06 21:30,153.1292,-27.3917,60.80,55.40,82.37,200.00,7.00,0.00,30.24,M,6.21,M,FEW,M,M,M,2400.00,M,M,M,M,YBBN 062130Z 20007KT 9999 FEW024 16/13 Q1024
YBBN,2013-05-06 22:00,153.1292,-27.3917,60.80,55.40,82.37,200.00,6.00,0.00,30.27,M,6.21,M,FEW,SCT,M,M,3000.00,4400.00,M,M,M,YBBN 062200Z 20006KT 9999 FEW030 SCT044 16/13 Q1025
YBBN,2013-05-06 22:30,153.1292,-27.3917,64.40,57.20,77.45,210.00,5.00,0.00,30.27,M,6.21,M,FEW,SCT,M,M,3000.00,5000.00,M,M,M,YBBN 062230Z 21005KT 9999 FEW030 SCT050 18/14 Q1025
YBBN,2013-05-06 23:00,153.1292,-27.3917,66.20,57.20,72.74,210.00,9.00,0.00,30.27,M,6.21,M,FEW,SCT,M,M,3000.00,5600.00,M,M,M,YBBN 062300Z 21009KT 9999 FEW030 SCT056 19/14 Q1025 INTER 2300/2400 3000 SHRA BKN012
YBBN,2013-05-06 23:30,153.1292,-27.3917,68.00,59.00,72.92,190.00,9.00,0.00,30.27,M,6.21,M,FEW,M,M,M,3000.00,M,M,M,M,YBBN 062330Z 19009KT 9999 FEW030 20/15 Q1025
