#DEBUG: Format Typ    -> comma
#DEBUG: Time Period   -> 2015-11-09 00:00:00+00:00 2015-11-10 00:00:00+00:00
#DEBUG: Time Zone     -> Etc/UTC
#DEBUG: Data Contact   -> daryl herzmann akrherz@iastate.edu 515-294-5978
#DEBUG: Entries Found -> -1
station,valid,lon,lat,tmpf, dwpf, relh, drct, sknt, p01i, alti, mslp, vsby, gust, skyc1, skyc2, skyc3, skyc4, skyl1, skyl2, skyl3, skyl4, presentwx, metar
YBBN,2015-11-09 00:00,153.1292,-27.3917,69.80,64.40,82.98,150.00,7.00,0.00,30.00,M,6.21,M,FEW,SCT,BKN,M,1800.00,2200.00,3500.00,M,-SHRA,YBBN 090000Z 15007KT 9999 -SHRA FEW018 SCT022 BKN035 21/18 Q1016 RESHRA
YBBN,2015-11-09 00:30,153.1292,-27.3917,71.60,62.60,73.27,140.00,10.00,0.00,30.00,M,6.21,M,SCT,BKN,M,M,2400.00,5500.00,M,M,VCSH,YBBN 090030Z 14010KT 9999 VCSH SCT024 BKN055 22/17 Q1016 RESHRA
YBBN,2015-11-09 01:00,153.1292,-27.3917,73.40,59.00,60.67,140.00,12.00,0.00,30.00,M,6.21,M,SCT,BKN,M,M,3200.00,6500.00,M,M,M,YBBN 090100Z 14012KT 9999 SCT032 BKN065 23/15 Q1016
YBBN,2015-11-09 01:30,153.1292,-27.3917,75.20,59.00,57.12,130.00,11.00,0.00,30.00,M,6.21,M,SCT,SCT,BKN,M,3200.00,6000.00,12000.00,M,VCSH,YBBN 090130Z 13011KT 9999 VCSH SCT032 SCT060 BKN120 24/15 Q1016
YBBN,2015-11-09 02:00,153.1292,-27.3917,73.40,57.20,56.88,130.00,12.00,0.00,29.97,M,6.21,M,SCT,SCT,BKN,M,3800.00,5800.00,12000.00,M,VCSH,YBBN 090200Z 13012KT 9999 VCSH SCT038 SCT058 BKN120 23/14 Q1015
YBBN,2015-11-09 02:30,153.1292,-27.3917,73.40,59.00,60.67,130.00,12.00,0.00,29.97,M,6.21,M,FEW,BKN,M,M,3400.00,12000.00,M,M,M,YBBN 090230Z 13012KT 9999 FEW034 BKN120 23/15 Q1015
YBBN,2015-11-09 03:00,153.1292,-27.3917,73.40,59.00,60.67,110.00,13.00,0.00,29.97,M,6.21,M,FEW,BKN,M,M,3400.00,12500.00,M,M,M,YBBN 090300Z 11013KT 9999 FEW034 BKN125 23/15 Q1015
YBBN,2015-11-09 03:30,153.1292,-27.3917,73.40,59.00,60.67,120.00,13.00,0.00,29.97,M,6.21,M,FEW,BKN,M,M,3200.00,13500.00,M,M,M,YBBN 090330Z 12013KT 9999 FEW032 BKN135 23/15 Q1015
YBBN,2015-11-09 04:00,153.1292,-27.3917,73.40,59.00,60.67,130.00,11.00,0.00,29.94,M,6.21,M,FEW,BKN,M,M,3300.00,11000.00,M,M,VCSH,YBBN 090400Z 13011KT 9999 VCSH FEW033 BKN110 23/15 Q1014 NOSIG
YBBN,2015-11-09 04:30,153.1292,-27.3917,73.40,60.80,64.69,120.00,11.00,0.00,29.94,M,6.21,M,FEW,BKN,M,M,3500.00,11500.00,M,M,VCSH,YBBN 090430Z 12011KT 9999 VCSH FEW035 BKN115 23/16 Q1014
YBBN,2015-11-09 05:00,153.1292,-27.3917,73.40,59.00,60.67,130.00,10.00,0.00,29.94,M,6.21,M,FEW,SCT,BKN,M,3300.00,4000.00,13500.00,M,VCSH,YBBN 090500Z 13010KT 9999 VCSH FEW033 SCT040 BKN135 23/15 Q1014
YBBN,2015-11-09 05:30,153.1292,-27.3917,73.40,59.00,60.67,120.00,10.00,0.00,29.94,M,6.21,M,FEW,BKN,M,M,3000.00,13000.00,M,M,M,YBBN 090530Z 12010KT 9999 FEW030 BKN130 23/15 Q1014
YBBN,2015-11-09 06:00,153.1292,-27.3917,73.40,59.00,60.67,120.00,11.00,0.00,29.94,M,6.21,M,FEW,SCT,BKN,M,3300.00,12000.00,16000.00,M,M,YBBN 090600Z 12011KT 9999 FEW033 SCT120 BKN160 23/15 Q1014 NOSIG
YBBN,2015-11-09 06:30,153.1292,-27.3917,71.60,59.00,64.48,120.00,11.00,0.00,29.94,M,6.21,M,FEW,BKN,M,M,3200.00,17000.00,M,M,M,YBBN 090630Z 12011KT 9999 FEW032 BKN170 22/15 Q1014
YBBN,2015-11-09 07:00,153.1292,-27.3917,71.60,59.00,64.48,130.00,9.00,0.00,29.94,M,6.21,M,FEW,SCT,BKN,M,3100.00,17000.00,24000.00,M,M,YBBN 090700Z 13009KT 9999 FEW031 SCT170 BKN240 22/15 Q1014 NOSIG
YBBN,2015-11-09 07:30,153.1292,-27.3917,71.60,59.00,64.48,130.00,9.00,0.00,29.97,M,6.21,M,FEW,SCT,BKN,M,2800.00,3500.00,24000.00,M,M,YBBN 090730Z 13009KT 9999 FEW028 SCT035 BKN240 22/15 Q1015
YBBN,2015-11-09 08:00,153.1292,-27.3917,71.60,59.00,64.48,130.00,9.00,0.00,29.97,M,6.21,M,FEW,SCT,BKN,M,2700.00,3200.00,24000.00,M,M,YBBN 090800Z 13009KT 9999 FEW027 SCT032 BKN240 22/15 Q1015 NOSIG
YBBN,2015-11-09 08:30,153.1292,-27.3917,69.80,60.80,73.09,150.00,9.00,0.00,30.00,M,6.21,M,FEW,BKN,BKN,M,2500.00,4000.00,24000.00,M,M,YBBN 090830Z 15009KT 9999 FEW025 BKN040 BKN240 21/16 Q1016
YBBN,2015-11-09 09:00,153.1292,-27.3917,69.80,60.80,73.09,170.00,7.00,0.00,30.00,M,6.21,M,FEW,BKN,M,M,2500.00,4200.00,M,M,M,YBBN 090900Z 17007KT 9999 FEW025 BKN042 21/16 Q1016 NOSIG
YBBN,2015-11-09 09:30,153.1292,-27.3917,69.80,59.00,68.55,150.00,6.00,0.00,30.00,M,6.21,M,FEW,BKN,M,M,2700.00,4500.00,M,M,M,YBBN 090930Z 15006KT 9999 FEW027 BKN045 21/15 Q1016
YBBN,2015-11-09 10:00,153.1292,-27.3917,68.00,60.80,77.75,160.00,6.00,0.00,30.00,M,6.21,M,FEW,SCT,M,M,2500.00,5000.00,M,M,M,YBBN 091000Z 16006KT 9999 FEW025 SCT050 20/16 Q1016
YBBN,2015-11-09 10:30,153.1292,-27.3917,68.00,60.80,77.75,160.00,4.00,0.00,30.00,M,6.21,M,FEW,BKN,M,M,2300.00,5200.00,M,M,M,YBBN 091030Z 16004KT 9999 FEW023 BKN052 20/16 Q1016
YBBN,2015-11-09 11:00,153.1292,-27.3917,68.00,60.80,77.75,170.00,5.00,0.00,30.00,M,6.21,M,FEW,SCT,M,M,2300.00,5200.00,M,M,M,YBBN 091100Z 17005KT 9999 FEW023 SCT052 20/16 Q1016
YBBN,2015-11-09 11:30,153.1292,-27.3917,68.00,60.80,77.75,160.00,5.00,0.00,30.00,M,6.21,M,M,M,M,M,M,M,M,M,M,YBBN 091130Z 16005KT CAVOK 20/16 Q1016
YBBN,2015-11-09 12:00,153.1292,-27.3917,66.20,60.80,82.74,170.00,5.00,0.00,30.00,M,6.21,M,BKN,M,M,M,4800.00,M,M,M,M,YBBN 091200Z 17005KT 9999 BKN048 19/16 Q1016
YBBN,2015-11-09 12:30,153.1292,-27.3917,66.20,60.80,82.74,190.00,4.00,0.00,30.00,M,6.21,M,BKN,M,M,M,4700.00,M,M,M,M,YBBN 091230Z 19004KT 9999 BKN047 19/16 Q1016
YBBN,2015-11-09 13:00,153.1292,-27.3917,66.20,60.80,82.74,200.00,5.00,0.00,30.00,M,6.21,M,BKN,M,M,M,4700.00,M,M,M,M,YBBN 091300Z 20005KT 9999 BKN047 19/16 Q1016 NOSIG
YBBN,2015-11-09 13:30,153.1292,-27.3917,66.20,60.80,82.74,190.00,5.00,0.00,29.97,M,6.21,M,BKN,M,M,M,4700.00,M,M,M,M,YBBN 091330Z 19005KT 9999 BKN047 19/16 Q1015
YBBN,2015-11-09 14:00,153.1292,-27.3917,64.40,60.80,88.09,170.00,6.00,0.00,29.97,M,6.21,M,FEW,M,M,M,4800.00,M,M,M,M,YBBN 091400Z 17006KT 9999 FEW048 18/16 Q1015
YBBN,2015-11-09 14:30,153.1292,-27.3917,64.40,59.00,82.62,190.00,4.00,0.00,29.97,M,6.21,M,FEW,SCT,M,M,2100.00,4800.00,M,M,M,YBBN 091430Z 19004KT 9999 FEW021 SCT048 18/15 Q1015
YBBN,2015-11-09 15:00,153.1292,-27.3917,64.40,59.00,82.62,200.00,5.00,0.00,29.97,M,6.21,M,FEW,M,M,M,4200.00,M,M,M,M,YBBN 091500Z 20005KT 9999 FEW042 18/15 Q1015
YBBN,2015-11-09 15:30,153.1292,-27.3917,64.40,59.00,82.62,200.00,8.00,0.00,29.97,M,6.21,M,FEW,M,M,M,3700.00,M,M,M,M,YBBN 091530Z 20008KT 9999 FEW037 18/15 Q1015
YBBN,2015-11-09 16:00,153.1292,-27.3917,64.40,59.00,82.62,200.00,8.00,0.00,29.94,M,6.21,M,FEW,M,M,M,4000.00,M,M,M,M,YBBN 091600Z 20008KT 9999 FEW040 18/15 Q1014
YBBN,2015-11-09 16:30,153.1292,-27.3917,62.60,59.00,88.00,210.00,7.00,0.00,29.94,M,6.21,M,M,M,M,M,M,M,M,M,M,YBBN 091630Z 21007KT CAVOK 17/15 Q1014
YBBN,2015-11-09 17:00,153.1292,-27.3917,64.40,59.00,82.62,200.00,6.00,0.00,29.94,M,6.21,M,M,M,M,M,M,M,M,M,M,YBBN 091700Z 20006KT CAVOK 18/15 Q1014
YBBN,2015-11-09 17:30,153.1292,-27.3917,62.60,59.00,88.00,210.00,8.00,0.00,29.94,M,6.21,M,M,M,M,M,M,M,M,M,M,YBBN 091730Z 21008KT CAVOK 17/15 Q1014
YBBN,2015-11-09 18:00,153.1292,-27.3917,60.80,59.00,93.79,210.00,7.00,0.00,29.94,M,6.21,M,FEW,SCT,M,M,2000.00,3500.00,M,M,M,YBBN 091800Z 21007KT 9999 FEW020 SCT035 16/15 Q1014
YBBN,2015-11-09 18:30,153.1292,-27.3917,62.60,59.00,88.00,200.00,6.00,0.00,29.97,M,6.21,M,FEW,SCT,M,M,2000.00,3800.00,M,M,M,YBBN 091830Z 20006KT 9999 FEW020 SCT038 17/15 Q1015
YBBN,2015-11-09 19:00,153.1292,-27.3917,62.60,59.00,88.00,200.00,5.00,0.00,29.97,M,6.21,M,FEW,M,M,M,2200.00,M,M,M,M,YBBN 091900Z 20005KT 9999 FEW022 17/15 Q1015
YBBN,2015-11-09 19:30,153.1292,-27.3917,62.60,59.00,88.00,210.00,7.00,0.00,29.97,M,6.21,M,SCT,M,M,M,2300.00,M,M,M,M,YBBN 091930Z 21007KT 9999 SCT023 17/15 Q1015
YBBN,2015-11-09 20:00,153.1292,-27.3917,64.40,59.00,82.62,210.00,7.00,0.00,29.97,M,6.21,M,FEW,M,M,M,2500.00,M,M,M,M,YBBN 092000Z 21007KT 9999 FEW025 18/15 Q1015
YBBN,2015-11-09 20:30,153.1292,-27.3917,66.20,59.00,77.60,190.00,6.00,0.00,29.97,M,6.21,M,FEW,M,M,M,2500.00,M,M,M,M,YBBN 092030Z 19006KT 9999 FEW025 19/15 Q1015
YBBN,2015-11-09 21:00,153.1292,-27.3917,69.80,60.80,73.09,190.00,7.00,0.00,30.00,M,6.21,M,FEW,M,M,M,2500.00,M,M,M,M,YBBN 092100Z 19007KT 9999 FEW025 21/16 Q1016 NOSIG
YBBN,2015-11-09 21:30,153.1292,-27.3917,69.80,59.00,68.55,170.00,6.00,0.00,30.00,M,6.21,M,FEW,M,M,M,2800.00,M,M,M,M,YBBN 092130Z 17006KT 9999 FEW028 21/15 Q1016
YBBN,2015-11-09 22:00,153.1292,-27.3917,71.60,59.00,64.48,150.00,6.00,0.00,30.00,M,6.21,M,FEW,BKN,M,M,2800.00,4200.00,M,M,M,YBBN 092200Z 15006KT 9999 FEW028 BKN042 22/15 Q1016 NOSIG
YBBN,2015-11-09 22:30,153.1292,-27.3917,71.60,59.00,64.48,140.00,6.00,0.00,30.00,M,6.21,M,SCT,M,M,M,3000.00,M,M,M,M,YBBN 092230Z 14006KT 100V160 9999 SCT030 22/15 Q1016
YBBN,2015-11-09 23:00,153.1292,-27.3917,73.40,59.00,60.67,110.00,7.00,0.00,30.00,M,6.21,M,SCT,M,M,M,3500.00,M,M,M,M,YBBN 092300Z 11007KT 080V140 9999 SCT035 23/15 Q1016
YBBN,2015-11-09 23:30,153.1292,-27.3917,75.20,59.00,57.12,80.00,7.00,0.00,30.00,M,6.21,M,SCT,M,M,M,3500.00,M,M,M,M,YBBN 092330Z 08007KT 050V130 9999 SCT035 24/15 Q1016
