#DEBUG: Format Typ    -> comma
#DEBUG: Time Period   -> 2013-03-10 00:00:00+00:00 2013-03-11 00:00:00+00:00
#DEBUG: Time Zone     -> Etc/UTC
#DEBUG: Data Contact   -> daryl herzmann akrherz@iastate.edu 515-294-5978
#DEBUG: Entries Found -> -1
station,valid,lon,lat,tmpf, dwpf, relh, drct, sknt, p01i, alti, mslp, vsby, gust, skyc1, skyc2, skyc3, skyc4, skyl1, skyl2, skyl3, skyl4, presentwx, metar
YBBN,2013-03-10 00:00,153.1292,-27.3917,77.00,66.20,69.33,120.00,9.00,0.00,30.03,M,6.21,M,FEW,SCT,M,M,3200.00,7000.00,M,M,M,YBBN 100000Z 12009KT 9999 FEW032 SCT070 25/19 Q1017
YBBN,2013-03-10 00:30,153.1292,-27.3917,77.00,68.00,73.78,130.00,9.00,0.00,30.03,M,6.21,M,SCT,BKN,M,M,2600.00,7000.00,M,M,VCSH,YBBN 100030Z 13009KT 9999 VCSH SCT026 BKN070 25/20 Q1017
YBBN,2013-03-10 01:00,153.1292,-27.3917,78.80,66.20,65.33,150.00,8.00,0.00,30.00,M,6.21,M,FEW,BKN,M,M,2000.00,7000.00,M,M,M,YBBN 100100Z 15008KT 9999 FEW020 BKN070 26/19 Q1016 INTER 0100/0400 3000 SHRA BKN015
YBBN,2013-03-10 01:30,153.1292,-27.3917,78.80,66.20,65.33,130.00,8.00,0.00,30.00,M,6.21,M,FEW,SCT,M,M,2200.00,7500.00,M,M,M,YBBN 100130Z 13008KT 9999 FEW022 SCT075 26/19 Q1016
YBBN,2013-03-10 02:00,153.1292,-27.3917,78.80,62.60,57.60,110.00,11.00,0.00,30.00,M,6.21,M,FEW,BKN,M,M,2000.00,7500.00,M,M,M,YBBN 100200Z 11011KT 9999 FEW020 BKN075 26/17 Q1016 INTER 0200/0500 3000 SHRA BKN015
YBBN,2013-03-10 02:30,153.1292,-27.3917,80.60,64.40,57.84,140.00,11.00,0.00,30.00,M,6.21,M,FEW,SCT,M,M,3200.00,30000.00,M,M,M,YBBN 100230Z 14011KT 9999 FEW032 SCT300 27/18 Q1016
YBBN,2013-03-10 03:00,153.1292,-27.3917,80.60,64.40,57.84,140.00,11.00,0.00,29.97,M,6.21,M,FEW,SCT,M,M,3200.00,7500.00,M,M,M,YBBN 100300Z 14011KT 9999 FEW032 SCT075 27/18 Q1015
YBBN,2013-03-10 03:30,153.1292,-27.3917,80.60,64.40,57.84,110.00,12.00,0.00,29.97,M,6.21,M,SCT,BKN,M,M,3000.00,7500.00,M,M,M,YBBN 100330Z 11012KT 9999 SCT030 BKN075 27/18 Q1015
YBBN,2013-03-10 04:00,153.1292,-27.3917,78.80,64.40,61.36,110.00,11.00,0.00,29.97,M,6.21,M,SCT,BKN,M,M,3500.00,8000.00,M,M,M,YBBN 100400Z 11011KT 9999 SCT035 BKN080 26/18 Q1015
YBBN,2013-03-10 04:30,153.1292,-27.3917,78.80,64.40,61.36,120.00,12.00,0.00,29.97,M,6.21,M,FEW,BKN,M,M,3200.00,8000.00,M,M,M,YBBN 100430Z 12012KT 9999 FEW032 BKN080 26/18 Q1015
YBBN,2013-03-10 05:00,153.1292,-27.3917,78.80,64.40,61.36,110.00,13.00,0.00,29.94,M,6.21,M,FEW,SCT,M,M,3200.00,8000.00,M,M,M,YBBN 100500Z 11013KT 9999 FEW032 SCT080 26/18 Q1014 INTER 0500/0600 3000 SHRA BKN015
YBBN,2013-03-10 05:30,153.1292,-27.3917,78.80,64.40,61.36,120.00,11.00,0.00,29.94,M,6.21,M,FEW,SCT,M,M,3200.00,8000.00,M,M,M,YBBN 100530Z 12011KT 9999 FEW032 SCT080 26/18 Q1014
YBBN,2013-03-10 06:00,153.1292,-27.3917,77.00,64.40,65.12,120.00,11.00,0.00,29.94,M,6.21,M,FEW,SCT,M,M,3000.00,30000.00,M,M,M,YBBN 100600Z 12011KT 9999 FEW030 SCT300 25/18 Q1014
YBBN,2013-03-10 06:30,153.1292,-27.3917,77.00,64.40,65.12,130.00,10.00,0.00,29.97,M,6.21,M,SCT,M,M,M,3000.00,M,M,M,M,YBBN 100630Z 13010KT 9999 SCT030 25/18 Q1015
YBBN,2013-03-10 07:00,153.1292,-27.3917,77.00,64.40,65.12,120.00,10.00,0.00,29.97,M,6.21,M,SCT,BKN,M,M,3000.00,8000.00,M,M,M,YBBN 100700Z 12010KT 9999 SCT030 BKN080 25/18 Q1015
YBBN,2013-03-10 07:30,153.1292,-27.3917,75.20,64.40,69.14,120.00,11.00,0.00,29.97,M,6.21,M,SCT,BKN,M,M,3000.00,8000.00,M,M,VCSH,YBBN 100730Z 12011KT 9999 VCSH SCT030 BKN080 24/18 Q1015
YBBN,2013-03-10 08:00,153.1292,-27.3917,75.20,62.60,64.91,120.00,8.00,0.00,29.97,M,6.21,M,FEW,SCT,BKN,M,1800.00,2500.00,8000.00,M,-SHRA,YBBN 100800Z 12008KT 9999 -SHRA FEW018 SCT025 BKN080 24/17 Q1015 NOSIG
YBBN,2013-03-10 08:15,153.1292,-27.3917,75.20,64.40,69.14,120.00,7.00,0.00,29.97,M,3.73,M,FEW,SCT,BKN,M,1800.00,2500.00,8000.00,M,-SHRA,YBBN 100815Z 12007KT 6000 -SHRA FEW018 SCT025 BKN080 24/18 Q1015
YBBN,2013-03-10 08:30,153.1292,-27.3917,75.20,66.20,73.61,100.00,7.00,0.00,29.97,M,6.21,M,FEW,SCT,BKN,M,2500.00,4500.00,8000.00,M,VCSH,YBBN 100830Z 10007KT 9999 VCSH FEW025 SCT045 BKN080 24/19 Q1015
YBBN,2013-03-10 09:00,153.1292,-27.3917,75.20,66.20,73.61,120.00,6.00,0.00,30.00,M,6.21,M,FEW,BKN,M,M,2500.00,4500.00,M,M,M,YBBN 100900Z 12006KT 9999 FEW025 BKN045 24/19 Q1016
YBBN,2013-03-10 09:30,153.1292,-27.3917,75.20,66.20,73.61,110.00,8.00,0.00,30.00,M,6.21,M,FEW,BKN,M,M,2500.00,8000.00,M,M,M,YBBN 100930Z 11008KT 9999 FEW025 BKN080 24/19 Q1016
YBBN,2013-03-10 10:00,153.1292,-27.3917,75.20,68.00,78.34,110.00,7.00,0.00,30.00,M,6.21,M,FEW,BKN,M,M,2500.00,8000.00,M,M,VCSH,YBBN 101000Z 11007KT 9999 VCSH FEW025 BKN080 24/20 Q1016
YBBN,2013-03-10 10:30,153.1292,-27.3917,73.40,66.20,78.19,90.00,8.00,0.00,30.00,M,6.21,M,FEW,BKN,M,M,2500.00,8000.00,M,M,VCSH,YBBN 101030Z 09008KT 9999 VCSH FEW025 BKN080 23/19 Q1016 RMK VCSH TO N
YBBN,2013-03-10 11:00,153.1292,-27.3917,75.20,66.20,73.61,110.00,8.00,0.00,30.00,M,6.21,M,FEW,BKN,M,M,2500.00,8000.00,M,M,VCSH,YBBN 101100Z 11008KT 9999 VCSH FEW025 BKN080 24/19 Q1016 RMK VCSH TO SE
YBBN,2013-03-10 11:30,153.1292,-27.3917,75.20,64.40,69.14,130.00,8.00,0.00,30.00,M,6.21,M,FEW,SCT,BKN,M,2500.00,5000.00,7500.00,M,VCSH,YBBN 101130Z 13008KT 9999 VCSH FEW025 SCT050 BKN075 24/18 Q1016
YBBN,2013-03-10 12:00,153.1292,-27.3917,75.20,64.40,69.14,110.00,10.00,0.00,30.00,M,6.21,M,SCT,SCT,M,M,2500.00,5000.00,M,M,-SHRA,YBBN 101200Z 11010KT 9999 -SHRA SCT025 SCT050 24/18 Q1016
YBBN,2013-03-10 12:30,153.1292,-27.3917,75.20,64.40,69.14,110.00,8.00,0.00,30.00,M,6.21,M,FEW,SCT,M,M,2500.00,4500.00,M,M,VCSH,YBBN 101230Z 11008KT 9999 VCSH FEW025 SCT045 24/18 Q1016
YBBN,2013-03-10 13:00,153.1292,-27.3917,75.20,64.40,69.14,110.00,7.00,0.00,30.00,M,6.21,M,SCT,BKN,M,M,2500.00,4500.00,M,M,VCSH,YBBN 101300Z 11007KT 9999 VCSH SCT025 BKN045 24/18 Q1016 INTER 1400/1600 3000 SHRA BKN015
YBBN,2013-03-10 13:30,153.1292,-27.3917,73.40,64.40,73.44,110.00,7.00,0.00,30.00,M,6.21,M,FEW,SCT,M,M,2500.00,4500.00,M,M,VCSH,YBBN 101330Z 11007KT 9999 VCSH FEW025 SCT045 23/18 Q1016 RMK VCSH TO S
YBBN,2013-03-10 14:00,153.1292,-27.3917,73.40,64.40,73.44,110.00,7.00,0.00,30.00,M,6.21,M,FEW,SCT,M,M,2700.00,7500.00,M,M,M,YBBN 101400Z 11007KT 9999 FEW027 SCT075 23/18 Q1016
YBBN,2013-03-10 14:30,153.1292,-27.3917,73.40,64.40,73.44,110.00,6.00,0.00,29.97,M,6.21,M,FEW,SCT,M,M,2700.00,4500.00,M,M,M,YBBN 101430Z 11006KT 9999 FEW027 SCT045 23/18 Q1015
YBBN,2013-03-10 15:00,153.1292,-27.3917,73.40,64.40,73.44,110.00,6.00,0.00,29.97,M,6.21,M,FEW,M,M,M,2700.00,M,M,M,M,YBBN 101500Z 11006KT 9999 FEW027 23/18 Q1015
YBBN,2013-03-10 15:30,153.1292,-27.3917,69.80,66.20,88.34,130.00,5.00,0.00,29.97,M,6.21,M,FEW,SCT,M,M,2700.00,7500.00,M,M,M,YBBN 101530Z 13005KT 9999 FEW027 SCT075 21/19 Q1015
YBBN,2013-03-10 16:00,153.1292,-27.3917,69.80,66.20,88.34,190.00,4.00,0.00,29.97,M,4.35,M,FEW,SCT,BKN,M,1800.00,2500.00,4000.00,M,-SHRA,YBBN 101600Z 19004KT 7000 -SHRA FEW018 SCT025 BKN040 21/19 Q1015
YBBN,2013-03-10 16:30,153.1292,-27.3917,69.80,66.20,88.34,140.00,5.00,0.00,29.94,M,6.21,M,FEW,SCT,BKN,M,2500.00,4500.00,8000.00,M,VCSH,YBBN 101630Z 14005KT 9999 VCSH FEW025 SCT045 BKN080 21/19 Q1014
YBBN,2013-03-10 17:00,153.1292,-27.3917,69.80,66.20,88.34,190.00,6.00,0.00,29.94,M,6.21,M,FEW,SCT,BKN,M,2700.00,5000.00,8000.00,M,M,YBBN 101700Z 19006KT 9999 FEW027 SCT050 BKN080 21/19 Q1014
YBBN,2013-03-10 17:30,153.1292,-27.3917,69.80,66.20,88.34,180.00,4.00,0.00,29.94,M,6.21,M,FEW,SCT,M,M,2500.00,8000.00,M,M,M,YBBN 101730Z 18004KT 9999 FEW025 SCT080 21/19 Q1014
YBBN,2013-03-10 18:00,153.1292,-27.3917,69.80,66.20,88.34,200.00,5.00,0.00,29.94,M,6.21,M,FEW,BKN,M,M,2500.00,8000.00,M,M,M,YBBN 101800Z 20005KT 9999 FEW025 BKN080 21/19 Q1014 INTER 1800/2100 4000 SHRA BKN015
YBBN,2013-03-10 18:30,153.1292,-27.3917,68.00,66.20,93.97,200.00,5.00,0.00,29.94,M,6.21,M,FEW,M,M,M,2500.00,M,M,M,M,YBBN 101830Z 20005KT 9999 FEW025 20/19 Q1014
YBBN,2013-03-10 19:00,153.1292,-27.3917,68.00,66.20,93.97,200.00,5.00,0.00,29.97,M,6.21,M,FEW,SCT,M,M,2500.00,8000.00,M,M,M,YBBN 101900Z 20005KT 9999 FEW025 SCT080 20/19 Q1015
YBBN,2013-03-10 19:30,153.1292,-27.3917,69.80,66.20,88.34,180.00,5.00,0.00,29.97,M,6.21,M,FEW,SCT,BKN,M,2200.00,5000.00,8000.00,M,M,YBBN 101930Z 18005KT 9999 FEW022 SCT050 BKN080 21/19 Q1015
YBBN,2013-03-10 20:00,153.1292,-27.3917,68.00,66.20,93.97,200.00,5.00,0.00,29.97,M,6.21,M,FEW,BKN,M,M,1800.00,27000.00,M,M,M,YBBN 102000Z 20005KT 9999 FEW018 BKN270 20/19 Q1015
YBBN,2013-03-10 20:30,153.1292,-27.3917,68.00,66.20,93.97,200.00,5.00,0.00,29.97,M,6.21,M,FEW,SCT,BKN,M,2500.00,5500.00,27000.00,M,M,YBBN 102030Z 20005KT 9999 FEW025 SCT055 BKN270 20/19 Q1015
YBBN,2013-03-10 21:00,153.1292,-27.3917,69.80,66.20,88.34,200.00,6.00,0.00,30.00,M,6.21,M,FEW,BKN,M,M,2500.00,27000.00,M,M,M,YBBN 102100Z 20006KT 9999 FEW025 BKN270 21/19 Q1016 INTER 2100/2400 4000 SHRA BKN015
YBBN,2013-03-10 21:30,153.1292,-27.3917,73.40,66.20,78.19,190.00,7.00,0.00,30.00,M,6.21,M,FEW,BKN,M,M,2500.00,27000.00,M,M,M,YBBN 102130Z 19007KT 9999 FEW025 BKN270 23/19 Q1016 RMK HAZE
YBBN,2013-03-10 22:00,153.1292,-27.3917,75.20,68.00,78.34,170.00,6.00,0.00,30.00,M,6.21,M,FEW,SCT,M,M,2500.00,27000.00,M,M,M,YBBN 102200Z 17006KT 9999 FEW025 SCT270 24/20 Q1016
YBBN,2013-03-10 22:30,153.1292,-27.3917,75.20,66.20,73.61,150.00,7.00,0.00,30.00,M,6.21,M,FEW,BKN,M,M,2500.00,27000.00,M,M,M,YBBN 102230Z 15007KT 9999 FEW025 BKN270 24/19 Q1016 RMK HZ
YBBN,2013-03-10 23:00,153.1292,-27.3917,77.00,64.40,65.12,140.00,11.00,0.00,30.00,M,6.21,M,SCT,BKN,M,M,2500.00,27000.00,M,M,M,YBBN 102300Z 14011KT 9999 SCT025 BKN270 25/18 Q1016 RMK HZ
