#DEBUG: Format Typ    -> comma
#DEBUG: Time Period   -> 2015-01-26 00:00:00+00:00 2015-01-27 00:00:00+00:00
#DEBUG: Time Zone     -> Etc/UTC
#DEBUG: Data Contact   -> daryl herzmann akrherz@iastate.edu 515-294-5978
#DEBUG: Entries Found -> -1
station,valid,lon,lat,tmpf, dwpf, relh, drct, sknt, p01i, alti, mslp, vsby, gust, skyc1, skyc2, skyc3, skyc4, skyl1, skyl2, skyl3, skyl4, presentwx, metar
YBBN,2015-01-26 00:00,153.1292,-27.3917,86.00,77.00,74.61,60.00,8.00,0.00,29.71,M,6.21,M,FEW,M,M,M,1700.00,M,M,M,M,YBBN 260000Z 06008KT 9999 FEW017 30/25 Q1006 NOSIG
YBBN,2015-01-26 00:30,153.1292,-27.3917,86.00,77.00,74.61,70.00,8.00,0.00,29.74,M,6.21,M,FEW,M,M,M,1700.00,M,M,M,M,YBBN 260030Z 07008KT 9999 FEW017 30/25 Q1007
YBBN,2015-01-26 01:00,153.1292,-27.3917,86.00,77.00,74.61,90.00,9.00,0.00,29.71,M,6.21,M,FEW,M,M,M,1500.00,M,M,M,M,YBBN 260100Z 09009KT 9999 FEW015 30/25 Q1006 NOSIG
YBBN,2015-01-26 01:30,153.1292,-27.3917,86.00,75.20,70.27,110.00,10.00,0.00,29.71,M,6.21,M,FEW,M,M,M,1700.00,M,M,M,M,YBBN 260130Z 11010KT 9999 FEW017 30/24 Q1006 RMK DISTANT CB 40KM TO W
YBBN,2015-01-26 02:00,153.1292,-27.3917,84.20,75.20,74.44,110.00,9.00,0.00,29.71,M,6.21,M,FEW,SCT,M,M,1500.00,25000.00,M,M,M,YBBN 260200Z 11009KT 9999 FEW015 SCT250 29/24 Q1006 NOSIG
YBBN,2015-01-26 02:30,153.1292,-27.3917,86.00,75.20,70.27,110.00,9.00,0.00,29.68,M,6.21,M,FEW,SCT,M,M,1700.00,25000.00,M,M,M,YBBN 260230Z 11009KT 9999 FEW017 SCT250 30/24 Q1005
YBBN,2015-01-26 03:00,153.1292,-27.3917,86.00,77.00,74.61,110.00,9.00,0.00,29.68,M,6.21,M,FEW,SCT,M,M,1700.00,18000.00,M,M,M,YBBN 260300Z 11009KT 9999 FEW017 SCT180 30/25 Q1005
YBBN,2015-01-26 03:30,153.1292,-27.3917,86.00,77.00,74.61,100.00,10.00,0.00,29.68,M,6.21,M,FEW,SCT,M,M,1700.00,15000.00,M,M,M,YBBN 260330Z 10010KT 9999 FEW017 SCT150 30/25 Q1005
YBBN,2015-01-26 04:00,153.1292,-27.3917,84.20,77.00,79.04,100.00,9.00,0.00,29.68,M,6.21,M,FEW,M,M,M,1700.00,M,M,M,M,YBBN 260400Z 10009KT 9999 FEW017 29/25 Q1005 NOSIG
YBBN,2015-01-26 04:30,153.1292,-27.3917,84.20,75.20,74.44,120.00,9.00,0.00,29.68,M,6.21,M,FEW,BKN,M,M,1700.00,20000.00,M,M,M,YBBN 260430Z 12009KT 9999 FEW017 BKN200 29/24 Q1005
YBBN,2015-01-26 05:00,153.1292,-27.3917,86.00,77.00,74.61,120.00,9.00,0.00,29.68,M,6.21,M,FEW,BKN,M,M,1700.00,20000.00,M,M,M,YBBN 260500Z 12009KT 9999 FEW017 BKN200 30/25 Q1005 NOSIG
YBBN,2015-01-26 05:30,153.1292,-27.3917,86.00,73.40,66.15,100.00,10.00,0.00,29.68,M,6.21,M,FEW,BKN,M,M,2000.00,20000.00,M,M,M,YBBN 260530Z 10010KT 9999 FEW020 BKN200 30/23 Q1005
YBBN,2015-01-26 06:00,153.1292,-27.3917,84.20,75.20,74.44,120.00,10.00,0.00,29.68,M,6.21,M,FEW,SCT,BKN,M,2000.00,14000.00,20000.00,M,M,YBBN 260600Z 12010KT 9999 FEW020 SCT140 BKN200 29/24 Q1005
YBBN,2015-01-26 06:30,153.1292,-27.3917,82.40,75.20,78.90,130.00,9.00,0.00,29.68,M,6.21,M,FEW,BKN,BKN,M,2000.00,14000.00,20000.00,M,M,YBBN 260630Z 13009KT 9999 FEW020 BKN140 BKN200 28/24 Q1005
YBBN,2015-01-26 07:00,153.1292,-27.3917,82.40,75.20,78.90,110.00,8.00,0.00,29.71,M,6.21,M,SCT,BKN,M,M,1600.00,14000.00,M,M,M,YBBN 260700Z 11008KT 9999 SCT016 BKN140 28/24 Q1006
YBBN,2015-01-26 07:30,153.1292,-27.3917,82.40,75.20,78.90,120.00,11.00,0.00,29.71,M,6.21,M,SCT,BKN,M,M,1500.00,14000.00,M,M,M,YBBN 260730Z 12011KT 9999 SCT015 BKN140 28/24 Q1006
YBBN,2015-01-26 08:00,153.1292,-27.3917,80.60,75.20,83.66,110.00,12.00,0.00,29.71,M,6.21,M,SCT,BKN,BKN,M,1500.00,14000.00,22000.00,M,M,YBBN 260800Z 11012KT 9999 SCT015 BKN140 BKN220 27/24 Q1006
YBBN,2015-01-26 08:30,153.1292,-27.3917,80.60,73.40,78.76,120.00,11.00,0.00,29.71,M,6.21,M,SCT,BKN,M,M,1600.00,16000.00,M,M,M,YBBN 260830Z 12011KT 9999 SCT016 BKN160 27/23 Q1006
YBBN,2015-01-26 09:00,153.1292,-27.3917,80.60,73.40,78.76,130.00,10.00,0.00,29.77,M,6.21,M,SCT,BKN,M,M,1800.00,15000.00,M,M,M,YBBN 260900Z 13010KT 9999 SCT018 BKN150 27/23 Q1008
YBBN,2015-01-26 09:30,153.1292,-27.3917,80.60,73.40,78.76,120.00,11.00,0.00,29.77,M,6.21,M,SCT,BKN,M,M,1800.00,15000.00,M,M,M,YBBN 260930Z 12011KT 9999 SCT018 BKN150 27/23 Q1008
YBBN,2015-01-26 10:00,153.1292,-27.3917,80.60,71.60,74.11,120.00,10.00,0.00,29.77,M,6.21,M,SCT,BKN,M,M,1800.00,15000.00,M,M,M,YBBN 261000Z 12010KT 9999 SCT018 BKN150 27/22 Q1008
YBBN,2015-01-26 10:30,153.1292,-27.3917,80.60,71.60,74.11,130.00,8.00,0.00,29.77,M,6.21,M,SCT,BKN,M,M,2000.00,15000.00,M,M,M,YBBN 261030Z 13008KT 9999 SCT020 BKN150 27/22 Q1008
YBBN,2015-01-26 11:00,153.1292,-27.3917,80.60,71.60,74.11,120.00,9.00,0.00,29.77,M,6.21,M,SCT,BKN,M,M,2000.00,15000.00,M,M,M,YBBN 261100Z 12009KT 9999 SCT020 BKN150 27/22 Q1008 NOSIG
YBBN,2015-01-26 11:30,153.1292,-27.3917,80.60,71.60,74.11,110.00,9.00,0.00,29.77,M,6.21,M,SCT,BKN,M,M,2200.00,15000.00,M,M,M,YBBN 261130Z 11009KT 9999 SCT022 BKN150 27/22 Q1008
YBBN,2015-01-26 12:00,153.1292,-27.3917,80.60,71.60,74.11,110.00,7.00,0.00,29.77,M,6.21,M,FEW,BKN,M,M,2000.00,16000.00,M,M,M,YBBN 261200Z 11007KT 9999 FEW020 BKN160 27/22 Q1008
YBBN,2015-01-26 12:30,153.1292,-27.3917,78.80,71.60,78.62,110.00,8.00,0.00,29.77,M,6.21,M,SCT,BKN,M,M,2000.00,16000.00,M,M,M,YBBN 261230Z 11008KT 9999 SCT020 BKN160 26/22 Q1008
YBBN,2015-01-26 13:00,153.1292,-27.3917,78.80,71.60,78.62,110.00,7.00,0.00,29.77,M,6.21,M,FEW,BKN,M,M,2000.00,15000.00,M,M,M,YBBN 261300Z 11007KT 9999 FEW020 BKN150 26/22 Q1008
YBBN,2015-01-26 13:30,153.1292,-27.3917,78.80,71.60,78.62,100.00,6.00,0.00,29.77,M,6.21,M,SCT,BKN,M,M,2000.00,15000.00,M,M,M,YBBN 261330Z 10006KT 9999 SCT020 BKN150 26/22 Q1008
YBBN,2015-01-26 14:00,153.1292,-27.3917,78.80,71.60,78.62,100.00,6.00,0.00,29.74,M,6.21,M,SCT,BKN,M,M,2000.00,15000.00,M,M,M,YBBN 261400Z 10006KT 9999 SCT020 BKN150 26/22 Q1007
YBBN,2015-01-26 14:30,153.1292,-27.3917,78.80,71.60,78.62,100.00,6.00,0.00,29.74,M,6.21,M,SCT,BKN,M,M,2000.00,22000.00,M,M,M,YBBN 261430Z 10006KT 9999 SCT020 BKN220 26/22 Q1007
YBBN,2015-01-26 15:00,153.1292,-27.3917,78.80,71.60,78.62,130.00,5.00,0.00,29.71,M,6.21,M,FEW,BKN,M,M,2000.00,20000.00,M,M,M,YBBN 261500Z 13005KT 9999 FEW020 BKN200 26/22 Q1006
YBBN,2015-01-26 15:30,153.1292,-27.3917,78.80,71.60,78.62,110.00,7.00,0.00,29.71,M,6.21,M,FEW,BKN,M,M,2000.00,25000.00,M,M,M,YBBN 261530Z 11007KT 9999 FEW020 BKN250 26/22 Q1006
YBBN,2015-01-26 16:00,153.1292,-27.3917,78.80,71.60,78.62,110.00,7.00,0.00,29.71,M,6.21,M,SCT,BKN,M,M,2000.00,25000.00,M,M,M,YBBN 261600Z 11007KT 9999 SCT020 BKN250 26/22 Q1006
YBBN,2015-01-26 16:30,153.1292,-27.3917,78.80,71.60,78.62,110.00,10.00,0.00,29.68,M,6.21,M,FEW,BKN,M,M,2000.00,25000.00,M,M,M,YBBN 261630Z 11010KT 9999 FEW020 BKN250 26/22 Q1005
YBBN,2015-01-26 17:00,153.1292,-27.3917,78.80,71.60,78.62,110.00,9.00,0.00,29.71,M,6.21,M,FEW,BKN,M,M,2000.00,25000.00,M,M,M,YBBN 261700Z 11009KT 9999 FEW020 BKN250 26/22 Q1006
YBBN,2015-01-26 17:30,153.1292,-27.3917,77.00,69.80,78.48,120.00,7.00,0.00,29.71,M,6.21,M,FEW,BKN,M,M,2000.00,25000.00,M,M,M,YBBN 261730Z 12007KT 9999 FEW020 BKN250 25/21 Q1006
YBBN,2015-01-26 18:00,153.1292,-27.3917,78.80,69.80,73.95,110.00,8.00,0.00,29.71,M,6.21,M,FEW,BKN,M,M,2000.00,30000.00,M,M,M,YBBN 261800Z 11008KT 9999 FEW020 BKN300 26/21 Q1006
YBBN,2015-01-26 18:30,153.1292,-27.3917,78.80,69.80,73.95,110.00,7.00,0.00,29.71,M,6.21,M,FEW,BKN,M,M,2000.00,30000.00,M,M,M,YBBN 261830Z 11007KT 9999 FEW020 BKN300 26/21 Q1006
YBBN,2015-01-26 19:00,153.1292,-27.3917,78.80,71.60,78.62,110.00,7.00,0.00,29.71,M,6.21,M,SCT,BKN,M,M,2000.00,30000.00,M,M,M,YBBN 261900Z 11007KT 9999 SCT020 BKN300 26/22 Q1006
YBBN,2015-01-26 19:30,153.1292,-27.3917,77.00,71.60,83.44,90.00,5.00,0.00,29.74,M,6.21,M,SCT,BKN,M,M,2000.00,30000.00,M,M,M,YBBN 261930Z 09005KT 9999 SCT020 BKN300 25/22 Q1007
YBBN,2015-01-26 20:00,153.1292,-27.3917,78.80,71.60,78.62,90.00,7.00,0.00,29.74,M,6.21,M,SCT,M,M,M,2000.00,M,M,M,M,YBBN 262000Z 09007KT 9999 SCT020 26/22 Q1007
YBBN,2015-01-26 20:30,153.1292,-27.3917,80.60,71.60,74.11,90.00,7.00,0.00,29.74,M,6.21,M,SCT,M,M,M,2000.00,M,M,M,M,YBBN 262030Z 09007KT 9999 SCT020 27/22 Q1007
YBBN,2015-01-26 21:00,153.1292,-27.3917,80.60,71.60,74.11,90.00,8.00,0.00,29.74,M,6.21,M,FEW,SCT,M,M,1800.00,2000.00,M,M,M,YBBN 262100Z 09008KT 9999 FEW018 SCT020 27/22 Q1007
YBBN,2015-01-26 21:30,153.1292,-27.3917,80.60,71.60,74.11,100.00,8.00,0.00,29.74,M,6.21,M,FEW,SCT,M,M,1800.00,2200.00,M,M,M,YBBN 262130Z 10008KT 9999 FEW018 SCT022 27/22 Q1007
YBBN,2015-01-26 22:00,153.1292,-27.3917,82.40,71.60,69.90,100.00,8.00,0.00,29.74,M,6.21,M,FEW,SCT,M,M,1900.00,2200.00,M,M,M,YBBN 262200Z 10008KT 9999 FEW019 SCT022 28/22 Q1007
YBBN,2015-01-26 22:30,153.1292,-27.3917,80.60,69.80,69.71,120.00,9.00,0.00,29.74,M,6.21,M,FEW,SCT,M,M,1900.00,2200.00,M,M,M,YBBN 262230Z 12009KT 9999 FEW019 SCT022 27/21 Q1007
YBBN,2015-01-26 23:00,153.1292,-27.3917,84.20,71.60,65.95,120.00,8.00,0.00,29.74,M,6.21,M,FEW,SCT,M,M,2000.00,2400.00,M,M,M,YBBN 262300Z 12008KT 9999 FEW020 SCT024 29/22 Q1007
YBBN,2015-01-26 23:30,153.1292,-27.3917,82.40,71.60,69.90,120.00,10.00,0.00,29.77,M,6.21,M,FEW,SCT,M,M,2000.00,2400.00,M,M,VCSH,YBBN 262330Z 12010KT 9999 VCSH FEW020 SCT024 28/22 Q1008
