#DEBUG: Format Typ    -> comma
#DEBUG: Time Period   -> 2015-07-02 00:00:00+00:00 2015-07-03 00:00:00+00:00
#DEBUG: Time Zone     -> Etc/UTC
#DEBUG: Data Contact   -> daryl herzmann akrherz@iastate.edu 515-294-5978
#DEBUG: Entries Found -> -1
station,valid,lon,lat,tmpf, dwpf, relh, drct, sknt, p01i, alti, mslp, vsby, gust, skyc1, skyc2, skyc3, skyc4, skyl1, skyl2, skyl3, skyl4, presentwx, metar
YBBN,2015-07-02 00:00,153.1292,-27.3917,62.60,48.20,59.26,230.00,13.00,0.00,30.15,M,6.21,M,FEW,M,M,M,2500.00,M,M,M,M,YBBN 020000Z 23013KT 9999 FEW025 17/09 Q1021 NOSIG
YBBN,2015-07-02 00:30,153.1292,-27.3917,64.40,48.20,55.63,220.00,11.00,0.00,30.15,M,6.21,M,M,M,M,M,M,M,M,M,M,YBBN 020030Z 22011KT CAVOK 18/09 Q1021
YBBN,2015-07-02 01:00,153.1292,-27.3917,66.20,50.00,55.88,230.00,9.00,0.00,30.12,M,6.21,M,M,M,M,M,M,M,M,M,M,YBBN 020100Z 23009KT CAVOK 19/10 Q1020 NOSIG
YBBN,2015-07-02 01:30,153.1292,-27.3917,66.20,50.00,55.88,280.00,12.00,0.00,30.12,M,6.21,M,M,M,M,M,M,M,M,M,M,YBBN 020130Z 28012KT CAVOK 19/10 Q1020
YBBN,2015-07-02 02:00,153.1292,-27.3917,68.00,46.40,45.88,250.00,12.00,0.00,30.09,M,6.21,M,M,M,M,M,M,M,M,M,M,YBBN 020200Z 25012KT CAVOK 20/08 Q1019 NOSIG
YBBN,2015-07-02 02:30,153.1292,-27.3917,66.20,42.80,42.57,260.00,12.00,0.00,30.09,M,6.21,M,M,M,M,M,M,M,M,M,M,YBBN 020230Z 26012KT CAVOK 19/06 Q1019
YBBN,2015-07-02 03:00,153.1292,-27.3917,68.00,42.80,40.00,260.00,13.00,0.00,30.06,M,6.21,M,M,M,M,M,M,M,M,M,M,YBBN 020300Z 26013KT CAVOK 20/06 Q1018
YBBN,2015-07-02 03:30,153.1292,-27.3917,66.20,41.00,39.72,270.00,14.00,0.00,30.06,M,6.21,M,M,M,M,M,M,M,M,M,M,YBBN 020330Z 27014KT CAVOK 19/05 Q1018
YBBN,2015-07-02 04:00,153.1292,-27.3917,66.20,41.00,39.72,260.00,13.00,0.00,30.06,M,6.21,M,M,M,M,M,M,M,M,M,M,YBBN 020400Z 26013KT CAVOK 19/05 Q1018 NOSIG
YBBN,2015-07-02 04:30,153.1292,-27.3917,64.40,39.20,39.43,250.00,15.00,0.00,30.06,M,6.21,M,M,M,M,M,M,M,M,M,M,YBBN 020430Z 25015KT CAVOK 18/04 Q1018
YBBN,2015-07-02 05:00,153.1292,-27.3917,64.40,39.20,39.43,260.00,13.00,0.00,30.06,M,6.21,M,M,M,M,M,M,M,M,M,M,YBBN 020500Z 26013KT CAVOK 18/04 Q1018
YBBN,2015-07-02 05:30,153.1292,-27.3917,64.40,32.00,29.63,250.00,12.00,0.00,30.06,M,6.21,M,M,M,M,M,M,M,M,M,M,YBBN 020530Z 25012KT CAVOK 18/00 Q1018
YBBN,2015-07-02 06:00,153.1292,-27.3917,64.40,32.00,29.63,250.00,14.00,0.00,30.06,M,6.21,M,M,M,M,M,M,M,M,M,M,YBBN 020600Z 25014KT CAVOK 18/M00 Q1018
YBBN,2015-07-02 06:30,153.1292,-27.3917,62.60,33.80,33.93,250.00,12.00,0.00,30.06,M,6.21,M,M,M,M,M,M,M,M,M,M,YBBN 020630Z 25012KT CAVOK 17/01 Q1018
YBBN,2015-07-02 07:00,153.1292,-27.3917,60.80,37.40,41.71,250.00,8.00,0.00,30.06,M,6.21,M,M,M,M,M,M,M,M,M,M,YBBN 020700Z 25008KT CAVOK 16/03 Q1018 NOSIG
YBBN,2015-07-02 07:30,153.1292,-27.3917,59.00,37.40,44.47,270.00,8.00,0.00,30.06,M,6.21,M,M,M,M,M,M,M,M,M,M,YBBN 020730Z 27008KT CAVOK 15/03 Q1018
YBBN,2015-07-02 08:00,153.1292,-27.3917,59.00,35.60,41.42,250.00,12.00,0.00,30.06,M,6.21,M,M,M,M,M,M,M,M,M,M,YBBN 020800Z 25012KT CAVOK 15/02 Q1018
YBBN,2015-07-02 08:30,153.1292,-27.3917,57.20,35.60,44.19,270.00,11.00,0.00,30.06,M,6.21,M,M,M,M,M,M,M,M,M,M,YBBN 020830Z 27011KT CAVOK 14/02 Q1018
YBBN,2015-07-02 09:00,153.1292,-27.3917,55.40,35.60,47.16,260.00,11.00,0.00,30.09,M,6.21,M,M,M,M,M,M,M,M,M,M,YBBN 020900Z 26011KT CAVOK 13/02 Q1019
YBBN,2015-07-02 09:30,153.1292,-27.3917,55.40,35.60,47.16,270.00,13.00,0.00,30.09,M,6.21,M,M,M,M,M,M,M,M,M,M,YBBN 020930Z 27013KT CAVOK 13/02 Q1019
YBBN,2015-07-02 10:00,153.1292,-27.3917,53.60,37.40,54.07,260.00,11.00,0.00,30.09,M,6.21,M,M,M,M,M,M,M,M,M,M,YBBN 021000Z 26011KT CAVOK 12/03 Q1019 NOSIG
YBBN,2015-07-02 10:30,153.1292,-27.3917,53.60,35.60,50.36,250.00,8.00,0.00,30.09,M,6.21,M,M,M,M,M,M,M,M,M,M,YBBN 021030Z 25008KT CAVOK 12/02 Q1019
YBBN,2015-07-02 11:00,153.1292,-27.3917,53.60,37.40,54.07,260.00,7.00,0.00,30.09,M,6.21,M,M,M,M,M,M,M,M,M,M,YBBN 021100Z 26007KT CAVOK 12/03 Q1019 NOSIG
YBBN,2015-07-02 11:30,153.1292,-27.3917,53.60,37.40,54.07,240.00,9.00,0.00,30.09,M,6.21,M,M,M,M,M,M,M,M,M,M,YBBN 021130Z 24009KT CAVOK 12/03 Q1019
YBBN,2015-07-02 12:00,153.1292,-27.3917,51.80,37.40,57.77,240.00,7.00,0.00,30.12,M,6.21,M,M,M,M,M,M,M,M,M,M,YBBN 021200Z 24007KT CAVOK 11/03 Q1020 NOSIG
YBBN,2015-07-02 12:30,153.1292,-27.3917,50.00,39.20,66.27,250.00,8.00,0.00,30.12,M,6.21,M,M,M,M,M,M,M,M,M,M,YBBN 021230Z 25008KT CAVOK 10/04 Q1020
YBBN,2015-07-02 13:00,153.1292,-27.3917,51.80,37.40,57.77,260.00,7.00,0.00,30.12,M,6.21,M,M,M,M,M,M,M,M,M,M,YBBN 021300Z 26007KT CAVOK 11/03 Q1020 NOSIG
YBBN,2015-07-02 13:30,153.1292,-27.3917,50.00,39.20,66.27,250.00,9.00,0.00,30.12,M,6.21,M,M,M,M,M,M,M,M,M,M,YBBN 021330Z 25009KT CAVOK 10/04 Q1020
YBBN,2015-07-02 14:00,153.1292,-27.3917,48.20,39.20,70.88,250.00,10.00,0.00,30.12,M,6.21,M,M,M,M,M,M,M,M,M,M,YBBN 021400Z 25010KT CAVOK 09/04 Q1020
YBBN,2015-07-02 14:30,153.1292,-27.3917,48.20,39.20,70.88,260.00,9.00,0.00,30.12,M,6.21,M,M,M,M,M,M,M,M,M,M,YBBN 021430Z 26009KT CAVOK 09/04 Q1020
YBBN,2015-07-02 15:00,153.1292,-27.3917,48.20,39.20,70.88,250.00,8.00,0.00,30.12,M,6.21,M,M,M,M,M,M,M,M,M,M,YBBN 021500Z 25008KT CAVOK 09/04 Q1020 NOSIG
YBBN,2015-07-02 15:30,153.1292,-27.3917,48.20,39.20,70.88,230.00,6.00,0.00,30.12,M,6.21,M,M,M,M,M,M,M,M,M,M,YBBN 021530Z 23006KT CAVOK 09/04 Q1020
YBBN,2015-07-02 16:00,153.1292,-27.3917,42.80,39.20,86.99,220.00,10.00,0.00,30.12,M,6.21,M,M,M,M,M,M,M,M,M,M,YBBN 021600Z 22010KT CAVOK 06/04 Q1020 NOSIG
YBBN,2015-07-02 16:30,153.1292,-27.3917,44.60,39.20,81.20,230.00,10.00,0.00,30.12,M,6.21,M,M,M,M,M,M,M,M,M,M,YBBN 021630Z 23010KT CAVOK 07/04 Q1020
YBBN,2015-07-02 17:00,153.1292,-27.3917,42.80,39.20,86.99,230.00,10.00,0.00,30.12,M,6.21,M,M,M,M,M,M,M,M,M,M,YBBN 021700Z 23010KT CAVOK 06/04 Q1020 NOSIG
YBBN,2015-07-02 17:30,153.1292,-27.3917,44.60,37.40,75.68,230.00,8.00,0.00,30.12,M,6.21,M,M,M,M,M,M,M,M,M,M,YBBN 021730Z 23008KT CAVOK 07/03 Q1020
YBBN,2015-07-02 18:00,153.1292,-27.3917,42.80,37.40,81.07,220.00,8.00,0.00,30.12,M,6.21,M,M,M,M,M,M,M,M,M,M,YBBN 021800Z 22008KT CAVOK 06/03 Q1020 NOSIG
YBBN,2015-07-02 18:30,153.1292,-27.3917,44.60,37.40,75.68,200.00,7.00,0.00,30.12,M,6.21,M,M,M,M,M,M,M,M,M,M,YBBN 021830Z 20007KT CAVOK 07/03 Q1020
YBBN,2015-07-02 19:00,153.1292,-27.3917,46.40,37.40,70.68,200.00,9.00,0.00,30.12,M,6.21,M,M,M,M,M,M,M,M,M,M,YBBN 021900Z 20009KT CAVOK 08/03 Q1020
YBBN,2015-07-02 19:30,153.1292,-27.3917,46.40,37.40,70.68,190.00,7.00,0.00,30.12,M,6.21,M,M,M,M,M,M,M,M,M,M,YBBN 021930Z 19007KT CAVOK 08/03 Q1020
YBBN,2015-07-02 20:00,153.1292,-27.3917,46.40,37.40,70.68,200.00,7.00,0.00,30.15,M,6.21,M,FEW,M,M,M,2800.00,M,M,M,M,YBBN 022000Z 20007KT 9999 FEW028 08/03 Q1021
YBBN,2015-07-02 20:30,153.1292,-27.3917,46.40,37.40,70.68,200.00,8.00,0.00,30.15,M,6.21,M,FEW,M,M,M,2800.00,M,M,M,M,YBBN 022030Z 20008KT 9999 FEW028 08/03 Q1021
YBBN,2015-07-02 21:00,153.1292,-27.3917,44.60,37.40,75.68,200.00,9.00,0.00,30.15,M,6.21,M,FEW,M,M,M,3000.00,M,M,M,M,YBBN 022100Z 20009KT 9999 FEW030 07/03 Q1021
YBBN,2015-07-02 21:30,153.1292,-27.3917,48.20,39.20,70.88,200.00,9.00,0.00,30.18,M,6.21,M,FEW,M,M,M,3000.00,M,M,M,M,YBBN 022130Z 20009KT 9999 FEW030 09/04 Q1022
YBBN,2015-07-02 22:00,153.1292,-27.3917,50.00,37.40,61.76,210.00,11.00,0.00,30.18,M,6.21,M,FEW,M,M,M,3200.00,M,M,M,M,YBBN 022200Z 21011KT 9999 FEW032 10/03 Q1022 NOSIG
YBBN,2015-07-02 22:30,153.1292,-27.3917,53.60,37.40,54.07,210.00,13.00,0.00,30.18,M,6.21,M,M,M,M,M,M,M,M,M,M,YBBN 022230Z 21013KT CAVOK 12/03 Q1022
YBBN,2015-07-02 23:00,153.1292,-27.3917,55.40,35.60,47.16,210.00,13.00,0.00,30.18,M,6.21,M,M,M,M,M,M,M,M,M,M,YBBN 022300Z 21013KT CAVOK 13/02 Q1022
YBBN,2015-07-02 23:30,153.1292,-27.3917,57.20,35.60,44.19,210.00,14.00,0.00,30.18,M,6.21,M,M,M,M,M,M,M,M,M,M,YBBN 022330Z 21014KT CAVOK 14/02 Q1022
