#DEBUG: Format Typ    -> comma
#DEBUG: Time Period   -> 2012-12-12 00:00:00+00:00 2012-12-13 00:00:00+00:00
#DEBUG: Time Zone     -> Etc/UTC
#DEBUG: Data Contact   -> daryl herzmann akrherz@iastate.edu 515-294-5978
#DEBUG: Entries Found -> -1
station,valid,lon,lat,tmpf, dwpf, relh, drct, sknt, p01i, alti, mslp, vsby, gust, skyc1, skyc2, skyc3, skyc4, skyl1, skyl2, skyl3, skyl4, presentwx, metar
YBBN,2012-12-12 00:00,153.1292,-27.3917,78.80,59.00,50.69,140.00,15.00,0.00,30.15,M,5.59,M,SCT,M,M,M,3500.00,M,M,M,VCSH,YBBN 120000Z 14015KT 9000 VCSH SCT035 26/15 Q1021
YBBN,2012-12-12 00:30,153.1292,-27.3917,77.00,57.20,50.43,160.00,12.00,0.00,30.15,M,6.21,M,FEW,SCT,M,M,3000.00,7500.00,M,M,VCSH,YBBN 120030Z 16012KT 9999 VCSH FEW030 SCT075 25/14 Q1021
YBBN,2012-12-12 01:00,153.1292,-27.3917,78.80,59.00,50.69,130.00,14.00,0.00,30.15,M,6.21,26.00,SCT,M,M,M,3000.00,M,M,M,M,YBBN 120100Z 13014G26KT 9999 SCT030 26/15 Q1021 FM0100 13017KT 9999 -SHRA SCT030 BKN050 INTER 0100/0200 5000 SHRA BKN012
YBBN,2012-12-12 01:30,153.1292,-27.3917,78.80,57.20,47.52,120.00,14.00,0.00,30.12,M,6.21,M,FEW,M,M,M,3500.00,M,M,M,M,YBBN 120130Z 12014KT 9999 FEW035 26/14 Q1020
YBBN,2012-12-12 01:44,153.1292,-27.3917,80.60,59.00,47.79,120.00,15.00,0.00,30.12,M,6.21,25.00,SCT,M,M,M,3500.00,M,M,M,M,YBBN 120144Z 12015G25KT 9999 SCT035 27/15 Q1020
YBBN,2012-12-12 02:00,153.1292,-27.3917,78.80,55.40,44.52,120.00,15.00,0.00,30.12,M,6.21,M,SCT,M,M,M,3500.00,M,M,M,M,YBBN 120200Z 12015KT 9999 SCT035 26/13 Q1020 NOSIG
YBBN,2012-12-12 02:30,153.1292,-27.3917,78.80,57.20,47.52,110.00,14.00,0.00,30.12,M,6.21,M,SCT,M,M,M,3500.00,M,M,M,M,YBBN 120230Z 11014KT 9999 SCT035 26/14 Q1020
YBBN,2012-12-12 02:57,153.1292,-27.3917,78.80,57.20,47.52,110.00,15.00,0.00,30.12,M,6.21,27.00,SCT,M,M,M,3500.00,M,M,M,M,YBBN 120257Z 11015G27KT 9999 SCT035 26/14 Q1020
YBBN,2012-12-12 03:00,153.1292,-27.3917,78.80,57.20,47.52,110.00,14.00,0.00,30.12,M,6.21,27.00,SCT,M,M,M,3500.00,M,M,M,M,YBBN 120300Z 11014G27KT 9999 SCT035 26/14 Q1020
YBBN,2012-12-12 03:30,153.1292,-27.3917,78.80,57.20,47.52,110.00,16.00,0.00,30.12,M,6.21,27.00,SCT,M,M,M,3500.00,M,M,M,M,YBBN 120330Z 11016G27KT 9999 SCT035 26/14 Q1020
YBBN,2012-12-12 04:00,153.1292,-27.3917,78.80,57.20,47.52,110.00,17.00,0.00,30.09,M,6.21,M,FEW,M,M,M,3500.00,M,M,M,M,YBBN 120400Z 11017KT 9999 FEW035 26/14 Q1019 FM0400 12017KT 9999 SCT035 BKN060
YBBN,2012-12-12 04:30,153.1292,-27.3917,78.80,57.20,47.52,110.00,15.00,0.00,30.09,M,6.21,M,FEW,M,M,M,3500.00,M,M,M,M,YBBN 120430Z 11015KT 9999 FEW035 26/14 Q1019
YBBN,2012-12-12 04:57,153.1292,-27.3917,78.80,53.60,41.69,110.00,16.00,0.00,30.09,M,6.21,26.00,FEW,M,M,M,3500.00,M,M,M,M,YBBN 120457Z 11016G26KT 9999 FEW035 26/12 Q1019
YBBN,2012-12-12 05:04,153.1292,-27.3917,78.80,55.40,44.52,110.00,15.00,0.00,30.09,M,6.21,26.00,FEW,M,M,M,3500.00,M,M,M,M,YBBN 120504Z 11015G26KT 9999 FEW035 26/13 Q1019
YBBN,2012-12-12 05:30,153.1292,-27.3917,78.80,55.40,44.52,110.00,13.00,0.00,30.09,M,6.21,M,FEW,M,M,M,3500.00,M,M,M,M,YBBN 120530Z 11013KT 9999 FEW035 26/13 Q1019
YBBN,2012-12-12 06:00,153.1292,-27.3917,78.80,55.40,44.52,110.00,14.00,0.00,30.09,M,6.21,M,FEW,M,M,M,3500.00,M,M,M,M,YBBN 120600Z 11014KT 9999 FEW035 26/13 Q1019
YBBN,2012-12-12 06:30,153.1292,-27.3917,77.00,51.80,41.42,120.00,13.00,0.00,30.09,M,6.21,M,FEW,M,M,M,3500.00,M,M,M,M,YBBN 120630Z 12013KT 9999 FEW035 25/11 Q1019
YBBN,2012-12-12 07:00,153.1292,-27.3917,77.00,53.60,44.25,120.00,12.00,0.00,30.09,M,6.21,M,FEW,M,M,M,3500.00,M,M,M,M,YBBN 120700Z 12012KT 9999 FEW035 25/12 Q1019
YBBN,2012-12-12 07:30,153.1292,-27.3917,77.00,53.60,44.25,120.00,11.00,0.00,30.09,M,6.21,M,FEW,M,M,M,3500.00,M,M,M,M,YBBN 120730Z 12011KT 9999 FEW035 25/12 Q1019
YBBN,2012-12-12 08:00,153.1292,-27.3917,75.20,55.40,50.17,130.00,12.00,0.00,30.12,M,6.21,M,FEW,M,M,M,3500.00,M,M,M,M,YBBN 120800Z 13012KT 9999 FEW035 24/13 Q1020 NOSIG
YBBN,2012-12-12 08:30,153.1292,-27.3917,75.20,55.40,50.17,130.00,10.00,0.00,30.12,M,6.21,M,FEW,M,M,M,3500.00,M,M,M,M,YBBN 120830Z 13010KT 9999 FEW035 24/13 Q1020
YBBN,2012-12-12 09:00,153.1292,-27.3917,73.40,55.40,53.29,140.00,10.00,0.00,30.12,M,6.21,M,FEW,M,M,M,3200.00,M,M,M,M,YBBN 120900Z 14010KT 9999 FEW032 23/13 Q1020 NOSIG
YBBN,2012-12-12 09:30,153.1292,-27.3917,73.40,57.20,56.88,140.00,12.00,0.00,30.12,M,6.21,M,FEW,BKN,M,M,3500.00,8500.00,M,M,M,YBBN 120930Z 14012KT 9999 FEW035 BKN085 23/14 Q1020
YBBN,2012-12-12 10:00,153.1292,-27.3917,71.60,55.40,56.63,150.00,9.00,0.00,30.12,M,6.21,M,FEW,BKN,M,M,3500.00,8000.00,M,M,M,YBBN 121000Z 15009KT 9999 FEW035 BKN080 22/13 Q1020
YBBN,2012-12-12 10:30,153.1292,-27.3917,71.60,57.20,60.44,160.00,8.00,0.00,30.12,M,6.21,M,FEW,BKN,M,M,3500.00,6500.00,M,M,M,YBBN 121030Z 16008KT 9999 FEW035 BKN065 22/14 Q1020
YBBN,2012-12-12 11:00,153.1292,-27.3917,69.80,59.00,68.55,170.00,8.00,0.00,30.15,M,6.21,M,FEW,SCT,BKN,M,3500.00,5000.00,7500.00,M,M,YBBN 121100Z 17008KT 9999 FEW035 SCT050 BKN075 21/15 Q1021
YBBN,2012-12-12 11:30,153.1292,-27.3917,69.80,59.00,68.55,160.00,8.00,0.00,30.15,M,6.21,M,FEW,BKN,M,M,3500.00,7000.00,M,M,M,YBBN 121130Z 16008KT 9999 FEW035 BKN070 21/15 Q1021
YBBN,2012-12-12 12:00,153.1292,-27.3917,68.00,60.80,77.75,190.00,6.00,0.00,30.15,M,6.21,M,FEW,SCT,M,M,3500.00,7000.00,M,M,M,YBBN 121200Z 19006KT 9999 FEW035 SCT070 20/16 Q1021 NOSIG
YBBN,2012-12-12 12:30,153.1292,-27.3917,68.00,59.00,72.92,200.00,7.00,0.00,30.12,M,6.21,M,FEW,M,M,M,3500.00,M,M,M,M,YBBN 121230Z 20007KT 9999 FEW035 20/15 Q1020
YBBN,2012-12-12 13:00,153.1292,-27.3917,68.00,60.80,77.75,170.00,12.00,0.00,30.12,M,6.21,M,SCT,BKN,M,M,3000.00,6500.00,M,M,-SHRA,YBBN 121300Z 17012KT 9999 -SHRA SCT030 BKN065 20/16 Q1020 NOSIG
YBBN,2012-12-12 13:30,153.1292,-27.3917,66.20,60.80,82.74,180.00,6.00,0.00,30.12,M,6.21,M,FEW,SCT,M,M,3000.00,8500.00,M,M,M,YBBN 121330Z 18006KT 9999 FEW030 SCT085 19/16 Q1020
YBBN,2012-12-12 14:00,153.1292,-27.3917,66.20,62.60,88.18,170.00,8.00,0.00,30.12,M,4.97,M,FEW,SCT,BKN,M,2500.00,3000.00,4500.00,M,-SHRA,YBBN 121400Z 17008KT 8000 -SHRA FEW025 SCT030 BKN045 19/17 Q1020
YBBN,2012-12-12 14:30,153.1292,-27.3917,66.20,62.60,88.18,190.00,8.00,0.00,30.09,M,6.21,M,FEW,BKN,M,M,3000.00,7800.00,M,M,M,YBBN 121430Z 19008KT 9999 FEW030 BKN078 19/17 Q1019
YBBN,2012-12-12 15:00,153.1292,-27.3917,68.00,60.80,77.75,170.00,8.00,0.00,30.09,M,6.21,M,FEW,BKN,M,M,3000.00,7000.00,M,M,M,YBBN 121500Z 17008KT 9999 FEW030 BKN070 20/16 Q1019 NOSIG
YBBN,2012-12-12 15:30,153.1292,-27.3917,66.20,60.80,82.74,190.00,7.00,0.00,30.06,M,6.21,M,FEW,M,M,M,3000.00,M,M,M,M,YBBN 121530Z 19007KT 9999 FEW030 19/16 Q1018
YBBN,2012-12-12 16:00,153.1292,-27.3917,64.40,60.80,88.09,200.00,8.00,0.00,30.06,M,6.21,M,FEW,M,M,M,3000.00,M,M,M,M,YBBN 121600Z 20008KT 9999 FEW030 18/16 Q1018
YBBN,2012-12-12 16:30,153.1292,-27.3917,66.20,60.80,82.74,210.00,8.00,0.00,30.06,M,6.21,M,FEW,SCT,M,M,3000.00,7500.00,M,M,M,YBBN 121630Z 21008KT 9999 FEW030 SCT075 19/16 Q1018
YBBN,2012-12-12 17:00,153.1292,-27.3917,62.60,59.00,88.00,220.00,7.00,0.00,30.06,M,6.21,M,FEW,M,M,M,3500.00,M,M,M,M,YBBN 121700Z 22007KT 9999 FEW035 17/15 Q1018 INTER 1800/2000 3000 SHRA BKN012
YBBN,2012-12-12 17:30,153.1292,-27.3917,64.40,59.00,82.62,200.00,8.00,0.00,30.06,M,6.21,M,FEW,M,M,M,3500.00,M,M,M,M,YBBN 121730Z 20008KT 9999 FEW035 18/15 Q1018
YBBN,2012-12-12 18:00,153.1292,-27.3917,64.40,59.00,82.62,200.00,7.00,0.00,30.06,M,6.21,M,FEW,SCT,M,M,2700.00,6000.00,M,M,M,YBBN 121800Z 20007KT 9999 FEW027 SCT060 18/15 Q1018 INTER 1800/2100 3000 SHRA BKN012
YBBN,2012-12-12 18:30,153.1292,-27.3917,64.40,59.00,82.62,200.00,7.00,0.00,30.06,M,6.21,M,FEW,BKN,M,M,3500.00,8000.00,M,M,M,YBBN 121830Z 20007KT 9999 FEW035 BKN080 18/15 Q1018
YBBN,2012-12-12 19:00,153.1292,-27.3917,64.40,59.00,82.62,210.00,8.00,0.00,30.06,M,6.21,M,FEW,SCT,BKN,M,2700.00,3500.00,8000.00,M,M,YBBN 121900Z 21008KT 9999 FEW027 SCT035 BKN080 18/15 Q1018
YBBN,2012-12-12 19:24,153.1292,-27.3917,64.40,60.80,88.09,200.00,7.00,0.00,30.09,M,3.11,M,FEW,SCT,BKN,M,2500.00,3400.00,6000.00,M,-SHRA,YBBN 121924Z 20007KT 5000 -SHRA FEW025 SCT034 BKN060 18/16 Q1019
YBBN,2012-12-12 19:30,153.1292,-27.3917,64.40,60.80,88.09,200.00,8.00,0.00,30.09,M,4.97,M,FEW,BKN,M,M,2500.00,6000.00,M,M,VCSH,YBBN 121930Z 20008KT 8000 VCSH FEW025 BKN060 18/16 Q1019
YBBN,2012-12-12 20:00,153.1292,-27.3917,66.20,60.80,82.74,200.00,8.00,0.00,30.09,M,6.21,M,FEW,SCT,M,M,2500.00,8000.00,M,M,M,YBBN 122000Z 20008KT 9999 FEW025 SCT080 19/16 Q1019
YBBN,2012-12-12 20:30,153.1292,-27.3917,68.00,60.80,77.75,190.00,7.00,0.00,30.09,M,6.21,M,FEW,SCT,M,M,2500.00,8000.00,M,M,M,YBBN 122030Z 19007KT 9999 FEW025 SCT080 20/16 Q1019
YBBN,2012-12-12 21:00,153.1292,-27.3917,69.80,62.60,77.90,160.00,11.00,0.00,30.09,M,6.21,M,FEW,SCT,M,M,2500.00,8000.00,M,M,M,YBBN 122100Z 16011KT 9999 FEW025 SCT080 21/17 Q1019 INTER 2100/2400 3000 SHRA BKN012
YBBN,2012-12-12 21:30,153.1292,-27.3917,69.80,60.80,73.09,160.00,8.00,0.00,30.12,M,6.21,M,FEW,SCT,M,M,2500.00,6400.00,M,M,-SHRA VCSH,YBBN 122130Z 16008KT 9999 -SHRA VCSH FEW025 SCT064 21/16 Q1020
YBBN,2012-12-12 22:00,153.1292,-27.3917,71.60,59.00,64.48,130.00,11.00,0.00,30.12,M,6.21,M,BKN,M,M,M,3000.00,M,M,M,VCSH,YBBN 122200Z 13011KT 9999 VCSH BKN030 22/15 Q1020
YBBN,2012-12-12 22:30,153.1292,-27.3917,73.40,57.20,56.88,140.00,10.00,0.00,30.12,M,6.21,M,SCT,BKN,BKN,M,3000.00,5700.00,6500.00,M,VCSH,YBBN 122230Z 14010KT 9999 VCSH SCT030 BKN057 BKN065 23/14 Q1020
YBBN,2012-12-12 23:00,153.1292,-27.3917,73.40,59.00,60.67,120.00,9.00,0.00,30.12,M,4.97,M,SCT,BKN,M,M,3000.00,6500.00,M,M,-SHRA VCSH,YBBN 122300Z 12009KT 8000 -SHRA VCSH SCT030 BKN065 23/15 Q1020 INTER 2300/0200 3000 SHRA BKN012
YBBN,2012-12-12 23:30,153.1292,-27.3917,73.40,59.00,60.67,140.00,8.00,0.00,30.12,M,6.21,M,SCT,BKN,M,M,3000.00,6500.00,M,M,VCSH,YBBN 122330Z 14008KT 9999 VCSH SCT030 BKN065 23/15 Q1020
