#DEBUG: Format Typ    -> comma
#DEBUG: Time Period   -> 2011-11-09 00:00:00+00:00 2011-11-10 00:00:00+00:00
#DEBUG: Time Zone     -> Etc/UTC
#DEBUG: Data Contact   -> daryl herzmann akrherz@iastate.edu 515-294-5978
#DEBUG: Entries Found -> -1
station,valid,lon,lat,tmpf, dwpf, relh, drct, sknt, p01i, alti, mslp, vsby, gust, skyc1, skyc2, skyc3, skyc4, skyl1, skyl2, skyl3, skyl4, presentwx, metar
YBBN,2011-11-09 00:00,153.1292,-27.3917,77.00,62.60,61.13,20.00,9.00,M,30.09,M,6.21,M,FEW,M,M,M,3000.00,M,M,M,M,YBBN 090000Z 02009KT 9999 FEW030 25/17 Q1019 NOSIG
YBBN,2011-11-09 00:30,153.1292,-27.3917,77.00,62.60,61.13,40.00,13.00,M,30.09,M,6.21,M,FEW,M,M,M,3000.00,M,M,M,M,YBBN 090030Z 04013KT 9999 FEW030 25/17 Q1019
YBBN,2011-11-09 01:00,153.1292,-27.3917,77.00,62.60,61.13,40.00,14.00,M,30.06,M,6.21,M,FEW,M,M,M,3000.00,M,M,M,M,YBBN 090100Z 04014KT 9999 FEW030 25/17 Q1018 NOSIG
YBBN,2011-11-09 01:30,153.1292,-27.3917,78.80,64.40,61.36,40.00,14.00,M,30.06,M,6.21,M,FEW,M,M,M,3000.00,M,M,M,M,YBBN 090130Z 04014KT 9999 FEW030 26/18 Q1018
YBBN,2011-11-09 02:00,153.1292,-27.3917,78.80,62.60,57.60,30.00,15.00,M,30.06,M,6.21,M,FEW,M,M,M,3000.00,M,M,M,M,YBBN 090200Z 03015KT 9999 FEW030 26/17 Q1018 NOSIG
YBBN,2011-11-09 02:30,153.1292,-27.3917,78.80,62.60,57.60,40.00,15.00,M,30.03,M,6.21,M,FEW,M,M,M,3000.00,M,M,M,M,YBBN 090230Z 04015KT 9999 FEW030 26/17 Q1017
YBBN,2011-11-09 03:00,153.1292,-27.3917,78.80,62.60,57.60,30.00,15.00,M,30.03,M,6.21,M,FEW,M,M,M,3000.00,M,M,M,M,YBBN 090300Z 03015KT 9999 FEW030 26/17 Q1017 NOSIG
YBBN,2011-11-09 03:30,153.1292,-27.3917,77.00,62.60,61.13,30.00,15.00,M,30.00,M,6.21,M,FEW,M,M,M,3000.00,M,M,M,M,YBBN 090330Z 03015KT 9999 FEW030 25/17 Q1016
YBBN,2011-11-09 04:00,153.1292,-27.3917,78.80,64.40,61.36,20.00,17.00,M,30.00,M,6.21,M,FEW,M,M,M,3500.00,M,M,M,M,YBBN 090400Z 02017KT 9999 FEW035 26/18 Q1016 NOSIG
YBBN,2011-11-09 04:30,153.1292,-27.3917,78.80,64.40,61.36,20.00,17.00,M,30.00,M,6.21,M,FEW,M,M,M,3500.00,M,M,M,M,YBBN 090430Z 02017KT 9999 FEW035 26/18 Q1016
YBBN,2011-11-09 05:00,153.1292,-27.3917,77.00,64.40,65.12,30.00,18.00,M,30.00,M,6.21,M,FEW,M,M,M,3500.00,M,M,M,M,YBBN 090500Z 03018KT 9999 FEW035 25/18 Q1016 NOSIG
YBBN,2011-11-09 05:30,153.1292,-27.3917,77.00,66.20,69.33,20.00,16.00,M,29.97,M,6.21,M,FEW,M,M,M,3500.00,M,M,M,M,YBBN 090530Z 02016KT 9999 FEW035 25/19 Q1015
YBBN,2011-11-09 06:00,153.1292,-27.3917,77.00,64.40,65.12,20.00,15.00,M,30.00,M,6.21,M,FEW,M,M,M,3500.00,M,M,M,M,YBBN 090600Z 02015KT 9999 FEW035 25/18 Q1016 NOSIG
YBBN,2011-11-09 06:30,153.1292,-27.3917,75.20,66.20,73.61,20.00,14.00,M,30.00,M,6.21,M,FEW,M,M,M,3500.00,M,M,M,M,YBBN 090630Z 02014KT 9999 FEW035 24/19 Q1016
YBBN,2011-11-09 07:00,153.1292,-27.3917,75.20,64.40,69.14,20.00,14.00,M,30.00,M,6.21,M,FEW,M,M,M,3500.00,M,M,M,M,YBBN 090700Z 02014KT 9999 FEW035 24/18 Q1016 NOSIG
YBBN,2011-11-09 07:30,153.1292,-27.3917,75.20,64.40,69.14,20.00,15.00,M,30.00,M,6.21,M,FEW,M,M,M,3500.00,M,M,M,M,YBBN 090730Z 02015KT 9999 FEW035 24/18 Q1016
YBBN,2011-11-09 08:00,153.1292,-27.3917,73.40,64.40,73.44,20.00,13.00,M,30.00,M,6.21,M,FEW,M,M,M,3500.00,M,M,M,M,YBBN 090800Z 02013KT 9999 FEW035 23/18 Q1016 NOSIG
YBBN,2011-11-09 08:30,153.1292,-27.3917,73.40,64.40,73.44,10.00,15.00,M,30.03,M,6.21,M,FEW,M,M,M,3500.00,M,M,M,M,YBBN 090830Z 01015KT 9999 FEW035 23/18 Q1017
YBBN,2011-11-09 09:00,153.1292,-27.3917,73.40,64.40,73.44,10.00,15.00,M,30.03,M,6.21,M,FEW,M,M,M,3200.00,M,M,M,M,YBBN 090900Z 01015KT 9999 FEW032 23/18 Q1017 NOSIG
YBBN,2011-11-09 09:30,153.1292,-27.3917,73.40,64.40,73.44,10.00,14.00,M,30.03,M,6.21,M,FEW,M,M,M,3200.00,M,M,M,M,YBBN 090930Z 01014KT 9999 FEW032 23/18 Q1017
YBBN,2011-11-09 10:00,153.1292,-27.3917,73.40,64.40,73.44,10.00,13.00,M,30.03,M,6.21,M,FEW,M,M,M,3000.00,M,M,M,M,YBBN 091000Z 01013KT 9999 FEW030 23/18 Q1017 NOSIG
YBBN,2011-11-09 10:30,153.1292,-27.3917,71.60,66.20,83.09,10.00,14.00,M,30.03,M,6.21,M,FEW,M,M,M,2500.00,M,M,M,M,YBBN 091030Z 01014KT 9999 FEW025 22/19 Q1017
YBBN,2011-11-09 11:00,153.1292,-27.3917,71.60,66.20,83.09,10.00,15.00,M,30.03,M,6.21,M,FEW,M,M,M,2500.00,M,M,M,M,YBBN 091100Z 01015KT 9999 FEW025 22/19 Q1017 NOSIG
YBBN,2011-11-09 11:30,153.1292,-27.3917,71.60,66.20,83.09,10.00,14.00,M,30.03,M,6.21,M,FEW,M,M,M,2500.00,M,M,M,M,YBBN 091130Z 01014KT 9999 FEW025 22/19 Q1017
YBBN,2011-11-09 12:00,153.1292,-27.3917,71.60,66.20,83.09,10.00,17.00,M,30.03,M,6.21,M,FEW,M,M,M,1500.00,M,M,M,M,YBBN 091200Z 01017KT 9999 FEW015 22/19 Q1017 NOSIG
YBBN,2011-11-09 12:30,153.1292,-27.3917,71.60,66.20,83.09,360.00,16.00,M,30.03,M,6.21,M,FEW,M,M,M,1800.00,M,M,M,M,YBBN 091230Z 36016KT 9999 FEW018 22/19 Q1017
YBBN,2011-11-09 13:00,153.1292,-27.3917,71.60,66.20,83.09,360.00,15.00,M,30.03,M,6.21,M,FEW,M,M,M,1800.00,M,M,M,M,YBBN 091300Z 36015KT 9999 FEW018 22/19 Q1017 NOSIG
YBBN,2011-11-09 13:30,153.1292,-27.3917,71.60,66.20,83.09,360.00,14.00,M,30.00,M,6.21,M,FEW,M,M,M,1800.00,M,M,M,M,YBBN 091330Z 36014KT 9999 FEW018 22/19 Q1016
YBBN,2011-11-09 14:00,153.1292,-27.3917,71.60,66.20,83.09,360.00,11.00,M,30.00,M,6.21,M,FEW,M,M,M,1800.00,M,M,M,M,YBBN 091400Z 36011KT 9999 FEW018 22/19 Q1016 NOSIG
YBBN,2011-11-09 14:30,153.1292,-27.3917,71.60,66.20,83.09,350.00,13.00,M,30.00,M,6.21,M,FEW,M,M,M,1500.00,M,M,M,M,YBBN 091430Z 35013KT 9999 FEW015 22/19 Q1016
YBBN,2011-11-09 15:00,153.1292,-27.3917,69.80,64.40,82.98,350.00,13.00,M,30.00,M,6.21,M,FEW,M,M,M,1500.00,M,M,M,M,YBBN 091500Z 35013KT 9999 FEW015 21/18 Q1016 NOSIG
YBBN,2011-11-09 15:30,153.1292,-27.3917,69.80,64.40,82.98,360.00,13.00,M,29.97,M,6.21,M,FEW,M,M,M,1500.00,M,M,M,M,YBBN 091530Z 36013KT 9999 FEW015 21/18 Q1015
YBBN,2011-11-09 16:00,153.1292,-27.3917,69.80,64.40,82.98,350.00,14.00,M,29.97,M,6.21,M,FEW,M,M,M,1500.00,M,M,M,M,YBBN 091600Z 35014KT 9999 FEW015 21/18 Q1015 NOSIG
YBBN,2011-11-09 16:30,153.1292,-27.3917,69.80,64.40,82.98,350.00,12.00,M,29.97,M,6.21,M,FEW,M,M,M,1500.00,M,M,M,M,YBBN 091630Z 35012KT 9999 FEW015 21/18 Q1015
YBBN,2011-11-09 17:00,153.1292,-27.3917,68.00,64.40,88.26,300.00,7.00,M,30.00,M,6.21,M,M,M,M,M,M,M,M,M,M,YBBN 091700Z 30007KT CAVOK 20/18 Q1016 NOSIG
YBBN,2011-11-09 17:30,153.1292,-27.3917,66.20,62.60,88.18,270.00,5.00,M,30.00,M,6.21,M,M,M,M,M,M,M,M,M,M,YBBN 091730Z 27005KT CAVOK 19/17 Q1016
YBBN,2011-11-09 18:00,153.1292,-27.3917,64.40,62.60,93.88,310.00,4.00,M,30.00,M,6.21,M,FEW,M,M,M,2000.00,M,M,M,M,YBBN 091800Z 31004KT 9999 FEW020 18/17 Q1016 NOSIG
YBBN,2011-11-09 18:30,153.1292,-27.3917,64.40,62.60,93.88,0.00,0.00,M,30.00,M,6.21,M,FEW,M,M,M,2000.00,M,M,M,M,YBBN 091830Z 00000KT 9999 FEW020 18/17 Q1016
YBBN,2011-11-09 19:00,153.1292,-27.3917,64.40,62.60,93.88,280.00,4.00,M,30.00,M,6.21,M,FEW,M,M,M,2000.00,M,M,M,M,YBBN 091900Z 28004KT 9999 FEW020 18/17 Q1016 NOSIG
YBBN,2011-11-09 19:30,153.1292,-27.3917,66.20,62.60,88.18,310.00,3.00,M,30.03,M,6.21,M,FEW,M,M,M,2000.00,M,M,M,M,YBBN 091930Z 31003KT 9999 FEW020 19/17 Q1017
YBBN,2011-11-09 20:00,153.1292,-27.3917,68.00,62.60,82.86,310.00,5.00,M,30.03,M,6.21,M,FEW,M,M,M,2000.00,M,M,M,M,YBBN 092000Z 31005KT 9999 FEW020 20/17 Q1017 NOSIG
YBBN,2011-11-09 20:30,153.1292,-27.3917,69.80,64.40,82.98,310.00,6.00,M,30.03,M,6.21,M,FEW,M,M,M,2000.00,M,M,M,M,YBBN 092030Z 31006KT 9999 FEW020 21/18 Q1017
YBBN,2011-11-09 21:00,153.1292,-27.3917,71.60,62.60,73.27,310.00,7.00,M,30.06,M,6.21,M,FEW,M,M,M,2000.00,M,M,M,M,YBBN 092100Z 31007KT 9999 FEW020 22/17 Q1018 NOSIG
YBBN,2011-11-09 21:30,153.1292,-27.3917,73.40,60.80,64.69,320.00,9.00,M,30.06,M,6.21,M,FEW,M,M,M,2000.00,M,M,M,M,YBBN 092130Z 32009KT 9999 FEW020 23/16 Q1018
YBBN,2011-11-09 22:00,153.1292,-27.3917,75.20,60.80,60.90,320.00,8.00,M,30.06,M,6.21,M,FEW,M,M,M,2500.00,M,M,M,M,YBBN 092200Z 32008KT 9999 FEW025 24/16 Q1018 NOSIG
YBBN,2011-11-09 22:30,153.1292,-27.3917,77.00,60.80,57.36,340.00,9.00,M,30.03,M,6.21,M,FEW,M,M,M,2800.00,M,M,M,M,YBBN 092230Z 34009KT 9999 FEW028 25/16 Q1017
YBBN,2011-11-09 23:00,153.1292,-27.3917,78.80,60.80,54.05,360.00,9.00,M,30.03,M,6.21,M,FEW,M,M,M,2800.00,M,M,M,M,YBBN 092300Z 36009KT 9999 FEW028 26/16 Q1017 NOSIG
YBBN,2011-11-09 23:30,153.1292,-27.3917,78.80,59.00,50.69,10.00,8.00,M,30.03,M,6.21,M,FEW,M,M,M,2800.00,M,M,M,M,YBBN 092330Z 01008KT 9999 FEW028 26/15 Q1017
