#DEBUG: Format Typ    -> comma
#DEBUG: Time Period   -> 2014-03-12 00:00:00+00:00 2014-03-13 00:00:00+00:00
#DEBUG: Time Zone     -> Etc/UTC
#DEBUG: Data Contact   -> daryl herzmann akrherz@iastate.edu 515-294-5978
#DEBUG: Entries Found -> -1
station,valid,lon,lat,tmpf, dwpf, relh, drct, sknt, p01i, alti, mslp, vsby, gust, skyc1, skyc2, skyc3, skyc4, skyl1, skyl2, skyl3, skyl4, presentwx, metar
YBBN,2014-03-12 00:00,153.1292,-27.3917,77.00,60.80,57.36,140.00,8.00,0.00,30.06,M,6.21,M,SCT,BKN,M,M,3000.00,7000.00,M,M,M,YBBN 120000Z 14008KT 9999 SCT030 BKN070 25/16 Q1018 NOSIG
YBBN,2014-03-12 00:30,153.1292,-27.3917,78.80,60.80,54.05,120.00,8.00,0.00,30.06,M,6.21,M,SCT,BKN,M,M,3000.00,7500.00,M,M,M,YBBN 120030Z 12008KT 9999 SCT030 BKN075 26/16 Q1018
YBBN,2014-03-12 01:00,153.1292,-27.3917,80.60,59.00,47.79,130.00,9.00,0.00,30.03,M,6.21,M,FEW,M,M,M,3300.00,M,M,M,M,YBBN 120100Z 13009KT 9999 FEW033 27/15 Q1017 NOSIG
YBBN,2014-03-12 01:30,153.1292,-27.3917,80.60,60.80,50.95,110.00,9.00,0.00,30.03,M,6.21,M,SCT,M,M,M,3300.00,M,M,M,M,YBBN 120130Z 11009KT 9999 SCT033 27/16 Q1017
YBBN,2014-03-12 02:00,153.1292,-27.3917,82.40,62.60,51.21,120.00,10.00,0.00,30.03,M,6.21,M,SCT,SCT,M,M,3300.00,7000.00,M,M,M,YBBN 120200Z 12010KT 9999 SCT033 SCT070 28/17 Q1017 NOSIG
YBBN,2014-03-12 02:30,153.1292,-27.3917,80.60,60.80,50.95,110.00,11.00,0.00,30.00,M,6.21,M,FEW,SCT,M,M,1500.00,3300.00,M,M,M,YBBN 120230Z 11011KT 9999 FEW015 SCT033 27/16 Q1016
YBBN,2014-03-12 03:00,153.1292,-27.3917,80.60,60.80,50.95,110.00,9.00,0.00,30.00,M,6.21,M,FEW,SCT,M,M,1500.00,3500.00,M,M,M,YBBN 120300Z 11009KT 9999 FEW015 SCT035 27/16 Q1016
YBBN,2014-03-12 03:30,153.1292,-27.3917,80.60,59.00,47.79,120.00,8.00,0.00,30.00,M,6.21,M,FEW,SCT,M,M,3500.00,7000.00,M,M,M,YBBN 120330Z 12008KT 9999 FEW035 SCT070 27/15 Q1016
YBBN,2014-03-12 04:00,153.1292,-27.3917,80.60,57.20,44.80,110.00,9.00,0.00,29.97,M,6.21,M,FEW,M,M,M,3500.00,M,M,M,M,YBBN 120400Z 11009KT 9999 FEW035 27/14 Q1015 NOSIG
YBBN,2014-03-12 04:30,153.1292,-27.3917,80.60,60.80,50.95,90.00,10.00,0.00,29.97,M,6.21,M,FEW,M,M,M,3500.00,M,M,M,M,YBBN 120430Z 09010KT 9999 FEW035 27/16 Q1015
YBBN,2014-03-12 05:00,153.1292,-27.3917,80.60,59.00,47.79,90.00,9.00,0.00,29.97,M,6.21,M,FEW,M,M,M,3500.00,M,M,M,M,YBBN 120500Z 09009KT 9999 FEW035 27/15 Q1015 NOSIG
YBBN,2014-03-12 05:30,153.1292,-27.3917,80.60,60.80,50.95,100.00,9.00,0.00,29.97,M,6.21,M,FEW,M,M,M,3300.00,M,M,M,M,YBBN 120530Z 10009KT 9999 FEW033 27/16 Q1015
YBBN,2014-03-12 06:00,153.1292,-27.3917,78.80,60.80,54.05,90.00,9.00,0.00,29.97,M,6.21,M,FEW,M,M,M,3300.00,M,M,M,M,YBBN 120600Z 09009KT 9999 FEW033 26/16 Q1015 NOSIG
YBBN,2014-03-12 06:30,153.1292,-27.3917,78.80,62.60,57.60,90.00,8.00,0.00,29.97,M,6.21,M,FEW,M,M,M,3300.00,M,M,M,M,YBBN 120630Z 09008KT 9999 FEW033 26/17 Q1015
YBBN,2014-03-12 07:00,153.1292,-27.3917,77.00,60.80,57.36,90.00,8.00,0.00,29.97,M,6.21,M,FEW,M,M,M,3000.00,M,M,M,M,YBBN 120700Z 09008KT 9999 FEW030 25/16 Q1015 NOSIG
YBBN,2014-03-12 07:30,153.1292,-27.3917,77.00,62.60,61.13,100.00,8.00,0.00,29.97,M,6.21,M,FEW,M,M,M,3000.00,M,M,M,M,YBBN 120730Z 10008KT 9999 FEW030 25/17 Q1015
YBBN,2014-03-12 08:00,153.1292,-27.3917,77.00,60.80,57.36,110.00,7.00,0.00,30.00,M,6.21,M,FEW,M,M,M,2800.00,M,M,M,M,YBBN 120800Z 11007KT 9999 FEW028 25/16 Q1016
YBBN,2014-03-12 08:30,153.1292,-27.3917,75.20,60.80,60.90,110.00,6.00,0.00,30.00,M,6.21,M,FEW,M,M,M,2800.00,M,M,M,M,YBBN 120830Z 11006KT 9999 FEW028 24/16 Q1016
YBBN,2014-03-12 09:00,153.1292,-27.3917,75.20,62.60,64.91,100.00,7.00,0.00,30.00,M,6.21,M,FEW,M,M,M,2800.00,M,M,M,M,YBBN 120900Z 10007KT 9999 FEW028 24/17 Q1016 NOSIG
YBBN,2014-03-12 09:30,153.1292,-27.3917,75.20,62.60,64.91,110.00,6.00,0.00,30.00,M,6.21,M,FEW,M,M,M,3000.00,M,M,M,M,YBBN 120930Z 11006KT 9999 FEW030 24/17 Q1016
YBBN,2014-03-12 10:00,153.1292,-27.3917,75.20,62.60,64.91,110.00,5.00,0.00,30.03,M,6.21,M,FEW,M,M,M,3000.00,M,M,M,M,YBBN 121000Z 11005KT 9999 FEW030 24/17 Q1017 NOSIG
YBBN,2014-03-12 10:30,153.1292,-27.3917,73.40,64.40,73.44,110.00,5.00,0.00,30.03,M,6.21,M,FEW,M,M,M,2800.00,M,M,M,M,YBBN 121030Z 11005KT 9999 FEW028 23/18 Q1017
YBBN,2014-03-12 11:00,153.1292,-27.3917,73.40,64.40,73.44,120.00,4.00,0.00,30.03,M,6.21,M,FEW,M,M,M,2600.00,M,M,M,M,YBBN 121100Z 12004KT 9999 FEW026 23/18 Q1017
YBBN,2014-03-12 11:30,153.1292,-27.3917,73.40,64.40,73.44,110.00,5.00,0.00,30.03,M,6.21,M,FEW,M,M,M,3000.00,M,M,M,M,YBBN 121130Z 11005KT 9999 FEW030 23/18 Q1017
YBBN,2014-03-12 12:00,153.1292,-27.3917,73.40,64.40,73.44,110.00,4.00,0.00,30.03,M,6.21,M,FEW,M,M,M,3000.00,M,M,M,M,YBBN 121200Z 11004KT 9999 FEW030 23/18 Q1017 NOSIG
YBBN,2014-03-12 12:30,153.1292,-27.3917,71.60,64.40,78.04,110.00,3.00,0.00,30.03,M,6.21,M,FEW,M,M,M,3000.00,M,M,M,M,YBBN 121230Z 11003KT 9999 FEW030 22/18 Q1017
YBBN,2014-03-12 13:00,153.1292,-27.3917,69.80,64.40,82.98,200.00,4.00,0.00,30.03,M,6.21,M,FEW,M,M,M,3200.00,M,M,M,M,YBBN 121300Z 20004KT 9999 FEW032 21/18 Q1017 NOSIG
YBBN,2014-03-12 13:30,153.1292,-27.3917,69.80,62.60,77.90,200.00,4.00,0.00,30.03,M,6.21,M,FEW,M,M,M,3000.00,M,M,M,M,YBBN 121330Z 20004KT 9999 FEW030 21/17 Q1017
YBBN,2014-03-12 14:00,153.1292,-27.3917,69.80,64.40,82.98,190.00,5.00,0.00,30.00,M,6.21,M,FEW,M,M,M,1800.00,M,M,M,M,YBBN 121400Z 19005KT 9999 FEW018 21/18 Q1016 NOSIG
YBBN,2014-03-12 14:30,153.1292,-27.3917,68.00,64.40,88.26,200.00,5.00,0.00,30.00,M,6.21,M,FEW,M,M,M,1800.00,M,M,M,M,YBBN 121430Z 20005KT 9999 FEW018 20/18 Q1016
YBBN,2014-03-12 15:00,153.1292,-27.3917,68.00,62.60,82.86,190.00,5.00,0.00,30.00,M,6.21,M,FEW,M,M,M,3000.00,M,M,M,M,YBBN 121500Z 19005KT 9999 FEW030 20/17 Q1016
YBBN,2014-03-12 15:30,153.1292,-27.3917,68.00,62.60,82.86,190.00,5.00,0.00,30.00,M,6.21,M,FEW,M,M,M,3000.00,M,M,M,M,YBBN 121530Z 19005KT 9999 FEW030 20/17 Q1016
YBBN,2014-03-12 16:00,153.1292,-27.3917,68.00,62.60,82.86,190.00,5.00,0.00,29.97,M,6.21,M,FEW,M,M,M,2800.00,M,M,M,M,YBBN 121600Z 19005KT 9999 FEW028 20/17 Q1015 NOSIG
YBBN,2014-03-12 16:30,153.1292,-27.3917,66.20,62.60,88.18,200.00,5.00,0.00,29.97,M,6.21,M,FEW,M,M,M,3000.00,M,M,M,M,YBBN 121630Z 20005KT 9999 FEW030 19/17 Q1015
YBBN,2014-03-12 17:00,153.1292,-27.3917,66.20,62.60,88.18,200.00,5.00,0.00,29.97,M,6.21,M,FEW,M,M,M,3000.00,M,M,M,M,YBBN 121700Z 20005KT 9999 FEW030 19/17 Q1015
YBBN,2014-03-12 17:30,153.1292,-27.3917,66.20,62.60,88.18,200.00,7.00,0.00,29.97,M,6.21,M,FEW,M,M,M,3000.00,M,M,M,M,YBBN 121730Z 20007KT 9999 FEW030 19/17 Q1015
YBBN,2014-03-12 18:00,153.1292,-27.3917,64.40,60.80,88.09,210.00,7.00,0.00,29.97,M,6.21,M,FEW,M,M,M,3000.00,M,M,M,M,YBBN 121800Z 21007KT 9999 FEW030 18/16 Q1015 NOSIG
YBBN,2014-03-12 18:30,153.1292,-27.3917,64.40,60.80,88.09,210.00,8.00,0.00,29.97,M,6.21,M,FEW,M,M,M,2800.00,M,M,M,M,YBBN 121830Z 21008KT 9999 FEW028 18/16 Q1015
YBBN,2014-03-12 19:00,153.1292,-27.3917,64.40,60.80,88.09,210.00,7.00,0.00,30.00,M,6.21,M,FEW,M,M,M,3200.00,M,M,M,M,YBBN 121900Z 21007KT 9999 FEW032 18/16 Q1016
YBBN,2014-03-12 19:30,153.1292,-27.3917,64.40,60.80,88.09,210.00,7.00,0.00,30.00,M,6.21,M,FEW,M,M,M,3000.00,M,M,M,M,YBBN 121930Z 21007KT 9999 FEW030 18/16 Q1016
YBBN,2014-03-12 20:00,153.1292,-27.3917,64.40,60.80,88.09,200.00,8.00,0.00,30.00,M,6.21,M,FEW,M,M,M,3000.00,M,M,M,M,YBBN 122000Z 20008KT 9999 FEW030 18/16 Q1016 NOSIG
YBBN,2014-03-12 20:30,153.1292,-27.3917,66.20,62.60,88.18,200.00,8.00,0.00,30.03,M,6.21,M,FEW,M,M,M,3000.00,M,M,M,M,YBBN 122030Z 20008KT 9999 FEW030 19/17 Q1017
YBBN,2014-03-12 21:00,153.1292,-27.3917,69.80,62.60,77.90,210.00,8.00,0.00,30.03,M,6.21,M,FEW,M,M,M,3200.00,M,M,M,M,YBBN 122100Z 21008KT 9999 FEW032 21/17 Q1017 NOSIG
YBBN,2014-03-12 21:30,153.1292,-27.3917,71.60,62.60,73.27,210.00,9.00,0.00,30.03,M,6.21,M,FEW,M,M,M,3200.00,M,M,M,M,YBBN 122130Z 21009KT 9999 FEW032 22/17 Q1017
YBBN,2014-03-12 22:00,153.1292,-27.3917,73.40,62.60,68.94,190.00,7.00,0.00,30.03,M,6.21,M,FEW,M,M,M,3200.00,M,M,M,M,YBBN 122200Z 19007KT 9999 FEW032 23/17 Q1017 NOSIG
YBBN,2014-03-12 22:30,153.1292,-27.3917,77.00,62.60,61.13,160.00,8.00,0.00,30.06,M,6.21,M,FEW,M,M,M,3500.00,M,M,M,M,YBBN 122230Z 16008KT 9999 FEW035 25/17 Q1018
YBBN,2014-03-12 23:00,153.1292,-27.3917,78.80,62.60,57.60,140.00,7.00,0.00,30.06,M,6.21,M,SCT,M,M,M,3000.00,M,M,M,M,YBBN 122300Z 14007KT 9999 SCT030 26/17 Q1018 NOSIG
YBBN,2014-03-12 23:30,153.1292,-27.3917,78.80,60.80,54.05,120.00,9.00,0.00,30.06,M,6.21,M,SCT,M,M,M,3200.00,M,M,M,M,YBBN 122330Z 12009KT 9999 SCT032 26/16 Q1018
