#DEBUG: Format Typ    -> comma
#DEBUG: Time Period   -> 2013-09-25 00:00:00+00:00 2013-09-26 00:00:00+00:00
#DEBUG: Time Zone     -> Etc/UTC
#DEBUG: Data Contact   -> daryl herzmann akrherz@iastate.edu 515-294-5978
#DEBUG: Entries Found -> -1
station,valid,lon,lat,tmpf, dwpf, relh, drct, sknt, p01i, alti, mslp, vsby, gust, skyc1, skyc2, skyc3, skyc4, skyl1, skyl2, skyl3, skyl4, presentwx, metar
YBBN,2013-09-25 00:00,153.1292,-27.3917,78.80,62.60,57.60,50.00,8.00,0.00,29.88,M,6.21,M,M,M,M,M,M,M,M,M,M,YBBN 250000Z 05008KT CAVOK 26/17 Q1012 NOSIG
YBBN,2013-09-25 00:30,153.1292,-27.3917,80.60,60.80,50.95,70.00,8.00,0.00,29.88,M,6.21,M,M,M,M,M,M,M,M,M,M,YBBN 250030Z 07008KT CAVOK 27/16 Q1012
YBBN,2013-09-25 01:00,153.1292,-27.3917,82.40,62.60,51.21,50.00,9.00,0.00,29.88,M,6.21,M,M,M,M,M,M,M,M,M,M,YBBN 250100Z 05009KT CAVOK 28/17 Q1012 NOSIG
YBBN,2013-09-25 01:30,153.1292,-27.3917,82.40,62.60,51.21,40.00,9.00,0.00,29.85,M,6.21,M,M,M,M,M,M,M,M,M,M,YBBN 250130Z 04009KT CAVOK 28/17 Q1011 RMK HAZE
YBBN,2013-09-25 02:00,153.1292,-27.3917,84.20,59.00,42.52,40.00,8.00,0.00,29.85,M,6.21,M,M,M,M,M,M,M,M,M,M,YBBN 250200Z 04008KT CAVOK 29/15 Q1011
YBBN,2013-09-25 02:30,153.1292,-27.3917,82.40,60.80,48.05,10.00,11.00,0.00,29.85,M,6.21,M,M,M,M,M,M,M,M,M,M,YBBN 250230Z 01011KT CAVOK 28/16 Q1011
YBBN,2013-09-25 03:00,153.1292,-27.3917,82.40,59.00,45.07,30.00,11.00,0.00,29.85,M,6.21,M,M,M,M,M,M,M,M,M,M,YBBN 250300Z 03011KT CAVOK 28/15 Q1011
YBBN,2013-09-25 03:30,153.1292,-27.3917,82.40,60.80,48.05,20.00,11.00,0.00,29.85,M,6.21,M,M,M,M,M,M,M,M,M,M,YBBN 250330Z 02011KT CAVOK 28/16 Q1011 RMK HAZE
YBBN,2013-09-25 04:00,153.1292,-27.3917,84.20,55.40,37.35,30.00,10.00,0.00,29.83,M,6.21,M,M,M,M,M,M,M,M,M,M,YBBN 250400Z 03010KT CAVOK 29/13 Q1010 NOSIG
YBBN,2013-09-25 04:30,153.1292,-27.3917,80.60,59.00,47.79,40.00,11.00,0.00,29.83,M,6.21,M,M,M,M,M,M,M,M,M,M,YBBN 250430Z 04011KT CAVOK 27/15 Q1010 RMK HAZE
YBBN,2013-09-25 05:00,153.1292,-27.3917,80.60,60.80,50.95,20.00,10.00,0.00,29.83,M,6.21,M,M,M,M,M,M,M,M,M,M,YBBN 250500Z 02010KT CAVOK 27/16 Q1010 NOSIG
YBBN,2013-09-25 05:30,153.1292,-27.3917,80.60,60.80,50.95,10.00,10.00,0.00,29.83,M,6.21,M,M,M,M,M,M,M,M,M,M,YBBN 250530Z 01010KT CAVOK 27/16 Q1010 RMK HAZE
YBBN,2013-09-25 06:00,153.1292,-27.3917,78.80,59.00,50.69,10.00,8.00,0.00,29.83,M,6.21,M,M,M,M,M,M,M,M,M,M,YBBN 250600Z 01008KT CAVOK 26/15 Q1010 NOSIG
YBBN,2013-09-25 06:30,153.1292,-27.3917,78.80,62.60,57.60,20.00,8.00,0.00,29.83,M,6.21,M,M,M,M,M,M,M,M,M,M,YBBN 250630Z 02008KT CAVOK 26/17 Q1010
YBBN,2013-09-25 07:00,153.1292,-27.3917,77.00,60.80,57.36,30.00,6.00,0.00,29.85,M,6.21,M,M,M,M,M,M,M,M,M,M,YBBN 250700Z 03006KT CAVOK 25/16 Q1011 NOSIG
YBBN,2013-09-25 07:30,153.1292,-27.3917,73.40,64.40,73.44,20.00,5.00,0.00,29.85,M,6.21,M,M,M,M,M,M,M,M,M,M,YBBN 250730Z 02005KT CAVOK 23/18 Q1011
YBBN,2013-09-25 08:00,153.1292,-27.3917,71.60,64.40,78.04,40.00,4.00,0.00,29.85,M,6.21,M,M,M,M,M,M,M,M,M,M,YBBN 250800Z 04004KT CAVOK 22/18 Q1011 NOSIG
YBBN,2013-09-25 08:30,153.1292,-27.3917,71.60,66.20,83.09,60.00,5.00,0.00,29.88,M,6.21,M,M,M,M,M,M,M,M,M,M,YBBN 250830Z 06005KT CAVOK 22/19 Q1012
YBBN,2013-09-25 09:00,153.1292,-27.3917,69.80,66.20,88.34,50.00,5.00,0.00,29.88,M,6.21,M,M,M,M,M,M,M,M,M,M,YBBN 250900Z 05005KT CAVOK 21/19 Q1012 NOSIG
YBBN,2013-09-25 09:30,153.1292,-27.3917,71.60,66.20,83.09,50.00,5.00,0.00,29.88,M,6.21,M,M,M,M,M,M,M,M,M,M,YBBN 250930Z 05005KT CAVOK 22/19 Q1012
YBBN,2013-09-25 10:00,153.1292,-27.3917,69.80,66.20,88.34,30.00,5.00,0.00,29.91,M,6.21,M,M,M,M,M,M,M,M,M,M,YBBN 251000Z 03005KT CAVOK 21/19 Q1013
YBBN,2013-09-25 10:30,153.1292,-27.3917,69.80,68.00,94.01,40.00,4.00,0.00,29.91,M,6.21,M,M,M,M,M,M,M,M,M,M,YBBN 251030Z 04004KT CAVOK 21/20 Q1013
YBBN,2013-09-25 11:00,153.1292,-27.3917,68.00,68.00,100.00,30.00,4.00,0.00,29.91,M,6.21,M,M,M,M,M,M,M,M,M,M,YBBN 251100Z 03004KT CAVOK 20/20 Q1013
YBBN,2013-09-25 11:30,153.1292,-27.3917,69.80,68.00,94.01,60.00,4.00,0.00,29.91,M,6.21,M,M,M,M,M,M,M,M,M,M,YBBN 251130Z 06004KT CAVOK 21/20 Q1013
YBBN,2013-09-25 12:00,153.1292,-27.3917,69.80,68.00,94.01,0.00,0.00,0.00,29.91,M,6.21,M,M,M,M,M,M,M,M,M,M,YBBN 251200Z 00000KT CAVOK 21/20 Q1013 RMK HZ
YBBN,2013-09-25 12:30,153.1292,-27.3917,69.80,68.00,94.01,50.00,4.00,0.00,29.91,M,6.21,M,CLR,M,M,M,M,M,M,M,MIFG,YBBN 251230Z 05004KT 9999 MIFG SKC 21/20 Q1013
YBBN,2013-09-25 13:00,153.1292,-27.3917,69.80,68.00,94.01,0.00,0.00,0.00,29.91,M,6.21,M,CLR,M,M,M,M,M,M,M,MIFG,YBBN 251300Z 00000KT 9999 MIFG SKC 21/20 Q1013
YBBN,2013-09-25 13:30,153.1292,-27.3917,68.00,68.00,100.00,0.00,0.00,0.00,29.91,M,6.21,M,CLR,M,M,M,M,M,M,M,MIFG,YBBN 251330Z 00000KT 9999 MIFG SKC 20/20 Q1013
YBBN,2013-09-25 14:00,153.1292,-27.3917,66.20,66.20,100.00,0.00,0.00,0.00,29.91,M,6.21,M,CLR,M,M,M,M,M,M,M,MIFG,YBBN 251400Z 00000KT 9999 MIFG SKC 19/19 Q1013
YBBN,2013-09-25 14:30,153.1292,-27.3917,68.00,66.20,93.97,90.00,4.00,0.00,29.91,M,6.21,M,CLR,M,M,M,M,M,M,M,MIFG,YBBN 251430Z 09004KT 9999 MIFG SKC 20/19 Q1013
YBBN,2013-09-25 15:00,153.1292,-27.3917,64.40,64.40,100.00,80.00,3.00,0.00,29.91,M,6.21,M,CLR,M,M,M,M,M,M,M,MIFG,YBBN 251500Z 08003KT 9999 MIFG SKC 18/18 Q1013
YBBN,2013-09-25 15:19,153.1292,-27.3917,64.40,62.60,93.88,190.00,2.00,0.00,29.91,M,6.21,M,BKN,M,M,M,400.00,M,M,M,MIFG,YBBN 251519Z 19002KT 9999 MIFG BKN004 18/17 Q1013
YBBN,2013-09-25 15:30,153.1292,-27.3917,64.40,64.40,100.00,220.00,5.00,0.00,29.91,M,6.21,M,BKN,M,M,M,400.00,M,M,M,MIFG,YBBN 251530Z 22005KT 9999 MIFG BKN004 18/18 Q1013
YBBN,2013-09-25 16:00,153.1292,-27.3917,66.20,66.20,100.00,0.00,0.00,0.00,29.88,M,6.21,M,OVC,M,M,M,300.00,M,M,M,M,YBBN 251600Z 00000KT 9999 OVC003 19/19 Q1012
YBBN,2013-09-25 16:30,153.1292,-27.3917,66.20,66.20,100.00,0.00,0.00,0.00,29.88,M,6.21,M,OVC,M,M,M,400.00,M,M,M,M,YBBN 251630Z 00000KT 9999 OVC004 19/19 Q1012
YBBN,2013-09-25 17:00,153.1292,-27.3917,66.20,66.20,100.00,200.00,3.00,0.00,29.88,M,6.21,M,SCT,M,M,M,400.00,M,M,M,M,YBBN 251700Z 20003KT 9999 SCT004 19/19 Q1012
YBBN,2013-09-25 17:30,153.1292,-27.3917,66.20,66.20,100.00,190.00,5.00,0.00,29.88,M,6.21,M,BKN,M,M,M,500.00,M,M,M,M,YBBN 251730Z 19005KT 9999 BKN005 19/19 Q1012
YBBN,2013-09-25 18:00,153.1292,-27.3917,66.20,66.20,100.00,160.00,2.00,0.00,29.88,M,5.59,M,BKN,M,M,M,600.00,M,M,M,M,YBBN 251800Z 16002KT 9000 BKN006 19/19 Q1012
YBBN,2013-09-25 18:30,153.1292,-27.3917,66.20,66.20,100.00,0.00,0.00,0.00,29.88,M,5.59,M,SCT,M,M,M,600.00,M,M,M,MIFG,YBBN 251830Z 00000KT 9000 MIFG SCT006 19/19 Q1012
YBBN,2013-09-25 19:00,153.1292,-27.3917,68.00,66.20,93.97,10.00,8.00,0.00,29.88,M,5.59,M,SCT,M,M,M,600.00,M,M,M,MIFG,YBBN 251900Z 01008KT 9000 MIFG SCT006 20/19 Q1012
YBBN,2013-09-25 19:30,153.1292,-27.3917,68.00,66.20,93.97,330.00,6.00,0.00,29.88,M,5.59,M,SCT,SCT,M,M,700.00,1200.00,M,M,MIFG,YBBN 251930Z 33006KT 9000 6000S MIFG SCT007 SCT012 20/19 Q1012
YBBN,2013-09-25 20:00,153.1292,-27.3917,68.00,66.20,93.97,360.00,7.00,0.00,29.91,M,5.59,M,BKN,M,M,M,700.00,M,M,M,MIFG,YBBN 252000Z 36007KT 9000 MIFG BKN007 20/19 Q1013
YBBN,2013-09-25 20:30,153.1292,-27.3917,68.00,66.20,93.97,10.00,11.00,0.00,29.91,M,5.59,M,SCT,M,M,M,700.00,M,M,M,M,YBBN 252030Z 01011KT 9000 SCT007 20/19 Q1013
YBBN,2013-09-25 21:00,153.1292,-27.3917,69.80,66.20,88.34,360.00,10.00,0.00,29.91,M,6.21,M,BKN,M,M,M,800.00,M,M,M,M,YBBN 252100Z 36010KT 9999 BKN008 21/19 Q1013
YBBN,2013-09-25 21:30,153.1292,-27.3917,69.80,66.20,88.34,360.00,11.00,0.00,29.91,M,6.21,M,BKN,M,M,M,800.00,M,M,M,M,YBBN 252130Z 36011KT 9999 BKN008 21/19 Q1013
YBBN,2013-09-25 22:00,153.1292,-27.3917,69.80,66.20,88.34,350.00,9.00,0.00,29.91,M,6.21,M,BKN,M,M,M,800.00,M,M,M,M,YBBN 252200Z 35009KT 9999 BKN008 21/19 Q1013
YBBN,2013-09-25 22:30,153.1292,-27.3917,71.60,66.20,83.09,360.00,7.00,0.00,29.91,M,6.21,M,SCT,M,M,M,800.00,M,M,M,M,YBBN 252230Z 36007KT 9999 SCT008 22/19 Q1013
YBBN,2013-09-25 23:00,153.1292,-27.3917,71.60,66.20,83.09,10.00,8.00,0.00,29.91,M,6.21,M,FEW,M,M,M,1000.00,M,M,M,M,YBBN 252300Z 01008KT 9999 FEW010 22/19 Q1013
YBBN,2013-09-25 23:30,153.1292,-27.3917,75.20,66.20,73.61,10.00,8.00,0.00,29.91,M,6.21,M,FEW,M,M,M,1200.00,M,M,M,M,YBBN 252330Z 01008KT 9999 FEW012 24/19 Q1013 RMK HAZE
