#DEBUG: Format Typ    -> comma
#DEBUG: Time Period   -> 2014-03-19 00:00:00+00:00 2014-03-20 00:00:00+00:00
#DEBUG: Time Zone     -> Etc/UTC
#DEBUG: Data Contact   -> daryl herzmann akrherz@iastate.edu 515-294-5978
#DEBUG: Entries Found -> -1
station,valid,lon,lat,tmpf, dwpf, relh, drct, sknt, p01i, alti, mslp, vsby, gust, skyc1, skyc2, skyc3, skyc4, skyl1, skyl2, skyl3, skyl4, presentwx, metar
YBBN,2014-03-19 00:00,153.1292,-27.3917,82.40,66.20,58.08,90.00,7.00,0.00,30.15,M,6.21,M,SCT,M,M,M,2700.00,M,M,M,M,YBBN 190000Z 09007KT 9999 SCT027 28/19 Q1021 NOSIG
YBBN,2014-03-19 00:30,153.1292,-27.3917,82.40,66.20,58.08,60.00,9.00,0.00,30.15,M,6.21,M,SCT,M,M,M,3000.00,M,M,M,M,YBBN 190030Z 06009KT 9999 SCT030 28/19 Q1021
YBBN,2014-03-19 01:00,153.1292,-27.3917,84.20,66.20,54.80,60.00,10.00,0.00,30.15,M,6.21,M,SCT,M,M,M,2800.00,M,M,M,M,YBBN 190100Z 06010KT 9999 SCT028 29/19 Q1021
YBBN,2014-03-19 01:30,153.1292,-27.3917,82.40,64.40,54.55,50.00,10.00,0.00,30.15,M,6.21,M,SCT,M,M,M,2800.00,M,M,M,M,YBBN 190130Z 05010KT 9999 SCT028 28/18 Q1021
YBBN,2014-03-19 02:00,153.1292,-27.3917,82.40,66.20,58.08,60.00,9.00,0.00,30.12,M,6.21,M,SCT,M,M,M,3000.00,M,M,M,M,YBBN 190200Z 06009KT 9999 SCT030 28/19 Q1020 NOSIG
YBBN,2014-03-19 02:30,153.1292,-27.3917,82.40,66.20,58.08,70.00,10.00,0.00,30.12,M,6.21,M,FEW,M,M,M,3200.00,M,M,M,M,YBBN 190230Z 07010KT 9999 FEW032 28/19 Q1020
YBBN,2014-03-19 03:00,153.1292,-27.3917,82.40,64.40,54.55,60.00,9.00,0.00,30.12,M,6.21,M,FEW,M,M,M,3500.00,M,M,M,M,YBBN 190300Z 06009KT 9999 FEW035 28/18 Q1020
YBBN,2014-03-19 03:30,153.1292,-27.3917,82.40,66.20,58.08,50.00,9.00,0.00,30.09,M,6.21,M,FEW,M,M,M,3300.00,M,M,M,M,YBBN 190330Z 05009KT 9999 FEW033 28/19 Q1019
YBBN,2014-03-19 04:00,153.1292,-27.3917,82.40,66.20,58.08,70.00,10.00,0.00,30.09,M,6.21,M,FEW,M,M,M,3300.00,M,M,M,M,YBBN 190400Z 07010KT 9999 FEW033 28/19 Q1019 NOSIG
YBBN,2014-03-19 04:30,153.1292,-27.3917,82.40,64.40,54.55,60.00,11.00,0.00,30.09,M,6.21,M,FEW,M,M,M,3500.00,M,M,M,M,YBBN 190430Z 06011KT 9999 FEW035 28/18 Q1019
YBBN,2014-03-19 05:00,153.1292,-27.3917,82.40,64.40,54.55,60.00,13.00,0.00,30.09,M,6.21,M,FEW,M,M,M,3300.00,M,M,M,M,YBBN 190500Z 06013KT 9999 FEW033 28/18 Q1019 NOSIG
YBBN,2014-03-19 05:30,153.1292,-27.3917,80.60,66.20,61.58,60.00,11.00,0.00,30.09,M,6.21,M,FEW,M,M,M,3000.00,M,M,M,M,YBBN 190530Z 06011KT 9999 FEW030 27/19 Q1019
YBBN,2014-03-19 06:00,153.1292,-27.3917,80.60,68.00,65.54,80.00,10.00,0.00,30.09,M,6.21,M,FEW,M,M,M,2700.00,M,M,M,M,YBBN 190600Z 08010KT 9999 FEW027 27/20 Q1019
YBBN,2014-03-19 06:30,153.1292,-27.3917,80.60,68.00,65.54,90.00,8.00,0.00,30.09,M,6.21,M,FEW,M,M,M,2800.00,M,M,M,M,YBBN 190630Z 09008KT 9999 FEW028 27/20 Q1019
YBBN,2014-03-19 07:00,153.1292,-27.3917,78.80,66.20,65.33,80.00,7.00,0.00,30.09,M,6.21,M,FEW,M,M,M,2800.00,M,M,M,M,YBBN 190700Z 08007KT 9999 FEW028 26/19 Q1019
YBBN,2014-03-19 07:30,153.1292,-27.3917,78.80,66.20,65.33,100.00,9.00,0.00,30.12,M,6.21,M,FEW,SCT,M,M,2500.00,10000.00,M,M,M,YBBN 190730Z 10009KT 9999 FEW025 SCT100 26/19 Q1020
YBBN,2014-03-19 08:00,153.1292,-27.3917,77.00,66.20,69.33,100.00,7.00,0.00,30.12,M,6.21,M,SCT,SCT,M,M,2400.00,10500.00,M,M,M,YBBN 190800Z 10007KT 9999 SCT024 SCT105 25/19 Q1020
YBBN,2014-03-19 08:30,153.1292,-27.3917,77.00,66.20,69.33,100.00,8.00,0.00,30.12,M,6.21,M,FEW,BKN,M,M,2400.00,9000.00,M,M,M,YBBN 190830Z 10008KT 9999 FEW024 BKN090 25/19 Q1020
YBBN,2014-03-19 09:00,153.1292,-27.3917,77.00,66.20,69.33,110.00,8.00,0.00,30.15,M,6.21,M,FEW,BKN,M,M,2200.00,9000.00,M,M,M,YBBN 190900Z 11008KT 9999 FEW022 BKN090 25/19 Q1021
YBBN,2014-03-19 09:30,153.1292,-27.3917,77.00,66.20,69.33,110.00,8.00,0.00,30.15,M,6.21,M,FEW,SCT,M,M,2200.00,9000.00,M,M,M,YBBN 190930Z 11008KT 9999 FEW022 SCT090 25/19 Q1021
YBBN,2014-03-19 10:00,153.1292,-27.3917,77.00,66.20,69.33,110.00,8.00,0.00,30.15,M,6.21,M,FEW,SCT,M,M,2200.00,9000.00,M,M,M,YBBN 191000Z 11008KT 9999 FEW022 SCT090 25/19 Q1021 NOSIG
YBBN,2014-03-19 10:30,153.1292,-27.3917,77.00,66.20,69.33,110.00,7.00,0.00,30.18,M,6.21,M,FEW,SCT,M,M,2200.00,7000.00,M,M,M,YBBN 191030Z 11007KT 9999 FEW022 SCT070 25/19 Q1022
YBBN,2014-03-19 11:00,153.1292,-27.3917,77.00,66.20,69.33,110.00,8.00,0.00,30.18,M,6.21,M,FEW,M,M,M,2200.00,M,M,M,M,YBBN 191100Z 11008KT 9999 FEW022 25/19 Q1022 NOSIG
YBBN,2014-03-19 11:30,153.1292,-27.3917,77.00,66.20,69.33,110.00,7.00,0.00,30.18,M,6.21,M,FEW,M,M,M,2200.00,M,M,M,M,YBBN 191130Z 11007KT 9999 FEW022 25/19 Q1022
YBBN,2014-03-19 12:00,153.1292,-27.3917,77.00,66.20,69.33,110.00,7.00,0.00,30.18,M,6.21,M,FEW,BKN,M,M,2200.00,7000.00,M,M,-SHRA,YBBN 191200Z 11007KT 9999 -SHRA FEW022 BKN070 25/19 Q1022
YBBN,2014-03-19 12:30,153.1292,-27.3917,77.00,66.20,69.33,90.00,9.00,0.00,30.18,M,6.21,M,FEW,SCT,M,M,2000.00,6000.00,M,M,VCSH,YBBN 191230Z 09009KT 9999 VCSH FEW020 SCT060 25/19 Q1022
YBBN,2014-03-19 13:00,153.1292,-27.3917,77.00,66.20,69.33,90.00,7.00,0.00,30.15,M,6.21,M,SCT,BKN,M,M,2000.00,6000.00,M,M,VCSH,YBBN 191300Z 09007KT 9999 VCSH SCT020 BKN060 25/19 Q1021
YBBN,2014-03-19 13:30,153.1292,-27.3917,77.00,66.20,69.33,90.00,9.00,0.00,30.15,M,6.21,M,FEW,SCT,M,M,2200.00,7000.00,M,M,M,YBBN 191330Z 09009KT 9999 FEW022 SCT070 25/19 Q1021
YBBN,2014-03-19 14:00,153.1292,-27.3917,75.20,66.20,73.61,110.00,8.00,0.00,30.15,M,6.21,M,FEW,M,M,M,2200.00,M,M,M,M,YBBN 191400Z 11008KT 9999 FEW022 24/19 Q1021
YBBN,2014-03-19 14:30,153.1292,-27.3917,73.40,68.00,83.21,110.00,8.00,0.00,30.15,M,6.21,M,BKN,BKN,M,M,2200.00,6000.00,M,M,-SHRA,YBBN 191430Z 11008KT 9999 -SHRA BKN022 BKN060 23/20 Q1021
YBBN,2014-03-19 15:00,153.1292,-27.3917,75.20,68.00,78.34,100.00,9.00,0.00,30.15,M,6.21,M,SCT,BKN,M,M,2400.00,6000.00,M,M,VCSH,YBBN 191500Z 10009KT 9999 VCSH SCT024 BKN060 24/20 Q1021
YBBN,2014-03-19 15:30,153.1292,-27.3917,75.20,64.40,69.14,100.00,10.00,0.00,30.12,M,6.21,M,SCT,SCT,M,M,2600.00,6500.00,M,M,M,YBBN 191530Z 10010KT 9999 SCT026 SCT065 24/18 Q1020
YBBN,2014-03-19 16:00,153.1292,-27.3917,75.20,66.20,73.61,100.00,8.00,0.00,30.12,M,6.21,M,FEW,SCT,M,M,2500.00,7000.00,M,M,M,YBBN 191600Z 10008KT 9999 FEW025 SCT070 24/19 Q1020 NOSIG
YBBN,2014-03-19 16:30,153.1292,-27.3917,75.20,64.40,69.14,110.00,9.00,0.00,30.12,M,6.21,M,FEW,SCT,M,M,2500.00,7000.00,M,M,M,YBBN 191630Z 11009KT 9999 FEW025 SCT070 24/18 Q1020
YBBN,2014-03-19 17:00,153.1292,-27.3917,75.20,66.20,73.61,110.00,7.00,0.00,30.12,M,6.21,M,SCT,M,M,M,2300.00,M,M,M,M,YBBN 191700Z 11007KT 9999 SCT023 24/19 Q1020
YBBN,2014-03-19 17:30,153.1292,-27.3917,75.20,64.40,69.14,110.00,7.00,0.00,30.12,M,6.21,M,FEW,M,M,M,2000.00,M,M,M,M,YBBN 191730Z 11007KT 9999 FEW020 24/18 Q1020
YBBN,2014-03-19 18:00,153.1292,-27.3917,75.20,64.40,69.14,100.00,8.00,0.00,30.12,M,6.21,M,FEW,M,M,M,2500.00,M,M,M,M,YBBN 191800Z 10008KT 9999 FEW025 24/18 Q1020 NOSIG
YBBN,2014-03-19 18:30,153.1292,-27.3917,75.20,64.40,69.14,110.00,8.00,0.00,30.12,M,6.21,M,FEW,M,M,M,2500.00,M,M,M,M,YBBN 191830Z 11008KT 9999 FEW025 24/18 Q1020
YBBN,2014-03-19 19:00,153.1292,-27.3917,75.20,62.60,64.91,110.00,9.00,0.00,30.12,M,6.21,M,FEW,M,M,M,2500.00,M,M,M,M,YBBN 191900Z 11009KT 9999 FEW025 24/17 Q1020 NOSIG
YBBN,2014-03-19 19:30,153.1292,-27.3917,75.20,64.40,69.14,100.00,8.00,0.00,30.12,M,6.21,M,FEW,M,M,M,2500.00,M,M,M,M,YBBN 191930Z 10008KT 9999 FEW025 24/18 Q1020
YBBN,2014-03-19 20:00,153.1292,-27.3917,75.20,62.60,64.91,110.00,8.00,0.00,30.12,M,6.21,M,FEW,M,M,M,2500.00,M,M,M,M,YBBN 192000Z 11008KT 9999 FEW025 24/17 Q1020 NOSIG
YBBN,2014-03-19 20:30,153.1292,-27.3917,75.20,64.40,69.14,110.00,7.00,0.00,30.15,M,6.21,M,FEW,M,M,M,1800.00,M,M,M,M,YBBN 192030Z 11007KT 9999 FEW018 24/18 Q1021
YBBN,2014-03-19 21:00,153.1292,-27.3917,77.00,64.40,65.12,110.00,9.00,0.00,30.15,M,6.21,M,FEW,M,M,M,1800.00,M,M,M,VCSH,YBBN 192100Z 11009KT 9999 VCSH FEW018 25/18 Q1021 NOSIG
YBBN,2014-03-19 21:30,153.1292,-27.3917,77.00,66.20,69.33,100.00,8.00,0.00,30.15,M,6.21,M,FEW,SCT,M,M,1900.00,2600.00,M,M,VCSH,YBBN 192130Z 10008KT 9999 VCSH FEW019 SCT026 25/19 Q1021 RMK SHRA N/NW
YBBN,2014-03-19 22:00,153.1292,-27.3917,77.00,66.20,69.33,80.00,9.00,0.00,30.15,M,6.21,M,FEW,SCT,M,M,2200.00,2600.00,M,M,VCSH,YBBN 192200Z 08009KT 9999 VCSH FEW022 SCT026 25/19 Q1021 NOSIG
YBBN,2014-03-19 22:30,153.1292,-27.3917,78.80,64.40,61.36,90.00,9.00,0.00,30.15,M,6.21,M,FEW,BKN,M,M,2400.00,2800.00,M,M,M,YBBN 192230Z 09009KT 9999 FEW024 BKN028 26/18 Q1021 RMK DIST SHRA W/SW
YBBN,2014-03-19 23:00,153.1292,-27.3917,80.60,62.60,54.30,90.00,11.00,0.00,30.18,M,6.21,M,FEW,SCT,M,M,2400.00,2900.00,M,M,M,YBBN 192300Z 09011KT 9999 FEW024 SCT029 27/17 Q1022
YBBN,2014-03-19 23:30,153.1292,-27.3917,78.80,62.60,57.60,80.00,12.00,0.00,30.18,M,6.21,M,FEW,SCT,M,M,2400.00,3000.00,M,M,M,YBBN 192330Z 08012KT 9999 FEW024 SCT030 26/17 Q1022
