#DEBUG: Format Typ    -> comma
#DEBUG: Time Period   -> 2015-10-29 00:00:00+00:00 2015-10-30 00:00:00+00:00
#DEBUG: Time Zone     -> Etc/UTC
#DEBUG: Data Contact   -> daryl herzmann akrherz@iastate.edu 515-294-5978
#DEBUG: Entries Found -> -1
station,valid,lon,lat,tmpf, dwpf, relh, drct, sknt, p01i, alti, mslp, vsby, gust, skyc1, skyc2, skyc3, skyc4, skyl1, skyl2, skyl3, skyl4, presentwx, metar
YBBN,2015-10-29 00:00,153.1292,-27.3917,69.80,62.60,77.90,140.00,8.00,0.00,30.15,M,6.21,M,FEW,SCT,BKN,M,900.00,1600.00,4000.00,M,VCSH,YBBN 290000Z 14008KT 9999 VCSH FEW009 SCT016 BKN040 21/17 Q1021
YBBN,2015-10-29 00:30,153.1292,-27.3917,69.80,60.80,73.09,110.00,11.00,0.00,30.15,M,6.21,M,FEW,BKN,M,M,1000.00,1700.00,M,M,VCSH,YBBN 290030Z 11011KT 9999 VCSH FEW010 BKN017 21/16 Q1021
YBBN,2015-10-29 01:00,153.1292,-27.3917,71.60,60.80,68.75,140.00,8.00,0.00,30.15,M,6.21,M,FEW,SCT,BKN,M,1100.00,1800.00,4400.00,M,M,YBBN 290100Z 14008KT 9999 FEW011 SCT018 BKN044 22/16 Q1021 RMK DIST SHRA SW
YBBN,2015-10-29 01:30,153.1292,-27.3917,71.60,60.80,68.75,130.00,8.00,0.00,30.15,M,6.21,M,FEW,SCT,BKN,M,900.00,1800.00,4400.00,M,VCSH,YBBN 290130Z 13008KT 9999 VCSH FEW009 SCT018 BKN044 22/16 Q1021
YBBN,2015-10-29 02:00,153.1292,-27.3917,69.80,60.80,73.09,110.00,9.00,0.00,30.15,M,6.21,M,FEW,BKN,M,M,1200.00,2000.00,M,M,M,YBBN 290200Z 11009KT 9999 FEW012 BKN020 21/16 Q1021 RMK DIST -SHRA W/SW
YBBN,2015-10-29 02:30,153.1292,-27.3917,71.60,59.00,64.48,120.00,8.00,0.00,30.12,M,6.21,M,FEW,SCT,BKN,M,1200.00,2000.00,3800.00,M,VCSH,YBBN 290230Z 12008KT 9999 VCSH FEW012 SCT020 BKN038 22/15 Q1020
YBBN,2015-10-29 03:00,153.1292,-27.3917,69.80,59.00,68.55,120.00,8.00,0.00,30.12,M,6.21,M,FEW,SCT,BKN,M,1400.00,2000.00,3700.00,M,VCSH,YBBN 290300Z 12008KT 9999 VCSH FEW014 SCT020 BKN037 21/15 Q1020
YBBN,2015-10-29 03:20,153.1292,-27.3917,69.80,59.00,68.55,120.00,8.00,0.00,30.12,M,3.73,M,FEW,SCT,BKN,M,1400.00,2000.00,4200.00,M,-SHRA,YBBN 290320Z 12008KT 6000 -SHRA FEW014 SCT020 BKN042 21/15 Q1020
YBBN,2015-10-29 03:30,153.1292,-27.3917,69.80,59.00,68.55,110.00,9.00,0.00,30.12,M,3.73,M,FEW,SCT,BKN,M,1400.00,2000.00,4000.00,M,-SHRA,YBBN 290330Z 11009KT 6000 -SHRA FEW014 SCT020 BKN040 21/15 Q1020
YBBN,2015-10-29 04:00,153.1292,-27.3917,69.80,59.00,68.55,110.00,7.00,0.00,30.12,M,6.21,M,BKN,OVC,M,M,2900.00,3600.00,M,M,//,YBBN 290400Z AUTO 11007KT 070V140 9999 // BKN029 OVC036 21/15 Q1020
YBBN,2015-10-29 05:00,153.1292,-27.3917,71.60,57.20,60.44,110.00,8.00,0.00,30.09,M,6.21,M,FEW,SCT,BKN,M,2000.00,2300.00,3500.00,M,M,YBBN 290500Z 11008KT 9999 FEW020 SCT023 BKN035 22/14 Q1019
YBBN,2015-10-29 05:30,153.1292,-27.3917,71.60,57.20,60.44,110.00,7.00,0.00,30.12,M,6.21,M,FEW,BKN,M,M,2300.00,3500.00,M,M,M,YBBN 290530Z 11007KT 9999 FEW023 BKN035 22/14 Q1020 RMK DIST -SHRA WEST
YBBN,2015-10-29 06:00,153.1292,-27.3917,69.80,57.20,64.26,100.00,7.00,0.00,30.12,M,6.21,M,FEW,BKN,M,M,2300.00,3500.00,M,M,M,YBBN 290600Z 10007KT 9999 FEW023 BKN035 21/14 Q1020 NOSIG
YBBN,2015-10-29 06:30,153.1292,-27.3917,69.80,57.20,64.26,110.00,7.00,0.00,30.12,M,6.21,M,FEW,BKN,M,M,2000.00,3500.00,M,M,VCSH,YBBN 290630Z 11007KT 9999 VCSH FEW020 BKN035 21/14 Q1020
YBBN,2015-10-29 07:00,153.1292,-27.3917,69.80,57.20,64.26,110.00,8.00,0.00,30.12,M,6.21,M,FEW,BKN,M,M,2000.00,3700.00,M,M,M,YBBN 290700Z 11008KT 9999 FEW020 BKN037 21/14 Q1020
YBBN,2015-10-29 07:30,153.1292,-27.3917,69.80,55.40,60.21,100.00,7.00,0.00,30.12,M,6.21,M,FEW,BKN,M,M,2000.00,3700.00,M,M,M,YBBN 290730Z 10007KT 9999 FEW020 BKN037 21/13 Q1020
YBBN,2015-10-29 08:00,153.1292,-27.3917,69.80,57.20,64.26,100.00,5.00,0.00,30.15,M,6.21,M,FEW,SCT,BKN,M,2000.00,3700.00,5500.00,M,M,YBBN 290800Z 10005KT 9999 FEW020 SCT037 BKN055 21/14 Q1021 NOSIG
YBBN,2015-10-29 08:30,153.1292,-27.3917,69.80,55.40,60.21,100.00,7.00,0.00,30.15,M,6.21,M,FEW,SCT,BKN,M,2000.00,3700.00,5600.00,M,M,YBBN 290830Z 10007KT 9999 FEW020 SCT037 BKN056 21/13 Q1021
YBBN,2015-10-29 09:00,153.1292,-27.3917,69.80,57.20,64.26,90.00,7.00,0.00,30.15,M,6.21,M,FEW,SCT,BKN,M,2000.00,3800.00,5800.00,M,M,YBBN 290900Z 09007KT 9999 FEW020 SCT038 BKN058 21/14 Q1021
YBBN,2015-10-29 09:30,153.1292,-27.3917,69.80,57.20,64.26,90.00,6.00,0.00,30.15,M,6.21,M,FEW,BKN,M,M,2000.00,5900.00,M,M,M,YBBN 290930Z 09006KT 9999 FEW020 BKN059 21/14 Q1021
YBBN,2015-10-29 10:00,153.1292,-27.3917,69.80,57.20,64.26,90.00,7.00,0.00,30.18,M,6.21,M,FEW,SCT,BKN,M,1800.00,3400.00,5800.00,M,M,YBBN 291000Z 09007KT 9999 FEW018 SCT034 BKN058 21/14 Q1022
YBBN,2015-10-29 10:30,153.1292,-27.3917,69.80,57.20,64.26,90.00,7.00,0.00,30.18,M,6.21,M,FEW,SCT,BKN,M,2000.00,3500.00,5700.00,M,M,YBBN 291030Z 09007KT 9999 FEW020 SCT035 BKN057 21/14 Q1022
YBBN,2015-10-29 11:00,153.1292,-27.3917,69.80,55.40,60.21,90.00,7.00,0.00,30.18,M,6.21,M,FEW,SCT,BKN,M,1800.00,3600.00,5900.00,M,M,YBBN 291100Z 09007KT 9999 FEW018 SCT036 BKN059 21/13 Q1022
YBBN,2015-10-29 11:30,153.1292,-27.3917,69.80,55.40,60.21,90.00,7.00,0.00,30.18,M,6.21,M,FEW,SCT,BKN,M,1800.00,2000.00,5900.00,M,M,YBBN 291130Z 09007KT 9999 FEW018 SCT020 BKN059 21/13 Q1022
YBBN,2015-10-29 12:00,153.1292,-27.3917,69.80,57.20,64.26,90.00,7.00,0.00,30.18,M,6.21,M,FEW,BKN,BKN,M,2100.00,3700.00,5700.00,M,M,YBBN 291200Z 09007KT 9999 FEW021 BKN037 BKN057 21/14 Q1022
YBBN,2015-10-29 12:30,153.1292,-27.3917,68.00,57.20,68.35,90.00,6.00,0.00,30.18,M,6.21,M,FEW,SCT,BKN,M,2100.00,3900.00,5600.00,M,M,YBBN 291230Z 09006KT 9999 FEW021 SCT039 BKN056 20/14 Q1022
YBBN,2015-10-29 13:00,153.1292,-27.3917,69.80,55.40,60.21,90.00,6.00,0.00,30.18,M,6.21,M,FEW,BKN,BKN,M,2100.00,4000.00,5500.00,M,M,YBBN 291300Z 09006KT 9999 FEW021 BKN040 BKN055 21/13 Q1022
YBBN,2015-10-29 13:30,153.1292,-27.3917,69.80,55.40,60.21,90.00,7.00,0.00,30.18,M,6.21,M,FEW,BKN,BKN,M,2000.00,4100.00,5600.00,M,M,YBBN 291330Z 09007KT 9999 FEW020 BKN041 BKN056 21/13 Q1022 RMK GENERATED FROM 10/29 /2015 13:27 MESSAGE
YBBN,2015-10-29 14:00,153.1292,-27.3917,69.80,55.40,60.21,90.00,6.00,0.00,30.18,M,6.21,M,FEW,BKN,BKN,M,2200.00,3800.00,5500.00,M,M,YBBN 291400Z 09006KT 9999 FEW022 BKN038 BKN055 21/13 Q1022
YBBN,2015-10-29 14:30,153.1292,-27.3917,69.80,55.40,60.21,90.00,6.00,0.00,30.15,M,6.21,M,SCT,BKN,M,M,3900.00,5200.00,M,M,M,YBBN 291430Z 09006KT 9999 SCT039 BKN052 21/13 Q1021
YBBN,2015-10-29 15:00,153.1292,-27.3917,69.80,55.40,60.21,90.00,6.00,0.00,30.15,M,6.21,M,FEW,BKN,M,M,3800.00,5300.00,M,M,M,YBBN 291500Z 09006KT 9999 FEW038 BKN053 21/13 Q1021 NOSIG
YBBN,2015-10-29 15:30,153.1292,-27.3917,68.00,55.40,64.04,90.00,5.00,0.00,30.15,M,6.21,M,FEW,BKN,M,M,4000.00,5500.00,M,M,M,YBBN 291530Z 09005KT 9999 FEW040 BKN055 20/13 Q1021
YBBN,2015-10-29 16:00,153.1292,-27.3917,68.00,57.20,68.35,90.00,5.00,0.00,30.15,M,6.21,M,FEW,BKN,M,M,4200.00,5800.00,M,M,M,YBBN 291600Z 09005KT 9999 FEW042 BKN058 20/14 Q1021
YBBN,2015-10-29 16:30,153.1292,-27.3917,66.20,57.20,72.74,140.00,5.00,0.00,30.12,M,6.21,M,FEW,BKN,M,M,2300.00,6100.00,M,M,VCSH,YBBN 291630Z 14005KT 9999 VCSH FEW023 BKN061 19/14 Q1020
YBBN,2015-10-29 17:00,153.1292,-27.3917,66.20,59.00,77.60,160.00,5.00,0.00,30.12,M,6.21,M,FEW,BKN,M,M,2100.00,5800.00,M,M,M,YBBN 291700Z 16005KT 9999 FEW021 BKN058 19/15 Q1020 NOSIG
YBBN,2015-10-29 17:30,153.1292,-27.3917,66.20,59.00,77.60,140.00,4.00,0.00,30.12,M,6.21,M,FEW,BKN,M,M,2100.00,5900.00,M,M,VCSH,YBBN 291730Z 14004KT 9999 VCSH FEW021 BKN059 19/15 Q1020
YBBN,2015-10-29 18:00,153.1292,-27.3917,66.20,57.20,72.74,130.00,3.00,0.00,30.15,M,6.21,M,FEW,BKN,M,M,3900.00,6200.00,M,M,M,YBBN 291800Z 13003KT 9999 FEW039 BKN062 19/14 Q1021
YBBN,2015-10-29 18:30,153.1292,-27.3917,66.20,57.20,72.74,170.00,4.00,0.00,30.15,M,6.21,M,FEW,BKN,M,M,2000.00,6100.00,M,M,M,YBBN 291830Z 17004KT 9999 FEW020 BKN061 19/14 Q1021
YBBN,2015-10-29 19:00,153.1292,-27.3917,66.20,57.20,72.74,170.00,3.00,0.00,30.15,M,6.21,M,FEW,BKN,M,M,2000.00,6400.00,M,M,M,YBBN 291900Z 17003KT 9999 FEW020 BKN064 19/14 Q1021 NOSIG
YBBN,2015-10-29 19:30,153.1292,-27.3917,66.20,57.20,72.74,150.00,5.00,0.00,30.15,M,6.21,M,FEW,BKN,M,M,2100.00,6300.00,M,M,M,YBBN 291930Z 15005KT 9999 FEW021 BKN063 19/14 Q1021
YBBN,2015-10-29 20:00,153.1292,-27.3917,66.20,59.00,77.60,170.00,5.00,0.00,30.18,M,6.21,M,FEW,SCT,BKN,M,2200.00,3500.00,6500.00,M,VCSH,YBBN 292000Z 17005KT 9999 VCSH FEW022 SCT035 BKN065 19/15 Q1022 NOSIG
YBBN,2015-10-29 20:30,153.1292,-27.3917,66.20,59.00,77.60,170.00,5.00,0.00,30.18,M,6.21,M,FEW,SCT,BKN,M,1800.00,3500.00,6000.00,M,M,YBBN 292030Z 17005KT 9999 FEW018 SCT035 BKN060 19/15 Q1022
YBBN,2015-10-29 21:00,153.1292,-27.3917,68.00,59.00,72.92,170.00,5.00,0.00,30.18,M,6.21,M,FEW,BKN,M,M,2000.00,6000.00,M,M,M,YBBN 292100Z 17005KT 9999 FEW020 BKN060 20/15 Q1022 NOSIG
YBBN,2015-10-29 21:30,153.1292,-27.3917,69.80,55.40,60.21,150.00,5.00,0.00,30.18,M,6.21,M,FEW,BKN,M,M,2500.00,6000.00,M,M,M,YBBN 292130Z 15005KT 9999 FEW025 BKN060 21/13 Q1022
YBBN,2015-10-29 22:00,153.1292,-27.3917,71.60,55.40,56.63,130.00,6.00,0.00,30.18,M,6.21,M,FEW,BKN,M,M,2800.00,5500.00,M,M,M,YBBN 292200Z 13006KT 9999 FEW028 BKN055 22/13 Q1022 NOSIG
YBBN,2015-10-29 22:30,153.1292,-27.3917,71.60,55.40,56.63,120.00,7.00,0.00,30.21,M,6.21,M,FEW,BKN,M,M,3000.00,5500.00,M,M,M,YBBN 292230Z 12007KT 9999 FEW030 BKN055 22/13 Q1023
YBBN,2015-10-29 23:00,153.1292,-27.3917,71.60,57.20,60.44,130.00,6.00,0.00,30.21,M,6.21,M,FEW,BKN,M,M,3000.00,5500.00,M,M,M,YBBN 292300Z 13006KT 9999 FEW030 BKN055 22/14 Q1023 NOSIG
YBBN,2015-10-29 23:30,153.1292,-27.3917,73.40,57.20,56.88,130.00,7.00,0.00,30.21,M,6.21,M,SCT,BKN,M,M,3000.00,6000.00,M,M,VCSH,YBBN 292330Z 13007KT 9999 VCSH SCT030 BKN060 23/14 Q1023
