#DEBUG: Format Typ    -> comma
#DEBUG: Time Period   -> 2011-10-13 00:00:00+00:00 2011-10-14 00:00:00+00:00
#DEBUG: Time Zone     -> Etc/UTC
#DEBUG: Data Contact   -> daryl herzmann akrherz@iastate.edu 515-294-5978
#DEBUG: Entries Found -> -1
station,valid,lon,lat,tmpf, dwpf, relh, drct, sknt, p01i, alti, mslp, vsby, gust, skyc1, skyc2, skyc3, skyc4, skyl1, skyl2, skyl3, skyl4, presentwx, metar
YBBN,2011-10-13 00:30,153.1292,-27.3917,77.00,66.20,69.33,100.00,9.00,M,30.06,M,6.21,M,M,M,M,M,M,M,M,M,M,YBBN 130030Z 10009KT CAVOK 25/19 Q1018
YBBN,2011-10-13 01:30,153.1292,-27.3917,77.00,66.20,69.33,100.00,9.00,M,30.06,M,6.21,M,FEW,SCT,M,M,1700.00,20000.00,M,M,M,YBBN 130130Z 10009KT 9999 FEW017 SCT200 25/19 Q1018
YBBN,2011-10-13 02:30,153.1292,-27.3917,77.00,62.60,61.13,80.00,12.00,M,30.03,M,6.21,M,M,M,M,M,M,M,M,M,M,YBBN 130230Z 08012KT CAVOK 25/17 Q1017
YBBN,2011-10-13 03:30,153.1292,-27.3917,75.20,66.20,73.61,70.00,11.00,M,30.03,M,6.21,M,FEW,BKN,M,M,2000.00,26000.00,M,M,M,YBBN 130330Z 07011KT 9999 FEW020 BKN260 24/19 Q1017 RMK CB TOPS TO THE NORTH WEST
YBBN,2011-10-13 04:30,153.1292,-27.3917,73.40,66.20,78.19,70.00,11.00,M,30.00,M,6.21,M,FEW,SCT,BKN,M,1700.00,5500.00,16000.00,M,VCSH,YBBN 130430Z 07011KT 9999 VCSH FEW017 SCT055 BKN160 23/19 Q1016
YBBN,2011-10-13 05:30,153.1292,-27.3917,73.40,66.20,78.19,80.00,9.00,M,30.00,M,6.21,M,FEW,SCT,BKN,M,1500.00,6000.00,13000.00,M,VCSH,YBBN 130530Z 08009KT 9999 VCSH FEW015 SCT060 BKN130 23/19 Q1016
YBBN,2011-10-13 07:51,153.1292,-27.3917,64.40,62.60,93.88,350.00,4.00,M,30.03,M,6.21,M,FEW,SCT,BKN,M,900.00,4000.00,6600.00,M,M,YBBN 130751Z 35004KT 9999 FEW009 SCT040 BKN066 18/17 Q1017 RMK LIGHTNING TO THE SOUTH EAST TEMPO 0751/1051 VRB20G35KT 2000 TSRA BKN010 SCT030CB
YBBN,2011-10-13 08:30,153.1292,-27.3917,66.20,64.40,93.92,160.00,4.00,M,30.03,M,6.21,M,FEW,SCT,BKN,M,900.00,3000.00,6000.00,M,VCSH,YBBN 130830Z 16004KT 9999 VCSH FEW009 SCT030 BKN060 19/18 Q1017
YBBN,2011-10-13 09:30,153.1292,-27.3917,66.20,64.40,93.92,160.00,6.00,M,30.06,M,3.73,M,FEW,BKN,BKN,FEW,800.00,3000.00,5800.00,1800.00,-SHRA VCSH,YBBN 130930Z 16006KT 6000 -SHRA VCSH FEW008 BKN030 BKN058 FEW018TCU 19/18 Q1018 RMK DST TS TO SW AND E FM0930 07012KT 9999 -SHRA SCT025 BKN035 BKN045 TEMPO 0930/1230 VRB20G35KT 2000 TSRA BKN010 SCT030CB
YBBN,2011-10-13 09:44,153.1292,-27.3917,66.20,64.40,93.92,150.00,7.00,M,30.06,M,4.97,M,FEW,BKN,BKN,M,800.00,3500.00,6000.00,M,-SHRA VCSH,YBBN 130944Z 15007KT 8000 -SHRA VCSH FEW008 BKN035 BKN060 19/18 Q1018 RMK CLEARING FM0944 07012KT 9999 -SHRA SCT025 BKN035 BKN045 TEMPO 1000/1230 VRB20G35KT 2000 TSRA BKN010 SCT030CB
YBBN,2011-10-13 10:30,153.1292,-27.3917,66.20,64.40,93.92,140.00,9.00,M,30.09,M,6.21,M,FEW,SCT,BKN,M,600.00,4500.00,9200.00,M,M,YBBN 131030Z 14009KT 9999 FEW006 SCT045 BKN092 19/18 Q1019
YBBN,2011-10-13 11:46,153.1292,-27.3917,66.20,64.40,93.92,140.00,8.00,M,30.09,M,6.21,M,SCT,BKN,M,M,600.00,8200.00,M,M,M,YBBN 131146Z 14008KT 9999 SCT006 BKN082 19/18 Q1019 RMK CLEARING INTER 1146/1400 3000 SHRA BKN010 TEMPO 1400/1430 5000 RA BKN008
YBBN,2011-10-13 12:50,153.1292,-27.3917,64.40,62.60,93.88,170.00,7.00,M,30.09,M,5.59,M,SCT,BKN,M,M,700.00,4200.00,M,M,-SHRA,YBBN 131250Z 17007KT 9000 -SHRA SCT007 BKN042 18/17 Q1019 RMK CLEARING FM1250 14006KT 9999 -RA SCT008 BKN012 BKN060 INTER 1250/1400 3000 SHRA BKN010 TEMPO 1400/1550 5000 RA BKN008
YBBN,2011-10-13 13:09,153.1292,-27.3917,64.40,62.60,93.88,180.00,7.00,M,30.09,M,6.21,M,M,M,M,M,M,M,M,M,// //////,YBBN 131309Z 18007KT //// // ////// 18/17 Q1019 RMK VIS:9999 FM1309 14006KT 9999 -RA SCT008 BKN012 BKN060 INTER 1309/1400 3000 SHRA BKN010 TEMPO 1400/1609 5000 RA BKN008
YBBN,2011-10-13 14:00,153.1292,-27.3917,64.40,62.60,93.88,150.00,6.00,M,30.06,M,6.21,M,SCT,BKN,BKN,M,800.00,5500.00,20000.00,M,M,YBBN 131400Z 15006KT 9999 SCT008 BKN055 BKN200 18/17 Q1018 RMK CLEARING FM1400 14006KT 9999 -RA SCT008 BKN012 BKN060 TEMPO 1400/1700 5000 RA BKN008
YBBN,2011-10-13 14:30,153.1292,-27.3917,64.40,62.60,93.88,120.00,6.00,M,30.06,M,6.21,M,FEW,BKN,M,M,800.00,21000.00,M,M,M,YBBN 131430Z 12006KT 9999 FEW008 BKN210 18/17 Q1018
YBBN,2011-10-13 15:30,153.1292,-27.3917,66.20,62.60,88.18,110.00,7.00,M,30.03,M,6.21,M,FEW,BKN,M,M,1000.00,21000.00,M,M,M,YBBN 131530Z 11007KT 9999 FEW010 BKN210 19/17 Q1017
YBBN,2011-10-13 16:30,153.1292,-27.3917,66.20,62.60,88.18,90.00,9.00,M,30.00,M,6.21,M,FEW,BKN,M,M,1000.00,5700.00,M,M,M,YBBN 131630Z 09009KT 9999 FEW010 BKN057 19/17 Q1016
YBBN,2011-10-13 17:30,153.1292,-27.3917,66.20,62.60,88.18,120.00,5.00,M,30.00,M,6.21,M,FEW,M,M,M,800.00,M,M,M,M,YBBN 131730Z 12005KT 9999 FEW008 19/17 Q1016
YBBN,2011-10-13 18:30,153.1292,-27.3917,64.40,62.60,93.88,0.00,0.00,M,30.03,M,6.21,M,SCT,SCT,M,M,1000.00,4700.00,M,M,M,YBBN 131830Z 00000KT 9999 SCT010 SCT047 18/17 Q1017
YBBN,2011-10-13 19:30,153.1292,-27.3917,64.40,62.60,93.88,200.00,3.00,M,30.03,M,4.97,M,FEW,SCT,M,M,1100.00,6500.00,M,M,M,YBBN 131930Z 20003KT 8000 FEW011 SCT065 18/17 Q1017 RMK MIST
YBBN,2011-10-13 20:30,153.1292,-27.3917,64.40,64.40,100.00,230.00,7.00,M,30.03,M,4.97,M,FEW,BKN,M,M,1000.00,6800.00,M,M,M,YBBN 132030Z 23007KT 8000 FEW010 BKN068 18/18 Q1017 RMK DIST MIST
YBBN,2011-10-13 21:00,153.1292,-27.3917,66.20,64.40,93.92,230.00,7.00,M,30.03,M,5.59,M,FEW,BKN,M,M,1000.00,6800.00,M,M,M,YBBN 132100Z 23007KT 9000 FEW010 BKN068 19/18 Q1017 NOSIG
YBBN,2011-10-13 21:30,153.1292,-27.3917,66.20,64.40,93.92,230.00,6.00,M,30.06,M,6.21,M,FEW,SCT,BKN,M,1500.00,2700.00,6800.00,M,M,YBBN 132130Z 23006KT 9999 FEW015 SCT027 BKN068 19/18 Q1018
YBBN,2011-10-13 22:00,153.1292,-27.3917,68.00,64.40,88.26,220.00,5.00,M,30.06,M,6.21,M,SCT,BKN,BKN,M,1500.00,1800.00,3300.00,M,M,YBBN 132200Z 22005KT 9999 SCT015 BKN018 BKN033 20/18 Q1018 NOSIG
