#DEBUG: Format Typ    -> comma
#DEBUG: Time Period   -> 2014-01-01 00:00:00+00:00 2014-01-02 00:00:00+00:00
#DEBUG: Time Zone     -> Etc/UTC
#DEBUG: Data Contact   -> daryl herzmann akrherz@iastate.edu 515-294-5978
#DEBUG: Entries Found -> -1
station,valid,lon,lat,tmpf, dwpf, relh, drct, sknt, p01i, alti, mslp, vsby, gust, skyc1, skyc2, skyc3, skyc4, skyl1, skyl2, skyl3, skyl4, presentwx, metar
YBBN,2014-01-01 00:00,153.1292,-27.3917,80.60,62.60,54.30,110.00,13.00,0.00,29.97,M,6.21,M,FEW,M,M,M,3300.00,M,M,M,M,YBBN 010000Z 11013KT 9999 FEW033 27/17 Q1015 NOSIG
YBBN,2014-01-01 00:30,153.1292,-27.3917,80.60,60.80,50.95,110.00,11.00,0.00,29.97,M,6.21,M,SCT,BKN,M,M,4000.00,33000.00,M,M,M,YBBN 010030Z 11011KT 9999 SCT040 BKN330 27/16 Q1015
YBBN,2014-01-01 01:00,153.1292,-27.3917,80.60,60.80,50.95,130.00,10.00,0.00,29.94,M,6.21,M,FEW,SCT,M,M,4400.00,33000.00,M,M,M,YBBN 010100Z 13010KT 9999 FEW044 SCT330 27/16 Q1014 NOSIG
YBBN,2014-01-01 01:30,153.1292,-27.3917,80.60,62.60,54.30,110.00,11.00,0.00,29.94,M,6.21,M,FEW,M,M,M,4400.00,M,M,M,M,YBBN 010130Z 11011KT 9999 FEW044 27/17 Q1014
YBBN,2014-01-01 02:00,153.1292,-27.3917,80.60,60.80,50.95,130.00,9.00,0.00,29.97,M,6.21,M,FEW,M,M,M,4400.00,M,M,M,M,YBBN 010200Z 13009KT 9999 FEW044 27/16 Q1015
YBBN,2014-01-01 02:30,153.1292,-27.3917,82.40,62.60,51.21,130.00,10.00,0.00,29.94,M,6.21,M,FEW,M,M,M,4500.00,M,M,M,M,YBBN 010230Z 13010KT 9999 FEW045 28/17 Q1014 RMK SMOKE ALOFT
YBBN,2014-01-01 03:00,153.1292,-27.3917,82.40,62.60,51.21,120.00,10.00,0.00,29.94,M,6.21,M,FEW,M,M,M,4500.00,M,M,M,M,YBBN 010300Z 12010KT 9999 FEW045 28/17 Q1014 NOSIG
YBBN,2014-01-01 03:30,153.1292,-27.3917,80.60,62.60,54.30,60.00,13.00,0.00,29.94,M,6.21,M,FEW,M,M,M,3500.00,M,M,M,M,YBBN 010330Z 06013KT 9999 FEW035 27/17 Q1014 RMK SMOKE ALOFT
YBBN,2014-01-01 04:00,153.1292,-27.3917,80.60,62.60,54.30,60.00,12.00,0.00,29.94,M,6.21,M,FEW,M,M,M,3500.00,M,M,M,M,YBBN 010400Z 06012KT 9999 FEW035 27/17 Q1014 NOSIG
YBBN,2014-01-01 04:30,153.1292,-27.3917,80.60,62.60,54.30,70.00,11.00,0.00,29.91,M,6.21,M,FEW,M,M,M,3500.00,M,M,M,M,YBBN 010430Z 07011KT 9999 FEW035 27/17 Q1013 RMK SMOKE ALOFT
YBBN,2014-01-01 05:00,153.1292,-27.3917,80.60,60.80,50.95,60.00,11.00,0.00,29.91,M,6.21,M,FEW,M,M,M,3500.00,M,M,M,M,YBBN 010500Z 06011KT 9999 FEW035 27/16 Q1013 NOSIG
YBBN,2014-01-01 05:30,153.1292,-27.3917,80.60,62.60,54.30,60.00,11.00,0.00,29.91,M,6.21,M,FEW,M,M,M,3500.00,M,M,M,M,YBBN 010530Z 06011KT 9999 FEW035 27/17 Q1013 RMK SMOKE SW SECTOR  SMOKE ALOFT
YBBN,2014-01-01 06:00,153.1292,-27.3917,80.60,62.60,54.30,70.00,11.00,0.00,29.91,M,6.21,M,FEW,M,M,M,3500.00,M,M,M,M,YBBN 010600Z 07011KT 9999 FEW035 27/17 Q1013 NOSIG
YBBN,2014-01-01 06:30,153.1292,-27.3917,78.80,60.80,54.05,60.00,10.00,0.00,29.91,M,6.21,M,FEW,M,M,M,3500.00,M,M,M,M,YBBN 010630Z 06010KT 9999 FEW035 26/16 Q1013 RMK SMOKE PLUME APPROX. 2KM NW  SMOKE ALOFT
YBBN,2014-01-01 07:00,153.1292,-27.3917,78.80,60.80,54.05,60.00,9.00,0.00,29.91,M,6.21,M,FEW,M,M,M,3500.00,M,M,M,M,YBBN 010700Z 06009KT 9999 FEW035 26/16 Q1013
YBBN,2014-01-01 07:30,153.1292,-27.3917,77.00,62.60,61.13,60.00,9.00,0.00,29.91,M,6.21,M,FEW,BKN,M,M,3200.00,33000.00,M,M,M,YBBN 010730Z 06009KT 9999 FEW032 BKN330 25/17 Q1013 RMK SMOKE PLUME APPROX 2KM NW  SMOKE ALOFT
YBBN,2014-01-01 08:00,153.1292,-27.3917,77.00,60.80,57.36,60.00,9.00,0.00,29.91,M,6.21,M,FEW,BKN,M,M,3300.00,33000.00,M,M,M,YBBN 010800Z 06009KT 9999 FEW033 BKN330 25/16 Q1013 NOSIG
YBBN,2014-01-01 08:30,153.1292,-27.3917,77.00,62.60,61.13,60.00,7.00,0.00,29.94,M,6.21,M,FEW,BKN,M,M,3300.00,30000.00,M,M,M,YBBN 010830Z 06007KT 9999 FEW033 BKN300 25/17 Q1014
YBBN,2014-01-01 09:00,153.1292,-27.3917,75.20,62.60,64.91,50.00,7.00,0.00,29.94,M,6.21,M,FEW,BKN,M,M,3000.00,30000.00,M,M,M,YBBN 010900Z 05007KT 9999 FEW030 BKN300 24/17 Q1014
YBBN,2014-01-01 09:30,153.1292,-27.3917,75.20,62.60,64.91,50.00,7.00,0.00,29.94,M,6.21,M,M,M,M,M,M,M,M,M,M,YBBN 010930Z 05007KT CAVOK 24/17 Q1014
YBBN,2014-01-01 10:00,153.1292,-27.3917,73.40,62.60,68.94,30.00,9.00,0.00,29.91,M,6.21,M,M,M,M,M,M,M,M,M,M,YBBN 011000Z 03009KT CAVOK 23/17 Q1013 NOSIG
YBBN,2014-01-01 10:30,153.1292,-27.3917,73.40,62.60,68.94,30.00,7.00,0.00,29.94,M,6.21,M,M,M,M,M,M,M,M,M,M,YBBN 011030Z 03007KT CAVOK 23/17 Q1014
YBBN,2014-01-01 11:00,153.1292,-27.3917,73.40,62.60,68.94,40.00,7.00,0.00,29.94,M,6.21,M,M,M,M,M,M,M,M,M,M,YBBN 011100Z 04007KT CAVOK 23/17 Q1014 NOSIG
YBBN,2014-01-01 11:30,153.1292,-27.3917,73.40,62.60,68.94,40.00,6.00,0.00,29.94,M,6.21,M,FEW,BKN,M,M,3000.00,30000.00,M,M,M,YBBN 011130Z 04006KT 9999 FEW030 BKN300 23/17 Q1014
YBBN,2014-01-01 12:00,153.1292,-27.3917,73.40,64.40,73.44,50.00,6.00,0.00,29.94,M,6.21,M,FEW,BKN,M,M,3000.00,30000.00,M,M,M,YBBN 011200Z 05006KT 9999 FEW030 BKN300 23/18 Q1014 NOSIG
YBBN,2014-01-01 12:30,153.1292,-27.3917,71.60,64.40,78.04,30.00,6.00,0.00,29.94,M,6.21,M,FEW,BKN,M,M,3000.00,30000.00,M,M,M,YBBN 011230Z 03006KT 9999 FEW030 BKN300 22/18 Q1014
YBBN,2014-01-01 13:00,153.1292,-27.3917,71.60,62.60,73.27,40.00,6.00,0.00,29.94,M,6.21,M,M,M,M,M,M,M,M,M,M,YBBN 011300Z 04006KT CAVOK 22/17 Q1014 NOSIG
YBBN,2014-01-01 13:30,153.1292,-27.3917,71.60,62.60,73.27,30.00,7.00,0.00,29.91,M,6.21,M,M,M,M,M,M,M,M,M,M,YBBN 011330Z 03007KT CAVOK 22/17 Q1013
YBBN,2014-01-01 14:00,153.1292,-27.3917,71.60,64.40,78.04,30.00,7.00,0.00,29.91,M,6.21,M,FEW,BKN,M,M,4000.00,30000.00,M,M,M,YBBN 011400Z 03007KT 9999 FEW040 BKN300 22/18 Q1013 NOSIG
YBBN,2014-01-01 14:30,153.1292,-27.3917,71.60,62.60,73.27,20.00,5.00,0.00,29.91,M,6.21,M,FEW,BKN,M,M,4000.00,30000.00,M,M,M,YBBN 011430Z 02005KT 9999 FEW040 BKN300 22/17 Q1013
YBBN,2014-01-01 15:00,153.1292,-27.3917,71.60,62.60,73.27,30.00,5.00,0.00,29.88,M,6.21,M,M,M,M,M,M,M,M,M,M,YBBN 011500Z 03005KT CAVOK 22/17 Q1012 NOSIG
YBBN,2014-01-01 15:30,153.1292,-27.3917,71.60,64.40,78.04,280.00,4.00,0.00,29.88,M,6.21,M,M,M,M,M,M,M,M,M,M,YBBN 011530Z 28004KT CAVOK 22/18 Q1012
YBBN,2014-01-01 16:00,153.1292,-27.3917,71.60,64.40,78.04,250.00,3.00,0.00,29.85,M,6.21,M,M,M,M,M,M,M,M,M,M,YBBN 011600Z 25003KT CAVOK 22/18 Q1011 NOSIG
YBBN,2014-01-01 16:30,153.1292,-27.3917,69.80,64.40,82.98,270.00,5.00,0.00,29.85,M,6.21,M,FEW,SCT,BKN,M,2600.00,22000.00,30000.00,M,M,YBBN 011630Z 27005KT 9999 FEW026 SCT220 BKN300 21/18 Q1011
YBBN,2014-01-01 17:00,153.1292,-27.3917,69.80,64.40,82.98,270.00,3.00,0.00,29.85,M,6.21,M,SCT,SCT,BKN,M,2800.00,24000.00,30000.00,M,M,YBBN 011700Z 27003KT 9999 SCT028 SCT240 BKN300 21/18 Q1011 NOSIG
YBBN,2014-01-01 17:30,153.1292,-27.3917,71.60,62.60,73.27,270.00,3.00,0.00,29.85,M,6.21,M,FEW,SCT,BKN,M,2800.00,23000.00,30000.00,M,M,YBBN 011730Z 27003KT 9999 FEW028 SCT230 BKN300 22/17 Q1011
YBBN,2014-01-01 18:00,153.1292,-27.3917,69.80,64.40,82.98,330.00,4.00,0.00,29.85,M,6.21,M,M,M,M,M,M,M,M,M,M,YBBN 011800Z 33004KT CAVOK 21/18 Q1011 NOSIG
YBBN,2014-01-01 18:30,153.1292,-27.3917,69.80,62.60,77.90,0.00,0.00,0.00,29.85,M,6.21,M,M,M,M,M,M,M,M,M,M,YBBN 011830Z 00000KT CAVOK 21/17 Q1011
YBBN,2014-01-01 19:00,153.1292,-27.3917,69.80,62.60,77.90,0.00,0.00,0.00,29.88,M,6.21,M,M,M,M,M,M,M,M,M,M,YBBN 011900Z 00000KT CAVOK 21/17 Q1012 NOSIG
YBBN,2014-01-01 19:30,153.1292,-27.3917,69.80,62.60,77.90,290.00,3.00,0.00,29.88,M,6.21,M,M,M,M,M,M,M,M,M,M,YBBN 011930Z 29003KT CAVOK 21/17 Q1012
YBBN,2014-01-01 20:00,153.1292,-27.3917,69.80,64.40,82.98,260.00,5.00,0.00,29.88,M,6.21,M,FEW,BKN,M,M,3000.00,30000.00,M,M,M,YBBN 012000Z 26005KT 9999 FEW030 BKN300 21/18 Q1012 NOSIG
YBBN,2014-01-01 20:30,153.1292,-27.3917,73.40,64.40,73.44,280.00,6.00,0.00,29.88,M,6.21,M,FEW,BKN,M,M,2500.00,30000.00,M,M,M,YBBN 012030Z 28006KT 9999 FEW025 BKN300 23/18 Q1012
YBBN,2014-01-01 21:00,153.1292,-27.3917,75.20,64.40,69.14,300.00,9.00,0.00,29.88,M,6.21,M,FEW,BKN,M,M,2500.00,30000.00,M,M,M,YBBN 012100Z 30009KT 9999 FEW025 BKN300 24/18 Q1012 NOSIG
YBBN,2014-01-01 21:30,153.1292,-27.3917,77.00,64.40,65.12,320.00,10.00,0.00,29.88,M,6.21,M,FEW,BKN,M,M,3000.00,30000.00,M,M,M,YBBN 012130Z 32010KT 9999 FEW030 BKN300 25/18 Q1012
YBBN,2014-01-01 22:00,153.1292,-27.3917,77.00,64.40,65.12,330.00,10.00,0.00,29.88,M,6.21,M,FEW,SCT,BKN,M,3000.00,16000.00,30000.00,M,M,YBBN 012200Z 33010KT 9999 FEW030 SCT160 BKN300 25/18 Q1012 NOSIG
YBBN,2014-01-01 22:30,153.1292,-27.3917,78.80,62.60,57.60,330.00,10.00,0.00,29.85,M,6.21,M,FEW,SCT,BKN,M,2700.00,16000.00,30000.00,M,M,YBBN 012230Z 33010KT 9999 FEW027 SCT160 BKN300 26/17 Q1011
YBBN,2014-01-01 23:00,153.1292,-27.3917,78.80,62.60,57.60,350.00,11.00,0.00,29.85,M,6.21,M,FEW,SCT,BKN,M,2000.00,16000.00,30000.00,M,M,YBBN 012300Z 35011KT 9999 FEW020 SCT160 BKN300 26/17 Q1011 NOSIG
YBBN,2014-01-01 23:30,153.1292,-27.3917,78.80,64.40,61.36,360.00,10.00,0.00,29.85,M,6.21,M,FEW,SCT,BKN,M,3500.00,17000.00,30000.00,M,M,YBBN 012330Z 36010KT 9999 FEW035 SCT170 BKN300 26/18 Q1011
