#DEBUG: Format Typ    -> comma
#DEBUG: Time Period   -> 2012-09-19 00:00:00+00:00 2012-09-20 00:00:00+00:00
#DEBUG: Time Zone     -> Etc/UTC
#DEBUG: Data Contact   -> daryl herzmann akrherz@iastate.edu 515-294-5978
#DEBUG: Entries Found -> -1
station,valid,lon,lat,tmpf, dwpf, relh, drct, sknt, p01i, alti, mslp, vsby, gust, skyc1, skyc2, skyc3, skyc4, skyl1, skyl2, skyl3, skyl4, presentwx, metar
YBBN,2012-09-19 00:00,153.1292,-27.3917,71.60,57.20,60.44,60.00,6.00,0.00,30.06,M,6.21,M,FEW,M,M,M,4000.00,M,M,M,M,YBBN 190000Z 06006KT 9999 FEW040 22/14 Q1018 NOSIG
YBBN,2012-09-19 00:30,153.1292,-27.3917,71.60,57.20,60.44,20.00,5.00,0.00,30.03,M,6.21,M,FEW,M,M,M,3500.00,M,M,M,M,YBBN 190030Z 02005KT 9999 FEW035 22/14 Q1017
YBBN,2012-09-19 01:00,153.1292,-27.3917,73.40,59.00,60.67,20.00,7.00,0.00,30.03,M,6.21,M,FEW,M,M,M,3500.00,M,M,M,M,YBBN 190100Z 02007KT 9999 FEW035 23/15 Q1017
YBBN,2012-09-19 01:30,153.1292,-27.3917,75.20,59.00,57.12,20.00,9.00,0.00,30.00,M,6.21,M,FEW,M,M,M,3500.00,M,M,M,M,YBBN 190130Z 02009KT 9999 FEW035 24/15 Q1016
YBBN,2012-09-19 02:00,153.1292,-27.3917,75.20,59.00,57.12,50.00,10.00,0.00,30.00,M,6.21,M,FEW,M,M,M,3500.00,M,M,M,M,YBBN 190200Z 05010KT 9999 FEW035 24/15 Q1016 NOSIG
YBBN,2012-09-19 02:30,153.1292,-27.3917,75.20,59.00,57.12,30.00,10.00,0.00,29.97,M,6.21,M,FEW,M,M,M,3500.00,M,M,M,M,YBBN 190230Z 03010KT 9999 FEW035 24/15 Q1015
YBBN,2012-09-19 03:00,153.1292,-27.3917,73.40,60.80,64.69,30.00,14.00,0.00,29.97,M,6.21,M,FEW,M,M,M,3500.00,M,M,M,M,YBBN 190300Z 03014KT 9999 FEW035 23/16 Q1015 NOSIG
YBBN,2012-09-19 03:30,153.1292,-27.3917,73.40,59.00,60.67,40.00,12.00,0.00,29.94,M,6.21,M,FEW,M,M,M,3500.00,M,M,M,M,YBBN 190330Z 04012KT 9999 FEW035 23/15 Q1014 RMK CB TOP 50KM TO W
YBBN,2012-09-19 04:00,153.1292,-27.3917,73.40,59.00,60.67,30.00,13.00,0.00,29.94,M,6.21,M,FEW,M,M,M,3200.00,M,M,M,M,YBBN 190400Z 03013KT 9999 FEW032 23/15 Q1014 NOSIG
YBBN,2012-09-19 04:30,153.1292,-27.3917,73.40,59.00,60.67,20.00,14.00,0.00,29.91,M,6.21,M,FEW,M,M,M,3200.00,M,M,M,M,YBBN 190430Z 02014KT 9999 FEW032 23/15 Q1013
YBBN,2012-09-19 05:00,153.1292,-27.3917,73.40,60.80,64.69,20.00,16.00,0.00,29.91,M,6.21,M,FEW,M,M,M,3200.00,M,M,M,M,YBBN 190500Z 02016KT 9999 FEW032 23/16 Q1013
YBBN,2012-09-19 05:30,153.1292,-27.3917,71.60,60.80,68.75,10.00,16.00,0.00,29.91,M,6.21,M,FEW,M,M,M,3200.00,M,M,M,M,YBBN 190530Z 01016KT 9999 FEW032 22/16 Q1013
YBBN,2012-09-19 06:00,153.1292,-27.3917,71.60,60.80,68.75,10.00,14.00,0.00,29.91,M,6.21,M,FEW,M,M,M,3000.00,M,M,M,M,YBBN 190600Z 01014KT 9999 FEW030 22/16 Q1013 NOSIG
YBBN,2012-09-19 06:30,153.1292,-27.3917,69.80,62.60,77.90,360.00,15.00,0.00,29.94,M,6.21,M,FEW,M,M,M,3500.00,M,M,M,M,YBBN 190630Z 36015KT 9999 FEW035 21/17 Q1014
YBBN,2012-09-19 07:00,153.1292,-27.3917,69.80,62.60,77.90,10.00,12.00,0.00,29.94,M,6.21,M,FEW,M,M,M,3500.00,M,M,M,M,YBBN 190700Z 01012KT 9999 FEW035 21/17 Q1014 NOSIG
YBBN,2012-09-19 07:30,153.1292,-27.3917,68.00,62.60,82.86,10.00,14.00,0.00,29.94,M,6.21,M,FEW,M,M,M,3500.00,M,M,M,M,YBBN 190730Z 01014KT 9999 FEW035 20/17 Q1014
YBBN,2012-09-19 08:00,153.1292,-27.3917,68.00,62.60,82.86,360.00,12.00,0.00,29.94,M,6.21,M,FEW,M,M,M,4000.00,M,M,M,M,YBBN 190800Z 36012KT 9999 FEW040 20/17 Q1014 NOSIG
YBBN,2012-09-19 08:30,153.1292,-27.3917,68.00,62.60,82.86,10.00,11.00,0.00,29.94,M,6.21,M,FEW,SCT,M,M,4000.00,30000.00,M,M,M,YBBN 190830Z 01011KT 9999 FEW040 SCT300 20/17 Q1014
YBBN,2012-09-19 09:00,153.1292,-27.3917,68.00,64.40,88.26,360.00,9.00,0.00,29.97,M,6.21,M,FEW,BKN,M,M,4000.00,30000.00,M,M,M,YBBN 190900Z 36009KT 9999 FEW040 BKN300 20/18 Q1015
YBBN,2012-09-19 09:30,153.1292,-27.3917,68.00,64.40,88.26,360.00,9.00,0.00,29.97,M,6.21,M,FEW,BKN,M,M,1600.00,30000.00,M,M,M,YBBN 190930Z 36009KT 9999 FEW016 BKN300 20/18 Q1015
YBBN,2012-09-19 10:00,153.1292,-27.3917,68.00,64.40,88.26,360.00,8.00,0.00,30.00,M,6.21,M,FEW,SCT,M,M,1600.00,24000.00,M,M,M,YBBN 191000Z 36008KT 9999 FEW016 SCT240 20/18 Q1016 NOSIG
YBBN,2012-09-19 10:30,153.1292,-27.3917,68.00,64.40,88.26,360.00,9.00,0.00,30.00,M,6.21,M,FEW,SCT,M,M,1600.00,24000.00,M,M,M,YBBN 191030Z 36009KT 9999 FEW016 SCT240 20/18 Q1016
YBBN,2012-09-19 11:00,153.1292,-27.3917,68.00,64.40,88.26,350.00,8.00,0.00,30.00,M,6.21,M,FEW,M,M,M,1600.00,M,M,M,M,YBBN 191100Z 35008KT 9999 FEW016 20/18 Q1016
YBBN,2012-09-19 11:30,153.1292,-27.3917,66.20,62.60,88.18,360.00,11.00,0.00,30.00,M,6.21,M,FEW,M,M,M,1600.00,M,M,M,M,YBBN 191130Z 36011KT 9999 FEW016 19/17 Q1016
YBBN,2012-09-19 12:00,153.1292,-27.3917,66.20,62.60,88.18,360.00,11.00,0.00,30.00,M,6.21,M,FEW,M,M,M,1600.00,M,M,M,M,YBBN 191200Z 36011KT 9999 FEW016 19/17 Q1016 NOSIG
YBBN,2012-09-19 12:30,153.1292,-27.3917,66.20,62.60,88.18,360.00,11.00,0.00,30.00,M,6.21,M,M,M,M,M,M,M,M,M,M,YBBN 191230Z 36011KT CAVOK 19/17 Q1016
YBBN,2012-09-19 13:00,153.1292,-27.3917,66.20,62.60,88.18,350.00,9.00,0.00,30.00,M,6.21,M,M,M,M,M,M,M,M,M,M,YBBN 191300Z 35009KT CAVOK 19/17 Q1016
YBBN,2012-09-19 13:30,153.1292,-27.3917,64.40,62.60,93.88,330.00,8.00,0.00,30.00,M,6.21,M,M,M,M,M,M,M,M,M,M,YBBN 191330Z 33008KT CAVOK 18/17 Q1016
YBBN,2012-09-19 14:00,153.1292,-27.3917,64.40,60.80,88.09,310.00,5.00,0.00,30.00,M,6.21,M,M,M,M,M,M,M,M,M,M,YBBN 191400Z 31005KT CAVOK 18/16 Q1016 NOSIG
YBBN,2012-09-19 14:30,153.1292,-27.3917,62.60,60.80,93.83,250.00,6.00,0.00,30.00,M,6.21,M,M,M,M,M,M,M,M,M,M,YBBN 191430Z 25006KT CAVOK 17/16 Q1016
YBBN,2012-09-19 15:00,153.1292,-27.3917,60.80,59.00,93.79,220.00,5.00,0.00,30.00,M,6.21,M,M,M,M,M,M,M,M,M,M,YBBN 191500Z 22005KT CAVOK 16/15 Q1016 NOSIG
YBBN,2012-09-19 15:30,153.1292,-27.3917,60.80,59.00,93.79,0.00,0.00,0.00,30.00,M,6.21,M,SCT,M,M,M,24000.00,M,M,M,MIFG,YBBN 191530Z 00000KT 9999 MIFG SCT240 16/15 Q1016
YBBN,2012-09-19 16:00,153.1292,-27.3917,59.00,59.00,100.00,270.00,1.00,0.00,29.97,M,6.21,M,M,M,M,M,M,M,M,M,M,YBBN 191600Z 27001KT CAVOK 15/15 Q1015
YBBN,2012-09-19 16:30,153.1292,-27.3917,60.80,59.00,93.79,0.00,0.00,0.00,29.97,M,6.21,M,FEW,M,M,M,24000.00,M,M,M,MIFG,YBBN 191630Z 00000KT 9999 MIFG FEW240 16/15 Q1015
YBBN,2012-09-19 17:00,153.1292,-27.3917,60.80,59.00,93.79,0.00,0.00,0.00,29.97,M,6.21,M,SCT,M,M,M,24000.00,M,M,M,MIFG,YBBN 191700Z 00000KT 9999 MIFG SCT240 16/15 Q1015
YBBN,2012-09-19 17:30,153.1292,-27.3917,59.00,57.20,93.74,270.00,4.00,0.00,29.97,M,6.21,M,M,M,M,M,M,M,M,M,M,YBBN 191730Z 27004KT CAVOK 15/14 Q1015
YBBN,2012-09-19 18:00,153.1292,-27.3917,59.00,59.00,100.00,200.00,5.00,0.00,29.97,M,6.21,M,M,M,M,M,M,M,M,M,M,YBBN 191800Z 20005KT CAVOK 15/15 Q1015 NOSIG
YBBN,2012-09-19 18:30,153.1292,-27.3917,59.00,59.00,100.00,190.00,5.00,0.00,30.00,M,6.21,M,M,M,M,M,M,M,M,M,M,YBBN 191830Z 19005KT CAVOK 15/15 Q1016
YBBN,2012-09-19 19:00,153.1292,-27.3917,57.20,57.20,100.00,180.00,4.00,0.00,30.00,M,6.21,M,M,M,M,M,M,M,M,M,M,YBBN 191900Z 18004KT CAVOK 14/14 Q1016
YBBN,2012-09-19 19:30,153.1292,-27.3917,59.00,59.00,100.00,190.00,5.00,0.00,30.03,M,6.21,M,M,M,M,M,M,M,M,M,M,YBBN 191930Z 19005KT CAVOK 15/15 Q1017
YBBN,2012-09-19 20:00,153.1292,-27.3917,57.20,57.20,100.00,200.00,5.00,0.00,30.03,M,5.59,M,FEW,M,M,M,24000.00,M,M,M,M,YBBN 192000Z 20005KT 9000 FEW240 14/14 Q1017 RMK HAZE
YBBN,2012-09-19 20:15,153.1292,-27.3917,57.20,55.40,93.69,200.00,6.00,0.00,30.03,M,5.59,M,FEW,M,M,M,24000.00,M,M,M,MIFG,YBBN 192015Z 20006KT 9000 MIFG FEW240 14/13 Q1017
YBBN,2012-09-19 20:30,153.1292,-27.3917,59.00,57.20,93.74,200.00,6.00,0.00,30.03,M,2.49,M,FEW,M,M,M,24000.00,M,M,M,BR,YBBN 192030Z 20006KT 4000 BR FEW240 15/14 Q1017
YBBN,2012-09-19 21:00,153.1292,-27.3917,60.80,59.00,93.79,200.00,7.00,0.00,30.06,M,5.59,M,FEW,M,M,M,24000.00,M,M,M,M,YBBN 192100Z 20007KT 9000 FEW240 16/15 Q1018
YBBN,2012-09-19 21:30,153.1292,-27.3917,64.40,60.80,88.09,210.00,7.00,0.00,30.06,M,6.21,M,M,M,M,M,M,M,M,M,M,YBBN 192130Z 21007KT CAVOK 18/16 Q1018 RMK HZ
YBBN,2012-09-19 22:00,153.1292,-27.3917,66.20,60.80,82.74,200.00,7.00,0.00,30.09,M,6.21,M,FEW,M,M,M,2000.00,M,M,M,M,YBBN 192200Z 20007KT 9999 FEW020 19/16 Q1019
YBBN,2012-09-19 22:30,153.1292,-27.3917,69.80,60.80,73.09,200.00,7.00,0.00,30.09,M,6.21,M,FEW,M,M,M,2000.00,M,M,M,M,YBBN 192230Z 20007KT 9999 FEW020 21/16 Q1019
YBBN,2012-09-19 23:00,153.1292,-27.3917,71.60,59.00,64.48,210.00,5.00,0.00,30.09,M,6.21,M,FEW,M,M,M,2000.00,M,M,M,M,YBBN 192300Z 21005KT 9999 FEW020 22/15 Q1019 NOSIG
YBBN,2012-09-19 23:30,153.1292,-27.3917,75.20,55.40,50.17,210.00,6.00,0.00,30.09,M,6.21,M,FEW,M,M,M,2500.00,M,M,M,M,YBBN 192330Z 21006KT 9999 FEW025 24/13 Q1019
