#DEBUG: Format Typ    -> comma
#DEBUG: Time Period   -> 2010-10-28 00:00:00+00:00 2010-10-29 00:00:00+00:00
#DEBUG: Time Zone     -> Etc/UTC
#DEBUG: Data Contact   -> daryl herzmann akrherz@iastate.edu 515-294-5978
#DEBUG: Entries Found -> -1
station,valid,lon,lat,tmpf, dwpf, relh, drct, sknt, p01i, alti, mslp, vsby, gust, skyc1, skyc2, skyc3, skyc4, skyl1, skyl2, skyl3, skyl4, presentwx, metar
YBBN,2010-10-28 00:00,153.1292,-27.3917,77.00,64.40,65.12,100.00,8.00,M,30.03,M,6.21,M,SCT,M,M,M,2800.00,M,M,M,M,YBBN 280000Z 10008KT 9999 SCT028 25/18 Q1017 NOSIG
YBBN,2010-10-28 01:00,153.1292,-27.3917,77.00,64.40,65.12,70.00,12.00,M,30.00,M,6.21,M,SCT,M,M,M,3000.00,M,M,M,M,YBBN 280100Z 07012KT 9999 SCT030 25/18 Q1016 RMK MANUAL OBS INTER 0300/0400 3000 SHRA BKN012
YBBN,2010-10-28 01:30,153.1292,-27.3917,77.00,64.40,65.12,80.00,15.00,M,30.00,M,6.21,M,SCT,M,M,M,3000.00,M,M,M,M,YBBN 280130Z 08015KT 9999 SCT030 25/18 Q1016 RMK MANUAL OBS INTER 0300/0430 3000 SHRA BKN012
YBBN,2010-10-28 02:00,153.1292,-27.3917,77.00,62.60,61.13,80.00,10.00,M,30.00,M,6.21,M,FEW,SCT,M,M,3000.00,4000.00,M,M,M,YBBN 280200Z 08010KT 9999 FEW030 SCT040 25/17 Q1016 RMK MANUAL OBS INTER 0300/0500 3000 SHRA BKN012
YBBN,2010-10-28 04:00,153.1292,-27.3917,77.00,64.40,65.12,90.00,12.00,M,29.97,M,6.21,M,SCT,M,M,M,2500.00,M,M,M,M,YBBN 280400Z 09012KT 9999 SCT025 25/18 Q1015 RMK CB TOP STH INTER 0430/0630 3000 SHRA BKN012 TEMPO 0500/0700 VRB20G30KT 2000 TSRA BKN012 SCT030CB
YBBN,2010-10-28 04:30,153.1292,-27.3917,75.20,62.60,64.91,90.00,9.00,M,29.97,M,6.21,M,SCT,SCT,M,M,2500.00,4000.00,M,M,M,YBBN 280430Z 09009KT 9999 SCT025 SCT040 24/17 Q1015 RMK DIST RASH S AND W INTER 0430/0515 VRB20G30KT 2000 TSRA BKN012 SCT030CB TEMPO 0515/0730 VRB20G30KT 2000 TSRA BKN012 SCT030CB
YBBN,2010-10-28 07:00,153.1292,-27.3917,71.60,60.80,68.75,120.00,9.00,M,29.97,M,6.21,M,SCT,SCT,BKN,M,2500.00,4500.00,20000.00,M,M,YBBN 280700Z 12009KT 9999 SCT025 SCT045 BKN200 22/16 Q1015 NOSIG
YBBN,2010-10-28 07:30,153.1292,-27.3917,71.60,62.60,73.27,120.00,7.00,M,30.00,M,6.21,M,SCT,BKN,M,M,2500.00,26000.00,M,M,M,YBBN 280730Z 12007KT 9999 SCT025 BKN260 22/17 Q1016 NOSIG
YBBN,2010-10-28 08:00,153.1292,-27.3917,71.60,60.80,68.75,120.00,8.00,M,30.00,M,6.21,M,FEW,SCT,BKN,M,2100.00,2400.00,26000.00,M,M,YBBN 280800Z 12008KT 9999 FEW021 SCT024 BKN260 22/16 Q1016 NOSIG
YBBN,2010-10-28 08:30,153.1292,-27.3917,71.60,60.80,68.75,110.00,7.00,M,30.00,M,6.21,M,SCT,BKN,M,M,2000.00,26000.00,M,M,M,YBBN 280830Z 11007KT 9999 SCT020 BKN260 22/16 Q1016 NOSIG
YBBN,2010-10-28 09:00,153.1292,-27.3917,69.80,60.80,73.09,110.00,7.00,M,30.03,M,6.21,M,SCT,M,M,M,2500.00,M,M,M,M,YBBN 280900Z 11007KT 9999 SCT025 21/16 Q1017 NOSIG
YBBN,2010-10-28 09:30,153.1292,-27.3917,69.80,60.80,73.09,120.00,7.00,M,30.03,M,6.21,M,FEW,M,M,M,2500.00,M,M,M,M,YBBN 280930Z 12007KT 9999 FEW025 21/16 Q1017 NOSIG
YBBN,2010-10-28 10:00,153.1292,-27.3917,69.80,60.80,73.09,110.00,7.00,M,30.06,M,6.21,M,FEW,M,M,M,2500.00,M,M,M,M,YBBN 281000Z 11007KT 9999 FEW025 21/16 Q1018 NOSIG
YBBN,2010-10-28 10:30,153.1292,-27.3917,69.80,59.00,68.55,120.00,7.00,M,30.06,M,6.21,M,FEW,M,M,M,2500.00,M,M,M,M,YBBN 281030Z 12007KT 9999 FEW025 21/15 Q1018 NOSIG
YBBN,2010-10-28 11:00,153.1292,-27.3917,69.80,59.00,68.55,110.00,7.00,M,30.06,M,6.21,M,FEW,M,M,M,2500.00,M,M,M,M,YBBN 281100Z 11007KT 9999 FEW025 21/15 Q1018 NOSIG
YBBN,2010-10-28 11:30,153.1292,-27.3917,69.80,60.80,73.09,120.00,5.00,M,30.06,M,6.21,M,FEW,M,M,M,2500.00,M,M,M,M,YBBN 281130Z 12005KT 9999 FEW025 21/16 Q1018 NOSIG
YBBN,2010-10-28 12:00,153.1292,-27.3917,69.80,60.80,73.09,110.00,5.00,M,30.06,M,6.21,M,FEW,M,M,M,2500.00,M,M,M,M,YBBN 281200Z 11005KT 9999 FEW025 21/16 Q1018 NOSIG
YBBN,2010-10-28 12:30,153.1292,-27.3917,68.00,60.80,77.75,120.00,4.00,M,30.06,M,6.21,M,FEW,M,M,M,2500.00,M,M,M,M,YBBN 281230Z 12004KT 9999 FEW025 20/16 Q1018 NOSIG
YBBN,2010-10-28 13:00,153.1292,-27.3917,68.00,60.80,77.75,130.00,4.00,M,30.06,M,6.21,M,FEW,M,M,M,2500.00,M,M,M,M,YBBN 281300Z 13004KT 9999 FEW025 20/16 Q1018 NOSIG
YBBN,2010-10-28 13:30,153.1292,-27.3917,68.00,60.80,77.75,140.00,3.00,M,30.06,M,6.21,M,FEW,M,M,M,2500.00,M,M,M,M,YBBN 281330Z 14003KT 9999 FEW025 20/16 Q1018 NOSIG
YBBN,2010-10-28 14:00,153.1292,-27.3917,68.00,60.80,77.75,150.00,4.00,M,30.06,M,6.21,M,FEW,SCT,M,M,2500.00,10000.00,M,M,M,YBBN 281400Z 15004KT 9999 FEW025 SCT100 20/16 Q1018 NOSIG
YBBN,2010-10-28 14:30,153.1292,-27.3917,68.00,60.80,77.75,120.00,5.00,M,30.03,M,6.21,M,FEW,SCT,M,M,2500.00,10000.00,M,M,M,YBBN 281430Z 12005KT 9999 FEW025 SCT100 20/16 Q1017 NOSIG
YBBN,2010-10-28 15:00,153.1292,-27.3917,68.00,60.80,77.75,120.00,6.00,M,30.03,M,6.21,M,FEW,SCT,M,M,2500.00,10000.00,M,M,M,YBBN 281500Z 12006KT 9999 FEW025 SCT100 20/16 Q1017 NOSIG
YBBN,2010-10-28 15:30,153.1292,-27.3917,66.20,60.80,82.74,120.00,6.00,M,30.03,M,6.21,M,FEW,SCT,M,M,2500.00,10000.00,M,M,M,YBBN 281530Z 12006KT 9999 FEW025 SCT100 19/16 Q1017 NOSIG
YBBN,2010-10-28 16:00,153.1292,-27.3917,66.20,60.80,82.74,150.00,5.00,M,30.00,M,6.21,M,FEW,M,M,M,2500.00,M,M,M,M,YBBN 281600Z 15005KT 9999 FEW025 19/16 Q1016 NOSIG
YBBN,2010-10-28 16:30,153.1292,-27.3917,64.40,60.80,88.09,190.00,4.00,M,30.00,M,6.21,M,FEW,M,M,M,2500.00,M,M,M,M,YBBN 281630Z 19004KT 9999 FEW025 18/16 Q1016 NOSIG
YBBN,2010-10-28 17:00,153.1292,-27.3917,64.40,60.80,88.09,200.00,4.00,M,30.00,M,6.21,M,FEW,M,M,M,2500.00,M,M,M,M,YBBN 281700Z 20004KT 9999 FEW025 18/16 Q1016 NOSIG
YBBN,2010-10-28 17:30,153.1292,-27.3917,62.60,60.80,93.83,220.00,6.00,M,30.00,M,6.21,M,FEW,M,M,M,2500.00,M,M,M,M,YBBN 281730Z 22006KT 9999 FEW025 17/16 Q1016 NOSIG
YBBN,2010-10-28 18:00,153.1292,-27.3917,62.60,59.00,88.00,220.00,6.00,M,30.03,M,6.21,M,FEW,SCT,M,M,2500.00,10000.00,M,M,M,YBBN 281800Z 22006KT 9999 FEW025 SCT100 17/15 Q1017 NOSIG
YBBN,2010-10-28 18:30,153.1292,-27.3917,62.60,60.80,93.83,210.00,7.00,M,30.03,M,6.21,M,FEW,SCT,M,M,2500.00,10000.00,M,M,M,YBBN 281830Z 21007KT 9999 FEW025 SCT100 17/16 Q1017 NOSIG
YBBN,2010-10-28 19:00,153.1292,-27.3917,62.60,60.80,93.83,210.00,7.00,M,30.03,M,6.21,M,FEW,SCT,M,M,2500.00,10000.00,M,M,M,YBBN 281900Z 21007KT 9999 FEW025 SCT100 17/16 Q1017 NOSIG
YBBN,2010-10-28 19:30,153.1292,-27.3917,62.60,60.80,93.83,210.00,6.00,M,30.06,M,6.21,M,FEW,M,M,M,2500.00,M,M,M,M,YBBN 281930Z 21006KT 9999 FEW025 17/16 Q1018 NOSIG
YBBN,2010-10-28 20:00,153.1292,-27.3917,66.20,62.60,88.18,210.00,6.00,M,30.06,M,6.21,M,FEW,M,M,M,2500.00,M,M,M,M,YBBN 282000Z 21006KT 9999 FEW025 19/17 Q1018 NOSIG
YBBN,2010-10-28 20:30,153.1292,-27.3917,68.00,60.80,77.75,220.00,6.00,M,30.06,M,6.21,M,FEW,M,M,M,2200.00,M,M,M,M,YBBN 282030Z 22006KT 9999 FEW022 20/16 Q1018 NOSIG
YBBN,2010-10-28 21:00,153.1292,-27.3917,69.80,60.80,73.09,210.00,7.00,M,30.06,M,6.21,M,FEW,M,M,M,2200.00,M,M,M,M,YBBN 282100Z 21007KT 9999 FEW022 21/16 Q1018 NOSIG
YBBN,2010-10-28 21:30,153.1292,-27.3917,71.60,60.80,68.75,180.00,6.00,M,30.06,M,6.21,M,FEW,M,M,M,2200.00,M,M,M,M,YBBN 282130Z 18006KT 9999 FEW022 22/16 Q1018 NOSIG
YBBN,2010-10-28 22:00,153.1292,-27.3917,73.40,59.00,60.67,130.00,8.00,M,30.06,M,6.21,M,FEW,M,M,M,2300.00,M,M,M,M,YBBN 282200Z 13008KT 9999 FEW023 23/15 Q1018 NOSIG
YBBN,2010-10-28 22:30,153.1292,-27.3917,73.40,59.00,60.67,130.00,9.00,M,30.06,M,6.21,M,FEW,M,M,M,2500.00,M,M,M,M,YBBN 282230Z 13009KT 9999 FEW025 23/15 Q1018 NOSIG
YBBN,2010-10-28 23:00,153.1292,-27.3917,73.40,59.00,60.67,140.00,8.00,M,30.06,M,6.21,M,FEW,M,M,M,2500.00,M,M,M,M,YBBN 282300Z 14008KT 9999 FEW025 23/15 Q1018 NOSIG
YBBN,2010-10-28 23:30,153.1292,-27.3917,75.20,59.00,57.12,130.00,7.00,M,30.06,M,6.21,M,SCT,M,M,M,2500.00,M,M,M,M,YBBN 282330Z 13007KT 9999 SCT025 24/15 Q1018 NOSIG
