#DEBUG: Format Typ    -> comma
#DEBUG: Time Period   -> 2012-03-30 00:00:00+00:00 2012-03-31 00:00:00+00:00
#DEBUG: Time Zone     -> Etc/UTC
#DEBUG: Data Contact   -> daryl herzmann akrherz@iastate.edu 515-294-5978
#DEBUG: Entries Found -> -1
station,valid,lon,lat,tmpf, dwpf, relh, drct, sknt, p01i, alti, mslp, vsby, gust, skyc1, skyc2, skyc3, skyc4, skyl1, skyl2, skyl3, skyl4, presentwx, metar
YBBN,2012-03-30 00:00,153.1292,-27.3917,77.00,62.60,61.13,170.00,6.00,0.00,30.00,M,6.21,M,SCT,M,M,M,3000.00,M,M,M,M,YBBN 300000Z 17006KT 9999 SCT030 25/17 Q1016
YBBN,2012-03-30 00:30,153.1292,-27.3917,78.80,62.60,57.60,110.00,7.00,0.00,29.97,M,6.21,M,SCT,M,M,M,3200.00,M,M,M,M,YBBN 300030Z 11007KT 9999 SCT032 26/17 Q1015
YBBN,2012-03-30 01:00,153.1292,-27.3917,78.80,62.60,57.60,60.00,10.00,0.00,29.97,M,6.21,M,SCT,M,M,M,3200.00,M,M,M,M,YBBN 300100Z 06010KT 9999 SCT032 26/17 Q1015
YBBN,2012-03-30 01:30,153.1292,-27.3917,78.80,62.60,57.60,70.00,11.00,0.00,29.97,M,6.21,M,SCT,M,M,M,3500.00,M,M,M,M,YBBN 300130Z 07011KT 9999 SCT035 26/17 Q1015 RMK DIST SHRA TO E
YBBN,2012-03-30 02:00,153.1292,-27.3917,78.80,64.40,61.36,70.00,11.00,0.00,29.97,M,6.21,M,SCT,M,M,M,3800.00,M,M,M,M,YBBN 300200Z 07011KT 9999 SCT038 26/18 Q1015
YBBN,2012-03-30 02:30,153.1292,-27.3917,80.60,62.60,54.30,80.00,12.00,0.00,29.94,M,6.21,M,SCT,M,M,M,4000.00,M,M,M,M,YBBN 300230Z 08012KT 9999 SCT040 27/17 Q1014 RMK DIST SHRA TO E
YBBN,2012-03-30 03:00,153.1292,-27.3917,78.80,64.40,61.36,80.00,11.00,0.00,29.94,M,6.21,M,SCT,M,M,M,4000.00,M,M,M,M,YBBN 300300Z 08011KT 9999 SCT040 26/18 Q1014
YBBN,2012-03-30 03:30,153.1292,-27.3917,78.80,62.60,57.60,70.00,11.00,0.00,29.91,M,6.21,M,FEW,M,M,M,4000.00,M,M,M,M,YBBN 300330Z 07011KT 9999 FEW040 26/17 Q1013 RMK DIST SHRA TO SE
YBBN,2012-03-30 04:00,153.1292,-27.3917,78.80,64.40,61.36,60.00,13.00,0.00,29.91,M,6.21,M,FEW,M,M,M,4000.00,M,M,M,M,YBBN 300400Z 06013KT 9999 FEW040 26/18 Q1013 INTER 0400/0700 3000 SHRA BKN012
YBBN,2012-03-30 04:30,153.1292,-27.3917,77.00,64.40,65.12,70.00,14.00,0.00,29.91,M,6.21,M,FEW,M,M,M,4000.00,M,M,M,VCSH,YBBN 300430Z 07014KT 9999 VCSH FEW040 25/18 Q1013
YBBN,2012-03-30 05:00,153.1292,-27.3917,75.20,64.40,69.14,80.00,12.00,0.00,29.91,M,6.21,M,FEW,FEW,M,M,4000.00,4000.00,M,M,VCSH,YBBN 300500Z 08012KT 9999 VCSH FEW040 FEW040TCU 24/18 Q1013
YBBN,2012-03-30 05:30,153.1292,-27.3917,75.20,64.40,69.14,90.00,12.00,0.00,29.94,M,6.21,M,FEW,FEW,M,M,4000.00,4000.00,M,M,M,YBBN 300530Z 09012KT 9999 FEW040 FEW040TCU 24/18 Q1014 RMK DIST SHRA TO W AND S
YBBN,2012-03-30 06:00,153.1292,-27.3917,75.20,62.60,64.91,70.00,8.00,0.00,29.94,M,6.21,M,FEW,SCT,M,M,4000.00,6600.00,M,M,VCSH,YBBN 300600Z 07008KT 9999 VCSH FEW040 SCT066 24/17 Q1014
YBBN,2012-03-30 06:30,153.1292,-27.3917,75.20,64.40,69.14,90.00,8.00,0.00,29.94,M,4.97,M,FEW,SCT,M,M,4000.00,6000.00,M,M,VCSH,YBBN 300630Z 09008KT 8000 VCSH FEW040 SCT060 24/18 Q1014
YBBN,2012-03-30 07:00,153.1292,-27.3917,75.20,62.60,64.91,70.00,10.00,0.00,29.94,M,4.97,M,FEW,SCT,M,M,3500.00,6000.00,M,M,VCSH,YBBN 300700Z 07010KT 8000 VCSH FEW035 SCT060 24/17 Q1014
YBBN,2012-03-30 07:30,153.1292,-27.3917,73.40,64.40,73.44,110.00,7.00,0.00,29.94,M,6.21,M,FEW,SCT,M,M,2400.00,6000.00,M,M,VCSH,YBBN 300730Z 11007KT 9999 VCSH FEW024 SCT060 23/18 Q1014
YBBN,2012-03-30 08:00,153.1292,-27.3917,73.40,64.40,73.44,150.00,7.00,0.00,29.94,M,6.21,M,FEW,M,M,M,2200.00,M,M,M,M,YBBN 300800Z 15007KT 9999 FEW022 23/18 Q1014 NOSIG
YBBN,2012-03-30 08:30,153.1292,-27.3917,71.60,64.40,78.04,180.00,4.00,0.00,29.97,M,6.21,M,FEW,M,M,M,2200.00,M,M,M,M,YBBN 300830Z 18004KT 9999 FEW022 22/18 Q1015
YBBN,2012-03-30 09:00,153.1292,-27.3917,71.60,64.40,78.04,190.00,5.00,0.00,29.97,M,6.21,M,M,M,M,M,M,M,M,M,M,YBBN 300900Z 19005KT CAVOK 22/18 Q1015
YBBN,2012-03-30 09:30,153.1292,-27.3917,69.80,64.40,82.98,200.00,5.00,0.00,29.97,M,6.21,M,M,M,M,M,M,M,M,M,M,YBBN 300930Z 20005KT CAVOK 21/18 Q1015
YBBN,2012-03-30 10:00,153.1292,-27.3917,68.00,64.40,88.26,210.00,5.00,0.00,30.00,M,6.21,M,M,M,M,M,M,M,M,M,M,YBBN 301000Z 21005KT CAVOK 20/18 Q1016 NOSIG
YBBN,2012-03-30 10:30,153.1292,-27.3917,68.00,64.40,88.26,210.00,5.00,0.00,30.00,M,6.21,M,M,M,M,M,M,M,M,M,M,YBBN 301030Z 21005KT CAVOK 20/18 Q1016
YBBN,2012-03-30 11:00,153.1292,-27.3917,68.00,64.40,88.26,230.00,5.00,0.00,30.00,M,6.21,M,M,M,M,M,M,M,M,M,M,YBBN 301100Z 23005KT CAVOK 20/18 Q1016 NOSIG
YBBN,2012-03-30 11:30,153.1292,-27.3917,69.80,64.40,82.98,200.00,5.00,0.00,30.00,M,6.21,M,M,M,M,M,M,M,M,M,M,YBBN 301130Z 20005KT CAVOK 21/18 Q1016
YBBN,2012-03-30 12:00,153.1292,-27.3917,68.00,64.40,88.26,200.00,7.00,0.00,30.00,M,6.21,M,M,M,M,M,M,M,M,M,M,YBBN 301200Z 20007KT CAVOK 20/18 Q1016 NOSIG
YBBN,2012-03-30 12:30,153.1292,-27.3917,68.00,64.40,88.26,210.00,5.00,0.00,29.97,M,6.21,M,M,M,M,M,M,M,M,M,M,YBBN 301230Z 21005KT CAVOK 20/18 Q1015
YBBN,2012-03-30 13:00,153.1292,-27.3917,66.20,62.60,88.18,220.00,6.00,0.00,29.97,M,6.21,M,M,M,M,M,M,M,M,M,M,YBBN 301300Z 22006KT CAVOK 19/17 Q1015
YBBN,2012-03-30 13:30,153.1292,-27.3917,66.20,62.60,88.18,240.00,7.00,0.00,29.97,M,6.21,M,M,M,M,M,M,M,M,M,M,YBBN 301330Z 24007KT CAVOK 19/17 Q1015
YBBN,2012-03-30 14:00,153.1292,-27.3917,66.20,62.60,88.18,220.00,8.00,0.00,29.97,M,6.21,M,FEW,M,M,M,3400.00,M,M,M,M,YBBN 301400Z 22008KT 9999 FEW034 19/17 Q1015
YBBN,2012-03-30 14:30,153.1292,-27.3917,66.20,62.60,88.18,220.00,7.00,0.00,29.97,M,6.21,M,FEW,SCT,M,M,3200.00,4000.00,M,M,M,YBBN 301430Z 22007KT 9999 FEW032 SCT040 19/17 Q1015
YBBN,2012-03-30 15:00,153.1292,-27.3917,66.20,62.60,88.18,220.00,9.00,0.00,29.97,M,6.21,M,FEW,SCT,M,M,3400.00,4700.00,M,M,M,YBBN 301500Z 22009KT 9999 FEW034 SCT047 19/17 Q1015 NOSIG
YBBN,2012-03-30 15:30,153.1292,-27.3917,64.40,60.80,88.09,220.00,8.00,0.00,29.97,M,6.21,M,FEW,M,M,M,4300.00,M,M,M,M,YBBN 301530Z 22008KT 9999 FEW043 18/16 Q1015
YBBN,2012-03-30 16:00,153.1292,-27.3917,64.40,60.80,88.09,210.00,8.00,0.00,29.94,M,6.21,M,M,M,M,M,M,M,M,M,M,YBBN 301600Z 21008KT CAVOK 18/16 Q1014 NOSIG
YBBN,2012-03-30 16:30,153.1292,-27.3917,64.40,62.60,93.88,220.00,8.00,0.00,29.94,M,6.21,M,M,M,M,M,M,M,M,M,M,YBBN 301630Z 22008KT CAVOK 18/17 Q1014
YBBN,2012-03-30 17:00,153.1292,-27.3917,66.20,60.80,82.74,210.00,9.00,0.00,29.94,M,6.21,M,M,M,M,M,M,M,M,M,M,YBBN 301700Z 21009KT CAVOK 19/16 Q1014
YBBN,2012-03-30 17:30,153.1292,-27.3917,66.20,60.80,82.74,210.00,9.00,0.00,29.94,M,6.21,M,M,M,M,M,M,M,M,M,M,YBBN 301730Z 21009KT CAVOK 19/16 Q1014
YBBN,2012-03-30 18:00,153.1292,-27.3917,64.40,60.80,88.09,220.00,8.00,0.00,29.94,M,6.21,M,M,M,M,M,M,M,M,M,M,YBBN 301800Z 22008KT CAVOK 18/16 Q1014 NOSIG
YBBN,2012-03-30 18:30,153.1292,-27.3917,64.40,60.80,88.09,210.00,9.00,0.00,29.94,M,6.21,M,M,M,M,M,M,M,M,M,M,YBBN 301830Z 21009KT CAVOK 18/16 Q1014
YBBN,2012-03-30 19:00,153.1292,-27.3917,62.60,60.80,93.83,210.00,8.00,0.00,29.94,M,6.21,M,M,M,M,M,M,M,M,M,M,YBBN 301900Z 21008KT CAVOK 17/16 Q1014
YBBN,2012-03-30 19:30,153.1292,-27.3917,64.40,60.80,88.09,210.00,8.00,0.00,29.94,M,6.21,M,FEW,M,M,M,4000.00,M,M,M,M,YBBN 301930Z 21008KT 9999 FEW040 18/16 Q1014
YBBN,2012-03-30 20:00,153.1292,-27.3917,62.60,60.80,93.83,220.00,8.00,0.00,29.97,M,6.21,M,FEW,M,M,M,4000.00,M,M,M,M,YBBN 302000Z 22008KT 9999 FEW040 17/16 Q1015
YBBN,2012-03-30 20:30,153.1292,-27.3917,64.40,60.80,88.09,220.00,7.00,0.00,29.97,M,6.21,M,FEW,M,M,M,4000.00,M,M,M,M,YBBN 302030Z 22007KT 9999 FEW040 18/16 Q1015
YBBN,2012-03-30 21:00,153.1292,-27.3917,66.20,62.60,88.18,210.00,10.00,0.00,29.97,M,6.21,M,FEW,M,M,M,4000.00,M,M,M,M,YBBN 302100Z 21010KT 9999 FEW040 19/17 Q1015
YBBN,2012-03-30 21:30,153.1292,-27.3917,68.00,62.60,82.86,210.00,11.00,0.00,29.97,M,6.21,M,M,M,M,M,M,M,M,M,M,YBBN 302130Z 21011KT 9999 20/17 Q1015 RMK CU TOPS TO E
YBBN,2012-03-30 22:00,153.1292,-27.3917,69.80,62.60,77.90,220.00,11.00,0.00,30.00,M,6.21,M,FEW,M,M,M,4000.00,M,M,M,M,YBBN 302200Z 22011KT 9999 FEW040 21/17 Q1016 NOSIG
YBBN,2012-03-30 22:30,153.1292,-27.3917,71.60,60.80,68.75,210.00,10.00,0.00,30.00,M,6.21,M,FEW,M,M,M,4000.00,M,M,M,M,YBBN 302230Z 21010KT 9999 FEW040 22/16 Q1016
YBBN,2012-03-30 23:00,153.1292,-27.3917,75.20,62.60,64.91,220.00,11.00,0.00,30.00,M,6.21,M,FEW,M,M,M,2500.00,M,M,M,M,YBBN 302300Z 22011KT 9999 FEW025 24/17 Q1016 NOSIG
YBBN,2012-03-30 23:30,153.1292,-27.3917,77.00,62.60,61.13,220.00,11.00,0.00,30.00,M,6.21,M,FEW,M,M,M,3000.00,M,M,M,M,YBBN 302330Z 22011KT 9999 FEW030 25/17 Q1016
