#DEBUG: Format Typ    -> comma
#DEBUG: Time Period   -> 2016-07-07 00:00:00+00:00 2016-07-08 00:00:00+00:00
#DEBUG: Time Zone     -> Etc/UTC
#DEBUG: Data Contact   -> daryl herzmann akrherz@iastate.edu 515-294-5978
#DEBUG: Entries Found -> -1
station,valid,lon,lat,tmpf, dwpf, relh, drct, sknt, p01i, alti, mslp, vsby, gust, skyc1, skyc2, skyc3, skyc4, skyl1, skyl2, skyl3, skyl4, presentwx, metar
YBBN,2016-07-07 00:00,153.1292,-27.3917,62.60,42.80,48.28,250.00,18.00,0.00,29.94,M,6.21,M,FEW,M,M,M,4000.00,M,M,M,M,YBBN 070000Z 25018KT 9999 FEW040 17/06 Q1014 NOSIG
YBBN,2016-07-07 00:30,153.1292,-27.3917,64.40,44.60,48.55,230.00,15.00,0.00,29.94,M,6.21,M,NCD,M,M,M,M,M,M,M,//,YBBN 070030Z AUTO 23015KT 9999 // NCD 18/07 Q1014
YBBN,2016-07-07 01:00,153.1292,-27.3917,66.20,42.80,42.57,230.00,14.00,0.00,29.94,M,6.21,M,NCD,M,M,M,M,M,M,M,//,YBBN 070100Z AUTO 23014KT 9999 // NCD 19/06 Q1014
YBBN,2016-07-07 01:30,153.1292,-27.3917,66.20,42.80,42.57,230.00,16.00,0.00,29.94,M,6.21,M,FEW,M,M,M,4000.00,M,M,M,M,YBBN 070130Z 23016KT 9999 FEW040 19/06 Q1014 NOSIG
YBBN,2016-07-07 02:00,153.1292,-27.3917,68.00,42.80,40.00,240.00,15.00,0.00,29.91,M,6.21,M,FEW,M,M,M,4000.00,M,M,M,M,YBBN 070200Z 24015KT 9999 FEW040 20/06 Q1013 NOSIG
YBBN,2016-07-07 02:30,153.1292,-27.3917,68.00,42.80,40.00,240.00,12.00,0.00,29.91,M,6.21,M,FEW,M,M,M,4000.00,M,M,M,M,YBBN 070230Z 24012KT 9999 FEW040 20/06 Q1013 NOSIG
YBBN,2016-07-07 03:00,153.1292,-27.3917,69.80,44.60,40.29,250.00,12.00,0.00,29.91,M,6.21,M,FEW,M,M,M,4000.00,M,M,M,M,YBBN 070300Z 25012KT 9999 FEW040 21/07 Q1013 NOSIG
YBBN,2016-07-07 03:30,153.1292,-27.3917,68.00,42.80,40.00,260.00,13.00,0.00,29.91,M,6.21,M,FEW,M,M,M,4500.00,M,M,M,M,YBBN 070330Z 26013KT 230V290 9999 FEW045 20/06 Q1013
YBBN,2016-07-07 04:00,153.1292,-27.3917,68.00,44.60,42.85,260.00,12.00,0.00,29.91,M,6.21,M,M,M,M,M,M,M,M,M,M,YBBN 070400Z 26012KT CAVOK 20/07 Q1013
YBBN,2016-07-07 04:30,153.1292,-27.3917,68.00,42.80,40.00,270.00,13.00,0.00,29.91,M,6.21,M,M,M,M,M,M,M,M,M,M,YBBN 070430Z 27013KT CAVOK 20/06 Q1013 NOSIG
YBBN,2016-07-07 05:00,153.1292,-27.3917,68.00,44.60,42.85,270.00,14.00,0.00,29.91,M,6.21,M,M,M,M,M,M,M,M,M,M,YBBN 070500Z 27014KT CAVOK 20/07 Q1013 NOSIG
YBBN,2016-07-07 05:30,153.1292,-27.3917,68.00,42.80,40.00,270.00,13.00,0.00,29.91,M,6.21,M,FEW,M,M,M,4000.00,M,M,M,M,YBBN 070530Z 27013KT 9999 FEW040 20/06 Q1013
YBBN,2016-07-07 06:00,153.1292,-27.3917,66.20,44.60,45.60,260.00,15.00,0.00,29.91,M,6.21,M,FEW,M,M,M,4500.00,M,M,M,M,YBBN 070600Z 26015KT 9999 FEW045 19/07 Q1013
YBBN,2016-07-07 06:30,153.1292,-27.3917,64.40,44.60,48.55,270.00,12.00,0.00,29.91,M,6.21,M,FEW,M,M,M,4500.00,M,M,M,M,YBBN 070630Z 27012KT 9999 FEW045 18/07 Q1013 NOSIG
YBBN,2016-07-07 07:00,153.1292,-27.3917,62.60,44.60,51.72,270.00,11.00,0.00,29.94,M,6.21,M,M,M,M,M,M,M,M,M,M,YBBN 070700Z 27011KT CAVOK 17/07 Q1014 NOSIG
YBBN,2016-07-07 07:30,153.1292,-27.3917,60.80,46.40,59.01,250.00,11.00,0.00,29.94,M,6.21,M,M,M,M,M,M,M,M,M,M,YBBN 070730Z 25011KT CAVOK 16/08 Q1014 NOSIG
YBBN,2016-07-07 08:00,153.1292,-27.3917,57.20,46.40,67.12,240.00,12.00,0.00,29.97,M,6.21,M,M,M,M,M,M,M,M,M,M,YBBN 070800Z 24012KT CAVOK 14/08 Q1015
YBBN,2016-07-07 08:30,153.1292,-27.3917,59.00,44.60,58.77,240.00,10.00,0.00,29.97,M,6.21,M,M,M,M,M,M,M,M,M,M,YBBN 070830Z 24010KT CAVOK 15/07 Q1015
YBBN,2016-07-07 09:00,153.1292,-27.3917,57.20,46.40,67.12,270.00,9.00,0.00,30.00,M,6.21,M,M,M,M,M,M,M,M,M,M,YBBN 070900Z 27009KT CAVOK 14/08 Q1016
YBBN,2016-07-07 09:30,153.1292,-27.3917,57.20,46.40,67.12,250.00,8.00,0.00,30.00,M,6.21,M,M,M,M,M,M,M,M,M,M,YBBN 070930Z 25008KT CAVOK 14/08 Q1016 NOSIG
YBBN,2016-07-07 10:00,153.1292,-27.3917,55.40,46.40,71.64,250.00,8.00,0.00,30.00,M,6.21,M,M,M,M,M,M,M,M,M,M,YBBN 071000Z 25008KT CAVOK 13/08 Q1016
YBBN,2016-07-07 10:30,153.1292,-27.3917,57.20,44.60,62.69,280.00,7.00,0.00,30.03,M,6.21,M,M,M,M,M,M,M,M,M,M,YBBN 071030Z 28007KT CAVOK 14/07 Q1017 NOSIG
YBBN,2016-07-07 11:00,153.1292,-27.3917,55.40,46.40,71.64,260.00,7.00,0.00,30.03,M,6.21,M,M,M,M,M,M,M,M,M,M,YBBN 071100Z 26007KT CAVOK 13/08 Q1017 NOSIG
YBBN,2016-07-07 11:30,153.1292,-27.3917,55.40,46.40,71.64,250.00,6.00,0.00,30.03,M,6.21,M,M,M,M,M,M,M,M,M,M,YBBN 071130Z 25006KT CAVOK 13/08 Q1017 NOSIG
YBBN,2016-07-07 12:00,153.1292,-27.3917,53.60,46.40,76.50,260.00,4.00,0.00,30.03,M,6.21,M,M,M,M,M,M,M,M,M,M,YBBN 071200Z 26004KT CAVOK 12/08 Q1017
YBBN,2016-07-07 12:30,153.1292,-27.3917,53.60,46.40,76.50,270.00,5.00,0.00,30.06,M,6.21,M,M,M,M,M,M,M,M,M,M,YBBN 071230Z 27005KT CAVOK 12/08 Q1018 NOSIG
YBBN,2016-07-07 13:00,153.1292,-27.3917,53.60,46.40,76.50,270.00,4.00,0.00,30.03,M,6.21,M,M,M,M,M,M,M,M,M,M,YBBN 071300Z 27004KT CAVOK 12/08 Q1017
YBBN,2016-07-07 13:30,153.1292,-27.3917,53.60,46.40,76.50,250.00,6.00,0.00,30.03,M,6.21,M,M,M,M,M,M,M,M,M,M,YBBN 071330Z 25006KT CAVOK 12/08 Q1017 NOSIG
YBBN,2016-07-07 14:00,153.1292,-27.3917,51.80,46.40,81.74,250.00,6.00,0.00,30.03,M,6.21,M,M,M,M,M,M,M,M,M,M,YBBN 071400Z 25006KT CAVOK 11/08 Q1017
YBBN,2016-07-07 14:30,153.1292,-27.3917,51.80,46.40,81.74,290.00,4.00,0.00,30.03,M,6.21,M,M,M,M,M,M,M,M,M,M,YBBN 071430Z 29004KT 260V320 CAVOK 11/08 Q1017 NOSIG
YBBN,2016-07-07 15:00,153.1292,-27.3917,51.80,44.60,76.34,230.00,3.00,0.00,30.03,M,6.21,M,M,M,M,M,M,M,M,M,M,YBBN 071500Z 23003KT CAVOK 11/07 Q1017 NOSIG
YBBN,2016-07-07 15:30,153.1292,-27.3917,50.00,46.40,87.37,240.00,4.00,0.00,30.03,M,6.21,M,M,M,M,M,M,M,M,M,M,YBBN 071530Z 24004KT CAVOK 10/08 Q1017 NOSIG
YBBN,2016-07-07 16:00,153.1292,-27.3917,50.00,44.60,81.61,280.00,4.00,0.00,30.03,M,6.21,M,M,M,M,M,M,M,M,M,M,YBBN 071600Z 28004KT CAVOK 10/07 Q1017
YBBN,2016-07-07 16:30,153.1292,-27.3917,51.80,46.40,81.74,220.00,5.00,0.00,30.00,M,6.21,M,M,M,M,M,M,M,M,M,M,YBBN 071630Z 22005KT CAVOK 11/08 Q1016 NOSIG
YBBN,2016-07-07 17:00,153.1292,-27.3917,51.80,46.40,81.74,220.00,4.00,0.00,30.00,M,6.21,M,M,M,M,M,M,M,M,M,M,YBBN 071700Z 22004KT CAVOK 11/08 Q1016
YBBN,2016-07-07 17:30,153.1292,-27.3917,50.00,46.40,87.37,220.00,4.00,0.00,30.00,M,6.21,M,M,M,M,M,M,M,M,M,M,YBBN 071730Z 22004KT CAVOK 10/08 Q1016 NOSIG
YBBN,2016-07-07 18:00,153.1292,-27.3917,50.00,46.40,87.37,0.00,0.00,0.00,30.00,M,6.21,M,M,M,M,M,M,M,M,M,M,YBBN 071800Z 00000KT CAVOK 10/08 Q1016
YBBN,2016-07-07 18:30,153.1292,-27.3917,48.20,46.40,93.45,0.00,0.00,0.00,30.00,M,6.21,M,M,M,M,M,M,M,M,M,M,YBBN 071830Z 00000KT CAVOK 09/08 Q1016 NOSIG
YBBN,2016-07-07 19:00,153.1292,-27.3917,50.00,46.40,87.37,250.00,5.00,0.00,30.03,M,6.21,M,M,M,M,M,M,M,M,M,M,YBBN 071900Z 25005KT CAVOK 10/08 Q1017
YBBN,2016-07-07 19:30,153.1292,-27.3917,50.00,46.40,87.37,270.00,6.00,0.00,30.03,M,6.21,M,M,M,M,M,M,M,M,M,M,YBBN 071930Z 27006KT CAVOK 10/08 Q1017 NOSIG
YBBN,2016-07-07 20:00,153.1292,-27.3917,50.00,46.40,87.37,260.00,5.00,0.00,30.03,M,6.21,M,M,M,M,M,M,M,M,M,M,YBBN 072000Z 26005KT CAVOK 10/08 Q1017 NOSIG
YBBN,2016-07-07 20:30,153.1292,-27.3917,48.20,46.40,93.45,200.00,4.00,0.00,30.03,M,6.21,M,M,M,M,M,M,M,M,M,M,YBBN 072030Z 20004KT CAVOK 09/08 Q1017 NOSIG
YBBN,2016-07-07 21:00,153.1292,-27.3917,50.00,46.40,87.37,200.00,4.00,0.00,30.03,M,6.21,M,M,M,M,M,M,M,M,M,M,YBBN 072100Z 20004KT CAVOK 10/08 Q1017 NOSIG
YBBN,2016-07-07 21:30,153.1292,-27.3917,51.80,48.20,87.47,200.00,5.00,0.00,30.06,M,6.21,M,M,M,M,M,M,M,M,M,M,YBBN 072130Z 20005KT CAVOK 11/09 Q1018 NOSIG
YBBN,2016-07-07 22:00,153.1292,-27.3917,55.40,50.00,81.99,210.00,3.00,0.00,30.06,M,6.21,M,M,M,M,M,M,M,M,M,M,YBBN 072200Z 21003KT CAVOK 13/10 Q1018
YBBN,2016-07-07 22:30,153.1292,-27.3917,59.00,50.00,72.01,250.00,5.00,0.00,30.06,M,6.21,M,M,M,M,M,M,M,M,M,M,YBBN 072230Z 25005KT CAVOK 15/10 Q1018 NOSIG
YBBN,2016-07-07 23:00,153.1292,-27.3917,60.80,48.20,63.15,220.00,5.00,0.00,30.06,M,6.21,M,M,M,M,M,M,M,M,M,M,YBBN 072300Z 22005KT CAVOK 16/09 Q1018 NOSIG
YBBN,2016-07-07 23:30,153.1292,-27.3917,62.60,48.20,59.26,210.00,7.00,0.00,30.06,M,6.21,M,M,M,M,M,M,M,M,M,M,YBBN 072330Z 21007KT CAVOK 17/09 Q1018 NOSIG
