#DEBUG: Format Typ    -> comma
#DEBUG: Time Period   -> 2015-12-26 00:00:00+00:00 2015-12-27 00:00:00+00:00
#DEBUG: Time Zone     -> Etc/UTC
#DEBUG: Data Contact   -> daryl herzmann akrherz@iastate.edu 515-294-5978
#DEBUG: Entries Found -> -1
station,valid,lon,lat,tmpf, dwpf, relh, drct, sknt, p01i, alti, mslp, vsby, gust, skyc1, skyc2, skyc3, skyc4, skyl1, skyl2, skyl3, skyl4, presentwx, metar
YBBN,2015-12-26 00:00,153.1292,-27.3917,78.80,64.40,61.36,10.00,6.00,0.00,29.88,M,6.21,M,SCT,M,M,M,3200.00,M,M,M,M,YBBN 260000Z 01006KT 9999 SCT032 26/18 Q1012 NOSIG
YBBN,2015-12-26 00:30,153.1292,-27.3917,80.60,64.40,57.84,10.00,7.00,0.00,29.88,M,6.21,M,SCT,M,M,M,3200.00,M,M,M,M,YBBN 260030Z 01007KT 9999 SCT032 27/18 Q1012 NOSIG
YBBN,2015-12-26 01:00,153.1292,-27.3917,84.20,66.20,54.80,20.00,10.00,0.00,29.85,M,6.21,M,SCT,M,M,M,3500.00,M,M,M,M,YBBN 260100Z 02010KT 9999 SCT035 29/19 Q1011
YBBN,2015-12-26 01:30,153.1292,-27.3917,82.40,66.20,58.08,20.00,10.00,0.00,29.85,M,6.21,M,SCT,M,M,M,3700.00,M,M,M,M,YBBN 260130Z 02010KT 9999 SCT037 28/19 Q1011 NOSIG
YBBN,2015-12-26 02:00,153.1292,-27.3917,82.40,66.20,58.08,30.00,11.00,0.00,29.85,M,6.21,M,SCT,M,M,M,3700.00,M,M,M,M,YBBN 260200Z 03011KT 9999 SCT037 28/19 Q1011 NOSIG
YBBN,2015-12-26 02:30,153.1292,-27.3917,84.20,66.20,54.80,20.00,11.00,0.00,29.83,M,6.21,M,FEW,M,M,M,3700.00,M,M,M,M,YBBN 260230Z 02011KT 9999 FEW037 29/19 Q1010 NOSIG
YBBN,2015-12-26 03:00,153.1292,-27.3917,84.20,66.20,54.80,30.00,13.00,0.00,29.83,M,6.21,M,FEW,M,M,M,3700.00,M,M,M,M,YBBN 260300Z 03013KT 9999 FEW037 29/19 Q1010 NOSIG
YBBN,2015-12-26 03:30,153.1292,-27.3917,84.20,66.20,54.80,30.00,14.00,0.00,29.80,M,6.21,M,FEW,M,M,M,3700.00,M,M,M,M,YBBN 260330Z 03014KT 9999 FEW037 29/19 Q1009 NOSIG
YBBN,2015-12-26 04:00,153.1292,-27.3917,84.20,66.20,54.80,30.00,15.00,0.00,29.80,M,6.21,M,FEW,M,M,M,3700.00,M,M,M,M,YBBN 260400Z 03015KT 9999 FEW037 29/19 Q1009 NOSIG
YBBN,2015-12-26 04:30,153.1292,-27.3917,82.40,66.20,58.08,30.00,14.00,0.00,29.80,M,6.21,M,FEW,M,M,M,3700.00,M,M,M,M,YBBN 260430Z 03014KT 9999 FEW037 28/19 Q1009 NOSIG
YBBN,2015-12-26 05:00,153.1292,-27.3917,82.40,68.00,61.81,30.00,14.00,0.00,29.77,M,6.21,M,FEW,M,M,M,3700.00,M,M,M,M,YBBN 260500Z 03014KT 9999 FEW037 28/20 Q1008 NOSIG
YBBN,2015-12-26 05:30,153.1292,-27.3917,82.40,68.00,61.81,10.00,14.00,0.00,29.77,M,6.21,M,FEW,M,M,M,3700.00,M,M,M,M,YBBN 260530Z 01014KT 9999 FEW037 28/20 Q1008 NOSIG
YBBN,2015-12-26 06:00,153.1292,-27.3917,82.40,68.00,61.81,10.00,15.00,0.00,29.77,M,6.21,M,FEW,M,M,M,3700.00,M,M,M,M,YBBN 260600Z 01015KT 9999 FEW037 28/20 Q1008 NOSIG
YBBN,2015-12-26 06:30,153.1292,-27.3917,80.60,69.80,69.71,10.00,15.00,0.00,29.77,M,6.21,M,FEW,M,M,M,3500.00,M,M,M,M,YBBN 260630Z 01015KT 9999 FEW035 27/21 Q1008
YBBN,2015-12-26 07:00,153.1292,-27.3917,80.60,68.00,65.54,10.00,16.00,0.00,29.77,M,6.21,M,FEW,M,M,M,2500.00,M,M,M,M,YBBN 260700Z 01016KT 9999 FEW025 27/20 Q1008 NOSIG
YBBN,2015-12-26 07:30,153.1292,-27.3917,78.80,68.00,69.52,10.00,15.00,0.00,29.77,M,6.21,M,FEW,M,M,M,3300.00,M,M,M,M,YBBN 260730Z 01015KT 9999 FEW033 26/20 Q1008 NOSIG
YBBN,2015-12-26 08:00,153.1292,-27.3917,78.80,69.80,73.95,10.00,14.00,0.00,29.80,M,6.21,M,FEW,M,M,M,4400.00,M,M,M,M,YBBN 260800Z 01014KT 9999 FEW044 26/21 Q1009 NOSIG
YBBN,2015-12-26 08:30,153.1292,-27.3917,77.00,69.80,78.48,10.00,14.00,0.00,29.80,M,6.21,M,FEW,M,M,M,3500.00,M,M,M,M,YBBN 260830Z 01014KT 9999 FEW035 25/21 Q1009 NOSIG
YBBN,2015-12-26 09:00,153.1292,-27.3917,77.00,69.80,78.48,10.00,14.00,0.00,29.80,M,6.21,M,FEW,SCT,M,M,1900.00,12000.00,M,M,M,YBBN 260900Z 01014KT 9999 FEW019 SCT120 25/21 Q1009
YBBN,2015-12-26 09:30,153.1292,-27.3917,77.00,69.80,78.48,10.00,15.00,0.00,29.83,M,6.21,M,FEW,SCT,BKN,M,1800.00,10500.00,12000.00,M,M,YBBN 260930Z 01015KT 9999 FEW018 SCT105 BKN120 25/21 Q1010 NOSIG
YBBN,2015-12-26 10:00,153.1292,-27.3917,78.80,71.60,78.62,360.00,14.00,0.00,29.83,M,6.21,M,SCT,BKN,BKN,M,1800.00,11500.00,13000.00,M,M,YBBN 261000Z 36014KT 9999 SCT018 BKN115 BKN130 26/22 Q1010
YBBN,2015-12-26 10:30,153.1292,-27.3917,77.00,71.60,83.44,10.00,16.00,0.00,29.83,M,6.21,M,FEW,OVC,M,M,1800.00,12500.00,M,M,M,YBBN 261030Z 01016KT 9999 FEW018 OVC125 25/22 Q1010 NOSIG
YBBN,2015-12-26 11:00,153.1292,-27.3917,78.80,69.80,73.95,360.00,14.00,0.00,29.83,M,6.21,M,SCT,SCT,BKN,M,1700.00,10500.00,12500.00,M,M,YBBN 261100Z 36014KT 9999 SCT017 SCT105 BKN125 26/21 Q1010 NOSIG
YBBN,2015-12-26 11:30,153.1292,-27.3917,78.80,71.60,78.62,10.00,15.00,0.00,29.85,M,6.21,M,SCT,BKN,BKN,M,1900.00,12500.00,16000.00,M,M,YBBN 261130Z 01015KT 9999 SCT019 BKN125 BKN160 26/22 Q1011
YBBN,2015-12-26 12:00,153.1292,-27.3917,78.80,71.60,78.62,360.00,14.00,0.00,29.85,M,6.21,M,BKN,BKN,M,M,1900.00,12500.00,M,M,M,YBBN 261200Z 36014KT 9999 BKN019 BKN125 26/22 Q1011
YBBN,2015-12-26 12:30,153.1292,-27.3917,78.80,71.60,78.62,10.00,15.00,0.00,29.85,M,6.21,M,BKN,SCT,BKN,M,1900.00,10500.00,12500.00,M,M,YBBN 261230Z 01015KT 9999 BKN019 SCT105 BKN125 26/22 Q1011 NOSIG
YBBN,2015-12-26 13:00,153.1292,-27.3917,78.80,71.60,78.62,10.00,14.00,0.00,29.85,M,6.21,M,FEW,SCT,BKN,M,1600.00,2000.00,10000.00,M,M,YBBN 261300Z 01014KT 9999 FEW016 SCT020 BKN100 26/22 Q1011
YBBN,2015-12-26 13:30,153.1292,-27.3917,78.80,71.60,78.62,10.00,13.00,0.00,29.83,M,6.21,M,FEW,SCT,BKN,M,1600.00,2200.00,10000.00,M,M,YBBN 261330Z 01013KT 9999 FEW016 SCT022 BKN100 26/22 Q1010
YBBN,2015-12-26 14:00,153.1292,-27.3917,78.80,71.60,78.62,360.00,11.00,0.00,29.83,M,6.21,M,FEW,SCT,BKN,M,1600.00,2400.00,10000.00,M,M,YBBN 261400Z 36011KT 9999 FEW016 SCT024 BKN100 26/22 Q1010
YBBN,2015-12-26 14:30,153.1292,-27.3917,77.00,71.60,83.44,350.00,10.00,0.00,29.83,M,6.21,M,FEW,BKN,OVC,M,1600.00,10000.00,11500.00,M,M,YBBN 261430Z 35010KT 9999 FEW016 BKN100 OVC115 25/22 Q1010 NOSIG
YBBN,2015-12-26 15:00,153.1292,-27.3917,77.00,71.60,83.44,360.00,12.00,0.00,29.83,M,6.21,M,FEW,SCT,BKN,M,1500.00,2300.00,10000.00,M,M,YBBN 261500Z 36012KT 9999 FEW015 SCT023 BKN100 25/22 Q1010
YBBN,2015-12-26 15:30,153.1292,-27.3917,77.00,71.60,83.44,350.00,11.00,0.00,29.83,M,6.21,M,FEW,SCT,OVC,M,1500.00,2200.00,12000.00,M,-RA,YBBN 261530Z 35011KT 9999 -RA FEW015 SCT022 OVC120 25/22 Q1010 NOSIG
YBBN,2015-12-26 16:00,153.1292,-27.3917,77.00,71.60,83.44,320.00,7.00,0.00,29.83,M,6.21,M,FEW,SCT,OVC,M,1500.00,9500.00,11500.00,M,-RA,YBBN 261600Z 32007KT 9999 -RA FEW015 SCT095 OVC115 25/22 Q1010
YBBN,2015-12-26 16:30,153.1292,-27.3917,75.20,71.60,88.59,330.00,7.00,0.00,29.83,M,6.21,M,FEW,BKN,OVC,M,1500.00,11500.00,15000.00,M,-RA,YBBN 261630Z 33007KT 9999 -RA FEW015 BKN115 OVC150 24/22 Q1010 NOSIG
YBBN,2015-12-26 17:00,153.1292,-27.3917,75.20,71.60,88.59,340.00,7.00,0.00,29.83,M,6.21,M,FEW,SCT,BKN,M,1800.00,9200.00,15500.00,M,VCSH,YBBN 261700Z 34007KT 9999 VCSH FEW018 SCT092 BKN155 24/22 Q1010 NOSIG
YBBN,2015-12-26 17:30,153.1292,-27.3917,75.20,71.60,88.59,330.00,7.00,0.00,29.83,M,6.21,M,FEW,BKN,BKN,M,1800.00,6800.00,8500.00,M,RA,YBBN 261730Z 33007KT 9999 RA FEW018 BKN068 BKN085 24/22 Q1010 NOSIG
YBBN,2015-12-26 18:00,153.1292,-27.3917,75.20,73.40,94.14,290.00,5.00,0.00,29.85,M,6.21,M,SCT,SCT,BKN,M,900.00,2800.00,4600.00,M,-SHRA,YBBN 261800Z AUTO 29005KT 9999 -SHRA SCT009 SCT028 BKN046 24/23 Q1011
YBBN,2015-12-26 18:30,153.1292,-27.3917,75.20,71.60,88.59,270.00,4.00,0.00,29.85,M,6.21,M,FEW,BKN,OVC,M,1000.00,3800.00,9000.00,M,-RA,YBBN 261830Z 27004KT 9999 -RA FEW010 BKN038 OVC090 24/22 Q1011
YBBN,2015-12-26 19:00,153.1292,-27.3917,75.20,71.60,88.59,310.00,5.00,0.00,29.85,M,6.21,M,FEW,BKN,OVC,M,500.00,8500.00,9800.00,M,M,YBBN 261900Z 31005KT 9999 FEW005 BKN085 OVC098 24/22 Q1011
YBBN,2015-12-26 19:30,153.1292,-27.3917,75.20,71.60,88.59,330.00,5.00,0.00,29.85,M,6.21,M,FEW,BKN,OVC,M,900.00,8000.00,15000.00,M,M,YBBN 261930Z 33005KT 9999 FEW009 BKN080 OVC150 24/22 Q1011 NOSIG
YBBN,2015-12-26 20:00,153.1292,-27.3917,75.20,71.60,88.59,300.00,5.00,0.00,29.85,M,6.21,M,FEW,SCT,BKN,M,4500.00,7000.00,8000.00,M,-RA,YBBN 262000Z 30005KT 9999 -RA FEW045 SCT070 BKN080 24/22 Q1011
YBBN,2015-12-26 20:30,153.1292,-27.3917,75.20,71.60,88.59,300.00,6.00,0.00,29.88,M,6.21,M,FEW,SCT,BKN,M,1000.00,5900.00,8000.00,M,-RA,YBBN 262030Z 30006KT 9999 -RA FEW010 SCT059 BKN080 24/22 Q1012 NOSIG
YBBN,2015-12-26 21:00,153.1292,-27.3917,75.20,71.60,88.59,300.00,4.00,0.00,29.88,M,6.21,M,FEW,SCT,BKN,M,1000.00,4100.00,5500.00,M,M,YBBN 262100Z 30004KT 9999 FEW010 SCT041 BKN055 24/22 Q1012 NOSIG
YBBN,2015-12-26 23:00,153.1292,-27.3917,80.60,69.80,69.71,350.00,7.00,0.00,29.88,M,6.21,M,FEW,BKN,BKN,M,2000.00,11000.00,17000.00,M,M,YBBN 262300Z 35007KT 9999 FEW020 BKN110 BKN170 27/21 Q1012
YBBN,2015-12-26 23:30,153.1292,-27.3917,80.60,69.80,69.71,360.00,8.00,0.00,29.88,M,6.21,M,FEW,BKN,M,M,2000.00,11000.00,M,M,M,YBBN 262330Z 36008KT 9999 FEW020 BKN110 27/21 Q1012
