#DEBUG: Format Typ    -> comma
#DEBUG: Time Period   -> 2013-10-28 00:00:00+00:00 2013-10-29 00:00:00+00:00
#DEBUG: Time Zone     -> Etc/UTC
#DEBUG: Data Contact   -> daryl herzmann akrherz@iastate.edu 515-294-5978
#DEBUG: Entries Found -> -1
station,valid,lon,lat,tmpf, dwpf, relh, drct, sknt, p01i, alti, mslp, vsby, gust, skyc1, skyc2, skyc3, skyc4, skyl1, skyl2, skyl3, skyl4, presentwx, metar
YBBN,2013-10-28 00:00,153.1292,-27.3917,75.20,57.20,53.55,20.00,13.00,0.00,30.15,M,6.21,M,FEW,SCT,BKN,M,2300.00,2900.00,7300.00,M,M,YBBN 280000Z 02013KT 9999 FEW023 SCT029 BKN073 24/14 Q1021 FM0300 02016KT 9999 SCT035 SCT045
YBBN,2013-10-28 00:30,153.1292,-27.3917,77.00,59.00,53.80,20.00,13.00,0.00,30.15,M,6.21,M,SCT,SCT,M,M,3000.00,7200.00,M,M,M,YBBN 280030Z 02013KT 9999 SCT030 SCT072 25/15 Q1021 RMK HZ DIST SHRA NW
YBBN,2013-10-28 01:00,153.1292,-27.3917,77.00,57.20,50.43,10.00,14.00,0.00,30.15,M,6.21,M,SCT,SCT,M,M,3200.00,5300.00,M,M,M,YBBN 280100Z 01014KT 9999 SCT032 SCT053 25/14 Q1021 RMK HZ DIST -SHRA NW
YBBN,2013-10-28 01:30,153.1292,-27.3917,77.00,57.20,50.43,10.00,15.00,0.00,30.12,M,6.21,M,SCT,M,M,M,3500.00,M,M,M,M,YBBN 280130Z 01015KT 9999 SCT035 25/14 Q1020 RMK HZ
YBBN,2013-10-28 02:00,153.1292,-27.3917,77.00,59.00,53.80,20.00,16.00,0.00,30.12,M,6.21,M,FEW,M,M,M,3700.00,M,M,M,M,YBBN 280200Z 02016KT 9999 FEW037 25/15 Q1020 RMK HZ
YBBN,2013-10-28 02:30,153.1292,-27.3917,77.00,59.00,53.80,10.00,17.00,0.00,30.09,M,6.21,M,FEW,M,M,M,3900.00,M,M,M,M,YBBN 280230Z 01017KT 9999 FEW039 25/15 Q1019 RMK HZ
YBBN,2013-10-28 03:00,153.1292,-27.3917,77.00,59.00,53.80,20.00,17.00,0.00,30.09,M,6.21,M,FEW,M,M,M,4000.00,M,M,M,M,YBBN 280300Z 02017KT 9999 FEW040 25/15 Q1019 NOSIG
YBBN,2013-10-28 03:30,153.1292,-27.3917,77.00,60.80,57.36,20.00,18.00,0.00,30.06,M,6.21,M,FEW,M,M,M,4000.00,M,M,M,M,YBBN 280330Z 02018KT 9999 FEW040 25/16 Q1018 RMK HZ
YBBN,2013-10-28 04:00,153.1292,-27.3917,75.20,59.00,57.12,20.00,18.00,0.00,30.06,M,6.21,M,FEW,M,M,M,4000.00,M,M,M,M,YBBN 280400Z 02018KT 9999 FEW040 24/15 Q1018 NOSIG
YBBN,2013-10-28 04:30,153.1292,-27.3917,77.00,60.80,57.36,20.00,18.00,0.00,30.03,M,6.21,M,FEW,M,M,M,3800.00,M,M,M,M,YBBN 280430Z 02018KT 9999 FEW038 25/16 Q1017 RMK HZ
YBBN,2013-10-28 05:00,153.1292,-27.3917,77.00,60.80,57.36,20.00,18.00,0.00,30.03,M,6.21,M,FEW,M,M,M,3800.00,M,M,M,M,YBBN 280500Z 02018KT 9999 FEW038 25/16 Q1017 NOSIG
YBBN,2013-10-28 05:30,153.1292,-27.3917,75.20,60.80,60.90,20.00,17.00,0.00,30.03,M,6.21,M,FEW,M,M,M,3800.00,M,M,M,M,YBBN 280530Z 02017KT 9999 FEW038 24/16 Q1017 RMK HZ
YBBN,2013-10-28 06:00,153.1292,-27.3917,75.20,60.80,60.90,30.00,18.00,0.00,30.00,M,6.21,M,FEW,M,M,M,3700.00,M,M,M,M,YBBN 280600Z 03018KT 9999 FEW037 24/16 Q1016 NOSIG
YBBN,2013-10-28 06:30,153.1292,-27.3917,73.40,60.80,64.69,20.00,18.00,0.00,30.00,M,6.21,M,FEW,M,M,M,2300.00,M,M,M,M,YBBN 280630Z 02018KT 9999 FEW023 23/16 Q1016 RMK HZ
YBBN,2013-10-28 07:00,153.1292,-27.3917,73.40,60.80,64.69,10.00,19.00,0.00,30.00,M,6.21,M,FEW,M,M,M,2000.00,M,M,M,M,YBBN 280700Z 01019KT 9999 FEW020 23/16 Q1016 RMK HZ
YBBN,2013-10-28 07:30,153.1292,-27.3917,71.60,60.80,68.75,10.00,17.00,0.00,30.00,M,6.21,M,FEW,M,M,M,1800.00,M,M,M,M,YBBN 280730Z 01017KT 9999 FEW018 22/16 Q1016 RMK HZ
YBBN,2013-10-28 08:00,153.1292,-27.3917,71.60,60.80,68.75,10.00,17.00,0.00,30.00,M,6.21,M,FEW,M,M,M,1700.00,M,M,M,M,YBBN 280800Z 01017KT 9999 FEW017 22/16 Q1016 RMK HZ
YBBN,2013-10-28 08:30,153.1292,-27.3917,71.60,62.60,73.27,10.00,17.00,0.00,30.00,M,6.21,M,FEW,SCT,M,M,1700.00,2300.00,M,M,M,YBBN 280830Z 01017KT 9999 FEW017 SCT023 22/17 Q1016
YBBN,2013-10-28 09:00,153.1292,-27.3917,71.60,62.60,73.27,10.00,18.00,0.00,30.00,M,6.21,M,SCT,M,M,M,2000.00,M,M,M,M,YBBN 280900Z 01018KT 9999 SCT020 22/17 Q1016
YBBN,2013-10-28 09:30,153.1292,-27.3917,71.60,62.60,73.27,360.00,17.00,0.00,30.03,M,6.21,M,FEW,M,M,M,2000.00,M,M,M,M,YBBN 280930Z 36017KT 9999 FEW020 22/17 Q1017
YBBN,2013-10-28 10:00,153.1292,-27.3917,71.60,62.60,73.27,360.00,18.00,0.00,30.03,M,6.21,M,SCT,M,M,M,2000.00,M,M,M,M,YBBN 281000Z 36018KT 9999 SCT020 22/17 Q1017 NOSIG
YBBN,2013-10-28 10:30,153.1292,-27.3917,71.60,62.60,73.27,360.00,19.00,0.00,30.03,M,6.21,M,SCT,M,M,M,2000.00,M,M,M,M,YBBN 281030Z 36019KT 9999 SCT020 22/17 Q1017 RMK HZ
YBBN,2013-10-28 11:00,153.1292,-27.3917,71.60,64.40,78.04,360.00,17.00,0.00,30.03,M,6.21,M,SCT,M,M,M,1700.00,M,M,M,M,YBBN 281100Z 36017KT 9999 SCT017 22/18 Q1017
YBBN,2013-10-28 11:30,153.1292,-27.3917,71.60,64.40,78.04,360.00,17.00,0.00,30.03,M,6.21,M,BKN,M,M,M,1700.00,M,M,M,M,YBBN 281130Z 36017KT 9999 BKN017 22/18 Q1017 RMK HZ
YBBN,2013-10-28 12:00,153.1292,-27.3917,71.60,64.40,78.04,360.00,17.00,0.00,30.03,M,6.21,M,SCT,M,M,M,1700.00,M,M,M,M,YBBN 281200Z 36017KT 9999 SCT017 22/18 Q1017 NOSIG
YBBN,2013-10-28 12:30,153.1292,-27.3917,71.60,62.60,73.27,360.00,17.00,0.00,30.03,M,6.21,M,FEW,M,M,M,1700.00,M,M,M,M,YBBN 281230Z 36017KT 9999 FEW017 22/17 Q1017 RMK HZ
YBBN,2013-10-28 13:00,153.1292,-27.3917,71.60,62.60,73.27,350.00,17.00,0.00,30.03,M,6.21,M,FEW,M,M,M,1700.00,M,M,M,M,YBBN 281300Z 35017KT 9999 FEW017 22/17 Q1017 NOSIG
YBBN,2013-10-28 13:30,153.1292,-27.3917,71.60,62.60,73.27,350.00,16.00,0.00,30.00,M,6.21,M,FEW,M,M,M,1700.00,M,M,M,M,YBBN 281330Z 35016KT 9999 FEW017 22/17 Q1016 RMK HZ
YBBN,2013-10-28 14:00,153.1292,-27.3917,69.80,62.60,77.90,350.00,16.00,0.00,30.00,M,6.21,M,FEW,M,M,M,1700.00,M,M,M,M,YBBN 281400Z 35016KT 9999 FEW017 21/17 Q1016 NOSIG
YBBN,2013-10-28 14:30,153.1292,-27.3917,69.80,62.60,77.90,350.00,15.00,0.00,30.00,M,6.21,M,FEW,M,M,M,1800.00,M,M,M,M,YBBN 281430Z 35015KT 9999 FEW018 21/17 Q1016 RMK HZ
YBBN,2013-10-28 15:00,153.1292,-27.3917,69.80,62.60,77.90,360.00,15.00,0.00,30.00,M,6.21,M,FEW,M,M,M,1800.00,M,M,M,M,YBBN 281500Z 36015KT 9999 FEW018 21/17 Q1016
YBBN,2013-10-28 15:30,153.1292,-27.3917,69.80,62.60,77.90,360.00,14.00,0.00,29.97,M,6.21,M,FEW,M,M,M,1800.00,M,M,M,M,YBBN 281530Z 36014KT 9999 FEW018 21/17 Q1015 RMK HZ
YBBN,2013-10-28 16:00,153.1292,-27.3917,69.80,62.60,77.90,360.00,11.00,0.00,29.97,M,6.21,M,FEW,M,M,M,1800.00,M,M,M,M,YBBN 281600Z 36011KT 9999 FEW018 21/17 Q1015 NOSIG
YBBN,2013-10-28 16:30,153.1292,-27.3917,68.00,62.60,82.86,360.00,10.00,0.00,29.97,M,6.21,M,FEW,M,M,M,1700.00,M,M,M,M,YBBN 281630Z 36010KT 9999 FEW017 20/17 Q1015 RMK HZ
YBBN,2013-10-28 17:00,153.1292,-27.3917,68.00,62.60,82.86,350.00,7.00,0.00,29.97,M,6.21,M,FEW,M,M,M,1700.00,M,M,M,M,YBBN 281700Z 35007KT 9999 FEW017 20/17 Q1015 NOSIG
YBBN,2013-10-28 17:30,153.1292,-27.3917,68.00,62.60,82.86,340.00,7.00,0.00,29.97,M,6.21,M,FEW,M,M,M,1700.00,M,M,M,M,YBBN 281730Z 34007KT 9999 FEW017 20/17 Q1015 RMK HZ
YBBN,2013-10-28 18:00,153.1292,-27.3917,68.00,62.60,82.86,350.00,9.00,0.00,29.97,M,6.21,M,FEW,M,M,M,1700.00,M,M,M,M,YBBN 281800Z 35009KT 9999 FEW017 20/17 Q1015 NOSIG
YBBN,2013-10-28 18:30,153.1292,-27.3917,68.00,62.60,82.86,350.00,8.00,0.00,29.97,M,6.21,M,M,M,M,M,M,M,M,M,M,YBBN 281830Z 35008KT CAVOK 20/17 Q1015 RMK HZ
YBBN,2013-10-28 19:00,153.1292,-27.3917,68.00,62.60,82.86,360.00,13.00,0.00,29.97,M,6.21,M,FEW,M,M,M,1800.00,M,M,M,M,YBBN 281900Z 36013KT 9999 FEW018 20/17 Q1015 NOSIG
YBBN,2013-10-28 19:30,153.1292,-27.3917,66.20,62.60,88.18,350.00,11.00,0.00,29.97,M,6.21,M,FEW,M,M,M,1700.00,M,M,M,M,YBBN 281930Z 35011KT 9999 FEW017 19/17 Q1015 RMK HZ
YBBN,2013-10-28 20:00,153.1292,-27.3917,68.00,62.60,82.86,290.00,7.00,0.00,30.00,M,6.21,M,FEW,M,M,M,1700.00,M,M,M,M,YBBN 282000Z 29007KT 9999 FEW017 20/17 Q1016 NOSIG
YBBN,2013-10-28 20:30,153.1292,-27.3917,69.80,62.60,77.90,290.00,4.00,0.00,30.00,M,6.21,M,FEW,M,M,M,1700.00,M,M,M,M,YBBN 282030Z 29004KT 9999 FEW017 21/17 Q1016 RMK HZ
YBBN,2013-10-28 21:00,153.1292,-27.3917,71.60,62.60,73.27,340.00,7.00,0.00,30.00,M,6.21,M,FEW,M,M,M,1700.00,M,M,M,M,YBBN 282100Z 34007KT 9999 FEW017 22/17 Q1016 NOSIG
YBBN,2013-10-28 21:30,153.1292,-27.3917,73.40,62.60,68.94,360.00,15.00,0.00,30.00,M,6.21,M,FEW,M,M,M,1700.00,M,M,M,M,YBBN 282130Z 36015KT 9999 FEW017 23/17 Q1016 RMK HZ
YBBN,2013-10-28 22:00,153.1292,-27.3917,75.20,62.60,64.91,10.00,15.00,0.00,30.00,M,6.21,M,FEW,M,M,M,1800.00,M,M,M,M,YBBN 282200Z 01015KT 9999 FEW018 24/17 Q1016 NOSIG
YBBN,2013-10-28 22:30,153.1292,-27.3917,77.00,62.60,61.13,360.00,16.00,0.00,30.00,M,6.21,M,FEW,M,M,M,2000.00,M,M,M,M,YBBN 282230Z 36016KT 9999 FEW020 25/17 Q1016 RMK HZ
YBBN,2013-10-28 23:00,153.1292,-27.3917,77.00,62.60,61.13,360.00,15.00,0.00,29.97,M,6.21,M,FEW,M,M,M,2200.00,M,M,M,M,YBBN 282300Z 36015KT 9999 FEW022 25/17 Q1015 NOSIG
YBBN,2013-10-28 23:30,153.1292,-27.3917,78.80,62.60,57.60,360.00,13.00,0.00,29.97,M,6.21,M,FEW,M,M,M,2700.00,M,M,M,M,YBBN 282330Z 36013KT 9999 FEW027 26/17 Q1015
