#DEBUG: Format Typ    -> comma
#DEBUG: Time Period   -> 2014-03-08 00:00:00+00:00 2014-03-09 00:00:00+00:00
#DEBUG: Time Zone     -> Etc/UTC
#DEBUG: Data Contact   -> daryl herzmann akrherz@iastate.edu 515-294-5978
#DEBUG: Entries Found -> -1
station,valid,lon,lat,tmpf, dwpf, relh, drct, sknt, p01i, alti, mslp, vsby, gust, skyc1, skyc2, skyc3, skyc4, skyl1, skyl2, skyl3, skyl4, presentwx, metar
YBBN,2014-03-08 00:00,153.1292,-27.3917,78.80,55.40,44.52,110.00,12.00,0.00,30.12,M,6.21,M,SCT,M,M,M,3800.00,M,M,M,M,YBBN 080000Z 11012KT 9999 SCT038 26/13 Q1020
YBBN,2014-03-08 00:30,153.1292,-27.3917,80.60,55.40,41.97,120.00,11.00,0.00,30.12,M,6.21,M,SCT,SCT,M,M,4000.00,6500.00,M,M,M,YBBN 080030Z 12011KT 9999 SCT040 SCT065 27/13 Q1020
YBBN,2014-03-08 01:00,153.1292,-27.3917,78.80,55.40,44.52,120.00,12.00,0.00,30.09,M,6.21,M,SCT,M,M,M,4000.00,M,M,M,M,YBBN 080100Z 12012KT 9999 SCT040 26/13 Q1019 NOSIG
YBBN,2014-03-08 01:30,153.1292,-27.3917,80.60,57.20,44.80,130.00,12.00,0.00,30.09,M,6.21,M,SCT,M,M,M,4500.00,M,M,M,M,YBBN 080130Z 13012KT 9999 SCT045 27/14 Q1019
YBBN,2014-03-08 02:00,153.1292,-27.3917,80.60,57.20,44.80,120.00,12.00,0.00,30.09,M,6.21,M,SCT,M,M,M,4500.00,M,M,M,M,YBBN 080200Z 12012KT 9999 SCT045 27/14 Q1019 NOSIG
YBBN,2014-03-08 02:30,153.1292,-27.3917,80.60,55.40,41.97,120.00,13.00,0.00,30.09,M,6.21,M,SCT,SCT,M,M,4500.00,30000.00,M,M,M,YBBN 080230Z 12013KT 9999 SCT045 SCT300 27/13 Q1019
YBBN,2014-03-08 03:00,153.1292,-27.3917,80.60,55.40,41.97,130.00,11.00,0.00,30.06,M,6.21,M,SCT,M,M,M,4500.00,M,M,M,M,YBBN 080300Z 13011KT 9999 SCT045 27/13 Q1018 NOSIG
YBBN,2014-03-08 03:30,153.1292,-27.3917,80.60,59.00,47.79,140.00,9.00,0.00,30.06,M,6.21,M,SCT,M,M,M,4500.00,M,M,M,M,YBBN 080330Z 14009KT 9999 SCT045 27/15 Q1018
YBBN,2014-03-08 04:00,153.1292,-27.3917,80.60,57.20,44.80,110.00,11.00,0.00,30.06,M,6.21,M,SCT,SCT,M,M,4000.00,25000.00,M,M,M,YBBN 080400Z 11011KT 9999 SCT040 SCT250 27/14 Q1018 NOSIG
YBBN,2014-03-08 04:30,153.1292,-27.3917,80.60,57.20,44.80,120.00,13.00,0.00,30.06,M,6.21,M,SCT,M,M,M,4000.00,M,M,M,M,YBBN 080430Z 12013KT 9999 SCT040 27/14 Q1018
YBBN,2014-03-08 05:00,153.1292,-27.3917,78.80,57.20,47.52,120.00,13.00,0.00,30.06,M,6.21,M,SCT,M,M,M,4000.00,M,M,M,M,YBBN 080500Z 12013KT 9999 SCT040 26/14 Q1018 NOSIG
YBBN,2014-03-08 05:30,153.1292,-27.3917,78.80,59.00,50.69,120.00,11.00,0.00,30.06,M,6.21,M,SCT,M,M,M,4000.00,M,M,M,M,YBBN 080530Z 12011KT 9999 SCT040 26/15 Q1018
YBBN,2014-03-08 06:00,153.1292,-27.3917,78.80,59.00,50.69,110.00,11.00,0.00,30.06,M,6.21,M,SCT,M,M,M,3800.00,M,M,M,M,YBBN 080600Z 11011KT 9999 SCT038 26/15 Q1018
YBBN,2014-03-08 06:30,153.1292,-27.3917,78.80,59.00,50.69,120.00,11.00,0.00,30.06,M,6.21,M,FEW,M,M,M,3800.00,M,M,M,M,YBBN 080630Z 12011KT 9999 FEW038 26/15 Q1018
YBBN,2014-03-08 07:00,153.1292,-27.3917,77.00,59.00,53.80,120.00,11.00,0.00,30.06,M,6.21,M,FEW,M,M,M,3800.00,M,M,M,M,YBBN 080700Z 12011KT 9999 FEW038 25/15 Q1018 NOSIG
YBBN,2014-03-08 07:30,153.1292,-27.3917,77.00,59.00,53.80,120.00,10.00,0.00,30.06,M,6.21,M,FEW,M,M,M,3500.00,M,M,M,M,YBBN 080730Z 12010KT 9999 FEW035 25/15 Q1018
YBBN,2014-03-08 08:00,153.1292,-27.3917,75.20,60.80,60.90,120.00,10.00,0.00,30.06,M,6.21,M,SCT,M,M,M,3500.00,M,M,M,M,YBBN 080800Z 12010KT 9999 SCT035 24/16 Q1018
YBBN,2014-03-08 08:30,153.1292,-27.3917,75.20,60.80,60.90,110.00,8.00,0.00,30.06,M,6.21,M,FEW,M,M,M,3500.00,M,M,M,M,YBBN 080830Z 11008KT 9999 FEW035 24/16 Q1018
YBBN,2014-03-08 09:00,153.1292,-27.3917,75.20,60.80,60.90,120.00,10.00,0.00,30.09,M,6.21,M,FEW,SCT,M,M,3500.00,7000.00,M,M,M,YBBN 080900Z 12010KT 9999 FEW035 SCT070 24/16 Q1019 NOSIG
YBBN,2014-03-08 09:30,153.1292,-27.3917,75.20,59.00,57.12,130.00,10.00,0.00,30.09,M,6.21,M,FEW,SCT,M,M,3500.00,7000.00,M,M,M,YBBN 080930Z 13010KT 9999 FEW035 SCT070 24/15 Q1019
YBBN,2014-03-08 10:00,153.1292,-27.3917,75.20,60.80,60.90,130.00,9.00,0.00,30.09,M,6.21,M,M,M,M,M,M,M,M,M,M,YBBN 081000Z 13009KT CAVOK 24/16 Q1019
YBBN,2014-03-08 10:30,153.1292,-27.3917,73.40,59.00,60.67,140.00,6.00,0.00,30.09,M,6.21,M,M,M,M,M,M,M,M,M,M,YBBN 081030Z 14006KT CAVOK 23/15 Q1019
YBBN,2014-03-08 11:00,153.1292,-27.3917,73.40,60.80,64.69,150.00,6.00,0.00,30.09,M,6.21,M,FEW,M,M,M,3500.00,M,M,M,M,YBBN 081100Z 15006KT 9999 FEW035 23/16 Q1019 NOSIG
YBBN,2014-03-08 11:30,153.1292,-27.3917,73.40,60.80,64.69,150.00,7.00,0.00,30.09,M,6.21,M,SCT,SCT,M,M,3500.00,7800.00,M,M,-SHRA,YBBN 081130Z 15007KT 9999 -SHRA SCT035 SCT078 23/16 Q1019
YBBN,2014-03-08 12:00,153.1292,-27.3917,71.60,62.60,73.27,130.00,8.00,0.00,30.09,M,6.21,M,FEW,SCT,M,M,2500.00,4500.00,M,M,M,YBBN 081200Z 13008KT 9999 FEW025 SCT045 22/17 Q1019
YBBN,2014-03-08 12:30,153.1292,-27.3917,73.40,60.80,64.69,110.00,9.00,0.00,30.09,M,6.21,M,M,M,M,M,M,M,M,M,M,YBBN 081230Z 11009KT CAVOK 23/16 Q1019
YBBN,2014-03-08 13:00,153.1292,-27.3917,73.40,59.00,60.67,110.00,12.00,0.00,30.09,M,6.21,M,FEW,SCT,BKN,M,3000.00,6000.00,7900.00,M,-SHRA,YBBN 081300Z 11012KT 9999 -SHRA FEW030 SCT060 BKN079 23/15 Q1019
YBBN,2014-03-08 13:30,153.1292,-27.3917,73.40,60.80,64.69,110.00,6.00,0.00,30.09,M,6.21,M,FEW,SCT,BKN,M,3000.00,5900.00,8000.00,M,VCSH,YBBN 081330Z 11006KT 9999 VCSH FEW030 SCT059 BKN080 23/16 Q1019
YBBN,2014-03-08 14:00,153.1292,-27.3917,69.80,62.60,77.90,110.00,10.00,0.00,30.09,M,6.21,M,FEW,SCT,BKN,M,3000.00,5000.00,8000.00,M,-SHRA,YBBN 081400Z 11010KT 9999 -SHRA FEW030 SCT050 BKN080 21/17 Q1019 INTER 1400/1700 3000 SHRA BKN012
YBBN,2014-03-08 14:30,153.1292,-27.3917,71.60,62.60,73.27,150.00,4.00,0.00,30.06,M,6.21,M,FEW,SCT,M,M,3400.00,6400.00,M,M,M,YBBN 081430Z 15004KT 9999 FEW034 SCT064 22/17 Q1018
YBBN,2014-03-08 15:00,153.1292,-27.3917,71.60,64.40,78.04,130.00,5.00,0.00,30.06,M,6.21,M,FEW,SCT,M,M,3400.00,7400.00,M,M,M,YBBN 081500Z 13005KT 9999 FEW034 SCT074 22/18 Q1018 INTER 1500/1800 3000 SHRA BKN012
YBBN,2014-03-08 15:30,153.1292,-27.3917,69.80,64.40,82.98,160.00,5.00,0.00,30.06,M,6.21,M,BKN,M,M,M,3600.00,M,M,M,M,YBBN 081530Z 16005KT 9999 BKN036 21/18 Q1018
YBBN,2014-03-08 16:00,153.1292,-27.3917,69.80,64.40,82.98,200.00,5.00,0.00,30.03,M,6.21,M,FEW,BKN,M,M,3200.00,3600.00,M,M,M,YBBN 081600Z 20005KT 9999 FEW032 BKN036 21/18 Q1017
YBBN,2014-03-08 16:30,153.1292,-27.3917,69.80,64.40,82.98,180.00,3.00,0.00,30.03,M,6.21,M,FEW,M,M,M,3200.00,M,M,M,M,YBBN 081630Z 18003KT 9999 FEW032 21/18 Q1017
YBBN,2014-03-08 17:00,153.1292,-27.3917,73.40,62.60,68.94,110.00,7.00,0.00,30.03,M,6.21,M,FEW,M,M,M,3200.00,M,M,M,M,YBBN 081700Z 11007KT 9999 FEW032 23/17 Q1017 INTER 1700/2000 3000 SHRA BKN012
YBBN,2014-03-08 17:30,153.1292,-27.3917,73.40,62.60,68.94,110.00,7.00,0.00,30.03,M,6.21,M,FEW,SCT,BKN,M,3200.00,4500.00,7700.00,M,VCSH,YBBN 081730Z 11007KT 9999 VCSH FEW032 SCT045 BKN077 23/17 Q1017
YBBN,2014-03-08 18:00,153.1292,-27.3917,68.00,64.40,88.26,170.00,7.00,0.00,30.03,M,6.21,M,SCT,SCT,M,M,2700.00,3400.00,M,M,-SHRA,YBBN 081800Z 17007KT 9999 -SHRA SCT027 SCT034 20/18 Q1017 RESHRA
YBBN,2014-03-08 18:30,153.1292,-27.3917,69.80,64.40,82.98,160.00,7.00,0.00,30.03,M,6.21,M,FEW,BKN,M,M,2700.00,5400.00,M,M,-SHRA,YBBN 081830Z 16007KT 9999 -SHRA FEW027 BKN054 21/18 Q1017
YBBN,2014-03-08 19:00,153.1292,-27.3917,69.80,64.40,82.98,150.00,6.00,0.00,30.03,M,6.21,M,FEW,SCT,BKN,M,2700.00,6000.00,7700.00,M,M,YBBN 081900Z 15006KT 9999 FEW027 SCT060 BKN077 21/18 Q1017
YBBN,2014-03-08 19:30,153.1292,-27.3917,69.80,64.40,82.98,160.00,6.00,0.00,30.06,M,6.21,M,FEW,SCT,M,M,2700.00,7500.00,M,M,M,YBBN 081930Z 16006KT 9999 FEW027 SCT075 21/18 Q1018
YBBN,2014-03-08 20:00,153.1292,-27.3917,69.80,64.40,82.98,170.00,5.00,0.00,30.06,M,6.21,M,FEW,SCT,BKN,M,3000.00,4000.00,25000.00,M,M,YBBN 082000Z 17005KT 9999 FEW030 SCT040 BKN250 21/18 Q1018
YBBN,2014-03-08 20:30,153.1292,-27.3917,69.80,64.40,82.98,170.00,5.00,0.00,30.09,M,6.21,M,SCT,BKN,M,M,3000.00,25000.00,M,M,M,YBBN 082030Z 17005KT 9999 SCT030 BKN250 21/18 Q1019
YBBN,2014-03-08 21:00,153.1292,-27.3917,73.40,64.40,73.44,90.00,8.00,0.00,30.09,M,6.21,M,FEW,BKN,M,M,2800.00,25000.00,M,M,M,YBBN 082100Z 09008KT 9999 FEW028 BKN250 23/18 Q1019 INTER 2100/2400 3000 SHRA BKN012
YBBN,2014-03-08 21:30,153.1292,-27.3917,75.20,60.80,60.90,100.00,8.00,0.00,30.09,M,6.21,M,FEW,SCT,BKN,M,2800.00,7500.00,25000.00,M,M,YBBN 082130Z 10008KT 9999 FEW028 SCT075 BKN250 24/16 Q1019
YBBN,2014-03-08 22:00,153.1292,-27.3917,75.20,62.60,64.91,100.00,8.00,0.00,30.09,M,4.97,M,FEW,BKN,BKN,M,3000.00,6500.00,25000.00,M,-SHRA,YBBN 082200Z 10008KT 8000 -SHRA FEW030 BKN065 BKN250 24/17 Q1019
YBBN,2014-03-08 22:30,153.1292,-27.3917,77.00,64.40,65.12,90.00,9.00,0.00,30.09,M,6.21,M,FEW,SCT,BKN,M,1300.00,3000.00,4200.00,M,VCSH,YBBN 082230Z 09009KT 9999 VCSH FEW013 SCT030 BKN042 25/18 Q1019
YBBN,2014-03-08 23:00,153.1292,-27.3917,77.00,62.60,61.13,90.00,9.00,0.00,30.12,M,6.21,M,FEW,SCT,BKN,M,1400.00,3000.00,7500.00,M,VCSH,YBBN 082300Z 09009KT 9999 VCSH FEW014 SCT030 BKN075 25/17 Q1020
YBBN,2014-03-08 23:30,153.1292,-27.3917,78.80,60.80,54.05,100.00,7.00,0.00,30.12,M,6.21,M,SCT,BKN,M,M,3200.00,7000.00,M,M,M,YBBN 082330Z 10007KT 9999 SCT032 BKN070 26/16 Q1020
