#DEBUG: Format Typ    -> comma
#DEBUG: Time Period   -> 2014-09-16 00:00:00+00:00 2014-09-17 00:00:00+00:00
#DEBUG: Time Zone     -> Etc/UTC
#DEBUG: Data Contact   -> daryl herzmann akrherz@iastate.edu 515-294-5978
#DEBUG: Entries Found -> -1
station,valid,lon,lat,tmpf, dwpf, relh, drct, sknt, p01i, alti, mslp, vsby, gust, skyc1, skyc2, skyc3, skyc4, skyl1, skyl2, skyl3, skyl4, presentwx, metar
YBBN,2014-09-16 00:00,153.1292,-27.3917,71.60,57.20,60.44,360.00,9.00,0.00,30.00,M,6.21,M,M,M,M,M,M,M,M,M,M,YBBN 160000Z 36009KT CAVOK 22/14 Q1016 NOSIG
YBBN,2014-09-16 00:30,153.1292,-27.3917,73.40,57.20,56.88,20.00,11.00,0.00,29.97,M,6.21,M,M,M,M,M,M,M,M,M,M,YBBN 160030Z 02011KT CAVOK 23/14 Q1015
YBBN,2014-09-16 01:00,153.1292,-27.3917,73.40,55.40,53.29,20.00,12.00,0.00,29.97,M,6.21,M,FEW,BKN,M,M,4000.00,28000.00,M,M,M,YBBN 160100Z 02012KT 9999 FEW040 BKN280 23/13 Q1015 NOSIG
YBBN,2014-09-16 01:30,153.1292,-27.3917,75.20,62.60,64.91,30.00,14.00,0.00,29.94,M,6.21,M,FEW,BKN,M,M,4000.00,28000.00,M,M,M,YBBN 160130Z 03014KT 9999 FEW040 BKN280 24/17 Q1014
YBBN,2014-09-16 02:00,153.1292,-27.3917,73.40,62.60,68.94,20.00,17.00,0.00,29.94,M,6.21,M,FEW,BKN,M,M,3800.00,28000.00,M,M,M,YBBN 160200Z 02017KT 9999 FEW038 BKN280 23/17 Q1014
YBBN,2014-09-16 02:30,153.1292,-27.3917,73.40,62.60,68.94,20.00,17.00,0.00,29.91,M,6.21,M,FEW,FEW,M,M,3500.00,3500.00,M,M,M,YBBN 160230Z 02017KT 9999 FEW035 FEW035TCU 23/17 Q1013
YBBN,2014-09-16 03:00,153.1292,-27.3917,73.40,62.60,68.94,20.00,19.00,0.00,29.88,M,6.21,M,FEW,FEW,M,M,3400.00,3400.00,M,M,M,YBBN 160300Z 02019KT 9999 FEW034 FEW034TCU 23/17 Q1012 NOSIG
YBBN,2014-09-16 03:30,153.1292,-27.3917,73.40,62.60,68.94,20.00,19.00,0.00,29.88,M,6.21,M,FEW,FEW,M,M,3400.00,3400.00,M,M,M,YBBN 160330Z 02019KT 9999 FEW034 FEW034TCU 23/17 Q1012
YBBN,2014-09-16 04:00,153.1292,-27.3917,73.40,62.60,68.94,20.00,21.00,0.00,29.85,M,6.21,M,SCT,FEW,M,M,2800.00,3000.00,M,M,VCSH,YBBN 160400Z 02021KT 9999 VCSH SCT028 FEW030TCU 23/17 Q1011
YBBN,2014-09-16 04:30,153.1292,-27.3917,71.60,64.40,78.04,20.00,19.00,0.00,29.85,M,6.21,M,SCT,FEW,M,M,2800.00,3000.00,M,M,VCSH,YBBN 160430Z 02019KT 9999 VCSH SCT028 FEW030TCU 22/18 Q1011 RESHRA
YBBN,2014-09-16 05:00,153.1292,-27.3917,71.60,64.40,78.04,360.00,20.00,0.00,29.85,M,6.21,M,SCT,FEW,M,M,2500.00,2500.00,M,M,-SHRA,YBBN 160500Z 36020KT 9999 -SHRA SCT025 FEW025CB 22/18 Q1011
YBBN,2014-09-16 05:30,153.1292,-27.3917,73.40,62.60,68.94,10.00,19.00,0.00,29.83,M,6.21,M,FEW,FEW,M,M,2500.00,2500.00,M,M,VCSH,YBBN 160530Z 01019KT 9999 VCSH FEW025 FEW025TCU 23/17 Q1010 RMK TS TO NE
YBBN,2014-09-16 06:00,153.1292,-27.3917,71.60,62.60,73.27,10.00,19.00,0.00,29.83,M,6.21,M,FEW,FEW,M,M,2500.00,2500.00,M,M,VCSH,YBBN 160600Z 01019KT 9999 VCSH FEW025 FEW025CB 22/17 Q1010 TEMPO 0600/0900 VRB20G30KT 2000 TSRA SCT020 SCT060CB
YBBN,2014-09-16 06:30,153.1292,-27.3917,71.60,64.40,78.04,10.00,20.00,0.00,29.83,M,6.21,M,FEW,FEW,M,M,2500.00,2500.00,M,M,VCSH,YBBN 160630Z 01020KT 9999 VCSH FEW025 FEW025TCU 22/18 Q1010
YBBN,2014-09-16 07:00,153.1292,-27.3917,69.80,62.60,77.90,10.00,15.00,0.00,29.83,M,6.21,M,FEW,FEW,M,M,2500.00,2500.00,M,M,VCSH,YBBN 160700Z 01015KT 9999 VCSH FEW025 FEW025CB 21/17 Q1010 TEMPO 0700/1000 VRB20G30KT 2000 TSRA SCT070CB
YBBN,2014-09-16 07:30,153.1292,-27.3917,69.80,57.20,64.26,350.00,10.00,0.00,29.85,M,6.21,M,FEW,SCT,M,M,2000.00,2500.00,M,M,VCSH,YBBN 160730Z 35010KT 9999 VCSH FEW020 SCT025CB 21/14 Q1011
YBBN,2014-09-16 07:48,153.1292,-27.3917,71.60,57.20,60.44,310.00,15.00,0.00,29.88,M,3.73,M,FEW,SCT,M,M,1500.00,2500.00,M,M,SHRA,YBBN 160748Z 31015KT 6000 SHRA FEW015 SCT025CB 22/14 Q1012
YBBN,2014-09-16 08:00,153.1292,-27.3917,69.80,60.80,73.09,320.00,15.00,0.00,29.85,M,6.21,28.00,FEW,SCT,M,M,1500.00,2500.00,M,M,-SHRA,YBBN 160800Z 32015G28KT 9999 6000NW -SHRA FEW015 SCT025CB 21/16 Q1011 RESHRA
YBBN,2014-09-16 08:05,153.1292,-27.3917,69.80,59.00,68.55,350.00,21.00,0.00,29.85,M,4.97,M,FEW,SCT,M,M,1000.00,2500.00,M,M,VCTS,YBBN 160805Z 35021KT 8000 VCTS FEW010 SCT025CB 21/15 Q1011
YBBN,2014-09-16 08:30,153.1292,-27.3917,69.80,60.80,73.09,350.00,18.00,0.00,29.88,M,6.21,M,FEW,SCT,BKN,FEW,1800.00,11000.00,24000.00,3500.00,VCTS -SHRA,YBBN 160830Z 35018KT 9999 VCTS -SHRA FEW018 SCT110 BKN240 FEW035CB 21/16 Q1012
YBBN,2014-09-16 09:00,153.1292,-27.3917,69.80,62.60,77.90,350.00,15.00,0.00,29.88,M,6.21,M,FEW,SCT,FEW,M,1800.00,11000.00,3500.00,M,M,YBBN 160900Z 35015KT 9999 FEW018 SCT110 FEW035CB 21/17 Q1012
YBBN,2014-09-16 09:30,153.1292,-27.3917,68.00,62.60,82.86,350.00,15.00,0.00,29.91,M,6.21,M,FEW,SCT,FEW,M,2000.00,11000.00,3500.00,M,VCSH,YBBN 160930Z 35015KT 9999 VCSH FEW020 SCT110 FEW035CB 20/17 Q1013 RMK DIST LIGHTNING SEEN NE
YBBN,2014-09-16 10:00,153.1292,-27.3917,68.00,64.40,88.26,360.00,14.00,0.00,29.88,M,6.21,M,FEW,SCT,M,M,3000.00,11000.00,M,M,M,YBBN 161000Z 36014KT 9999 FEW030 SCT110 20/18 Q1012
YBBN,2014-09-16 10:30,153.1292,-27.3917,68.00,64.40,88.26,350.00,12.00,0.00,29.88,M,6.21,M,FEW,SCT,M,M,3000.00,12000.00,M,M,M,YBBN 161030Z 35012KT 9999 FEW030 SCT120 20/18 Q1012 RMK DIST LIGHTNING SEEN NE
YBBN,2014-09-16 11:00,153.1292,-27.3917,68.00,62.60,82.86,360.00,11.00,0.00,29.88,M,6.21,M,FEW,M,M,M,3000.00,M,M,M,M,YBBN 161100Z 36011KT 9999 FEW030 20/17 Q1012
YBBN,2014-09-16 11:30,153.1292,-27.3917,66.20,62.60,88.18,340.00,9.00,0.00,29.91,M,6.21,M,FEW,M,M,M,4800.00,M,M,M,M,YBBN 161130Z 34009KT 9999 FEW048 19/17 Q1013
YBBN,2014-09-16 12:00,153.1292,-27.3917,66.20,62.60,88.18,340.00,10.00,0.00,29.88,M,6.21,M,FEW,SCT,M,M,4800.00,12000.00,M,M,M,YBBN 161200Z 34010KT 9999 FEW048 SCT120 19/17 Q1012
YBBN,2014-09-16 12:30,153.1292,-27.3917,66.20,59.00,77.60,350.00,13.00,0.00,29.91,M,6.21,M,FEW,SCT,M,M,4900.00,12000.00,M,M,M,YBBN 161230Z 35013KT 9999 FEW049 SCT120 19/15 Q1013
YBBN,2014-09-16 13:00,153.1292,-27.3917,66.20,57.20,72.74,340.00,13.00,0.00,29.91,M,6.21,M,M,M,M,M,M,M,M,M,M,YBBN 161300Z 34013KT CAVOK 19/14 Q1013 NOSIG
YBBN,2014-09-16 13:30,153.1292,-27.3917,66.20,57.20,72.74,360.00,13.00,0.00,29.91,M,6.21,M,M,M,M,M,M,M,M,M,M,YBBN 161330Z 36013KT CAVOK 19/14 Q1013
YBBN,2014-09-16 14:00,153.1292,-27.3917,64.40,57.20,77.45,360.00,11.00,0.00,29.91,M,6.21,M,M,M,M,M,M,M,M,M,M,YBBN 161400Z 36011KT CAVOK 18/14 Q1013
YBBN,2014-09-16 14:30,153.1292,-27.3917,64.40,55.40,72.56,350.00,13.00,0.00,29.91,M,6.21,M,M,M,M,M,M,M,M,M,M,YBBN 161430Z 35013KT CAVOK 18/13 Q1013
YBBN,2014-09-16 15:00,153.1292,-27.3917,64.40,53.60,67.95,350.00,12.00,0.00,29.88,M,6.21,M,M,M,M,M,M,M,M,M,M,YBBN 161500Z 35012KT CAVOK 18/12 Q1012 NOSIG
YBBN,2014-09-16 15:30,153.1292,-27.3917,64.40,53.60,67.95,350.00,11.00,0.00,29.88,M,6.21,M,M,M,M,M,M,M,M,M,M,YBBN 161530Z 35011KT CAVOK 18/12 Q1012
YBBN,2014-09-16 16:00,153.1292,-27.3917,64.40,53.60,67.95,350.00,11.00,0.00,29.88,M,6.21,M,M,M,M,M,M,M,M,M,M,YBBN 161600Z 35011KT CAVOK 18/12 Q1012 NOSIG
YBBN,2014-09-16 16:30,153.1292,-27.3917,64.40,53.60,67.95,350.00,9.00,0.00,29.88,M,6.21,M,M,M,M,M,M,M,M,M,M,YBBN 161630Z 35009KT CAVOK 18/12 Q1012
YBBN,2014-09-16 17:00,153.1292,-27.3917,62.60,53.60,72.38,340.00,10.00,0.00,29.88,M,6.21,M,M,M,M,M,M,M,M,M,M,YBBN 161700Z 34010KT CAVOK 17/12 Q1012
YBBN,2014-09-16 17:30,153.1292,-27.3917,62.60,51.80,67.75,340.00,10.00,0.00,29.88,M,6.21,M,M,M,M,M,M,M,M,M,M,YBBN 161730Z 34010KT CAVOK 17/11 Q1012
YBBN,2014-09-16 18:00,153.1292,-27.3917,62.60,51.80,67.75,340.00,9.00,0.00,29.88,M,6.21,M,M,M,M,M,M,M,M,M,M,YBBN 161800Z 34009KT CAVOK 17/11 Q1012 NOSIG
YBBN,2014-09-16 18:30,153.1292,-27.3917,59.00,51.80,76.98,350.00,8.00,0.00,29.91,M,6.21,M,M,M,M,M,M,M,M,M,M,YBBN 161830Z 35008KT CAVOK 15/11 Q1013
YBBN,2014-09-16 19:00,153.1292,-27.3917,59.00,50.00,72.01,280.00,5.00,0.00,29.91,M,6.21,M,M,M,M,M,M,M,M,M,M,YBBN 161900Z 28005KT CAVOK 15/10 Q1013 NOSIG
YBBN,2014-09-16 19:30,153.1292,-27.3917,57.20,50.00,76.82,320.00,2.00,0.00,29.91,M,6.21,M,M,M,M,M,M,M,M,M,M,YBBN 161930Z 32002KT CAVOK 14/10 Q1013
YBBN,2014-09-16 20:00,153.1292,-27.3917,57.20,51.80,82.12,350.00,1.00,0.00,29.94,M,6.21,M,M,M,M,M,M,M,M,M,M,YBBN 162000Z 35001KT CAVOK 14/11 Q1014 NOSIG
YBBN,2014-09-16 20:30,153.1292,-27.3917,59.00,53.60,82.25,330.00,1.00,0.00,29.94,M,6.21,M,M,M,M,M,M,M,M,M,M,YBBN 162030Z 33001KT CAVOK 15/12 Q1014
YBBN,2014-09-16 21:00,153.1292,-27.3917,64.40,51.80,63.60,280.00,4.00,0.00,29.94,M,6.21,M,M,M,M,M,M,M,M,M,M,YBBN 162100Z 28004KT CAVOK 18/11 Q1014 NOSIG
YBBN,2014-09-16 21:30,153.1292,-27.3917,66.20,50.00,55.88,260.00,7.00,0.00,29.97,M,6.21,M,M,M,M,M,M,M,M,M,M,YBBN 162130Z 26007KT CAVOK 19/10 Q1015
YBBN,2014-09-16 22:00,153.1292,-27.3917,69.80,46.40,43.13,250.00,6.00,0.00,29.97,M,6.21,M,M,M,M,M,M,M,M,M,M,YBBN 162200Z 25006KT CAVOK 21/08 Q1015 NOSIG
YBBN,2014-09-16 22:30,153.1292,-27.3917,71.60,48.20,43.42,240.00,7.00,0.00,29.97,M,6.21,M,M,M,M,M,M,M,M,M,M,YBBN 162230Z 24007KT CAVOK 22/09 Q1015
YBBN,2014-09-16 23:00,153.1292,-27.3917,75.20,41.00,29.23,230.00,11.00,0.00,29.97,M,6.21,M,M,M,M,M,M,M,M,M,M,YBBN 162300Z 23011KT CAVOK 24/05 Q1015 NOSIG
YBBN,2014-09-16 23:30,153.1292,-27.3917,77.00,39.20,25.67,230.00,9.00,0.00,29.97,M,6.21,M,M,M,M,M,M,M,M,M,M,YBBN 162330Z 23009KT CAVOK 25/04 Q1015
