#DEBUG: Format Typ    -> comma
#DEBUG: Time Period   -> 2010-12-29 00:00:00+00:00 2010-12-30 00:00:00+00:00
#DEBUG: Time Zone     -> Etc/UTC
#DEBUG: Data Contact   -> daryl herzmann akrherz@iastate.edu 515-294-5978
#DEBUG: Entries Found -> -1
station,valid,lon,lat,tmpf, dwpf, relh, drct, sknt, p01i, alti, mslp, vsby, gust, skyc1, skyc2, skyc3, skyc4, skyl1, skyl2, skyl3, skyl4, presentwx, metar
YBBN,2010-12-29 00:00,153.1292,-27.3917,75.20,62.60,64.91,170.00,10.00,M,29.97,M,6.21,M,FEW,OVC,M,M,2800.00,3800.00,M,M,M,YBBN 290000Z 17010KT 9999 FEW028 OVC038 24/17 Q1015 NOSIG
YBBN,2010-12-29 00:30,153.1292,-27.3917,77.00,62.60,61.13,170.00,9.00,M,29.97,M,6.21,M,FEW,OVC,M,M,3200.00,4100.00,M,M,M,YBBN 290030Z 17009KT 9999 FEW032 OVC041 25/17 Q1015 NOSIG
YBBN,2010-12-29 01:00,153.1292,-27.3917,77.00,62.60,61.13,150.00,11.00,M,29.97,M,6.21,M,FEW,BKN,M,M,3000.00,4300.00,M,M,M,YBBN 290100Z 15011KT 9999 FEW030 BKN043 25/17 Q1015 NOSIG
YBBN,2010-12-29 01:30,153.1292,-27.3917,77.00,62.60,61.13,160.00,10.00,M,29.94,M,6.21,M,FEW,BKN,M,M,3000.00,4500.00,M,M,M,YBBN 290130Z 16010KT 9999 FEW030 BKN045 25/17 Q1014 NOSIG
YBBN,2010-12-29 02:00,153.1292,-27.3917,78.80,62.60,57.60,150.00,10.00,M,29.94,M,6.21,M,SCT,OVC,M,M,3500.00,4700.00,M,M,M,YBBN 290200Z 15010KT 9999 SCT035 OVC047 26/17 Q1014 NOSIG
YBBN,2010-12-29 02:30,153.1292,-27.3917,77.00,62.60,61.13,160.00,10.00,M,29.94,M,6.21,M,FEW,BKN,M,M,2800.00,3600.00,M,M,M,YBBN 290230Z 16010KT 9999 FEW028 BKN036 25/17 Q1014 NOSIG
YBBN,2010-12-29 03:00,153.1292,-27.3917,77.00,62.60,61.13,140.00,11.00,M,29.94,M,6.21,M,SCT,OVC,M,M,2800.00,3600.00,M,M,M,YBBN 290300Z 14011KT 9999 SCT028 OVC036 25/17 Q1014 NOSIG
YBBN,2010-12-29 03:30,153.1292,-27.3917,78.80,62.60,57.60,150.00,9.00,M,29.94,M,6.21,M,FEW,BKN,M,M,2800.00,4500.00,M,M,M,YBBN 290330Z 15009KT 9999 FEW028 BKN045 26/17 Q1014 NOSIG
YBBN,2010-12-29 04:00,153.1292,-27.3917,78.80,64.40,61.36,160.00,9.00,M,29.91,M,6.21,M,FEW,SCT,OVC,M,3000.00,4200.00,5400.00,M,-SHRA,YBBN 290400Z 16009KT 9999 -SHRA FEW030 SCT042 OVC054 26/18 Q1013 NOSIG
YBBN,2010-12-29 04:30,153.1292,-27.3917,78.80,62.60,57.60,150.00,8.00,M,29.91,M,6.21,M,SCT,BKN,M,M,3000.00,4800.00,M,M,-SHRA,YBBN 290430Z 15008KT 9999 -SHRA SCT030 BKN048 26/17 Q1013 NOSIG
YBBN,2010-12-29 05:00,153.1292,-27.3917,78.80,64.40,61.36,130.00,9.00,M,29.91,M,6.21,M,FEW,BKN,M,M,3000.00,4400.00,M,M,-SHRA,YBBN 290500Z 13009KT 9999 -SHRA FEW030 BKN044 26/18 Q1013 NOSIG
YBBN,2010-12-29 05:30,153.1292,-27.3917,77.00,64.40,65.12,130.00,9.00,M,29.91,M,6.21,M,BKN,BKN,M,M,3600.00,5500.00,M,M,VCSH,YBBN 290530Z 13009KT 9999 VCSH BKN036 BKN055 25/18 Q1013 NOSIG
YBBN,2010-12-29 06:00,153.1292,-27.3917,77.00,64.40,65.12,140.00,10.00,M,29.91,M,6.21,M,FEW,BKN,M,M,1700.00,3900.00,M,M,M,YBBN 290600Z 14010KT 9999 FEW017 BKN039 25/18 Q1013 NOSIG
YBBN,2010-12-29 06:30,153.1292,-27.3917,77.00,64.40,65.12,140.00,8.00,M,29.91,M,6.21,M,FEW,BKN,M,M,1700.00,4000.00,M,M,M,YBBN 290630Z 14008KT 9999 FEW017 BKN040 25/18 Q1013 NOSIG
YBBN,2010-12-29 07:00,153.1292,-27.3917,77.00,64.40,65.12,150.00,10.00,M,29.91,M,6.21,M,FEW,BKN,M,M,1700.00,3800.00,M,M,M,YBBN 290700Z 15010KT 9999 FEW017 BKN038 25/18 Q1013 NOSIG
YBBN,2010-12-29 07:30,153.1292,-27.3917,77.00,64.40,65.12,150.00,9.00,M,29.91,M,6.21,M,FEW,BKN,M,M,2800.00,3600.00,M,M,M,YBBN 290730Z 15009KT 9999 FEW028 BKN036 25/18 Q1013 NOSIG
YBBN,2010-12-29 08:00,153.1292,-27.3917,75.20,64.40,69.14,150.00,10.00,M,29.94,M,6.21,M,FEW,BKN,M,M,2800.00,3800.00,M,M,M,YBBN 290800Z 15010KT 9999 FEW028 BKN038 24/18 Q1014 NOSIG
YBBN,2010-12-29 08:30,153.1292,-27.3917,75.20,64.40,69.14,160.00,7.00,M,29.94,M,6.21,M,FEW,BKN,M,M,2500.00,4000.00,M,M,M,YBBN 290830Z 16007KT 9999 FEW025 BKN040 24/18 Q1014 NOSIG
YBBN,2010-12-29 09:00,153.1292,-27.3917,75.20,66.20,73.61,150.00,8.00,M,29.94,M,6.21,M,BKN,M,M,M,4000.00,M,M,M,M,YBBN 290900Z 15008KT 9999 BKN040 24/19 Q1014 NOSIG
YBBN,2010-12-29 09:30,153.1292,-27.3917,73.40,66.20,78.19,160.00,5.00,M,29.94,M,6.21,M,BKN,M,M,M,4000.00,M,M,M,M,YBBN 290930Z 16005KT 9999 BKN040 23/19 Q1014 NOSIG
YBBN,2010-12-29 10:00,153.1292,-27.3917,73.40,66.20,78.19,170.00,9.00,M,29.94,M,6.21,M,SCT,M,M,M,4200.00,M,M,M,M,YBBN 291000Z 17009KT 9999 SCT042 23/19 Q1014 NOSIG
YBBN,2010-12-29 10:30,153.1292,-27.3917,73.40,64.40,73.44,180.00,7.00,M,29.94,M,6.21,M,SCT,M,M,M,4200.00,M,M,M,M,YBBN 291030Z 18007KT 9999 SCT042 23/18 Q1014 NOSIG
YBBN,2010-12-29 11:00,153.1292,-27.3917,73.40,64.40,73.44,170.00,7.00,M,29.94,M,6.21,M,SCT,M,M,M,4200.00,M,M,M,M,YBBN 291100Z 17007KT 9999 SCT042 23/18 Q1014 NOSIG
YBBN,2010-12-29 11:30,153.1292,-27.3917,71.60,64.40,78.04,180.00,7.00,M,29.94,M,6.21,M,FEW,M,M,M,4200.00,M,M,M,M,YBBN 291130Z 18007KT 9999 FEW042 22/18 Q1014 NOSIG
YBBN,2010-12-29 12:00,153.1292,-27.3917,71.60,64.40,78.04,180.00,8.00,M,29.94,M,6.21,M,FEW,M,M,M,4300.00,M,M,M,M,YBBN 291200Z 18008KT 9999 FEW043 22/18 Q1014 NOSIG
YBBN,2010-12-29 12:30,153.1292,-27.3917,71.60,66.20,83.09,190.00,8.00,M,29.97,M,6.21,M,FEW,M,M,M,4300.00,M,M,M,M,YBBN 291230Z 19008KT 9999 FEW043 22/19 Q1015 NOSIG
YBBN,2010-12-29 13:00,153.1292,-27.3917,71.60,66.20,83.09,190.00,7.00,M,29.94,M,6.21,M,SCT,M,M,M,4000.00,M,M,M,M,YBBN 291300Z 19007KT 9999 SCT040 22/19 Q1014 NOSIG
YBBN,2010-12-29 13:30,153.1292,-27.3917,71.60,66.20,83.09,200.00,6.00,M,29.94,M,6.21,M,FEW,BKN,M,M,2500.00,4200.00,M,M,M,YBBN 291330Z 20006KT 9999 FEW025 BKN042 22/19 Q1014 NOSIG
YBBN,2010-12-29 14:00,153.1292,-27.3917,71.60,64.40,78.04,200.00,8.00,M,29.94,M,6.21,M,FEW,BKN,M,M,2500.00,4000.00,M,M,M,YBBN 291400Z 20008KT 9999 FEW025 BKN040 22/18 Q1014 NOSIG
YBBN,2010-12-29 14:30,153.1292,-27.3917,71.60,64.40,78.04,210.00,8.00,M,29.94,M,6.21,M,SCT,M,M,M,4400.00,M,M,M,M,YBBN 291430Z 21008KT 9999 SCT044 22/18 Q1014 NOSIG
YBBN,2010-12-29 15:00,153.1292,-27.3917,71.60,64.40,78.04,210.00,8.00,M,29.94,M,6.21,M,BKN,M,M,M,4400.00,M,M,M,M,YBBN 291500Z 21008KT 9999 BKN044 22/18 Q1014 NOSIG
YBBN,2010-12-29 15:30,153.1292,-27.3917,71.60,62.60,73.27,210.00,8.00,M,29.91,M,6.21,M,BKN,M,M,M,4400.00,M,M,M,M,YBBN 291530Z 21008KT 9999 BKN044 22/17 Q1013 NOSIG
YBBN,2010-12-29 16:00,153.1292,-27.3917,69.80,64.40,82.98,220.00,8.00,M,29.91,M,6.21,M,BKN,M,M,M,4200.00,M,M,M,M,YBBN 291600Z 22008KT 9999 BKN042 21/18 Q1013 NOSIG
YBBN,2010-12-29 16:30,153.1292,-27.3917,69.80,64.40,82.98,210.00,8.00,M,29.91,M,6.21,M,BKN,M,M,M,4400.00,M,M,M,M,YBBN 291630Z 21008KT 9999 BKN044 21/18 Q1013 NOSIG
YBBN,2010-12-29 17:00,153.1292,-27.3917,68.00,62.60,82.86,220.00,8.00,M,29.91,M,6.21,M,FEW,M,M,M,4400.00,M,M,M,M,YBBN 291700Z 22008KT 9999 FEW044 20/17 Q1013 NOSIG
YBBN,2010-12-29 17:30,153.1292,-27.3917,68.00,62.60,82.86,210.00,8.00,M,29.91,M,6.21,M,FEW,M,M,M,4400.00,M,M,M,M,YBBN 291730Z 21008KT 9999 FEW044 20/17 Q1013 NOSIG
YBBN,2010-12-29 18:00,153.1292,-27.3917,69.80,62.60,77.90,210.00,8.00,M,29.91,M,6.21,M,FEW,M,M,M,4400.00,M,M,M,M,YBBN 291800Z 21008KT 9999 FEW044 21/17 Q1013 NOSIG
YBBN,2010-12-29 19:00,153.1292,-27.3917,66.20,62.60,88.18,220.00,6.00,M,29.91,M,6.21,M,FEW,M,M,M,4200.00,M,M,M,M,YBBN 291900Z 22006KT 9999 FEW042 19/17 Q1013 NOSIG
YBBN,2010-12-29 19:30,153.1292,-27.3917,68.00,64.40,88.26,220.00,7.00,M,29.94,M,6.21,M,SCT,M,M,M,4200.00,M,M,M,M,YBBN 291930Z 22007KT 9999 SCT042 20/18 Q1014 NOSIG
YBBN,2010-12-29 20:00,153.1292,-27.3917,69.80,64.40,82.98,220.00,9.00,M,29.94,M,6.21,M,FEW,M,M,M,4200.00,M,M,M,M,YBBN 292000Z 22009KT 9999 FEW042 21/18 Q1014 NOSIG
YBBN,2010-12-29 20:30,153.1292,-27.3917,71.60,62.60,73.27,210.00,8.00,M,29.94,M,6.21,M,FEW,M,M,M,3800.00,M,M,M,M,YBBN 292030Z 21008KT 9999 FEW038 22/17 Q1014 NOSIG
YBBN,2010-12-29 21:00,153.1292,-27.3917,73.40,64.40,73.44,220.00,10.00,M,29.97,M,6.21,M,FEW,M,M,M,3800.00,M,M,M,M,YBBN 292100Z 22010KT 9999 FEW038 23/18 Q1015 NOSIG
YBBN,2010-12-29 21:30,153.1292,-27.3917,75.20,64.40,69.14,220.00,9.00,M,29.97,M,6.21,M,BKN,M,M,M,3900.00,M,M,M,M,YBBN 292130Z 22009KT 9999 BKN039 24/18 Q1015 NOSIG
YBBN,2010-12-29 22:00,153.1292,-27.3917,75.20,64.40,69.14,220.00,9.00,M,29.97,M,6.21,M,FEW,BKN,M,M,2500.00,3900.00,M,M,M,YBBN 292200Z 22009KT 9999 FEW025 BKN039 24/18 Q1015 NOSIG
YBBN,2010-12-29 22:30,153.1292,-27.3917,77.00,64.40,65.12,180.00,7.00,M,29.97,M,6.21,M,FEW,BKN,M,M,2600.00,4200.00,M,M,M,YBBN 292230Z 18007KT 9999 FEW026 BKN042 25/18 Q1015 NOSIG
YBBN,2010-12-29 23:00,153.1292,-27.3917,78.80,64.40,61.36,180.00,9.00,M,29.97,M,6.21,M,FEW,BKN,M,M,2700.00,4300.00,M,M,M,YBBN 292300Z 18009KT 9999 FEW027 BKN043 26/18 Q1015 NOSIG
YBBN,2010-12-29 23:30,153.1292,-27.3917,78.80,64.40,61.36,160.00,6.00,M,29.97,M,6.21,M,FEW,BKN,M,M,2800.00,4200.00,M,M,M,YBBN 292330Z 16006KT 9999 FEW028 BKN042 26/18 Q1015 NOSIG
