#DEBUG: Format Typ    -> comma
#DEBUG: Time Period   -> 2013-03-19 00:00:00+00:00 2013-03-20 00:00:00+00:00
#DEBUG: Time Zone     -> Etc/UTC
#DEBUG: Data Contact   -> daryl herzmann akrherz@iastate.edu 515-294-5978
#DEBUG: Entries Found -> -1
station,valid,lon,lat,tmpf, dwpf, relh, drct, sknt, p01i, alti, mslp, vsby, gust, skyc1, skyc2, skyc3, skyc4, skyl1, skyl2, skyl3, skyl4, presentwx, metar
YBBN,2013-03-19 00:00,153.1292,-27.3917,77.00,57.20,50.43,110.00,9.00,0.00,30.12,M,6.21,M,SCT,M,M,M,4000.00,M,M,M,M,YBBN 190000Z 11009KT 9999 SCT040 25/14 Q1020
YBBN,2013-03-19 00:30,153.1292,-27.3917,78.80,59.00,50.69,110.00,11.00,0.00,30.12,M,6.21,M,SCT,M,M,M,3800.00,M,M,M,M,YBBN 190030Z 11011KT 9999 SCT038 26/15 Q1020
YBBN,2013-03-19 01:00,153.1292,-27.3917,77.00,59.00,53.80,90.00,13.00,0.00,30.12,M,6.21,M,SCT,M,M,M,3800.00,M,M,M,M,YBBN 190100Z 09013KT 9999 SCT038 25/15 Q1020 NOSIG
YBBN,2013-03-19 01:30,153.1292,-27.3917,78.80,57.20,47.52,110.00,12.00,0.00,30.12,M,6.21,M,FEW,M,M,M,3800.00,M,M,M,M,YBBN 190130Z 11012KT 9999 FEW038 26/14 Q1020
YBBN,2013-03-19 02:00,153.1292,-27.3917,78.80,57.20,47.52,120.00,12.00,0.00,30.12,M,6.21,M,SCT,SCT,M,M,3800.00,7000.00,M,M,M,YBBN 190200Z 12012KT 9999 SCT038 SCT070 26/14 Q1020
YBBN,2013-03-19 02:30,153.1292,-27.3917,78.80,57.20,47.52,110.00,12.00,0.00,30.12,M,6.21,M,SCT,M,M,M,4000.00,M,M,M,M,YBBN 190230Z 11012KT 9999 SCT040 26/14 Q1020
YBBN,2013-03-19 03:00,153.1292,-27.3917,77.00,55.40,47.25,120.00,12.00,0.00,30.09,M,6.21,M,FEW,SCT,M,M,4000.00,7500.00,M,M,M,YBBN 190300Z 12012KT 9999 FEW040 SCT075 25/13 Q1019
YBBN,2013-03-19 03:30,153.1292,-27.3917,78.80,55.40,44.52,90.00,13.00,0.00,30.09,M,6.21,M,SCT,SCT,M,M,4000.00,8200.00,M,M,M,YBBN 190330Z 09013KT 9999 SCT040 SCT082 26/13 Q1019
YBBN,2013-03-19 04:00,153.1292,-27.3917,78.80,57.20,47.52,100.00,12.00,0.00,30.09,M,6.21,M,SCT,SCT,M,M,4000.00,8200.00,M,M,M,YBBN 190400Z 10012KT 9999 SCT040 SCT082 26/14 Q1019
YBBN,2013-03-19 04:30,153.1292,-27.3917,77.00,55.40,47.25,120.00,11.00,0.00,30.09,M,6.21,M,FEW,BKN,M,M,4000.00,12000.00,M,M,M,YBBN 190430Z 12011KT 9999 FEW040 BKN120 25/13 Q1019
YBBN,2013-03-19 05:00,153.1292,-27.3917,77.00,57.20,50.43,120.00,11.00,0.00,30.09,M,6.21,M,FEW,BKN,M,M,4000.00,12000.00,M,M,M,YBBN 190500Z 12011KT 9999 FEW040 BKN120 25/14 Q1019 NOSIG
YBBN,2013-03-19 05:30,153.1292,-27.3917,75.20,60.80,60.90,120.00,11.00,0.00,30.09,M,6.21,M,FEW,BKN,M,M,4000.00,12000.00,M,M,M,YBBN 190530Z 12011KT 9999 FEW040 BKN120 24/16 Q1019
YBBN,2013-03-19 06:00,153.1292,-27.3917,75.20,59.00,57.12,120.00,11.00,0.00,30.09,M,6.21,M,FEW,BKN,M,M,4000.00,12000.00,M,M,M,YBBN 190600Z 12011KT 9999 FEW040 BKN120 24/15 Q1019 NOSIG
YBBN,2013-03-19 06:30,153.1292,-27.3917,75.20,57.20,53.55,120.00,12.00,0.00,30.09,M,6.21,M,FEW,SCT,BKN,M,3500.00,8100.00,12000.00,M,M,YBBN 190630Z 12012KT 9999 FEW035 SCT081 BKN120 24/14 Q1019
YBBN,2013-03-19 07:00,153.1292,-27.3917,75.20,55.40,50.17,120.00,11.00,0.00,30.12,M,6.21,M,FEW,BKN,BKN,M,3500.00,8700.00,12000.00,M,M,YBBN 190700Z 12011KT 9999 FEW035 BKN087 BKN120 24/13 Q1020
YBBN,2013-03-19 07:30,153.1292,-27.3917,75.20,53.60,46.98,120.00,10.00,0.00,30.12,M,6.21,M,FEW,BKN,M,M,3500.00,11000.00,M,M,M,YBBN 190730Z 12010KT 9999 FEW035 BKN110 24/12 Q1020
YBBN,2013-03-19 08:00,153.1292,-27.3917,73.40,53.60,49.90,110.00,10.00,0.00,30.12,M,6.21,M,FEW,BKN,M,M,3500.00,11000.00,M,M,M,YBBN 190800Z 11010KT 9999 FEW035 BKN110 23/12 Q1020 NOSIG
YBBN,2013-03-19 08:30,153.1292,-27.3917,73.40,53.60,49.90,110.00,10.00,0.00,30.15,M,5.59,M,FEW,BKN,M,M,3000.00,11000.00,M,M,VCSH,YBBN 190830Z 11010KT 9000 VCSH FEW030 BKN110 23/12 Q1021
YBBN,2013-03-19 08:46,153.1292,-27.3917,73.40,57.20,56.88,120.00,11.00,0.00,30.12,M,3.73,M,FEW,BKN,M,M,2600.00,11000.00,M,M,-SHRA,YBBN 190846Z 12011KT 6000 -SHRA FEW026 BKN110 23/14 Q1020 RMK -SHRA TO W
YBBN,2013-03-19 09:00,153.1292,-27.3917,73.40,59.00,60.67,110.00,10.00,0.00,30.15,M,3.73,20.00,FEW,SCT,BKN,M,1500.00,2200.00,11000.00,M,-SHRA,YBBN 190900Z 11010G20KT 6000 -SHRA FEW015 SCT022 BKN110 23/15 Q1021
YBBN,2013-03-19 09:21,153.1292,-27.3917,71.60,59.00,64.48,110.00,8.00,0.00,30.15,M,5.59,M,FEW,SCT,BKN,M,2500.00,7200.00,11500.00,M,-SHRA,YBBN 190921Z 11008KT 9000 -SHRA FEW025 SCT072 BKN115 22/15 Q1021
YBBN,2013-03-19 09:30,153.1292,-27.3917,73.40,59.00,60.67,110.00,9.00,0.00,30.15,M,6.21,M,FEW,SCT,BKN,M,1700.00,7000.00,13000.00,M,VCSH,YBBN 190930Z 11009KT 9999 VCSH FEW017 SCT070 BKN130 23/15 Q1021
YBBN,2013-03-19 10:00,153.1292,-27.3917,73.40,59.00,60.67,120.00,10.00,0.00,30.15,M,6.21,M,FEW,BKN,M,M,1800.00,14000.00,M,M,VCSH,YBBN 191000Z 12010KT 9999 VCSH FEW018 BKN140 23/15 Q1021
YBBN,2013-03-19 10:30,153.1292,-27.3917,73.40,60.80,64.69,120.00,9.00,0.00,30.18,M,6.21,M,FEW,BKN,M,M,1500.00,13000.00,M,M,M,YBBN 191030Z 12009KT 9999 FEW015 BKN130 23/16 Q1022
YBBN,2013-03-19 11:00,153.1292,-27.3917,73.40,57.20,56.88,110.00,11.00,0.00,30.18,M,6.21,M,FEW,BKN,M,M,1500.00,13000.00,M,M,VCSH,YBBN 191100Z 11011KT 9999 VCSH FEW015 BKN130 23/14 Q1022
YBBN,2013-03-19 11:30,153.1292,-27.3917,73.40,57.20,56.88,110.00,9.00,0.00,30.18,M,6.21,M,FEW,BKN,M,M,1800.00,12000.00,M,M,VCSH,YBBN 191130Z 11009KT 9999 VCSH FEW018 BKN120 23/14 Q1022
YBBN,2013-03-19 12:00,153.1292,-27.3917,73.40,57.20,56.88,110.00,11.00,0.00,30.18,M,6.21,M,FEW,OVC,M,M,1800.00,11000.00,M,M,VCSH,YBBN 191200Z 11011KT 9999 VCSH FEW018 OVC110 23/14 Q1022
YBBN,2013-03-19 12:30,153.1292,-27.3917,73.40,57.20,56.88,120.00,9.00,0.00,30.18,M,6.21,M,FEW,BKN,M,M,2000.00,11000.00,M,M,VCSH,YBBN 191230Z 12009KT 9999 VCSH FEW020 BKN110 23/14 Q1022
YBBN,2013-03-19 13:00,153.1292,-27.3917,73.40,59.00,60.67,120.00,8.00,0.00,30.18,M,6.21,M,FEW,BKN,M,M,2200.00,11000.00,M,M,VCSH,YBBN 191300Z 12008KT 9999 VCSH FEW022 BKN110 23/15 Q1022
YBBN,2013-03-19 13:30,153.1292,-27.3917,73.40,59.00,60.67,120.00,10.00,0.00,30.15,M,4.97,M,FEW,BKN,M,M,2500.00,11000.00,M,M,VCSH,YBBN 191330Z 12010KT 8000 VCSH FEW025 BKN110 23/15 Q1021 RMK SHOWER TO THE NORTH
YBBN,2013-03-19 13:45,153.1292,-27.3917,73.40,59.00,60.67,110.00,8.00,0.00,30.15,M,3.73,M,FEW,BKN,M,M,2500.00,11000.00,M,M,-SHRA,YBBN 191345Z 11008KT 6000 -SHRA FEW025 BKN110 23/15 Q1021
YBBN,2013-03-19 14:00,153.1292,-27.3917,73.40,57.20,56.88,100.00,9.00,0.00,30.15,M,4.97,M,SCT,BKN,M,M,3000.00,11000.00,M,M,-SHRA,YBBN 191400Z 10009KT 8000 -SHRA SCT030 BKN110 23/14 Q1021
YBBN,2013-03-19 14:30,153.1292,-27.3917,73.40,55.40,53.29,110.00,9.00,0.00,30.15,M,5.59,M,FEW,BKN,M,M,3500.00,11000.00,M,M,VCSH,YBBN 191430Z 11009KT 9000 VCSH FEW035 BKN110 23/13 Q1021
YBBN,2013-03-19 15:00,153.1292,-27.3917,73.40,55.40,53.29,100.00,8.00,0.00,30.15,M,4.97,M,FEW,BKN,M,M,3200.00,12000.00,M,M,-SHRA,YBBN 191500Z 10008KT 8000 -SHRA FEW032 BKN120 23/13 Q1021
YBBN,2013-03-19 15:30,153.1292,-27.3917,73.40,57.20,56.88,110.00,8.00,0.00,30.15,M,6.21,M,FEW,BKN,M,M,3200.00,12000.00,M,M,M,YBBN 191530Z 11008KT 9999 FEW032 BKN120 23/14 Q1021
YBBN,2013-03-19 16:00,153.1292,-27.3917,73.40,57.20,56.88,110.00,8.00,0.00,30.15,M,5.59,M,FEW,BKN,M,M,3000.00,12000.00,M,M,VCSH,YBBN 191600Z 11008KT 9000 VCSH FEW030 BKN120 23/14 Q1021
YBBN,2013-03-19 16:30,153.1292,-27.3917,73.40,57.20,56.88,120.00,9.00,0.00,30.12,M,4.97,M,FEW,BKN,M,M,2800.00,12000.00,M,M,-SHRA,YBBN 191630Z 12009KT 8000 -SHRA FEW028 BKN120 23/14 Q1020
YBBN,2013-03-19 17:00,153.1292,-27.3917,73.40,59.00,60.67,120.00,8.00,0.00,30.12,M,6.21,M,FEW,BKN,M,M,3500.00,11000.00,M,M,VCSH,YBBN 191700Z 12008KT 9999 VCSH FEW035 BKN110 23/15 Q1020
YBBN,2013-03-19 17:30,153.1292,-27.3917,73.40,59.00,60.67,110.00,6.00,0.00,30.12,M,6.21,M,FEW,BKN,M,M,3500.00,11000.00,M,M,VCSH,YBBN 191730Z 11006KT 9999 VCSH FEW035 BKN110 23/15 Q1020
YBBN,2013-03-19 18:00,153.1292,-27.3917,73.40,60.80,64.69,110.00,8.00,0.00,30.12,M,6.21,M,SCT,SCT,OVC,M,3600.00,4900.00,11000.00,M,//,YBBN 191800Z AUTO 11008KT 9999 // SCT036 SCT049 OVC110 23/16 Q1020
YBBN,2013-03-19 18:30,153.1292,-27.3917,71.60,62.60,73.27,130.00,8.00,0.00,30.12,M,5.59,M,SCT,BKN,M,M,3200.00,11000.00,M,M,-SHRA,YBBN 191830Z 13008KT 9000 -SHRA SCT032 BKN110 22/17 Q1020
YBBN,2013-03-19 19:08,153.1292,-27.3917,71.60,62.60,73.27,130.00,10.00,0.00,30.15,M,3.73,M,SCT,BKN,M,M,2800.00,11000.00,M,M,-SHRA,YBBN 191908Z 13010KT 6000 -SHRA SCT028 BKN110 22/17 Q1021
YBBN,2013-03-19 19:30,153.1292,-27.3917,69.80,62.60,77.90,120.00,6.00,0.00,30.15,M,4.97,M,FEW,SCT,BKN,M,3500.00,7000.00,11000.00,M,-SHRA,YBBN 191930Z 12006KT 8000 -SHRA FEW035 SCT070 BKN110 21/17 Q1021
YBBN,2013-03-19 20:00,153.1292,-27.3917,68.00,62.60,82.86,90.00,12.00,0.00,30.15,M,3.73,M,SCT,SCT,BKN,M,3200.00,6000.00,11000.00,M,-SHRA,YBBN 192000Z 09012KT 6000 -SHRA SCT032 SCT060 BKN110 20/17 Q1021
YBBN,2013-03-19 20:30,153.1292,-27.3917,68.00,62.60,82.86,130.00,7.00,0.00,30.15,M,3.73,M,FEW,SCT,BKN,M,2000.00,2800.00,5000.00,M,-SHRA VCSH,YBBN 192030Z 13007KT 6000 -SHRA VCSH FEW020 SCT028 BKN050 20/17 Q1021
YBBN,2013-03-19 21:00,153.1292,-27.3917,69.80,64.40,82.98,150.00,6.00,0.00,30.15,M,4.97,M,FEW,SCT,BKN,M,2000.00,2800.00,6400.00,M,-SHRA VCSH,YBBN 192100Z 15006KT 8000 -SHRA VCSH FEW020 SCT028 BKN064 21/18 Q1021
YBBN,2013-03-19 21:30,153.1292,-27.3917,69.80,64.40,82.98,110.00,5.00,0.00,30.18,M,4.97,M,FEW,BKN,M,M,2200.00,6800.00,M,M,-SHRA VCSH,YBBN 192130Z 11005KT 8000 -SHRA VCSH FEW022 BKN068 21/18 Q1022 RMK SH N/NE
YBBN,2013-03-19 22:00,153.1292,-27.3917,69.80,64.40,82.98,180.00,7.00,0.00,30.18,M,5.59,M,FEW,SCT,BKN,M,1900.00,3800.00,6200.00,M,-SHRA VCSH,YBBN 192200Z 18007KT 9000 -SHRA VCSH FEW019 SCT038 BKN062 21/18 Q1022 RMK SH N/NW
YBBN,2013-03-19 22:30,153.1292,-27.3917,71.60,64.40,78.04,200.00,6.00,0.00,30.18,M,6.21,M,FEW,SCT,BKN,M,2000.00,6800.00,9800.00,M,VCSH,YBBN 192230Z 20006KT 9999 VCSH FEW020 SCT068 BKN098 22/18 Q1022
YBBN,2013-03-19 23:00,153.1292,-27.3917,75.20,62.60,64.91,110.00,11.00,0.00,30.18,M,6.21,M,FEW,SCT,BKN,M,2000.00,3300.00,9800.00,M,VCSH,YBBN 192300Z 11011KT 9999 VCSH FEW020 SCT033 BKN098 24/17 Q1022
YBBN,2013-03-19 23:30,153.1292,-27.3917,75.20,60.80,60.90,90.00,11.00,0.00,30.18,M,6.21,M,FEW,SCT,BKN,M,2200.00,6000.00,9800.00,M,VCSH,YBBN 192330Z 09011KT 9999 VCSH FEW022 SCT060 BKN098 24/16 Q1022
