#DEBUG: Format Typ    -> comma
#DEBUG: Time Period   -> 2016-12-05 00:00:00+00:00 2016-12-06 00:00:00+00:00
#DEBUG: Time Zone     -> Etc/UTC
#DEBUG: Data Contact   -> daryl herzmann akrherz@iastate.edu 515-294-5978
#DEBUG: Entries Found -> -1
station,valid,lon,lat,tmpf, dwpf, relh, drct, sknt, p01i, alti, mslp, vsby, gust, skyc1, skyc2, skyc3, skyc4, skyl1, skyl2, skyl3, skyl4, presentwx, metar
YBBN,2016-12-05 00:00,153.1292,-27.3917,80.60,71.60,74.11,20.00,18.00,0.00,29.94,M,6.21,M,FEW,M,M,M,2500.00,M,M,M,M,YBBN 050000Z 02018KT 9999 FEW025 27/22 Q1014
YBBN,2016-12-05 00:30,153.1292,-27.3917,80.60,71.60,74.11,20.00,19.00,0.00,29.94,M,6.21,M,FEW,M,M,M,2500.00,M,M,M,M,YBBN 050030Z 02019KT 9999 FEW025 27/22 Q1014 NOSIG
YBBN,2016-12-05 01:00,153.1292,-27.3917,80.60,71.60,74.11,20.00,18.00,0.00,29.94,M,6.21,M,FEW,M,M,M,2500.00,M,M,M,M,YBBN 050100Z 02018KT 9999 FEW025 27/22 Q1014 NOSIG
YBBN,2016-12-05 01:30,153.1292,-27.3917,82.40,71.60,69.90,20.00,19.00,0.00,29.91,M,6.21,M,FEW,M,M,M,3200.00,M,M,M,M,YBBN 050130Z 02019KT 9999 FEW032 28/22 Q1013 NOSIG
YBBN,2016-12-05 02:00,153.1292,-27.3917,80.60,71.60,74.11,20.00,20.00,0.00,29.91,M,6.21,M,FEW,M,M,M,3500.00,M,M,M,M,YBBN 050200Z 02020KT 9999 FEW035 27/22 Q1013 NOSIG
YBBN,2016-12-05 02:30,153.1292,-27.3917,80.60,71.60,74.11,20.00,21.00,0.00,29.88,M,6.21,M,FEW,M,M,M,3500.00,M,M,M,M,YBBN 050230Z 02021KT 9999 FEW035 27/22 Q1012
YBBN,2016-12-05 03:00,153.1292,-27.3917,82.40,73.40,74.28,20.00,20.00,0.00,29.88,M,6.21,M,FEW,M,M,M,3500.00,M,M,M,M,YBBN 050300Z 02020KT 9999 FEW035 28/23 Q1012 NOSIG
YBBN,2016-12-05 03:30,153.1292,-27.3917,80.60,71.60,74.11,20.00,21.00,0.00,29.88,M,6.21,M,FEW,SCT,M,M,3500.00,25000.00,M,M,M,YBBN 050330Z 02021KT 9999 FEW035 SCT250 27/22 Q1012 NOSIG
YBBN,2016-12-05 04:00,153.1292,-27.3917,80.60,71.60,74.11,20.00,22.00,0.00,29.85,M,6.21,M,M,M,M,M,M,M,M,M,M,YBBN 050400Z 02022KT CAVOK 27/22 Q1011
YBBN,2016-12-05 04:30,153.1292,-27.3917,80.60,71.60,74.11,10.00,20.00,0.00,29.85,M,6.21,M,M,M,M,M,M,M,M,M,M,YBBN 050430Z 01020KT CAVOK 27/22 Q1011 NOSIG
YBBN,2016-12-05 05:00,153.1292,-27.3917,78.80,71.60,78.62,10.00,21.00,0.00,29.85,M,6.21,M,FEW,SCT,M,M,4000.00,25000.00,M,M,M,YBBN 050500Z 01021KT 9999 FEW040TCU SCT250 26/22 Q1011 NOSIG
YBBN,2016-12-05 05:30,153.1292,-27.3917,78.80,71.60,78.62,10.00,20.00,0.00,29.85,M,6.21,M,FEW,SCT,M,M,3500.00,25000.00,M,M,M,YBBN 050530Z 01020KT 9999 FEW035 SCT250 26/22 Q1011
YBBN,2016-12-05 06:00,153.1292,-27.3917,78.80,71.60,78.62,10.00,19.00,0.00,29.85,M,6.21,M,FEW,SCT,M,M,3500.00,25000.00,M,M,M,YBBN 050600Z 01019KT 9999 FEW035 SCT250 26/22 Q1011 NOSIG
YBBN,2016-12-05 06:30,153.1292,-27.3917,80.60,71.60,74.11,10.00,19.00,0.00,29.85,M,6.21,M,FEW,BKN,M,M,3500.00,25000.00,M,M,M,YBBN 050630Z 01019KT 9999 FEW035 BKN250 27/22 Q1011 NOSIG
YBBN,2016-12-05 07:00,153.1292,-27.3917,78.80,71.60,78.62,10.00,20.00,0.00,29.85,M,6.21,M,FEW,BKN,M,M,3500.00,25000.00,M,M,M,YBBN 050700Z 01020KT 9999 FEW035 BKN250 26/22 Q1011 NOSIG
YBBN,2016-12-05 07:30,153.1292,-27.3917,78.80,71.60,78.62,10.00,21.00,0.00,29.85,M,6.21,M,FEW,BKN,M,M,3500.00,25000.00,M,M,M,YBBN 050730Z 01021KT 9999 FEW035 BKN250 26/22 Q1011 NOSIG
YBBN,2016-12-05 08:00,153.1292,-27.3917,78.80,71.60,78.62,10.00,21.00,0.00,29.85,M,6.21,M,M,M,M,M,M,M,M,M,M,YBBN 050800Z 01021KT CAVOK 26/22 Q1011 NOSIG
YBBN,2016-12-05 08:30,153.1292,-27.3917,77.00,71.60,83.44,10.00,20.00,0.00,29.85,M,6.21,M,M,M,M,M,M,M,M,M,M,YBBN 050830Z 01020KT CAVOK 25/22 Q1011 NOSIG
YBBN,2016-12-05 09:00,153.1292,-27.3917,77.00,71.60,83.44,360.00,19.00,0.00,29.85,M,6.21,M,M,M,M,M,M,M,M,M,M,YBBN 050900Z 36019KT CAVOK 25/22 Q1011 NOSIG
YBBN,2016-12-05 09:27,153.1292,-27.3917,77.00,71.60,83.44,10.00,18.00,0.00,29.85,M,6.21,28.00,M,M,M,M,M,M,M,M,M,YBBN 050927Z 01018G28KT CAVOK 25/22 Q1011
YBBN,2016-12-05 09:30,153.1292,-27.3917,77.00,71.60,83.44,10.00,20.00,0.00,29.85,M,6.21,M,M,M,M,M,M,M,M,M,M,YBBN 050930Z 01020KT CAVOK 25/22 Q1011 NOSIG
YBBN,2016-12-05 10:00,153.1292,-27.3917,77.00,69.80,78.48,360.00,21.00,0.00,29.85,M,6.21,M,M,M,M,M,M,M,M,M,M,YBBN 051000Z 36021KT CAVOK 25/21 Q1011
YBBN,2016-12-05 10:30,153.1292,-27.3917,77.00,71.60,83.44,10.00,20.00,0.00,29.85,M,6.21,M,M,M,M,M,M,M,M,M,M,YBBN 051030Z 01020KT CAVOK 25/22 Q1011 NOSIG
YBBN,2016-12-05 11:00,153.1292,-27.3917,77.00,71.60,83.44,10.00,19.00,0.00,29.88,M,6.21,M,M,M,M,M,M,M,M,M,M,YBBN 051100Z 01019KT CAVOK 25/22 Q1012
YBBN,2016-12-05 11:30,153.1292,-27.3917,77.00,71.60,83.44,10.00,20.00,0.00,29.88,M,6.21,M,M,M,M,M,M,M,M,M,M,YBBN 051130Z 01020KT CAVOK 25/22 Q1012 NOSIG
YBBN,2016-12-05 12:00,153.1292,-27.3917,77.00,71.60,83.44,10.00,21.00,0.00,29.88,M,6.21,M,M,M,M,M,M,M,M,M,M,YBBN 051200Z 01021KT CAVOK 25/22 Q1012
YBBN,2016-12-05 12:30,153.1292,-27.3917,77.00,71.60,83.44,10.00,22.00,0.00,29.88,M,6.21,M,FEW,SCT,M,M,1500.00,25000.00,M,M,M,YBBN 051230Z 01022KT 9999 FEW015 SCT250 25/22 Q1012 NOSIG
YBBN,2016-12-05 13:00,153.1292,-27.3917,77.00,71.60,83.44,10.00,20.00,0.00,29.88,M,6.21,M,FEW,SCT,BKN,M,1500.00,12000.00,24000.00,M,M,YBBN 051300Z 01020KT 9999 FEW015 SCT120 BKN240 25/22 Q1012
YBBN,2016-12-05 13:30,153.1292,-27.3917,77.00,71.60,83.44,10.00,21.00,0.00,29.88,M,6.21,M,FEW,BKN,M,M,2000.00,12000.00,M,M,M,YBBN 051330Z 01021KT 9999 FEW020 BKN120 25/22 Q1012 NOSIG
YBBN,2016-12-05 14:00,153.1292,-27.3917,77.00,69.80,78.48,10.00,21.00,0.00,29.88,M,6.21,M,FEW,SCT,BKN,M,2000.00,12000.00,17000.00,M,M,YBBN 051400Z 01021KT 9999 FEW020 SCT120 BKN170 25/21 Q1012
YBBN,2016-12-05 14:30,153.1292,-27.3917,77.00,69.80,78.48,10.00,19.00,0.00,29.88,M,6.21,M,FEW,SCT,BKN,M,2000.00,12500.00,16000.00,M,M,YBBN 051430Z 01019KT 9999 FEW020 SCT125 BKN160 25/21 Q1012 NOSIG
YBBN,2016-12-05 14:38,153.1292,-27.3917,77.00,69.80,78.48,10.00,18.00,0.00,29.88,M,6.21,28.00,FEW,SCT,BKN,M,2000.00,16000.00,20000.00,M,M,YBBN 051438Z 01018G28KT 9999 FEW020 SCT160 BKN200 25/21 Q1012
YBBN,2016-12-05 15:00,153.1292,-27.3917,77.00,69.80,78.48,360.00,19.00,0.00,29.88,M,6.21,M,FEW,SCT,BKN,M,2000.00,12000.00,20000.00,M,M,YBBN 051500Z 36019KT 9999 FEW020 SCT120 BKN200 25/21 Q1012 NOSIG
YBBN,2016-12-05 15:30,153.1292,-27.3917,75.20,71.60,88.59,10.00,17.00,0.00,29.88,M,6.21,M,SCT,BKN,M,M,1600.00,14000.00,M,M,M,YBBN 051530Z 01017KT 9999 SCT016 BKN140 24/22 Q1012 NOSIG
YBBN,2016-12-05 16:00,153.1292,-27.3917,75.20,69.80,83.32,10.00,13.00,0.00,29.88,M,6.21,M,FEW,BKN,M,M,1800.00,12000.00,M,M,M,YBBN 051600Z 01013KT 9999 FEW018 BKN120 24/21 Q1012 NOSIG
YBBN,2016-12-05 16:30,153.1292,-27.3917,75.20,69.80,83.32,20.00,16.00,0.00,29.91,M,6.21,M,FEW,SCT,BKN,M,1300.00,12000.00,20000.00,M,M,YBBN 051630Z 02016KT 9999 FEW013 SCT120 BKN200 24/21 Q1013 NOSIG
YBBN,2016-12-05 17:00,153.1292,-27.3917,75.20,69.80,83.32,10.00,15.00,0.00,29.91,M,6.21,M,FEW,SCT,BKN,M,1500.00,16000.00,20000.00,M,M,YBBN 051700Z 01015KT 9999 FEW015 SCT160 BKN200 24/21 Q1013
YBBN,2016-12-05 17:30,153.1292,-27.3917,75.20,69.80,83.32,10.00,10.00,0.00,29.94,M,6.21,M,FEW,BKN,M,M,1500.00,16000.00,M,M,M,YBBN 051730Z 01010KT 9999 FEW015 BKN160 24/21 Q1014 NOSIG
YBBN,2016-12-05 18:00,153.1292,-27.3917,75.20,69.80,83.32,360.00,9.00,0.00,29.94,M,6.21,M,FEW,SCT,BKN,M,1500.00,4000.00,16000.00,M,M,YBBN 051800Z 36009KT 9999 FEW015 SCT040 BKN160 24/21 Q1014
YBBN,2016-12-05 19:00,153.1292,-27.3917,75.20,71.60,88.59,30.00,10.00,0.00,30.00,M,6.21,M,FEW,BKN,FEW,M,1000.00,3000.00,2000.00,M,VCTS,YBBN 051900Z 03010KT 9999 VCTS FEW010 BKN030 FEW020CB 24/22 Q1016
YBBN,2016-12-05 19:10,153.1292,-27.3917,75.20,69.80,83.32,40.00,9.00,0.00,30.00,M,6.21,M,FEW,SCT,BKN,FEW,1000.00,4000.00,12000.00,2000.00,TSRA,YBBN 051910Z 04009KT 9999 TSRA FEW010 SCT040 BKN120 FEW020CB 24/21 Q1016
YBBN,2016-12-05 19:30,153.1292,-27.3917,75.20,69.80,83.32,50.00,10.00,0.00,30.03,M,4.97,M,FEW,BKN,FEW,M,1000.00,4000.00,2000.00,M,TSRA,YBBN 051930Z 05010KT 8000 TSRA FEW010 BKN040 FEW020CB 24/21 Q1017 RETS
YBBN,2016-12-05 19:41,153.1292,-27.3917,75.20,71.60,88.59,50.00,11.00,0.00,30.03,M,3.11,M,FEW,BKN,FEW,M,1000.00,4000.00,2000.00,M,TSRA,YBBN 051941Z 05011KT 5000 TSRA FEW010 BKN040 FEW020CB 24/22 Q1017 RETS
YBBN,2016-12-05 20:00,153.1292,-27.3917,73.40,71.60,94.10,60.00,10.00,0.00,30.03,M,5.59,M,FEW,SCT,BKN,FEW,1000.00,2000.00,4000.00,2200.00,VCTS,YBBN 052000Z 06010KT 9000 VCTS FEW010 SCT020 BKN040 FEW022CB 23/22 Q1017
YBBN,2016-12-05 20:30,153.1292,-27.3917,73.40,69.80,88.51,60.00,13.00,0.00,30.03,M,6.21,M,FEW,SCT,BKN,M,1500.00,2600.00,4200.00,M,M,YBBN 052030Z 06013KT 9999 FEW015 SCT026 BKN042 23/21 Q1017 NOSIG
YBBN,2016-12-05 21:00,153.1292,-27.3917,75.20,71.60,88.59,40.00,16.00,0.00,30.03,M,6.21,M,FEW,SCT,BKN,M,1200.00,4500.00,11000.00,M,M,YBBN 052100Z 04016KT 9999 FEW012 SCT045 BKN110 24/22 Q1017
YBBN,2016-12-05 21:30,153.1292,-27.3917,75.20,68.00,78.34,30.00,16.00,0.00,30.03,M,6.21,M,FEW,BKN,M,M,2000.00,11000.00,M,M,M,YBBN 052130Z 03016KT 9999 FEW020 BKN110 24/20 Q1017 NOSIG
YBBN,2016-12-05 22:00,153.1292,-27.3917,77.00,69.80,78.48,20.00,16.00,0.00,30.03,M,6.21,M,FEW,SCT,BKN,M,2000.00,12000.00,15000.00,M,M,YBBN 052200Z 02016KT 9999 FEW020 SCT120 BKN150 25/21 Q1017
YBBN,2016-12-05 22:30,153.1292,-27.3917,77.00,69.80,78.48,10.00,17.00,0.00,30.00,M,6.21,M,FEW,SCT,BKN,M,2000.00,12000.00,28000.00,M,M,YBBN 052230Z 01017KT 9999 FEW020 SCT120 BKN280 25/21 Q1016
YBBN,2016-12-05 23:00,153.1292,-27.3917,78.80,71.60,78.62,360.00,17.00,0.00,30.00,M,6.21,M,FEW,BKN,M,M,2000.00,28000.00,M,M,M,YBBN 052300Z 36017KT 9999 FEW020 BKN280 26/22 Q1016 NOSIG
YBBN,2016-12-05 23:30,153.1292,-27.3917,80.60,73.40,78.76,10.00,15.00,0.00,30.00,M,6.21,M,FEW,BKN,M,M,2200.00,28000.00,M,M,M,YBBN 052330Z 01015KT 9999 FEW022 BKN280 27/23 Q1016 NOSIG
