#DEBUG: Format Typ    -> comma
#DEBUG: Time Period   -> 2012-03-07 00:00:00+00:00 2012-03-08 00:00:00+00:00
#DEBUG: Time Zone     -> Etc/UTC
#DEBUG: Data Contact   -> daryl herzmann akrherz@iastate.edu 515-294-5978
#DEBUG: Entries Found -> -1
station,valid,lon,lat,tmpf, dwpf, relh, drct, sknt, p01i, alti, mslp, vsby, gust, skyc1, skyc2, skyc3, skyc4, skyl1, skyl2, skyl3, skyl4, presentwx, metar
YBBN,2012-03-07 00:00,153.1292,-27.3917,77.00,60.80,57.36,180.00,8.00,0.00,29.85,M,6.21,M,FEW,M,M,M,3500.00,M,M,M,M,YBBN 070000Z 18008KT 9999 FEW035 25/16 Q1011 NOSIG
YBBN,2012-03-07 00:30,153.1292,-27.3917,78.80,60.80,54.05,170.00,8.00,0.00,29.85,M,6.21,M,FEW,M,M,M,4000.00,M,M,M,M,YBBN 070030Z 17008KT 9999 FEW040 26/16 Q1011
YBBN,2012-03-07 01:00,153.1292,-27.3917,78.80,59.00,50.69,160.00,9.00,0.00,29.85,M,6.21,M,FEW,M,M,M,4500.00,M,M,M,M,YBBN 070100Z 16009KT 9999 FEW045 26/15 Q1011 NOSIG
YBBN,2012-03-07 01:30,153.1292,-27.3917,78.80,57.20,47.52,170.00,10.00,0.00,29.83,M,6.21,M,M,M,M,M,M,M,M,M,M,YBBN 070130Z 17010KT CAVOK 26/14 Q1010
YBBN,2012-03-07 02:00,153.1292,-27.3917,80.60,60.80,50.95,120.00,11.00,0.00,29.83,M,6.21,M,M,M,M,M,M,M,M,M,M,YBBN 070200Z 12011KT CAVOK 27/16 Q1010
YBBN,2012-03-07 02:30,153.1292,-27.3917,80.60,60.80,50.95,110.00,9.00,0.00,29.80,M,6.21,M,FEW,M,M,M,4500.00,M,M,M,M,YBBN 070230Z 11009KT 9999 FEW045 27/16 Q1009
YBBN,2012-03-07 03:00,153.1292,-27.3917,78.80,62.60,57.60,70.00,10.00,0.00,29.80,M,6.21,M,M,M,M,M,M,M,M,M,M,YBBN 070300Z 07010KT CAVOK 26/17 Q1009 NOSIG
YBBN,2012-03-07 03:30,153.1292,-27.3917,80.60,62.60,54.30,70.00,10.00,0.00,29.77,M,6.21,M,M,M,M,M,M,M,M,M,M,YBBN 070330Z 07010KT CAVOK 27/17 Q1008
YBBN,2012-03-07 04:00,153.1292,-27.3917,78.80,62.60,57.60,70.00,9.00,0.00,29.77,M,6.21,M,SCT,M,M,M,4500.00,M,M,M,M,YBBN 070400Z 07009KT 9999 SCT045 26/17 Q1008
YBBN,2012-03-07 04:30,153.1292,-27.3917,78.80,62.60,57.60,70.00,11.00,0.00,29.77,M,6.21,M,SCT,M,M,M,4000.00,M,M,M,M,YBBN 070430Z 07011KT 9999 SCT040 26/17 Q1008
YBBN,2012-03-07 05:00,153.1292,-27.3917,77.00,64.40,65.12,70.00,11.00,0.00,29.77,M,6.21,M,SCT,M,M,M,4500.00,M,M,M,M,YBBN 070500Z 07011KT 9999 SCT045 25/18 Q1008 NOSIG
YBBN,2012-03-07 05:30,153.1292,-27.3917,77.00,64.40,65.12,70.00,10.00,0.00,29.77,M,6.21,M,SCT,SCT,M,M,4500.00,8000.00,M,M,M,YBBN 070530Z 07010KT 9999 SCT045 SCT080 25/18 Q1008
YBBN,2012-03-07 06:00,153.1292,-27.3917,77.00,64.40,65.12,80.00,12.00,0.00,29.77,M,6.21,M,FEW,SCT,M,M,4000.00,9000.00,M,M,M,YBBN 070600Z 08012KT 9999 FEW040 SCT090 25/18 Q1008
YBBN,2012-03-07 06:30,153.1292,-27.3917,77.00,62.60,61.13,80.00,13.00,0.00,29.77,M,6.21,M,FEW,M,M,M,4000.00,M,M,M,M,YBBN 070630Z 08013KT 9999 FEW040 25/17 Q1008
YBBN,2012-03-07 07:00,153.1292,-27.3917,75.20,62.60,64.91,90.00,11.00,0.00,29.77,M,6.21,M,FEW,M,M,M,3500.00,M,M,M,M,YBBN 070700Z 09011KT 9999 FEW035 24/17 Q1008
YBBN,2012-03-07 07:30,153.1292,-27.3917,75.20,64.40,69.14,90.00,11.00,0.00,29.77,M,6.21,M,FEW,M,M,M,3000.00,M,M,M,M,YBBN 070730Z 09011KT 9999 FEW030 24/18 Q1008
YBBN,2012-03-07 08:00,153.1292,-27.3917,75.20,62.60,64.91,90.00,11.00,0.00,29.77,M,6.21,M,FEW,M,M,M,3000.00,M,M,M,M,YBBN 070800Z 09011KT 9999 FEW030 24/17 Q1008
YBBN,2012-03-07 08:30,153.1292,-27.3917,73.40,64.40,73.44,110.00,9.00,0.00,29.80,M,6.21,19.00,FEW,M,M,M,3000.00,M,M,M,M,YBBN 070830Z 11009G19KT 9999 FEW030 23/18 Q1009
YBBN,2012-03-07 09:00,153.1292,-27.3917,73.40,62.60,68.94,110.00,12.00,0.00,29.80,M,6.21,M,FEW,M,M,M,3000.00,M,M,M,M,YBBN 070900Z 11012KT 9999 FEW030 23/17 Q1009
YBBN,2012-03-07 09:30,153.1292,-27.3917,73.40,60.80,64.69,120.00,10.00,0.00,29.83,M,6.21,M,FEW,M,M,M,3000.00,M,M,M,M,YBBN 070930Z 12010KT 9999 FEW030 23/16 Q1010
YBBN,2012-03-07 10:00,153.1292,-27.3917,73.40,60.80,64.69,130.00,11.00,0.00,29.83,M,6.21,21.00,FEW,M,M,M,3000.00,M,M,M,M,YBBN 071000Z 13011G21KT 9999 FEW030 23/16 Q1010
YBBN,2012-03-07 10:30,153.1292,-27.3917,71.60,60.80,68.75,140.00,10.00,0.00,29.83,M,6.21,M,FEW,M,M,M,3000.00,M,M,M,M,YBBN 071030Z 14010KT 9999 FEW030 22/16 Q1010
YBBN,2012-03-07 11:00,153.1292,-27.3917,71.60,60.80,68.75,140.00,9.00,0.00,29.83,M,6.21,M,M,M,M,M,M,M,M,M,M,YBBN 071100Z 14009KT CAVOK 22/16 Q1010
YBBN,2012-03-07 11:30,153.1292,-27.3917,69.80,60.80,73.09,150.00,9.00,0.00,29.83,M,6.21,M,M,M,M,M,M,M,M,M,M,YBBN 071130Z 15009KT CAVOK 21/16 Q1010
YBBN,2012-03-07 12:00,153.1292,-27.3917,69.80,59.00,68.55,170.00,8.00,0.00,29.83,M,6.21,M,M,M,M,M,M,M,M,M,M,YBBN 071200Z 17008KT CAVOK 21/15 Q1010
YBBN,2012-03-07 12:30,153.1292,-27.3917,68.00,59.00,72.92,180.00,9.00,0.00,29.83,M,6.21,M,M,M,M,M,M,M,M,M,M,YBBN 071230Z 18009KT CAVOK 20/15 Q1010
YBBN,2012-03-07 13:00,153.1292,-27.3917,68.00,59.00,72.92,190.00,7.00,0.00,29.83,M,6.21,M,M,M,M,M,M,M,M,M,M,YBBN 071300Z 19007KT CAVOK 20/15 Q1010
YBBN,2012-03-07 13:30,153.1292,-27.3917,68.00,59.00,72.92,190.00,6.00,0.00,29.83,M,6.21,M,M,M,M,M,M,M,M,M,M,YBBN 071330Z 19006KT CAVOK 20/15 Q1010
YBBN,2012-03-07 14:00,153.1292,-27.3917,68.00,59.00,72.92,190.00,6.00,0.00,29.83,M,6.21,M,M,M,M,M,M,M,M,M,M,YBBN 071400Z 19006KT CAVOK 20/15 Q1010
YBBN,2012-03-07 14:30,153.1292,-27.3917,66.20,59.00,77.60,200.00,7.00,0.00,29.83,M,6.21,M,FEW,M,M,M,3300.00,M,M,M,M,YBBN 071430Z 20007KT 9999 FEW033 19/15 Q1010
YBBN,2012-03-07 15:00,153.1292,-27.3917,66.20,59.00,77.60,210.00,7.00,0.00,29.80,M,6.21,M,SCT,M,M,M,3100.00,M,M,M,M,YBBN 071500Z 21007KT 9999 SCT031 19/15 Q1009
YBBN,2012-03-07 15:30,153.1292,-27.3917,64.40,59.00,82.62,210.00,6.00,0.00,29.80,M,6.21,M,FEW,M,M,M,3300.00,M,M,M,M,YBBN 071530Z 21006KT 9999 FEW033 18/15 Q1009
YBBN,2012-03-07 16:00,153.1292,-27.3917,64.40,59.00,82.62,220.00,7.00,0.00,29.80,M,6.21,M,M,M,M,M,M,M,M,M,M,YBBN 071600Z 22007KT CAVOK 18/15 Q1009
YBBN,2012-03-07 16:30,153.1292,-27.3917,66.20,59.00,77.60,210.00,7.00,0.00,29.80,M,6.21,M,M,M,M,M,M,M,M,M,M,YBBN 071630Z 21007KT CAVOK 19/15 Q1009
YBBN,2012-03-07 17:00,153.1292,-27.3917,66.20,59.00,77.60,210.00,7.00,0.00,29.80,M,6.21,M,M,M,M,M,M,M,M,M,M,YBBN 071700Z 21007KT CAVOK 19/15 Q1009
YBBN,2012-03-07 17:30,153.1292,-27.3917,64.40,59.00,82.62,210.00,6.00,0.00,29.80,M,6.21,M,M,M,M,M,M,M,M,M,M,YBBN 071730Z 21006KT CAVOK 18/15 Q1009
YBBN,2012-03-07 18:00,153.1292,-27.3917,64.40,59.00,82.62,210.00,6.00,0.00,29.80,M,6.21,M,M,M,M,M,M,M,M,M,M,YBBN 071800Z 21006KT CAVOK 18/15 Q1009
YBBN,2012-03-07 18:30,153.1292,-27.3917,66.20,59.00,77.60,200.00,6.00,0.00,29.80,M,6.21,M,M,M,M,M,M,M,M,M,M,YBBN 071830Z 20006KT CAVOK 19/15 Q1009
YBBN,2012-03-07 19:00,153.1292,-27.3917,64.40,59.00,82.62,210.00,7.00,0.00,29.80,M,6.21,M,M,M,M,M,M,M,M,M,M,YBBN 071900Z 21007KT CAVOK 18/15 Q1009
YBBN,2012-03-07 19:30,153.1292,-27.3917,64.40,59.00,82.62,200.00,6.00,0.00,29.80,M,6.21,M,M,M,M,M,M,M,M,M,M,YBBN 071930Z 20006KT CAVOK 18/15 Q1009
YBBN,2012-03-07 20:00,153.1292,-27.3917,64.40,59.00,82.62,210.00,6.00,0.00,29.80,M,6.21,M,FEW,M,M,M,3000.00,M,M,M,M,YBBN 072000Z 21006KT 9999 FEW030 18/15 Q1009
YBBN,2012-03-07 20:30,153.1292,-27.3917,66.20,60.80,82.74,220.00,7.00,0.00,29.83,M,6.21,M,FEW,M,M,M,2000.00,M,M,M,M,YBBN 072030Z 22007KT 9999 FEW020 19/16 Q1010
YBBN,2012-03-07 21:00,153.1292,-27.3917,68.00,60.80,77.75,210.00,7.00,0.00,29.83,M,6.21,M,M,M,M,M,M,M,M,M,M,YBBN 072100Z 21007KT CAVOK 20/16 Q1010
YBBN,2012-03-07 21:30,153.1292,-27.3917,69.80,59.00,68.55,210.00,8.00,0.00,29.83,M,6.21,M,M,M,M,M,M,M,M,M,M,YBBN 072130Z 21008KT CAVOK 21/15 Q1010
YBBN,2012-03-07 22:00,153.1292,-27.3917,71.60,60.80,68.75,210.00,7.00,0.00,29.85,M,6.21,M,M,M,M,M,M,M,M,M,M,YBBN 072200Z 21007KT CAVOK 22/16 Q1011
YBBN,2012-03-07 22:30,153.1292,-27.3917,73.40,60.80,64.69,210.00,8.00,0.00,29.85,M,6.21,M,FEW,M,M,M,2800.00,M,M,M,M,YBBN 072230Z 21008KT 9999 FEW028 23/16 Q1011
YBBN,2012-03-07 23:00,153.1292,-27.3917,75.20,60.80,60.90,160.00,6.00,0.00,29.85,M,6.21,M,FEW,SCT,M,M,2800.00,36000.00,M,M,M,YBBN 072300Z 16006KT 9999 FEW028 SCT360 24/16 Q1011
YBBN,2012-03-07 23:30,153.1292,-27.3917,75.20,62.60,64.91,170.00,6.00,0.00,29.85,M,6.21,M,FEW,M,M,M,3200.00,M,M,M,M,YBBN 072330Z 17006KT 9999 FEW032 24/17 Q1011
