#DEBUG: Format Typ    -> comma
#DEBUG: Time Period   -> 2012-04-28 00:00:00+00:00 2012-04-29 00:00:00+00:00
#DEBUG: Time Zone     -> Etc/UTC
#DEBUG: Data Contact   -> daryl herzmann akrherz@iastate.edu 515-294-5978
#DEBUG: Entries Found -> -1
station,valid,lon,lat,tmpf, dwpf, relh, drct, sknt, p01i, alti, mslp, vsby, gust, skyc1, skyc2, skyc3, skyc4, skyl1, skyl2, skyl3, skyl4, presentwx, metar
YBBN,2012-04-28 00:00,153.1292,-27.3917,66.20,62.60,88.18,120.00,8.00,0.00,30.06,M,3.11,M,FEW,BKN,BKN,M,1800.00,2900.00,3500.00,M,-RA,YBBN 280000Z 12008KT 5000 -RA FEW018 BKN029 BKN035 19/17 Q1018
YBBN,2012-04-28 00:30,153.1292,-27.3917,66.20,64.40,93.92,120.00,6.00,0.00,30.06,M,3.11,M,SCT,BKN,M,M,1600.00,3400.00,M,M,-RA,YBBN 280030Z 12006KT 5000 -RA SCT016 BKN034 19/18 Q1018
YBBN,2012-04-28 01:00,153.1292,-27.3917,66.20,64.40,93.92,130.00,7.00,0.00,30.06,M,2.49,M,FEW,SCT,OVC,M,1100.00,1800.00,3200.00,M,-RA,YBBN 280100Z 13007KT 4000 -RA FEW011 SCT018 OVC032 19/18 Q1018
YBBN,2012-04-28 01:14,153.1292,-27.3917,66.20,64.40,93.92,150.00,6.00,0.00,30.06,M,1.86,M,SCT,BKN,M,M,700.00,1800.00,M,M,-RA,YBBN 280114Z 15006KT 3000 -RA SCT007 BKN018 19/18 Q1018
YBBN,2012-04-28 01:30,153.1292,-27.3917,66.20,64.40,93.92,190.00,5.00,0.00,30.03,M,1.55,M,BKN,BKN,M,M,600.00,2100.00,M,M,RA,YBBN 280130Z 19005KT 2500 RA BKN006 BKN021 19/18 Q1017
YBBN,2012-04-28 02:00,153.1292,-27.3917,66.20,66.20,100.00,160.00,5.00,0.00,30.03,M,2.49,M,BKN,BKN,M,M,500.00,900.00,M,M,RA,YBBN 280200Z 16005KT 4000 RA BKN005 BKN009 19/19 Q1017
YBBN,2012-04-28 02:30,153.1292,-27.3917,66.20,64.40,93.92,140.00,7.00,0.00,30.00,M,1.86,M,BKN,BKN,OVC,M,600.00,1000.00,2500.00,M,RA,YBBN 280230Z 14007KT 3000 RA BKN006 BKN010 OVC025 19/18 Q1016
YBBN,2012-04-28 03:00,153.1292,-27.3917,66.20,64.40,93.92,140.00,9.00,0.00,30.00,M,1.86,M,BKN,BKN,M,M,800.00,1400.00,M,M,RA,YBBN 280300Z 14009KT 3000 RA BKN008 BKN014 19/18 Q1016
YBBN,2012-04-28 03:30,153.1292,-27.3917,66.20,64.40,93.92,150.00,8.00,0.00,29.97,M,3.11,M,BKN,BKN,M,M,800.00,1500.00,M,M,RA,YBBN 280330Z 15008KT 5000 RA BKN008 BKN015 19/18 Q1015
YBBN,2012-04-28 04:00,153.1292,-27.3917,66.20,64.40,93.92,130.00,9.00,0.00,29.97,M,2.49,M,BKN,BKN,M,M,800.00,1200.00,M,M,RA,YBBN 280400Z 13009KT 4000 RA BKN008 BKN012 19/18 Q1015
YBBN,2012-04-28 04:30,153.1292,-27.3917,66.20,64.40,93.92,140.00,8.00,0.00,29.94,M,2.49,M,FEW,SCT,OVC,M,600.00,1900.00,4300.00,M,RA,YBBN 280430Z 14008KT 4000 RA FEW006 SCT019 OVC043 19/18 Q1014
YBBN,2012-04-28 05:00,153.1292,-27.3917,66.20,66.20,100.00,150.00,6.00,0.00,29.97,M,2.17,M,SCT,SCT,BKN,M,800.00,1800.00,3100.00,M,RA,YBBN 280500Z 15006KT 3500 RA SCT008 SCT018 BKN031 19/19 Q1015
YBBN,2012-04-28 05:30,153.1292,-27.3917,66.20,66.20,100.00,150.00,6.00,0.00,29.97,M,3.11,M,SCT,BKN,BKN,M,500.00,1400.00,2800.00,M,RA,YBBN 280530Z 15006KT 5000 RA SCT005 BKN014 BKN028 19/19 Q1015
YBBN,2012-04-28 06:00,153.1292,-27.3917,66.20,66.20,100.00,180.00,7.00,0.00,29.94,M,1.55,M,BKN,BKN,M,M,500.00,800.00,M,M,RA,YBBN 280600Z 18007KT 2500 RA BKN005 BKN008 19/19 Q1014
YBBN,2012-04-28 06:30,153.1292,-27.3917,66.20,66.20,100.00,180.00,6.00,0.00,29.94,M,1.55,M,BKN,BKN,M,M,1000.00,2000.00,M,M,RA,YBBN 280630Z 18006KT 2500 RA BKN010 BKN020 19/19 Q1014
YBBN,2012-04-28 07:00,153.1292,-27.3917,66.20,64.40,93.92,180.00,6.00,0.00,29.94,M,1.12,M,SCT,BKN,M,M,300.00,900.00,M,M,RA,YBBN 280700Z 18006KT 1800 RA SCT003 BKN009 19/18 Q1014
YBBN,2012-04-28 07:19,153.1292,-27.3917,66.20,66.20,100.00,210.00,6.00,0.00,29.94,M,0.68,M,SCT,OVC,M,M,300.00,900.00,M,M,RA,YBBN 280719Z 21006KT 1100 RA SCT003 OVC009 19/19 Q1014
YBBN,2012-04-28 07:30,153.1292,-27.3917,66.20,64.40,93.92,200.00,5.00,0.00,29.94,M,0.68,M,BKN,OVC,M,M,300.00,900.00,M,M,RA,YBBN 280730Z 20005KT 1100 RA BKN003 OVC009 19/18 Q1014
YBBN,2012-04-28 07:43,153.1292,-27.3917,66.20,64.40,93.92,250.00,5.00,0.00,29.94,M,0.31,M,BKN,BKN,M,M,300.00,800.00,M,M,+RA,YBBN 280743Z 25005KT 0500 +RA BKN003 BKN008 19/18 Q1014
YBBN,2012-04-28 07:50,153.1292,-27.3917,66.20,64.40,93.92,250.00,3.00,0.00,29.97,M,0.50,M,BKN,BKN,M,M,300.00,800.00,M,M,+RA,YBBN 280750Z 25003KT 0800 +RA BKN003 BKN008 19/18 Q1015
YBBN,2012-04-28 08:00,153.1292,-27.3917,66.20,64.40,93.92,230.00,7.00,0.00,29.97,M,0.93,M,BKN,BKN,M,M,300.00,800.00,M,M,+RA,YBBN 280800Z 23007KT 1500 +RA BKN003 BKN008 19/18 Q1015
YBBN,2012-04-28 08:30,153.1292,-27.3917,64.40,64.40,100.00,210.00,6.00,0.00,29.97,M,0.93,M,SCT,BKN,M,M,600.00,800.00,M,M,+RA,YBBN 280830Z 21006KT 1500 +RA SCT006 BKN008 18/18 Q1015
YBBN,2012-04-28 09:00,153.1292,-27.3917,64.40,64.40,100.00,220.00,10.00,0.00,29.97,M,0.93,M,SCT,BKN,M,M,600.00,800.00,M,M,+RA,YBBN 280900Z 22010KT 1500 +RA SCT006 BKN008 18/18 Q1015 RERA
YBBN,2012-04-28 09:30,153.1292,-27.3917,64.40,62.60,93.88,230.00,12.00,0.00,29.97,M,0.75,M,SCT,BKN,M,M,500.00,800.00,M,M,+RA,YBBN 280930Z 23012KT 1200 +RA SCT005 BKN008 18/17 Q1015 RERA
YBBN,2012-04-28 10:00,153.1292,-27.3917,62.60,62.60,100.00,210.00,14.00,0.00,29.97,M,1.24,M,SCT,BKN,M,M,500.00,1000.00,M,M,RA,YBBN 281000Z 21014KT 2000 RA SCT005 BKN010 17/17 Q1015 RERA
YBBN,2012-04-28 10:08,153.1292,-27.3917,62.60,62.60,100.00,210.00,14.00,0.00,29.97,M,2.17,M,FEW,SCT,BKN,M,600.00,1800.00,2700.00,M,-RA,YBBN 281008Z 21014KT 3500 -RA FEW006 SCT018 BKN027 17/17 Q1015 RERA
YBBN,2012-04-28 10:30,153.1292,-27.3917,62.60,62.60,100.00,190.00,9.00,0.00,29.97,M,2.17,M,FEW,SCT,BKN,M,800.00,2000.00,3000.00,M,-RA,YBBN 281030Z 19009KT 3500 -RA FEW008 SCT020 BKN030 17/17 Q1015
YBBN,2012-04-28 10:45,153.1292,-27.3917,62.60,62.60,100.00,190.00,9.00,0.00,29.97,M,3.11,M,FEW,SCT,BKN,M,800.00,2000.00,3000.00,M,-RA,YBBN 281045Z 19009KT 5000 -RA FEW008 SCT020 BKN030 17/17 Q1015
YBBN,2012-04-28 11:00,153.1292,-27.3917,64.40,62.60,93.88,180.00,8.00,0.00,29.97,M,4.35,M,FEW,SCT,BKN,M,800.00,2100.00,2600.00,M,-RA,YBBN 281100Z 18008KT 7000 -RA FEW008 SCT021 BKN026 18/17 Q1015
YBBN,2012-04-28 11:30,153.1292,-27.3917,64.40,62.60,93.88,180.00,7.00,0.00,29.97,M,6.21,M,FEW,BKN,M,M,1000.00,2100.00,M,M,-DZ,YBBN 281130Z 18007KT 9999 -DZ FEW010 BKN021 18/17 Q1015
YBBN,2012-04-28 11:44,153.1292,-27.3917,64.40,62.60,93.88,210.00,9.00,0.00,29.97,M,4.35,M,FEW,BKN,M,M,600.00,2000.00,M,M,-DZ,YBBN 281144Z 21009KT 7000 -DZ FEW006 BKN020 18/17 Q1015
YBBN,2012-04-28 11:56,153.1292,-27.3917,64.40,64.40,100.00,210.00,8.00,0.00,29.97,M,3.11,M,FEW,BKN,M,M,600.00,1800.00,M,M,-RA,YBBN 281156Z 21008KT 5000 -RA FEW006 BKN018 18/18 Q1015
YBBN,2012-04-28 12:00,153.1292,-27.3917,64.40,62.60,93.88,210.00,9.00,0.00,29.97,M,3.11,M,FEW,BKN,M,M,600.00,1800.00,M,M,-RA,YBBN 281200Z 21009KT 5000 -RA FEW006 BKN018 18/17 Q1015
YBBN,2012-04-28 12:30,153.1292,-27.3917,64.40,62.60,93.88,210.00,10.00,0.00,29.94,M,2.49,M,SCT,BKN,M,M,600.00,1800.00,M,M,-RA,YBBN 281230Z 21010KT 4000 -RA SCT006 BKN018 18/17 Q1014
YBBN,2012-04-28 12:51,153.1292,-27.3917,64.40,62.60,93.88,200.00,9.00,0.00,29.94,M,4.35,M,SCT,BKN,M,M,600.00,1800.00,M,M,M,YBBN 281251Z 20009KT 7000 SCT006 BKN018 18/17 Q1014
YBBN,2012-04-28 12:57,153.1292,-27.3917,64.40,62.60,93.88,210.00,9.00,0.00,29.94,M,4.97,M,BKN,BKN,M,M,600.00,1800.00,M,M,-DZ,YBBN 281257Z 21009KT 8000 -DZ BKN006 BKN018 18/17 Q1014
YBBN,2012-04-28 13:30,153.1292,-27.3917,62.60,62.60,100.00,210.00,9.00,0.00,29.94,M,3.11,M,BKN,BKN,M,M,500.00,1800.00,M,M,-RA,YBBN 281330Z 21009KT 5000 -RA BKN005 BKN018 17/17 Q1014
YBBN,2012-04-28 14:00,153.1292,-27.3917,62.60,62.60,100.00,200.00,9.00,0.00,29.91,M,3.11,M,BKN,BKN,M,M,500.00,1800.00,M,M,-RA,YBBN 281400Z 20009KT 5000 -RA BKN005 BKN018 17/17 Q1013
YBBN,2012-04-28 14:30,153.1292,-27.3917,62.60,62.60,100.00,210.00,11.00,0.00,29.91,M,3.11,M,FEW,BKN,M,M,500.00,1500.00,M,M,DZ,YBBN 281430Z 21011KT 5000 DZ FEW005 BKN015 17/17 Q1013
YBBN,2012-04-28 14:44,153.1292,-27.3917,62.60,62.60,100.00,200.00,10.00,0.00,29.91,M,4.35,M,FEW,SCT,BKN,M,500.00,1800.00,3600.00,M,-DZ,YBBN 281444Z 20010KT 7000 -DZ FEW005 SCT018 BKN036 17/17 Q1013
YBBN,2012-04-28 15:00,153.1292,-27.3917,62.60,60.80,93.83,200.00,10.00,0.00,29.91,M,4.35,M,FEW,SCT,BKN,M,600.00,1500.00,3600.00,M,-DZ,YBBN 281500Z 20010KT 7000 -DZ FEW006 SCT015 BKN036 17/16 Q1013
YBBN,2012-04-28 15:30,153.1292,-27.3917,62.60,60.80,93.83,200.00,10.00,0.00,29.91,M,4.35,M,FEW,BKN,M,M,800.00,2700.00,M,M,-DZ,YBBN 281530Z 20010KT 7000 -DZ FEW008 BKN027 17/16 Q1013
YBBN,2012-04-28 15:44,153.1292,-27.3917,62.60,60.80,93.83,200.00,10.00,0.00,29.91,M,6.21,M,FEW,BKN,M,M,800.00,2700.00,M,M,M,YBBN 281544Z 20010KT 9999 FEW008 BKN027 17/16 Q1013
YBBN,2012-04-28 16:00,153.1292,-27.3917,62.60,62.60,100.00,210.00,10.00,0.00,29.91,M,6.21,M,FEW,BKN,M,M,1000.00,2800.00,M,M,VCSH,YBBN 281600Z 21010KT 9999 VCSH FEW010 BKN028 17/17 Q1013
YBBN,2012-04-28 16:30,153.1292,-27.3917,62.60,60.80,93.83,220.00,13.00,0.00,29.88,M,6.21,M,FEW,BKN,M,M,1000.00,2800.00,M,M,-DZ VCSH,YBBN 281630Z 22013KT 9999 -DZ VCSH FEW010 BKN028 17/16 Q1012
YBBN,2012-04-28 17:00,153.1292,-27.3917,62.60,60.80,93.83,220.00,13.00,0.00,29.88,M,4.35,M,SCT,BKN,M,M,900.00,1600.00,M,M,-RA VCSH,YBBN 281700Z 22013KT 7000 -RA VCSH SCT009 BKN016 17/16 Q1012
YBBN,2012-04-28 17:30,153.1292,-27.3917,62.60,60.80,93.83,220.00,11.00,0.00,29.88,M,6.21,M,FEW,BKN,M,M,900.00,3600.00,M,M,VCSH,YBBN 281730Z 22011KT 9999 VCSH FEW009 BKN036 17/16 Q1012
YBBN,2012-04-28 18:00,153.1292,-27.3917,62.60,62.60,100.00,230.00,9.00,0.00,29.88,M,6.21,M,FEW,SCT,BKN,M,1000.00,3700.00,5600.00,M,VCSH,YBBN 281800Z 23009KT 9999 VCSH FEW010 SCT037 BKN056 17/17 Q1012
YBBN,2012-04-28 18:30,153.1292,-27.3917,62.60,60.80,93.83,230.00,9.00,0.00,29.88,M,4.97,M,FEW,SCT,BKN,M,1500.00,2500.00,4500.00,M,-RA,YBBN 281830Z 23009KT 8000 -RA FEW015 SCT025 BKN045 17/16 Q1012
YBBN,2012-04-28 19:00,153.1292,-27.3917,62.60,60.80,93.83,220.00,8.00,0.00,29.88,M,6.21,M,FEW,BKN,M,M,1800.00,5000.00,M,M,VCSH,YBBN 281900Z 22008KT 9999 VCSH FEW018 BKN050 17/16 Q1012 TEMPO 1900/2200 3000 RA BKN005
YBBN,2012-04-28 19:30,153.1292,-27.3917,62.60,60.80,93.83,220.00,10.00,0.00,29.88,M,6.21,M,FEW,BKN,M,M,2000.00,5800.00,M,M,M,YBBN 281930Z 22010KT 9999 FEW020 BKN058 17/16 Q1012
YBBN,2012-04-28 20:00,153.1292,-27.3917,62.60,60.80,93.83,220.00,9.00,0.00,29.91,M,6.21,M,M,M,M,M,M,M,M,M,M,YBBN 282000Z 22009KT CAVOK 17/16 Q1013
YBBN,2012-04-28 20:30,153.1292,-27.3917,62.60,60.80,93.83,230.00,10.00,0.00,29.91,M,6.21,M,FEW,BKN,M,M,3000.00,5900.00,M,M,M,YBBN 282030Z 23010KT 9999 FEW030 BKN059 17/16 Q1013
YBBN,2012-04-28 21:00,153.1292,-27.3917,64.40,60.80,88.09,230.00,8.00,0.00,29.91,M,6.21,M,FEW,BKN,M,M,3000.00,6100.00,M,M,M,YBBN 282100Z 23008KT 9999 FEW030 BKN061 18/16 Q1013
YBBN,2012-04-28 21:30,153.1292,-27.3917,64.40,60.80,88.09,210.00,9.00,0.00,29.94,M,6.21,M,FEW,BKN,M,M,3000.00,6100.00,M,M,M,YBBN 282130Z 21009KT 9999 FEW030 BKN061 18/16 Q1014
YBBN,2012-04-28 22:00,153.1292,-27.3917,66.20,60.80,82.74,200.00,8.00,0.00,29.94,M,6.21,M,FEW,BKN,M,M,3000.00,6500.00,M,M,M,YBBN 282200Z 20008KT 9999 FEW030 BKN065 19/16 Q1014
YBBN,2012-04-28 22:30,153.1292,-27.3917,66.20,60.80,82.74,210.00,12.00,0.00,29.94,M,6.21,M,FEW,BKN,M,M,3000.00,6500.00,M,M,M,YBBN 282230Z 21012KT 9999 FEW030 BKN065 19/16 Q1014
YBBN,2012-04-28 23:00,153.1292,-27.3917,68.00,60.80,77.75,220.00,12.00,0.00,29.94,M,6.21,M,FEW,BKN,BKN,M,3000.00,6500.00,7400.00,M,M,YBBN 282300Z 22012KT 9999 FEW030 BKN065 BKN074 20/16 Q1014 NOSIG
YBBN,2012-04-28 23:30,153.1292,-27.3917,69.80,60.80,73.09,220.00,13.00,0.00,29.94,M,6.21,M,FEW,BKN,M,M,2800.00,6700.00,M,M,M,YBBN 282330Z 22013KT 9999 FEW028 BKN067 21/16 Q1014
