#DEBUG: Format Typ    -> comma
#DEBUG: Time Period   -> 2011-03-10 00:00:00+00:00 2011-03-11 00:00:00+00:00
#DEBUG: Time Zone     -> Etc/UTC
#DEBUG: Data Contact   -> daryl herzmann akrherz@iastate.edu 515-294-5978
#DEBUG: Entries Found -> -1
station,valid,lon,lat,tmpf, dwpf, relh, drct, sknt, p01i, alti, mslp, vsby, gust, skyc1, skyc2, skyc3, skyc4, skyl1, skyl2, skyl3, skyl4, presentwx, metar
YBBN,2011-03-10 00:00,153.1292,-27.3917,78.80,64.40,61.36,140.00,7.00,M,29.97,M,6.21,M,FEW,BKN,M,M,2800.00,7700.00,M,M,M,YBBN 100000Z 14007KT 9999 FEW028 BKN077 26/18 Q1015 NOSIG
YBBN,2011-03-10 00:30,153.1292,-27.3917,78.80,66.20,65.33,100.00,6.00,M,29.97,M,6.21,M,SCT,BKN,M,M,3000.00,7700.00,M,M,M,YBBN 100030Z 10006KT 9999 SCT030 BKN077 26/19 Q1015 NOSIG
YBBN,2011-03-10 01:00,153.1292,-27.3917,78.80,64.40,61.36,100.00,7.00,M,29.97,M,6.21,M,SCT,BKN,M,M,3000.00,7700.00,M,M,M,YBBN 100100Z 10007KT 9999 SCT030 BKN077 26/18 Q1015 NOSIG
YBBN,2011-03-10 01:30,153.1292,-27.3917,77.00,62.60,61.13,100.00,7.00,M,29.97,M,6.21,M,SCT,BKN,M,M,3000.00,7700.00,M,M,M,YBBN 100130Z 10007KT 9999 SCT030 BKN077 25/17 Q1015 NOSIG
YBBN,2011-03-10 02:00,153.1292,-27.3917,78.80,64.40,61.36,80.00,8.00,M,29.94,M,6.21,M,SCT,BKN,M,M,3000.00,5700.00,M,M,M,YBBN 100200Z 08008KT 9999 SCT030 BKN057 26/18 Q1014 NOSIG
YBBN,2011-03-10 02:30,153.1292,-27.3917,78.80,64.40,61.36,80.00,8.00,M,29.94,M,6.21,M,SCT,BKN,M,M,3000.00,5300.00,M,M,M,YBBN 100230Z 08008KT 9999 SCT030 BKN053 26/18 Q1014 NOSIG
YBBN,2011-03-10 03:00,153.1292,-27.3917,78.80,62.60,57.60,80.00,8.00,M,29.94,M,6.21,M,SCT,BKN,M,M,3000.00,5900.00,M,M,M,YBBN 100300Z 08008KT 9999 SCT030 BKN059 26/17 Q1014 NOSIG
YBBN,2011-03-10 03:30,153.1292,-27.3917,78.80,64.40,61.36,70.00,8.00,M,29.94,M,6.21,M,SCT,BKN,M,M,3000.00,6300.00,M,M,M,YBBN 100330Z 07008KT 9999 SCT030 BKN063 26/18 Q1014 NOSIG
YBBN,2011-03-10 04:00,153.1292,-27.3917,80.60,68.00,65.54,70.00,11.00,M,29.91,M,6.21,M,FEW,SCT,M,M,3000.00,6300.00,M,M,M,YBBN 100400Z 07011KT 9999 FEW030 SCT063 27/20 Q1013 NOSIG
YBBN,2011-03-10 04:30,153.1292,-27.3917,78.80,66.20,65.33,70.00,10.00,M,29.91,M,6.21,M,SCT,BKN,M,M,2700.00,6100.00,M,M,VCSH,YBBN 100430Z 07010KT 9999 VCSH SCT027 BKN061 26/19 Q1013 NOSIG
YBBN,2011-03-10 05:00,153.1292,-27.3917,78.80,62.60,57.60,60.00,8.00,M,29.91,M,6.21,M,SCT,BKN,M,M,2700.00,6100.00,M,M,VCSH,YBBN 100500Z 06008KT 9999 VCSH SCT027 BKN061 26/17 Q1013 NOSIG
YBBN,2011-03-10 05:30,153.1292,-27.3917,78.80,64.40,61.36,50.00,11.00,M,29.91,M,6.21,M,SCT,SCT,M,M,2800.00,6300.00,M,M,VCSH,YBBN 100530Z 05011KT 9999 VCSH SCT028 SCT063 26/18 Q1013 NOSIG
YBBN,2011-03-10 06:00,153.1292,-27.3917,75.20,66.20,73.61,50.00,14.00,M,29.91,M,6.21,M,SCT,BKN,M,M,2600.00,6100.00,M,M,VCSH,YBBN 100600Z 05014KT 9999 VCSH SCT026 BKN061 24/19 Q1013 NOSIG
YBBN,2011-03-10 06:30,153.1292,-27.3917,77.00,64.40,65.12,50.00,9.00,M,29.91,M,6.21,M,FEW,BKN,M,M,2600.00,5000.00,M,M,VCSH,YBBN 100630Z 05009KT 9999 VCSH FEW026 BKN050 25/18 Q1013 NOSIG
YBBN,2011-03-10 07:00,153.1292,-27.3917,77.00,66.20,69.33,50.00,9.00,M,29.91,M,6.21,M,FEW,BKN,M,M,2800.00,5000.00,M,M,VCSH,YBBN 100700Z 05009KT 9999 VCSH FEW028 BKN050 25/19 Q1013 NOSIG
YBBN,2011-03-10 07:30,153.1292,-27.3917,75.20,64.40,69.14,50.00,7.00,M,29.91,M,6.21,M,FEW,BKN,M,M,2700.00,6800.00,M,M,M,YBBN 100730Z 05007KT 9999 FEW027 BKN068 24/18 Q1013 NOSIG
YBBN,2011-03-10 08:00,153.1292,-27.3917,75.20,64.40,69.14,50.00,6.00,M,29.94,M,6.21,M,FEW,BKN,M,M,2800.00,7000.00,M,M,M,YBBN 100800Z 05006KT 9999 FEW028 BKN070 24/18 Q1014 NOSIG
YBBN,2011-03-10 08:30,153.1292,-27.3917,75.20,64.40,69.14,20.00,6.00,M,29.94,M,6.21,M,FEW,SCT,BKN,M,2800.00,5800.00,7600.00,M,M,YBBN 100830Z 02006KT 9999 FEW028 SCT058 BKN076 24/18 Q1014 NOSIG
YBBN,2011-03-10 10:30,153.1292,-27.3917,73.40,66.20,78.19,60.00,7.00,M,29.97,M,6.21,M,FEW,SCT,BKN,M,1800.00,2200.00,4400.00,M,VCSH,YBBN 101030Z 06007KT 9999 VCSH FEW018 SCT022 BKN044 23/19 Q1015 NOSIG
YBBN,2011-03-10 11:00,153.1292,-27.3917,73.40,68.00,83.21,20.00,11.00,M,29.97,M,6.21,M,SCT,BKN,M,M,2500.00,4800.00,M,M,VCSH,YBBN 101100Z 02011KT 9999 VCSH SCT025 BKN048 23/20 Q1015 NOSIG
YBBN,2011-03-10 11:30,153.1292,-27.3917,73.40,64.40,73.44,10.00,12.00,M,29.97,M,6.21,M,FEW,BKN,M,M,2500.00,5500.00,M,M,VCSH,YBBN 101130Z 01012KT 9999 VCSH FEW025 BKN055 23/18 Q1015 NOSIG
YBBN,2011-03-10 12:00,153.1292,-27.3917,75.20,62.60,64.91,30.00,7.00,M,29.97,M,6.21,M,FEW,BKN,M,M,2500.00,5500.00,M,M,M,YBBN 101200Z 03007KT 9999 FEW025 BKN055 24/17 Q1015 NOSIG
YBBN,2011-03-10 12:30,153.1292,-27.3917,73.40,66.20,78.19,30.00,5.00,M,29.97,M,6.21,M,FEW,BKN,M,M,2500.00,5700.00,M,M,M,YBBN 101230Z 03005KT 9999 FEW025 BKN057 23/19 Q1015 NOSIG
YBBN,2011-03-10 13:00,153.1292,-27.3917,73.40,68.00,83.21,360.00,4.00,M,29.97,M,6.21,M,FEW,BKN,M,M,2500.00,5900.00,M,M,M,YBBN 101300Z 36004KT 9999 FEW025 BKN059 23/20 Q1015 NOSIG
YBBN,2011-03-10 13:30,153.1292,-27.3917,73.40,68.00,83.21,360.00,1.00,M,29.97,M,6.21,M,FEW,BKN,M,M,2500.00,6300.00,M,M,M,YBBN 101330Z 36001KT 9999 FEW025 BKN063 23/20 Q1015 NOSIG
YBBN,2011-03-10 14:00,153.1292,-27.3917,73.40,68.00,83.21,0.00,0.00,M,29.97,M,6.21,M,FEW,BKN,M,M,2800.00,6700.00,M,M,M,YBBN 101400Z 00000KT 9999 FEW028 BKN067 23/20 Q1015 NOSIG
YBBN,2011-03-10 15:00,153.1292,-27.3917,73.40,68.00,83.21,30.00,5.00,M,29.94,M,6.21,M,FEW,SCT,BKN,M,2800.00,6700.00,18000.00,M,M,YBBN 101500Z 03005KT 9999 FEW028 SCT067 BKN180 23/20 Q1014 NOSIG
YBBN,2011-03-10 15:30,153.1292,-27.3917,73.40,68.00,83.21,40.00,4.00,M,29.94,M,6.21,M,FEW,SCT,BKN,M,2800.00,9500.00,18000.00,M,VCSH,YBBN 101530Z 04004KT 9999 VCSH FEW028 SCT095 BKN180 23/20 Q1014 NOSIG
YBBN,2011-03-10 16:00,153.1292,-27.3917,73.40,68.00,83.21,50.00,5.00,M,29.94,M,6.21,M,FEW,BKN,M,M,2800.00,5900.00,M,M,M,YBBN 101600Z 05005KT 9999 FEW028 BKN059 23/20 Q1014 NOSIG
YBBN,2011-03-10 16:30,153.1292,-27.3917,73.40,68.00,83.21,50.00,4.00,M,29.94,M,6.21,M,FEW,BKN,M,M,3000.00,6500.00,M,M,M,YBBN 101630Z 05004KT 9999 FEW030 BKN065 23/20 Q1014 NOSIG
YBBN,2011-03-10 17:00,153.1292,-27.3917,71.60,68.00,88.43,50.00,5.00,M,29.91,M,6.21,M,FEW,BKN,M,M,3000.00,18000.00,M,M,M,YBBN 101700Z 05005KT 9999 FEW030 BKN180 22/20 Q1013 NOSIG
YBBN,2011-03-10 17:30,153.1292,-27.3917,73.40,66.20,78.19,70.00,3.00,M,29.94,M,6.21,M,FEW,SCT,BKN,M,3000.00,9200.00,18000.00,M,M,YBBN 101730Z 07003KT 9999 FEW030 SCT092 BKN180 23/19 Q1014 NOSIG
YBBN,2011-03-10 18:00,153.1292,-27.3917,71.60,68.00,88.43,50.00,6.00,M,29.91,M,6.21,M,FEW,SCT,BKN,M,3000.00,9200.00,18000.00,M,M,YBBN 101800Z 05006KT 9999 FEW030 SCT092 BKN180 22/20 Q1013 NOSIG
YBBN,2011-03-10 18:30,153.1292,-27.3917,71.60,68.00,88.43,50.00,4.00,M,29.94,M,6.21,M,FEW,BKN,M,M,3000.00,18000.00,M,M,M,YBBN 101830Z 05004KT 9999 FEW030 BKN180 22/20 Q1014 NOSIG
YBBN,2011-03-10 19:00,153.1292,-27.3917,71.60,68.00,88.43,50.00,5.00,M,29.94,M,6.21,M,FEW,SCT,BKN,M,3000.00,9200.00,18000.00,M,M,YBBN 101900Z 05005KT 9999 FEW030 SCT092 BKN180 22/20 Q1014 NOSIG
YBBN,2011-03-10 19:30,153.1292,-27.3917,69.80,66.20,88.34,60.00,5.00,M,29.94,M,6.21,M,FEW,SCT,M,M,3000.00,18000.00,M,M,M,YBBN 101930Z 06005KT 9999 FEW030 SCT180 21/19 Q1014 NOSIG
YBBN,2011-03-10 20:00,153.1292,-27.3917,69.80,68.00,94.01,0.00,0.00,M,29.97,M,6.21,M,FEW,SCT,M,M,3000.00,18000.00,M,M,M,YBBN 102000Z 00000KT 9999 FEW030 SCT180 21/20 Q1015 NOSIG
YBBN,2011-03-10 20:30,153.1292,-27.3917,71.60,69.80,94.06,220.00,3.00,M,29.97,M,6.21,M,FEW,SCT,M,M,1800.00,18000.00,M,M,M,YBBN 102030Z 22003KT 9999 FEW018 SCT180 22/21 Q1015 RMK FU/HZ NOSIG
YBBN,2011-03-10 21:00,153.1292,-27.3917,73.40,69.80,88.51,220.00,4.00,M,29.97,M,6.21,M,FEW,SCT,BKN,M,2000.00,9000.00,28000.00,M,M,YBBN 102100Z 22004KT 9999 FEW020 SCT090 BKN280 23/21 Q1015 RMK FU/HZ NOSIG
YBBN,2011-03-10 21:30,153.1292,-27.3917,77.00,68.00,73.78,150.00,2.00,M,30.00,M,6.21,M,FEW,SCT,BKN,M,2000.00,9000.00,18500.00,M,M,YBBN 102130Z 15002KT 9999 FEW020 SCT090 BKN185 25/20 Q1016 RMK FU/HZ NOSIG
YBBN,2011-03-10 22:00,153.1292,-27.3917,78.80,66.20,65.33,60.00,7.00,M,30.00,M,6.21,M,FEW,BKN,BKN,M,2300.00,18500.00,28000.00,M,M,YBBN 102200Z 06007KT 9999 FEW023 BKN185 BKN280 26/19 Q1016 RMK FU/HZ/DIST SH NE NOSIG
YBBN,2011-03-10 22:30,153.1292,-27.3917,78.80,64.40,61.36,60.00,8.00,M,30.00,M,6.21,M,FEW,SCT,BKN,M,2100.00,2500.00,19000.00,M,M,YBBN 102230Z 06008KT 9999 FEW021 SCT025 BKN190 26/18 Q1016 RMK FU/HZ/DIST SH NE NOSIG
YBBN,2011-03-10 23:00,153.1292,-27.3917,78.80,66.20,65.33,60.00,7.00,M,30.00,M,6.21,M,SCT,SCT,M,M,2600.00,19000.00,M,M,VCSH,YBBN 102300Z 06007KT 9999 VCSH SCT026 SCT190 26/19 Q1016 NOSIG
YBBN,2011-03-10 23:30,153.1292,-27.3917,78.80,66.20,65.33,70.00,6.00,M,30.00,M,4.97,M,SCT,SCT,M,M,2600.00,28000.00,M,M,-SHRA VCSH,YBBN 102330Z 07006KT 8000 -SHRA VCSH SCT026 SCT280 26/19 Q1016 RMK SH NNE FM0000 04012KT 9999 -SHRA SCT035
