#DEBUG: Format Typ    -> comma
#DEBUG: Time Period   -> 2015-03-18 00:00:00+00:00 2015-03-19 00:00:00+00:00
#DEBUG: Time Zone     -> Etc/UTC
#DEBUG: Data Contact   -> daryl herzmann akrherz@iastate.edu 515-294-5978
#DEBUG: Entries Found -> -1
station,valid,lon,lat,tmpf, dwpf, relh, drct, sknt, p01i, alti, mslp, vsby, gust, skyc1, skyc2, skyc3, skyc4, skyl1, skyl2, skyl3, skyl4, presentwx, metar
YBBN,2015-03-18 00:00,153.1292,-27.3917,68.00,66.20,93.97,130.00,5.00,0.00,30.03,M,4.35,M,FEW,SCT,BKN,M,2000.00,3000.00,5000.00,M,-SHRA,YBBN 180000Z 13005KT 7000 -SHRA FEW020 SCT030 BKN050 20/19 Q1017 RESHRA
YBBN,2015-03-18 00:30,153.1292,-27.3917,68.00,66.20,93.97,230.00,4.00,0.00,30.00,M,6.21,M,FEW,BKN,BKN,M,1800.00,3000.00,5000.00,M,SHRA,YBBN 180030Z 23004KT 9999 4500N SHRA FEW018 BKN030 BKN050 20/19 Q1016
YBBN,2015-03-18 01:00,153.1292,-27.3917,69.80,66.20,88.34,340.00,5.00,0.00,29.97,M,6.21,M,FEW,SCT,BKN,M,700.00,3000.00,13500.00,M,M,YBBN 180100Z 34005KT 9999 FEW007 SCT030 BKN135 21/19 Q1015 RESHRA
YBBN,2015-03-18 01:30,153.1292,-27.3917,71.60,68.00,88.43,280.00,9.00,0.00,29.97,M,6.21,M,FEW,SCT,BKN,M,600.00,2800.00,13500.00,M,-SHRA,YBBN 180130Z 28009KT 9999 -SHRA FEW006 SCT028 BKN135 22/20 Q1015
YBBN,2015-03-18 02:00,153.1292,-27.3917,71.60,66.20,83.09,280.00,7.00,0.00,29.94,M,6.21,M,FEW,BKN,M,M,500.00,13000.00,M,M,VCSH,YBBN 180200Z 28007KT 9999 VCSH FEW005 BKN130 22/19 Q1014
YBBN,2015-03-18 02:30,153.1292,-27.3917,73.40,66.20,78.19,330.00,8.00,0.00,29.91,M,6.21,M,FEW,SCT,BKN,M,500.00,10000.00,12000.00,M,-SHRA,YBBN 180230Z 33008KT 9999 -SHRA FEW005 SCT100 BKN120 23/19 Q1013
YBBN,2015-03-18 03:00,153.1292,-27.3917,75.20,66.20,73.61,330.00,8.00,0.00,29.88,M,6.21,M,FEW,SCT,BKN,M,1000.00,10000.00,13000.00,M,VCSH,YBBN 180300Z 33008KT 9999 VCSH FEW010 SCT100 BKN130 24/19 Q1012 NOSIG
YBBN,2015-03-18 03:30,153.1292,-27.3917,78.80,68.00,69.52,330.00,9.00,0.00,29.88,M,6.21,M,FEW,SCT,M,M,1500.00,11500.00,M,M,M,YBBN 180330Z 33009KT 9999 FEW015 SCT115 26/20 Q1012
YBBN,2015-03-18 04:00,153.1292,-27.3917,80.60,68.00,65.54,340.00,8.00,0.00,29.85,M,6.21,M,FEW,SCT,M,M,3000.00,10000.00,M,M,M,YBBN 180400Z 34008KT 9999 FEW030 SCT100 27/20 Q1011
YBBN,2015-03-18 04:30,153.1292,-27.3917,78.80,68.00,69.52,360.00,7.00,0.00,29.85,M,6.21,M,FEW,SCT,M,M,3000.00,10000.00,M,M,M,YBBN 180430Z 36007KT 9999 FEW030 SCT100 26/20 Q1011
YBBN,2015-03-18 05:00,153.1292,-27.3917,78.80,68.00,69.52,10.00,8.00,0.00,29.85,M,6.21,M,FEW,SCT,M,M,3500.00,10000.00,M,M,M,YBBN 180500Z 01008KT 9999 FEW035 SCT100 26/20 Q1011 NOSIG
YBBN,2015-03-18 05:30,153.1292,-27.3917,78.80,68.00,69.52,10.00,9.00,0.00,29.83,M,6.21,M,FEW,M,M,M,3500.00,M,M,M,M,YBBN 180530Z 01009KT 9999 FEW035 26/20 Q1010
YBBN,2015-03-18 06:00,153.1292,-27.3917,78.80,68.00,69.52,10.00,13.00,0.00,29.83,M,6.21,M,M,M,M,M,M,M,M,M,M,YBBN 180600Z 01013KT CAVOK 26/20 Q1010 NOSIG
YBBN,2015-03-18 06:30,153.1292,-27.3917,78.80,66.20,65.33,10.00,12.00,0.00,29.83,M,6.21,M,M,M,M,M,M,M,M,M,M,YBBN 180630Z 01012KT CAVOK 26/19 Q1010
YBBN,2015-03-18 07:00,153.1292,-27.3917,78.80,68.00,69.52,10.00,14.00,0.00,29.83,M,6.21,M,M,M,M,M,M,M,M,M,M,YBBN 180700Z 01014KT CAVOK 26/20 Q1010
YBBN,2015-03-18 07:30,153.1292,-27.3917,77.00,68.00,73.78,10.00,14.00,0.00,29.83,M,6.21,M,M,M,M,M,M,M,M,M,M,YBBN 180730Z 01014KT CAVOK 25/20 Q1010
YBBN,2015-03-18 08:00,153.1292,-27.3917,77.00,68.00,73.78,10.00,16.00,0.00,29.83,M,6.21,M,M,M,M,M,M,M,M,M,M,YBBN 180800Z 01016KT CAVOK 25/20 Q1010
YBBN,2015-03-18 08:30,153.1292,-27.3917,77.00,68.00,73.78,10.00,17.00,0.00,29.83,M,6.21,M,M,M,M,M,M,M,M,M,M,YBBN 180830Z 01017KT CAVOK 25/20 Q1010
YBBN,2015-03-18 09:00,153.1292,-27.3917,77.00,68.00,73.78,10.00,15.00,0.00,29.85,M,6.21,M,M,M,M,M,M,M,M,M,M,YBBN 180900Z 01015KT CAVOK 25/20 Q1011 NOSIG
YBBN,2015-03-18 09:30,153.1292,-27.3917,77.00,69.80,78.48,360.00,14.00,0.00,29.85,M,6.21,M,M,M,M,M,M,M,M,M,M,YBBN 180930Z 36014KT CAVOK 25/21 Q1011
YBBN,2015-03-18 10:00,153.1292,-27.3917,77.00,69.80,78.48,360.00,14.00,0.00,29.85,M,6.21,M,M,M,M,M,M,M,M,M,M,YBBN 181000Z 36014KT CAVOK 25/21 Q1011
YBBN,2015-03-18 10:30,153.1292,-27.3917,77.00,69.80,78.48,360.00,13.00,0.00,29.88,M,6.21,M,M,M,M,M,M,M,M,M,M,YBBN 181030Z 36013KT CAVOK 25/21 Q1012
YBBN,2015-03-18 11:00,153.1292,-27.3917,77.00,69.80,78.48,350.00,14.00,0.00,29.88,M,6.21,M,M,M,M,M,M,M,M,M,M,YBBN 181100Z 35014KT CAVOK 25/21 Q1012 NOSIG
YBBN,2015-03-18 11:30,153.1292,-27.3917,75.20,69.80,83.32,350.00,12.00,0.00,29.88,M,6.21,M,M,M,M,M,M,M,M,M,M,YBBN 181130Z 35012KT CAVOK 24/21 Q1012
YBBN,2015-03-18 12:00,153.1292,-27.3917,75.20,68.00,78.34,350.00,11.00,0.00,29.88,M,6.21,M,M,M,M,M,M,M,M,M,M,YBBN 181200Z 35011KT CAVOK 24/20 Q1012 NOSIG
YBBN,2015-03-18 12:30,153.1292,-27.3917,75.20,68.00,78.34,350.00,13.00,0.00,29.88,M,6.21,M,M,M,M,M,M,M,M,M,M,YBBN 181230Z 35013KT CAVOK 24/20 Q1012
YBBN,2015-03-18 13:00,153.1292,-27.3917,75.20,68.00,78.34,350.00,13.00,0.00,29.88,M,6.21,M,M,M,M,M,M,M,M,M,M,YBBN 181300Z 35013KT CAVOK 24/20 Q1012
YBBN,2015-03-18 13:30,153.1292,-27.3917,75.20,68.00,78.34,350.00,13.00,0.00,29.85,M,6.21,M,M,M,M,M,M,M,M,M,M,YBBN 181330Z 35013KT CAVOK 24/20 Q1011 RMK 7AC180
YBBN,2015-03-18 14:00,153.1292,-27.3917,75.20,68.00,78.34,350.00,13.00,0.00,29.85,M,6.21,M,M,M,M,M,M,M,M,M,M,YBBN 181400Z 35013KT CAVOK 24/20 Q1011
YBBN,2015-03-18 14:30,153.1292,-27.3917,73.40,68.00,83.21,330.00,10.00,0.00,29.88,M,6.21,M,M,M,M,M,M,M,M,M,M,YBBN 181430Z 33010KT CAVOK 23/20 Q1012 RMK 6AC180
YBBN,2015-03-18 15:00,153.1292,-27.3917,73.40,68.00,83.21,360.00,11.00,0.00,29.85,M,6.21,M,M,M,M,M,M,M,M,M,M,YBBN 181500Z 36011KT CAVOK 23/20 Q1011
YBBN,2015-03-18 15:30,153.1292,-27.3917,75.20,66.20,73.61,360.00,13.00,0.00,29.83,M,6.21,M,M,M,M,M,M,M,M,M,M,YBBN 181530Z 36013KT CAVOK 24/19 Q1010 RMK 7AC180
YBBN,2015-03-18 16:00,153.1292,-27.3917,75.20,66.20,73.61,350.00,11.00,0.00,29.85,M,6.21,M,M,M,M,M,M,M,M,M,M,YBBN 181600Z 35011KT CAVOK 24/19 Q1011
YBBN,2015-03-18 16:30,153.1292,-27.3917,73.40,66.20,78.19,350.00,8.00,0.00,29.83,M,6.21,M,M,M,M,M,M,M,M,M,M,YBBN 181630Z 35008KT CAVOK 23/19 Q1010 RMK 7AC180
YBBN,2015-03-18 17:00,153.1292,-27.3917,73.40,66.20,78.19,350.00,8.00,0.00,29.85,M,6.21,M,M,M,M,M,M,M,M,M,M,YBBN 181700Z 35008KT CAVOK 23/19 Q1011
YBBN,2015-03-18 17:30,153.1292,-27.3917,73.40,64.40,73.44,360.00,10.00,0.00,29.85,M,6.21,M,M,M,M,M,M,M,M,M,M,YBBN 181730Z 36010KT CAVOK 23/18 Q1011 RMK 5AC140
YBBN,2015-03-18 18:00,153.1292,-27.3917,71.60,64.40,78.04,360.00,9.00,0.00,29.85,M,6.21,M,FEW,BKN,M,M,2800.00,14000.00,M,M,M,YBBN 181800Z 36009KT 9999 FEW028 BKN140 22/18 Q1011 NOSIG
YBBN,2015-03-18 18:30,153.1292,-27.3917,71.60,64.40,78.04,350.00,8.00,0.00,29.85,M,6.21,M,M,M,M,M,M,M,M,M,M,YBBN 181830Z 35008KT CAVOK 22/18 Q1011
YBBN,2015-03-18 19:00,153.1292,-27.3917,71.60,66.20,83.09,350.00,8.00,0.00,29.85,M,6.21,M,M,M,M,M,M,M,M,M,M,YBBN 181900Z 35008KT CAVOK 22/19 Q1011 NOSIG
YBBN,2015-03-18 19:30,153.1292,-27.3917,71.60,66.20,83.09,350.00,8.00,0.00,29.85,M,6.21,M,M,M,M,M,M,M,M,M,M,YBBN 181930Z 35008KT CAVOK 22/19 Q1011
YBBN,2015-03-18 20:00,153.1292,-27.3917,68.00,64.40,88.26,260.00,4.00,0.00,29.88,M,6.21,M,M,M,M,M,M,M,M,M,M,YBBN 182000Z 26004KT CAVOK 20/18 Q1012 NOSIG
YBBN,2015-03-18 20:30,153.1292,-27.3917,69.80,66.20,88.34,310.00,5.00,0.00,29.88,M,6.21,M,M,M,M,M,M,M,M,M,M,YBBN 182030Z 31005KT CAVOK 21/19 Q1012
YBBN,2015-03-18 21:00,153.1292,-27.3917,73.40,66.20,78.19,340.00,6.00,0.00,29.88,M,6.21,M,M,M,M,M,M,M,M,M,M,YBBN 182100Z 34006KT CAVOK 23/19 Q1012 NOSIG
YBBN,2015-03-18 21:30,153.1292,-27.3917,77.00,68.00,73.78,350.00,9.00,0.00,29.88,M,6.21,M,M,M,M,M,M,M,M,M,M,YBBN 182130Z 35009KT CAVOK 25/20 Q1012
YBBN,2015-03-18 22:00,153.1292,-27.3917,77.00,66.20,69.33,360.00,9.00,0.00,29.91,M,6.21,M,M,M,M,M,M,M,M,M,M,YBBN 182200Z 36009KT CAVOK 25/19 Q1013 NOSIG
YBBN,2015-03-18 22:30,153.1292,-27.3917,80.60,66.20,61.58,360.00,11.00,0.00,29.91,M,6.21,M,M,M,M,M,M,M,M,M,M,YBBN 182230Z 36011KT CAVOK 27/19 Q1013
YBBN,2015-03-18 23:00,153.1292,-27.3917,80.60,66.20,61.58,360.00,9.00,0.00,29.91,M,6.21,M,M,M,M,M,M,M,M,M,M,YBBN 182300Z 36009KT CAVOK 27/19 Q1013
YBBN,2015-03-18 23:30,153.1292,-27.3917,80.60,64.40,57.84,10.00,9.00,0.00,29.91,M,6.21,M,M,M,M,M,M,M,M,M,M,YBBN 182330Z 01009KT CAVOK 27/18 Q1013
