#DEBUG: Format Typ    -> comma
#DEBUG: Time Period   -> 2011-12-04 00:00:00+00:00 2011-12-05 00:00:00+00:00
#DEBUG: Time Zone     -> Etc/UTC
#DEBUG: Data Contact   -> daryl herzmann akrherz@iastate.edu 515-294-5978
#DEBUG: Entries Found -> -1
station,valid,lon,lat,tmpf, dwpf, relh, drct, sknt, p01i, alti, mslp, vsby, gust, skyc1, skyc2, skyc3, skyc4, skyl1, skyl2, skyl3, skyl4, presentwx, metar
YBBN,2011-12-04 00:00,153.1292,-27.3917,77.00,57.20,50.43,30.00,7.00,M,29.97,M,6.21,M,SCT,BKN,M,M,3000.00,28000.00,M,M,M,YBBN 040000Z 03007KT 9999 SCT030 BKN280 25/14 Q1015 NOSIG
YBBN,2011-12-04 00:30,153.1292,-27.3917,77.00,55.40,47.25,350.00,7.00,M,29.94,M,6.21,M,SCT,BKN,M,M,3500.00,28000.00,M,M,M,YBBN 040030Z 35007KT 9999 SCT035 BKN280 25/13 Q1014
YBBN,2011-12-04 01:00,153.1292,-27.3917,77.00,57.20,50.43,20.00,7.00,M,29.94,M,6.21,M,SCT,BKN,M,M,3500.00,28000.00,M,M,M,YBBN 040100Z 02007KT 9999 SCT035 BKN280 25/14 Q1014 NOSIG
YBBN,2011-12-04 01:30,153.1292,-27.3917,78.80,59.00,50.69,30.00,9.00,M,29.94,M,6.21,M,SCT,BKN,M,M,3800.00,28000.00,M,M,M,YBBN 040130Z 03009KT 9999 SCT038 BKN280 26/15 Q1014
YBBN,2011-12-04 02:00,153.1292,-27.3917,78.80,59.00,50.69,30.00,9.00,M,29.91,M,6.21,M,SCT,BKN,M,M,3800.00,28000.00,M,M,M,YBBN 040200Z 03009KT 9999 SCT038 BKN280 26/15 Q1013 NOSIG
YBBN,2011-12-04 02:30,153.1292,-27.3917,80.60,55.40,41.97,40.00,10.00,M,29.91,M,6.21,M,SCT,BKN,M,M,4000.00,28000.00,M,M,M,YBBN 040230Z 04010KT 9999 SCT040 BKN280 27/13 Q1013
YBBN,2011-12-04 03:00,153.1292,-27.3917,78.80,55.40,44.52,50.00,12.00,M,29.88,M,6.21,M,FEW,BKN,M,M,4000.00,28000.00,M,M,M,YBBN 040300Z 05012KT 9999 FEW040 BKN280 26/13 Q1012 NOSIG
YBBN,2011-12-04 03:30,153.1292,-27.3917,78.80,59.00,50.69,50.00,11.00,M,29.88,M,6.21,M,FEW,BKN,M,M,4000.00,28000.00,M,M,M,YBBN 040330Z 05011KT 9999 FEW040 BKN280 26/15 Q1012
YBBN,2011-12-04 04:00,153.1292,-27.3917,78.80,59.00,50.69,40.00,11.00,M,29.88,M,6.21,M,FEW,BKN,M,M,4000.00,28000.00,M,M,M,YBBN 040400Z 04011KT 9999 FEW040 BKN280 26/15 Q1012 NOSIG
YBBN,2011-12-04 04:30,153.1292,-27.3917,77.00,60.80,57.36,30.00,10.00,M,29.85,M,6.21,M,FEW,BKN,M,M,4000.00,28000.00,M,M,M,YBBN 040430Z 03010KT 9999 FEW040 BKN280 25/16 Q1011
YBBN,2011-12-04 05:00,153.1292,-27.3917,77.00,60.80,57.36,40.00,9.00,M,29.85,M,6.21,M,FEW,BKN,M,M,4000.00,28000.00,M,M,M,YBBN 040500Z 04009KT 9999 FEW040 BKN280 25/16 Q1011 NOSIG
YBBN,2011-12-04 05:30,153.1292,-27.3917,77.00,60.80,57.36,40.00,10.00,M,29.85,M,6.21,M,FEW,BKN,M,M,4000.00,28000.00,M,M,M,YBBN 040530Z 04010KT 9999 FEW040 BKN280 25/16 Q1011
YBBN,2011-12-04 06:00,153.1292,-27.3917,75.20,60.80,60.90,30.00,9.00,M,29.85,M,6.21,M,FEW,BKN,M,M,4000.00,28000.00,M,M,M,YBBN 040600Z 03009KT 9999 FEW040 BKN280 24/16 Q1011 NOSIG
YBBN,2011-12-04 06:30,153.1292,-27.3917,75.20,59.00,57.12,10.00,9.00,M,29.85,M,6.21,M,FEW,SCT,BKN,M,4000.00,20000.00,28000.00,M,M,YBBN 040630Z 01009KT 9999 FEW040 SCT200 BKN280 24/15 Q1011
YBBN,2011-12-04 07:00,153.1292,-27.3917,75.20,59.00,57.12,40.00,9.00,M,29.85,M,6.21,M,FEW,SCT,BKN,M,4000.00,20000.00,28000.00,M,M,YBBN 040700Z 04009KT 9999 FEW040 SCT200 BKN280 24/15 Q1011 NOSIG
YBBN,2011-12-04 07:30,153.1292,-27.3917,75.20,60.80,60.90,20.00,9.00,M,29.85,M,6.21,M,M,M,M,M,M,M,M,M,M,YBBN 040730Z 02009KT CAVOK 24/16 Q1011
YBBN,2011-12-04 08:00,153.1292,-27.3917,73.40,59.00,60.67,10.00,9.00,M,29.88,M,6.21,M,M,M,M,M,M,M,M,M,M,YBBN 040800Z 01009KT CAVOK 23/15 Q1012 NOSIG
YBBN,2011-12-04 08:30,153.1292,-27.3917,73.40,59.00,60.67,10.00,10.00,M,29.88,M,6.21,M,FEW,BKN,BKN,M,4500.00,21000.00,28000.00,M,M,YBBN 040830Z 01010KT 9999 FEW045 BKN210 BKN280 23/15 Q1012
YBBN,2011-12-04 09:00,153.1292,-27.3917,73.40,60.80,64.69,360.00,11.00,M,29.88,M,6.21,M,FEW,BKN,BKN,M,4500.00,20000.00,26000.00,M,M,YBBN 040900Z 36011KT 9999 FEW045 BKN200 BKN260 23/16 Q1012 NOSIG
YBBN,2011-12-04 09:30,153.1292,-27.3917,73.40,60.80,64.69,10.00,9.00,M,29.88,M,6.21,M,FEW,SCT,BKN,M,4500.00,20000.00,25000.00,M,M,YBBN 040930Z 01009KT 9999 FEW045 SCT200 BKN250 23/16 Q1012
YBBN,2011-12-04 10:00,153.1292,-27.3917,73.40,60.80,64.69,10.00,10.00,M,29.88,M,6.21,M,FEW,BKN,M,M,4500.00,22000.00,M,M,M,YBBN 041000Z 01010KT 9999 FEW045 BKN220 23/16 Q1012 NOSIG
YBBN,2011-12-04 10:30,153.1292,-27.3917,73.40,60.80,64.69,360.00,9.00,M,29.88,M,6.21,M,FEW,BKN,M,M,4500.00,22000.00,M,M,M,YBBN 041030Z 36009KT 9999 FEW045 BKN220 23/16 Q1012
YBBN,2011-12-04 11:00,153.1292,-27.3917,71.60,60.80,68.75,360.00,9.00,M,29.88,M,6.21,M,FEW,BKN,M,M,4500.00,22000.00,M,M,M,YBBN 041100Z 36009KT 9999 FEW045 BKN220 22/16 Q1012 NOSIG
YBBN,2011-12-04 11:30,153.1292,-27.3917,71.60,60.80,68.75,10.00,10.00,M,29.91,M,6.21,M,FEW,BKN,M,M,4500.00,22000.00,M,M,M,YBBN 041130Z 01010KT 9999 FEW045 BKN220 22/16 Q1013
YBBN,2011-12-04 12:00,153.1292,-27.3917,73.40,60.80,64.69,360.00,8.00,M,29.91,M,6.21,M,FEW,BKN,M,M,4500.00,23000.00,M,M,M,YBBN 041200Z 36008KT 9999 FEW045 BKN230 23/16 Q1013 NOSIG
YBBN,2011-12-04 12:30,153.1292,-27.3917,71.60,62.60,73.27,340.00,7.00,M,29.91,M,6.21,M,FEW,BKN,M,M,4500.00,23000.00,M,M,M,YBBN 041230Z 34007KT 9999 FEW045 BKN230 22/17 Q1013
YBBN,2011-12-04 13:00,153.1292,-27.3917,71.60,60.80,68.75,330.00,7.00,M,29.91,M,6.21,M,FEW,SCT,BKN,M,4500.00,18000.00,23000.00,M,M,YBBN 041300Z 33007KT 9999 FEW045 SCT180 BKN230 22/16 Q1013 NOSIG
YBBN,2011-12-04 13:30,153.1292,-27.3917,69.80,60.80,73.09,320.00,5.00,M,29.91,M,6.21,M,FEW,SCT,BKN,M,4500.00,18000.00,23000.00,M,M,YBBN 041330Z 32005KT 9999 FEW045 SCT180 BKN230 21/16 Q1013
YBBN,2011-12-04 14:00,153.1292,-27.3917,69.80,60.80,73.09,320.00,4.00,M,29.88,M,6.21,M,FEW,SCT,BKN,M,4500.00,18000.00,22000.00,M,M,YBBN 041400Z 32004KT 9999 FEW045 SCT180 BKN220 21/16 Q1012 NOSIG
YBBN,2011-12-04 14:30,153.1292,-27.3917,69.80,60.80,73.09,310.00,3.00,M,29.88,M,6.21,M,FEW,SCT,BKN,M,4500.00,18000.00,22000.00,M,M,YBBN 041430Z 31003KT 9999 FEW045 SCT180 BKN220 21/16 Q1012
YBBN,2011-12-04 15:00,153.1292,-27.3917,69.80,60.80,73.09,270.00,3.00,M,29.85,M,6.21,M,FEW,SCT,BKN,M,4500.00,18000.00,22000.00,M,M,YBBN 041500Z 27003KT 9999 FEW045 SCT180 BKN220 21/16 Q1011 NOSIG
YBBN,2011-12-04 15:30,153.1292,-27.3917,68.00,60.80,77.75,0.00,0.00,M,29.85,M,6.21,M,FEW,BKN,M,M,4500.00,24000.00,M,M,M,YBBN 041530Z 00000KT 9999 FEW045 BKN240 20/16 Q1011
YBBN,2011-12-04 16:30,153.1292,-27.3917,68.00,60.80,77.75,0.00,0.00,M,29.85,M,6.21,M,FEW,BKN,M,M,4500.00,23000.00,M,M,M,YBBN 041630Z 00000KT 9999 FEW045 BKN230 20/16 Q1011
YBBN,2011-12-04 17:30,153.1292,-27.3917,69.80,60.80,73.09,150.00,5.00,M,29.88,M,6.21,M,FEW,BKN,BKN,M,4500.00,6000.00,23000.00,M,M,YBBN 041730Z 15005KT 9999 FEW045 BKN060 BKN230 21/16 Q1012
YBBN,2011-12-04 18:30,153.1292,-27.3917,69.80,60.80,73.09,150.00,6.00,M,29.88,M,6.21,M,FEW,BKN,BKN,M,4500.00,6000.00,23000.00,M,M,YBBN 041830Z 15006KT 9999 FEW045 BKN060 BKN230 21/16 Q1012
YBBN,2011-12-04 19:30,153.1292,-27.3917,69.80,60.80,73.09,150.00,8.00,M,29.91,M,6.21,M,FEW,SCT,OVC,M,2500.00,6000.00,23000.00,M,M,YBBN 041930Z 15008KT 9999 FEW025 SCT060 OVC230 21/16 Q1013
YBBN,2011-12-04 20:30,153.1292,-27.3917,69.80,60.80,73.09,150.00,10.00,M,29.94,M,6.21,M,FEW,BKN,M,M,2500.00,3200.00,M,M,M,YBBN 042030Z 15010KT 9999 FEW025 BKN032 21/16 Q1014
YBBN,2011-12-04 21:30,153.1292,-27.3917,69.80,59.00,68.55,170.00,12.00,M,29.94,M,6.21,22.00,FEW,BKN,M,M,2500.00,4000.00,M,M,M,YBBN 042130Z 17012G22KT 9999 FEW025 BKN040 21/15 Q1014
YBBN,2011-12-04 22:30,153.1292,-27.3917,73.40,59.00,60.67,160.00,12.00,M,29.97,M,6.21,M,FEW,SCT,BKN,M,2800.00,4500.00,24000.00,M,M,YBBN 042230Z 16012KT 9999 FEW028 SCT045 BKN240 23/15 Q1015
YBBN,2011-12-04 23:30,153.1292,-27.3917,73.40,57.20,56.88,170.00,12.00,M,29.97,M,6.21,M,FEW,SCT,BKN,M,3200.00,6500.00,22000.00,M,M,YBBN 042330Z 17012KT 9999 FEW032 SCT065 BKN220 23/14 Q1015
