#DEBUG: Format Typ    -> comma
#DEBUG: Time Period   -> 2015-02-06 00:00:00+00:00 2015-02-07 00:00:00+00:00
#DEBUG: Time Zone     -> Etc/UTC
#DEBUG: Data Contact   -> daryl herzmann akrherz@iastate.edu 515-294-5978
#DEBUG: Entries Found -> -1
station,valid,lon,lat,tmpf, dwpf, relh, drct, sknt, p01i, alti, mslp, vsby, gust, skyc1, skyc2, skyc3, skyc4, skyl1, skyl2, skyl3, skyl4, presentwx, metar
YBBN,2015-02-06 00:00,153.1292,-27.3917,78.80,60.80,54.05,130.00,14.00,0.00,30.18,M,6.21,M,FEW,M,M,M,3500.00,M,M,M,M,YBBN 060000Z 13014KT 9999 FEW035 26/16 Q1022
YBBN,2015-02-06 00:30,153.1292,-27.3917,80.60,59.00,47.79,140.00,11.00,0.00,30.18,M,6.21,M,FEW,SCT,M,M,3500.00,6800.00,M,M,M,YBBN 060030Z 14011KT 9999 FEW035 SCT068 27/15 Q1022
YBBN,2015-02-06 01:00,153.1292,-27.3917,80.60,57.20,44.80,140.00,13.00,0.00,30.18,M,6.21,M,FEW,SCT,M,M,3500.00,6800.00,M,M,M,YBBN 060100Z 14013KT 9999 FEW035 SCT068 27/14 Q1022
YBBN,2015-02-06 01:30,153.1292,-27.3917,80.60,57.20,44.80,140.00,14.00,0.00,30.18,M,6.21,M,FEW,BKN,M,M,3800.00,6800.00,M,M,M,YBBN 060130Z 14014KT 9999 FEW038 BKN068 27/14 Q1022
YBBN,2015-02-06 02:00,153.1292,-27.3917,82.40,57.20,42.25,130.00,14.00,0.00,30.15,M,6.21,M,FEW,SCT,M,M,3800.00,7000.00,M,M,M,YBBN 060200Z 13014KT 9999 FEW038 SCT070 28/14 Q1021
YBBN,2015-02-06 02:30,153.1292,-27.3917,80.60,53.60,39.30,130.00,14.00,0.00,30.15,M,6.21,M,FEW,M,M,M,3800.00,M,M,M,M,YBBN 060230Z 13014KT 9999 FEW038 27/12 Q1021
YBBN,2015-02-06 03:00,153.1292,-27.3917,80.60,55.40,41.97,120.00,15.00,0.00,30.15,M,6.21,M,FEW,M,M,M,4000.00,M,M,M,M,YBBN 060300Z 12015KT 9999 FEW040 27/13 Q1021
YBBN,2015-02-06 03:30,153.1292,-27.3917,80.60,53.60,39.30,130.00,15.00,0.00,30.15,M,6.21,M,FEW,M,M,M,4000.00,M,M,M,M,YBBN 060330Z 13015KT 9999 FEW040 27/12 Q1021
YBBN,2015-02-06 04:00,153.1292,-27.3917,80.60,51.80,36.79,130.00,12.00,0.00,30.15,M,6.21,M,FEW,M,M,M,4000.00,M,M,M,M,YBBN 060400Z 13012KT 9999 FEW040 27/11 Q1021
YBBN,2015-02-06 04:30,153.1292,-27.3917,82.40,53.60,37.07,130.00,12.00,0.00,30.12,M,6.21,M,FEW,M,M,M,4200.00,M,M,M,M,YBBN 060430Z 13012KT 9999 FEW042 28/12 Q1020
YBBN,2015-02-06 05:00,153.1292,-27.3917,80.60,51.80,36.79,130.00,13.00,0.00,30.12,M,6.21,M,FEW,M,M,M,4200.00,M,M,M,M,YBBN 060500Z 13013KT 9999 FEW042 27/11 Q1020
YBBN,2015-02-06 05:30,153.1292,-27.3917,80.60,55.40,41.97,140.00,12.00,0.00,30.12,M,6.21,M,FEW,M,M,M,4200.00,M,M,M,M,YBBN 060530Z 14012KT 9999 FEW042 27/13 Q1020
YBBN,2015-02-06 06:00,153.1292,-27.3917,80.60,55.40,41.97,130.00,13.00,0.00,30.12,M,6.21,M,FEW,M,M,M,4200.00,M,M,M,M,YBBN 060600Z 13013KT 9999 FEW042 27/13 Q1020
YBBN,2015-02-06 06:30,153.1292,-27.3917,78.80,53.60,41.69,130.00,12.00,0.00,30.12,M,6.21,M,FEW,M,M,M,4200.00,M,M,M,M,YBBN 060630Z 13012KT 9999 FEW042 26/12 Q1020
YBBN,2015-02-06 07:00,153.1292,-27.3917,78.80,57.20,47.52,130.00,12.00,0.00,30.12,M,6.21,22.00,FEW,M,M,M,4200.00,M,M,M,M,YBBN 060700Z 13012G22KT 9999 FEW042 26/14 Q1020
YBBN,2015-02-06 07:30,153.1292,-27.3917,77.00,59.00,53.80,130.00,13.00,0.00,30.15,M,6.21,M,FEW,BKN,M,M,4000.00,7000.00,M,M,M,YBBN 060730Z 13013KT 9999 FEW040 BKN070 25/15 Q1021
YBBN,2015-02-06 08:00,153.1292,-27.3917,77.00,59.00,53.80,140.00,10.00,0.00,30.15,M,6.21,M,FEW,BKN,M,M,3500.00,7200.00,M,M,M,YBBN 060800Z 14010KT 9999 FEW035 BKN072 25/15 Q1021
YBBN,2015-02-06 08:30,153.1292,-27.3917,77.00,59.00,53.80,140.00,11.00,0.00,30.15,M,6.21,21.00,FEW,BKN,M,M,2500.00,7300.00,M,M,M,YBBN 060830Z 14011G21KT 9999 FEW025 BKN073 25/15 Q1021
YBBN,2015-02-06 09:00,153.1292,-27.3917,77.00,59.00,53.80,150.00,11.00,0.00,30.15,M,6.21,M,FEW,BKN,M,M,2500.00,7300.00,M,M,M,YBBN 060900Z 15011KT 9999 FEW025 BKN073 25/15 Q1021
YBBN,2015-02-06 09:30,153.1292,-27.3917,75.20,60.80,60.90,140.00,11.00,0.00,30.18,M,6.21,M,FEW,BKN,M,M,4000.00,7100.00,M,M,M,YBBN 060930Z 14011KT 9999 FEW040 BKN071 24/16 Q1022
YBBN,2015-02-06 10:00,153.1292,-27.3917,75.20,60.80,60.90,160.00,9.00,0.00,30.18,M,6.21,M,FEW,BKN,M,M,4000.00,7100.00,M,M,M,YBBN 061000Z 16009KT 9999 FEW040 BKN071 24/16 Q1022
YBBN,2015-02-06 10:30,153.1292,-27.3917,73.40,60.80,64.69,150.00,7.00,0.00,30.18,M,6.21,M,M,M,M,M,M,M,M,M,M,YBBN 061030Z 15007KT CAVOK 23/16 Q1022 RMK 6SC071
YBBN,2015-02-06 11:00,153.1292,-27.3917,73.40,60.80,64.69,170.00,9.00,0.00,30.21,M,6.21,M,FEW,BKN,M,M,2500.00,6900.00,M,M,M,YBBN 061100Z 17009KT 9999 FEW025 BKN069 23/16 Q1023
YBBN,2015-02-06 11:30,153.1292,-27.3917,73.40,60.80,64.69,160.00,10.00,0.00,30.21,M,6.21,M,M,M,M,M,M,M,M,M,M,YBBN 061130Z 16010KT CAVOK 23/16 Q1023
YBBN,2015-02-06 12:00,153.1292,-27.3917,71.60,60.80,68.75,170.00,10.00,0.00,30.21,M,6.21,M,FEW,BKN,M,M,4300.00,7100.00,M,M,M,YBBN 061200Z 17010KT 9999 FEW043 BKN071 22/16 Q1023
YBBN,2015-02-06 12:30,153.1292,-27.3917,71.60,62.60,73.27,160.00,8.00,0.00,30.21,M,6.21,M,SCT,BKN,M,M,3900.00,4500.00,M,M,-SHRA,YBBN 061230Z 16008KT 9999 -SHRA SCT039 BKN045 22/17 Q1023
YBBN,2015-02-06 13:00,153.1292,-27.3917,71.60,62.60,73.27,170.00,8.00,0.00,30.18,M,6.21,M,SCT,BKN,M,M,2700.00,4500.00,M,M,VCSH,YBBN 061300Z 17008KT 9999 VCSH SCT027 BKN045 22/17 Q1022
YBBN,2015-02-06 13:30,153.1292,-27.3917,71.60,60.80,68.75,170.00,9.00,0.00,30.18,M,6.21,M,SCT,BKN,M,M,4100.00,4800.00,M,M,M,YBBN 061330Z 17009KT 9999 SCT041 BKN048 22/16 Q1022
YBBN,2015-02-06 14:00,153.1292,-27.3917,71.60,60.80,68.75,180.00,7.00,0.00,30.18,M,6.21,M,FEW,BKN,M,M,4000.00,5600.00,M,M,M,YBBN 061400Z 18007KT 9999 FEW040 BKN056 22/16 Q1022
YBBN,2015-02-06 14:30,153.1292,-27.3917,71.60,60.80,68.75,170.00,8.00,0.00,30.18,M,6.21,M,M,M,M,M,M,M,M,M,M,YBBN 061430Z 17008KT CAVOK 22/16 Q1022 RMK 7SC067
YBBN,2015-02-06 15:00,153.1292,-27.3917,69.80,60.80,73.09,170.00,8.00,0.00,30.18,M,6.21,M,FEW,M,M,M,3500.00,M,M,M,M,YBBN 061500Z 17008KT 9999 FEW035 21/16 Q1022
YBBN,2015-02-06 15:30,153.1292,-27.3917,71.60,59.00,64.48,190.00,6.00,0.00,30.15,M,6.21,M,SCT,BKN,M,M,4600.00,5900.00,M,M,M,YBBN 061530Z 19006KT 9999 SCT046 BKN059 22/15 Q1021
YBBN,2015-02-06 16:00,153.1292,-27.3917,71.60,59.00,64.48,180.00,6.00,0.00,30.15,M,6.21,M,SCT,BKN,M,M,4200.00,5000.00,M,M,M,YBBN 061600Z 18006KT 9999 SCT042 BKN050 22/15 Q1021
YBBN,2015-02-06 16:30,153.1292,-27.3917,71.60,59.00,64.48,180.00,6.00,0.00,30.15,M,6.21,M,FEW,BKN,M,M,4200.00,6500.00,M,M,M,YBBN 061630Z 18006KT 9999 FEW042 BKN065 22/15 Q1021
YBBN,2015-02-06 17:00,153.1292,-27.3917,71.60,59.00,64.48,180.00,7.00,0.00,30.15,M,6.21,M,FEW,SCT,BKN,M,4200.00,5400.00,6700.00,M,M,YBBN 061700Z 18007KT 9999 FEW042 SCT054 BKN067 22/15 Q1021
YBBN,2015-02-06 17:30,153.1292,-27.3917,69.80,59.00,68.55,160.00,8.00,0.00,30.15,M,6.21,M,FEW,SCT,BKN,M,3900.00,4500.00,6700.00,M,M,YBBN 061730Z 16008KT 9999 FEW039 SCT045 BKN067 21/15 Q1021
YBBN,2015-02-06 18:00,153.1292,-27.3917,69.80,60.80,73.09,160.00,8.00,0.00,30.15,M,6.21,M,SCT,BKN,M,M,3600.00,4600.00,M,M,-SHRA,YBBN 061800Z 16008KT 9999 -SHRA SCT036 BKN046 21/16 Q1021
YBBN,2015-02-06 18:30,153.1292,-27.3917,68.00,62.60,82.86,190.00,9.00,0.00,30.15,M,6.21,M,FEW,OVC,M,M,3200.00,5500.00,M,M,VCSH,YBBN 061830Z 19009KT 9999 VCSH FEW032 OVC055 20/17 Q1021
YBBN,2015-02-06 19:00,153.1292,-27.3917,68.00,62.60,82.86,190.00,8.00,0.00,30.15,M,6.21,M,FEW,SCT,M,M,3200.00,6400.00,M,M,VCSH,YBBN 061900Z 19008KT 9999 VCSH FEW032 SCT064 20/17 Q1021 NOSIG
YBBN,2015-02-06 19:30,153.1292,-27.3917,68.00,62.60,82.86,210.00,7.00,0.00,30.15,M,6.21,M,FEW,BKN,M,M,3000.00,6500.00,M,M,VCSH,YBBN 061930Z 21007KT 9999 VCSH FEW030 BKN065 20/17 Q1021
YBBN,2015-02-06 20:00,153.1292,-27.3917,68.00,62.60,82.86,210.00,8.00,0.00,30.18,M,6.21,M,FEW,BKN,M,M,3000.00,6300.00,M,M,M,YBBN 062000Z 21008KT 9999 FEW030 BKN063 20/17 Q1022
YBBN,2015-02-06 20:30,153.1292,-27.3917,69.80,60.80,73.09,200.00,9.00,0.00,30.18,M,6.21,M,FEW,SCT,M,M,3000.00,6200.00,M,M,M,YBBN 062030Z 20009KT 9999 FEW030 SCT062 21/16 Q1022
YBBN,2015-02-06 21:00,153.1292,-27.3917,71.60,60.80,68.75,210.00,8.00,0.00,30.18,M,6.21,M,FEW,M,M,M,3000.00,M,M,M,M,YBBN 062100Z 21008KT 9999 FEW030 22/16 Q1022 NOSIG
YBBN,2015-02-06 21:30,153.1292,-27.3917,73.40,60.80,64.69,200.00,9.00,0.00,30.18,M,6.21,M,FEW,M,M,M,3000.00,M,M,M,M,YBBN 062130Z 20009KT 9999 FEW030 23/16 Q1022
YBBN,2015-02-06 22:00,153.1292,-27.3917,75.20,60.80,60.90,210.00,11.00,0.00,30.18,M,6.21,M,FEW,SCT,M,M,3000.00,6200.00,M,M,M,YBBN 062200Z 21011KT 9999 FEW030 SCT062 24/16 Q1022
YBBN,2015-02-06 22:30,153.1292,-27.3917,75.20,62.60,64.91,200.00,8.00,0.00,30.18,M,6.21,M,FEW,SCT,M,M,3000.00,6200.00,M,M,M,YBBN 062230Z 20008KT 9999 FEW030 SCT062 24/17 Q1022
YBBN,2015-02-06 23:00,153.1292,-27.3917,75.20,62.60,64.91,170.00,8.00,0.00,30.21,M,6.21,M,FEW,BKN,M,M,3000.00,6200.00,M,M,M,YBBN 062300Z 17008KT 9999 FEW030 BKN062 24/17 Q1023
YBBN,2015-02-06 23:30,153.1292,-27.3917,77.00,64.40,65.12,150.00,8.00,0.00,30.18,M,6.21,M,FEW,SCT,M,M,3000.00,6200.00,M,M,M,YBBN 062330Z 15008KT 9999 FEW030 SCT062 25/18 Q1022
