#DEBUG: Format Typ    -> comma
#DEBUG: Time Period   -> 2010-03-17 00:00:00+00:00 2010-03-18 00:00:00+00:00
#DEBUG: Time Zone     -> Etc/UTC
#DEBUG: Data Contact   -> daryl herzmann akrherz@iastate.edu 515-294-5978
#DEBUG: Entries Found -> -1
station,valid,lon,lat,tmpf, dwpf, relh, drct, sknt, p01i, alti, mslp, vsby, gust, skyc1, skyc2, skyc3, skyc4, skyl1, skyl2, skyl3, skyl4, presentwx, metar
YBBN,2010-03-17 02:00,153.1292,-27.3917,80.60,62.60,54.30,130.00,12.00,M,30.15,M,6.21,M,FEW,M,M,M,3000.00,M,M,M,M,YBBN 170200Z 13012KT 9999 FEW030 27/17 Q1021 NOSIG
YBBN,2010-03-17 02:30,153.1292,-27.3917,80.60,62.60,54.30,130.00,13.00,M,30.15,M,6.21,M,FEW,M,M,M,3000.00,M,M,M,M,YBBN 170230Z 13013KT 9999 FEW030 27/17 Q1021 NOSIG
YBBN,2010-03-17 03:00,153.1292,-27.3917,80.60,64.40,57.84,140.00,13.00,M,30.15,M,6.21,M,FEW,M,M,M,3000.00,M,M,M,M,YBBN 170300Z 14013KT 9999 FEW030 27/18 Q1021 NOSIG
YBBN,2010-03-17 03:30,153.1292,-27.3917,80.60,66.20,61.58,120.00,15.00,M,30.15,M,6.21,M,FEW,M,M,M,3200.00,M,M,M,M,YBBN 170330Z 12015KT 9999 FEW032 27/19 Q1021 RMK RASH TO N NOSIG
YBBN,2010-03-17 04:00,153.1292,-27.3917,80.60,64.40,57.84,130.00,13.00,M,30.15,M,6.21,M,FEW,M,M,M,3200.00,M,M,M,M,YBBN 170400Z 13013KT 9999 FEW032 27/18 Q1021 NOSIG
YBBN,2010-03-17 04:30,153.1292,-27.3917,80.60,62.60,54.30,130.00,14.00,M,30.12,M,6.21,M,FEW,M,M,M,3500.00,M,M,M,M,YBBN 170430Z 13014KT 9999 FEW035 27/17 Q1020 NOSIG
YBBN,2010-03-17 05:00,153.1292,-27.3917,78.80,62.60,57.60,130.00,14.00,M,30.15,M,6.21,M,FEW,M,M,M,3500.00,M,M,M,M,YBBN 170500Z 13014KT 9999 FEW035 26/17 Q1021 NOSIG
YBBN,2010-03-17 05:30,153.1292,-27.3917,78.80,64.40,61.36,130.00,13.00,M,30.15,M,6.21,M,SCT,M,M,M,3500.00,M,M,M,M,YBBN 170530Z 13013KT 9999 SCT035 26/18 Q1021 NOSIG
YBBN,2010-03-17 06:00,153.1292,-27.3917,78.80,62.60,57.60,130.00,14.00,M,30.15,M,6.21,M,FEW,M,M,M,3500.00,M,M,M,M,YBBN 170600Z 13014KT 9999 FEW035 26/17 Q1021 NOSIG
YBBN,2010-03-17 06:30,153.1292,-27.3917,78.80,62.60,57.60,120.00,13.00,M,30.15,M,6.21,M,SCT,SCT,M,M,3500.00,7000.00,M,M,M,YBBN 170630Z 12013KT 9999 SCT035 SCT070 26/17 Q1021 NOSIG
YBBN,2010-03-17 07:00,153.1292,-27.3917,77.00,64.40,65.12,130.00,11.00,M,30.15,M,6.21,M,FEW,M,M,M,3000.00,M,M,M,M,YBBN 170700Z 13011KT 9999 FEW030 25/18 Q1021 NOSIG
YBBN,2010-03-17 07:30,153.1292,-27.3917,75.20,64.40,69.14,130.00,11.00,M,30.15,M,6.21,M,FEW,M,M,M,3000.00,M,M,M,M,YBBN 170730Z 13011KT 9999 FEW030 24/18 Q1021 NOSIG
YBBN,2010-03-17 08:00,153.1292,-27.3917,75.20,62.60,64.91,130.00,10.00,M,30.18,M,6.21,M,FEW,M,M,M,3000.00,M,M,M,M,YBBN 170800Z 13010KT 9999 FEW030 24/17 Q1022 NOSIG
YBBN,2010-03-17 08:30,153.1292,-27.3917,75.20,64.40,69.14,130.00,9.00,M,30.18,M,6.21,M,FEW,M,M,M,3000.00,M,M,M,M,YBBN 170830Z 13009KT 9999 FEW030 24/18 Q1022 NOSIG
YBBN,2010-03-17 09:00,153.1292,-27.3917,75.20,64.40,69.14,150.00,6.00,M,30.18,M,6.21,M,FEW,M,M,M,3000.00,M,M,M,M,YBBN 170900Z 15006KT 9999 FEW030 24/18 Q1022 NOSIG
YBBN,2010-03-17 09:30,153.1292,-27.3917,75.20,64.40,69.14,160.00,6.00,M,30.18,M,6.21,M,FEW,BKN,M,M,3000.00,7000.00,M,M,M,YBBN 170930Z 16006KT 9999 FEW030 BKN070 24/18 Q1022 NOSIG
YBBN,2010-03-17 10:00,153.1292,-27.3917,71.60,68.00,88.43,120.00,9.00,M,30.21,M,6.21,M,FEW,BKN,M,M,2800.00,5800.00,M,M,VCSH,YBBN 171000Z 12009KT 9999 VCSH FEW028 BKN058 22/20 Q1023 NOSIG
YBBN,2010-03-17 10:30,153.1292,-27.3917,71.60,68.00,88.43,130.00,7.00,M,30.21,M,6.21,M,FEW,M,M,M,2800.00,M,M,M,M,YBBN 171030Z 13007KT 9999 FEW028 22/20 Q1023 NOSIG
YBBN,2010-03-17 11:00,153.1292,-27.3917,73.40,66.20,78.19,130.00,9.00,M,30.21,M,6.21,M,SCT,BKN,M,M,2800.00,4800.00,M,M,M,YBBN 171100Z 13009KT 9999 SCT028 BKN048 23/19 Q1023 NOSIG
YBBN,2010-03-17 11:30,153.1292,-27.3917,73.40,64.40,73.44,120.00,8.00,M,30.21,M,6.21,M,SCT,SCT,M,M,3000.00,4600.00,M,M,M,YBBN 171130Z 12008KT 9999 SCT030 SCT046 23/18 Q1023 NOSIG
YBBN,2010-03-17 12:00,153.1292,-27.3917,75.20,64.40,69.14,120.00,8.00,M,30.21,M,6.21,M,FEW,SCT,M,M,3000.00,6000.00,M,M,M,YBBN 171200Z 12008KT 9999 FEW030 SCT060 24/18 Q1023 NOSIG
YBBN,2010-03-17 12:30,153.1292,-27.3917,73.40,62.60,68.94,120.00,9.00,M,30.21,M,6.21,M,FEW,M,M,M,3000.00,M,M,M,M,YBBN 171230Z 12009KT 9999 FEW030 23/17 Q1023 NOSIG
YBBN,2010-03-17 13:00,153.1292,-27.3917,73.40,64.40,73.44,120.00,8.00,M,30.21,M,6.21,M,SCT,BKN,M,M,3000.00,5900.00,M,M,-SHRA,YBBN 171300Z 12008KT 9999 -SHRA SCT030 BKN059 23/18 Q1023 NOSIG
YBBN,2010-03-17 13:30,153.1292,-27.3917,75.20,62.60,64.91,130.00,9.00,M,30.21,M,6.21,M,BKN,BKN,M,M,3000.00,4200.00,M,M,M,YBBN 171330Z 13009KT 9999 BKN030 BKN042 24/17 Q1023 NOSIG
YBBN,2010-03-17 14:00,153.1292,-27.3917,73.40,62.60,68.94,150.00,8.00,M,30.21,M,6.21,M,SCT,SCT,M,M,3000.00,5500.00,M,M,M,YBBN 171400Z 15008KT 9999 SCT030 SCT055 23/17 Q1023 NOSIG
YBBN,2010-03-17 14:30,153.1292,-27.3917,75.20,60.80,60.90,130.00,10.00,M,30.21,M,6.21,M,FEW,SCT,M,M,3000.00,4300.00,M,M,M,YBBN 171430Z 13010KT 9999 FEW030 SCT043 24/16 Q1023 NOSIG
YBBN,2010-03-17 15:00,153.1292,-27.3917,73.40,60.80,64.69,130.00,9.00,M,30.21,M,6.21,19.00,FEW,M,M,M,3000.00,M,M,M,M,YBBN 171500Z 13009G19KT 9999 FEW030 23/16 Q1023 NOSIG
YBBN,2010-03-17 15:30,153.1292,-27.3917,73.40,59.00,60.67,150.00,8.00,M,30.21,M,6.21,M,FEW,SCT,M,M,3000.00,6200.00,M,M,M,YBBN 171530Z 15008KT 9999 FEW030 SCT062 23/15 Q1023 NOSIG
YBBN,2010-03-17 16:00,153.1292,-27.3917,71.60,60.80,68.75,160.00,8.00,M,30.18,M,6.21,M,FEW,SCT,M,M,3000.00,6200.00,M,M,M,YBBN 171600Z 16008KT 9999 FEW030 SCT062 22/16 Q1022 NOSIG
YBBN,2010-03-17 16:30,153.1292,-27.3917,69.80,62.60,77.90,160.00,6.00,M,30.18,M,6.21,M,FEW,SCT,M,M,3000.00,4300.00,M,M,M,YBBN 171630Z 16006KT 9999 FEW030 SCT043 21/17 Q1022 NOSIG
YBBN,2010-03-17 17:00,153.1292,-27.3917,69.80,60.80,73.09,170.00,7.00,M,30.18,M,6.21,M,FEW,M,M,M,3000.00,M,M,M,M,YBBN 171700Z 17007KT 9999 FEW030 21/16 Q1022 NOSIG
YBBN,2010-03-17 17:30,153.1292,-27.3917,68.00,60.80,77.75,130.00,10.00,M,30.18,M,6.21,M,FEW,M,M,M,3000.00,M,M,M,M,YBBN 171730Z 13010KT 9999 FEW030 20/16 Q1022 NOSIG
YBBN,2010-03-17 18:00,153.1292,-27.3917,68.00,60.80,77.75,120.00,7.00,M,30.18,M,6.21,M,FEW,M,M,M,3000.00,M,M,M,M,YBBN 171800Z 12007KT 9999 FEW030 20/16 Q1022 NOSIG
YBBN,2010-03-17 18:30,153.1292,-27.3917,66.20,60.80,82.74,220.00,6.00,M,30.18,M,6.21,M,FEW,M,M,M,3000.00,M,M,M,M,YBBN 171830Z 22006KT 9999 FEW030 19/16 Q1022 NOSIG
YBBN,2010-03-17 19:00,153.1292,-27.3917,64.40,60.80,88.09,220.00,6.00,M,30.18,M,6.21,M,FEW,BKN,M,M,3000.00,6100.00,M,M,M,YBBN 171900Z 22006KT 9999 FEW030 BKN061 18/16 Q1022 NOSIG
YBBN,2010-03-17 19:30,153.1292,-27.3917,64.40,60.80,88.09,210.00,5.00,M,30.21,M,6.21,M,FEW,M,M,M,3000.00,M,M,M,M,YBBN 171930Z 21005KT 9999 FEW030 18/16 Q1023 NOSIG
YBBN,2010-03-17 20:00,153.1292,-27.3917,66.20,59.00,77.60,200.00,6.00,M,30.21,M,6.21,M,FEW,M,M,M,3000.00,M,M,M,M,YBBN 172000Z 20006KT 9999 FEW030 19/15 Q1023 NOSIG
YBBN,2010-03-17 20:30,153.1292,-27.3917,68.00,59.00,72.92,180.00,6.00,M,30.21,M,6.21,M,FEW,M,M,M,3000.00,M,M,M,M,YBBN 172030Z 18006KT 9999 FEW030 20/15 Q1023 NOSIG
YBBN,2010-03-17 21:00,153.1292,-27.3917,69.80,59.00,68.55,180.00,7.00,M,30.21,M,6.21,M,FEW,M,M,M,3000.00,M,M,M,M,YBBN 172100Z 18007KT 9999 FEW030 21/15 Q1023 NOSIG
YBBN,2010-03-17 21:30,153.1292,-27.3917,73.40,59.00,60.67,180.00,8.00,M,30.21,M,6.21,M,FEW,M,M,M,3000.00,M,M,M,M,YBBN 172130Z 18008KT 9999 FEW030 23/15 Q1023 NOSIG
YBBN,2010-03-17 22:00,153.1292,-27.3917,75.20,60.80,60.90,200.00,7.00,M,30.24,M,6.21,M,FEW,M,M,M,3000.00,M,M,M,M,YBBN 172200Z 20007KT 9999 FEW030 24/16 Q1024 NOSIG
YBBN,2010-03-17 22:30,153.1292,-27.3917,75.20,60.80,60.90,180.00,8.00,M,30.24,M,6.21,M,FEW,M,M,M,3500.00,M,M,M,M,YBBN 172230Z 18008KT 9999 FEW035 24/16 Q1024 NOSIG
YBBN,2010-03-17 23:00,153.1292,-27.3917,77.00,59.00,53.80,140.00,11.00,M,30.24,M,6.21,M,FEW,BKN,M,M,3500.00,6300.00,M,M,M,YBBN 172300Z 14011KT 9999 FEW035 BKN063 25/15 Q1024 NOSIG
YBBN,2010-03-17 23:30,153.1292,-27.3917,77.00,59.00,53.80,140.00,9.00,M,30.24,M,6.21,M,FEW,BKN,M,M,4000.00,6000.00,M,M,M,YBBN 172330Z 14009KT 9999 FEW040 BKN060 25/15 Q1024 RMK RASH TO S NOSIG
