#DEBUG: Format Typ    -> comma
#DEBUG: Time Period   -> 2013-04-28 00:00:00+00:00 2013-04-29 00:00:00+00:00
#DEBUG: Time Zone     -> Etc/UTC
#DEBUG: Data Contact   -> daryl herzmann akrherz@iastate.edu 515-294-5978
#DEBUG: Entries Found -> -1
station,valid,lon,lat,tmpf, dwpf, relh, drct, sknt, p01i, alti, mslp, vsby, gust, skyc1, skyc2, skyc3, skyc4, skyl1, skyl2, skyl3, skyl4, presentwx, metar
YBBN,2013-04-28 00:00,153.1292,-27.3917,73.40,59.00,60.67,210.00,8.00,0.00,30.18,M,6.21,M,FEW,M,M,M,3000.00,M,M,M,M,YBBN 280000Z 21008KT 9999 FEW030 23/15 Q1022
YBBN,2013-04-28 00:30,153.1292,-27.3917,75.20,60.80,60.90,210.00,7.00,0.00,30.15,M,6.21,M,FEW,M,M,M,3000.00,M,M,M,M,YBBN 280030Z 21007KT 9999 FEW030 24/16 Q1021
YBBN,2013-04-28 01:00,153.1292,-27.3917,75.20,59.00,57.12,160.00,5.00,0.00,30.15,M,6.21,M,FEW,M,M,M,3000.00,M,M,M,M,YBBN 280100Z 16005KT 9999 FEW030 24/15 Q1021 NOSIG
YBBN,2013-04-28 01:30,153.1292,-27.3917,75.20,57.20,53.55,120.00,5.00,0.00,30.12,M,6.21,M,FEW,M,M,M,3800.00,M,M,M,M,YBBN 280130Z 12005KT 9999 FEW038 24/14 Q1020
YBBN,2013-04-28 02:00,153.1292,-27.3917,77.00,59.00,53.80,110.00,6.00,0.00,30.12,M,6.21,M,FEW,M,M,M,4000.00,M,M,M,M,YBBN 280200Z 11006KT 9999 FEW040 25/15 Q1020 NOSIG
YBBN,2013-04-28 02:30,153.1292,-27.3917,77.00,59.00,53.80,50.00,8.00,0.00,30.12,M,6.21,M,FEW,M,M,M,4000.00,M,M,M,M,YBBN 280230Z 05008KT 9999 FEW040 25/15 Q1020
YBBN,2013-04-28 03:00,153.1292,-27.3917,77.00,59.00,53.80,40.00,8.00,0.00,30.09,M,6.21,M,FEW,M,M,M,4200.00,M,M,M,M,YBBN 280300Z 04008KT 9999 FEW042 25/15 Q1019 NOSIG
YBBN,2013-04-28 03:30,153.1292,-27.3917,77.00,59.00,53.80,30.00,8.00,0.00,30.09,M,6.21,M,FEW,M,M,M,4000.00,M,M,M,M,YBBN 280330Z 03008KT 9999 FEW040 25/15 Q1019
YBBN,2013-04-28 04:00,153.1292,-27.3917,77.00,59.00,53.80,10.00,9.00,0.00,30.09,M,6.21,M,FEW,M,M,M,4000.00,M,M,M,M,YBBN 280400Z 01009KT 9999 FEW040 25/15 Q1019 NOSIG
YBBN,2013-04-28 04:30,153.1292,-27.3917,77.00,59.00,53.80,40.00,7.00,0.00,30.09,M,6.21,M,FEW,M,M,M,4000.00,M,M,M,M,YBBN 280430Z 04007KT 9999 FEW040 25/15 Q1019
YBBN,2013-04-28 05:00,153.1292,-27.3917,77.00,57.20,50.43,20.00,9.00,0.00,30.09,M,6.21,M,FEW,M,M,M,4000.00,M,M,M,M,YBBN 280500Z 02009KT 9999 FEW040 25/14 Q1019 NOSIG
YBBN,2013-04-28 05:30,153.1292,-27.3917,75.20,60.80,60.90,50.00,8.00,0.00,30.09,M,6.21,M,FEW,M,M,M,4000.00,M,M,M,M,YBBN 280530Z 05008KT 9999 FEW040 24/16 Q1019
YBBN,2013-04-28 06:00,153.1292,-27.3917,75.20,60.80,60.90,40.00,7.00,0.00,30.09,M,6.21,M,FEW,M,M,M,4500.00,M,M,M,M,YBBN 280600Z 04007KT 9999 FEW045 24/16 Q1019 NOSIG
YBBN,2013-04-28 06:30,153.1292,-27.3917,73.40,62.60,68.94,40.00,7.00,0.00,30.09,M,6.21,M,M,M,M,M,M,M,M,M,M,YBBN 280630Z 04007KT CAVOK 23/17 Q1019
YBBN,2013-04-28 07:00,153.1292,-27.3917,73.40,60.80,64.69,50.00,7.00,0.00,30.09,M,6.21,M,M,M,M,M,M,M,M,M,M,YBBN 280700Z 05007KT CAVOK 23/16 Q1019 NOSIG
YBBN,2013-04-28 07:30,153.1292,-27.3917,71.60,60.80,68.75,60.00,5.00,0.00,30.12,M,6.21,M,M,M,M,M,M,M,M,M,M,YBBN 280730Z 06005KT CAVOK 22/16 Q1020
YBBN,2013-04-28 08:00,153.1292,-27.3917,71.60,60.80,68.75,70.00,5.00,0.00,30.12,M,6.21,M,M,M,M,M,M,M,M,M,M,YBBN 280800Z 07005KT CAVOK 22/16 Q1020
YBBN,2013-04-28 08:30,153.1292,-27.3917,71.60,59.00,64.48,60.00,5.00,0.00,30.12,M,6.21,M,M,M,M,M,M,M,M,M,M,YBBN 280830Z 06005KT CAVOK 22/15 Q1020
YBBN,2013-04-28 09:00,153.1292,-27.3917,71.60,60.80,68.75,50.00,5.00,0.00,30.12,M,6.21,M,M,M,M,M,M,M,M,M,M,YBBN 280900Z 05005KT CAVOK 22/16 Q1020
YBBN,2013-04-28 09:30,153.1292,-27.3917,68.00,59.00,72.92,0.00,0.00,0.00,30.15,M,6.21,M,M,M,M,M,M,M,M,M,M,YBBN 280930Z 00000KT CAVOK 20/15 Q1021
YBBN,2013-04-28 10:00,153.1292,-27.3917,68.00,60.80,77.75,0.00,0.00,0.00,30.15,M,6.21,M,M,M,M,M,M,M,M,M,M,YBBN 281000Z 00000KT CAVOK 20/16 Q1021 NOSIG
YBBN,2013-04-28 10:30,153.1292,-27.3917,66.20,60.80,82.74,50.00,3.00,0.00,30.15,M,6.21,M,M,M,M,M,M,M,M,M,M,YBBN 281030Z 05003KT CAVOK 19/16 Q1021
YBBN,2013-04-28 11:00,153.1292,-27.3917,66.20,60.80,82.74,0.00,0.00,0.00,30.15,M,6.21,M,M,M,M,M,M,M,M,M,M,YBBN 281100Z 00000KT CAVOK 19/16 Q1021 NOSIG
YBBN,2013-04-28 11:30,153.1292,-27.3917,64.40,60.80,88.09,0.00,0.00,0.00,30.15,M,6.21,M,M,M,M,M,M,M,M,M,M,YBBN 281130Z 00000KT CAVOK 18/16 Q1021
YBBN,2013-04-28 12:00,153.1292,-27.3917,64.40,59.00,82.62,10.00,1.00,0.00,30.15,M,6.21,M,M,M,M,M,M,M,M,M,M,YBBN 281200Z 01001KT CAVOK 18/15 Q1021 NOSIG
YBBN,2013-04-28 12:30,153.1292,-27.3917,62.60,59.00,88.00,230.00,4.00,0.00,30.15,M,6.21,M,M,M,M,M,M,M,M,M,M,YBBN 281230Z 23004KT CAVOK 17/15 Q1021
YBBN,2013-04-28 13:00,153.1292,-27.3917,62.60,59.00,88.00,220.00,5.00,0.00,30.15,M,6.21,M,M,M,M,M,M,M,M,M,M,YBBN 281300Z 22005KT CAVOK 17/15 Q1021
YBBN,2013-04-28 13:30,153.1292,-27.3917,62.60,59.00,88.00,200.00,4.00,0.00,30.15,M,6.21,M,M,M,M,M,M,M,M,M,M,YBBN 281330Z 20004KT CAVOK 17/15 Q1021
YBBN,2013-04-28 14:00,153.1292,-27.3917,60.80,59.00,93.79,210.00,4.00,0.00,30.15,M,6.21,M,M,M,M,M,M,M,M,M,M,YBBN 281400Z 21004KT CAVOK 16/15 Q1021
YBBN,2013-04-28 14:30,153.1292,-27.3917,60.80,59.00,93.79,210.00,4.00,0.00,30.12,M,6.21,M,M,M,M,M,M,M,M,M,M,YBBN 281430Z 21004KT CAVOK 16/15 Q1020
YBBN,2013-04-28 15:00,153.1292,-27.3917,62.60,60.80,93.83,200.00,5.00,0.00,30.12,M,6.21,M,M,M,M,M,M,M,M,M,M,YBBN 281500Z 20005KT CAVOK 17/16 Q1020 NOSIG
YBBN,2013-04-28 15:30,153.1292,-27.3917,60.80,59.00,93.79,210.00,7.00,0.00,30.15,M,6.21,M,FEW,M,M,M,2500.00,M,M,M,M,YBBN 281530Z 21007KT 9999 FEW025 16/15 Q1021
YBBN,2013-04-28 16:00,153.1292,-27.3917,62.60,59.00,88.00,200.00,6.00,0.00,30.12,M,6.21,M,FEW,M,M,M,2500.00,M,M,M,M,YBBN 281600Z 20006KT 9999 FEW025 17/15 Q1020
YBBN,2013-04-28 16:30,153.1292,-27.3917,60.80,59.00,93.79,200.00,8.00,0.00,30.12,M,6.21,M,FEW,M,M,M,1600.00,M,M,M,M,YBBN 281630Z 20008KT 9999 FEW016 16/15 Q1020
YBBN,2013-04-28 17:00,153.1292,-27.3917,62.60,59.00,88.00,210.00,9.00,0.00,30.12,M,6.21,M,FEW,M,M,M,1600.00,M,M,M,M,YBBN 281700Z 21009KT 9999 FEW016 17/15 Q1020 NOSIG
YBBN,2013-04-28 17:30,153.1292,-27.3917,60.80,59.00,93.79,200.00,8.00,0.00,30.12,M,6.21,M,FEW,M,M,M,1400.00,M,M,M,M,YBBN 281730Z 20008KT 9999 FEW014 16/15 Q1020
YBBN,2013-04-28 18:00,153.1292,-27.3917,60.80,59.00,93.79,210.00,8.00,0.00,30.12,M,6.21,M,FEW,M,M,M,1400.00,M,M,M,M,YBBN 281800Z 21008KT 9999 FEW014 16/15 Q1020 NOSIG
YBBN,2013-04-28 18:30,153.1292,-27.3917,60.80,59.00,93.79,200.00,7.00,0.00,30.12,M,6.21,M,FEW,M,M,M,1400.00,M,M,M,M,YBBN 281830Z 20007KT 9999 FEW014 16/15 Q1020
YBBN,2013-04-28 19:00,153.1292,-27.3917,60.80,59.00,93.79,210.00,9.00,0.00,30.15,M,6.21,M,FEW,M,M,M,1400.00,M,M,M,M,YBBN 281900Z 21009KT 9999 FEW014 16/15 Q1021
YBBN,2013-04-28 19:30,153.1292,-27.3917,60.80,59.00,93.79,200.00,9.00,0.00,30.15,M,6.21,M,FEW,SCT,M,M,1400.00,3000.00,M,M,M,YBBN 281930Z 20009KT 9999 FEW014 SCT030 16/15 Q1021
YBBN,2013-04-28 20:00,153.1292,-27.3917,60.80,59.00,93.79,200.00,8.00,0.00,30.15,M,6.21,M,FEW,M,M,M,1400.00,M,M,M,M,YBBN 282000Z 20008KT 9999 FEW014 16/15 Q1021 NOSIG
YBBN,2013-04-28 20:30,153.1292,-27.3917,60.80,59.00,93.79,200.00,8.00,0.00,30.18,M,6.21,M,FEW,M,M,M,1600.00,M,M,M,M,YBBN 282030Z 20008KT 9999 FEW016 16/15 Q1022
YBBN,2013-04-28 21:00,153.1292,-27.3917,62.60,59.00,88.00,200.00,9.00,0.00,30.18,M,6.21,M,FEW,M,M,M,3500.00,M,M,M,M,YBBN 282100Z 20009KT 9999 FEW035 17/15 Q1022
YBBN,2013-04-28 21:30,153.1292,-27.3917,64.40,60.80,88.09,200.00,9.00,0.00,30.21,M,6.21,M,FEW,M,M,M,3500.00,M,M,M,M,YBBN 282130Z 20009KT 9999 FEW035 18/16 Q1023
YBBN,2013-04-28 22:00,153.1292,-27.3917,66.20,60.80,82.74,210.00,9.00,0.00,30.21,M,6.21,M,FEW,M,M,M,3500.00,M,M,M,M,YBBN 282200Z 21009KT 9999 FEW035 19/16 Q1023 NOSIG
YBBN,2013-04-28 22:30,153.1292,-27.3917,69.80,60.80,73.09,210.00,11.00,0.00,30.21,M,6.21,M,FEW,M,M,M,3500.00,M,M,M,M,YBBN 282230Z 21011KT 9999 FEW035 21/16 Q1023
YBBN,2013-04-28 23:00,153.1292,-27.3917,71.60,60.80,68.75,210.00,11.00,0.00,30.21,M,6.21,M,FEW,M,M,M,3500.00,M,M,M,M,YBBN 282300Z 21011KT 9999 FEW035 22/16 Q1023 NOSIG
YBBN,2013-04-28 23:30,153.1292,-27.3917,73.40,60.80,64.69,200.00,7.00,0.00,30.21,M,6.21,M,FEW,M,M,M,3800.00,M,M,M,M,YBBN 282330Z 20007KT 9999 FEW038 23/16 Q1023
