#DEBUG: Format Typ    -> comma
#DEBUG: Time Period   -> 2014-01-05 00:00:00+00:00 2014-01-06 00:00:00+00:00
#DEBUG: Time Zone     -> Etc/UTC
#DEBUG: Data Contact   -> daryl herzmann akrherz@iastate.edu 515-294-5978
#DEBUG: Entries Found -> -1
station,valid,lon,lat,tmpf, dwpf, relh, drct, sknt, p01i, alti, mslp, vsby, gust, skyc1, skyc2, skyc3, skyc4, skyl1, skyl2, skyl3, skyl4, presentwx, metar
YBBN,2014-01-05 00:00,153.1292,-27.3917,80.60,69.80,69.71,190.00,7.00,0.00,29.77,M,6.21,M,FEW,SCT,BKN,M,1700.00,1900.00,2100.00,M,M,YBBN 050000Z 19007KT 9999 FEW017 SCT019 BKN021 27/21 Q1008 NOSIG
YBBN,2014-01-05 00:30,153.1292,-27.3917,80.60,71.60,74.11,160.00,5.00,0.00,29.77,M,6.21,M,FEW,BKN,M,M,1800.00,2000.00,M,M,M,YBBN 050030Z 16005KT 9999 FEW018 BKN020 27/22 Q1008
YBBN,2014-01-05 01:00,153.1292,-27.3917,82.40,71.60,69.90,170.00,5.00,0.00,29.77,M,6.21,M,FEW,BKN,M,M,1900.00,2200.00,M,M,M,YBBN 050100Z 17005KT 9999 FEW019 BKN022 28/22 Q1008 NOSIG
YBBN,2014-01-05 01:30,153.1292,-27.3917,84.20,71.60,65.95,110.00,8.00,0.00,29.77,M,6.21,M,FEW,SCT,BKN,M,2000.00,2300.00,2700.00,M,M,YBBN 050130Z 11008KT 9999 FEW020 SCT023 BKN027 29/22 Q1008
YBBN,2014-01-05 02:00,153.1292,-27.3917,84.20,73.40,70.08,110.00,10.00,0.00,29.74,M,6.21,M,FEW,SCT,BKN,M,2000.00,2400.00,3000.00,M,M,YBBN 050200Z 11010KT 9999 FEW020 SCT024 BKN030 29/23 Q1007 NOSIG
YBBN,2014-01-05 02:30,153.1292,-27.3917,86.00,73.40,66.15,110.00,10.00,0.00,29.74,M,6.21,M,FEW,BKN,M,M,2200.00,2500.00,M,M,M,YBBN 050230Z 11010KT 9999 FEW022 BKN025 30/23 Q1007
YBBN,2014-01-05 03:00,153.1292,-27.3917,87.80,73.40,62.47,120.00,11.00,0.00,29.74,M,6.21,M,SCT,SCT,M,M,2600.00,12000.00,M,M,M,YBBN 050300Z 12011KT 9999 SCT026 SCT120 31/23 Q1007 RMK HZ/ CASTELLANUS CLOUD
YBBN,2014-01-05 03:30,153.1292,-27.3917,87.80,73.40,62.47,110.00,12.00,0.00,29.71,M,6.21,M,SCT,SCT,M,M,2800.00,12000.00,M,M,M,YBBN 050330Z 11012KT 9999 SCT028 SCT120 31/23 Q1006 RMK HZ/CASTELLANUS CLOUD/ FU NE SECTOR
YBBN,2014-01-05 04:00,153.1292,-27.3917,84.20,73.40,70.08,110.00,12.00,0.00,29.71,M,5.59,M,SCT,SCT,M,M,3200.00,12000.00,M,M,M,YBBN 050400Z 11012KT 9000 SCT032 SCT120 29/23 Q1006 NOSIG
YBBN,2014-01-05 04:08,153.1292,-27.3917,84.20,73.40,70.08,120.00,11.00,0.00,29.71,M,3.73,M,SCT,SCT,M,M,3200.00,12000.00,M,M,FU,YBBN 050408Z 12011KT 6000 4500NE FU SCT032 SCT120 29/23 Q1006
YBBN,2014-01-05 04:30,153.1292,-27.3917,84.20,73.40,70.08,100.00,11.00,0.00,29.71,M,4.35,M,SCT,SCT,M,M,3200.00,12000.00,M,M,FU,YBBN 050430Z 10011KT 7000 4000N FU SCT032 SCT120 29/23 Q1006
YBBN,2014-01-05 05:00,153.1292,-27.3917,86.00,73.40,66.15,110.00,12.00,0.00,29.71,M,3.73,M,FEW,SCT,M,M,3200.00,12000.00,M,M,FU,YBBN 050500Z 11012KT 6000 4000N FU FEW032 SCT120 30/23 Q1006
YBBN,2014-01-05 05:30,153.1292,-27.3917,84.20,73.40,70.08,100.00,10.00,0.00,29.71,M,4.35,M,FEW,SCT,M,M,3200.00,12000.00,M,M,FU,YBBN 050530Z 10010KT 7000 4000N FU FEW032 SCT120 29/23 Q1006
YBBN,2014-01-05 06:00,153.1292,-27.3917,84.20,73.40,70.08,110.00,11.00,0.00,29.71,M,2.49,M,FEW,SCT,M,M,3500.00,12000.00,M,M,FU,YBBN 050600Z 11011KT 4000 3000N FU FEW035 SCT120 29/23 Q1006
YBBN,2014-01-05 06:30,153.1292,-27.3917,82.40,73.40,74.28,100.00,10.00,0.00,29.71,M,2.49,M,FEW,M,M,M,12000.00,M,M,M,M,YBBN 050630Z 10010KT 4000 3000N FEW120 28/23 Q1006
YBBN,2014-01-05 07:00,153.1292,-27.3917,82.40,73.40,74.28,100.00,10.00,0.00,29.71,M,1.86,M,FEW,M,M,M,12000.00,M,M,M,FU,YBBN 050700Z 10010KT 3000 FU FEW120 28/23 Q1006
YBBN,2014-01-05 08:00,153.1292,-27.3917,80.60,73.40,78.76,100.00,9.00,0.00,29.74,M,1.86,M,FEW,M,M,M,12000.00,M,M,M,FU,YBBN 050800Z 10009KT 3000 FU FEW120 27/23 Q1007
YBBN,2014-01-05 08:30,153.1292,-27.3917,78.80,73.40,83.55,100.00,8.00,0.00,29.74,M,2.49,M,FEW,M,M,M,12000.00,M,M,M,FU,YBBN 050830Z 10008KT 4000 FU FEW120 26/23 Q1007
YBBN,2014-01-05 09:00,153.1292,-27.3917,78.80,73.40,83.55,90.00,7.00,0.00,29.74,M,3.11,M,FEW,M,M,M,12000.00,M,M,M,FU,YBBN 050900Z 09007KT 5000 FU FEW120 26/23 Q1007
YBBN,2014-01-05 09:17,153.1292,-27.3917,78.80,73.40,83.55,90.00,8.00,0.00,29.74,M,3.73,M,NCD,M,M,M,M,M,M,M,//,YBBN 050917Z AUTO 09008KT 6000 // NCD 26/23 Q1007
YBBN,2014-01-05 09:30,153.1292,-27.3917,78.80,73.40,83.55,80.00,7.00,0.00,29.74,M,3.04,M,CLR,M,M,M,M,M,M,M,FU,YBBN 050930Z 08007KT 4900 FU SKC 26/23 Q1007
YBBN,2014-01-05 10:00,153.1292,-27.3917,77.00,73.40,88.67,70.00,5.00,0.00,29.74,M,3.11,M,CLR,M,M,M,M,M,M,M,FU,YBBN 051000Z 07005KT 5000 FU SKC 25/23 Q1007
YBBN,2014-01-05 10:30,153.1292,-27.3917,78.80,75.20,88.75,40.00,8.00,0.00,29.77,M,4.97,M,FEW,SCT,BKN,M,1000.00,2000.00,3100.00,M,M,YBBN 051030Z 04008KT 8000 FEW010 SCT020 BKN031 26/24 Q1008
YBBN,2014-01-05 11:00,153.1292,-27.3917,78.80,75.20,88.75,40.00,7.00,0.00,29.77,M,6.21,M,FEW,OVC,M,M,1000.00,1800.00,M,M,M,YBBN 051100Z 04007KT 9999 FEW010 OVC018 26/24 Q1008 FM1200 36007KT 9999 SCT015 SCT025 INTER 1200/1400 9999 BKN012
YBBN,2014-01-05 11:18,153.1292,-27.3917,78.80,75.20,88.75,40.00,7.00,0.00,29.77,M,6.21,M,FEW,BKN,OVC,M,800.00,1300.00,1800.00,M,M,YBBN 051118Z 04007KT 9999 FEW008 BKN013 OVC018 26/24 Q1008
YBBN,2014-01-05 11:30,153.1292,-27.3917,78.80,75.20,88.75,50.00,7.00,0.00,29.77,M,6.21,M,FEW,OVC,M,M,800.00,1300.00,M,M,M,YBBN 051130Z 05007KT 9999 FEW008 OVC013 26/24 Q1008
YBBN,2014-01-05 12:00,153.1292,-27.3917,78.80,75.20,88.75,30.00,6.00,0.00,29.77,M,6.21,M,BKN,OVC,M,M,1200.00,1700.00,M,M,M,YBBN 051200Z 03006KT 9999 BKN012 OVC017 26/24 Q1008
YBBN,2014-01-05 12:30,153.1292,-27.3917,78.80,75.20,88.75,10.00,8.00,0.00,29.77,M,6.21,M,SCT,OVC,M,M,1000.00,1500.00,M,M,M,YBBN 051230Z 01008KT 9999 SCT010 OVC015 26/24 Q1008
YBBN,2014-01-05 13:00,153.1292,-27.3917,78.80,75.20,88.75,10.00,9.00,0.00,29.74,M,6.21,M,FEW,BKN,BKN,M,1000.00,1500.00,2000.00,M,M,YBBN 051300Z 01009KT 9999 FEW010 BKN015 BKN020 26/24 Q1007 INTER 1300/1600 9999 BKN012
YBBN,2014-01-05 13:30,153.1292,-27.3917,78.80,75.20,88.75,10.00,8.00,0.00,29.74,M,6.21,M,FEW,BKN,M,M,900.00,1500.00,M,M,M,YBBN 051330Z 01008KT 9999 FEW009 BKN015 26/24 Q1007
YBBN,2014-01-05 14:00,153.1292,-27.3917,78.80,75.20,88.75,360.00,7.00,0.00,29.74,M,6.21,M,SCT,OVC,M,M,1400.00,2000.00,M,M,M,YBBN 051400Z 36007KT 9999 SCT014 OVC020 26/24 Q1007 INTER 1400/1700 9999 BKN012
YBBN,2014-01-05 14:30,153.1292,-27.3917,78.80,75.20,88.75,340.00,8.00,0.00,29.74,M,6.21,M,FEW,BKN,M,M,1400.00,2000.00,M,M,M,YBBN 051430Z 34008KT 9999 FEW014 BKN020 26/24 Q1007
YBBN,2014-01-05 15:00,153.1292,-27.3917,78.80,75.20,88.75,350.00,6.00,0.00,29.74,M,6.21,M,SCT,BKN,M,M,1300.00,1900.00,M,M,M,YBBN 051500Z 35006KT 9999 SCT013 BKN019 26/24 Q1007
YBBN,2014-01-05 15:30,153.1292,-27.3917,78.80,75.20,88.75,360.00,6.00,0.00,29.74,M,6.21,M,FEW,BKN,M,M,1300.00,2100.00,M,M,M,YBBN 051530Z 36006KT 9999 FEW013 BKN021 26/24 Q1007
YBBN,2014-01-05 16:00,153.1292,-27.3917,78.80,75.20,88.75,350.00,5.00,0.00,29.74,M,6.21,M,FEW,BKN,M,M,1400.00,2100.00,M,M,M,YBBN 051600Z 35005KT 9999 FEW014 BKN021 26/24 Q1007
YBBN,2014-01-05 16:30,153.1292,-27.3917,78.80,75.20,88.75,360.00,6.00,0.00,29.74,M,6.21,M,FEW,BKN,M,M,900.00,2100.00,M,M,M,YBBN 051630Z 36006KT 9999 FEW009 BKN021 26/24 Q1007
YBBN,2014-01-05 17:00,153.1292,-27.3917,78.80,75.20,88.75,340.00,7.00,0.00,29.74,M,6.21,M,FEW,SCT,OVC,M,900.00,1200.00,2300.00,M,M,YBBN 051700Z 34007KT 9999 FEW009 SCT012 OVC023 26/24 Q1007
YBBN,2014-01-05 17:30,153.1292,-27.3917,78.80,75.20,88.75,360.00,8.00,0.00,29.71,M,6.21,M,FEW,OVC,M,M,900.00,2300.00,M,M,M,YBBN 051730Z 36008KT 9999 FEW009 OVC023 26/24 Q1006
YBBN,2014-01-05 18:00,153.1292,-27.3917,78.80,75.20,88.75,10.00,8.00,0.00,29.71,M,6.21,M,FEW,BKN,M,M,900.00,2300.00,M,M,M,YBBN 051800Z 01008KT 9999 FEW009 BKN023 26/24 Q1006 FM1800 34008KT 9999 SCT015 BKN022
YBBN,2014-01-05 18:30,153.1292,-27.3917,78.80,75.20,88.75,10.00,9.00,0.00,29.74,M,6.21,M,FEW,BKN,M,M,1300.00,2300.00,M,M,M,YBBN 051830Z 01009KT 9999 FEW013 BKN023 26/24 Q1007
YBBN,2014-01-05 19:00,153.1292,-27.3917,78.80,75.20,88.75,360.00,9.00,0.00,29.74,M,6.21,M,FEW,BKN,M,M,1200.00,2300.00,M,M,M,YBBN 051900Z 36009KT 9999 FEW012 BKN023 26/24 Q1007 FM1900 34008KT 9999 SCT015 BKN022
YBBN,2014-01-05 19:30,153.1292,-27.3917,78.80,75.20,88.75,350.00,10.00,0.00,29.74,M,6.21,M,FEW,BKN,M,M,1200.00,2300.00,M,M,M,YBBN 051930Z 35010KT 9999 FEW012 BKN023 26/24 Q1007
YBBN,2014-01-05 20:00,153.1292,-27.3917,80.60,75.20,83.66,360.00,7.00,0.00,29.74,M,6.21,M,FEW,BKN,BKN,M,1200.00,2500.00,18000.00,M,M,YBBN 052000Z 36007KT 9999 FEW012 BKN025 BKN180 27/24 Q1007 NOSIG
YBBN,2014-01-05 20:30,153.1292,-27.3917,80.60,73.40,78.76,350.00,10.00,0.00,29.77,M,6.21,M,FEW,SCT,BKN,M,1000.00,2500.00,16000.00,M,M,YBBN 052030Z 35010KT 9999 FEW010 SCT025 BKN160 27/23 Q1008
YBBN,2014-01-05 21:00,153.1292,-27.3917,80.60,75.20,83.66,320.00,7.00,0.00,29.77,M,6.21,M,FEW,SCT,BKN,M,1000.00,2500.00,16000.00,M,M,YBBN 052100Z 32007KT 9999 FEW010 SCT025 BKN160 27/24 Q1008 NOSIG
YBBN,2014-01-05 21:30,153.1292,-27.3917,80.60,75.20,83.66,330.00,6.00,0.00,29.77,M,6.21,M,FEW,SCT,BKN,M,1000.00,2500.00,16000.00,M,M,YBBN 052130Z 33006KT 9999 FEW010 SCT025 BKN160 27/24 Q1008
YBBN,2014-01-05 22:00,153.1292,-27.3917,80.60,73.40,78.76,350.00,7.00,0.00,29.77,M,6.21,M,FEW,SCT,BKN,M,1000.00,10000.00,16000.00,M,M,YBBN 052200Z 35007KT 9999 FEW010 SCT100 BKN160 27/23 Q1008 NOSIG
YBBN,2014-01-05 22:30,153.1292,-27.3917,82.40,73.40,74.28,350.00,6.00,0.00,29.77,M,6.21,M,FEW,SCT,BKN,M,1000.00,10000.00,18000.00,M,M,YBBN 052230Z 35006KT 9999 FEW010 SCT100 BKN180 28/23 Q1008 RMK TCU TOPS TO NORTH
YBBN,2014-01-05 23:00,153.1292,-27.3917,86.00,75.20,70.27,360.00,11.00,0.00,29.77,M,6.21,M,FEW,SCT,BKN,M,2400.00,10000.00,18000.00,M,M,YBBN 052300Z 36011KT 9999 FEW024 SCT100 BKN180 30/24 Q1008 NOSIG
YBBN,2014-01-05 23:30,153.1292,-27.3917,84.20,73.40,70.08,10.00,10.00,0.00,29.74,M,6.21,M,FEW,SCT,M,M,2400.00,10000.00,M,M,M,YBBN 052330Z 01010KT 9999 FEW024 SCT100 29/23 Q1007 RMK TCU TOP TO NORTH
