#DEBUG: Format Typ    -> comma
#DEBUG: Time Period   -> 2015-12-28 00:00:00+00:00 2015-12-29 00:00:00+00:00
#DEBUG: Time Zone     -> Etc/UTC
#DEBUG: Data Contact   -> daryl herzmann akrherz@iastate.edu 515-294-5978
#DEBUG: Entries Found -> -1
station,valid,lon,lat,tmpf, dwpf, relh, drct, sknt, p01i, alti, mslp, vsby, gust, skyc1, skyc2, skyc3, skyc4, skyl1, skyl2, skyl3, skyl4, presentwx, metar
YBBN,2015-12-28 00:00,153.1292,-27.3917,78.80,59.00,50.69,160.00,12.00,0.00,30.03,M,6.21,M,SCT,SCT,M,M,4000.00,27000.00,M,M,M,YBBN 280000Z 16012KT 9999 SCT040 SCT270 26/15 Q1017
YBBN,2015-12-28 02:00,153.1292,-27.3917,78.80,60.80,54.05,130.00,12.00,0.00,29.97,M,6.21,M,SCT,BKN,M,M,4000.00,26000.00,M,M,M,YBBN 280200Z 13012KT 9999 SCT040 BKN260 26/16 Q1015
YBBN,2015-12-28 03:00,153.1292,-27.3917,78.80,62.60,57.60,120.00,14.00,0.00,29.97,M,6.21,M,SCT,BKN,M,M,4200.00,26000.00,M,M,M,YBBN 280300Z 12014KT 9999 SCT042 BKN260 26/17 Q1015
YBBN,2015-12-28 03:12,153.1292,-27.3917,78.80,62.60,57.60,120.00,15.00,0.00,29.97,M,6.21,28.00,SCT,BKN,M,M,4000.00,26000.00,M,M,M,YBBN 280312Z 12015G28KT 9999 SCT040 BKN260 26/17 Q1015
YBBN,2015-12-28 03:32,153.1292,-27.3917,80.60,64.40,57.84,120.00,15.00,0.00,29.97,M,6.21,26.00,SCT,BKN,BKN,M,4000.00,11000.00,26000.00,M,M,YBBN 280332Z 12015G26KT 9999 SCT040 BKN110 BKN260 27/18 Q1015
YBBN,2015-12-28 04:00,153.1292,-27.3917,77.00,62.60,61.13,110.00,14.00,0.00,29.97,M,6.21,M,FEW,BKN,BKN,M,4000.00,5400.00,26000.00,M,M,YBBN 280400Z 11014KT 9999 FEW040 BKN054 BKN260 25/17 Q1015
YBBN,2015-12-28 04:36,153.1292,-27.3917,77.00,62.60,61.13,120.00,15.00,0.00,29.97,M,6.21,28.00,FEW,BKN,BKN,M,3500.00,5300.00,26000.00,M,M,YBBN 280436Z 12015G28KT 9999 FEW035 BKN053 BKN260 25/17 Q1015
YBBN,2015-12-28 06:00,153.1292,-27.3917,77.00,60.80,57.36,130.00,13.00,0.00,29.94,M,6.21,M,FEW,BKN,M,M,4000.00,6000.00,M,M,M,YBBN 280600Z 13013KT 9999 FEW040 BKN060 25/16 Q1014
YBBN,2015-12-28 07:42,153.1292,-27.3917,75.20,62.60,64.91,130.00,15.00,0.00,29.97,M,6.21,26.00,FEW,BKN,M,M,3800.00,7000.00,M,M,M,YBBN 280742Z 13015G26KT 9999 FEW038 BKN070 24/17 Q1015
YBBN,2015-12-28 08:14,153.1292,-27.3917,73.40,60.80,64.69,130.00,15.00,0.00,30.00,M,6.21,26.00,SCT,OVC,M,M,5200.00,8100.00,M,M,//,YBBN 280814Z AUTO 13015G26KT 9999 // SCT052 OVC081 23/16 Q1016
YBBN,2015-12-28 13:00,153.1292,-27.3917,69.80,59.00,68.55,170.00,10.00,0.00,30.03,M,6.21,M,FEW,SCT,M,M,2600.00,3200.00,M,M,M,YBBN 281300Z 17010KT 9999 FEW026 SCT032 21/15 Q1017
YBBN,2015-12-28 14:00,153.1292,-27.3917,69.80,59.00,68.55,180.00,9.00,0.00,30.00,M,6.21,M,FEW,SCT,M,M,2600.00,3200.00,M,M,-SHRA,YBBN 281400Z 18009KT 9999 -SHRA FEW026 SCT032 21/15 Q1016
YBBN,2015-12-28 15:00,153.1292,-27.3917,69.80,59.00,68.55,180.00,9.00,0.00,30.00,M,6.21,M,FEW,BKN,M,M,2500.00,4000.00,M,M,-SHRA,YBBN 281500Z 18009KT 9999 -SHRA FEW025 BKN040 21/15 Q1016
YBBN,2015-12-28 16:00,153.1292,-27.3917,68.00,59.00,72.92,180.00,6.00,0.00,30.00,M,6.21,M,FEW,BKN,M,M,2500.00,4300.00,M,M,-SHRA,YBBN 281600Z 18006KT 9999 -SHRA FEW025 BKN043 20/15 Q1016
YBBN,2015-12-28 17:00,153.1292,-27.3917,66.20,57.20,72.74,200.00,8.00,0.00,29.97,M,6.21,M,FEW,SCT,M,M,2500.00,4700.00,M,M,M,YBBN 281700Z 20008KT 9999 FEW025 SCT047 19/14 Q1015
YBBN,2015-12-28 18:00,153.1292,-27.3917,66.20,55.40,68.15,200.00,7.00,0.00,29.97,M,6.21,M,FEW,SCT,M,M,2500.00,4700.00,M,M,M,YBBN 281800Z 20007KT 9999 FEW025 SCT047 19/13 Q1015
YBBN,2015-12-28 19:00,153.1292,-27.3917,64.40,57.20,77.45,210.00,7.00,0.00,30.00,M,6.21,M,FEW,SCT,BKN,M,2500.00,6000.00,24000.00,M,M,YBBN 281900Z 21007KT 9999 FEW025 SCT060 BKN240 18/14 Q1016
YBBN,2015-12-28 21:00,153.1292,-27.3917,69.80,55.40,60.21,190.00,9.00,0.00,30.00,M,6.21,M,FEW,SCT,M,M,3000.00,7000.00,M,M,M,YBBN 282100Z 19009KT 9999 FEW030 SCT070 21/13 Q1016 NOSIG
YBBN,2015-12-28 21:30,153.1292,-27.3917,71.60,55.40,56.63,190.00,11.00,0.00,30.00,M,6.21,M,FEW,SCT,M,M,3000.00,7500.00,M,M,M,YBBN 282130Z 19011KT 9999 FEW030 SCT075 22/13 Q1016 NOSIG
YBBN,2015-12-28 22:00,153.1292,-27.3917,73.40,55.40,53.29,190.00,9.00,0.00,30.00,M,6.21,M,FEW,M,M,M,3500.00,M,M,M,M,YBBN 282200Z 19009KT 9999 FEW035 23/13 Q1016
