#DEBUG: Format Typ    -> comma
#DEBUG: Time Period   -> 2010-09-12 00:00:00+00:00 2010-09-13 00:00:00+00:00
#DEBUG: Time Zone     -> Etc/UTC
#DEBUG: Data Contact   -> daryl herzmann akrherz@iastate.edu 515-294-5978
#DEBUG: Entries Found -> -1
station,valid,lon,lat,tmpf, dwpf, relh, drct, sknt, p01i, alti, mslp, vsby, gust, skyc1, skyc2, skyc3, skyc4, skyl1, skyl2, skyl3, skyl4, presentwx, metar
YBBN,2010-09-12 00:00,153.1292,-27.3917,69.80,53.60,56.38,70.00,7.00,M,30.18,M,6.21,M,SCT,SCT,M,M,4500.00,6000.00,M,M,M,YBBN 120000Z 07007KT 9999 SCT045 SCT060 21/12 Q1022 NOSIG
YBBN,2010-09-12 00:30,153.1292,-27.3917,71.60,51.80,49.64,50.00,8.00,M,30.18,M,6.21,M,FEW,SCT,M,M,4800.00,16000.00,M,M,M,YBBN 120030Z 05008KT 9999 FEW048 SCT160 22/11 Q1022 NOSIG
YBBN,2010-09-12 01:00,153.1292,-27.3917,69.80,51.80,52.77,70.00,8.00,M,30.18,M,6.21,M,SCT,SCT,M,M,4200.00,6400.00,M,M,M,YBBN 120100Z 07008KT 9999 SCT042 SCT064 21/11 Q1022 NOSIG
YBBN,2010-09-12 01:30,153.1292,-27.3917,69.80,51.80,52.77,50.00,7.00,M,30.18,M,6.21,M,FEW,SCT,M,M,4200.00,6400.00,M,M,M,YBBN 120130Z 05007KT 9999 FEW042 SCT064 21/11 Q1022 NOSIG
YBBN,2010-09-12 02:00,153.1292,-27.3917,71.60,51.80,49.64,40.00,10.00,M,30.15,M,6.21,M,FEW,SCT,M,M,4200.00,6500.00,M,M,M,YBBN 120200Z 04010KT 9999 FEW042 SCT065 22/11 Q1021 NOSIG
YBBN,2010-09-12 02:30,153.1292,-27.3917,71.60,51.80,49.64,50.00,10.00,M,30.15,M,6.21,M,SCT,M,M,M,4200.00,M,M,M,M,YBBN 120230Z 05010KT 9999 SCT042 22/11 Q1021 NOSIG
YBBN,2010-09-12 03:00,153.1292,-27.3917,71.60,51.80,49.64,50.00,11.00,M,30.12,M,6.21,M,FEW,M,M,M,4200.00,M,M,M,M,YBBN 120300Z 05011KT 9999 FEW042 22/11 Q1020 NOSIG
YBBN,2010-09-12 03:30,153.1292,-27.3917,73.40,53.60,49.90,60.00,10.00,M,30.12,M,6.21,M,FEW,M,M,M,4500.00,M,M,M,M,YBBN 120330Z 06010KT 9999 FEW045 23/12 Q1020 NOSIG
YBBN,2010-09-12 04:00,153.1292,-27.3917,71.60,51.80,49.64,60.00,10.00,M,30.12,M,6.21,M,FEW,M,M,M,4500.00,M,M,M,M,YBBN 120400Z 06010KT 9999 FEW045 22/11 Q1020 NOSIG
YBBN,2010-09-12 04:30,153.1292,-27.3917,71.60,51.80,49.64,60.00,10.00,M,30.09,M,6.21,M,FEW,M,M,M,4500.00,M,M,M,M,YBBN 120430Z 06010KT 9999 FEW045 22/11 Q1019 NOSIG
YBBN,2010-09-12 05:00,153.1292,-27.3917,71.60,51.80,49.64,70.00,10.00,M,30.09,M,6.21,M,FEW,M,M,M,4500.00,M,M,M,M,YBBN 120500Z 07010KT 9999 FEW045 22/11 Q1019 NOSIG
YBBN,2010-09-12 05:30,153.1292,-27.3917,71.60,51.80,49.64,60.00,10.00,M,30.09,M,6.21,M,FEW,M,M,M,4500.00,M,M,M,M,YBBN 120530Z 06010KT 9999 FEW045 22/11 Q1019 NOSIG
YBBN,2010-09-12 06:00,153.1292,-27.3917,69.80,51.80,52.77,60.00,10.00,M,30.09,M,6.21,M,FEW,M,M,M,4500.00,M,M,M,M,YBBN 120600Z 06010KT 9999 FEW045 21/11 Q1019 NOSIG
YBBN,2010-09-12 06:30,153.1292,-27.3917,69.80,51.80,52.77,60.00,9.00,M,30.09,M,6.21,M,FEW,M,M,M,4500.00,M,M,M,M,YBBN 120630Z 06009KT 9999 FEW045 21/11 Q1019 NOSIG
YBBN,2010-09-12 07:00,153.1292,-27.3917,68.00,51.80,56.13,50.00,9.00,M,30.09,M,6.21,M,FEW,SCT,M,M,4500.00,22000.00,M,M,M,YBBN 120700Z 05009KT 9999 FEW045 SCT220 20/11 Q1019 NOSIG
YBBN,2010-09-12 07:30,153.1292,-27.3917,68.00,53.60,59.97,50.00,7.00,M,30.09,M,6.21,M,FEW,M,M,M,4000.00,M,M,M,M,YBBN 120730Z 05007KT 9999 FEW040 20/12 Q1019 NOSIG
YBBN,2010-09-12 08:00,153.1292,-27.3917,66.20,53.60,63.82,50.00,7.00,M,30.09,M,6.21,M,FEW,M,M,M,3000.00,M,M,M,M,YBBN 120800Z 05007KT 9999 FEW030 19/12 Q1019 NOSIG
YBBN,2010-09-12 08:30,153.1292,-27.3917,64.40,51.80,63.60,30.00,7.00,M,30.12,M,6.21,M,FEW,M,M,M,4000.00,M,M,M,M,YBBN 120830Z 03007KT 9999 FEW040 18/11 Q1020 NOSIG
YBBN,2010-09-12 09:00,153.1292,-27.3917,64.40,53.60,67.95,40.00,6.00,M,30.12,M,6.21,M,FEW,M,M,M,4000.00,M,M,M,M,YBBN 120900Z 04006KT 9999 FEW040 18/12 Q1020 NOSIG
YBBN,2010-09-12 09:30,153.1292,-27.3917,64.40,53.60,67.95,50.00,6.00,M,30.12,M,6.21,M,M,M,M,M,M,M,M,M,M,YBBN 120930Z 05006KT CAVOK 18/12 Q1020 NOSIG
YBBN,2010-09-12 10:00,153.1292,-27.3917,64.40,53.60,67.95,40.00,6.00,M,30.15,M,6.21,M,M,M,M,M,M,M,M,M,M,YBBN 121000Z 04006KT CAVOK 18/12 Q1021 NOSIG
YBBN,2010-09-12 10:30,153.1292,-27.3917,64.40,53.60,67.95,40.00,6.00,M,30.15,M,6.21,M,FEW,BKN,M,M,3800.00,23000.00,M,M,M,YBBN 121030Z 04006KT 9999 FEW038 BKN230 18/12 Q1021 NOSIG
YBBN,2010-09-12 11:00,153.1292,-27.3917,64.40,55.40,72.56,50.00,6.00,M,30.15,M,6.21,M,FEW,BKN,M,M,2000.00,23000.00,M,M,M,YBBN 121100Z 05006KT 9999 FEW020 BKN230 18/13 Q1021 NOSIG
YBBN,2010-09-12 11:30,153.1292,-27.3917,64.40,55.40,72.56,40.00,6.00,M,30.15,M,6.21,M,FEW,SCT,BKN,M,2000.00,19000.00,23000.00,M,M,YBBN 121130Z 04006KT 9999 FEW020 SCT190 BKN230 18/13 Q1021 NOSIG
YBBN,2010-09-12 12:00,153.1292,-27.3917,64.40,55.40,72.56,40.00,6.00,M,30.15,M,6.21,M,FEW,BKN,M,M,2000.00,19000.00,M,M,M,YBBN 121200Z 04006KT 9999 FEW020 BKN190 18/13 Q1021 NOSIG
YBBN,2010-09-12 12:30,153.1292,-27.3917,64.40,55.40,72.56,30.00,7.00,M,30.15,M,6.21,M,M,M,M,M,M,M,M,M,M,YBBN 121230Z 03007KT CAVOK 18/13 Q1021 RMK 7AC190 NOSIG
YBBN,2010-09-12 13:00,153.1292,-27.3917,66.20,55.40,68.15,30.00,8.00,M,30.12,M,6.21,M,M,M,M,M,M,M,M,M,M,YBBN 121300Z 03008KT CAVOK 19/13 Q1020 RMK 7AC190 NOSIG
YBBN,2010-09-12 13:30,153.1292,-27.3917,64.40,55.40,72.56,20.00,8.00,M,30.12,M,6.21,M,FEW,BKN,M,M,2200.00,19000.00,M,M,M,YBBN 121330Z 02008KT 9999 FEW022 BKN190 18/13 Q1020 NOSIG
YBBN,2010-09-12 14:00,153.1292,-27.3917,62.60,55.40,77.29,320.00,5.00,M,30.12,M,6.21,M,FEW,BKN,M,M,2200.00,19000.00,M,M,M,YBBN 121400Z 32005KT 9999 FEW022 BKN190 17/13 Q1020 NOSIG
YBBN,2010-09-12 14:30,153.1292,-27.3917,62.60,55.40,77.29,310.00,6.00,M,30.12,M,6.21,M,FEW,BKN,M,M,2100.00,19000.00,M,M,M,YBBN 121430Z 31006KT 9999 FEW021 BKN190 17/13 Q1020 NOSIG
YBBN,2010-09-12 15:00,153.1292,-27.3917,62.60,55.40,77.29,280.00,5.00,M,30.09,M,6.21,M,FEW,SCT,BKN,M,2500.00,19000.00,23000.00,M,M,YBBN 121500Z 28005KT 9999 FEW025 SCT190 BKN230 17/13 Q1019 NOSIG
YBBN,2010-09-12 15:30,153.1292,-27.3917,60.80,55.40,82.37,270.00,4.00,M,30.09,M,6.21,M,FEW,SCT,BKN,M,2600.00,19000.00,23000.00,M,-SHRA,YBBN 121530Z 27004KT 9999 -SHRA FEW026 SCT190 BKN230 16/13 Q1019 RMK SH TO SOUTH NOSIG
YBBN,2010-09-12 16:00,153.1292,-27.3917,60.80,55.40,82.37,260.00,4.00,M,30.12,M,6.21,M,FEW,SCT,BKN,M,2600.00,6000.00,19000.00,M,M,YBBN 121600Z 26004KT 9999 FEW026 SCT060 BKN190 16/13 Q1020 NOSIG
YBBN,2010-09-12 16:30,153.1292,-27.3917,60.80,55.40,82.37,260.00,3.00,M,30.09,M,6.21,M,FEW,SCT,BKN,M,2000.00,6000.00,19000.00,M,M,YBBN 121630Z 26003KT 9999 FEW020 SCT060 BKN190 16/13 Q1019 NOSIG
YBBN,2010-09-12 17:00,153.1292,-27.3917,60.80,55.40,82.37,260.00,3.00,M,30.09,M,6.21,M,FEW,SCT,BKN,M,2200.00,19500.00,24000.00,M,M,YBBN 121700Z 26003KT 9999 FEW022 SCT195 BKN240 16/13 Q1019 NOSIG
YBBN,2010-09-12 17:30,153.1292,-27.3917,60.80,55.40,82.37,260.00,3.00,M,30.09,M,6.21,M,FEW,SCT,BKN,M,2600.00,19500.00,24000.00,M,M,YBBN 121730Z 26003KT 9999 FEW026 SCT195 BKN240 16/13 Q1019 NOSIG
YBBN,2010-09-12 18:00,153.1292,-27.3917,60.80,55.40,82.37,0.00,0.00,M,30.09,M,6.21,M,FEW,SCT,BKN,M,2600.00,18000.00,23000.00,M,M,YBBN 121800Z 00000KT 9999 FEW026 SCT180 BKN230 16/13 Q1019 NOSIG
YBBN,2010-09-12 18:30,153.1292,-27.3917,60.80,55.40,82.37,0.00,0.00,M,30.06,M,6.21,M,FEW,SCT,BKN,M,2700.00,13500.00,20000.00,M,M,YBBN 121830Z 00000KT 9999 FEW027 SCT135 BKN200 16/13 Q1018 NOSIG
YBBN,2010-09-12 19:00,153.1292,-27.3917,60.80,55.40,82.37,250.00,1.00,M,30.06,M,6.21,M,FEW,SCT,BKN,M,2700.00,14000.00,24000.00,M,M,YBBN 121900Z 25001KT 9999 FEW027 SCT140 BKN240 16/13 Q1018 NOSIG
YBBN,2010-09-12 19:30,153.1292,-27.3917,60.80,55.40,82.37,300.00,2.00,M,30.06,M,6.21,M,FEW,SCT,BKN,M,2700.00,14000.00,24000.00,M,M,YBBN 121930Z 30002KT 9999 FEW027 SCT140 BKN240 16/13 Q1018 NOSIG
YBBN,2010-09-12 20:00,153.1292,-27.3917,59.00,55.40,87.83,280.00,4.00,M,30.09,M,6.21,M,FEW,SCT,BKN,M,2700.00,3500.00,14000.00,M,M,YBBN 122000Z 28004KT 9999 FEW027 SCT035 BKN140 15/13 Q1019 RMK VIRGA NOSIG
YBBN,2010-09-12 20:30,153.1292,-27.3917,60.80,55.40,82.37,200.00,2.00,M,30.09,M,6.21,M,FEW,SCT,BKN,M,2500.00,14000.00,25000.00,M,M,YBBN 122030Z 20002KT 9999 FEW025 SCT140 BKN250 16/13 Q1019 NOSIG
YBBN,2010-09-12 21:00,153.1292,-27.3917,62.60,55.40,77.29,210.00,2.00,M,30.09,M,6.21,M,FEW,BKN,BKN,M,2500.00,13500.00,20000.00,M,M,YBBN 122100Z 21002KT 9999 FEW025 BKN135 BKN200 17/13 Q1019 NOSIG
YBBN,2010-09-12 21:30,153.1292,-27.3917,62.60,55.40,77.29,0.00,0.00,M,30.09,M,6.21,M,FEW,SCT,BKN,M,2500.00,13500.00,25000.00,M,M,YBBN 122130Z 00000KT 9999 FEW025 SCT135 BKN250 17/13 Q1019 NOSIG
YBBN,2010-09-12 22:00,153.1292,-27.3917,66.20,55.40,68.15,290.00,5.00,M,30.12,M,6.21,M,FEW,BKN,M,M,2000.00,14500.00,M,M,M,YBBN 122200Z 29005KT 9999 FEW020 BKN145 19/13 Q1020 NOSIG
YBBN,2010-09-12 22:30,153.1292,-27.3917,68.00,55.40,64.04,310.00,7.00,M,30.09,M,6.21,M,FEW,SCT,BKN,M,2500.00,14000.00,18000.00,M,M,YBBN 122230Z 31007KT 9999 FEW025 SCT140 BKN180 20/13 Q1019 NOSIG
YBBN,2010-09-12 23:00,153.1292,-27.3917,69.80,55.40,60.21,310.00,7.00,M,30.09,M,6.21,M,M,M,M,M,M,M,M,M,M,YBBN 122300Z 31007KT CAVOK 21/13 Q1019 NOSIG
YBBN,2010-09-12 23:30,153.1292,-27.3917,69.80,53.60,56.38,330.00,8.00,M,30.09,M,6.21,M,FEW,SCT,M,M,3000.00,25000.00,M,M,M,YBBN 122330Z 33008KT 9999 FEW030 SCT250 21/12 Q1019 NOSIG
