#DEBUG: Format Typ    -> comma
#DEBUG: Time Period   -> 2010-11-03 00:00:00+00:00 2010-11-04 00:00:00+00:00
#DEBUG: Time Zone     -> Etc/UTC
#DEBUG: Data Contact   -> daryl herzmann akrherz@iastate.edu 515-294-5978
#DEBUG: Entries Found -> -1
station,valid,lon,lat,tmpf, dwpf, relh, drct, sknt, p01i, alti, mslp, vsby, gust, skyc1, skyc2, skyc3, skyc4, skyl1, skyl2, skyl3, skyl4, presentwx, metar
YBBN,2010-11-03 00:00,153.1292,-27.3917,75.20,60.80,60.90,130.00,9.00,M,30.03,M,6.21,M,BKN,M,M,M,3500.00,M,M,M,M,YBBN 030000Z 13009KT 9999 BKN035 24/16 Q1017 NOSIG
YBBN,2010-11-03 00:30,153.1292,-27.3917,75.20,60.80,60.90,130.00,11.00,M,30.03,M,6.21,M,BKN,M,M,M,3100.00,M,M,M,M,YBBN 030030Z 13011KT 9999 BKN031 24/16 Q1017 NOSIG
YBBN,2010-11-03 01:00,153.1292,-27.3917,75.20,59.00,57.12,120.00,10.00,M,30.03,M,6.21,M,SCT,M,M,M,3500.00,M,M,M,M,YBBN 030100Z 12010KT 9999 SCT035 24/15 Q1017 NOSIG
YBBN,2010-11-03 01:30,153.1292,-27.3917,75.20,59.00,57.12,120.00,9.00,M,30.03,M,6.21,M,SCT,M,M,M,3500.00,M,M,M,M,YBBN 030130Z 12009KT 9999 SCT035 24/15 Q1017 NOSIG
YBBN,2010-11-03 02:00,153.1292,-27.3917,75.20,60.80,60.90,100.00,12.00,M,30.03,M,6.21,M,SCT,M,M,M,3500.00,M,M,M,M,YBBN 030200Z 10012KT 9999 SCT035 24/16 Q1017 WS RWY19 RMK REPORTED TO TOWER 0130Z NOSIG
YBBN,2010-11-03 02:30,153.1292,-27.3917,77.00,60.80,57.36,110.00,10.00,M,30.00,M,6.21,M,SCT,M,M,M,3500.00,M,M,M,M,YBBN 030230Z 11010KT 9999 SCT035 25/16 Q1016 NOSIG
YBBN,2010-11-03 03:00,153.1292,-27.3917,75.20,59.00,57.12,110.00,12.00,M,30.00,M,6.21,M,SCT,M,M,M,3500.00,M,M,M,M,YBBN 030300Z 11012KT 9999 SCT035 24/15 Q1016 NOSIG
YBBN,2010-11-03 03:30,153.1292,-27.3917,77.00,59.00,53.80,110.00,12.00,M,30.00,M,6.21,M,FEW,SCT,M,M,2400.00,3200.00,M,M,M,YBBN 030330Z 11012KT 9999 FEW024 SCT032 25/15 Q1016 NOSIG
YBBN,2010-11-03 04:00,153.1292,-27.3917,75.20,57.20,53.55,110.00,12.00,M,30.00,M,6.21,M,SCT,M,M,M,3200.00,M,M,M,M,YBBN 030400Z 11012KT 9999 SCT032 24/14 Q1016 NOSIG
YBBN,2010-11-03 04:30,153.1292,-27.3917,75.20,59.00,57.12,110.00,9.00,M,30.00,M,6.21,M,SCT,M,M,M,3200.00,M,M,M,M,YBBN 030430Z 11009KT 9999 SCT032 24/15 Q1016 RMK DISTANT SHOWER TO W NOSIG
YBBN,2010-11-03 05:00,153.1292,-27.3917,75.20,57.20,53.55,100.00,11.00,M,29.97,M,6.21,M,FEW,M,M,M,3000.00,M,M,M,M,YBBN 030500Z 10011KT 9999 FEW030 24/14 Q1015 NOSIG
YBBN,2010-11-03 05:30,153.1292,-27.3917,73.40,57.20,56.88,100.00,11.00,M,29.97,M,6.21,M,SCT,M,M,M,3200.00,M,M,M,M,YBBN 030530Z 10011KT 9999 SCT032 23/14 Q1015 NOSIG
YBBN,2010-11-03 06:00,153.1292,-27.3917,73.40,57.20,56.88,90.00,10.00,M,30.00,M,6.21,M,FEW,SCT,M,M,3200.00,4800.00,M,M,M,YBBN 030600Z 09010KT 9999 FEW032 SCT048 23/14 Q1016 NOSIG
YBBN,2010-11-03 06:30,153.1292,-27.3917,73.40,57.20,56.88,70.00,11.00,M,30.00,M,6.21,M,FEW,BKN,M,M,3200.00,32000.00,M,M,M,YBBN 030630Z 07011KT 9999 FEW032 BKN320 23/14 Q1016 NOSIG
YBBN,2010-11-03 07:00,153.1292,-27.3917,71.60,57.20,60.44,80.00,10.00,M,30.00,M,6.21,M,FEW,BKN,M,M,3200.00,32000.00,M,M,M,YBBN 030700Z 08010KT 9999 FEW032 BKN320 22/14 Q1016 NOSIG
YBBN,2010-11-03 07:30,153.1292,-27.3917,71.60,57.20,60.44,80.00,9.00,M,30.03,M,6.21,M,FEW,BKN,M,M,3200.00,32000.00,M,M,M,YBBN 030730Z 08009KT 9999 FEW032 BKN320 22/14 Q1017 NOSIG
YBBN,2010-11-03 08:00,153.1292,-27.3917,71.60,57.20,60.44,80.00,7.00,M,30.03,M,6.21,M,FEW,BKN,M,M,2500.00,32000.00,M,M,M,YBBN 030800Z 08007KT 9999 FEW025 BKN320 22/14 Q1017 NOSIG
YBBN,2010-11-03 08:30,153.1292,-27.3917,71.60,57.20,60.44,70.00,9.00,M,30.03,M,6.21,M,FEW,BKN,M,M,2500.00,32000.00,M,M,M,YBBN 030830Z 07009KT 9999 FEW025 BKN320 22/14 Q1017 NOSIG
YBBN,2010-11-03 09:00,153.1292,-27.3917,71.60,57.20,60.44,70.00,8.00,M,30.06,M,6.21,M,FEW,BKN,M,M,2500.00,32000.00,M,M,M,YBBN 030900Z 07008KT 9999 FEW025 BKN320 22/14 Q1018 NOSIG
YBBN,2010-11-03 09:30,153.1292,-27.3917,71.60,57.20,60.44,70.00,8.00,M,30.06,M,6.21,M,FEW,BKN,M,M,2000.00,32000.00,M,M,M,YBBN 030930Z 07008KT 9999 FEW020 BKN320 22/14 Q1018 NOSIG
YBBN,2010-11-03 10:00,153.1292,-27.3917,71.60,57.20,60.44,70.00,8.00,M,30.06,M,6.21,M,FEW,BKN,M,M,4500.00,32000.00,M,M,M,YBBN 031000Z 07008KT 9999 FEW045 BKN320 22/14 Q1018 NOSIG
YBBN,2010-11-03 10:30,153.1292,-27.3917,71.60,59.00,64.48,70.00,8.00,M,30.06,M,6.21,M,FEW,SCT,BKN,M,2500.00,4000.00,24000.00,M,M,YBBN 031030Z 07008KT 9999 FEW025 SCT040 BKN240 22/15 Q1018 NOSIG
YBBN,2010-11-03 11:00,153.1292,-27.3917,71.60,59.00,64.48,70.00,8.00,M,30.06,M,6.21,M,FEW,BKN,M,M,2500.00,24000.00,M,M,M,YBBN 031100Z 07008KT 9999 FEW025 BKN240 22/15 Q1018 NOSIG
YBBN,2010-11-03 11:30,153.1292,-27.3917,71.60,59.00,64.48,70.00,7.00,M,30.06,M,6.21,M,FEW,BKN,BKN,M,2500.00,4000.00,24000.00,M,M,YBBN 031130Z 07007KT 9999 FEW025 BKN040 BKN240 22/15 Q1018 NOSIG
YBBN,2010-11-03 12:00,153.1292,-27.3917,71.60,59.00,64.48,70.00,8.00,M,30.06,M,6.21,M,FEW,BKN,M,M,2500.00,4500.00,M,M,M,YBBN 031200Z 07008KT 9999 FEW025 BKN045 22/15 Q1018 NOSIG
YBBN,2010-11-03 12:30,153.1292,-27.3917,71.60,59.00,64.48,70.00,8.00,M,30.06,M,6.21,M,FEW,SCT,BKN,M,2500.00,4000.00,23000.00,M,M,YBBN 031230Z 07008KT 9999 FEW025 SCT040 BKN230 22/15 Q1018 NOSIG
YBBN,2010-11-03 13:00,153.1292,-27.3917,71.60,59.00,64.48,60.00,8.00,M,30.06,M,6.21,M,FEW,BKN,M,M,2500.00,4000.00,M,M,M,YBBN 031300Z 06008KT 9999 FEW025 BKN040 22/15 Q1018 NOSIG
YBBN,2010-11-03 13:30,153.1292,-27.3917,71.60,59.00,64.48,60.00,7.00,M,30.03,M,6.21,M,FEW,BKN,M,M,2500.00,4000.00,M,M,M,YBBN 031330Z 06007KT 9999 FEW025 BKN040 22/15 Q1017 NOSIG
YBBN,2010-11-03 14:00,153.1292,-27.3917,71.60,59.00,64.48,70.00,8.00,M,30.03,M,6.21,M,FEW,BKN,M,M,2500.00,22000.00,M,M,M,YBBN 031400Z 07008KT 9999 FEW025 BKN220 22/15 Q1017 NOSIG
YBBN,2010-11-03 14:30,153.1292,-27.3917,71.60,59.00,64.48,70.00,7.00,M,30.03,M,6.21,M,FEW,SCT,BKN,M,2500.00,4000.00,21000.00,M,M,YBBN 031430Z 07007KT 9999 FEW025 SCT040 BKN210 22/15 Q1017 NOSIG
YBBN,2010-11-03 15:00,153.1292,-27.3917,71.60,59.00,64.48,70.00,6.00,M,30.00,M,6.21,M,FEW,SCT,BKN,M,2500.00,4000.00,21000.00,M,M,YBBN 031500Z 07006KT 9999 FEW025 SCT040 BKN210 22/15 Q1016 NOSIG
YBBN,2010-11-03 15:30,153.1292,-27.3917,71.60,59.00,64.48,70.00,7.00,M,30.00,M,6.21,M,FEW,BKN,BKN,M,2500.00,4000.00,21000.00,M,M,YBBN 031530Z 07007KT 9999 FEW025 BKN040 BKN210 22/15 Q1016 NOSIG
YBBN,2010-11-03 16:00,153.1292,-27.3917,71.60,59.00,64.48,70.00,6.00,M,30.00,M,6.21,M,FEW,BKN,M,M,2000.00,4000.00,M,M,M,YBBN 031600Z 07006KT 9999 FEW020 BKN040 22/15 Q1016 NOSIG
YBBN,2010-11-03 16:30,153.1292,-27.3917,71.60,59.00,64.48,70.00,5.00,M,30.00,M,6.21,M,FEW,BKN,M,M,2500.00,4000.00,M,M,M,YBBN 031630Z 07005KT 9999 FEW025 BKN040 22/15 Q1016 NOSIG
YBBN,2010-11-03 17:00,153.1292,-27.3917,69.80,60.80,73.09,70.00,6.00,M,30.00,M,6.21,M,FEW,SCT,BKN,M,2500.00,4500.00,20000.00,M,M,YBBN 031700Z 07006KT 9999 FEW025 SCT045 BKN200 21/16 Q1016 NOSIG
YBBN,2010-11-03 17:30,153.1292,-27.3917,69.80,60.80,73.09,70.00,7.00,M,30.00,M,6.21,M,FEW,BKN,BKN,M,2500.00,5000.00,20000.00,M,M,YBBN 031730Z 07007KT 9999 FEW025 BKN050 BKN200 21/16 Q1016 NOSIG
YBBN,2010-11-03 18:00,153.1292,-27.3917,69.80,60.80,73.09,90.00,5.00,M,30.00,M,6.21,M,FEW,SCT,BKN,M,2500.00,4500.00,18000.00,M,M,YBBN 031800Z 09005KT 9999 FEW025 SCT045 BKN180 21/16 Q1016 NOSIG
YBBN,2010-11-03 20:00,153.1292,-27.3917,71.60,60.80,68.75,70.00,8.00,M,30.03,M,6.21,M,FEW,SCT,BKN,M,3000.00,4800.00,9000.00,M,M,YBBN 032000Z 07008KT 9999 FEW030 SCT048 BKN090 22/16 Q1017 RMK DIST RASH INTER 2030/2300 3000 SHRA BKN012
YBBN,2010-11-03 20:30,153.1292,-27.3917,71.60,60.80,68.75,70.00,8.00,M,30.03,M,6.21,M,FEW,SCT,BKN,M,1800.00,4500.00,9500.00,M,M,YBBN 032030Z 07008KT 9999 FEW018 SCT045 BKN095 22/16 Q1017 RMK DISTANT SHOWERS INTER 2030/2330 3000 SHRA BKN012
