#DEBUG: Format Typ    -> comma
#DEBUG: Time Period   -> 2014-11-18 00:00:00+00:00 2014-11-19 00:00:00+00:00
#DEBUG: Time Zone     -> Etc/UTC
#DEBUG: Data Contact   -> daryl herzmann akrherz@iastate.edu 515-294-5978
#DEBUG: Entries Found -> -1
station,valid,lon,lat,tmpf, dwpf, relh, drct, sknt, p01i, alti, mslp, vsby, gust, skyc1, skyc2, skyc3, skyc4, skyl1, skyl2, skyl3, skyl4, presentwx, metar
YBBN,2014-11-18 00:00,153.1292,-27.3917,78.80,71.60,78.62,50.00,9.00,0.00,29.97,M,6.21,M,SCT,BKN,BKN,M,1100.00,1800.00,4500.00,M,-SHRA,YBBN 180000Z 05009KT 9999 -SHRA SCT011 BKN018 BKN045 26/22 Q1015 TEMPO 0000/0300 4000 SHRA BKN012
YBBN,2014-11-18 00:16,153.1292,-27.3917,78.80,71.60,78.62,60.00,9.00,0.00,29.97,M,6.21,M,BKN,BKN,BKN,M,1300.00,1800.00,4500.00,M,-SHRA,YBBN 180016Z 06009KT 9999 -SHRA BKN013 BKN018 BKN045 26/22 Q1015
YBBN,2014-11-18 00:30,153.1292,-27.3917,77.00,73.40,88.67,50.00,10.00,0.00,29.97,M,5.59,M,BKN,BKN,BKN,M,1000.00,1400.00,4500.00,M,-SHRA,YBBN 180030Z 05010KT 9000 -SHRA BKN010 BKN014 BKN045 25/23 Q1015
YBBN,2014-11-18 01:00,153.1292,-27.3917,77.00,73.40,88.67,50.00,9.00,0.00,29.97,M,4.97,M,FEW,BKN,M,M,900.00,1000.00,M,M,DZ,YBBN 180100Z 05009KT 8000 DZ FEW009 BKN010 25/23 Q1015
YBBN,2014-11-18 01:30,153.1292,-27.3917,77.00,73.40,88.67,40.00,9.00,0.00,29.97,M,4.97,M,BKN,BKN,BKN,M,900.00,1100.00,4500.00,M,DZ,YBBN 180130Z 04009KT 8000 DZ BKN009 BKN011 BKN045 25/23 Q1015
YBBN,2014-11-18 01:50,153.1292,-27.3917,77.00,73.40,88.67,60.00,7.00,0.00,29.97,M,3.11,M,BKN,BKN,BKN,M,900.00,1100.00,4500.00,M,SHRA,YBBN 180150Z 06007KT 5000 SHRA BKN009 BKN011 BKN045 25/23 Q1015
YBBN,2014-11-18 01:57,153.1292,-27.3917,77.00,73.40,88.67,60.00,7.00,0.00,29.97,M,1.86,M,BKN,BKN,BKN,M,900.00,1100.00,4500.00,M,SHRA,YBBN 180157Z 06007KT 3000 SHRA BKN009 BKN011 BKN045 25/23 Q1015
YBBN,2014-11-18 02:00,153.1292,-27.3917,77.00,75.20,94.19,50.00,7.00,0.00,29.97,M,1.24,M,BKN,BKN,BKN,M,900.00,1100.00,4500.00,M,+SHRA,YBBN 180200Z 05007KT 2000 +SHRA BKN009 BKN011 BKN045 25/24 Q1015 RESHRA
YBBN,2014-11-18 02:17,153.1292,-27.3917,75.20,73.40,94.14,30.00,7.00,0.00,29.97,M,0.87,M,BKN,BKN,BKN,M,900.00,1100.00,4500.00,M,+SHRA,YBBN 180217Z 03007KT 1400 +SHRA BKN009 BKN011 BKN045 24/23 Q1015 RESHRA
YBBN,2014-11-18 02:22,153.1292,-27.3917,75.20,73.40,94.14,30.00,9.00,0.00,29.94,M,2.49,M,SCT,BKN,BKN,M,700.00,900.00,1300.00,M,+SHRA,YBBN 180222Z 03009KT 4000 2000S +SHRA SCT007 BKN009 BKN013 24/23 Q1014 RESHRA
YBBN,2014-11-18 02:25,153.1292,-27.3917,75.20,73.40,94.14,50.00,10.00,0.00,29.94,M,4.97,M,SCT,BKN,BKN,M,700.00,900.00,1300.00,M,SHRA,YBBN 180225Z 05010KT 8000 3000S SHRA SCT007 BKN009 BKN013 24/23 Q1014 RESHRA
YBBN,2014-11-18 02:30,153.1292,-27.3917,75.20,73.40,94.14,40.00,10.00,0.00,29.94,M,4.97,M,FEW,BKN,BKN,M,600.00,900.00,1300.00,M,SHRA,YBBN 180230Z 04010KT 8000 SHRA FEW006 BKN009 BKN013 24/23 Q1014 RESHRA
YBBN,2014-11-18 02:51,153.1292,-27.3917,77.00,73.40,88.67,50.00,9.00,0.00,29.94,M,6.21,M,FEW,SCT,BKN,M,600.00,1000.00,1800.00,M,VCSH,YBBN 180251Z 05009KT 9999 VCSH FEW006 SCT010 BKN018 25/23 Q1014
YBBN,2014-11-18 03:00,153.1292,-27.3917,77.00,73.40,88.67,50.00,8.00,0.00,29.94,M,6.21,M,FEW,SCT,BKN,M,900.00,1800.00,3300.00,M,M,YBBN 180300Z 05008KT 9999 FEW009 SCT018 BKN033 25/23 Q1014 TEMPO 0300/0400 4000 SHRA BKN010 INTER 0400/0600 4000 SHRA BKN012
YBBN,2014-11-18 03:30,153.1292,-27.3917,78.80,73.40,83.55,40.00,10.00,0.00,29.91,M,6.21,M,SCT,SCT,BKN,M,1200.00,1800.00,4500.00,M,M,YBBN 180330Z 04010KT 9999 SCT012 SCT018 BKN045 26/23 Q1013
YBBN,2014-11-18 04:00,153.1292,-27.3917,80.60,73.40,78.76,60.00,9.00,0.00,29.91,M,6.21,M,SCT,SCT,M,M,1400.00,2200.00,M,M,M,YBBN 180400Z 06009KT 9999 SCT014 SCT022 27/23 Q1013 INTER 0400/0700 4000 SHRA BKN012
YBBN,2014-11-18 04:30,153.1292,-27.3917,80.60,75.20,83.66,50.00,9.00,0.00,29.91,M,6.21,M,FEW,SCT,M,M,1500.00,2200.00,M,M,M,YBBN 180430Z 05009KT 9999 FEW015 SCT022 27/24 Q1013
YBBN,2014-11-18 05:00,153.1292,-27.3917,80.60,71.60,74.11,40.00,11.00,0.00,29.88,M,6.21,M,FEW,M,M,M,1500.00,M,M,M,M,YBBN 180500Z 04011KT 9999 FEW015 27/22 Q1012 INTER 0500/0800 4000 SHRA BKN012
YBBN,2014-11-18 05:30,153.1292,-27.3917,80.60,73.40,78.76,30.00,11.00,0.00,29.88,M,6.21,M,FEW,M,M,M,1700.00,M,M,M,M,YBBN 180530Z 03011KT 9999 FEW017 27/23 Q1012
YBBN,2014-11-18 06:00,153.1292,-27.3917,80.60,73.40,78.76,20.00,13.00,0.00,29.88,M,6.21,M,SCT,M,M,M,1500.00,M,M,M,M,YBBN 180600Z 02013KT 9999 SCT015 27/23 Q1012
YBBN,2014-11-18 06:30,153.1292,-27.3917,78.80,73.40,83.55,20.00,12.00,0.00,29.88,M,6.21,M,SCT,M,M,M,1500.00,M,M,M,M,YBBN 180630Z 02012KT 9999 SCT015 26/23 Q1012
YBBN,2014-11-18 07:00,153.1292,-27.3917,78.80,73.40,83.55,20.00,13.00,0.00,29.91,M,6.21,M,FEW,M,M,M,1200.00,M,M,M,M,YBBN 180700Z 02013KT 9999 FEW012 26/23 Q1013
YBBN,2014-11-18 07:30,153.1292,-27.3917,77.00,73.40,88.67,20.00,13.00,0.00,29.91,M,6.21,M,FEW,BKN,M,M,1000.00,28000.00,M,M,M,YBBN 180730Z 02013KT 9999 FEW010 BKN280 25/23 Q1013
YBBN,2014-11-18 08:00,153.1292,-27.3917,77.00,73.40,88.67,20.00,12.00,0.00,29.91,M,6.21,M,SCT,BKN,M,M,1000.00,28000.00,M,M,M,YBBN 180800Z 02012KT 9999 SCT010 BKN280 25/23 Q1013
YBBN,2014-11-18 08:08,153.1292,-27.3917,77.00,73.40,88.67,20.00,13.00,0.00,29.91,M,6.21,M,BKN,BKN,M,M,1200.00,28000.00,M,M,M,YBBN 180808Z 02013KT 9999 BKN012 BKN280 25/23 Q1013
YBBN,2014-11-18 08:30,153.1292,-27.3917,77.00,71.60,83.44,10.00,15.00,0.00,29.94,M,6.21,M,FEW,SCT,M,M,1200.00,28000.00,M,M,M,YBBN 180830Z 01015KT 9999 FEW012 SCT280 25/22 Q1014
YBBN,2014-11-18 09:00,153.1292,-27.3917,77.00,73.40,88.67,10.00,14.00,0.00,29.94,M,6.21,M,FEW,SCT,M,M,1000.00,28000.00,M,M,M,YBBN 180900Z 01014KT 9999 FEW010 SCT280 25/23 Q1014
YBBN,2014-11-18 09:30,153.1292,-27.3917,77.00,73.40,88.67,10.00,11.00,0.00,29.94,M,6.21,M,FEW,SCT,M,M,1200.00,28000.00,M,M,M,YBBN 180930Z 01011KT 9999 FEW012 SCT280 25/23 Q1014
YBBN,2014-11-18 10:00,153.1292,-27.3917,75.20,71.60,88.59,360.00,8.00,0.00,29.94,M,6.21,M,FEW,SCT,M,M,1400.00,28000.00,M,M,M,YBBN 181000Z 36008KT 9999 FEW014 SCT280 24/22 Q1014
YBBN,2014-11-18 10:30,153.1292,-27.3917,77.00,71.60,83.44,40.00,6.00,0.00,29.97,M,6.21,M,FEW,SCT,M,M,1400.00,28000.00,M,M,M,YBBN 181030Z 04006KT 9999 FEW014 SCT280 25/22 Q1015
YBBN,2014-11-18 11:00,153.1292,-27.3917,75.20,71.60,88.59,30.00,7.00,0.00,29.97,M,6.21,M,FEW,SCT,M,M,1400.00,23000.00,M,M,M,YBBN 181100Z 03007KT 9999 FEW014 SCT230 24/22 Q1015
YBBN,2014-11-18 11:30,153.1292,-27.3917,77.00,71.60,83.44,30.00,8.00,0.00,29.97,M,6.21,M,FEW,SCT,M,M,1200.00,23000.00,M,M,M,YBBN 181130Z 03008KT 9999 FEW012 SCT230 25/22 Q1015
YBBN,2014-11-18 12:00,153.1292,-27.3917,75.20,73.40,94.14,30.00,8.00,0.00,30.00,M,6.21,M,FEW,SCT,M,M,1000.00,24000.00,M,M,M,YBBN 181200Z 03008KT 9999 FEW010 SCT240 24/23 Q1016 TEMPO 1200/1400 BKN010 TEMPO 1400/1500 3000 DZ BKN008
YBBN,2014-11-18 12:30,153.1292,-27.3917,75.20,73.40,94.14,30.00,8.00,0.00,29.97,M,6.21,M,FEW,SCT,M,M,900.00,24000.00,M,M,M,YBBN 181230Z 03008KT 9999 FEW009 SCT240 24/23 Q1015
YBBN,2014-11-18 13:00,153.1292,-27.3917,77.00,73.40,88.67,30.00,8.00,0.00,29.97,M,6.21,M,FEW,SCT,M,M,900.00,23000.00,M,M,M,YBBN 181300Z 03008KT 9999 FEW009 SCT230 25/23 Q1015
YBBN,2014-11-18 13:19,153.1292,-27.3917,77.00,73.40,88.67,40.00,9.00,0.00,29.97,M,6.21,M,FEW,BKN,M,M,700.00,1000.00,M,M,M,YBBN 181319Z 04009KT 9999 FEW007 BKN010 25/23 Q1015
YBBN,2014-11-18 13:30,153.1292,-27.3917,77.00,73.40,88.67,30.00,9.00,0.00,29.97,M,6.21,M,FEW,BKN,M,M,700.00,900.00,M,M,M,YBBN 181330Z 03009KT 9999 FEW007 BKN009 25/23 Q1015
YBBN,2014-11-18 14:00,153.1292,-27.3917,75.20,73.40,94.14,20.00,9.00,0.00,29.97,M,6.21,M,FEW,BKN,M,M,800.00,1600.00,M,M,M,YBBN 181400Z 02009KT 9999 FEW008 BKN016 24/23 Q1015
YBBN,2014-11-18 14:30,153.1292,-27.3917,77.00,73.40,88.67,10.00,9.00,0.00,29.97,M,6.21,M,FEW,SCT,M,M,1200.00,1800.00,M,M,M,YBBN 181430Z 01009KT 9999 FEW012 SCT018 25/23 Q1015
YBBN,2014-11-18 15:00,153.1292,-27.3917,75.20,71.60,88.59,310.00,6.00,0.00,29.94,M,6.21,M,FEW,SCT,M,M,1500.00,2000.00,M,M,M,YBBN 181500Z 31006KT 9999 FEW015 SCT020 24/22 Q1014 TEMPO 1500/1800 3000 DZ BKN008
YBBN,2014-11-18 15:30,153.1292,-27.3917,75.20,71.60,88.59,330.00,4.00,0.00,29.94,M,6.21,M,FEW,SCT,M,M,1500.00,2300.00,M,M,M,YBBN 181530Z 33004KT 9999 FEW015 SCT023 24/22 Q1014
YBBN,2014-11-18 16:00,153.1292,-27.3917,75.20,71.60,88.59,0.00,0.00,0.00,29.94,M,6.21,M,FEW,BKN,M,M,1500.00,2400.00,M,M,M,YBBN 181600Z 00000KT 9999 FEW015 BKN024 24/22 Q1014 TEMPO 1600/1900 3000 DZ BKN008
YBBN,2014-11-18 16:30,153.1292,-27.3917,75.20,71.60,88.59,0.00,0.00,0.00,29.94,M,6.21,M,FEW,BKN,M,M,1500.00,2300.00,M,M,M,YBBN 181630Z 00000KT 9999 FEW015 BKN023 24/22 Q1014
YBBN,2014-11-18 17:00,153.1292,-27.3917,75.20,71.60,88.59,0.00,0.00,0.00,29.94,M,6.21,M,FEW,BKN,M,M,1200.00,1400.00,M,M,M,YBBN 181700Z 00000KT 9999 FEW012 BKN014 24/22 Q1014
YBBN,2014-11-18 17:07,153.1292,-27.3917,75.20,71.60,88.59,0.00,0.00,0.00,29.94,M,6.21,M,BKN,OVC,M,M,1400.00,1900.00,M,M,-SHRA,YBBN 181707Z AUTO 00000KT 9999 -SHRA BKN014 OVC019 24/22 Q1014
YBBN,2014-11-18 17:30,153.1292,-27.3917,75.20,71.60,88.59,0.00,0.00,0.00,29.94,M,6.21,M,FEW,SCT,BKN,M,1300.00,1800.00,4000.00,M,M,YBBN 181730Z 00000KT 9999 FEW013 SCT018 BKN040 24/22 Q1014
YBBN,2014-11-18 18:00,153.1292,-27.3917,75.20,71.60,88.59,0.00,0.00,0.00,29.94,M,6.21,M,FEW,SCT,BKN,M,1400.00,1900.00,4800.00,M,M,YBBN 181800Z 00000KT 9999 FEW014 SCT019 BKN048 24/22 Q1014
YBBN,2014-11-18 18:30,153.1292,-27.3917,75.20,71.60,88.59,0.00,0.00,0.00,29.97,M,6.21,M,FEW,SCT,BKN,M,1400.00,1900.00,5000.00,M,M,YBBN 181830Z 00000KT 9999 FEW014 SCT019 BKN050 24/22 Q1015
YBBN,2014-11-18 19:00,153.1292,-27.3917,75.20,71.60,88.59,0.00,0.00,0.00,29.97,M,6.21,M,FEW,BKN,M,M,800.00,5200.00,M,M,M,YBBN 181900Z 00000KT 9999 FEW008 BKN052 24/22 Q1015
YBBN,2014-11-18 19:30,153.1292,-27.3917,75.20,73.40,94.14,30.00,6.00,0.00,29.97,M,6.21,M,FEW,SCT,BKN,M,800.00,1200.00,5400.00,M,M,YBBN 181930Z 03006KT 9999 FEW008 SCT012 BKN054 24/23 Q1015
YBBN,2014-11-18 20:00,153.1292,-27.3917,77.00,73.40,88.67,20.00,6.00,0.00,30.00,M,6.21,M,FEW,SCT,BKN,M,900.00,1200.00,5500.00,M,M,YBBN 182000Z 02006KT 9999 FEW009 SCT012 BKN055 25/23 Q1016 TEMPO 2000/2300 3000 SHRA BKN010
YBBN,2014-11-18 20:30,153.1292,-27.3917,77.00,73.40,88.67,40.00,6.00,0.00,30.00,M,6.21,M,FEW,SCT,BKN,M,900.00,2000.00,5600.00,M,VCSH,YBBN 182030Z 04006KT 9999 VCSH FEW009 SCT020 BKN056 25/23 Q1016
YBBN,2014-11-18 21:00,153.1292,-27.3917,77.00,73.40,88.67,50.00,7.00,0.00,30.03,M,6.21,M,FEW,SCT,BKN,M,800.00,2200.00,5500.00,M,M,YBBN 182100Z 05007KT 9999 FEW008 SCT022 BKN055 25/23 Q1017
YBBN,2014-11-18 21:30,153.1292,-27.3917,78.80,73.40,83.55,50.00,9.00,0.00,30.03,M,6.21,M,BKN,M,M,M,1200.00,M,M,M,M,YBBN 182130Z 05009KT 9999 BKN012 26/23 Q1017
YBBN,2014-11-18 22:00,153.1292,-27.3917,78.80,73.40,83.55,50.00,9.00,0.00,30.03,M,6.21,M,FEW,BKN,M,M,1400.00,2400.00,M,M,VCSH,YBBN 182200Z 05009KT 9999 VCSH FEW014 BKN024 26/23 Q1017
YBBN,2014-11-18 22:30,153.1292,-27.3917,80.60,73.40,78.76,50.00,9.00,0.00,30.03,M,6.21,M,FEW,SCT,BKN,M,900.00,2400.00,9500.00,M,M,YBBN 182230Z 05009KT 9999 FEW009 SCT024 BKN095 27/23 Q1017
YBBN,2014-11-18 23:00,153.1292,-27.3917,80.60,71.60,74.11,60.00,8.00,0.00,30.03,M,6.21,M,FEW,BKN,BKN,M,1800.00,2500.00,6000.00,M,VCSH,YBBN 182300Z 06008KT 9999 VCSH FEW018 BKN025 BKN060 27/22 Q1017 INTER 2300/0200 3000 SHRA BKN010
YBBN,2014-11-18 23:30,153.1292,-27.3917,82.40,71.60,69.90,80.00,9.00,0.00,30.03,M,6.21,M,FEW,SCT,FEW,M,1200.00,2500.00,2600.00,M,M,YBBN 182330Z 08009KT 9999 FEW012 SCT025 FEW026TCU 28/22 Q1017
