#DEBUG: Format Typ    -> comma
#DEBUG: Time Period   -> 2012-04-08 00:00:00+00:00 2012-04-09 00:00:00+00:00
#DEBUG: Time Zone     -> Etc/UTC
#DEBUG: Data Contact   -> daryl herzmann akrherz@iastate.edu 515-294-5978
#DEBUG: Entries Found -> -1
station,valid,lon,lat,tmpf, dwpf, relh, drct, sknt, p01i, alti, mslp, vsby, gust, skyc1, skyc2, skyc3, skyc4, skyl1, skyl2, skyl3, skyl4, presentwx, metar
YBBN,2012-04-08 00:00,153.1292,-27.3917,75.20,60.80,60.90,140.00,5.00,0.00,30.09,M,6.21,M,FEW,SCT,BKN,M,2500.00,2900.00,10000.00,M,VCSH,YBBN 080000Z 14005KT 9999 VCSH FEW025 SCT029 BKN100 24/16 Q1019 RMK SH N/SE
YBBN,2012-04-08 00:30,153.1292,-27.3917,75.20,64.40,69.14,90.00,8.00,0.00,30.09,M,6.21,M,FEW,BKN,M,M,2200.00,2900.00,M,M,VCSH,YBBN 080030Z 09008KT 9999 VCSH FEW022 BKN029 24/18 Q1019
YBBN,2012-04-08 01:00,153.1292,-27.3917,77.00,62.60,61.13,100.00,7.00,0.00,30.09,M,6.21,M,FEW,SCT,BKN,M,2200.00,3200.00,10000.00,M,VCSH,YBBN 080100Z 10007KT 9999 VCSH FEW022 SCT032 BKN100 25/17 Q1019
YBBN,2012-04-08 01:30,153.1292,-27.3917,78.80,62.60,57.60,80.00,9.00,0.00,30.09,M,6.21,M,FEW,SCT,BKN,M,2300.00,3200.00,10500.00,M,VCSH,YBBN 080130Z 08009KT 9999 VCSH FEW023 SCT032 BKN105 26/17 Q1019
YBBN,2012-04-08 02:00,153.1292,-27.3917,78.80,64.40,61.36,40.00,11.00,0.00,30.06,M,6.21,M,FEW,SCT,BKN,M,2300.00,3300.00,10500.00,M,VCSH,YBBN 080200Z 04011KT 9999 VCSH FEW023 SCT033 BKN105 26/18 Q1018 NOSIG
YBBN,2012-04-08 02:30,153.1292,-27.3917,77.00,64.40,65.12,50.00,10.00,0.00,30.06,M,6.21,M,FEW,SCT,M,M,2400.00,3200.00,M,M,VCSH,YBBN 080230Z 05010KT 9999 VCSH FEW024 SCT032 25/18 Q1018
YBBN,2012-04-08 03:00,153.1292,-27.3917,77.00,66.20,69.33,60.00,10.00,0.00,30.06,M,6.21,M,FEW,SCT,M,M,2200.00,3300.00,M,M,-SHRA VCSH,YBBN 080300Z 06010KT 9999 -SHRA VCSH FEW022 SCT033 25/19 Q1018
YBBN,2012-04-08 03:30,153.1292,-27.3917,77.00,64.40,65.12,60.00,10.00,0.00,30.03,M,6.21,M,FEW,SCT,M,M,2500.00,3500.00,M,M,-SHRA VCSH,YBBN 080330Z 06010KT 9999 -SHRA VCSH FEW025 SCT035 25/18 Q1017
YBBN,2012-04-08 04:00,153.1292,-27.3917,77.00,64.40,65.12,60.00,7.00,0.00,30.03,M,6.21,M,FEW,SCT,FEW,M,2500.00,3600.00,3700.00,M,VCSH,YBBN 080400Z 06007KT 9999 VCSH FEW025 SCT036 FEW037TCU 25/18 Q1017 NOSIG
YBBN,2012-04-08 04:30,153.1292,-27.3917,77.00,64.40,65.12,60.00,9.00,0.00,30.03,M,6.21,M,FEW,SCT,M,M,2400.00,3600.00,M,M,VCSH,YBBN 080430Z 06009KT 9999 VCSH FEW024 SCT036 25/18 Q1017
YBBN,2012-04-08 05:00,153.1292,-27.3917,77.00,64.40,65.12,60.00,9.00,0.00,30.03,M,6.21,M,FEW,SCT,M,M,2500.00,3600.00,M,M,VCSH,YBBN 080500Z 06009KT 9999 VCSH FEW025 SCT036 25/18 Q1017
YBBN,2012-04-08 05:30,153.1292,-27.3917,77.00,64.40,65.12,60.00,8.00,0.00,30.03,M,6.21,M,FEW,SCT,M,M,2500.00,5800.00,M,M,VCSH,YBBN 080530Z 06008KT 9999 VCSH FEW025 SCT058 25/18 Q1017
YBBN,2012-04-08 06:00,153.1292,-27.3917,77.00,64.40,65.12,70.00,7.00,0.00,30.03,M,6.21,M,FEW,SCT,M,M,2800.00,11000.00,M,M,VCSH,YBBN 080600Z 07007KT 9999 VCSH FEW028 SCT110 25/18 Q1017 NOSIG
YBBN,2012-04-08 06:30,153.1292,-27.3917,75.20,64.40,69.14,70.00,8.00,0.00,30.03,M,6.21,M,FEW,SCT,M,M,2300.00,11000.00,M,M,VCSH,YBBN 080630Z 07008KT 9999 VCSH FEW023 SCT110 24/18 Q1017
YBBN,2012-04-08 07:00,153.1292,-27.3917,75.20,66.20,73.61,60.00,7.00,0.00,30.03,M,6.21,M,FEW,SCT,M,M,2300.00,11000.00,M,M,M,YBBN 080700Z 06007KT 9999 FEW023 SCT110 24/19 Q1017 NOSIG
YBBN,2012-04-08 07:30,153.1292,-27.3917,73.40,64.40,73.44,70.00,5.00,0.00,30.03,M,6.21,M,FEW,M,M,M,2400.00,M,M,M,M,YBBN 080730Z 07005KT 9999 FEW024 23/18 Q1017
YBBN,2012-04-08 08:00,153.1292,-27.3917,73.40,64.40,73.44,70.00,5.00,0.00,30.03,M,6.21,M,FEW,M,M,M,2300.00,M,M,M,M,YBBN 080800Z 07005KT 9999 FEW023 23/18 Q1017 NOSIG
YBBN,2012-04-08 08:30,153.1292,-27.3917,71.60,64.40,78.04,90.00,3.00,0.00,30.03,M,6.21,M,FEW,M,M,M,2300.00,M,M,M,M,YBBN 080830Z 09003KT 9999 FEW023 22/18 Q1017
YBBN,2012-04-08 09:00,153.1292,-27.3917,71.60,64.40,78.04,70.00,4.00,0.00,30.06,M,6.21,M,FEW,M,M,M,2300.00,M,M,M,M,YBBN 080900Z 07004KT 9999 FEW023 22/18 Q1018
YBBN,2012-04-08 09:30,153.1292,-27.3917,71.60,60.80,68.75,70.00,5.00,0.00,30.06,M,6.21,M,FEW,M,M,M,2500.00,M,M,M,M,YBBN 080930Z 07005KT 9999 FEW025 22/16 Q1018
YBBN,2012-04-08 10:00,153.1292,-27.3917,69.80,62.60,77.90,60.00,5.00,0.00,30.06,M,6.21,M,FEW,M,M,M,2500.00,M,M,M,M,YBBN 081000Z 06005KT 9999 FEW025 21/17 Q1018
YBBN,2012-04-08 10:30,153.1292,-27.3917,69.80,62.60,77.90,40.00,4.00,0.00,30.06,M,6.21,M,FEW,M,M,M,2500.00,M,M,M,M,YBBN 081030Z 04004KT 9999 FEW025 21/17 Q1018
YBBN,2012-04-08 11:00,153.1292,-27.3917,68.00,62.60,82.86,30.00,5.00,0.00,30.06,M,6.21,M,FEW,SCT,M,M,2500.00,26000.00,M,M,M,YBBN 081100Z 03005KT 9999 FEW025 SCT260 20/17 Q1018
YBBN,2012-04-08 11:30,153.1292,-27.3917,69.80,62.60,77.90,40.00,6.00,0.00,30.06,M,6.21,M,FEW,SCT,M,M,2500.00,26000.00,M,M,M,YBBN 081130Z 04006KT 9999 FEW025 SCT260 21/17 Q1018
YBBN,2012-04-08 12:00,153.1292,-27.3917,69.80,62.60,77.90,50.00,4.00,0.00,30.06,M,6.21,M,FEW,BKN,M,M,2500.00,32000.00,M,M,M,YBBN 081200Z 05004KT 9999 FEW025 BKN320 21/17 Q1018
YBBN,2012-04-08 12:30,153.1292,-27.3917,69.80,62.60,77.90,40.00,3.00,0.00,30.06,M,6.21,M,FEW,BKN,M,M,2500.00,32000.00,M,M,M,YBBN 081230Z 04003KT 9999 FEW025 BKN320 21/17 Q1018
YBBN,2012-04-08 13:00,153.1292,-27.3917,68.00,62.60,82.86,30.00,4.00,0.00,30.03,M,6.21,M,FEW,BKN,M,M,2500.00,32000.00,M,M,M,YBBN 081300Z 03004KT 9999 FEW025 BKN320 20/17 Q1017
YBBN,2012-04-08 13:30,153.1292,-27.3917,66.20,62.60,88.18,0.00,0.00,0.00,30.03,M,6.21,M,FEW,SCT,M,M,2500.00,32000.00,M,M,M,YBBN 081330Z 00000KT 9999 FEW025 SCT320 19/17 Q1017
YBBN,2012-04-08 14:00,153.1292,-27.3917,66.20,62.60,88.18,270.00,2.00,0.00,30.03,M,6.21,M,FEW,SCT,M,M,2500.00,32000.00,M,M,M,YBBN 081400Z 27002KT 9999 FEW025 SCT320 19/17 Q1017 NOSIG
YBBN,2012-04-08 14:30,153.1292,-27.3917,66.20,62.60,88.18,280.00,5.00,0.00,30.03,M,6.21,M,FEW,M,M,M,2600.00,M,M,M,M,YBBN 081430Z 28005KT 9999 FEW026 19/17 Q1017
YBBN,2012-04-08 15:00,153.1292,-27.3917,64.40,62.60,93.88,210.00,4.00,0.00,30.03,M,6.21,M,FEW,M,M,M,2600.00,M,M,M,M,YBBN 081500Z 21004KT 9999 FEW026 18/17 Q1017
YBBN,2012-04-08 15:30,153.1292,-27.3917,64.40,62.60,93.88,220.00,5.00,0.00,30.03,M,6.21,M,FEW,M,M,M,2600.00,M,M,M,M,YBBN 081530Z 22005KT 9999 FEW026 18/17 Q1017
YBBN,2012-04-08 16:00,153.1292,-27.3917,64.40,62.60,93.88,220.00,6.00,0.00,30.00,M,6.21,M,FEW,M,M,M,2600.00,M,M,M,M,YBBN 081600Z 22006KT 9999 FEW026 18/17 Q1016
YBBN,2012-04-08 16:30,153.1292,-27.3917,64.40,62.60,93.88,210.00,5.00,0.00,30.00,M,6.21,M,FEW,M,M,M,2600.00,M,M,M,M,YBBN 081630Z 21005KT 9999 FEW026 18/17 Q1016
YBBN,2012-04-08 17:00,153.1292,-27.3917,64.40,62.60,93.88,310.00,6.00,0.00,30.00,M,6.21,M,FEW,M,M,M,2500.00,M,M,M,M,YBBN 081700Z 31006KT 9999 FEW025 18/17 Q1016
YBBN,2012-04-08 17:30,153.1292,-27.3917,64.40,62.60,93.88,330.00,5.00,0.00,30.00,M,6.21,M,FEW,M,M,M,2600.00,M,M,M,M,YBBN 081730Z 33005KT 9999 FEW026 18/17 Q1016
YBBN,2012-04-08 18:00,153.1292,-27.3917,62.60,62.60,100.00,220.00,5.00,0.00,30.00,M,6.21,M,FEW,M,M,M,2900.00,M,M,M,M,YBBN 081800Z 22005KT 9999 FEW029 17/17 Q1016 NOSIG
YBBN,2012-04-08 18:30,153.1292,-27.3917,64.40,62.60,93.88,340.00,5.00,0.00,30.00,M,6.21,M,FEW,M,M,M,3000.00,M,M,M,M,YBBN 081830Z 34005KT 9999 FEW030 18/17 Q1016
YBBN,2012-04-08 19:00,153.1292,-27.3917,64.40,62.60,93.88,230.00,6.00,0.00,30.00,M,6.21,M,FEW,M,M,M,2700.00,M,M,M,M,YBBN 081900Z 23006KT 9999 FEW027 18/17 Q1016 NOSIG
YBBN,2012-04-08 19:30,153.1292,-27.3917,64.40,62.60,93.88,230.00,5.00,0.00,30.00,M,6.21,M,FEW,M,M,M,2800.00,M,M,M,M,YBBN 081930Z 23005KT 9999 FEW028 18/17 Q1016
YBBN,2012-04-08 20:00,153.1292,-27.3917,62.60,60.80,93.83,340.00,5.00,0.00,30.00,M,6.21,M,FEW,M,M,M,2800.00,M,M,M,M,YBBN 082000Z 34005KT 9999 FEW028 17/16 Q1016 NOSIG
YBBN,2012-04-08 20:30,153.1292,-27.3917,62.60,62.60,100.00,230.00,7.00,0.00,30.00,M,6.21,M,FEW,M,M,M,2800.00,M,M,M,M,YBBN 082030Z 23007KT 9999 FEW028 17/17 Q1016
YBBN,2012-04-08 21:00,153.1292,-27.3917,64.40,64.40,100.00,220.00,6.00,0.00,30.00,M,6.21,M,FEW,M,M,M,2800.00,M,M,M,M,YBBN 082100Z 22006KT 9999 FEW028 18/18 Q1016
YBBN,2012-04-08 21:30,153.1292,-27.3917,68.00,64.40,88.26,230.00,5.00,0.00,30.00,M,6.21,M,FEW,M,M,M,2800.00,M,M,M,M,YBBN 082130Z 23005KT 9999 FEW028 20/18 Q1016
YBBN,2012-04-08 22:00,153.1292,-27.3917,69.80,66.20,88.34,230.00,7.00,0.00,30.03,M,6.21,M,FEW,M,M,M,2500.00,M,M,M,M,YBBN 082200Z 23007KT 9999 FEW025 21/19 Q1017 NOSIG
YBBN,2012-04-08 22:30,153.1292,-27.3917,71.60,64.40,78.04,220.00,8.00,0.00,30.03,M,6.21,M,FEW,M,M,M,2500.00,M,M,M,M,YBBN 082230Z 22008KT 9999 FEW025 22/18 Q1017
YBBN,2012-04-08 23:00,153.1292,-27.3917,73.40,64.40,73.44,230.00,8.00,0.00,30.03,M,6.21,M,FEW,M,M,M,2500.00,M,M,M,M,YBBN 082300Z 23008KT 9999 FEW025 23/18 Q1017
YBBN,2012-04-08 23:30,153.1292,-27.3917,75.20,64.40,69.14,230.00,7.00,0.00,30.03,M,6.21,M,FEW,M,M,M,2500.00,M,M,M,M,YBBN 082330Z 23007KT 9999 FEW025 24/18 Q1017
