#DEBUG: Format Typ    -> comma
#DEBUG: Time Period   -> 2012-03-28 00:00:00+00:00 2012-03-29 00:00:00+00:00
#DEBUG: Time Zone     -> Etc/UTC
#DEBUG: Data Contact   -> daryl herzmann akrherz@iastate.edu 515-294-5978
#DEBUG: Entries Found -> -1
station,valid,lon,lat,tmpf, dwpf, relh, drct, sknt, p01i, alti, mslp, vsby, gust, skyc1, skyc2, skyc3, skyc4, skyl1, skyl2, skyl3, skyl4, presentwx, metar
YBBN,2012-03-28 01:00,153.1292,-27.3917,75.20,60.80,60.90,100.00,10.00,0.00,30.09,M,6.21,M,SCT,SCT,M,M,3000.00,6000.00,M,M,VCSH,YBBN 280100Z 10010KT 9999 VCSH SCT030 SCT060 24/16 Q1019
YBBN,2012-03-28 01:22,153.1292,-27.3917,71.60,64.40,78.04,140.00,9.00,0.00,30.09,M,6.21,M,FEW,SCT,BKN,M,1000.00,2800.00,5000.00,M,SHRA,YBBN 280122Z 14009KT 9999 4000S SHRA FEW010 SCT028 BKN050 22/18 Q1019 RESHRA
YBBN,2012-03-28 01:30,153.1292,-27.3917,71.60,64.40,78.04,180.00,7.00,0.00,30.09,M,6.21,M,FEW,SCT,BKN,M,1000.00,2800.00,5500.00,M,-SHRA,YBBN 280130Z 18007KT 9999 5000E -SHRA FEW010 SCT028 BKN055 22/18 Q1019 RESHRA
YBBN,2012-03-28 01:48,153.1292,-27.3917,71.60,64.40,78.04,170.00,6.00,0.00,30.09,M,6.21,M,FEW,SCT,BKN,M,1800.00,2800.00,10500.00,M,VCSH,YBBN 280148Z 17006KT 9999 VCSH FEW018 SCT028 BKN105 22/18 Q1019 RESHRA
YBBN,2012-03-28 02:00,153.1292,-27.3917,75.20,66.20,73.61,130.00,6.00,0.00,30.06,M,6.21,M,FEW,SCT,BKN,M,1800.00,2800.00,11000.00,M,VCSH,YBBN 280200Z 13006KT 9999 VCSH FEW018 SCT028 BKN110 24/19 Q1018 RESHRA NOSIG
YBBN,2012-03-28 02:30,153.1292,-27.3917,77.00,64.40,65.12,90.00,11.00,0.00,30.06,M,6.21,M,SCT,M,M,M,2800.00,M,M,M,M,YBBN 280230Z 09011KT 9999 SCT028 25/18 Q1018
YBBN,2012-03-28 03:00,153.1292,-27.3917,77.00,62.60,61.13,90.00,11.00,0.00,30.06,M,6.21,M,SCT,M,M,M,3000.00,M,M,M,M,YBBN 280300Z 09011KT 9999 SCT030 25/17 Q1018
YBBN,2012-03-28 03:30,153.1292,-27.3917,77.00,59.00,53.80,100.00,11.00,0.00,30.03,M,6.21,M,FEW,M,M,M,3600.00,M,M,M,M,YBBN 280330Z 10011KT 9999 FEW036 25/15 Q1017
YBBN,2012-03-28 04:00,153.1292,-27.3917,77.00,59.00,53.80,90.00,10.00,0.00,30.03,M,6.21,M,FEW,M,M,M,3500.00,M,M,M,M,YBBN 280400Z 09010KT 9999 FEW035 25/15 Q1017 NOSIG
YBBN,2012-03-28 04:30,153.1292,-27.3917,77.00,59.00,53.80,80.00,12.00,0.00,30.03,M,6.21,M,FEW,M,M,M,3500.00,M,M,M,M,YBBN 280430Z 08012KT 9999 FEW035 25/15 Q1017
YBBN,2012-03-28 05:00,153.1292,-27.3917,77.00,59.00,53.80,90.00,11.00,0.00,30.03,M,6.21,M,FEW,M,M,M,3500.00,M,M,M,M,YBBN 280500Z 09011KT 9999 FEW035 25/15 Q1017 NOSIG
YBBN,2012-03-28 05:30,153.1292,-27.3917,77.00,57.20,50.43,90.00,11.00,0.00,30.03,M,6.21,M,FEW,M,M,M,3800.00,M,M,M,M,YBBN 280530Z 09011KT 9999 FEW038 25/14 Q1017
YBBN,2012-03-28 06:00,153.1292,-27.3917,77.00,57.20,50.43,90.00,9.00,0.00,30.03,M,6.21,M,FEW,BKN,M,M,3800.00,8000.00,M,M,M,YBBN 280600Z 09009KT 9999 FEW038 BKN080 25/14 Q1017 NOSIG
YBBN,2012-03-28 06:30,153.1292,-27.3917,75.20,59.00,57.12,110.00,9.00,0.00,30.03,M,6.21,M,FEW,SCT,M,M,3600.00,8000.00,M,M,M,YBBN 280630Z 11009KT 9999 FEW036 SCT080 24/15 Q1017
YBBN,2012-03-28 07:00,153.1292,-27.3917,75.20,60.80,60.90,90.00,8.00,0.00,30.03,M,6.21,M,FEW,M,M,M,3600.00,M,M,M,M,YBBN 280700Z 09008KT 9999 FEW036 24/16 Q1017 NOSIG
YBBN,2012-03-28 07:30,153.1292,-27.3917,73.40,60.80,64.69,100.00,8.00,0.00,30.03,M,6.21,M,FEW,M,M,M,3000.00,M,M,M,M,YBBN 280730Z 10008KT 9999 FEW030 23/16 Q1017
YBBN,2012-03-28 08:00,153.1292,-27.3917,73.40,59.00,60.67,130.00,8.00,0.00,30.03,M,6.21,M,FEW,M,M,M,1800.00,M,M,M,M,YBBN 280800Z 13008KT 9999 FEW018 23/15 Q1017
YBBN,2012-03-28 08:30,153.1292,-27.3917,73.40,59.00,60.67,140.00,7.00,0.00,30.06,M,6.21,M,FEW,M,M,M,3000.00,M,M,M,M,YBBN 280830Z 14007KT 9999 FEW030 23/15 Q1018
YBBN,2012-03-28 09:00,153.1292,-27.3917,71.60,59.00,64.48,160.00,6.00,0.00,30.06,M,6.21,M,FEW,M,M,M,3000.00,M,M,M,M,YBBN 280900Z 16006KT 9999 FEW030 22/15 Q1018
YBBN,2012-03-28 09:30,153.1292,-27.3917,69.80,59.00,68.55,180.00,6.00,0.00,30.06,M,6.21,M,FEW,M,M,M,3500.00,M,M,M,M,YBBN 280930Z 18006KT 9999 FEW035 21/15 Q1018
YBBN,2012-03-28 10:00,153.1292,-27.3917,69.80,62.60,77.90,160.00,7.00,0.00,30.06,M,6.21,M,FEW,M,M,M,3500.00,M,M,M,M,YBBN 281000Z 16007KT 9999 FEW035 21/17 Q1018
YBBN,2012-03-28 10:30,153.1292,-27.3917,69.80,62.60,77.90,160.00,6.00,0.00,30.09,M,6.21,M,FEW,M,M,M,3500.00,M,M,M,M,YBBN 281030Z 16006KT 9999 FEW035 21/17 Q1019
YBBN,2012-03-28 11:00,153.1292,-27.3917,69.80,62.60,77.90,180.00,7.00,0.00,30.09,M,3.11,M,FEW,BKN,M,M,3500.00,8000.00,M,M,VCSH,YBBN 281100Z 18007KT 5000 VCSH FEW035 BKN080 21/17 Q1019 RMK SHOWER TO E
YBBN,2012-03-28 11:30,153.1292,-27.3917,68.00,64.40,88.26,190.00,7.00,0.00,30.09,M,3.11,M,FEW,SCT,M,M,1500.00,3500.00,M,M,VCSH,YBBN 281130Z 19007KT 5000 VCSH FEW015 SCT035 20/18 Q1019 RESHRA
YBBN,2012-03-28 11:43,153.1292,-27.3917,68.00,64.40,88.26,200.00,6.00,0.00,30.09,M,6.21,M,FEW,SCT,BKN,M,3500.00,4500.00,8000.00,M,VCSH,YBBN 281143Z 20006KT 9999 VCSH FEW035 SCT045 BKN080 20/18 Q1019
YBBN,2012-03-28 12:00,153.1292,-27.3917,66.20,62.60,88.18,180.00,9.00,0.00,30.09,M,3.73,M,FEW,SCT,BKN,M,3500.00,4500.00,8000.00,M,-SHRA,YBBN 281200Z 18009KT 6000 -SHRA FEW035 SCT045 BKN080 19/17 Q1019 FM1200 19008KT 9999 -SHRA SCT030
YBBN,2012-03-28 12:19,153.1292,-27.3917,66.20,62.60,88.18,200.00,9.00,0.00,30.09,M,6.21,M,FEW,BKN,BKN,M,3000.00,4500.00,8000.00,M,VCSH,YBBN 281219Z 20009KT 9999 VCSH FEW030 BKN045 BKN080 19/17 Q1019
YBBN,2012-03-28 12:30,153.1292,-27.3917,68.00,62.60,82.86,210.00,7.00,0.00,30.09,M,6.21,M,FEW,BKN,M,M,3000.00,8000.00,M,M,VCSH,YBBN 281230Z 21007KT 9999 VCSH FEW030 BKN080 20/17 Q1019
YBBN,2012-03-28 13:00,153.1292,-27.3917,68.00,64.40,88.26,210.00,7.00,0.00,30.06,M,6.21,M,FEW,SCT,BKN,M,3000.00,8000.00,12000.00,M,M,YBBN 281300Z 21007KT 9999 FEW030 SCT080 BKN120 20/18 Q1018
YBBN,2012-03-28 13:30,153.1292,-27.3917,66.20,62.60,88.18,210.00,6.00,0.00,30.06,M,6.21,M,FEW,BKN,M,M,3500.00,11000.00,M,M,M,YBBN 281330Z 21006KT 9999 FEW035 BKN110 19/17 Q1018
YBBN,2012-03-28 14:00,153.1292,-27.3917,68.00,64.40,88.26,130.00,5.00,0.00,30.06,M,6.21,M,FEW,SCT,BKN,M,2500.00,3500.00,6000.00,M,VCSH,YBBN 281400Z 13005KT 9999 VCSH FEW025 SCT035 BKN060 20/18 Q1018 NOSIG
YBBN,2012-03-28 14:30,153.1292,-27.3917,68.00,64.40,88.26,210.00,6.00,0.00,30.06,M,6.21,M,FEW,BKN,BKN,M,3500.00,5500.00,10000.00,M,VCSH,YBBN 281430Z 21006KT 9999 VCSH FEW035 BKN055 BKN100 20/18 Q1018
YBBN,2012-03-28 15:00,153.1292,-27.3917,66.20,64.40,93.92,220.00,7.00,0.00,30.06,M,6.21,M,FEW,SCT,M,M,3500.00,10000.00,M,M,M,YBBN 281500Z 22007KT 9999 FEW035 SCT100 19/18 Q1018
YBBN,2012-03-28 15:30,153.1292,-27.3917,64.40,62.60,93.88,210.00,7.00,0.00,30.03,M,3.73,M,SCT,SCT,M,M,3000.00,5000.00,M,M,VCSH,YBBN 281530Z 21007KT 6000 VCSH SCT030 SCT050 18/17 Q1017 FM1530 19008KT 9999 -SHRA SCT030
YBBN,2012-03-28 15:54,153.1292,-27.3917,64.40,62.60,93.88,210.00,7.00,0.00,30.03,M,6.21,M,FEW,SCT,M,M,3500.00,10000.00,M,M,M,YBBN 281554Z 21007KT 9999 FEW035 SCT100 18/17 Q1017
YBBN,2012-03-28 16:00,153.1292,-27.3917,64.40,62.60,93.88,210.00,6.00,0.00,30.03,M,6.21,M,FEW,SCT,M,M,3500.00,10000.00,M,M,M,YBBN 281600Z 21006KT 9999 FEW035 SCT100 18/17 Q1017 NOSIG
YBBN,2012-03-28 16:30,153.1292,-27.3917,64.40,60.80,88.09,210.00,7.00,0.00,30.03,M,6.21,M,FEW,SCT,M,M,3500.00,10000.00,M,M,M,YBBN 281630Z 21007KT 9999 FEW035 SCT100 18/16 Q1017
YBBN,2012-03-28 17:00,153.1292,-27.3917,64.40,60.80,88.09,210.00,7.00,0.00,30.00,M,6.21,M,FEW,M,M,M,3500.00,M,M,M,M,YBBN 281700Z 21007KT 9999 FEW035 18/16 Q1016 NOSIG
YBBN,2012-03-28 17:30,153.1292,-27.3917,62.60,60.80,93.83,220.00,7.00,0.00,30.00,M,6.21,M,FEW,M,M,M,3500.00,M,M,M,M,YBBN 281730Z 22007KT 9999 FEW035 17/16 Q1016
YBBN,2012-03-28 18:00,153.1292,-27.3917,62.60,60.80,93.83,230.00,5.00,0.00,30.00,M,6.21,M,FEW,M,M,M,3500.00,M,M,M,M,YBBN 281800Z 23005KT 9999 FEW035 17/16 Q1016
YBBN,2012-03-28 18:30,153.1292,-27.3917,64.40,60.80,88.09,210.00,6.00,0.00,30.03,M,6.21,M,FEW,SCT,M,M,3500.00,10000.00,M,M,M,YBBN 281830Z 21006KT 9999 FEW035 SCT100 18/16 Q1017
YBBN,2012-03-28 19:00,153.1292,-27.3917,64.40,60.80,88.09,210.00,7.00,0.00,30.03,M,6.21,M,FEW,SCT,M,M,3000.00,9000.00,M,M,M,YBBN 281900Z 21007KT 9999 FEW030 SCT090 18/16 Q1017
YBBN,2012-03-28 19:30,153.1292,-27.3917,64.40,60.80,88.09,210.00,9.00,0.00,30.03,M,6.21,M,FEW,SCT,BKN,M,3000.00,6000.00,8000.00,M,M,YBBN 281930Z 21009KT 9999 FEW030 SCT060 BKN080 18/16 Q1017
YBBN,2012-03-28 20:00,153.1292,-27.3917,64.40,60.80,88.09,220.00,7.00,0.00,30.03,M,6.21,M,FEW,SCT,M,M,3000.00,6500.00,M,M,M,YBBN 282000Z 22007KT 9999 FEW030 SCT065 18/16 Q1017
YBBN,2012-03-28 20:30,153.1292,-27.3917,64.40,60.80,88.09,220.00,8.00,0.00,30.03,M,6.21,M,FEW,SCT,M,M,3000.00,7000.00,M,M,M,YBBN 282030Z 22008KT 9999 FEW030 SCT070 18/16 Q1017
YBBN,2012-03-28 21:00,153.1292,-27.3917,66.20,62.60,88.18,210.00,10.00,0.00,30.03,M,6.21,M,FEW,SCT,M,M,3000.00,8000.00,M,M,M,YBBN 282100Z 21010KT 9999 FEW030 SCT080 19/17 Q1017
YBBN,2012-03-28 21:30,153.1292,-27.3917,68.00,60.80,77.75,220.00,11.00,0.00,30.03,M,6.21,M,FEW,SCT,M,M,3000.00,9000.00,M,M,M,YBBN 282130Z 22011KT 9999 FEW030 SCT090 20/16 Q1017
YBBN,2012-03-28 22:00,153.1292,-27.3917,69.80,60.80,73.09,220.00,9.00,0.00,30.06,M,6.21,M,FEW,SCT,M,M,3000.00,5500.00,M,M,M,YBBN 282200Z 22009KT 9999 FEW030 SCT055 21/16 Q1018 NOSIG
YBBN,2012-03-28 22:30,153.1292,-27.3917,71.60,62.60,73.27,210.00,7.00,0.00,30.06,M,6.21,M,FEW,SCT,M,M,3000.00,5500.00,M,M,M,YBBN 282230Z 21007KT 9999 FEW030 SCT055 22/17 Q1018
YBBN,2012-03-28 23:00,153.1292,-27.3917,73.40,60.80,64.69,160.00,7.00,0.00,30.06,M,6.21,M,FEW,SCT,M,M,3000.00,5500.00,M,M,M,YBBN 282300Z 16007KT 9999 FEW030 SCT055 23/16 Q1018
YBBN,2012-03-28 23:30,153.1292,-27.3917,73.40,62.60,68.94,180.00,9.00,0.00,30.06,M,6.21,M,FEW,SCT,M,M,2500.00,6500.00,M,M,M,YBBN 282330Z 18009KT 9999 FEW025 SCT065 23/17 Q1018
