#DEBUG: Format Typ    -> comma
#DEBUG: Time Period   -> 2016-09-13 00:00:00+00:00 2016-09-14 00:00:00+00:00
#DEBUG: Time Zone     -> Etc/UTC
#DEBUG: Data Contact   -> daryl herzmann akrherz@iastate.edu 515-294-5978
#DEBUG: Entries Found -> -1
station,valid,lon,lat,tmpf, dwpf, relh, drct, sknt, p01i, alti, mslp, vsby, gust, skyc1, skyc2, skyc3, skyc4, skyl1, skyl2, skyl3, skyl4, presentwx, metar
YBBN,2016-09-13 00:00,153.1292,-27.3917,73.40,62.60,68.94,20.00,6.00,0.00,30.18,M,6.21,M,SCT,M,M,M,2000.00,M,M,M,M,YBBN 130000Z 02006KT 9999 SCT020 23/17 Q1022 NOSIG
YBBN,2016-09-13 00:30,153.1292,-27.3917,73.40,60.80,64.69,10.00,7.00,0.00,30.18,M,6.21,M,SCT,M,M,M,2400.00,M,M,M,M,YBBN 130030Z 01007KT 9999 SCT024 23/16 Q1022 NOSIG
YBBN,2016-09-13 01:00,153.1292,-27.3917,73.40,62.60,68.94,20.00,7.00,0.00,30.18,M,6.21,M,FEW,M,M,M,3000.00,M,M,M,M,YBBN 130100Z 02007KT 9999 FEW030 23/17 Q1022 NOSIG
YBBN,2016-09-13 01:30,153.1292,-27.3917,73.40,60.80,64.69,10.00,8.00,0.00,30.15,M,6.21,M,FEW,M,M,M,3200.00,M,M,M,M,YBBN 130130Z 01008KT 9999 FEW032 23/16 Q1021 NOSIG
YBBN,2016-09-13 02:00,153.1292,-27.3917,75.20,60.80,60.90,20.00,8.00,0.00,30.15,M,6.21,M,FEW,M,M,M,3200.00,M,M,M,M,YBBN 130200Z 02008KT 9999 FEW032 24/16 Q1021 NOSIG
YBBN,2016-09-13 02:30,153.1292,-27.3917,75.20,60.80,60.90,50.00,10.00,0.00,30.12,M,6.21,M,FEW,SCT,M,M,3200.00,30000.00,M,M,M,YBBN 130230Z 05010KT 9999 FEW032 SCT300 24/16 Q1020 NOSIG
YBBN,2016-09-13 03:00,153.1292,-27.3917,73.40,60.80,64.69,60.00,10.00,0.00,30.12,M,6.21,M,FEW,M,M,M,3000.00,M,M,M,M,YBBN 130300Z 06010KT 9999 FEW030 23/16 Q1020 NOSIG
YBBN,2016-09-13 03:30,153.1292,-27.3917,77.00,60.80,57.36,50.00,9.00,0.00,30.09,M,6.21,M,FEW,M,M,M,3200.00,M,M,M,M,YBBN 130330Z 05009KT 9999 FEW032 25/16 Q1019 NOSIG
YBBN,2016-09-13 04:00,153.1292,-27.3917,75.20,60.80,60.90,50.00,9.00,0.00,30.09,M,6.21,M,FEW,M,M,M,3200.00,M,M,M,M,YBBN 130400Z 05009KT 9999 FEW032 24/16 Q1019 NOSIG
YBBN,2016-09-13 04:30,153.1292,-27.3917,75.20,60.80,60.90,60.00,11.00,0.00,30.09,M,6.21,M,FEW,M,M,M,3200.00,M,M,M,M,YBBN 130430Z 06011KT 9999 FEW032 24/16 Q1019 NOSIG
YBBN,2016-09-13 05:00,153.1292,-27.3917,75.20,60.80,60.90,60.00,9.00,0.00,30.09,M,6.21,M,FEW,SCT,M,M,3200.00,30000.00,M,M,M,YBBN 130500Z 06009KT 9999 FEW032 SCT300 24/16 Q1019 NOSIG
YBBN,2016-09-13 05:30,153.1292,-27.3917,75.20,55.40,50.17,50.00,11.00,0.00,30.06,M,6.21,M,FEW,M,M,M,4000.00,M,M,M,M,YBBN 130530Z 05011KT 9999 FEW040 24/13 Q1018 NOSIG
YBBN,2016-09-13 06:00,153.1292,-27.3917,73.40,59.00,60.67,30.00,12.00,0.00,30.06,M,6.21,M,FEW,M,M,M,3500.00,M,M,M,M,YBBN 130600Z 03012KT 9999 FEW035 23/15 Q1018 NOSIG
YBBN,2016-09-13 06:30,153.1292,-27.3917,73.40,60.80,64.69,20.00,11.00,0.00,30.06,M,6.21,M,FEW,M,M,M,3000.00,M,M,M,M,YBBN 130630Z 02011KT 9999 FEW030 23/16 Q1018 NOSIG
YBBN,2016-09-13 07:00,153.1292,-27.3917,71.60,62.60,73.27,20.00,12.00,0.00,30.09,M,6.21,M,FEW,M,M,M,2500.00,M,M,M,M,YBBN 130700Z 02012KT 9999 FEW025 22/17 Q1019 NOSIG
YBBN,2016-09-13 07:30,153.1292,-27.3917,69.80,64.40,82.98,40.00,9.00,0.00,30.09,M,6.21,M,FEW,M,M,M,2000.00,M,M,M,M,YBBN 130730Z 04009KT 9999 FEW020 21/18 Q1019
YBBN,2016-09-13 08:00,153.1292,-27.3917,68.00,64.40,88.26,40.00,8.00,0.00,30.09,M,6.21,M,FEW,M,M,M,2000.00,M,M,M,M,YBBN 130800Z 04008KT 9999 FEW020 20/18 Q1019 NOSIG
YBBN,2016-09-13 08:30,153.1292,-27.3917,68.00,64.40,88.26,30.00,8.00,0.00,30.09,M,6.21,M,FEW,M,M,M,2000.00,M,M,M,M,YBBN 130830Z 03008KT 9999 FEW020 20/18 Q1019 NOSIG
YBBN,2016-09-13 09:00,153.1292,-27.3917,68.00,64.40,88.26,40.00,8.00,0.00,30.09,M,6.21,M,FEW,M,M,M,4000.00,M,M,M,M,YBBN 130900Z 04008KT 9999 FEW040 20/18 Q1019 NOSIG
YBBN,2016-09-13 09:30,153.1292,-27.3917,68.00,64.40,88.26,40.00,7.00,0.00,30.12,M,6.21,M,FEW,M,M,M,2000.00,M,M,M,M,YBBN 130930Z 04007KT 9999 FEW020 20/18 Q1020 NOSIG
YBBN,2016-09-13 10:00,153.1292,-27.3917,68.00,64.40,88.26,40.00,7.00,0.00,30.12,M,6.21,M,SCT,M,M,M,2100.00,M,M,M,M,YBBN 131000Z 04007KT 9999 SCT021 20/18 Q1020 NOSIG
YBBN,2016-09-13 10:30,153.1292,-27.3917,68.00,64.40,88.26,30.00,8.00,0.00,30.12,M,6.21,M,FEW,M,M,M,2100.00,M,M,M,M,YBBN 131030Z 03008KT 9999 FEW021 20/18 Q1020 NOSIG
YBBN,2016-09-13 11:00,153.1292,-27.3917,68.00,66.20,93.97,10.00,8.00,0.00,30.12,M,6.21,M,FEW,M,M,M,2100.00,M,M,M,M,YBBN 131100Z 01008KT 9999 FEW021 20/19 Q1020 NOSIG
YBBN,2016-09-13 11:30,153.1292,-27.3917,68.00,66.20,93.97,10.00,10.00,0.00,30.12,M,6.21,M,FEW,M,M,M,2100.00,M,M,M,M,YBBN 131130Z 01010KT 9999 FEW021 20/19 Q1020 NOSIG
YBBN,2016-09-13 12:00,153.1292,-27.3917,68.00,64.40,88.26,10.00,10.00,0.00,30.12,M,6.21,M,FEW,M,M,M,2100.00,M,M,M,M,YBBN 131200Z 01010KT 9999 FEW021 20/18 Q1020 NOSIG
YBBN,2016-09-13 12:30,153.1292,-27.3917,68.00,64.40,88.26,10.00,10.00,0.00,30.12,M,6.21,M,FEW,M,M,M,2100.00,M,M,M,M,YBBN 131230Z 01010KT 9999 FEW021 20/18 Q1020 NOSIG
YBBN,2016-09-13 13:00,153.1292,-27.3917,68.00,64.40,88.26,10.00,10.00,0.00,30.12,M,6.21,M,FEW,M,M,M,2000.00,M,M,M,M,YBBN 131300Z 01010KT 9999 FEW020 20/18 Q1020 NOSIG
YBBN,2016-09-13 13:30,153.1292,-27.3917,68.00,66.20,93.97,10.00,10.00,0.00,30.12,M,6.21,M,FEW,SCT,M,M,2000.00,4000.00,M,M,M,YBBN 131330Z 01010KT 9999 FEW020 SCT040 20/19 Q1020 NOSIG
YBBN,2016-09-13 14:00,153.1292,-27.3917,69.80,66.20,88.34,10.00,10.00,0.00,30.09,M,6.21,M,SCT,SCT,M,M,1400.00,2100.00,M,M,M,YBBN 131400Z 01010KT 9999 SCT014 SCT021 21/19 Q1019
YBBN,2016-09-13 14:30,153.1292,-27.3917,68.00,66.20,93.97,10.00,10.00,0.00,30.09,M,6.21,M,BKN,M,M,M,1600.00,M,M,M,M,YBBN 131430Z 01010KT 9999 BKN016 20/19 Q1019 NOSIG
YBBN,2016-09-13 15:00,153.1292,-27.3917,69.80,66.20,88.34,360.00,10.00,0.00,30.09,M,6.21,M,SCT,BKN,M,M,900.00,1300.00,M,M,M,YBBN 131500Z 36010KT 9999 SCT009 BKN013 21/19 Q1019
YBBN,2016-09-13 15:30,153.1292,-27.3917,68.00,64.40,88.26,360.00,12.00,0.00,30.09,M,6.21,M,SCT,BKN,M,M,1300.00,6300.00,M,M,M,YBBN 131530Z 36012KT 9999 SCT013 BKN063 20/18 Q1019
YBBN,2016-09-13 16:00,153.1292,-27.3917,68.00,64.40,88.26,10.00,14.00,0.00,30.06,M,6.21,M,FEW,BKN,BKN,M,1500.00,6500.00,8500.00,M,M,YBBN 131600Z 01014KT 9999 FEW015 BKN065 BKN085 20/18 Q1018
YBBN,2016-09-13 19:00,153.1292,-27.3917,66.20,64.40,93.92,350.00,12.00,0.00,30.09,M,6.21,M,FEW,M,M,M,1300.00,M,M,M,M,YBBN 131900Z 35012KT 9999 FEW013 19/18 Q1019
YBBN,2016-09-13 21:00,153.1292,-27.3917,68.00,64.40,88.26,310.00,5.00,0.00,30.12,M,6.21,M,FEW,SCT,M,M,2500.00,19000.00,M,M,M,YBBN 132100Z 31005KT 9999 FEW025 SCT190 20/18 Q1020
YBBN,2016-09-13 21:30,153.1292,-27.3917,69.80,64.40,82.98,340.00,8.00,0.00,30.12,M,6.21,M,FEW,M,M,M,2000.00,M,M,M,M,YBBN 132130Z 34008KT 9999 FEW020 21/18 Q1020 NOSIG
YBBN,2016-09-13 22:00,153.1292,-27.3917,69.80,62.60,77.90,360.00,12.00,0.00,30.12,M,6.21,M,FEW,M,M,M,2000.00,M,M,M,M,YBBN 132200Z 36012KT 9999 FEW020 21/17 Q1020 NOSIG
YBBN,2016-09-13 22:30,153.1292,-27.3917,71.60,64.40,78.04,360.00,14.00,0.00,30.12,M,6.21,M,FEW,M,M,M,2000.00,M,M,M,M,YBBN 132230Z 36014KT 9999 FEW020 22/18 Q1020 NOSIG
YBBN,2016-09-13 23:00,153.1292,-27.3917,73.40,64.40,73.44,360.00,13.00,0.00,30.09,M,6.21,M,FEW,SCT,M,M,2000.00,17000.00,M,M,M,YBBN 132300Z 36013KT 9999 FEW020 SCT170 23/18 Q1019 NOSIG
YBBN,2016-09-13 23:30,153.1292,-27.3917,75.20,64.40,69.14,360.00,15.00,0.00,30.09,M,6.21,M,FEW,SCT,M,M,2400.00,18000.00,M,M,M,YBBN 132330Z 36015KT 9999 FEW024 SCT180 24/18 Q1019 NOSIG
