#DEBUG: Format Typ    -> comma
#DEBUG: Time Period   -> 2014-01-31 00:00:00+00:00 2014-02-01 00:00:00+00:00
#DEBUG: Time Zone     -> Etc/UTC
#DEBUG: Data Contact   -> daryl herzmann akrherz@iastate.edu 515-294-5978
#DEBUG: Entries Found -> -1
station,valid,lon,lat,tmpf, dwpf, relh, drct, sknt, p01i, alti, mslp, vsby, gust, skyc1, skyc2, skyc3, skyc4, skyl1, skyl2, skyl3, skyl4, presentwx, metar
YBBN,2014-01-31 00:00,153.1292,-27.3917,75.20,60.80,60.90,80.00,11.00,0.00,29.94,M,6.21,M,FEW,BKN,M,M,3800.00,4900.00,M,M,VCSH,YBBN 310000Z 08011KT 9999 VCSH FEW038 BKN049 24/16 Q1014 NOSIG
YBBN,2014-01-31 00:30,153.1292,-27.3917,77.00,59.00,53.80,80.00,9.00,0.00,29.94,M,6.21,M,FEW,SCT,BKN,M,3800.00,4200.00,5200.00,M,M,YBBN 310030Z 08009KT 9999 FEW038 SCT042 BKN052 25/15 Q1014
YBBN,2014-01-31 01:00,153.1292,-27.3917,77.00,60.80,57.36,70.00,10.00,0.00,29.94,M,6.21,M,FEW,BKN,BKN,M,3900.00,4200.00,5200.00,M,M,YBBN 310100Z 07010KT 9999 FEW039 BKN042 BKN052 25/16 Q1014 NOSIG
YBBN,2014-01-31 01:30,153.1292,-27.3917,78.80,62.60,57.60,80.00,11.00,0.00,29.94,M,6.21,M,FEW,BKN,BKN,M,3900.00,4900.00,6000.00,M,M,YBBN 310130Z 08011KT 9999 FEW039 BKN049 BKN060 26/17 Q1014
YBBN,2014-01-31 02:00,153.1292,-27.3917,78.80,62.60,57.60,70.00,14.00,0.00,29.94,M,6.21,M,FEW,SCT,BKN,M,3900.00,16000.00,35000.00,M,M,YBBN 310200Z 07014KT 9999 FEW039 SCT160 BKN350 26/17 Q1014
YBBN,2014-01-31 02:30,153.1292,-27.3917,78.80,60.80,54.05,70.00,13.00,0.00,29.94,M,6.21,M,FEW,BKN,M,M,3900.00,6000.00,M,M,M,YBBN 310230Z 07013KT 9999 FEW039 BKN060 26/16 Q1014
YBBN,2014-01-31 03:00,153.1292,-27.3917,78.80,60.80,54.05,100.00,10.00,0.00,29.94,M,6.21,M,FEW,BKN,M,M,4000.00,5500.00,M,M,M,YBBN 310300Z 10010KT 9999 FEW040 BKN055 26/16 Q1014
YBBN,2014-01-31 03:30,153.1292,-27.3917,77.00,62.60,61.13,100.00,11.00,0.00,29.91,M,6.21,M,FEW,BKN,M,M,4000.00,5900.00,M,M,M,YBBN 310330Z 10011KT 9999 FEW040 BKN059 25/17 Q1013
YBBN,2014-01-31 04:00,153.1292,-27.3917,77.00,62.60,61.13,120.00,10.00,0.00,29.91,M,6.21,M,FEW,BKN,M,M,4000.00,5800.00,M,M,M,YBBN 310400Z 12010KT 9999 FEW040 BKN058 25/17 Q1013
YBBN,2014-01-31 04:30,153.1292,-27.3917,78.80,62.60,57.60,120.00,9.00,0.00,29.91,M,6.21,M,SCT,BKN,M,M,3800.00,6100.00,M,M,M,YBBN 310430Z 12009KT 9999 SCT038 BKN061 26/17 Q1013
YBBN,2014-01-31 05:00,153.1292,-27.3917,75.20,64.40,69.14,120.00,12.00,0.00,29.91,M,6.21,M,SCT,SCT,M,M,3800.00,6100.00,M,M,-SHRA,YBBN 310500Z 12012KT 9999 -SHRA SCT038 SCT061 24/18 Q1013
YBBN,2014-01-31 05:30,153.1292,-27.3917,75.20,64.40,69.14,120.00,10.00,0.00,29.91,M,6.21,M,SCT,BKN,M,M,3800.00,6100.00,M,M,VCSH,YBBN 310530Z 12010KT 9999 VCSH SCT038 BKN061 24/18 Q1013
YBBN,2014-01-31 06:00,153.1292,-27.3917,75.20,64.40,69.14,120.00,9.00,0.00,29.91,M,6.21,M,FEW,BKN,M,M,3600.00,5500.00,M,M,VCSH,YBBN 310600Z 12009KT 9999 VCSH FEW036 BKN055 24/18 Q1013 NOSIG
YBBN,2014-01-31 06:30,153.1292,-27.3917,75.20,64.40,69.14,120.00,9.00,0.00,29.91,M,6.21,M,FEW,BKN,M,M,3600.00,6000.00,M,M,M,YBBN 310630Z 12009KT 9999 FEW036 BKN060 24/18 Q1013
YBBN,2014-01-31 07:00,153.1292,-27.3917,75.20,64.40,69.14,120.00,8.00,0.00,29.91,M,6.21,M,FEW,BKN,M,M,3600.00,6000.00,M,M,M,YBBN 310700Z 12008KT 9999 FEW036 BKN060 24/18 Q1013 NOSIG
YBBN,2014-01-31 07:30,153.1292,-27.3917,75.20,64.40,69.14,110.00,7.00,0.00,29.91,M,6.21,M,FEW,BKN,M,M,3500.00,6000.00,M,M,M,YBBN 310730Z 11007KT 9999 FEW035 BKN060 24/18 Q1013
YBBN,2014-01-31 08:00,153.1292,-27.3917,75.20,66.20,73.61,90.00,7.00,0.00,29.91,M,6.21,M,FEW,BKN,BKN,M,2500.00,6000.00,20000.00,M,M,YBBN 310800Z 09007KT 9999 FEW025 BKN060 BKN200 24/19 Q1013 NOSIG
YBBN,2014-01-31 08:30,153.1292,-27.3917,75.20,66.20,73.61,120.00,8.00,0.00,29.91,M,6.21,M,FEW,SCT,BKN,M,3500.00,5600.00,18000.00,M,M,YBBN 310830Z 12008KT 9999 FEW035 SCT056 BKN180 24/19 Q1013
YBBN,2014-01-31 09:00,153.1292,-27.3917,75.20,66.20,73.61,110.00,7.00,0.00,29.91,M,6.21,M,FEW,SCT,BKN,M,2200.00,3500.00,5800.00,M,M,YBBN 310900Z 11007KT 9999 FEW022 SCT035 BKN058 24/19 Q1013 NOSIG
YBBN,2014-01-31 09:30,153.1292,-27.3917,75.20,64.40,69.14,90.00,8.00,0.00,29.91,M,6.21,M,FEW,SCT,BKN,M,2200.00,3400.00,6000.00,M,M,YBBN 310930Z 09008KT 9999 FEW022 SCT034 BKN060 24/18 Q1013
YBBN,2014-01-31 10:00,153.1292,-27.3917,75.20,64.40,69.14,90.00,8.00,0.00,29.91,M,6.21,M,FEW,SCT,BKN,M,2100.00,3200.00,6000.00,M,M,YBBN 311000Z 09008KT 9999 FEW021 SCT032 BKN060 24/18 Q1013 NOSIG
YBBN,2014-01-31 10:30,153.1292,-27.3917,75.20,66.20,73.61,90.00,9.00,0.00,29.94,M,6.21,M,FEW,BKN,M,M,1800.00,6000.00,M,M,M,YBBN 311030Z 09009KT 9999 FEW018 BKN060 24/19 Q1014
YBBN,2014-01-31 11:00,153.1292,-27.3917,75.20,64.40,69.14,90.00,7.00,0.00,29.94,M,6.21,M,SCT,BKN,M,M,3100.00,5700.00,M,M,M,YBBN 311100Z 09007KT 9999 SCT031 BKN057 24/18 Q1014 NOSIG
YBBN,2014-01-31 11:30,153.1292,-27.3917,75.20,64.40,69.14,90.00,7.00,0.00,29.94,M,6.21,M,FEW,SCT,BKN,M,2100.00,3100.00,5800.00,M,M,YBBN 311130Z 09007KT 9999 FEW021 SCT031 BKN058 24/18 Q1014
YBBN,2014-01-31 12:00,153.1292,-27.3917,75.20,64.40,69.14,90.00,7.00,0.00,29.94,M,6.21,M,FEW,BKN,M,M,2300.00,5500.00,M,M,M,YBBN 311200Z 09007KT 9999 FEW023 BKN055 24/18 Q1014 NOSIG
YBBN,2014-01-31 12:30,153.1292,-27.3917,75.20,64.40,69.14,80.00,8.00,0.00,29.91,M,6.21,M,FEW,BKN,M,M,2300.00,5700.00,M,M,M,YBBN 311230Z 08008KT 9999 FEW023 BKN057 24/18 Q1013
YBBN,2014-01-31 13:00,153.1292,-27.3917,75.20,62.60,64.91,70.00,8.00,0.00,29.91,M,6.21,M,FEW,BKN,M,M,2400.00,6000.00,M,M,M,YBBN 311300Z 07008KT 9999 FEW024 BKN060 24/17 Q1013 NOSIG
YBBN,2014-01-31 13:30,153.1292,-27.3917,75.20,64.40,69.14,90.00,7.00,0.00,29.91,M,6.21,M,FEW,SCT,BKN,M,1800.00,3000.00,5500.00,M,-SHRA VCSH,YBBN 311330Z 09007KT 9999 -SHRA VCSH FEW018 SCT030 BKN055 24/18 Q1013
YBBN,2014-01-31 14:00,153.1292,-27.3917,73.40,66.20,78.19,120.00,6.00,0.00,29.91,M,5.59,M,FEW,SCT,BKN,M,1500.00,2800.00,5000.00,M,VCSH,YBBN 311400Z 12006KT 9000 VCSH FEW015 SCT028 BKN050 23/19 Q1013
YBBN,2014-01-31 14:30,153.1292,-27.3917,73.40,66.20,78.19,50.00,11.00,0.00,29.91,M,6.21,M,FEW,SCT,BKN,M,1400.00,2500.00,5500.00,M,-SHRA VCSH,YBBN 311430Z 05011KT 9999 -SHRA VCSH FEW014 SCT025 BKN055 23/19 Q1013
YBBN,2014-01-31 15:00,153.1292,-27.3917,75.20,64.40,69.14,80.00,8.00,0.00,29.88,M,6.21,M,SCT,BKN,M,M,2400.00,5400.00,M,M,VCSH,YBBN 311500Z 08008KT 9999 VCSH SCT024 BKN054 24/18 Q1012
YBBN,2014-01-31 15:30,153.1292,-27.3917,75.20,64.40,69.14,80.00,8.00,0.00,29.88,M,6.21,M,SCT,BKN,M,M,2400.00,5800.00,M,M,M,YBBN 311530Z 08008KT 9999 SCT024 BKN058 24/18 Q1012
YBBN,2014-01-31 16:00,153.1292,-27.3917,73.40,64.40,73.44,90.00,7.00,0.00,29.88,M,6.21,M,FEW,BKN,BKN,M,1500.00,2300.00,5500.00,M,M,YBBN 311600Z 09007KT 9999 FEW015 BKN023 BKN055 23/18 Q1012
YBBN,2014-01-31 16:30,153.1292,-27.3917,73.40,64.40,73.44,100.00,7.00,0.00,29.85,M,6.21,M,FEW,BKN,M,M,2500.00,5200.00,M,M,M,YBBN 311630Z 10007KT 9999 FEW025 BKN052 23/18 Q1011
YBBN,2014-01-31 17:00,153.1292,-27.3917,75.20,64.40,69.14,70.00,7.00,0.00,29.85,M,6.21,M,FEW,BKN,M,M,1400.00,5500.00,M,M,M,YBBN 311700Z 07007KT 9999 FEW014 BKN055 24/18 Q1011
YBBN,2014-01-31 17:30,153.1292,-27.3917,73.40,64.40,73.44,80.00,7.00,0.00,29.85,M,6.21,M,FEW,BKN,M,M,1500.00,5500.00,M,M,M,YBBN 311730Z 08007KT 9999 FEW015 BKN055 23/18 Q1011
YBBN,2014-01-31 18:00,153.1292,-27.3917,73.40,64.40,73.44,80.00,8.00,0.00,29.85,M,6.21,M,FEW,BKN,M,M,1400.00,5500.00,M,M,M,YBBN 311800Z 08008KT 9999 FEW014 BKN055 23/18 Q1011 NOSIG
YBBN,2014-01-31 18:30,153.1292,-27.3917,73.40,64.40,73.44,80.00,7.00,0.00,29.85,M,6.21,M,FEW,BKN,M,M,2200.00,6500.00,M,M,M,YBBN 311830Z 08007KT 9999 FEW022 BKN065 23/18 Q1011
YBBN,2014-01-31 19:00,153.1292,-27.3917,73.40,64.40,73.44,90.00,7.00,0.00,29.85,M,6.21,M,FEW,BKN,M,M,2500.00,6200.00,M,M,M,YBBN 311900Z 09007KT 9999 FEW025 BKN062 23/18 Q1011 NOSIG
YBBN,2014-01-31 19:30,153.1292,-27.3917,73.40,64.40,73.44,80.00,8.00,0.00,29.88,M,6.21,M,FEW,BKN,M,M,2500.00,6500.00,M,M,M,YBBN 311930Z 08008KT 9999 FEW025 BKN065 23/18 Q1012
YBBN,2014-01-31 20:00,153.1292,-27.3917,73.40,64.40,73.44,100.00,8.00,0.00,29.88,M,6.21,M,FEW,BKN,M,M,2800.00,6000.00,M,M,M,YBBN 312000Z 10008KT 9999 FEW028 BKN060 23/18 Q1012 NOSIG
YBBN,2014-01-31 20:30,153.1292,-27.3917,73.40,64.40,73.44,90.00,8.00,0.00,29.88,M,6.21,M,FEW,BKN,M,M,2800.00,6000.00,M,M,M,YBBN 312030Z 09008KT 9999 FEW028 BKN060 23/18 Q1012
YBBN,2014-01-31 21:00,153.1292,-27.3917,75.20,64.40,69.14,90.00,9.00,0.00,29.88,M,6.21,M,FEW,BKN,M,M,3000.00,6000.00,M,M,M,YBBN 312100Z 09009KT 9999 FEW030 BKN060 24/18 Q1012 NOSIG
YBBN,2014-01-31 21:30,153.1292,-27.3917,75.20,64.40,69.14,90.00,12.00,0.00,29.88,M,6.21,M,FEW,BKN,M,M,3200.00,6000.00,M,M,M,YBBN 312130Z 09012KT 9999 FEW032 BKN060 24/18 Q1012
YBBN,2014-01-31 22:00,153.1292,-27.3917,77.00,62.60,61.13,90.00,11.00,0.00,29.91,M,6.21,M,FEW,BKN,M,M,3200.00,6000.00,M,M,M,YBBN 312200Z 09011KT 9999 FEW032 BKN060 25/17 Q1013
YBBN,2014-01-31 22:30,153.1292,-27.3917,77.00,62.60,61.13,90.00,10.00,0.00,29.91,M,6.21,M,FEW,BKN,M,M,3200.00,6000.00,M,M,M,YBBN 312230Z 09010KT 9999 FEW032 BKN060 25/17 Q1013
YBBN,2014-01-31 23:00,153.1292,-27.3917,78.80,62.60,57.60,90.00,10.00,0.00,29.91,M,6.21,M,FEW,SCT,M,M,3300.00,20000.00,M,M,M,YBBN 312300Z 09010KT 9999 FEW033 SCT200 26/17 Q1013
YBBN,2014-01-31 23:30,153.1292,-27.3917,77.00,60.80,57.36,100.00,9.00,0.00,29.91,M,6.21,M,FEW,SCT,M,M,3300.00,20000.00,M,M,M,YBBN 312330Z 10009KT 9999 FEW033 SCT200 25/16 Q1013
