#DEBUG: Format Typ    -> comma
#DEBUG: Time Period   -> 2016-11-25 00:00:00+00:00 2016-11-26 00:00:00+00:00
#DEBUG: Time Zone     -> Etc/UTC
#DEBUG: Data Contact   -> daryl herzmann akrherz@iastate.edu 515-294-5978
#DEBUG: Entries Found -> -1
station,valid,lon,lat,tmpf, dwpf, relh, drct, sknt, p01i, alti, mslp, vsby, gust, skyc1, skyc2, skyc3, skyc4, skyl1, skyl2, skyl3, skyl4, presentwx, metar
YBBN,2016-11-25 00:00,153.1292,-27.3917,75.20,59.00,57.12,30.00,9.00,0.00,29.94,M,6.21,M,FEW,SCT,M,M,3400.00,19000.00,M,M,M,YBBN 250000Z 03009KT 010V070 9999 FEW034 SCT190 24/15 Q1014 NOSIG
YBBN,2016-11-25 00:30,153.1292,-27.3917,77.00,59.00,53.80,30.00,9.00,0.00,29.94,M,6.21,M,FEW,SCT,M,M,3400.00,25000.00,M,M,M,YBBN 250030Z 03009KT 9999 FEW034 SCT250 25/15 Q1014 NOSIG
YBBN,2016-11-25 01:00,153.1292,-27.3917,78.80,59.00,50.69,30.00,10.00,0.00,29.91,M,6.21,M,FEW,M,M,M,3400.00,M,M,M,M,YBBN 250100Z 03010KT 9999 FEW034 26/15 Q1013 NOSIG
YBBN,2016-11-25 01:30,153.1292,-27.3917,78.80,60.80,54.05,60.00,9.00,0.00,29.91,M,6.21,M,FEW,M,M,M,3600.00,M,M,M,M,YBBN 250130Z 06009KT 9999 FEW036 26/16 Q1013 NOSIG
YBBN,2016-11-25 02:00,153.1292,-27.3917,78.80,60.80,54.05,60.00,9.00,0.00,29.91,M,6.21,M,FEW,M,M,M,3600.00,M,M,M,M,YBBN 250200Z 06009KT 040V110 9999 FEW036 26/16 Q1013
YBBN,2016-11-25 02:30,153.1292,-27.3917,77.00,60.80,57.36,50.00,12.00,0.00,29.88,M,6.21,M,FEW,M,M,M,3600.00,M,M,M,M,YBBN 250230Z 05012KT 9999 FEW036 25/16 Q1012 NOSIG
YBBN,2016-11-25 03:00,153.1292,-27.3917,77.00,60.80,57.36,50.00,13.00,0.00,29.88,M,6.21,M,FEW,M,M,M,3600.00,M,M,M,M,YBBN 250300Z 05013KT 9999 FEW036 25/16 Q1012
YBBN,2016-11-25 03:30,153.1292,-27.3917,77.00,60.80,57.36,60.00,15.00,0.00,29.88,M,6.21,M,FEW,M,M,M,3600.00,M,M,M,M,YBBN 250330Z 06015KT 9999 FEW036 25/16 Q1012 NOSIG
YBBN,2016-11-25 04:00,153.1292,-27.3917,78.80,62.60,57.60,70.00,13.00,0.00,29.88,M,6.21,M,FEW,SCT,M,M,3800.00,25000.00,M,M,M,YBBN 250400Z 07013KT 9999 FEW038 SCT250 26/17 Q1012
YBBN,2016-11-25 04:30,153.1292,-27.3917,78.80,62.60,57.60,60.00,14.00,0.00,29.85,M,6.21,M,FEW,SCT,M,M,3800.00,25000.00,M,M,M,YBBN 250430Z 06014KT 9999 FEW038 SCT250 26/17 Q1011 NOSIG
YBBN,2016-11-25 05:00,153.1292,-27.3917,77.00,62.60,61.13,50.00,15.00,0.00,29.85,M,6.21,M,FEW,M,M,M,3800.00,M,M,M,M,YBBN 250500Z 05015KT 9999 FEW038 25/17 Q1011
YBBN,2016-11-25 05:30,153.1292,-27.3917,77.00,62.60,61.13,60.00,13.00,0.00,29.85,M,6.21,M,FEW,M,M,M,3800.00,M,M,M,M,YBBN 250530Z 06013KT 9999 FEW038 25/17 Q1011 NOSIG
YBBN,2016-11-25 06:00,153.1292,-27.3917,75.20,62.60,64.91,60.00,12.00,0.00,29.85,M,6.21,M,FEW,M,M,M,3800.00,M,M,M,M,YBBN 250600Z 06012KT 9999 FEW038 24/17 Q1011
YBBN,2016-11-25 06:30,153.1292,-27.3917,77.00,62.60,61.13,60.00,13.00,0.00,29.85,M,6.21,M,FEW,SCT,M,M,3600.00,19000.00,M,M,M,YBBN 250630Z 06013KT 9999 FEW036 SCT190 25/17 Q1011 NOSIG
YBBN,2016-11-25 07:00,153.1292,-27.3917,75.20,62.60,64.91,60.00,12.00,0.00,29.85,M,6.21,M,FEW,SCT,M,M,3600.00,23000.00,M,M,M,YBBN 250700Z 06012KT 9999 FEW036 SCT230 24/17 Q1011
YBBN,2016-11-25 07:30,153.1292,-27.3917,75.20,64.40,69.14,60.00,10.00,0.00,29.88,M,6.21,M,FEW,M,M,M,3400.00,M,M,M,M,YBBN 250730Z 06010KT 9999 FEW034 24/18 Q1012 NOSIG
YBBN,2016-11-25 08:00,153.1292,-27.3917,73.40,64.40,73.44,50.00,11.00,0.00,29.88,M,6.21,M,FEW,M,M,M,2500.00,M,M,M,M,YBBN 250800Z 05011KT 9999 FEW025 23/18 Q1012
YBBN,2016-11-25 08:30,153.1292,-27.3917,73.40,64.40,73.44,60.00,9.00,0.00,29.88,M,6.21,M,FEW,M,M,M,2500.00,M,M,M,M,YBBN 250830Z 06009KT 9999 FEW025 23/18 Q1012 NOSIG
YBBN,2016-11-25 09:00,153.1292,-27.3917,73.40,64.40,73.44,60.00,10.00,0.00,29.91,M,6.21,M,FEW,SCT,M,M,2500.00,3300.00,M,M,M,YBBN 250900Z 06010KT 9999 FEW025 SCT033 23/18 Q1013
YBBN,2016-11-25 09:30,153.1292,-27.3917,73.40,64.40,73.44,50.00,9.00,0.00,29.91,M,6.21,M,FEW,SCT,M,M,2500.00,3400.00,M,M,M,YBBN 250930Z 05009KT 9999 FEW025 SCT034 23/18 Q1013 NOSIG
YBBN,2016-11-25 10:00,153.1292,-27.3917,73.40,64.40,73.44,40.00,9.00,0.00,29.91,M,6.21,M,FEW,SCT,M,M,2100.00,4000.00,M,M,M,YBBN 251000Z 04009KT 9999 FEW021 SCT040 23/18 Q1013 NOSIG
YBBN,2016-11-25 10:30,153.1292,-27.3917,73.40,66.20,78.19,40.00,9.00,0.00,29.91,M,6.21,M,FEW,SCT,M,M,2000.00,4000.00,M,M,M,YBBN 251030Z 04009KT 9999 FEW020 SCT040 23/19 Q1013 NOSIG
YBBN,2016-11-25 11:00,153.1292,-27.3917,73.40,66.20,78.19,40.00,7.00,0.00,29.94,M,6.21,M,FEW,BKN,M,M,2000.00,4000.00,M,M,M,YBBN 251100Z 04007KT 9999 FEW020 BKN040 23/19 Q1014
YBBN,2016-11-25 11:30,153.1292,-27.3917,73.40,66.20,78.19,30.00,6.00,0.00,29.94,M,6.21,M,FEW,BKN,M,M,2200.00,4000.00,M,M,M,YBBN 251130Z 03006KT 9999 FEW022 BKN040 23/19 Q1014 NOSIG
YBBN,2016-11-25 12:00,153.1292,-27.3917,73.40,66.20,78.19,50.00,6.00,0.00,29.94,M,6.21,M,FEW,BKN,M,M,1900.00,4000.00,M,M,M,YBBN 251200Z 05006KT 9999 FEW019 BKN040 23/19 Q1014
YBBN,2016-11-25 12:30,153.1292,-27.3917,75.20,66.20,73.61,50.00,7.00,0.00,29.94,M,6.21,M,FEW,BKN,M,M,1900.00,4000.00,M,M,M,YBBN 251230Z 05007KT 9999 FEW019 BKN040 24/19 Q1014 NOSIG
YBBN,2016-11-25 13:00,153.1292,-27.3917,73.40,68.00,83.21,60.00,7.00,0.00,29.94,M,6.21,M,FEW,BKN,M,M,2500.00,4200.00,M,M,M,YBBN 251300Z 06007KT 9999 FEW025 BKN042 23/20 Q1014
YBBN,2016-11-25 13:30,153.1292,-27.3917,73.40,68.00,83.21,60.00,6.00,0.00,29.91,M,6.21,M,FEW,SCT,M,M,2500.00,5000.00,M,M,M,YBBN 251330Z 06006KT 9999 FEW025 SCT050 23/20 Q1013 NOSIG
YBBN,2016-11-25 14:00,153.1292,-27.3917,73.40,68.00,83.21,60.00,5.00,0.00,29.91,M,6.21,M,FEW,SCT,M,M,1800.00,5000.00,M,M,M,YBBN 251400Z 06005KT 9999 FEW018 SCT050 23/20 Q1013 NOSIG
YBBN,2016-11-25 14:30,153.1292,-27.3917,73.40,68.00,83.21,60.00,5.00,0.00,29.91,M,6.21,M,FEW,SCT,M,M,2000.00,5000.00,M,M,M,YBBN 251430Z 06005KT 9999 FEW020 SCT050 23/20 Q1013 NOSIG
YBBN,2016-11-25 15:00,153.1292,-27.3917,75.20,68.00,78.34,60.00,6.00,0.00,29.91,M,6.21,M,FEW,SCT,M,M,1900.00,4000.00,M,M,VCSH,YBBN 251500Z 06006KT 9999 VCSH FEW019 SCT040 24/20 Q1013
YBBN,2016-11-25 16:00,153.1292,-27.3917,71.60,68.00,88.43,60.00,4.00,0.00,29.91,M,6.21,M,FEW,SCT,M,M,1600.00,3500.00,M,M,-SHRA,YBBN 251600Z 06004KT 9999 -SHRA FEW016 SCT035 22/20 Q1013
YBBN,2016-11-25 17:00,153.1292,-27.3917,73.40,68.00,83.21,50.00,5.00,0.00,29.88,M,6.21,M,FEW,SCT,M,M,1800.00,4000.00,M,M,M,YBBN 251700Z 05005KT 9999 FEW018 SCT040 23/20 Q1012
YBBN,2016-11-25 18:00,153.1292,-27.3917,71.60,68.00,88.43,50.00,6.00,0.00,29.91,M,6.21,M,FEW,SCT,M,M,2500.00,4500.00,M,M,VCSH,YBBN 251800Z 05006KT 9999 VCSH FEW025 SCT045 22/20 Q1013
YBBN,2016-11-25 19:00,153.1292,-27.3917,71.60,68.00,88.43,0.00,0.00,0.00,29.91,M,6.21,M,FEW,SCT,M,M,1700.00,4000.00,M,M,VCSH,YBBN 251900Z 00000KT 9999 VCSH FEW017 SCT040 22/20 Q1013
YBBN,2016-11-25 19:30,153.1292,-27.3917,71.60,69.80,94.06,320.00,6.00,0.00,29.91,M,6.21,M,FEW,SCT,BKN,M,1100.00,1600.00,4000.00,M,-SHRA,YBBN 251930Z 32006KT 290V350 9999 4500SW -SHRA FEW011 SCT016 BKN040 22/21 Q1013
YBBN,2016-11-25 19:48,153.1292,-27.3917,71.60,69.80,94.06,290.00,11.00,0.00,29.94,M,6.21,M,FEW,SCT,BKN,FEW,1300.00,1800.00,4000.00,1500.00,-TSRA,YBBN 251948Z 29011KT 280V340 9999 4500SE -TSRA FEW013 SCT018 BKN040 FEW015CB 22/21 Q1014
YBBN,2016-11-25 19:56,153.1292,-27.3917,71.60,69.80,94.06,280.00,6.00,0.00,29.94,M,1.55,M,FEW,SCT,BKN,FEW,700.00,1300.00,4000.00,1500.00,TSRA,YBBN 251956Z 28006KT 250V010 2500 TSRA FEW007 SCT013 BKN040 FEW015CB 22/21 Q1014 RETS
YBBN,2016-11-25 20:00,153.1292,-27.3917,71.60,69.80,94.06,340.00,6.00,0.00,29.94,M,1.24,M,FEW,SCT,BKN,FEW,500.00,1300.00,4000.00,1500.00,TSRA,YBBN 252000Z 34006KT 2000 TSRA FEW005 SCT013 BKN040 FEW015CB 22/21 Q1014 RETS
YBBN,2016-11-25 20:15,153.1292,-27.3917,64.40,62.60,93.88,140.00,9.00,0.00,29.97,M,0.25,M,SCT,SCT,BKN,FEW,500.00,1300.00,3800.00,1500.00,TSRA,YBBN 252015Z 14009KT 100V190 0400 TSRA SCT005 SCT013 BKN038 FEW015CB 18/17 Q1015 RETS
YBBN,2016-11-25 20:30,153.1292,-27.3917,66.20,64.40,93.92,160.00,14.00,0.00,29.97,M,0.37,M,SCT,SCT,BKN,FEW,400.00,1300.00,3500.00,1500.00,+TSRA,YBBN 252030Z 16014KT 0600 +TSRA SCT004 SCT013 BKN035 FEW015CB 19/18 Q1015 RETS
YBBN,2016-11-25 20:53,153.1292,-27.3917,68.00,66.20,93.97,110.00,4.00,0.00,29.97,M,0.93,M,FEW,SCT,BKN,FEW,500.00,1300.00,3500.00,1500.00,+SHRA VCTS,YBBN 252053Z 11004KT 1500 +SHRA VCTS FEW005 SCT013 BKN035 FEW015CB 20/19 Q1015 RETS
YBBN,2016-11-25 21:00,153.1292,-27.3917,68.00,66.20,93.97,130.00,2.00,0.00,29.97,M,6.21,M,FEW,SCT,BKN,M,700.00,1300.00,3800.00,M,-SHRA,YBBN 252100Z 13002KT 9999 4000N -SHRA FEW007 SCT013 BKN038 20/19 Q1015 RESHRA
YBBN,2016-11-25 21:16,153.1292,-27.3917,69.80,68.00,94.01,70.00,5.00,0.00,29.97,M,6.21,M,FEW,SCT,BKN,M,700.00,1800.00,7500.00,M,-SHRA,YBBN 252116Z 07005KT 9999 -SHRA FEW007 SCT018TCU BKN075 21/20 Q1015 RESHRA
YBBN,2016-11-25 21:30,153.1292,-27.3917,71.60,68.00,88.43,250.00,5.00,0.00,29.97,M,6.21,M,FEW,SCT,BKN,M,700.00,1800.00,22000.00,M,-SHRA,YBBN 252130Z 25005KT 9999 -SHRA FEW007 SCT018TCU BKN220 22/20 Q1015
YBBN,2016-11-25 22:00,153.1292,-27.3917,75.20,69.80,83.32,50.00,7.00,0.00,29.97,M,6.21,M,FEW,SCT,BKN,M,800.00,2000.00,22000.00,M,VCSH,YBBN 252200Z 05007KT 9999 VCSH FEW008 SCT020TCU BKN220 24/21 Q1015
YBBN,2016-11-25 23:00,153.1292,-27.3917,75.20,66.20,73.61,50.00,11.00,0.00,30.00,M,6.21,M,FEW,BKN,M,M,700.00,2000.00,M,M,-SHRA,YBBN 252300Z 05011KT 9999 -SHRA FEW007 BKN020TCU 24/19 Q1016
YBBN,2016-11-25 23:20,153.1292,-27.3917,69.80,66.20,88.34,10.00,19.00,0.00,30.00,M,5.59,M,FEW,BKN,M,M,500.00,2000.00,M,M,-SHRA,YBBN 252320Z 01019KT 9000 -SHRA FEW005 BKN020TCU 21/19 Q1016
YBBN,2016-11-25 23:30,153.1292,-27.3917,66.20,64.40,93.92,50.00,22.00,0.00,30.00,M,4.97,M,FEW,BKN,M,M,600.00,2000.00,M,M,-SHRA,YBBN 252330Z 05022KT 8000 -SHRA FEW006 BKN020TCU 19/18 Q1016
