#DEBUG: Format Typ    -> comma
#DEBUG: Time Period   -> 2013-02-05 00:00:00+00:00 2013-02-06 00:00:00+00:00
#DEBUG: Time Zone     -> Etc/UTC
#DEBUG: Data Contact   -> daryl herzmann akrherz@iastate.edu 515-294-5978
#DEBUG: Entries Found -> -1
station,valid,lon,lat,tmpf, dwpf, relh, drct, sknt, p01i, alti, mslp, vsby, gust, skyc1, skyc2, skyc3, skyc4, skyl1, skyl2, skyl3, skyl4, presentwx, metar
YBBN,2013-02-05 00:00,153.1292,-27.3917,78.80,60.80,54.05,140.00,10.00,0.00,30.09,M,6.21,M,BKN,M,M,M,3600.00,M,M,M,M,YBBN 050000Z 14010KT 9999 BKN036 26/16 Q1019 NOSIG
YBBN,2013-02-05 00:30,153.1292,-27.3917,78.80,60.80,54.05,140.00,9.00,0.00,30.09,M,6.21,M,SCT,M,M,M,3800.00,M,M,M,M,YBBN 050030Z 14009KT 9999 SCT038 26/16 Q1019
YBBN,2013-02-05 01:00,153.1292,-27.3917,78.80,60.80,54.05,130.00,9.00,0.00,30.09,M,6.21,M,BKN,M,M,M,3800.00,M,M,M,M,YBBN 050100Z 13009KT 9999 BKN038 26/16 Q1019 NOSIG
YBBN,2013-02-05 01:30,153.1292,-27.3917,78.80,59.00,50.69,140.00,12.00,0.00,30.06,M,6.21,M,BKN,M,M,M,3900.00,M,M,M,M,YBBN 050130Z 14012KT 9999 BKN039 26/15 Q1018
YBBN,2013-02-05 02:00,153.1292,-27.3917,80.60,60.80,50.95,130.00,11.00,0.00,30.06,M,6.21,21.00,BKN,BKN,M,M,4000.00,5100.00,M,M,VCSH,YBBN 050200Z 13011G21KT 9999 VCSH BKN040 BKN051 27/16 Q1018 NOSIG
YBBN,2013-02-05 02:30,153.1292,-27.3917,78.80,60.80,54.05,140.00,11.00,0.00,30.06,M,6.21,M,SCT,BKN,M,M,3900.00,5000.00,M,M,VCSH,YBBN 050230Z 14011KT 9999 VCSH SCT039 BKN050 26/16 Q1018
YBBN,2013-02-05 03:00,153.1292,-27.3917,78.80,60.80,54.05,140.00,12.00,0.00,30.06,M,6.21,M,FEW,BKN,M,M,3700.00,5900.00,M,M,VCSH,YBBN 050300Z 14012KT 9999 VCSH FEW037 BKN059 26/16 Q1018
YBBN,2013-02-05 03:30,153.1292,-27.3917,78.80,60.80,54.05,140.00,11.00,0.00,30.03,M,6.21,M,SCT,BKN,M,M,3700.00,7200.00,M,M,M,YBBN 050330Z 14011KT 9999 SCT037 BKN072 26/16 Q1017
YBBN,2013-02-05 04:00,153.1292,-27.3917,80.60,60.80,50.95,130.00,9.00,0.00,30.03,M,6.21,M,SCT,BKN,M,M,3500.00,8500.00,M,M,VCSH,YBBN 050400Z 13009KT 9999 VCSH SCT035 BKN085 27/16 Q1017
YBBN,2013-02-05 04:30,153.1292,-27.3917,78.80,59.00,50.69,130.00,11.00,0.00,30.03,M,6.21,M,FEW,BKN,M,M,3500.00,6000.00,M,M,VCSH,YBBN 050430Z 13011KT 9999 VCSH FEW035 BKN060 26/15 Q1017
YBBN,2013-02-05 05:00,153.1292,-27.3917,77.00,62.60,61.13,170.00,11.00,0.00,30.03,M,6.21,M,FEW,SCT,BKN,M,3500.00,6000.00,7800.00,M,VCSH,YBBN 050500Z 17011KT 9999 VCSH FEW035 SCT060 BKN078 25/17 Q1017 NOSIG
YBBN,2013-02-05 05:30,153.1292,-27.3917,73.40,64.40,73.44,170.00,9.00,0.00,30.03,M,6.21,M,SCT,BKN,M,M,2900.00,4800.00,M,M,VCSH,YBBN 050530Z 17009KT 9999 VCSH SCT029 BKN048 23/18 Q1017
YBBN,2013-02-05 06:00,153.1292,-27.3917,77.00,62.60,61.13,180.00,8.00,0.00,30.03,M,6.21,M,SCT,BKN,M,M,3200.00,4000.00,M,M,VCSH,YBBN 050600Z 18008KT 9999 VCSH SCT032 BKN040 25/17 Q1017
YBBN,2013-02-05 06:30,153.1292,-27.3917,77.00,59.00,53.80,130.00,12.00,0.00,30.03,M,6.21,M,SCT,BKN,M,M,3000.00,4800.00,M,M,VCSH,YBBN 050630Z 13012KT 9999 VCSH SCT030 BKN048 25/15 Q1017
YBBN,2013-02-05 07:00,153.1292,-27.3917,75.20,59.00,57.12,140.00,10.00,0.00,30.03,M,6.21,M,FEW,BKN,M,M,3000.00,5900.00,M,M,VCSH,YBBN 050700Z 14010KT 9999 VCSH FEW030 BKN059 24/15 Q1017 INTER 0700/0900 3000 SHRA BKN012
YBBN,2013-02-05 07:30,153.1292,-27.3917,71.60,64.40,78.04,120.00,15.00,0.00,30.06,M,6.21,M,FEW,SCT,BKN,M,1800.00,3000.00,6000.00,M,-SHRA,YBBN 050730Z 12015KT 9999 -SHRA FEW018 SCT030 BKN060 22/18 Q1018
YBBN,2013-02-05 08:00,153.1292,-27.3917,71.60,64.40,78.04,130.00,11.00,0.00,30.06,M,1.86,M,FEW,SCT,BKN,M,1800.00,3000.00,4400.00,M,SHRA VCSH,YBBN 050800Z 13011KT 3000 SHRA VCSH FEW018 SCT030 BKN044 22/18 Q1018
YBBN,2013-02-05 08:30,153.1292,-27.3917,69.80,66.20,88.34,160.00,7.00,0.00,30.06,M,3.73,M,FEW,SCT,BKN,M,1800.00,3000.00,6600.00,M,-SHRA VCSH,YBBN 050830Z 16007KT 6000 -SHRA VCSH FEW018 SCT030 BKN066 21/19 Q1018 RESHRA
YBBN,2013-02-05 09:00,153.1292,-27.3917,69.80,66.20,88.34,190.00,7.00,0.00,30.09,M,6.21,M,FEW,SCT,BKN,M,1800.00,3000.00,7800.00,M,VCSH,YBBN 050900Z 19007KT 9999 VCSH FEW018 SCT030 BKN078 21/19 Q1019
YBBN,2013-02-05 09:30,153.1292,-27.3917,69.80,64.40,82.98,170.00,7.00,0.00,30.09,M,6.21,M,SCT,BKN,M,M,3000.00,8700.00,M,M,M,YBBN 050930Z 17007KT 9999 SCT030 BKN087 21/18 Q1019
YBBN,2013-02-05 10:00,153.1292,-27.3917,69.80,64.40,82.98,170.00,9.00,0.00,30.09,M,6.21,M,FEW,BKN,M,M,3000.00,5800.00,M,M,VCSH,YBBN 051000Z 17009KT 9999 VCSH FEW030 BKN058 21/18 Q1019 INTER 1000/1300 3000 SHRA BKN012
YBBN,2013-02-05 10:30,153.1292,-27.3917,69.80,64.40,82.98,150.00,6.00,0.00,30.09,M,5.59,M,FEW,SCT,BKN,M,1800.00,2800.00,4600.00,M,-SHRA VCSH,YBBN 051030Z 15006KT 9000 -SHRA VCSH FEW018 SCT028 BKN046 21/18 Q1019
YBBN,2013-02-05 11:00,153.1292,-27.3917,69.80,64.40,82.98,190.00,7.00,0.00,30.09,M,6.21,M,FEW,BKN,M,M,3000.00,4900.00,M,M,VCSH,YBBN 051100Z 19007KT 9999 VCSH FEW030 BKN049 21/18 Q1019
YBBN,2013-02-05 11:30,153.1292,-27.3917,69.80,64.40,82.98,190.00,6.00,0.00,30.09,M,6.21,M,SCT,BKN,M,M,3000.00,4300.00,M,M,M,YBBN 051130Z 19006KT 9999 SCT030 BKN043 21/18 Q1019
YBBN,2013-02-05 12:00,153.1292,-27.3917,69.80,62.60,77.90,180.00,7.00,0.00,30.09,M,6.21,M,FEW,BKN,M,M,2800.00,5700.00,M,M,VCSH,YBBN 051200Z 18007KT 9999 VCSH FEW028 BKN057 21/17 Q1019 INTER 1200/1500 3000 SHRA BKN012
YBBN,2013-02-05 12:17,153.1292,-27.3917,68.00,64.40,88.26,160.00,8.00,0.00,30.09,M,1.86,M,FEW,SCT,BKN,M,1800.00,2700.00,5700.00,M,SHRA,YBBN 051217Z 16008KT 3000 SHRA FEW018 SCT027 BKN057 20/18 Q1019
YBBN,2013-02-05 12:30,153.1292,-27.3917,66.20,64.40,93.92,170.00,8.00,0.00,30.09,M,3.73,M,FEW,SCT,BKN,M,1100.00,1800.00,4000.00,M,-SHRA,YBBN 051230Z 17008KT 6000 -SHRA FEW011 SCT018 BKN040 19/18 Q1019 RESHRA
YBBN,2013-02-05 12:45,153.1292,-27.3917,66.20,64.40,93.92,200.00,4.00,0.00,30.09,M,6.21,M,FEW,SCT,BKN,M,1400.00,2500.00,4400.00,M,VCSH,YBBN 051245Z 20004KT 9999 VCSH FEW014 SCT025 BKN044 19/18 Q1019
YBBN,2013-02-05 13:00,153.1292,-27.3917,68.00,64.40,88.26,180.00,5.00,0.00,30.09,M,6.21,M,FEW,SCT,BKN,M,1100.00,2800.00,4400.00,M,VCSH,YBBN 051300Z 18005KT 9999 VCSH FEW011 SCT028 BKN044 20/18 Q1019
YBBN,2013-02-05 13:21,153.1292,-27.3917,68.00,64.40,88.26,140.00,6.00,0.00,30.09,M,2.49,M,FEW,SCT,BKN,M,1200.00,2000.00,3300.00,M,-SHRA,YBBN 051321Z 14006KT 4000 -SHRA FEW012 SCT020 BKN033 20/18 Q1019
YBBN,2013-02-05 13:30,153.1292,-27.3917,66.20,64.40,93.92,150.00,9.00,0.00,30.09,M,3.11,M,FEW,SCT,BKN,M,2000.00,2500.00,3900.00,M,-SHRA,YBBN 051330Z 15009KT 5000 -SHRA FEW020 SCT025 BKN039 19/18 Q1019
YBBN,2013-02-05 14:00,153.1292,-27.3917,66.20,64.40,93.92,180.00,7.00,0.00,30.09,M,3.11,M,FEW,SCT,BKN,M,1700.00,2500.00,4000.00,M,SHRA,YBBN 051400Z 18007KT 5000 SHRA FEW017 SCT025 BKN040 19/18 Q1019
YBBN,2013-02-05 14:30,153.1292,-27.3917,66.20,64.40,93.92,200.00,8.00,0.00,30.09,M,3.11,M,FEW,SCT,BKN,M,600.00,2500.00,4100.00,M,-SHRA,YBBN 051430Z 20008KT 5000 -SHRA FEW006 SCT025 BKN041 19/18 Q1019 RESHRA
YBBN,2013-02-05 15:00,153.1292,-27.3917,66.20,64.40,93.92,190.00,6.00,0.00,30.06,M,3.11,M,FEW,SCT,BKN,M,1800.00,2600.00,4400.00,M,SHRA,YBBN 051500Z 19006KT 5000 SHRA FEW018 SCT026 BKN044 19/18 Q1018 RESHRA
YBBN,2013-02-05 15:30,153.1292,-27.3917,66.20,64.40,93.92,210.00,7.00,0.00,30.06,M,4.97,M,FEW,BKN,M,M,2100.00,5100.00,M,M,-SHRA,YBBN 051530Z 21007KT 8000 -SHRA FEW021 BKN051 19/18 Q1018
YBBN,2013-02-05 16:00,153.1292,-27.3917,66.20,64.40,93.92,240.00,8.00,0.00,30.03,M,6.21,M,FEW,BKN,M,M,2500.00,7000.00,M,M,VCSH,YBBN 051600Z 24008KT 9999 VCSH FEW025 BKN070 19/18 Q1017 FM1600 16008KT 9999 -SHRA SCT025 BKN050 INTER 1600/1900 3000 SHRA BKN012
YBBN,2013-02-05 16:30,153.1292,-27.3917,66.20,64.40,93.92,210.00,7.00,0.00,30.03,M,6.21,M,FEW,SCT,BKN,M,2500.00,3400.00,8000.00,M,M,YBBN 051630Z 21007KT 9999 FEW025 SCT034 BKN080 19/18 Q1017
YBBN,2013-02-05 17:00,153.1292,-27.3917,66.20,64.40,93.92,210.00,8.00,0.00,30.00,M,4.97,M,FEW,SCT,BKN,M,2500.00,7200.00,8300.00,M,VCSH,YBBN 051700Z 21008KT 8000 VCSH FEW025 SCT072 BKN083 19/18 Q1016 INTER 1700/2000 3000 SHRA BKN012
YBBN,2013-02-05 17:30,153.1292,-27.3917,66.20,64.40,93.92,210.00,7.00,0.00,30.00,M,6.21,M,FEW,BKN,BKN,M,2500.00,7300.00,8400.00,M,M,YBBN 051730Z 21007KT 9999 FEW025 BKN073 BKN084 19/18 Q1016
YBBN,2013-02-05 18:00,153.1292,-27.3917,66.20,64.40,93.92,210.00,7.00,0.00,30.00,M,6.21,M,M,M,M,M,M,M,M,M,M,YBBN 051800Z 21007KT CAVOK 19/18 Q1016 RMK 6SC078
YBBN,2013-02-05 18:30,153.1292,-27.3917,66.20,64.40,93.92,210.00,9.00,0.00,30.03,M,6.21,M,M,M,M,M,M,M,M,M,M,YBBN 051830Z 21009KT CAVOK 19/18 Q1017 RMK 7SC076
YBBN,2013-02-05 19:00,153.1292,-27.3917,66.20,62.60,88.18,200.00,8.00,0.00,30.03,M,6.21,M,M,M,M,M,M,M,M,M,M,YBBN 051900Z 20008KT CAVOK 19/17 Q1017
YBBN,2013-02-05 19:30,153.1292,-27.3917,66.20,62.60,88.18,200.00,8.00,0.00,30.03,M,6.21,M,M,M,M,M,M,M,M,M,M,YBBN 051930Z 20008KT CAVOK 19/17 Q1017
YBBN,2013-02-05 20:00,153.1292,-27.3917,66.20,62.60,88.18,200.00,8.00,0.00,30.03,M,6.21,M,M,M,M,M,M,M,M,M,M,YBBN 052000Z 20008KT CAVOK 19/17 Q1017
YBBN,2013-02-05 20:30,153.1292,-27.3917,68.00,62.60,82.86,200.00,9.00,0.00,30.03,M,6.21,M,FEW,M,M,M,3500.00,M,M,M,M,YBBN 052030Z 20009KT 9999 FEW035 20/17 Q1017
YBBN,2013-02-05 21:00,153.1292,-27.3917,69.80,62.60,77.90,180.00,8.00,0.00,30.03,M,6.21,M,FEW,M,M,M,3500.00,M,M,M,M,YBBN 052100Z 18008KT 9999 FEW035 21/17 Q1017
YBBN,2013-02-05 21:30,153.1292,-27.3917,71.60,62.60,73.27,190.00,7.00,0.00,30.06,M,6.21,M,FEW,SCT,M,M,3500.00,7500.00,M,M,M,YBBN 052130Z 19007KT 9999 FEW035 SCT075 22/17 Q1018
YBBN,2013-02-05 22:00,153.1292,-27.3917,73.40,62.60,68.94,190.00,8.00,0.00,30.06,M,6.21,M,FEW,M,M,M,2000.00,M,M,M,M,YBBN 052200Z 19008KT 9999 FEW020 23/17 Q1018 INTER 2200/0100 3000 SHRA BKN012
YBBN,2013-02-05 22:30,153.1292,-27.3917,73.40,62.60,68.94,160.00,7.00,0.00,30.06,M,6.21,M,FEW,M,M,M,2500.00,M,M,M,M,YBBN 052230Z 16007KT 9999 FEW025 23/17 Q1018
YBBN,2013-02-05 23:00,153.1292,-27.3917,75.20,64.40,69.14,150.00,7.00,0.00,30.06,M,6.21,M,SCT,M,M,M,3000.00,M,M,M,M,YBBN 052300Z 15007KT 9999 SCT030 24/18 Q1018
YBBN,2013-02-05 23:30,153.1292,-27.3917,78.80,62.60,57.60,130.00,11.00,0.00,30.03,M,6.21,M,SCT,M,M,M,3000.00,M,M,M,M,YBBN 052330Z 13011KT 9999 SCT030 26/17 Q1017
