#DEBUG: Format Typ    -> comma
#DEBUG: Time Period   -> 2016-05-03 00:00:00+00:00 2016-05-04 00:00:00+00:00
#DEBUG: Time Zone     -> Etc/UTC
#DEBUG: Data Contact   -> daryl herzmann akrherz@iastate.edu 515-294-5978
#DEBUG: Entries Found -> -1
station,valid,lon,lat,tmpf, dwpf, relh, drct, sknt, p01i, alti, mslp, vsby, gust, skyc1, skyc2, skyc3, skyc4, skyl1, skyl2, skyl3, skyl4, presentwx, metar
YBBN,2016-05-03 00:00,153.1292,-27.3917,75.20,64.40,69.14,240.00,8.00,0.00,29.91,M,6.21,M,FEW,BKN,M,M,1700.00,25000.00,M,M,M,YBBN 030000Z 24008KT 9999 FEW017 BKN250 24/18 Q1013 NOSIG
YBBN,2016-05-03 00:30,153.1292,-27.3917,77.00,64.40,65.12,260.00,9.00,0.00,29.91,M,6.21,M,FEW,BKN,M,M,2000.00,25000.00,M,M,M,YBBN 030030Z 26009KT 9999 FEW020 BKN250 25/18 Q1013 NOSIG
YBBN,2016-05-03 01:00,153.1292,-27.3917,77.00,64.40,65.12,240.00,6.00,0.00,29.91,M,6.21,M,FEW,BKN,M,M,2500.00,25000.00,M,M,M,YBBN 030100Z 24006KT 220V280 9999 FEW025 BKN250 25/18 Q1013
YBBN,2016-05-03 01:30,153.1292,-27.3917,78.80,64.40,61.36,260.00,6.00,0.00,29.88,M,6.21,M,FEW,BKN,M,M,2600.00,25000.00,M,M,M,YBBN 030130Z 26006KT 9999 FEW026 BKN250 26/18 Q1012
YBBN,2016-05-03 02:00,153.1292,-27.3917,80.60,64.40,57.84,250.00,7.00,0.00,29.88,M,6.21,M,FEW,BKN,M,M,3000.00,25000.00,M,M,M,YBBN 030200Z 25007KT 230V300 9999 FEW030 BKN250 27/18 Q1012 NOSIG
YBBN,2016-05-03 02:30,153.1292,-27.3917,80.60,62.60,54.30,290.00,7.00,0.00,29.85,M,6.21,M,FEW,BKN,M,M,3500.00,25000.00,M,M,M,YBBN 030230Z 29007KT 260V320 9999 FEW035 BKN250 27/17 Q1011 NOSIG
YBBN,2016-05-03 03:00,153.1292,-27.3917,80.60,62.60,54.30,270.00,6.00,0.00,29.83,M,6.21,M,FEW,SCT,M,M,3500.00,25000.00,M,M,M,YBBN 030300Z 27006KT 9999 FEW035 SCT250 27/17 Q1010
YBBN,2016-05-03 03:30,153.1292,-27.3917,82.40,59.00,45.07,260.00,7.00,0.00,29.83,M,6.21,M,FEW,SCT,M,M,3500.00,25000.00,M,M,M,YBBN 030330Z 26007KT 190V290 9999 FEW035 SCT250 28/15 Q1010 NOSIG
YBBN,2016-05-03 04:00,153.1292,-27.3917,80.60,68.00,65.54,30.00,8.00,0.00,29.83,M,6.21,M,FEW,M,M,M,3000.00,M,M,M,M,YBBN 030400Z 03008KT 9999 FEW030 27/20 Q1010 NOSIG
YBBN,2016-05-03 04:30,153.1292,-27.3917,78.80,68.00,69.52,10.00,9.00,0.00,29.83,M,6.21,M,SCT,M,M,M,3000.00,M,M,M,M,YBBN 030430Z 01009KT 9999 SCT030 26/20 Q1010
YBBN,2016-05-03 05:00,153.1292,-27.3917,78.80,68.00,69.52,30.00,7.00,0.00,29.83,M,6.21,M,SCT,M,M,M,5000.00,M,M,M,//,YBBN 030500Z AUTO 03007KT 9999 // SCT050 26/20 Q1010
YBBN,2016-05-03 05:30,153.1292,-27.3917,78.80,66.20,65.33,20.00,7.00,0.00,29.83,M,6.21,M,SCT,M,M,M,3000.00,M,M,M,M,YBBN 030530Z 02007KT 9999 SCT030 26/19 Q1010 NOSIG
YBBN,2016-05-03 06:00,153.1292,-27.3917,77.00,66.20,69.33,30.00,6.00,0.00,29.83,M,6.21,M,SCT,M,M,M,3000.00,M,M,M,M,YBBN 030600Z 03006KT 9999 SCT030 25/19 Q1010 NOSIG
YBBN,2016-05-03 06:30,153.1292,-27.3917,77.00,66.20,69.33,20.00,7.00,0.00,29.83,M,6.21,M,FEW,SCT,M,M,2000.00,25000.00,M,M,M,YBBN 030630Z 02007KT 9999 FEW020 SCT250 25/19 Q1010 NOSIG
YBBN,2016-05-03 08:00,153.1292,-27.3917,73.40,69.80,88.51,360.00,9.00,0.00,29.85,M,6.21,M,FEW,BKN,M,M,3000.00,25000.00,M,M,M,YBBN 030800Z 36009KT 9999 FEW030 BKN250 23/21 Q1011
YBBN,2016-05-03 09:00,153.1292,-27.3917,71.60,69.80,94.06,330.00,1.00,0.00,29.88,M,6.21,M,FEW,BKN,M,M,3000.00,25000.00,M,M,M,YBBN 030900Z 33001KT 9999 FEW030 BKN250 22/21 Q1012
YBBN,2016-05-03 09:30,153.1292,-27.3917,71.60,69.80,94.06,350.00,6.00,0.00,29.88,M,6.21,M,FEW,BKN,M,M,3000.00,25000.00,M,M,M,YBBN 030930Z 35006KT 9999 FEW030 BKN250 22/21 Q1012 NOSIG
YBBN,2016-05-03 10:00,153.1292,-27.3917,71.60,69.80,94.06,360.00,6.00,0.00,29.91,M,6.21,M,M,M,M,M,M,M,M,M,M,YBBN 031000Z 36006KT CAVOK 22/21 Q1013
YBBN,2016-05-03 10:30,153.1292,-27.3917,71.60,69.80,94.06,330.00,4.00,0.00,29.91,M,6.21,M,M,M,M,M,M,M,M,M,M,YBBN 031030Z 33004KT CAVOK 22/21 Q1013 NOSIG
YBBN,2016-05-03 11:00,153.1292,-27.3917,71.60,68.00,88.43,300.00,1.00,0.00,29.91,M,6.21,M,M,M,M,M,M,M,M,M,M,YBBN 031100Z 30001KT CAVOK 22/20 Q1013 NOSIG
YBBN,2016-05-03 11:30,153.1292,-27.3917,69.80,68.00,94.01,340.00,5.00,0.00,29.91,M,6.21,M,FEW,BKN,M,M,3000.00,25000.00,M,M,M,YBBN 031130Z 34005KT 9999 FEW030 BKN250 21/20 Q1013 NOSIG
YBBN,2016-05-03 12:00,153.1292,-27.3917,69.80,66.20,88.34,0.00,0.00,0.00,29.91,M,6.21,M,M,M,M,M,M,M,M,M,M,YBBN 031200Z 00000KT CAVOK 21/19 Q1013
YBBN,2016-05-03 12:30,153.1292,-27.3917,69.80,64.40,82.98,330.00,4.00,0.00,29.91,M,6.21,M,M,M,M,M,M,M,M,M,M,YBBN 031230Z 33004KT CAVOK 21/18 Q1013 NOSIG
YBBN,2016-05-03 13:00,153.1292,-27.3917,68.00,64.40,88.26,260.00,1.00,0.00,29.91,M,6.21,M,M,M,M,M,M,M,M,M,M,YBBN 031300Z 26001KT CAVOK 20/18 Q1013 NOSIG
YBBN,2016-05-03 13:30,153.1292,-27.3917,69.80,64.40,82.98,0.00,0.00,0.00,29.91,M,6.21,M,M,M,M,M,M,M,M,M,M,YBBN 031330Z 00000KT CAVOK 21/18 Q1013 NOSIG
YBBN,2016-05-03 14:00,153.1292,-27.3917,69.80,64.40,82.98,270.00,1.00,0.00,29.91,M,6.21,M,M,M,M,M,M,M,M,M,M,YBBN 031400Z 27001KT CAVOK 21/18 Q1013
YBBN,2016-05-03 14:30,153.1292,-27.3917,68.00,62.60,82.86,0.00,0.00,0.00,29.91,M,6.21,M,M,M,M,M,M,M,M,M,M,YBBN 031430Z 00000KT CAVOK 20/17 Q1013 NOSIG
YBBN,2016-05-03 15:00,153.1292,-27.3917,68.00,62.60,82.86,290.00,5.00,0.00,29.91,M,6.21,M,M,M,M,M,M,M,M,M,M,YBBN 031500Z 29005KT CAVOK 20/17 Q1013
YBBN,2016-05-03 15:30,153.1292,-27.3917,69.80,60.80,73.09,290.00,6.00,0.00,29.91,M,6.21,M,M,M,M,M,M,M,M,M,M,YBBN 031530Z 29006KT CAVOK 21/16 Q1013 NOSIG
YBBN,2016-05-03 16:00,153.1292,-27.3917,68.00,60.80,77.75,280.00,2.00,0.00,29.88,M,6.21,M,M,M,M,M,M,M,M,M,M,YBBN 031600Z 28002KT CAVOK 20/16 Q1012
YBBN,2016-05-03 16:30,153.1292,-27.3917,66.20,60.80,82.74,0.00,0.00,0.00,29.88,M,6.21,M,M,M,M,M,M,M,M,M,M,YBBN 031630Z 00000KT CAVOK 19/16 Q1012 NOSIG
YBBN,2016-05-03 17:00,153.1292,-27.3917,66.20,60.80,82.74,0.00,0.00,0.00,29.88,M,6.21,M,M,M,M,M,M,M,M,M,M,YBBN 031700Z 00000KT CAVOK 19/16 Q1012
YBBN,2016-05-03 17:30,153.1292,-27.3917,66.20,62.60,88.18,0.00,0.00,0.00,29.88,M,6.21,M,M,M,M,M,M,M,M,M,M,YBBN 031730Z 00000KT CAVOK 19/17 Q1012 NOSIG
YBBN,2016-05-03 18:00,153.1292,-27.3917,64.40,60.80,88.09,210.00,2.00,0.00,29.91,M,6.21,M,M,M,M,M,M,M,M,M,M,YBBN 031800Z 21002KT CAVOK 18/16 Q1013
YBBN,2016-05-03 18:30,153.1292,-27.3917,62.60,60.80,93.83,0.00,0.00,0.00,29.91,M,6.21,M,M,M,M,M,M,M,M,M,M,YBBN 031830Z 00000KT CAVOK 17/16 Q1013 NOSIG
YBBN,2016-05-03 19:00,153.1292,-27.3917,62.60,59.00,88.00,350.00,2.00,0.00,29.91,M,6.21,M,M,M,M,M,M,M,M,M,M,YBBN 031900Z 35002KT CAVOK 17/15 Q1013
YBBN,2016-05-03 19:30,153.1292,-27.3917,62.60,60.80,93.83,0.00,0.00,0.00,29.94,M,6.21,M,M,M,M,M,M,M,M,M,M,YBBN 031930Z 00000KT CAVOK 17/16 Q1014 NOSIG
YBBN,2016-05-03 20:00,153.1292,-27.3917,62.60,59.00,88.00,260.00,5.00,0.00,29.94,M,6.21,M,M,M,M,M,M,M,M,M,M,YBBN 032000Z 26005KT CAVOK 17/15 Q1014 NOSIG
YBBN,2016-05-03 20:30,153.1292,-27.3917,62.60,59.00,88.00,300.00,3.00,0.00,29.97,M,6.21,M,FEW,BKN,M,M,2000.00,20000.00,M,M,M,YBBN 032030Z 30003KT 9999 FEW020 BKN200 17/15 Q1015 NOSIG
YBBN,2016-05-03 21:00,153.1292,-27.3917,66.20,59.00,77.60,250.00,4.00,0.00,29.97,M,6.21,M,FEW,BKN,M,M,2000.00,20000.00,M,M,M,YBBN 032100Z 25004KT 230V290 9999 FEW020 BKN200 19/15 Q1015 NOSIG
YBBN,2016-05-03 21:30,153.1292,-27.3917,66.20,60.80,82.74,0.00,0.00,0.00,29.97,M,6.21,M,FEW,BKN,M,M,2000.00,20000.00,M,M,M,YBBN 032130Z 00000KT 9999 FEW020 BKN200 19/16 Q1015 NOSIG
YBBN,2016-05-03 22:00,153.1292,-27.3917,66.20,60.80,82.74,200.00,4.00,0.00,30.00,M,6.21,M,M,M,M,M,M,M,M,M,M,YBBN 032200Z 20004KT CAVOK 19/16 Q1016 NOSIG
YBBN,2016-05-03 22:30,153.1292,-27.3917,69.80,59.00,68.55,200.00,7.00,0.00,30.00,M,6.21,M,M,M,M,M,M,M,M,M,M,YBBN 032230Z 20007KT CAVOK 21/15 Q1016 NOSIG
YBBN,2016-05-03 23:00,153.1292,-27.3917,73.40,57.20,56.88,210.00,9.00,0.00,30.00,M,6.21,M,M,M,M,M,M,M,M,M,M,YBBN 032300Z 21009KT CAVOK 23/14 Q1016 NOSIG
YBBN,2016-05-03 23:30,153.1292,-27.3917,75.20,53.60,46.98,210.00,10.00,0.00,30.00,M,6.21,M,M,M,M,M,M,M,M,M,M,YBBN 032330Z 21010KT CAVOK 24/12 Q1016 NOSIG
