#DEBUG: Format Typ    -> comma
#DEBUG: Time Period   -> 2012-12-22 00:00:00+00:00 2012-12-23 00:00:00+00:00
#DEBUG: Time Zone     -> Etc/UTC
#DEBUG: Data Contact   -> daryl herzmann akrherz@iastate.edu 515-294-5978
#DEBUG: Entries Found -> -1
station,valid,lon,lat,tmpf, dwpf, relh, drct, sknt, p01i, alti, mslp, vsby, gust, skyc1, skyc2, skyc3, skyc4, skyl1, skyl2, skyl3, skyl4, presentwx, metar
YBBN,2012-12-22 00:00,153.1292,-27.3917,80.60,68.00,65.54,80.00,7.00,0.00,29.94,M,6.21,M,FEW,BKN,M,M,3000.00,16000.00,M,M,M,YBBN 220000Z 08007KT 9999 FEW030 BKN160 27/20 Q1014 NOSIG
YBBN,2012-12-22 00:30,153.1292,-27.3917,80.60,68.00,65.54,90.00,7.00,0.00,29.97,M,6.21,M,FEW,BKN,M,M,3000.00,16000.00,M,M,M,YBBN 220030Z 09007KT 9999 FEW030 BKN160 27/20 Q1015
YBBN,2012-12-22 01:00,153.1292,-27.3917,80.60,68.00,65.54,60.00,7.00,0.00,29.97,M,6.21,M,FEW,BKN,M,M,3000.00,17000.00,M,M,VCSH,YBBN 220100Z 06007KT 9999 VCSH FEW030 BKN170 27/20 Q1015 NOSIG
YBBN,2012-12-22 01:30,153.1292,-27.3917,80.60,68.00,65.54,60.00,8.00,0.00,29.94,M,6.21,M,SCT,SCT,BKN,M,3000.00,4000.00,17000.00,M,VCSH,YBBN 220130Z 06008KT 9999 VCSH SCT030 SCT040 BKN170 27/20 Q1014 RMK SHOWERS TO SE. DISTANT TCU TO N.
YBBN,2012-12-22 02:00,153.1292,-27.3917,80.60,68.00,65.54,80.00,7.00,0.00,29.94,M,6.21,M,SCT,SCT,BKN,M,3000.00,4000.00,18000.00,M,M,YBBN 220200Z 08007KT 9999 SCT030 SCT040 BKN180 27/20 Q1014 NOSIG
YBBN,2012-12-22 02:30,153.1292,-27.3917,80.60,68.00,65.54,80.00,8.00,0.00,29.94,M,6.21,M,FEW,BKN,M,M,3000.00,16000.00,M,M,M,YBBN 220230Z 08008KT 9999 FEW030 BKN160 27/20 Q1014
YBBN,2012-12-22 03:00,153.1292,-27.3917,80.60,68.00,65.54,70.00,10.00,0.00,29.94,M,6.21,M,SCT,BKN,M,M,2700.00,16000.00,M,M,M,YBBN 220300Z 07010KT 9999 SCT027 BKN160 27/20 Q1014 NOSIG
YBBN,2012-12-22 03:30,153.1292,-27.3917,80.60,68.00,65.54,70.00,12.00,0.00,29.91,M,6.21,M,SCT,BKN,M,M,2500.00,16000.00,M,M,M,YBBN 220330Z 07012KT 9999 SCT025 BKN160 27/20 Q1013
YBBN,2012-12-22 04:00,153.1292,-27.3917,82.40,66.20,58.08,80.00,9.00,0.00,29.91,M,6.21,M,FEW,SCT,BKN,M,3000.00,5000.00,16000.00,M,M,YBBN 220400Z 08009KT 9999 FEW030 SCT050 BKN160 28/19 Q1013 NOSIG
YBBN,2012-12-22 04:30,153.1292,-27.3917,80.60,66.20,61.58,90.00,9.00,0.00,29.91,M,6.21,M,FEW,SCT,BKN,M,3000.00,6000.00,16000.00,M,M,YBBN 220430Z 09009KT 9999 FEW030 SCT060 BKN160 27/19 Q1013
YBBN,2012-12-22 05:00,153.1292,-27.3917,82.40,66.20,58.08,90.00,9.00,0.00,29.91,M,6.21,M,FEW,SCT,BKN,M,3500.00,16000.00,25000.00,M,M,YBBN 220500Z 09009KT 9999 FEW035 SCT160 BKN250 28/19 Q1013 NOSIG
YBBN,2012-12-22 05:30,153.1292,-27.3917,84.20,66.20,54.80,80.00,10.00,0.00,29.91,M,6.21,M,FEW,SCT,BKN,M,3500.00,18000.00,25000.00,M,M,YBBN 220530Z 08010KT 9999 FEW035 SCT180 BKN250 29/19 Q1013
YBBN,2012-12-22 06:00,153.1292,-27.3917,80.60,68.00,65.54,90.00,9.00,0.00,29.91,M,6.21,M,FEW,BKN,M,M,3000.00,18000.00,M,M,M,YBBN 220600Z 09009KT 9999 FEW030 BKN180 27/20 Q1013 NOSIG
YBBN,2012-12-22 06:30,153.1292,-27.3917,80.60,68.00,65.54,90.00,9.00,0.00,29.91,M,6.21,M,FEW,BKN,M,M,2700.00,21000.00,M,M,M,YBBN 220630Z 09009KT 9999 FEW027 BKN210 27/20 Q1013
YBBN,2012-12-22 07:00,153.1292,-27.3917,80.60,66.20,61.58,100.00,9.00,0.00,29.91,M,6.21,M,FEW,BKN,M,M,2700.00,21000.00,M,M,M,YBBN 220700Z 10009KT 9999 FEW027 BKN210 27/19 Q1013
YBBN,2012-12-22 07:30,153.1292,-27.3917,78.80,66.20,65.33,100.00,9.00,0.00,29.91,M,6.21,M,FEW,BKN,M,M,2800.00,21000.00,M,M,M,YBBN 220730Z 10009KT 9999 FEW028 BKN210 26/19 Q1013
YBBN,2012-12-22 08:00,153.1292,-27.3917,78.80,66.20,65.33,110.00,10.00,0.00,29.94,M,6.21,M,FEW,BKN,M,M,2800.00,18000.00,M,M,M,YBBN 220800Z 11010KT 9999 FEW028 BKN180 26/19 Q1014
YBBN,2012-12-22 08:30,153.1292,-27.3917,78.80,66.20,65.33,100.00,7.00,0.00,29.94,M,6.21,M,SCT,BKN,M,M,2800.00,18000.00,M,M,M,YBBN 220830Z 10007KT 9999 SCT028 BKN180 26/19 Q1014
YBBN,2012-12-22 09:00,153.1292,-27.3917,78.80,66.20,65.33,90.00,8.00,0.00,29.94,M,6.21,M,BKN,BKN,M,M,2700.00,18000.00,M,M,M,YBBN 220900Z 09008KT 9999 BKN027 BKN180 26/19 Q1014
YBBN,2012-12-22 09:30,153.1292,-27.3917,77.00,68.00,73.78,90.00,7.00,0.00,29.97,M,6.21,M,BKN,BKN,M,M,2300.00,18000.00,M,M,M,YBBN 220930Z 09007KT 9999 BKN023 BKN180 25/20 Q1015
YBBN,2012-12-22 10:00,153.1292,-27.3917,77.00,68.00,73.78,100.00,7.00,0.00,29.97,M,6.21,M,FEW,BKN,M,M,2300.00,18000.00,M,M,M,YBBN 221000Z 10007KT 9999 FEW023 BKN180 25/20 Q1015
YBBN,2012-12-22 10:30,153.1292,-27.3917,77.00,68.00,73.78,110.00,6.00,0.00,29.97,M,6.21,M,FEW,SCT,BKN,M,2200.00,4000.00,18000.00,M,M,YBBN 221030Z 11006KT 9999 FEW022 SCT040 BKN180 25/20 Q1015
YBBN,2012-12-22 11:00,153.1292,-27.3917,77.00,68.00,73.78,110.00,7.00,0.00,29.97,M,6.21,M,FEW,BKN,M,M,2300.00,18000.00,M,M,M,YBBN 221100Z 11007KT 9999 FEW023 BKN180 25/20 Q1015
YBBN,2012-12-22 11:30,153.1292,-27.3917,77.00,68.00,73.78,100.00,7.00,0.00,29.97,M,6.21,M,FEW,SCT,BKN,M,2300.00,4000.00,14000.00,M,M,YBBN 221130Z 10007KT 9999 FEW023 SCT040 BKN140 25/20 Q1015
YBBN,2012-12-22 12:00,153.1292,-27.3917,77.00,68.00,73.78,90.00,7.00,0.00,29.97,M,6.21,M,SCT,BKN,M,M,2200.00,14000.00,M,M,M,YBBN 221200Z 09007KT 9999 SCT022 BKN140 25/20 Q1015
YBBN,2012-12-22 12:30,153.1292,-27.3917,77.00,68.00,73.78,80.00,6.00,0.00,29.97,M,6.21,M,SCT,BKN,M,M,2200.00,15000.00,M,M,M,YBBN 221230Z 08006KT 9999 SCT022 BKN150 25/20 Q1015
YBBN,2012-12-22 13:00,153.1292,-27.3917,77.00,68.00,73.78,70.00,7.00,0.00,29.97,M,6.21,M,SCT,BKN,M,M,2200.00,16000.00,M,M,M,YBBN 221300Z 07007KT 9999 SCT022 BKN160 25/20 Q1015 INTER 1300/1600 3000 SHRA BKN015
YBBN,2012-12-22 13:30,153.1292,-27.3917,77.00,69.80,78.48,60.00,7.00,0.00,29.97,M,6.21,M,SCT,SCT,BKN,M,2200.00,3700.00,16000.00,M,M,YBBN 221330Z 06007KT 9999 SCT022 SCT037 BKN160 25/21 Q1015
YBBN,2012-12-22 14:00,153.1292,-27.3917,77.00,68.00,73.78,70.00,6.00,0.00,29.94,M,6.21,M,FEW,BKN,M,M,2200.00,17000.00,M,M,M,YBBN 221400Z 07006KT 9999 FEW022 BKN170 25/20 Q1014 INTER 1400/1700 3000 SHRA BKN015
YBBN,2012-12-22 14:30,153.1292,-27.3917,77.00,68.00,73.78,60.00,7.00,0.00,29.94,M,6.21,M,FEW,SCT,BKN,M,2000.00,4000.00,17000.00,M,M,YBBN 221430Z 06007KT 9999 FEW020 SCT040 BKN170 25/20 Q1014
YBBN,2012-12-22 15:00,153.1292,-27.3917,77.00,68.00,73.78,60.00,7.00,0.00,29.94,M,6.21,M,FEW,BKN,M,M,2200.00,4500.00,M,M,M,YBBN 221500Z 06007KT 9999 FEW022 BKN045 25/20 Q1014
YBBN,2012-12-22 15:30,153.1292,-27.3917,77.00,68.00,73.78,60.00,7.00,0.00,29.94,M,6.21,M,SCT,SCT,M,M,2200.00,4500.00,M,M,M,YBBN 221530Z 06007KT 9999 SCT022 SCT045 25/20 Q1014
YBBN,2012-12-22 16:00,153.1292,-27.3917,75.20,68.00,78.34,80.00,4.00,0.00,29.94,M,6.21,M,FEW,M,M,M,2200.00,M,M,M,M,YBBN 221600Z 08004KT 9999 FEW022 24/20 Q1014
YBBN,2012-12-22 16:30,153.1292,-27.3917,75.20,68.00,78.34,90.00,6.00,0.00,29.91,M,6.21,M,FEW,M,M,M,2300.00,M,M,M,M,YBBN 221630Z 09006KT 9999 FEW023 24/20 Q1013
YBBN,2012-12-22 17:00,153.1292,-27.3917,75.20,68.00,78.34,110.00,4.00,0.00,29.94,M,6.21,M,FEW,SCT,M,M,2300.00,5500.00,M,M,M,YBBN 221700Z 11004KT 9999 FEW023 SCT055 24/20 Q1014
YBBN,2012-12-22 17:30,153.1292,-27.3917,77.00,68.00,73.78,110.00,5.00,0.00,29.94,M,6.21,M,FEW,BKN,M,M,2200.00,5000.00,M,M,M,YBBN 221730Z 11005KT 9999 FEW022 BKN050 25/20 Q1014
YBBN,2012-12-22 18:00,153.1292,-27.3917,73.40,69.80,88.51,70.00,5.00,0.00,29.94,M,4.97,M,FEW,BKN,M,M,900.00,2300.00,M,M,-SHRA,YBBN 221800Z 07005KT 8000 -SHRA FEW009 BKN023 23/21 Q1014
YBBN,2012-12-22 18:30,153.1292,-27.3917,73.40,69.80,88.51,0.00,0.00,0.00,29.94,M,6.21,M,FEW,SCT,BKN,M,1500.00,2400.00,4500.00,M,VCSH,YBBN 221830Z 00000KT 9999 VCSH FEW015 SCT024 BKN045 23/21 Q1014
YBBN,2012-12-22 19:00,153.1292,-27.3917,73.40,69.80,88.51,140.00,3.00,0.00,29.97,M,6.21,M,FEW,SCT,M,M,1800.00,2000.00,M,M,VCSH,YBBN 221900Z 14003KT 9999 VCSH FEW018 SCT020 23/21 Q1015 INTER 1900/2200 3000 SHRA BKN015
YBBN,2012-12-22 19:06,153.1292,-27.3917,73.40,69.80,88.51,90.00,2.00,0.00,29.97,M,6.21,M,M,M,M,M,M,M,M,M,//,YBBN 221906Z 09002KT //// // 23/21 Q1015 RESHRA RMK 9999 FM1915 11005KT 9999 -SHRA SCT020 BKN045 INTER 1906/2206 3000 SHRA BKN015
YBBN,2012-12-22 19:30,153.1292,-27.3917,75.20,69.80,83.32,90.00,5.00,0.00,29.97,M,6.21,M,SCT,SCT,FEW,M,2200.00,26000.00,2200.00,M,M,YBBN 221930Z 09005KT 9999 SCT022 SCT260 FEW022TCU 24/21 Q1015
YBBN,2012-12-22 20:00,153.1292,-27.3917,77.00,69.80,78.48,80.00,6.00,0.00,29.97,M,6.21,M,SCT,BKN,M,M,2300.00,21000.00,M,M,M,YBBN 222000Z 08006KT 9999 SCT023 BKN210 25/21 Q1015 INTER 2000/2300 3000 SHRA BKN015
YBBN,2012-12-22 20:30,153.1292,-27.3917,78.80,69.80,73.95,90.00,6.00,0.00,30.00,M,6.21,M,FEW,SCT,M,M,2200.00,21000.00,M,M,M,YBBN 222030Z 09006KT 9999 FEW022 SCT210 26/21 Q1016
YBBN,2012-12-22 21:00,153.1292,-27.3917,78.80,69.80,73.95,90.00,7.00,0.00,30.00,M,6.21,M,SCT,SCT,M,M,2000.00,21000.00,M,M,M,YBBN 222100Z 09007KT 9999 SCT020 SCT210 26/21 Q1016
YBBN,2012-12-22 21:30,153.1292,-27.3917,78.80,68.00,69.52,100.00,7.00,0.00,30.00,M,6.21,M,SCT,SCT,M,M,2000.00,21000.00,M,M,M,YBBN 222130Z 10007KT 9999 SCT020 SCT210 26/20 Q1016
YBBN,2012-12-22 22:00,153.1292,-27.3917,80.60,68.00,65.54,100.00,7.00,0.00,30.00,M,6.21,M,SCT,SCT,M,M,2500.00,21000.00,M,M,M,YBBN 222200Z 10007KT 9999 SCT025 SCT210 27/20 Q1016 INTER 2200/2400 3000 SHRA BKN015
YBBN,2012-12-22 22:30,153.1292,-27.3917,80.60,68.00,65.54,50.00,10.00,0.00,30.00,M,6.21,M,SCT,M,M,M,2500.00,M,M,M,M,YBBN 222230Z 05010KT 9999 SCT025 27/20 Q1016
YBBN,2012-12-22 23:00,153.1292,-27.3917,80.60,66.20,61.58,80.00,7.00,0.00,30.03,M,6.21,M,FEW,M,M,M,2500.00,M,M,M,M,YBBN 222300Z 08007KT 9999 FEW025 27/19 Q1017 INTER 2300/2400 3000 SHRA BKN015
YBBN,2012-12-22 23:30,153.1292,-27.3917,82.40,68.00,61.81,70.00,7.00,0.00,30.03,M,6.21,M,FEW,M,M,M,3000.00,M,M,M,M,YBBN 222330Z 07007KT 9999 FEW030 28/20 Q1017
