#DEBUG: Format Typ    -> comma
#DEBUG: Time Period   -> 2015-09-22 00:00:00+00:00 2015-09-23 00:00:00+00:00
#DEBUG: Time Zone     -> Etc/UTC
#DEBUG: Data Contact   -> daryl herzmann akrherz@iastate.edu 515-294-5978
#DEBUG: Entries Found -> -1
station,valid,lon,lat,tmpf, dwpf, relh, drct, sknt, p01i, alti, mslp, vsby, gust, skyc1, skyc2, skyc3, skyc4, skyl1, skyl2, skyl3, skyl4, presentwx, metar
YBBN,2015-09-22 00:00,153.1292,-27.3917,73.40,59.00,60.67,360.00,6.00,0.00,30.03,M,6.21,M,FEW,M,M,M,3000.00,M,M,M,M,YBBN 220000Z 36006KT 9999 FEW030 23/15 Q1017
YBBN,2015-09-22 00:30,153.1292,-27.3917,73.40,57.20,56.88,10.00,7.00,0.00,30.03,M,6.21,M,FEW,M,M,M,3500.00,M,M,M,M,YBBN 220030Z 01007KT 9999 FEW035 23/14 Q1017
YBBN,2015-09-22 01:00,153.1292,-27.3917,75.20,59.00,57.12,20.00,6.00,0.00,30.00,M,6.21,M,FEW,M,M,M,3500.00,M,M,M,M,YBBN 220100Z 02006KT 9999 FEW035 24/15 Q1016 NOSIG
YBBN,2015-09-22 01:30,153.1292,-27.3917,75.20,59.00,57.12,20.00,9.00,0.00,30.00,M,6.21,M,FEW,M,M,M,3500.00,M,M,M,M,YBBN 220130Z 02009KT 9999 FEW035 24/15 Q1016
YBBN,2015-09-22 02:00,153.1292,-27.3917,75.20,59.00,57.12,20.00,12.00,0.00,29.97,M,6.21,M,SCT,M,M,M,3500.00,M,M,M,M,YBBN 220200Z 02012KT 9999 SCT035 24/15 Q1015
YBBN,2015-09-22 02:30,153.1292,-27.3917,75.20,60.80,60.90,20.00,13.00,0.00,29.97,M,6.21,M,SCT,M,M,M,3500.00,M,M,M,M,YBBN 220230Z 02013KT 9999 SCT035 24/16 Q1015
YBBN,2015-09-22 03:00,153.1292,-27.3917,77.00,60.80,57.36,30.00,13.00,0.00,29.94,M,6.21,M,SCT,M,M,M,3500.00,M,M,M,M,YBBN 220300Z 03013KT 9999 SCT035 25/16 Q1014
YBBN,2015-09-22 03:30,153.1292,-27.3917,77.00,60.80,57.36,20.00,14.00,0.00,29.94,M,6.21,M,SCT,M,M,M,4000.00,M,M,M,M,YBBN 220330Z 02014KT 9999 SCT040 25/16 Q1014
YBBN,2015-09-22 04:00,153.1292,-27.3917,75.20,60.80,60.90,20.00,14.00,0.00,29.91,M,6.21,M,M,M,M,M,M,M,M,M,M,YBBN 220400Z 02014KT CAVOK 24/16 Q1013
YBBN,2015-09-22 04:30,153.1292,-27.3917,73.40,62.60,68.94,20.00,14.00,0.00,29.91,M,6.21,M,M,M,M,M,M,M,M,M,M,YBBN 220430Z 02014KT CAVOK 23/17 Q1013 RMK 2CU050 5AC090
YBBN,2015-09-22 05:00,153.1292,-27.3917,71.60,60.80,68.75,10.00,14.00,0.00,29.91,M,6.21,M,M,M,M,M,M,M,M,M,M,YBBN 220500Z 01014KT CAVOK 22/16 Q1013 NOSIG
YBBN,2015-09-22 05:30,153.1292,-27.3917,75.20,62.60,64.91,10.00,15.00,0.00,29.91,M,6.21,M,M,M,M,M,M,M,M,M,M,YBBN 220530Z 01015KT CAVOK 24/17 Q1013
YBBN,2015-09-22 06:00,153.1292,-27.3917,75.20,62.60,64.91,10.00,14.00,0.00,29.88,M,6.21,M,M,M,M,M,M,M,M,M,M,YBBN 220600Z 01014KT CAVOK 24/17 Q1012
YBBN,2015-09-22 06:30,153.1292,-27.3917,71.60,64.40,78.04,10.00,13.00,0.00,29.91,M,6.21,M,M,M,M,M,M,M,M,M,M,YBBN 220630Z 01013KT CAVOK 22/18 Q1013
YBBN,2015-09-22 07:00,153.1292,-27.3917,71.60,64.40,78.04,10.00,14.00,0.00,29.91,M,6.21,M,M,M,M,M,M,M,M,M,M,YBBN 220700Z 01014KT CAVOK 22/18 Q1013
YBBN,2015-09-22 07:30,153.1292,-27.3917,71.60,64.40,78.04,10.00,12.00,0.00,29.91,M,6.21,M,M,M,M,M,M,M,M,M,M,YBBN 220730Z 01012KT CAVOK 22/18 Q1013
YBBN,2015-09-22 08:00,153.1292,-27.3917,69.80,64.40,82.98,360.00,10.00,0.00,29.91,M,6.21,M,M,M,M,M,M,M,M,M,M,YBBN 220800Z 36010KT CAVOK 21/18 Q1013 NOSIG
YBBN,2015-09-22 08:30,153.1292,-27.3917,68.00,64.40,88.26,360.00,9.00,0.00,29.94,M,6.21,M,M,M,M,M,M,M,M,M,M,YBBN 220830Z 36009KT CAVOK 20/18 Q1014
YBBN,2015-09-22 09:00,153.1292,-27.3917,68.00,62.60,82.86,340.00,5.00,0.00,29.94,M,6.21,M,M,M,M,M,M,M,M,M,M,YBBN 220900Z 34005KT CAVOK 20/17 Q1014
YBBN,2015-09-22 09:30,153.1292,-27.3917,69.80,62.60,77.90,330.00,7.00,0.00,29.97,M,6.21,M,M,M,M,M,M,M,M,M,M,YBBN 220930Z 33007KT CAVOK 21/17 Q1015
YBBN,2015-09-22 10:00,153.1292,-27.3917,66.20,62.60,88.18,280.00,2.00,0.00,29.97,M,6.21,M,M,M,M,M,M,M,M,M,M,YBBN 221000Z 28002KT CAVOK 19/17 Q1015
YBBN,2015-09-22 10:30,153.1292,-27.3917,68.00,59.00,72.92,220.00,5.00,0.00,29.97,M,6.21,M,M,M,M,M,M,M,M,M,M,YBBN 221030Z 22005KT CAVOK 20/15 Q1015
YBBN,2015-09-22 11:00,153.1292,-27.3917,66.20,55.40,68.15,210.00,8.00,0.00,29.97,M,6.21,M,M,M,M,M,M,M,M,M,M,YBBN 221100Z 21008KT CAVOK 19/13 Q1015
YBBN,2015-09-22 11:30,153.1292,-27.3917,68.00,42.80,40.00,210.00,8.00,0.00,29.97,M,6.21,M,M,M,M,M,M,M,M,M,M,YBBN 221130Z 21008KT CAVOK 20/06 Q1015
YBBN,2015-09-22 12:00,153.1292,-27.3917,60.80,50.00,67.54,230.00,8.00,0.00,29.97,M,6.21,M,M,M,M,M,M,M,M,M,M,YBBN 221200Z 23008KT CAVOK 16/10 Q1015
YBBN,2015-09-22 12:30,153.1292,-27.3917,62.60,44.60,51.72,220.00,11.00,0.00,30.00,M,6.21,M,M,M,M,M,M,M,M,M,M,YBBN 221230Z 22011KT CAVOK 17/07 Q1016
YBBN,2015-09-22 13:00,153.1292,-27.3917,62.60,42.80,48.28,230.00,9.00,0.00,30.00,M,6.21,M,M,M,M,M,M,M,M,M,M,YBBN 221300Z 23009KT CAVOK 17/06 Q1016
YBBN,2015-09-22 13:30,153.1292,-27.3917,64.40,42.80,45.32,150.00,6.00,0.00,30.00,M,6.21,M,M,M,M,M,M,M,M,M,M,YBBN 221330Z 15006KT CAVOK 18/06 Q1016
YBBN,2015-09-22 14:00,153.1292,-27.3917,64.40,50.00,59.50,150.00,5.00,0.00,30.03,M,6.21,M,M,M,M,M,M,M,M,M,M,YBBN 221400Z 15005KT CAVOK 18/10 Q1017
YBBN,2015-09-22 14:30,153.1292,-27.3917,64.40,55.40,72.56,180.00,7.00,0.00,30.00,M,6.21,M,M,M,M,M,M,M,M,M,M,YBBN 221430Z 18007KT CAVOK 18/13 Q1016
YBBN,2015-09-22 15:00,153.1292,-27.3917,62.60,55.40,77.29,200.00,6.00,0.00,30.00,M,6.21,M,FEW,M,M,M,3800.00,M,M,M,M,YBBN 221500Z 20006KT 9999 FEW038 17/13 Q1016
YBBN,2015-09-22 15:30,153.1292,-27.3917,62.60,57.20,82.50,190.00,4.00,0.00,30.00,M,6.21,M,SCT,M,M,M,3400.00,M,M,M,M,YBBN 221530Z 19004KT 9999 SCT034 17/14 Q1016
YBBN,2015-09-22 16:00,153.1292,-27.3917,62.60,53.60,72.38,190.00,5.00,0.00,30.00,M,6.21,M,FEW,M,M,M,3400.00,M,M,M,M,YBBN 221600Z 19005KT 9999 FEW034 17/12 Q1016
YBBN,2015-09-22 16:30,153.1292,-27.3917,60.80,53.60,77.14,200.00,7.00,0.00,30.00,M,6.21,M,FEW,M,M,M,3400.00,M,M,M,M,YBBN 221630Z 20007KT 9999 FEW034 16/12 Q1016
YBBN,2015-09-22 17:00,153.1292,-27.3917,62.60,53.60,72.38,190.00,6.00,0.00,30.00,M,6.21,M,SCT,M,M,M,4000.00,M,M,M,M,YBBN 221700Z 19006KT 9999 SCT040 17/12 Q1016
YBBN,2015-09-22 17:30,153.1292,-27.3917,62.60,53.60,72.38,190.00,8.00,0.00,30.00,M,6.21,M,FEW,M,M,M,4500.00,M,M,M,M,YBBN 221730Z 19008KT 9999 FEW045 17/12 Q1016
YBBN,2015-09-22 18:00,153.1292,-27.3917,62.60,53.60,72.38,190.00,6.00,0.00,30.00,M,6.21,M,FEW,M,M,M,4500.00,M,M,M,M,YBBN 221800Z 19006KT 9999 FEW045 17/12 Q1016
YBBN,2015-09-22 18:30,153.1292,-27.3917,60.80,53.60,77.14,190.00,6.00,0.00,30.00,M,6.21,M,FEW,M,M,M,4500.00,M,M,M,M,YBBN 221830Z 19006KT 9999 FEW045 16/12 Q1016
YBBN,2015-09-22 19:00,153.1292,-27.3917,59.00,51.80,76.98,190.00,5.00,0.00,30.03,M,6.21,M,FEW,M,M,M,4000.00,M,M,M,M,YBBN 221900Z 19005KT 9999 FEW040 15/11 Q1017
YBBN,2015-09-22 19:30,153.1292,-27.3917,60.80,51.80,72.20,190.00,5.00,0.00,30.03,M,6.21,M,FEW,M,M,M,3000.00,M,M,M,M,YBBN 221930Z 19005KT 9999 FEW030 16/11 Q1017
YBBN,2015-09-22 20:00,153.1292,-27.3917,60.80,51.80,72.20,190.00,6.00,0.00,30.03,M,6.21,M,FEW,SCT,M,M,2800.00,4000.00,M,M,M,YBBN 222000Z 19006KT 9999 FEW028 SCT040 16/11 Q1017
YBBN,2015-09-22 20:30,153.1292,-27.3917,59.00,50.00,72.01,200.00,7.00,0.00,30.06,M,6.21,M,FEW,SCT,M,M,2500.00,4500.00,M,M,M,YBBN 222030Z 20007KT 9999 FEW025 SCT045 15/10 Q1018
YBBN,2015-09-22 21:00,153.1292,-27.3917,62.60,48.20,59.26,190.00,7.00,0.00,30.06,M,6.21,M,SCT,M,M,M,2500.00,M,M,M,M,YBBN 222100Z 19007KT 9999 SCT025 17/09 Q1018
YBBN,2015-09-22 21:30,153.1292,-27.3917,62.60,46.40,55.37,210.00,14.00,0.00,30.06,M,6.21,M,SCT,M,M,M,2800.00,M,M,M,M,YBBN 222130Z 21014KT 9999 SCT028 17/08 Q1018
YBBN,2015-09-22 22:00,153.1292,-27.3917,64.40,46.40,51.98,210.00,11.00,0.00,30.09,M,6.21,M,FEW,M,M,M,3000.00,M,M,M,M,YBBN 222200Z 21011KT 9999 FEW030 18/08 Q1019 NOSIG
YBBN,2015-09-22 22:30,153.1292,-27.3917,66.20,46.40,48.83,220.00,10.00,0.00,30.09,M,6.21,M,FEW,M,M,M,3200.00,M,M,M,M,YBBN 222230Z 22010KT 9999 FEW032 19/08 Q1019
YBBN,2015-09-22 23:00,153.1292,-27.3917,66.20,48.20,52.25,210.00,7.00,0.00,30.06,M,6.21,M,FEW,M,M,M,3500.00,M,M,M,M,YBBN 222300Z 21007KT 9999 FEW035 19/09 Q1018 NOSIG
YBBN,2015-09-22 23:30,153.1292,-27.3917,66.20,48.20,52.25,150.00,5.00,0.00,30.06,M,6.21,M,FEW,M,M,M,3500.00,M,M,M,M,YBBN 222330Z 15005KT 120V240 9999 FEW035 19/09 Q1018
