#DEBUG: Format Typ    -> comma
#DEBUG: Time Period   -> 2013-09-04 00:00:00+00:00 2013-09-05 00:00:00+00:00
#DEBUG: Time Zone     -> Etc/UTC
#DEBUG: Data Contact   -> daryl herzmann akrherz@iastate.edu 515-294-5978
#DEBUG: Entries Found -> -1
station,valid,lon,lat,tmpf, dwpf, relh, drct, sknt, p01i, alti, mslp, vsby, gust, skyc1, skyc2, skyc3, skyc4, skyl1, skyl2, skyl3, skyl4, presentwx, metar
YBBN,2013-09-04 00:00,153.1292,-27.3917,69.80,46.40,43.13,120.00,12.00,0.00,30.45,M,6.21,M,SCT,M,M,M,4000.00,M,M,M,M,YBBN 040000Z 12012KT 9999 SCT040 21/08 Q1031 NOSIG
YBBN,2013-09-04 00:30,153.1292,-27.3917,69.80,46.40,43.13,140.00,11.00,0.00,30.45,M,6.21,M,SCT,M,M,M,4000.00,M,M,M,M,YBBN 040030Z 14011KT 9999 SCT040 21/08 Q1031
YBBN,2013-09-04 01:00,153.1292,-27.3917,69.80,46.40,43.13,140.00,11.00,0.00,30.45,M,6.21,M,SCT,M,M,M,4500.00,M,M,M,M,YBBN 040100Z 14011KT 9999 SCT045 21/08 Q1031
YBBN,2013-09-04 01:30,153.1292,-27.3917,71.60,50.00,46.43,120.00,13.00,0.00,30.42,M,6.21,M,SCT,M,M,M,4500.00,M,M,M,M,YBBN 040130Z 12013KT 9999 SCT045 22/10 Q1030
YBBN,2013-09-04 02:00,153.1292,-27.3917,69.80,51.80,52.77,110.00,13.00,0.00,30.42,M,6.21,M,SCT,M,M,M,4500.00,M,M,M,M,YBBN 040200Z 11013KT 9999 SCT045 21/11 Q1030 NOSIG
YBBN,2013-09-04 02:30,153.1292,-27.3917,71.60,50.00,46.43,120.00,12.00,0.00,30.42,M,6.21,M,SCT,M,M,M,4500.00,M,M,M,M,YBBN 040230Z 12012KT 9999 SCT045 22/10 Q1030
YBBN,2013-09-04 03:00,153.1292,-27.3917,71.60,48.20,43.42,110.00,12.00,0.00,30.39,M,6.21,M,FEW,M,M,M,4500.00,M,M,M,M,YBBN 040300Z 11012KT 9999 FEW045 22/09 Q1029
YBBN,2013-09-04 03:30,153.1292,-27.3917,69.80,50.00,49.37,110.00,14.00,0.00,30.39,M,6.21,M,SCT,M,M,M,4500.00,M,M,M,M,YBBN 040330Z 11014KT 9999 SCT045 21/10 Q1029
YBBN,2013-09-04 04:00,153.1292,-27.3917,69.80,46.40,43.13,110.00,13.00,0.00,30.39,M,6.21,M,FEW,M,M,M,4500.00,M,M,M,M,YBBN 040400Z 11013KT 9999 FEW045 21/08 Q1029
YBBN,2013-09-04 04:30,153.1292,-27.3917,69.80,50.00,49.37,110.00,10.00,0.00,30.39,M,6.21,M,M,M,M,M,M,M,M,M,M,YBBN 040430Z 11010KT CAVOK 21/10 Q1029
YBBN,2013-09-04 05:00,153.1292,-27.3917,68.00,48.20,49.10,120.00,11.00,0.00,30.39,M,6.21,M,M,M,M,M,M,M,M,M,M,YBBN 040500Z 12011KT CAVOK 20/09 Q1029 NOSIG
YBBN,2013-09-04 05:30,153.1292,-27.3917,69.80,46.40,43.13,110.00,13.00,0.00,30.39,M,6.21,M,FEW,M,M,M,4000.00,M,M,M,M,YBBN 040530Z 11013KT 9999 FEW040 21/08 Q1029
YBBN,2013-09-04 06:00,153.1292,-27.3917,68.00,46.40,45.88,110.00,10.00,0.00,30.39,M,6.21,M,FEW,M,M,M,4000.00,M,M,M,M,YBBN 040600Z 11010KT 9999 FEW040 20/08 Q1029
YBBN,2013-09-04 06:30,153.1292,-27.3917,68.00,46.40,45.88,120.00,10.00,0.00,30.39,M,6.21,M,FEW,M,M,M,4000.00,M,M,M,M,YBBN 040630Z 12010KT 9999 FEW040 20/08 Q1029
YBBN,2013-09-04 07:00,153.1292,-27.3917,66.20,48.20,52.25,130.00,8.00,0.00,30.39,M,6.21,M,FEW,M,M,M,4000.00,M,M,M,M,YBBN 040700Z 13008KT 9999 FEW040 19/09 Q1029 NOSIG
YBBN,2013-09-04 07:30,153.1292,-27.3917,66.20,50.00,55.88,130.00,7.00,0.00,30.39,M,6.21,M,FEW,M,M,M,3500.00,M,M,M,M,YBBN 040730Z 13007KT 9999 FEW035 19/10 Q1029
YBBN,2013-09-04 08:00,153.1292,-27.3917,66.20,50.00,55.88,140.00,8.00,0.00,30.39,M,6.21,M,FEW,M,M,M,3500.00,M,M,M,M,YBBN 040800Z 14008KT 9999 FEW035 19/10 Q1029
YBBN,2013-09-04 08:30,153.1292,-27.3917,64.40,50.00,59.50,150.00,7.00,0.00,30.42,M,6.21,M,FEW,M,M,M,3800.00,M,M,M,M,YBBN 040830Z 15007KT 9999 FEW038 18/10 Q1030
YBBN,2013-09-04 09:00,153.1292,-27.3917,64.40,50.00,59.50,150.00,6.00,0.00,30.42,M,6.21,M,FEW,SCT,M,M,3800.00,4400.00,M,M,M,YBBN 040900Z 15006KT 9999 FEW038 SCT044 18/10 Q1030 NOSIG
YBBN,2013-09-04 09:30,153.1292,-27.3917,62.60,50.00,63.38,160.00,6.00,0.00,30.42,M,6.21,M,FEW,M,M,M,3800.00,M,M,M,M,YBBN 040930Z 16006KT 9999 FEW038 17/10 Q1030
YBBN,2013-09-04 10:00,153.1292,-27.3917,62.60,50.00,63.38,160.00,5.00,0.00,30.42,M,6.21,M,FEW,M,M,M,3800.00,M,M,M,M,YBBN 041000Z 16005KT 9999 FEW038 17/10 Q1030
YBBN,2013-09-04 10:30,153.1292,-27.3917,60.80,50.00,67.54,160.00,5.00,0.00,30.42,M,6.21,M,FEW,SCT,M,M,3800.00,5200.00,M,M,M,YBBN 041030Z 16005KT 9999 FEW038 SCT052 16/10 Q1030
YBBN,2013-09-04 11:00,153.1292,-27.3917,62.60,50.00,63.38,160.00,5.00,0.00,30.42,M,6.21,M,FEW,SCT,M,M,3800.00,5200.00,M,M,M,YBBN 041100Z 16005KT 9999 FEW038 SCT052 17/10 Q1030 NOSIG
YBBN,2013-09-04 11:30,153.1292,-27.3917,60.80,50.00,67.54,160.00,5.00,0.00,30.42,M,6.21,M,FEW,M,M,M,3800.00,M,M,M,M,YBBN 041130Z 16005KT 9999 FEW038 16/10 Q1030
YBBN,2013-09-04 12:00,153.1292,-27.3917,62.60,50.00,63.38,180.00,5.00,0.00,30.42,M,6.21,M,FEW,SCT,M,M,3800.00,5500.00,M,M,M,YBBN 041200Z 18005KT 9999 FEW038 SCT055 17/10 Q1030
YBBN,2013-09-04 12:30,153.1292,-27.3917,62.60,50.00,63.38,190.00,6.00,0.00,30.42,M,6.21,M,FEW,BKN,M,M,3800.00,5000.00,M,M,M,YBBN 041230Z 19006KT 9999 FEW038 BKN050 17/10 Q1030
YBBN,2013-09-04 13:00,153.1292,-27.3917,62.60,50.00,63.38,180.00,5.00,0.00,30.42,M,6.21,M,FEW,SCT,M,M,3800.00,5000.00,M,M,M,YBBN 041300Z 18005KT 9999 FEW038 SCT050 17/10 Q1030
YBBN,2013-09-04 13:30,153.1292,-27.3917,60.80,50.00,67.54,190.00,5.00,0.00,30.42,M,6.21,M,FEW,M,M,M,3800.00,M,M,M,M,YBBN 041330Z 19005KT 9999 FEW038 16/10 Q1030
YBBN,2013-09-04 14:00,153.1292,-27.3917,60.80,51.80,72.20,190.00,6.00,0.00,30.42,M,6.21,M,FEW,M,M,M,3800.00,M,M,M,M,YBBN 041400Z 19006KT 9999 FEW038 16/11 Q1030
YBBN,2013-09-04 14:30,153.1292,-27.3917,60.80,51.80,72.20,200.00,5.00,0.00,30.42,M,6.21,M,FEW,M,M,M,3800.00,M,M,M,M,YBBN 041430Z 20005KT 9999 FEW038 16/11 Q1030
YBBN,2013-09-04 15:00,153.1292,-27.3917,59.00,51.80,76.98,200.00,6.00,0.00,30.39,M,6.21,M,FEW,SCT,M,M,3800.00,5500.00,M,M,M,YBBN 041500Z 20006KT 9999 FEW038 SCT055 15/11 Q1029 NOSIG
YBBN,2013-09-04 15:30,153.1292,-27.3917,57.20,51.80,82.12,200.00,6.00,0.00,30.39,M,6.21,M,FEW,M,M,M,3800.00,M,M,M,M,YBBN 041530Z 20006KT 9999 FEW038 14/11 Q1029
YBBN,2013-09-04 16:00,153.1292,-27.3917,57.20,50.00,76.82,200.00,7.00,0.00,30.39,M,6.21,M,FEW,BKN,M,M,3800.00,5700.00,M,M,M,YBBN 041600Z 20007KT 9999 FEW038 BKN057 14/10 Q1029 NOSIG
YBBN,2013-09-04 16:30,153.1292,-27.3917,55.40,50.00,81.99,210.00,7.00,0.00,30.36,M,6.21,M,FEW,SCT,M,M,3800.00,5700.00,M,M,M,YBBN 041630Z 21007KT 9999 FEW038 SCT057 13/10 Q1028
YBBN,2013-09-04 17:00,153.1292,-27.3917,55.40,50.00,81.99,210.00,7.00,0.00,30.36,M,6.21,M,FEW,M,M,M,3800.00,M,M,M,M,YBBN 041700Z 21007KT 9999 FEW038 13/10 Q1028 NOSIG
YBBN,2013-09-04 17:30,153.1292,-27.3917,55.40,50.00,81.99,210.00,8.00,0.00,30.36,M,6.21,M,FEW,SCT,M,M,4000.00,5700.00,M,M,M,YBBN 041730Z 21008KT 9999 FEW040 SCT057 13/10 Q1028
YBBN,2013-09-04 18:00,153.1292,-27.3917,53.60,48.20,81.87,210.00,7.00,0.00,30.36,M,6.21,M,FEW,M,M,M,4000.00,M,M,M,M,YBBN 041800Z 21007KT 9999 FEW040 12/09 Q1028
YBBN,2013-09-04 18:30,153.1292,-27.3917,53.60,50.00,87.56,210.00,7.00,0.00,30.36,M,6.21,M,FEW,SCT,M,M,4000.00,5700.00,M,M,M,YBBN 041830Z 21007KT 9999 FEW040 SCT057 12/10 Q1028
YBBN,2013-09-04 19:00,153.1292,-27.3917,55.40,50.00,81.99,210.00,8.00,0.00,30.39,M,6.21,M,SCT,SCT,M,M,4000.00,6000.00,M,M,M,YBBN 041900Z 21008KT 9999 SCT040 SCT060 13/10 Q1029 NOSIG
YBBN,2013-09-04 19:30,153.1292,-27.3917,55.40,50.00,81.99,210.00,8.00,0.00,30.39,M,6.21,M,SCT,SCT,M,M,3300.00,6000.00,M,M,M,YBBN 041930Z 21008KT 9999 SCT033 SCT060 13/10 Q1029
YBBN,2013-09-04 20:00,153.1292,-27.3917,53.60,50.00,87.56,210.00,9.00,0.00,30.39,M,6.21,M,FEW,M,M,M,3300.00,M,M,M,M,YBBN 042000Z 21009KT 9999 FEW033 12/10 Q1029
YBBN,2013-09-04 20:30,153.1292,-27.3917,53.60,50.00,87.56,210.00,8.00,0.00,30.39,M,6.21,M,FEW,M,M,M,3200.00,M,M,M,M,YBBN 042030Z 21008KT 9999 FEW032 12/10 Q1029
YBBN,2013-09-04 21:00,153.1292,-27.3917,57.20,50.00,76.82,200.00,9.00,0.00,30.39,M,6.21,M,FEW,M,M,M,3400.00,M,M,M,M,YBBN 042100Z 20009KT 9999 FEW034 14/10 Q1029 NOSIG
YBBN,2013-09-04 21:30,153.1292,-27.3917,57.20,50.00,76.82,210.00,9.00,0.00,30.42,M,6.21,M,SCT,SCT,M,M,3600.00,5800.00,M,M,M,YBBN 042130Z 21009KT 9999 SCT036 SCT058 14/10 Q1030
YBBN,2013-09-04 22:00,153.1292,-27.3917,59.00,50.00,72.01,210.00,9.00,0.00,30.42,M,6.21,M,SCT,SCT,M,M,3600.00,5800.00,M,M,M,YBBN 042200Z 21009KT 9999 SCT036 SCT058 15/10 Q1030
YBBN,2013-09-04 22:30,153.1292,-27.3917,62.60,51.80,67.75,210.00,8.00,0.00,30.42,M,6.21,M,SCT,M,M,M,3600.00,M,M,M,M,YBBN 042230Z 21008KT 9999 SCT036 17/11 Q1030
YBBN,2013-09-04 23:00,153.1292,-27.3917,66.20,51.80,59.74,200.00,7.00,0.00,30.42,M,6.21,M,FEW,M,M,M,3700.00,M,M,M,M,YBBN 042300Z 20007KT 9999 FEW037 19/11 Q1030 NOSIG
YBBN,2013-09-04 23:30,153.1292,-27.3917,69.80,53.60,56.38,160.00,7.00,0.00,30.42,M,6.21,M,FEW,M,M,M,3400.00,M,M,M,M,YBBN 042330Z 16007KT 9999 FEW034 21/12 Q1030
