#DEBUG: Format Typ    -> comma
#DEBUG: Time Period   -> 2010-10-05 00:00:00+00:00 2010-10-06 00:00:00+00:00
#DEBUG: Time Zone     -> Etc/UTC
#DEBUG: Data Contact   -> daryl herzmann akrherz@iastate.edu 515-294-5978
#DEBUG: Entries Found -> -1
station,valid,lon,lat,tmpf, dwpf, relh, drct, sknt, p01i, alti, mslp, vsby, gust, skyc1, skyc2, skyc3, skyc4, skyl1, skyl2, skyl3, skyl4, presentwx, metar
YBBN,2010-10-05 00:00,153.1292,-27.3917,77.00,62.60,61.13,220.00,9.00,M,30.00,M,6.21,M,FEW,M,M,M,3000.00,M,M,M,M,YBBN 050000Z 22009KT 9999 FEW030 25/17 Q1016 NOSIG
YBBN,2010-10-05 00:30,153.1292,-27.3917,77.00,62.60,61.13,220.00,9.00,M,30.00,M,6.21,M,SCT,M,M,M,3000.00,M,M,M,M,YBBN 050030Z 22009KT 9999 SCT030 25/17 Q1016 NOSIG
YBBN,2010-10-05 01:00,153.1292,-27.3917,78.80,62.60,57.60,210.00,9.00,M,30.00,M,6.21,M,SCT,M,M,M,3200.00,M,M,M,M,YBBN 050100Z 21009KT 9999 SCT032 26/17 Q1016 NOSIG
YBBN,2010-10-05 01:30,153.1292,-27.3917,77.00,60.80,57.36,200.00,8.00,M,29.97,M,6.21,M,SCT,M,M,M,3500.00,M,M,M,M,YBBN 050130Z 20008KT 9999 SCT035 25/16 Q1015 NOSIG
YBBN,2010-10-05 02:00,153.1292,-27.3917,78.80,62.60,57.60,200.00,10.00,M,29.97,M,6.21,M,SCT,SCT,M,M,3500.00,14000.00,M,M,M,YBBN 050200Z 20010KT 9999 SCT035 SCT140 26/17 Q1015 NOSIG
YBBN,2010-10-05 02:30,153.1292,-27.3917,78.80,62.60,57.60,170.00,8.00,M,29.97,M,6.21,M,SCT,SCT,M,M,3500.00,11000.00,M,M,M,YBBN 050230Z 17008KT 9999 SCT035 SCT110 26/17 Q1015 NOSIG
YBBN,2010-10-05 03:00,153.1292,-27.3917,78.80,60.80,54.05,190.00,8.00,M,29.94,M,6.21,M,SCT,M,M,M,3500.00,M,M,M,M,YBBN 050300Z 19008KT 9999 SCT035 26/16 Q1014 NOSIG
YBBN,2010-10-05 03:30,153.1292,-27.3917,78.80,64.40,61.36,130.00,9.00,M,29.94,M,6.21,M,SCT,SCT,M,M,3500.00,6500.00,M,M,M,YBBN 050330Z 13009KT 9999 SCT035 SCT065 26/18 Q1014 NOSIG
YBBN,2010-10-05 04:00,153.1292,-27.3917,75.20,64.40,69.14,80.00,10.00,M,29.94,M,6.21,M,SCT,SCT,M,M,3500.00,6300.00,M,M,M,YBBN 050400Z 08010KT 9999 SCT035 SCT063 24/18 Q1014 NOSIG
YBBN,2010-10-05 04:30,153.1292,-27.3917,77.00,66.20,69.33,90.00,9.00,M,29.94,M,6.21,M,SCT,SCT,M,M,3500.00,6000.00,M,M,M,YBBN 050430Z 09009KT 9999 SCT035 SCT060 25/19 Q1014 NOSIG
YBBN,2010-10-05 05:00,153.1292,-27.3917,75.20,64.40,69.14,70.00,10.00,M,29.94,M,6.21,M,SCT,SCT,M,M,3500.00,6000.00,M,M,M,YBBN 050500Z 07010KT 9999 SCT035 SCT060 24/18 Q1014 NOSIG
YBBN,2010-10-05 05:30,153.1292,-27.3917,73.40,64.40,73.44,80.00,7.00,M,29.94,M,6.21,M,SCT,SCT,M,M,3800.00,6000.00,M,M,-SHRA,YBBN 050530Z 08007KT 9999 -SHRA SCT038 SCT060 23/18 Q1014 NOSIG
YBBN,2010-10-05 06:00,153.1292,-27.3917,75.20,66.20,73.61,70.00,9.00,M,29.94,M,6.21,M,SCT,SCT,M,M,3800.00,6000.00,M,M,VCSH,YBBN 050600Z 07009KT 9999 VCSH SCT038 SCT060 24/19 Q1014 NOSIG
YBBN,2010-10-05 07:00,153.1292,-27.3917,69.80,68.00,94.01,100.00,7.00,M,29.97,M,6.21,M,FEW,SCT,FEW,M,700.00,2800.00,1800.00,M,VCSH,YBBN 050700Z 10007KT 9999 VCSH FEW007 SCT028 FEW018TCU 21/20 Q1015 RMK CLEARING NOSIG
YBBN,2010-10-05 07:30,153.1292,-27.3917,69.80,68.00,94.01,90.00,5.00,M,30.00,M,6.21,M,FEW,SCT,M,M,800.00,3000.00,M,M,VCSH,YBBN 050730Z 09005KT 9999 VCSH FEW008 SCT030 21/20 Q1016 NOSIG
YBBN,2010-10-05 08:00,153.1292,-27.3917,69.80,68.00,94.01,90.00,3.00,M,30.00,M,6.21,M,FEW,SCT,M,M,800.00,8000.00,M,M,VCSH,YBBN 050800Z 09003KT 9999 VCSH FEW008 SCT080 21/20 Q1016 NOSIG
YBBN,2010-10-05 08:30,153.1292,-27.3917,69.80,66.20,88.34,0.00,0.00,M,30.03,M,6.21,M,FEW,BKN,M,M,800.00,8400.00,M,M,M,YBBN 050830Z 00000KT 9999 FEW008 BKN084 21/19 Q1017 NOSIG
YBBN,2010-10-05 09:00,153.1292,-27.3917,69.80,66.20,88.34,0.00,0.00,M,30.03,M,6.21,M,SCT,BKN,M,M,1600.00,3200.00,M,M,M,YBBN 050900Z 00000KT 9999 SCT016 BKN032 21/19 Q1017 NOSIG
YBBN,2010-10-05 09:30,153.1292,-27.3917,69.80,66.20,88.34,360.00,2.00,M,30.06,M,6.21,M,FEW,SCT,M,M,1700.00,4300.00,M,M,M,YBBN 050930Z 36002KT 9999 FEW017 SCT043 21/19 Q1018 NOSIG
YBBN,2010-10-05 10:00,153.1292,-27.3917,69.80,68.00,94.01,310.00,4.00,M,30.06,M,6.21,M,FEW,M,M,M,1400.00,M,M,M,M,YBBN 051000Z 31004KT 9999 FEW014 21/20 Q1018 NOSIG
YBBN,2010-10-05 10:30,153.1292,-27.3917,69.80,68.00,94.01,290.00,5.00,M,30.06,M,6.21,M,FEW,SCT,BKN,M,1400.00,1900.00,3500.00,M,M,YBBN 051030Z 29005KT 9999 FEW014 SCT019 BKN035 21/20 Q1018 NOSIG
YBBN,2010-10-05 11:00,153.1292,-27.3917,69.80,68.00,94.01,300.00,1.00,M,30.06,M,6.21,M,FEW,SCT,BKN,M,1400.00,2500.00,4200.00,M,M,YBBN 051100Z 30001KT 9999 FEW014 SCT025 BKN042 21/20 Q1018 NOSIG
YBBN,2010-10-05 12:30,153.1292,-27.3917,68.00,62.60,82.86,210.00,6.00,M,30.06,M,6.21,M,FEW,M,M,M,1300.00,M,M,M,M,YBBN 051230Z 21006KT 9999 FEW013 20/17 Q1018 NOSIG
YBBN,2010-10-05 13:00,153.1292,-27.3917,66.20,60.80,82.74,210.00,5.00,M,30.06,M,6.21,M,FEW,M,M,M,1500.00,M,M,M,M,YBBN 051300Z 21005KT 9999 FEW015 19/16 Q1018 NOSIG
YBBN,2010-10-05 13:30,153.1292,-27.3917,66.20,60.80,82.74,210.00,4.00,M,30.06,M,6.21,M,M,M,M,M,M,M,M,M,M,YBBN 051330Z 21004KT CAVOK 19/16 Q1018 NOSIG
YBBN,2010-10-05 14:00,153.1292,-27.3917,66.20,60.80,82.74,210.00,5.00,M,30.06,M,6.21,M,FEW,M,M,M,3500.00,M,M,M,M,YBBN 051400Z 21005KT 9999 FEW035 19/16 Q1018 NOSIG
YBBN,2010-10-05 14:30,153.1292,-27.3917,64.40,60.80,88.09,210.00,6.00,M,30.06,M,6.21,M,FEW,M,M,M,3500.00,M,M,M,M,YBBN 051430Z 21006KT 9999 FEW035 18/16 Q1018 NOSIG
YBBN,2010-10-05 15:00,153.1292,-27.3917,64.40,60.80,88.09,220.00,5.00,M,30.03,M,6.21,M,FEW,SCT,M,M,4000.00,13000.00,M,M,M,YBBN 051500Z 22005KT 9999 FEW040 SCT130 18/16 Q1017 NOSIG
YBBN,2010-10-05 15:30,153.1292,-27.3917,64.40,59.00,82.62,210.00,5.00,M,30.03,M,6.21,M,FEW,SCT,M,M,4000.00,13000.00,M,M,M,YBBN 051530Z 21005KT 9999 FEW040 SCT130 18/15 Q1017 NOSIG
YBBN,2010-10-05 16:00,153.1292,-27.3917,66.20,59.00,77.60,210.00,7.00,M,30.03,M,6.21,M,M,M,M,M,M,M,M,M,M,YBBN 051600Z 21007KT CAVOK 19/15 Q1017 RMK 5AC120 NOSIG
YBBN,2010-10-05 16:30,153.1292,-27.3917,64.40,60.80,88.09,210.00,5.00,M,30.03,M,6.21,M,M,M,M,M,M,M,M,M,M,YBBN 051630Z 21005KT CAVOK 18/16 Q1017 RMK 6AC130 NOSIG
YBBN,2010-10-05 17:00,153.1292,-27.3917,64.40,60.80,88.09,220.00,5.00,M,30.00,M,6.21,M,M,M,M,M,M,M,M,M,M,YBBN 051700Z 22005KT CAVOK 18/16 Q1016 RMK 7AC130 NOSIG
YBBN,2010-10-05 17:30,153.1292,-27.3917,64.40,59.00,82.62,210.00,6.00,M,30.00,M,6.21,M,M,M,M,M,M,M,M,M,M,YBBN 051730Z 21006KT CAVOK 18/15 Q1016 RMK 7AC130 NOSIG
YBBN,2010-10-05 18:00,153.1292,-27.3917,64.40,59.00,82.62,210.00,6.00,M,30.00,M,6.21,M,M,M,M,M,M,M,M,M,M,YBBN 051800Z 21006KT CAVOK 18/15 Q1016 RMK 7AC120 NOSIG
YBBN,2010-10-05 18:30,153.1292,-27.3917,64.40,59.00,82.62,210.00,6.00,M,30.00,M,6.21,M,M,M,M,M,M,M,M,M,M,YBBN 051830Z 21006KT CAVOK 18/15 Q1016 RMK 6AC120 NOSIG
YBBN,2010-10-05 19:00,153.1292,-27.3917,62.60,59.00,88.00,210.00,4.00,M,30.03,M,6.21,M,M,M,M,M,M,M,M,M,M,YBBN 051900Z 21004KT CAVOK 17/15 Q1017 NOSIG
YBBN,2010-10-05 19:30,153.1292,-27.3917,64.40,59.00,82.62,210.00,6.00,M,30.03,M,6.21,M,M,M,M,M,M,M,M,M,M,YBBN 051930Z 21006KT CAVOK 18/15 Q1017 NOSIG
YBBN,2010-10-05 20:00,153.1292,-27.3917,64.40,59.00,82.62,210.00,6.00,M,30.03,M,6.21,M,FEW,M,M,M,4800.00,M,M,M,M,YBBN 052000Z 21006KT 9999 FEW048 18/15 Q1017 NOSIG
YBBN,2010-10-05 20:30,153.1292,-27.3917,66.20,60.80,82.74,210.00,6.00,M,30.03,M,6.21,M,FEW,M,M,M,4800.00,M,M,M,M,YBBN 052030Z 21006KT 9999 FEW048 19/16 Q1017 NOSIG
YBBN,2010-10-05 21:00,153.1292,-27.3917,69.80,60.80,73.09,210.00,8.00,M,30.03,M,6.21,M,FEW,M,M,M,2500.00,M,M,M,M,YBBN 052100Z 21008KT 9999 FEW025 21/16 Q1017 NOSIG
YBBN,2010-10-05 21:30,153.1292,-27.3917,69.80,59.00,68.55,210.00,11.00,M,30.06,M,6.21,M,FEW,M,M,M,2500.00,M,M,M,M,YBBN 052130Z 21011KT 9999 FEW025 21/15 Q1018 NOSIG
YBBN,2010-10-05 22:00,153.1292,-27.3917,71.60,59.00,64.48,220.00,11.00,M,30.06,M,6.21,M,FEW,M,M,M,2800.00,M,M,M,M,YBBN 052200Z 22011KT 9999 FEW028 22/15 Q1018 NOSIG
YBBN,2010-10-05 22:30,153.1292,-27.3917,71.60,59.00,64.48,210.00,8.00,M,30.06,M,6.21,M,FEW,M,M,M,3000.00,M,M,M,M,YBBN 052230Z 21008KT 9999 FEW030 22/15 Q1018 NOSIG
YBBN,2010-10-05 23:00,153.1292,-27.3917,73.40,59.00,60.67,210.00,9.00,M,30.06,M,6.21,M,FEW,M,M,M,3200.00,M,M,M,M,YBBN 052300Z 21009KT 9999 FEW032 23/15 Q1018 NOSIG
YBBN,2010-10-05 23:30,153.1292,-27.3917,75.20,60.80,60.90,230.00,7.00,M,30.06,M,6.21,M,FEW,M,M,M,3500.00,M,M,M,M,YBBN 052330Z 23007KT 9999 FEW035 24/16 Q1018 NOSIG
