#DEBUG: Format Typ    -> comma
#DEBUG: Time Period   -> 2012-10-27 00:00:00+00:00 2012-10-28 00:00:00+00:00
#DEBUG: Time Zone     -> Etc/UTC
#DEBUG: Data Contact   -> daryl herzmann akrherz@iastate.edu 515-294-5978
#DEBUG: Entries Found -> -1
station,valid,lon,lat,tmpf, dwpf, relh, drct, sknt, p01i, alti, mslp, vsby, gust, skyc1, skyc2, skyc3, skyc4, skyl1, skyl2, skyl3, skyl4, presentwx, metar
YBBN,2012-10-27 00:00,153.1292,-27.3917,78.80,64.40,61.36,110.00,12.00,0.00,29.85,M,6.21,M,FEW,M,M,M,2500.00,M,M,M,M,YBBN 270000Z 11012KT 9999 FEW025 26/18 Q1011 FM0200 15020KT 9999 -SHRA SCT040 SCT100
YBBN,2012-10-27 00:30,153.1292,-27.3917,78.80,64.40,61.36,120.00,13.00,0.00,29.85,M,6.21,M,FEW,M,M,M,2800.00,M,M,M,M,YBBN 270030Z 12013KT 9999 FEW028 26/18 Q1011 RMK FU HAZE
YBBN,2012-10-27 01:00,153.1292,-27.3917,78.80,62.60,57.60,110.00,13.00,0.00,29.85,M,6.21,M,FEW,M,M,M,3000.00,M,M,M,M,YBBN 270100Z 11013KT 9999 FEW030 26/17 Q1011 FM0130 15020KT 9999 -SHRA SCT040 SCT100
YBBN,2012-10-27 01:30,153.1292,-27.3917,78.80,60.80,54.05,110.00,14.00,0.00,29.85,M,6.21,M,FEW,M,M,M,3200.00,M,M,M,M,YBBN 270130Z 11014KT 9999 FEW032 26/16 Q1011 RMK FU HAZE
YBBN,2012-10-27 02:00,153.1292,-27.3917,78.80,60.80,54.05,110.00,15.00,0.00,29.85,M,6.21,M,FEW,SCT,M,M,3500.00,25000.00,M,M,M,YBBN 270200Z 11015KT 9999 FEW035 SCT250 26/16 Q1011
YBBN,2012-10-27 02:30,153.1292,-27.3917,78.80,60.80,54.05,110.00,15.00,0.00,29.85,M,6.21,M,FEW,SCT,M,M,3500.00,26000.00,M,M,M,YBBN 270230Z 11015KT 9999 FEW035 SCT260 26/16 Q1011 RMK FU HAZE
YBBN,2012-10-27 02:40,153.1292,-27.3917,78.80,62.60,57.60,110.00,15.00,0.00,29.85,M,6.21,25.00,FEW,SCT,M,M,3500.00,26000.00,M,M,M,YBBN 270240Z 11015G25KT 9999 FEW035 SCT260 26/17 Q1011 RMK FU HAZE
YBBN,2012-10-27 03:00,153.1292,-27.3917,78.80,62.60,57.60,120.00,15.00,0.00,29.83,M,6.21,27.00,FEW,M,M,M,3500.00,M,M,M,M,YBBN 270300Z 12015G27KT 9999 FEW035 26/17 Q1010
YBBN,2012-10-27 03:30,153.1292,-27.3917,77.00,60.80,57.36,120.00,16.00,0.00,29.85,M,6.21,26.00,FEW,SCT,M,M,3500.00,26000.00,M,M,M,YBBN 270330Z 12016G26KT 9999 FEW035 SCT260 25/16 Q1011
YBBN,2012-10-27 04:00,153.1292,-27.3917,75.20,59.00,57.12,120.00,15.00,0.00,29.85,M,6.21,26.00,FEW,SCT,M,M,3500.00,26000.00,M,M,M,YBBN 270400Z 12015G26KT 9999 FEW035 SCT260 24/15 Q1011
YBBN,2012-10-27 04:30,153.1292,-27.3917,77.00,57.20,50.43,130.00,15.00,0.00,29.85,M,6.21,28.00,FEW,BKN,M,M,3500.00,26000.00,M,M,M,YBBN 270430Z 13015G28KT 9999 FEW035 BKN260 25/14 Q1011
YBBN,2012-10-27 05:00,153.1292,-27.3917,75.20,57.20,53.55,120.00,17.00,0.00,29.83,M,6.21,28.00,FEW,BKN,M,M,4000.00,26000.00,M,M,M,YBBN 270500Z 12017G28KT 9999 FEW040 BKN260 24/14 Q1010
YBBN,2012-10-27 05:30,153.1292,-27.3917,75.20,57.20,53.55,120.00,16.00,0.00,29.85,M,6.21,M,M,M,M,M,M,M,M,M,M,YBBN 270530Z 12016KT CAVOK 24/14 Q1011 RMK FU HAZE
YBBN,2012-10-27 05:46,153.1292,-27.3917,75.20,59.00,57.12,120.00,15.00,0.00,29.85,M,6.21,26.00,M,M,M,M,M,M,M,M,M,YBBN 270546Z 12015G26KT CAVOK 24/15 Q1011 RMK FU HAZE
YBBN,2012-10-27 06:00,153.1292,-27.3917,73.40,59.00,60.67,120.00,17.00,0.00,29.85,M,6.21,27.00,M,M,M,M,M,M,M,M,M,YBBN 270600Z 12017G27KT CAVOK 23/15 Q1011
YBBN,2012-10-27 06:30,153.1292,-27.3917,73.40,59.00,60.67,130.00,15.00,0.00,29.85,M,6.21,25.00,M,M,M,M,M,M,M,M,M,YBBN 270630Z 13015G25KT CAVOK 23/15 Q1011
YBBN,2012-10-27 07:00,153.1292,-27.3917,71.60,59.00,64.48,120.00,14.00,0.00,29.88,M,6.21,M,FEW,BKN,M,M,1200.00,5900.00,M,M,M,YBBN 270700Z 12014KT 9999 FEW012 BKN059 22/15 Q1012 TEMPO 0800/1000 5000 SHRA BKN020
YBBN,2012-10-27 07:30,153.1292,-27.3917,71.60,60.80,68.75,140.00,12.00,0.00,29.91,M,6.21,M,FEW,SCT,BKN,M,2500.00,3500.00,6500.00,M,-SHRA VCSH,YBBN 270730Z 14012KT 9999 -SHRA VCSH FEW025 SCT035 BKN065 22/16 Q1013
YBBN,2012-10-27 07:53,153.1292,-27.3917,69.80,60.80,73.09,160.00,9.00,0.00,29.94,M,3.73,M,FEW,SCT,BKN,M,1800.00,3500.00,6500.00,M,-TSRA,YBBN 270753Z 16009KT 6000 -TSRA FEW018 SCT035CB BKN065 21/16 Q1014
YBBN,2012-10-27 08:00,153.1292,-27.3917,68.00,62.60,82.86,150.00,9.00,0.00,29.97,M,3.11,M,FEW,BKN,BKN,FEW,1800.00,6500.00,9000.00,3500.00,RA,YBBN 270800Z 15009KT 5000 RA FEW018 BKN065 BKN090 FEW035CB 20/17 Q1015 RETS
YBBN,2012-10-27 08:30,153.1292,-27.3917,68.00,62.60,82.86,130.00,8.00,0.00,29.97,M,4.97,M,FEW,SCT,BKN,M,1800.00,4000.00,8500.00,M,-RA,YBBN 270830Z 13008KT 8000 -RA FEW018 SCT040 BKN085 20/17 Q1015 RETS
YBBN,2012-10-27 09:00,153.1292,-27.3917,66.20,62.60,88.18,130.00,12.00,0.00,29.97,M,5.59,M,FEW,BKN,M,M,1800.00,4000.00,M,M,RA,YBBN 270900Z 13012KT 9000 RA FEW018 BKN040 19/17 Q1015 RETS TEMPO 0900/1100 5000 SHRA BKN020
YBBN,2012-10-27 09:30,153.1292,-27.3917,66.20,62.60,88.18,130.00,12.00,0.00,30.00,M,6.21,M,FEW,BKN,M,M,1300.00,10000.00,M,M,-RA,YBBN 270930Z 13012KT 9999 -RA FEW013 BKN100 19/17 Q1016
YBBN,2012-10-27 10:00,153.1292,-27.3917,66.20,62.60,88.18,160.00,9.00,0.00,30.00,M,6.21,M,FEW,BKN,M,M,1300.00,10000.00,M,M,-RA,YBBN 271000Z 16009KT 9999 -RA FEW013 BKN100 19/17 Q1016 TEMPO 1000/1300 5000 SHRA BKN020
YBBN,2012-10-27 10:30,153.1292,-27.3917,66.20,62.60,88.18,140.00,9.00,0.00,30.00,M,6.21,M,FEW,BKN,M,M,1300.00,11000.00,M,M,-RA,YBBN 271030Z 14009KT 9999 -RA FEW013 BKN110 19/17 Q1016
YBBN,2012-10-27 11:00,153.1292,-27.3917,66.20,62.60,88.18,160.00,8.00,0.00,30.03,M,6.21,M,FEW,BKN,M,M,1300.00,10000.00,M,M,-RA,YBBN 271100Z 16008KT 9999 -RA FEW013 BKN100 19/17 Q1017
YBBN,2012-10-27 11:30,153.1292,-27.3917,66.20,60.80,82.74,160.00,6.00,0.00,30.06,M,6.21,M,FEW,BKN,M,M,1300.00,9000.00,M,M,-RA,YBBN 271130Z 16006KT 9999 -RA FEW013 BKN090 19/16 Q1018
YBBN,2012-10-27 12:00,153.1292,-27.3917,66.20,59.00,77.60,150.00,7.00,0.00,30.06,M,6.21,M,FEW,BKN,M,M,1300.00,9000.00,M,M,-RA,YBBN 271200Z 15007KT 9999 -RA FEW013 BKN090 19/15 Q1018 INTER 1200/1500 5000 SHRA BKN020
YBBN,2012-10-27 12:30,153.1292,-27.3917,66.20,59.00,77.60,190.00,7.00,0.00,30.06,M,6.21,M,FEW,BKN,M,M,1400.00,8000.00,M,M,-RA,YBBN 271230Z 19007KT 9999 -RA FEW014 BKN080 19/15 Q1018
YBBN,2012-10-27 13:00,153.1292,-27.3917,66.20,57.20,72.74,180.00,5.00,0.00,30.06,M,6.21,M,FEW,BKN,M,M,1300.00,9000.00,M,M,-RA,YBBN 271300Z 18005KT 9999 -RA FEW013 BKN090 19/14 Q1018 INTER 1300/1600 5000 SHRA BKN020
YBBN,2012-10-27 14:00,153.1292,-27.3917,66.20,59.00,77.60,190.00,6.00,0.00,30.09,M,6.21,M,FEW,SCT,BKN,M,1300.00,3000.00,6000.00,M,-RA,YBBN 271400Z 19006KT 9999 -RA FEW013 SCT030 BKN060 19/15 Q1019 INTER 1400/1700 5000 SHRA BKN020
YBBN,2012-10-27 14:30,153.1292,-27.3917,66.20,57.20,72.74,180.00,6.00,0.00,30.06,M,6.21,M,FEW,SCT,BKN,M,1300.00,6000.00,9000.00,M,-RA,YBBN 271430Z 18006KT 9999 -RA FEW013 SCT060 BKN090 19/14 Q1018
YBBN,2012-10-27 15:00,153.1292,-27.3917,64.40,57.20,77.45,170.00,7.00,0.00,30.06,M,6.21,M,FEW,SCT,BKN,M,1300.00,6000.00,9000.00,M,-RA,YBBN 271500Z 17007KT 9999 -RA FEW013 SCT060 BKN090 18/14 Q1018 INTER 1500/1800 5000 SHRA BKN020
YBBN,2012-10-27 15:30,153.1292,-27.3917,64.40,57.20,77.45,170.00,6.00,0.00,30.06,M,6.21,M,FEW,BKN,M,M,1300.00,9000.00,M,M,-RA,YBBN 271530Z 17006KT 9999 -RA FEW013 BKN090 18/14 Q1018
YBBN,2012-10-27 16:00,153.1292,-27.3917,64.40,57.20,77.45,170.00,6.00,0.00,30.03,M,6.21,M,FEW,BKN,M,M,1300.00,9000.00,M,M,-RA,YBBN 271600Z 17006KT 9999 -RA FEW013 BKN090 18/14 Q1017 INTER 1600/1800 5000 SHRA BKN020
YBBN,2012-10-27 16:30,153.1292,-27.3917,64.40,57.20,77.45,160.00,7.00,0.00,30.03,M,6.21,M,FEW,BKN,M,M,1300.00,12000.00,M,M,M,YBBN 271630Z 16007KT 9999 FEW013 BKN120 18/14 Q1017
YBBN,2012-10-27 17:00,153.1292,-27.3917,68.00,55.40,64.04,140.00,10.00,0.00,30.00,M,6.21,M,FEW,SCT,BKN,M,1300.00,12000.00,18000.00,M,M,YBBN 271700Z 14010KT 9999 FEW013 SCT120 BKN180 20/13 Q1016 NOSIG
YBBN,2012-10-27 17:30,153.1292,-27.3917,68.00,53.60,59.97,130.00,12.00,0.00,30.03,M,6.21,M,FEW,BKN,M,M,1300.00,10000.00,M,M,M,YBBN 271730Z 13012KT 9999 FEW013 BKN100 20/12 Q1017
YBBN,2012-10-27 18:00,153.1292,-27.3917,68.00,51.80,56.13,140.00,11.00,0.00,30.03,M,6.21,M,FEW,BKN,M,M,1300.00,10000.00,M,M,VCSH,YBBN 271800Z 14011KT 9999 VCSH FEW013 BKN100 20/11 Q1017
YBBN,2012-10-27 19:00,153.1292,-27.3917,68.00,50.00,52.51,140.00,9.00,0.00,30.06,M,6.21,M,FEW,BKN,M,M,1300.00,10000.00,M,M,M,YBBN 271900Z 14009KT 9999 FEW013 BKN100 20/10 Q1018 NOSIG
YBBN,2012-10-27 19:30,153.1292,-27.3917,68.00,50.00,52.51,140.00,10.00,0.00,30.09,M,6.21,M,FEW,SCT,BKN,M,1300.00,10000.00,16000.00,M,M,YBBN 271930Z 14010KT 9999 FEW013 SCT100 BKN160 20/10 Q1019
YBBN,2012-10-27 20:00,153.1292,-27.3917,68.00,50.00,52.51,130.00,11.00,0.00,30.09,M,6.21,M,FEW,SCT,BKN,M,1300.00,10000.00,16000.00,M,M,YBBN 272000Z 13011KT 9999 FEW013 SCT100 BKN160 20/10 Q1019 NOSIG
YBBN,2012-10-27 20:30,153.1292,-27.3917,68.00,50.00,52.51,130.00,14.00,0.00,30.12,M,6.21,24.00,FEW,SCT,BKN,M,1500.00,4600.00,14500.00,M,M,YBBN 272030Z 13014G24KT 9999 FEW015 SCT046 BKN145 20/10 Q1020
YBBN,2012-10-27 21:00,153.1292,-27.3917,69.80,50.00,49.37,130.00,11.00,0.00,30.15,M,6.21,M,FEW,SCT,BKN,M,2000.00,5800.00,14500.00,M,M,YBBN 272100Z 13011KT 9999 FEW020 SCT058 BKN145 21/10 Q1021
YBBN,2012-10-27 21:30,153.1292,-27.3917,69.80,50.00,49.37,130.00,12.00,0.00,30.15,M,6.21,M,FEW,SCT,BKN,M,1800.00,5500.00,12500.00,M,M,YBBN 272130Z 13012KT 9999 FEW018 SCT055 BKN125 21/10 Q1021
YBBN,2012-10-27 22:00,153.1292,-27.3917,69.80,50.00,49.37,140.00,11.00,0.00,30.15,M,6.21,M,FEW,SCT,BKN,M,2200.00,5700.00,12500.00,M,M,YBBN 272200Z 14011KT 9999 FEW022 SCT057 BKN125 21/10 Q1021
YBBN,2012-10-27 22:30,153.1292,-27.3917,69.80,51.80,52.77,130.00,11.00,0.00,30.15,M,6.21,21.00,SCT,SCT,BKN,M,3500.00,5700.00,12000.00,M,M,YBBN 272230Z 13011G21KT 9999 SCT035 SCT057 BKN120 21/11 Q1021
YBBN,2012-10-27 23:00,153.1292,-27.3917,69.80,50.00,49.37,120.00,13.00,0.00,30.18,M,6.21,M,SCT,SCT,BKN,M,4000.00,5500.00,12500.00,M,M,YBBN 272300Z 12013KT 9999 SCT040 SCT055 BKN125 21/10 Q1022
YBBN,2012-10-27 23:30,153.1292,-27.3917,69.80,50.00,49.37,130.00,13.00,0.00,30.15,M,6.21,25.00,SCT,SCT,BKN,M,3800.00,5500.00,15500.00,M,M,YBBN 272330Z 13013G25KT 9999 SCT038 SCT055 BKN155 21/10 Q1021
