#DEBUG: Format Typ    -> comma
#DEBUG: Time Period   -> 2014-11-30 00:00:00+00:00 2014-12-01 00:00:00+00:00
#DEBUG: Time Zone     -> Etc/UTC
#DEBUG: Data Contact   -> daryl herzmann akrherz@iastate.edu 515-294-5978
#DEBUG: Entries Found -> -1
station,valid,lon,lat,tmpf, dwpf, relh, drct, sknt, p01i, alti, mslp, vsby, gust, skyc1, skyc2, skyc3, skyc4, skyl1, skyl2, skyl3, skyl4, presentwx, metar
YBBN,2014-11-30 00:00,153.1292,-27.3917,75.20,57.20,53.55,10.00,8.00,0.00,30.00,M,6.21,M,FEW,M,M,M,4200.00,M,M,M,M,YBBN 300000Z 01008KT 9999 FEW042 24/14 Q1016 NOSIG
YBBN,2014-11-30 00:30,153.1292,-27.3917,77.00,57.20,50.43,20.00,8.00,0.00,30.00,M,6.21,M,SCT,M,M,M,4200.00,M,M,M,M,YBBN 300030Z 02008KT 9999 SCT042 25/14 Q1016
YBBN,2014-11-30 01:00,153.1292,-27.3917,77.00,57.20,50.43,10.00,8.00,0.00,30.00,M,6.21,M,SCT,M,M,M,4400.00,M,M,M,M,YBBN 300100Z 01008KT 9999 SCT044 25/14 Q1016
YBBN,2014-11-30 01:30,153.1292,-27.3917,77.00,57.20,50.43,30.00,8.00,0.00,30.00,M,6.21,M,SCT,M,M,M,4400.00,M,M,M,M,YBBN 300130Z 03008KT 9999 SCT044 25/14 Q1016
YBBN,2014-11-30 02:00,153.1292,-27.3917,78.80,59.00,50.69,20.00,9.00,0.00,29.97,M,6.21,M,FEW,M,M,M,4200.00,M,M,M,M,YBBN 300200Z 02009KT 9999 FEW042 26/15 Q1015 NOSIG
YBBN,2014-11-30 02:30,153.1292,-27.3917,78.80,57.20,47.52,30.00,11.00,0.00,29.97,M,6.21,M,FEW,M,M,M,4200.00,M,M,M,M,YBBN 300230Z 03011KT 9999 FEW042 26/14 Q1015
YBBN,2014-11-30 03:00,153.1292,-27.3917,78.80,57.20,47.52,30.00,11.00,0.00,29.97,M,6.21,M,FEW,M,M,M,4200.00,M,M,M,M,YBBN 300300Z 03011KT 9999 FEW042 26/14 Q1015 NOSIG
YBBN,2014-11-30 03:30,153.1292,-27.3917,78.80,57.20,47.52,50.00,10.00,0.00,29.94,M,6.21,M,FEW,M,M,M,4200.00,M,M,M,M,YBBN 300330Z 05010KT 9999 FEW042 26/14 Q1014
YBBN,2014-11-30 04:00,153.1292,-27.3917,78.80,57.20,47.52,50.00,11.00,0.00,29.94,M,6.21,M,FEW,M,M,M,4200.00,M,M,M,M,YBBN 300400Z 05011KT 9999 FEW042 26/14 Q1014 NOSIG
YBBN,2014-11-30 04:30,153.1292,-27.3917,78.80,59.00,50.69,50.00,12.00,0.00,29.94,M,6.21,M,FEW,M,M,M,4200.00,M,M,M,M,YBBN 300430Z 05012KT 9999 FEW042 26/15 Q1014
YBBN,2014-11-30 05:00,153.1292,-27.3917,78.80,57.20,47.52,40.00,12.00,0.00,29.91,M,6.21,M,FEW,BKN,M,M,4200.00,30000.00,M,M,M,YBBN 300500Z 04012KT 9999 FEW042 BKN300 26/14 Q1013 NOSIG
YBBN,2014-11-30 05:30,153.1292,-27.3917,78.80,57.20,47.52,30.00,11.00,0.00,29.91,M,6.21,M,FEW,BKN,M,M,4200.00,30000.00,M,M,M,YBBN 300530Z 03011KT 9999 FEW042 BKN300 26/14 Q1013
YBBN,2014-11-30 06:00,153.1292,-27.3917,77.00,53.60,44.25,40.00,12.00,0.00,29.91,M,6.21,M,FEW,BKN,M,M,4200.00,30000.00,M,M,M,YBBN 300600Z 04012KT 9999 FEW042 BKN300 25/12 Q1013 NOSIG
YBBN,2014-11-30 06:30,153.1292,-27.3917,78.80,57.20,47.52,40.00,14.00,0.00,29.91,M,6.21,M,FEW,BKN,M,M,4200.00,30000.00,M,M,M,YBBN 300630Z 04014KT 9999 FEW042 BKN300 26/14 Q1013
YBBN,2014-11-30 07:00,153.1292,-27.3917,77.00,59.00,53.80,50.00,14.00,0.00,29.91,M,6.21,M,FEW,BKN,M,M,4200.00,30000.00,M,M,M,YBBN 300700Z 05014KT 9999 FEW042 BKN300 25/15 Q1013 NOSIG
YBBN,2014-11-30 07:30,153.1292,-27.3917,75.20,59.00,57.12,40.00,11.00,0.00,29.94,M,6.21,M,FEW,BKN,M,M,2500.00,30000.00,M,M,M,YBBN 300730Z 04011KT 9999 FEW025 BKN300 24/15 Q1014
YBBN,2014-11-30 08:00,153.1292,-27.3917,75.20,59.00,57.12,40.00,10.00,0.00,29.94,M,6.21,M,FEW,BKN,M,M,2500.00,30000.00,M,M,M,YBBN 300800Z 04010KT 9999 FEW025 BKN300 24/15 Q1014 NOSIG
YBBN,2014-11-30 08:30,153.1292,-27.3917,73.40,59.00,60.67,30.00,10.00,0.00,29.94,M,6.21,M,FEW,BKN,M,M,2500.00,30000.00,M,M,M,YBBN 300830Z 03010KT 9999 FEW025 BKN300 23/15 Q1014
YBBN,2014-11-30 09:00,153.1292,-27.3917,73.40,59.00,60.67,40.00,12.00,0.00,29.94,M,6.21,M,FEW,BKN,M,M,2700.00,30000.00,M,M,M,YBBN 300900Z 04012KT 9999 FEW027 BKN300 23/15 Q1014 NOSIG
YBBN,2014-11-30 09:30,153.1292,-27.3917,73.40,59.00,60.67,30.00,11.00,0.00,29.97,M,6.21,M,FEW,BKN,M,M,2500.00,30000.00,M,M,M,YBBN 300930Z 03011KT 9999 FEW025 BKN300 23/15 Q1015
YBBN,2014-11-30 10:00,153.1292,-27.3917,71.60,60.80,68.75,30.00,11.00,0.00,29.97,M,6.21,M,FEW,SCT,M,M,3200.00,30000.00,M,M,M,YBBN 301000Z 03011KT 9999 FEW032 SCT300 22/16 Q1015
YBBN,2014-11-30 10:30,153.1292,-27.3917,73.40,59.00,60.67,30.00,10.00,0.00,29.97,M,6.21,M,FEW,SCT,M,M,2800.00,30000.00,M,M,M,YBBN 301030Z 03010KT 9999 FEW028 SCT300 23/15 Q1015
YBBN,2014-11-30 11:00,153.1292,-27.3917,71.60,59.00,64.48,30.00,8.00,0.00,29.97,M,6.21,M,SCT,M,M,M,3200.00,M,M,M,M,YBBN 301100Z 03008KT 9999 SCT032 22/15 Q1015
YBBN,2014-11-30 11:30,153.1292,-27.3917,71.60,60.80,68.75,30.00,9.00,0.00,29.97,M,6.21,M,SCT,M,M,M,2800.00,M,M,M,M,YBBN 301130Z 03009KT 9999 SCT028 22/16 Q1015
YBBN,2014-11-30 12:00,153.1292,-27.3917,71.60,60.80,68.75,20.00,9.00,0.00,29.97,M,6.21,M,FEW,M,M,M,3000.00,M,M,M,M,YBBN 301200Z 02009KT 9999 FEW030 22/16 Q1015
YBBN,2014-11-30 12:30,153.1292,-27.3917,71.60,60.80,68.75,30.00,8.00,0.00,29.97,M,6.21,M,FEW,M,M,M,2800.00,M,M,M,M,YBBN 301230Z 03008KT 9999 FEW028 22/16 Q1015
YBBN,2014-11-30 13:00,153.1292,-27.3917,71.60,60.80,68.75,20.00,7.00,0.00,29.97,M,6.21,M,FEW,M,M,M,3000.00,M,M,M,M,YBBN 301300Z 02007KT 9999 FEW030 22/16 Q1015 NOSIG
YBBN,2014-11-30 13:30,153.1292,-27.3917,71.60,60.80,68.75,30.00,9.00,0.00,29.94,M,6.21,M,SCT,M,M,M,2900.00,M,M,M,M,YBBN 301330Z 03009KT 9999 SCT029 22/16 Q1014
YBBN,2014-11-30 14:00,153.1292,-27.3917,71.60,60.80,68.75,30.00,8.00,0.00,29.94,M,6.21,M,FEW,M,M,M,3500.00,M,M,M,M,YBBN 301400Z 03008KT 9999 FEW035 22/16 Q1014
YBBN,2014-11-30 14:30,153.1292,-27.3917,71.60,60.80,68.75,30.00,8.00,0.00,29.94,M,6.21,M,FEW,M,M,M,3500.00,M,M,M,M,YBBN 301430Z 03008KT 9999 FEW035 22/16 Q1014
YBBN,2014-11-30 15:00,153.1292,-27.3917,69.80,60.80,73.09,10.00,8.00,0.00,29.94,M,6.21,M,SCT,M,M,M,3800.00,M,M,M,M,YBBN 301500Z 01008KT 9999 SCT038 21/16 Q1014 NOSIG
YBBN,2014-11-30 15:30,153.1292,-27.3917,71.60,62.60,73.27,30.00,8.00,0.00,29.94,M,6.21,M,BKN,M,M,M,2500.00,M,M,M,M,YBBN 301530Z 03008KT 9999 BKN025 22/17 Q1014
YBBN,2014-11-30 16:00,153.1292,-27.3917,69.80,60.80,73.09,40.00,8.00,0.00,29.91,M,6.21,M,SCT,M,M,M,2800.00,M,M,M,M,YBBN 301600Z 04008KT 9999 SCT028 21/16 Q1013
YBBN,2014-11-30 16:30,153.1292,-27.3917,69.80,60.80,73.09,30.00,7.00,0.00,29.91,M,6.21,M,SCT,M,M,M,3100.00,M,M,M,M,YBBN 301630Z 03007KT 9999 SCT031 21/16 Q1013
YBBN,2014-11-30 17:00,153.1292,-27.3917,69.80,60.80,73.09,30.00,7.00,0.00,29.91,M,6.21,M,SCT,M,M,M,3000.00,M,M,M,M,YBBN 301700Z 03007KT 9999 SCT030 21/16 Q1013
YBBN,2014-11-30 17:30,153.1292,-27.3917,69.80,60.80,73.09,30.00,8.00,0.00,29.91,M,6.21,M,BKN,M,M,M,3200.00,M,M,M,M,YBBN 301730Z 03008KT 9999 BKN032 21/16 Q1013
YBBN,2014-11-30 18:00,153.1292,-27.3917,71.60,59.00,64.48,40.00,8.00,0.00,29.91,M,6.21,M,FEW,SCT,M,M,3000.00,4800.00,M,M,M,YBBN 301800Z 04008KT 9999 FEW030 SCT048 22/15 Q1013
YBBN,2014-11-30 18:30,153.1292,-27.3917,69.80,59.00,68.55,30.00,9.00,0.00,29.91,M,6.21,M,FEW,SCT,M,M,3000.00,4800.00,M,M,M,YBBN 301830Z 03009KT 9999 FEW030 SCT048 21/15 Q1013
YBBN,2014-11-30 19:00,153.1292,-27.3917,69.80,59.00,68.55,30.00,9.00,0.00,29.91,M,6.21,M,FEW,SCT,M,M,3000.00,4800.00,M,M,M,YBBN 301900Z 03009KT 9999 FEW030 SCT048 21/15 Q1013
YBBN,2014-11-30 19:30,153.1292,-27.3917,69.80,59.00,68.55,30.00,8.00,0.00,29.91,M,6.21,M,FEW,SCT,M,M,3500.00,4800.00,M,M,M,YBBN 301930Z 03008KT 9999 FEW035 SCT048 21/15 Q1013
YBBN,2014-11-30 20:00,153.1292,-27.3917,73.40,59.00,60.67,30.00,9.00,0.00,29.94,M,6.21,M,FEW,BKN,M,M,3500.00,5000.00,M,M,M,YBBN 302000Z 03009KT 9999 FEW035 BKN050 23/15 Q1014 NOSIG
YBBN,2014-11-30 20:30,153.1292,-27.3917,75.20,59.00,57.12,30.00,9.00,0.00,29.94,M,6.21,M,FEW,BKN,M,M,3500.00,5200.00,M,M,M,YBBN 302030Z 03009KT 9999 FEW035 BKN052 24/15 Q1014
YBBN,2014-11-30 21:00,153.1292,-27.3917,75.20,59.00,57.12,30.00,11.00,0.00,29.94,M,6.21,M,FEW,SCT,M,M,3500.00,5500.00,M,M,M,YBBN 302100Z 03011KT 9999 FEW035 SCT055 24/15 Q1014
YBBN,2014-11-30 21:30,153.1292,-27.3917,75.20,57.20,53.55,20.00,10.00,0.00,29.97,M,6.21,M,FEW,SCT,M,M,3500.00,5500.00,M,M,M,YBBN 302130Z 02010KT 9999 FEW035 SCT055 24/14 Q1015
YBBN,2014-11-30 22:00,153.1292,-27.3917,75.20,57.20,53.55,10.00,10.00,0.00,29.97,M,6.21,M,FEW,SCT,M,M,3500.00,5500.00,M,M,M,YBBN 302200Z 01010KT 9999 FEW035 SCT055 24/14 Q1015 NOSIG
YBBN,2014-11-30 22:30,153.1292,-27.3917,75.20,57.20,53.55,10.00,10.00,0.00,29.97,M,6.21,M,FEW,SCT,M,M,3500.00,5500.00,M,M,M,YBBN 302230Z 01010KT 9999 FEW035 SCT055 24/14 Q1015
YBBN,2014-11-30 23:00,153.1292,-27.3917,77.00,57.20,50.43,20.00,10.00,0.00,29.97,M,6.21,M,FEW,SCT,M,M,3500.00,5500.00,M,M,M,YBBN 302300Z 02010KT 9999 FEW035 SCT055 25/14 Q1015 NOSIG
YBBN,2014-11-30 23:30,153.1292,-27.3917,77.00,57.20,50.43,30.00,10.00,0.00,29.97,M,6.21,M,FEW,SCT,M,M,3500.00,5500.00,M,M,M,YBBN 302330Z 03010KT 9999 FEW035 SCT055 25/14 Q1015
