#DEBUG: Format Typ    -> comma
#DEBUG: Time Period   -> 2010-06-21 00:00:00+00:00 2010-06-22 00:00:00+00:00
#DEBUG: Time Zone     -> Etc/UTC
#DEBUG: Data Contact   -> daryl herzmann akrherz@iastate.edu 515-294-5978
#DEBUG: Entries Found -> -1
station,valid,lon,lat,tmpf, dwpf, relh, drct, sknt, p01i, alti, mslp, vsby, gust, skyc1, skyc2, skyc3, skyc4, skyl1, skyl2, skyl3, skyl4, presentwx, metar
YBBN,2010-06-21 00:00,153.1292,-27.3917,66.20,51.80,59.74,210.00,8.00,M,30.39,M,6.21,M,FEW,M,M,M,2500.00,M,M,M,M,YBBN 210000Z 21008KT 9999 FEW025 19/11 Q1029 RMK SMOKE/HAZE NOSIG
YBBN,2010-06-21 00:30,153.1292,-27.3917,68.00,51.80,56.13,190.00,7.00,M,30.39,M,6.21,M,FEW,M,M,M,2500.00,M,M,M,M,YBBN 210030Z 19007KT 9999 FEW025 20/11 Q1029 RMK SMOKE/HAZE NOSIG
YBBN,2010-06-21 01:00,153.1292,-27.3917,69.80,51.80,52.77,190.00,7.00,M,30.39,M,6.21,M,FEW,M,M,M,2700.00,M,M,M,M,YBBN 210100Z 19007KT 9999 FEW027 21/11 Q1029 RMK SMOKE/HAZE NOSIG
YBBN,2010-06-21 01:30,153.1292,-27.3917,69.80,51.80,52.77,120.00,8.00,M,30.36,M,6.21,M,FEW,M,M,M,3000.00,M,M,M,M,YBBN 210130Z 12008KT 9999 FEW030 21/11 Q1028 NOSIG
YBBN,2010-06-21 02:00,153.1292,-27.3917,69.80,51.80,52.77,130.00,9.00,M,30.36,M,6.21,M,FEW,M,M,M,3500.00,M,M,M,M,YBBN 210200Z 13009KT 9999 FEW035 21/11 Q1028 RMK SMOKE TO WEST NOSIG
YBBN,2010-06-21 02:30,153.1292,-27.3917,69.80,50.00,49.37,120.00,9.00,M,30.36,M,6.21,M,FEW,M,M,M,3700.00,M,M,M,M,YBBN 210230Z 12009KT 9999 FEW037 21/10 Q1028 NOSIG
YBBN,2010-06-21 03:00,153.1292,-27.3917,69.80,51.80,52.77,120.00,11.00,M,30.33,M,6.21,M,SCT,M,M,M,3600.00,M,M,M,M,YBBN 210300Z 12011KT 9999 SCT036 21/11 Q1027 NOSIG
YBBN,2010-06-21 03:30,153.1292,-27.3917,69.80,50.00,49.37,120.00,10.00,M,30.33,M,6.21,M,FEW,M,M,M,3500.00,M,M,M,M,YBBN 210330Z 12010KT 9999 FEW035 21/10 Q1027 RMK SMOKE TO WEST NOSIG
YBBN,2010-06-21 04:00,153.1292,-27.3917,69.80,51.80,52.77,110.00,10.00,M,30.33,M,6.21,M,FEW,M,M,M,3500.00,M,M,M,M,YBBN 210400Z 11010KT 9999 FEW035 21/11 Q1027 NOSIG
YBBN,2010-06-21 04:30,153.1292,-27.3917,69.80,51.80,52.77,120.00,9.00,M,30.33,M,6.21,M,FEW,M,M,M,3400.00,M,M,M,M,YBBN 210430Z 12009KT 9999 FEW034 21/11 Q1027 NOSIG
YBBN,2010-06-21 05:00,153.1292,-27.3917,68.00,50.00,52.51,120.00,10.00,M,30.33,M,6.21,M,FEW,M,M,M,3400.00,M,M,M,M,YBBN 210500Z 12010KT 9999 FEW034 20/10 Q1027 NOSIG
YBBN,2010-06-21 05:30,153.1292,-27.3917,68.00,50.00,52.51,120.00,9.00,M,30.36,M,6.21,M,FEW,M,M,M,3200.00,M,M,M,M,YBBN 210530Z 12009KT 9999 FEW032 20/10 Q1028 NOSIG
YBBN,2010-06-21 06:00,153.1292,-27.3917,66.20,51.80,59.74,120.00,9.00,M,30.36,M,6.21,M,FEW,M,M,M,3000.00,M,M,M,M,YBBN 210600Z 12009KT 9999 FEW030 19/11 Q1028 NOSIG
YBBN,2010-06-21 06:30,153.1292,-27.3917,66.20,51.80,59.74,130.00,8.00,M,30.36,M,6.21,M,FEW,M,M,M,2800.00,M,M,M,M,YBBN 210630Z 13008KT 9999 FEW028 19/11 Q1028 NOSIG
YBBN,2010-06-21 07:00,153.1292,-27.3917,64.40,51.80,63.60,130.00,7.00,M,30.36,M,6.21,M,FEW,M,M,M,2700.00,M,M,M,M,YBBN 210700Z 13007KT 9999 FEW027 18/11 Q1028 NOSIG
YBBN,2010-06-21 07:30,153.1292,-27.3917,64.40,53.60,67.95,130.00,6.00,M,30.36,M,6.21,M,FEW,M,M,M,2500.00,M,M,M,M,YBBN 210730Z 13006KT 9999 FEW025 18/12 Q1028 NOSIG
YBBN,2010-06-21 08:00,153.1292,-27.3917,64.40,53.60,67.95,130.00,7.00,M,30.39,M,6.21,M,FEW,M,M,M,2500.00,M,M,M,M,YBBN 210800Z 13007KT 9999 FEW025 18/12 Q1029 NOSIG
YBBN,2010-06-21 08:30,153.1292,-27.3917,64.40,53.60,67.95,130.00,6.00,M,30.39,M,6.21,M,FEW,M,M,M,2500.00,M,M,M,M,YBBN 210830Z 13006KT 9999 FEW025 18/12 Q1029 NOSIG
YBBN,2010-06-21 09:00,153.1292,-27.3917,62.60,53.60,72.38,150.00,5.00,M,30.39,M,6.21,M,FEW,M,M,M,2500.00,M,M,M,M,YBBN 210900Z 15005KT 9999 FEW025 17/12 Q1029 NOSIG
YBBN,2010-06-21 09:30,153.1292,-27.3917,62.60,53.60,72.38,160.00,6.00,M,30.42,M,6.21,M,FEW,M,M,M,2400.00,M,M,M,M,YBBN 210930Z 16006KT 9999 FEW024 17/12 Q1030 NOSIG
YBBN,2010-06-21 10:00,153.1292,-27.3917,60.80,53.60,77.14,150.00,5.00,M,30.42,M,6.21,M,FEW,M,M,M,4500.00,M,M,M,M,YBBN 211000Z 15005KT 9999 FEW045 16/12 Q1030 NOSIG
YBBN,2010-06-21 10:30,153.1292,-27.3917,60.80,51.80,72.20,160.00,5.00,M,30.42,M,6.21,M,FEW,M,M,M,4500.00,M,M,M,M,YBBN 211030Z 16005KT 9999 FEW045 16/11 Q1030 NOSIG
YBBN,2010-06-21 11:00,153.1292,-27.3917,59.00,51.80,76.98,160.00,5.00,M,30.42,M,6.21,M,FEW,M,M,M,4500.00,M,M,M,M,YBBN 211100Z 16005KT 9999 FEW045 15/11 Q1030 NOSIG
YBBN,2010-06-21 11:30,153.1292,-27.3917,57.20,51.80,82.12,180.00,5.00,M,30.42,M,6.21,M,M,M,M,M,M,M,M,M,M,YBBN 211130Z 18005KT CAVOK 14/11 Q1030 NOSIG
YBBN,2010-06-21 12:00,153.1292,-27.3917,57.20,51.80,82.12,200.00,6.00,M,30.42,M,6.21,M,M,M,M,M,M,M,M,M,M,YBBN 211200Z 20006KT CAVOK 14/11 Q1030 NOSIG
YBBN,2010-06-21 12:30,153.1292,-27.3917,53.60,50.00,87.56,220.00,6.00,M,30.42,M,6.21,M,M,M,M,M,M,M,M,M,M,YBBN 211230Z 22006KT CAVOK 12/10 Q1030 NOSIG
YBBN,2010-06-21 13:00,153.1292,-27.3917,53.60,50.00,87.56,220.00,4.00,M,30.42,M,6.21,M,M,M,M,M,M,M,M,M,M,YBBN 211300Z 22004KT CAVOK 12/10 Q1030 NOSIG
YBBN,2010-06-21 13:30,153.1292,-27.3917,55.40,50.00,81.99,210.00,7.00,M,30.42,M,6.21,M,M,M,M,M,M,M,M,M,M,YBBN 211330Z 21007KT CAVOK 13/10 Q1030 NOSIG
YBBN,2010-06-21 14:00,153.1292,-27.3917,55.40,50.00,81.99,210.00,8.00,M,30.42,M,6.21,M,M,M,M,M,M,M,M,M,M,YBBN 211400Z 21008KT CAVOK 13/10 Q1030 NOSIG
YBBN,2010-06-21 14:30,153.1292,-27.3917,57.20,50.00,76.82,210.00,6.00,M,30.42,M,6.21,M,M,M,M,M,M,M,M,M,M,YBBN 211430Z 21006KT CAVOK 14/10 Q1030 NOSIG
YBBN,2010-06-21 15:00,153.1292,-27.3917,53.60,50.00,87.56,230.00,6.00,M,30.42,M,6.21,M,M,M,M,M,M,M,M,M,M,YBBN 211500Z 23006KT CAVOK 12/10 Q1030 NOSIG
YBBN,2010-06-21 15:30,153.1292,-27.3917,53.60,50.00,87.56,210.00,6.00,M,30.39,M,6.21,M,M,M,M,M,M,M,M,M,M,YBBN 211530Z 21006KT CAVOK 12/10 Q1029 NOSIG
YBBN,2010-06-21 16:00,153.1292,-27.3917,51.80,50.00,93.55,220.00,7.00,M,30.39,M,6.21,M,M,M,M,M,M,M,M,M,M,YBBN 211600Z 22007KT CAVOK 11/10 Q1029 NOSIG
YBBN,2010-06-21 16:30,153.1292,-27.3917,50.00,48.20,93.50,230.00,7.00,M,30.39,M,6.21,M,M,M,M,M,M,M,M,M,M,YBBN 211630Z 23007KT CAVOK 10/09 Q1029 NOSIG
YBBN,2010-06-21 17:00,153.1292,-27.3917,51.80,50.00,93.55,220.00,7.00,M,30.39,M,6.21,M,M,M,M,M,M,M,M,M,M,YBBN 211700Z 22007KT CAVOK 11/10 Q1029 NOSIG
YBBN,2010-06-21 17:30,153.1292,-27.3917,53.60,50.00,87.56,210.00,8.00,M,30.39,M,6.21,M,M,M,M,M,M,M,M,M,M,YBBN 211730Z 21008KT CAVOK 12/10 Q1029 NOSIG
YBBN,2010-06-21 18:00,153.1292,-27.3917,53.60,50.00,87.56,210.00,8.00,M,30.39,M,6.21,M,M,M,M,M,M,M,M,M,M,YBBN 211800Z 21008KT CAVOK 12/10 Q1029 NOSIG
YBBN,2010-06-21 18:30,153.1292,-27.3917,53.60,51.80,93.60,210.00,9.00,M,30.39,M,6.21,M,M,M,M,M,M,M,M,M,M,YBBN 211830Z 21009KT CAVOK 12/11 Q1029 NOSIG
YBBN,2010-06-21 19:00,153.1292,-27.3917,55.40,51.80,87.65,210.00,8.00,M,30.39,M,6.21,M,M,M,M,M,M,M,M,M,M,YBBN 211900Z 21008KT CAVOK 13/11 Q1029 NOSIG
YBBN,2010-06-21 19:30,153.1292,-27.3917,53.60,51.80,93.60,210.00,8.00,M,30.39,M,6.21,M,M,M,M,M,M,M,M,M,M,YBBN 211930Z 21008KT CAVOK 12/11 Q1029 NOSIG
YBBN,2010-06-21 20:00,153.1292,-27.3917,53.60,51.80,93.60,210.00,9.00,M,30.42,M,6.21,M,FEW,M,M,M,2000.00,M,M,M,M,YBBN 212000Z 21009KT 9999 FEW020 12/11 Q1030 NOSIG
YBBN,2010-06-21 20:30,153.1292,-27.3917,51.80,50.00,93.55,210.00,9.00,M,30.42,M,6.21,M,FEW,M,M,M,2000.00,M,M,M,M,YBBN 212030Z 21009KT 9999 FEW020 11/10 Q1030 NOSIG
YBBN,2010-06-21 21:00,153.1292,-27.3917,53.60,51.80,93.60,210.00,8.00,M,30.42,M,6.21,M,FEW,M,M,M,2000.00,M,M,M,M,YBBN 212100Z 21008KT 9999 FEW020 12/11 Q1030 NOSIG
YBBN,2010-06-21 21:30,153.1292,-27.3917,55.40,53.60,93.65,210.00,8.00,M,30.42,M,6.21,M,FEW,M,M,M,2100.00,M,M,M,M,YBBN 212130Z 21008KT 9999 FEW021 13/12 Q1030 RMK SMOKE/HAZE/DISTANT SH TO SE NOSIG
YBBN,2010-06-21 22:00,153.1292,-27.3917,59.00,55.40,87.83,210.00,8.00,M,30.45,M,6.21,M,FEW,M,M,M,2200.00,M,M,M,M,YBBN 212200Z 21008KT 9999 FEW022 15/13 Q1031 RMK DISTANT SH TO SE NOSIG
YBBN,2010-06-21 22:30,153.1292,-27.3917,62.60,55.40,77.29,210.00,7.00,M,30.45,M,6.21,M,FEW,M,M,M,2300.00,M,M,M,VCSH,YBBN 212230Z 21007KT 9999 VCSH FEW023 17/13 Q1031 RMK SH TO SOUTH NOSIG
YBBN,2010-06-21 23:00,153.1292,-27.3917,66.20,57.20,72.74,190.00,8.00,M,30.45,M,6.21,M,FEW,M,M,M,2400.00,M,M,M,VCSH,YBBN 212300Z 19008KT 9999 VCSH FEW024 19/14 Q1031 RMK SH TO SW NOSIG
YBBN,2010-06-21 23:30,153.1292,-27.3917,66.20,57.20,72.74,180.00,12.00,M,30.45,M,6.21,M,FEW,SCT,M,M,2500.00,6800.00,M,M,VCSH,YBBN 212330Z 18012KT 9999 VCSH FEW025 SCT068 19/14 Q1031 RMK SH TO SW NOSIG
