#DEBUG: Format Typ    -> comma
#DEBUG: Time Period   -> 2015-03-28 00:00:00+00:00 2015-03-29 00:00:00+00:00
#DEBUG: Time Zone     -> Etc/UTC
#DEBUG: Data Contact   -> daryl herzmann akrherz@iastate.edu 515-294-5978
#DEBUG: Entries Found -> -1
station,valid,lon,lat,tmpf, dwpf, relh, drct, sknt, p01i, alti, mslp, vsby, gust, skyc1, skyc2, skyc3, skyc4, skyl1, skyl2, skyl3, skyl4, presentwx, metar
YBBN,2015-03-28 00:00,153.1292,-27.3917,77.00,68.00,73.78,130.00,8.00,0.00,30.15,M,6.21,M,FEW,SCT,BKN,M,1200.00,3500.00,6000.00,M,-SHRA,YBBN 280000Z 13008KT 9999 -SHRA FEW012 SCT035 BKN060 25/20 Q1021
YBBN,2015-03-28 00:30,153.1292,-27.3917,77.00,68.00,73.78,130.00,7.00,0.00,30.15,M,6.21,M,FEW,SCT,BKN,M,1200.00,3500.00,5800.00,M,-SHRA,YBBN 280030Z 13007KT 9999 -SHRA FEW012 SCT035 BKN058 25/20 Q1021
YBBN,2015-03-28 01:00,153.1292,-27.3917,78.80,68.00,69.52,120.00,9.00,0.00,30.12,M,6.21,M,FEW,SCT,BKN,M,1400.00,4200.00,5800.00,M,-SHRA,YBBN 280100Z 12009KT 9999 -SHRA FEW014 SCT042 BKN058 26/20 Q1020
YBBN,2015-03-28 01:30,153.1292,-27.3917,78.80,68.00,69.52,120.00,8.00,0.00,30.12,M,6.21,M,FEW,SCT,M,M,1500.00,4200.00,M,M,-SHRA,YBBN 280130Z 12008KT 9999 -SHRA FEW015 SCT042 26/20 Q1020
YBBN,2015-03-28 02:00,153.1292,-27.3917,78.80,68.00,69.52,120.00,7.00,0.00,30.12,M,6.21,M,FEW,SCT,BKN,M,1800.00,2000.00,4500.00,M,VCSH,YBBN 280200Z 12007KT 9999 VCSH FEW018 SCT020 BKN045 26/20 Q1020 NOSIG
YBBN,2015-03-28 02:30,153.1292,-27.3917,80.60,66.20,61.58,130.00,9.00,0.00,30.09,M,6.21,M,FEW,BKN,M,M,1800.00,4500.00,M,M,M,YBBN 280230Z 13009KT 9999 FEW018 BKN045 27/19 Q1019
YBBN,2015-03-28 03:00,153.1292,-27.3917,80.60,66.20,61.58,110.00,7.00,0.00,30.09,M,6.21,M,FEW,BKN,M,M,2000.00,4500.00,M,M,M,YBBN 280300Z 11007KT 9999 FEW020 BKN045 27/19 Q1019 NOSIG
YBBN,2015-03-28 03:30,153.1292,-27.3917,78.80,62.60,57.60,100.00,8.00,0.00,30.09,M,6.21,M,FEW,BKN,M,M,2000.00,4800.00,M,M,M,YBBN 280330Z 10008KT 9999 FEW020 BKN048 26/17 Q1019
YBBN,2015-03-28 04:00,153.1292,-27.3917,78.80,62.60,57.60,120.00,9.00,0.00,30.09,M,6.21,M,FEW,BKN,M,M,2000.00,5000.00,M,M,M,YBBN 280400Z 12009KT 9999 FEW020 BKN050 26/17 Q1019 NOSIG
YBBN,2015-03-28 04:30,153.1292,-27.3917,80.60,62.60,54.30,90.00,7.00,0.00,30.09,M,6.21,M,FEW,BKN,M,M,2500.00,5200.00,M,M,M,YBBN 280430Z 09007KT 9999 FEW025 BKN052 27/17 Q1019
YBBN,2015-03-28 05:00,153.1292,-27.3917,78.80,59.00,50.69,70.00,10.00,0.00,30.06,M,6.21,M,FEW,BKN,M,M,2800.00,5400.00,M,M,M,YBBN 280500Z 07010KT 9999 FEW028 BKN054 26/15 Q1018 NOSIG
YBBN,2015-03-28 05:30,153.1292,-27.3917,80.60,59.00,47.79,70.00,9.00,0.00,30.06,M,6.21,M,FEW,M,M,M,2800.00,M,M,M,M,YBBN 280530Z 07009KT 9999 FEW028 27/15 Q1018
YBBN,2015-03-28 06:00,153.1292,-27.3917,80.60,60.80,50.95,90.00,8.00,0.00,30.06,M,6.21,M,FEW,M,M,M,2800.00,M,M,M,M,YBBN 280600Z 09008KT 9999 FEW028 27/16 Q1018
YBBN,2015-03-28 06:30,153.1292,-27.3917,78.80,62.60,57.60,90.00,8.00,0.00,30.09,M,6.21,M,FEW,M,M,M,2600.00,M,M,M,M,YBBN 280630Z 09008KT 9999 FEW026 26/17 Q1019
YBBN,2015-03-28 07:00,153.1292,-27.3917,77.00,62.60,61.13,90.00,8.00,0.00,30.09,M,6.21,M,FEW,M,M,M,2500.00,M,M,M,M,YBBN 280700Z 09008KT 9999 FEW025 25/17 Q1019 NOSIG
YBBN,2015-03-28 07:30,153.1292,-27.3917,77.00,60.80,57.36,80.00,8.00,0.00,30.09,M,6.21,M,FEW,M,M,M,2500.00,M,M,M,M,YBBN 280730Z 08008KT 9999 FEW025 25/16 Q1019
YBBN,2015-03-28 08:00,153.1292,-27.3917,75.20,57.20,53.55,80.00,7.00,0.00,30.09,M,6.21,M,FEW,M,M,M,3500.00,M,M,M,M,YBBN 280800Z 08007KT 9999 FEW035 24/14 Q1019 NOSIG
YBBN,2015-03-28 08:30,153.1292,-27.3917,75.20,57.20,53.55,80.00,7.00,0.00,30.09,M,6.21,M,FEW,M,M,M,3500.00,M,M,M,M,YBBN 280830Z 08007KT 9999 FEW035 24/14 Q1019
YBBN,2015-03-28 09:00,153.1292,-27.3917,75.20,60.80,60.90,90.00,6.00,0.00,30.12,M,6.21,M,FEW,BKN,M,M,3500.00,5100.00,M,M,M,YBBN 280900Z 09006KT 9999 FEW035 BKN051 24/16 Q1020 NOSIG
YBBN,2015-03-28 09:30,153.1292,-27.3917,75.20,60.80,60.90,90.00,7.00,0.00,30.12,M,6.21,M,M,M,M,M,M,M,M,M,M,YBBN 280930Z 09007KT CAVOK 24/16 Q1020 RMK 7SC051
YBBN,2015-03-28 10:00,153.1292,-27.3917,75.20,62.60,64.91,90.00,7.00,0.00,30.15,M,6.21,M,M,M,M,M,M,M,M,M,M,YBBN 281000Z 09007KT CAVOK 24/17 Q1021
YBBN,2015-03-28 10:30,153.1292,-27.3917,75.20,62.60,64.91,90.00,7.00,0.00,30.15,M,6.21,M,M,M,M,M,M,M,M,M,M,YBBN 281030Z 09007KT CAVOK 24/17 Q1021 RMK 7SC057
YBBN,2015-03-28 11:00,153.1292,-27.3917,75.20,62.60,64.91,90.00,7.00,0.00,30.15,M,6.21,M,FEW,M,M,M,2500.00,M,M,M,M,YBBN 281100Z 09007KT 9999 FEW025 24/17 Q1021
YBBN,2015-03-28 11:30,153.1292,-27.3917,75.20,62.60,64.91,90.00,7.00,0.00,30.15,M,6.21,M,FEW,M,M,M,3200.00,M,M,M,M,YBBN 281130Z 09007KT 9999 FEW032 24/17 Q1021
YBBN,2015-03-28 12:00,153.1292,-27.3917,75.20,62.60,64.91,90.00,7.00,0.00,30.15,M,6.21,M,FEW,M,M,M,3200.00,M,M,M,M,YBBN 281200Z 09007KT 9999 FEW032 24/17 Q1021
YBBN,2015-03-28 12:30,153.1292,-27.3917,75.20,62.60,64.91,80.00,6.00,0.00,30.15,M,6.21,M,FEW,M,M,M,3200.00,M,M,M,M,YBBN 281230Z 08006KT 9999 FEW032 24/17 Q1021
YBBN,2015-03-28 13:00,153.1292,-27.3917,75.20,64.40,69.14,70.00,5.00,0.00,30.15,M,6.21,M,FEW,BKN,M,M,3200.00,5100.00,M,M,M,YBBN 281300Z 07005KT 9999 FEW032 BKN051 24/18 Q1021
YBBN,2015-03-28 13:30,153.1292,-27.3917,75.20,64.40,69.14,70.00,5.00,0.00,30.15,M,6.21,M,FEW,BKN,M,M,3200.00,5300.00,M,M,M,YBBN 281330Z 07005KT 9999 FEW032 BKN053 24/18 Q1021
YBBN,2015-03-28 14:00,153.1292,-27.3917,75.20,62.60,64.91,70.00,4.00,0.00,30.15,M,6.21,M,FEW,BKN,M,M,3200.00,5500.00,M,M,M,YBBN 281400Z 07004KT 9999 FEW032 BKN055 24/17 Q1021
YBBN,2015-03-28 14:30,153.1292,-27.3917,75.20,62.60,64.91,70.00,6.00,0.00,30.12,M,6.21,M,FEW,SCT,BKN,M,3200.00,4800.00,5900.00,M,M,YBBN 281430Z 07006KT 9999 FEW032 SCT048 BKN059 24/17 Q1020
YBBN,2015-03-28 15:00,153.1292,-27.3917,75.20,62.60,64.91,90.00,6.00,0.00,30.12,M,6.21,M,FEW,SCT,BKN,M,3100.00,4800.00,6100.00,M,M,YBBN 281500Z 09006KT 9999 FEW031 SCT048 BKN061 24/17 Q1020
YBBN,2015-03-28 15:30,153.1292,-27.3917,75.20,64.40,69.14,90.00,6.00,0.00,30.12,M,6.21,M,FEW,BKN,M,M,3100.00,6300.00,M,M,M,YBBN 281530Z 09006KT 9999 FEW031 BKN063 24/18 Q1020
YBBN,2015-03-28 16:00,153.1292,-27.3917,75.20,64.40,69.14,80.00,6.00,0.00,30.12,M,6.21,M,FEW,SCT,BKN,M,3100.00,4900.00,6500.00,M,M,YBBN 281600Z 08006KT 9999 FEW031 SCT049 BKN065 24/18 Q1020
YBBN,2015-03-28 16:30,153.1292,-27.3917,75.20,62.60,64.91,70.00,7.00,0.00,30.12,M,6.21,M,FEW,SCT,M,M,3100.00,4700.00,M,M,M,YBBN 281630Z 07007KT 9999 FEW031 SCT047 24/17 Q1020
YBBN,2015-03-28 17:00,153.1292,-27.3917,75.20,62.60,64.91,60.00,8.00,0.00,30.09,M,6.21,M,FEW,M,M,M,3000.00,M,M,M,M,YBBN 281700Z 06008KT 9999 FEW030 24/17 Q1019 NOSIG
YBBN,2015-03-28 17:30,153.1292,-27.3917,73.40,62.60,68.94,60.00,7.00,0.00,30.09,M,6.21,M,FEW,M,M,M,3000.00,M,M,M,M,YBBN 281730Z 06007KT 9999 FEW030 23/17 Q1019
YBBN,2015-03-28 18:00,153.1292,-27.3917,73.40,62.60,68.94,60.00,7.00,0.00,30.12,M,6.21,M,FEW,M,M,M,3100.00,M,M,M,M,YBBN 281800Z 06007KT 9999 FEW031 23/17 Q1020
YBBN,2015-03-28 18:30,153.1292,-27.3917,73.40,62.60,68.94,70.00,6.00,0.00,30.12,M,6.21,M,FEW,M,M,M,3100.00,M,M,M,M,YBBN 281830Z 07006KT 9999 FEW031 23/17 Q1020
YBBN,2015-03-28 19:00,153.1292,-27.3917,73.40,64.40,73.44,60.00,6.00,0.00,30.12,M,6.21,M,SCT,M,M,M,2900.00,M,M,M,M,YBBN 281900Z 06006KT 9999 SCT029 23/18 Q1020
YBBN,2015-03-28 19:30,153.1292,-27.3917,75.20,64.40,69.14,60.00,7.00,0.00,30.12,M,6.21,M,FEW,SCT,M,M,3100.00,6500.00,M,M,M,YBBN 281930Z 06007KT 9999 FEW031 SCT065 24/18 Q1020
YBBN,2015-03-28 20:00,153.1292,-27.3917,75.20,64.40,69.14,60.00,6.00,0.00,30.15,M,6.21,M,FEW,BKN,BKN,M,3200.00,4100.00,5400.00,M,M,YBBN 282000Z 06006KT 9999 FEW032 BKN041 BKN054 24/18 Q1021
YBBN,2015-03-28 20:30,153.1292,-27.3917,75.20,64.40,69.14,60.00,6.00,0.00,30.15,M,6.21,M,FEW,SCT,M,M,3200.00,4100.00,M,M,M,YBBN 282030Z 06006KT 9999 FEW032 SCT041 24/18 Q1021
YBBN,2015-03-28 21:00,153.1292,-27.3917,75.20,64.40,69.14,70.00,7.00,0.00,30.15,M,6.21,M,FEW,SCT,M,M,3200.00,4100.00,M,M,M,YBBN 282100Z 07007KT 9999 FEW032 SCT041 24/18 Q1021 NOSIG
YBBN,2015-03-28 21:30,153.1292,-27.3917,77.00,64.40,65.12,60.00,9.00,0.00,30.18,M,6.21,M,FEW,SCT,M,M,3200.00,4000.00,M,M,M,YBBN 282130Z 06009KT 9999 FEW032 SCT040 25/18 Q1022
YBBN,2015-03-28 22:00,153.1292,-27.3917,77.00,64.40,65.12,70.00,9.00,0.00,30.18,M,6.21,M,FEW,SCT,M,M,3200.00,4000.00,M,M,M,YBBN 282200Z 07009KT 9999 FEW032 SCT040 25/18 Q1022 NOSIG
YBBN,2015-03-28 22:30,153.1292,-27.3917,77.00,62.60,61.13,60.00,10.00,0.00,30.21,M,6.21,M,FEW,SCT,M,M,3400.00,4500.00,M,M,M,YBBN 282230Z 06010KT 9999 FEW034 SCT045 25/17 Q1023
YBBN,2015-03-28 23:00,153.1292,-27.3917,78.80,62.60,57.60,70.00,9.00,0.00,30.21,M,6.21,M,SCT,SCT,M,M,3400.00,4500.00,M,M,M,YBBN 282300Z 07009KT 9999 SCT034 SCT045 26/17 Q1023 NOSIG
YBBN,2015-03-28 23:30,153.1292,-27.3917,78.80,60.80,54.05,60.00,10.00,0.00,30.21,M,6.21,M,SCT,M,M,M,3800.00,M,M,M,M,YBBN 282330Z 06010KT 9999 SCT038 26/16 Q1023
