#DEBUG: Format Typ    -> comma
#DEBUG: Time Period   -> 2013-10-01 00:00:00+00:00 2013-10-02 00:00:00+00:00
#DEBUG: Time Zone     -> Etc/UTC
#DEBUG: Data Contact   -> daryl herzmann akrherz@iastate.edu 515-294-5978
#DEBUG: Entries Found -> -1
station,valid,lon,lat,tmpf, dwpf, relh, drct, sknt, p01i, alti, mslp, vsby, gust, skyc1, skyc2, skyc3, skyc4, skyl1, skyl2, skyl3, skyl4, presentwx, metar
YBBN,2013-10-01 00:00,153.1292,-27.3917,78.80,62.60,57.60,360.00,10.00,0.00,30.06,M,6.21,M,FEW,M,M,M,2500.00,M,M,M,M,YBBN 010000Z 36010KT 9999 FEW025 26/17 Q1018 FM0200 01019G29KT 9999 FEW040
YBBN,2013-10-01 00:30,153.1292,-27.3917,78.80,64.40,61.36,360.00,9.00,0.00,30.03,M,6.21,M,FEW,M,M,M,3000.00,M,M,M,M,YBBN 010030Z 36009KT 9999 FEW030 26/18 Q1017
YBBN,2013-10-01 01:00,153.1292,-27.3917,78.80,68.00,69.52,30.00,12.00,0.00,30.03,M,6.21,M,M,M,M,M,M,M,M,M,M,YBBN 010100Z 03012KT CAVOK 26/20 Q1017
YBBN,2013-10-01 01:30,153.1292,-27.3917,80.60,68.00,65.54,20.00,16.00,0.00,30.00,M,6.21,M,M,M,M,M,M,M,M,M,M,YBBN 010130Z 02016KT CAVOK 27/20 Q1016
YBBN,2013-10-01 02:00,153.1292,-27.3917,80.60,68.00,65.54,20.00,17.00,0.00,29.97,M,6.21,M,M,M,M,M,M,M,M,M,M,YBBN 010200Z 02017KT CAVOK 27/20 Q1015
YBBN,2013-10-01 02:30,153.1292,-27.3917,78.80,68.00,69.52,20.00,18.00,0.00,29.97,M,6.21,M,M,M,M,M,M,M,M,M,M,YBBN 010230Z 02018KT CAVOK 26/20 Q1015
YBBN,2013-10-01 03:00,153.1292,-27.3917,78.80,68.00,69.52,20.00,20.00,0.00,29.94,M,6.21,M,FEW,BKN,M,M,4000.00,26000.00,M,M,M,YBBN 010300Z 02020KT 9999 FEW040 BKN260 26/20 Q1014
YBBN,2013-10-01 03:30,153.1292,-27.3917,78.80,68.00,69.52,20.00,20.00,0.00,29.94,M,6.21,M,M,M,M,M,M,M,M,M,M,YBBN 010330Z 02020KT CAVOK 26/20 Q1014
YBBN,2013-10-01 04:00,153.1292,-27.3917,77.00,68.00,73.78,20.00,22.00,0.00,29.91,M,6.21,M,M,M,M,M,M,M,M,M,M,YBBN 010400Z 02022KT CAVOK 25/20 Q1013
YBBN,2013-10-01 04:30,153.1292,-27.3917,78.80,68.00,69.52,20.00,22.00,0.00,29.88,M,6.21,M,FEW,BKN,M,M,4500.00,26000.00,M,M,M,YBBN 010430Z 02022KT 9999 FEW045 BKN260 26/20 Q1012
YBBN,2013-10-01 05:00,153.1292,-27.3917,77.00,68.00,73.78,20.00,24.00,0.00,29.88,M,6.21,M,FEW,BKN,M,M,4500.00,26000.00,M,M,M,YBBN 010500Z 02024KT 9999 FEW045 BKN260 25/20 Q1012
YBBN,2013-10-01 05:30,153.1292,-27.3917,77.00,68.00,73.78,10.00,24.00,0.00,29.88,M,6.21,M,M,M,M,M,M,M,M,M,M,YBBN 010530Z 01024KT CAVOK 25/20 Q1012
YBBN,2013-10-01 06:00,153.1292,-27.3917,75.20,68.00,78.34,10.00,23.00,0.00,29.88,M,6.21,M,M,M,M,M,M,M,M,M,M,YBBN 010600Z 01023KT CAVOK 24/20 Q1012 RMK HAZE
YBBN,2013-10-01 06:30,153.1292,-27.3917,75.20,68.00,78.34,10.00,22.00,0.00,29.88,M,6.21,M,M,M,M,M,M,M,M,M,M,YBBN 010630Z 01022KT CAVOK 24/20 Q1012 RMK HAZE/DUST
YBBN,2013-10-01 07:00,153.1292,-27.3917,75.20,68.00,78.34,10.00,21.00,0.00,29.88,M,6.21,M,M,M,M,M,M,M,M,M,M,YBBN 010700Z 01021KT CAVOK 24/20 Q1012 RMK HAZE/DUST
YBBN,2013-10-01 07:30,153.1292,-27.3917,75.20,68.00,78.34,10.00,18.00,0.00,29.88,M,6.21,M,M,M,M,M,M,M,M,M,M,YBBN 010730Z 01018KT CAVOK 24/20 Q1012
YBBN,2013-10-01 08:00,153.1292,-27.3917,75.20,66.20,73.61,10.00,21.00,0.00,29.91,M,6.21,M,M,M,M,M,M,M,M,M,M,YBBN 010800Z 01021KT CAVOK 24/19 Q1013 NOSIG
YBBN,2013-10-01 08:30,153.1292,-27.3917,73.40,66.20,78.19,10.00,22.00,0.00,29.91,M,6.21,M,M,M,M,M,M,M,M,M,M,YBBN 010830Z 01022KT CAVOK 23/19 Q1013
YBBN,2013-10-01 09:00,153.1292,-27.3917,73.40,66.20,78.19,10.00,20.00,0.00,29.91,M,6.21,M,M,M,M,M,M,M,M,M,M,YBBN 010900Z 01020KT CAVOK 23/19 Q1013
YBBN,2013-10-01 09:30,153.1292,-27.3917,73.40,66.20,78.19,360.00,19.00,0.00,29.91,M,6.21,M,M,M,M,M,M,M,M,M,M,YBBN 010930Z 36019KT CAVOK 23/19 Q1013
YBBN,2013-10-01 10:00,153.1292,-27.3917,73.40,66.20,78.19,360.00,17.00,0.00,29.94,M,6.21,M,M,M,M,M,M,M,M,M,M,YBBN 011000Z 36017KT CAVOK 23/19 Q1014 NOSIG
YBBN,2013-10-01 10:30,153.1292,-27.3917,73.40,66.20,78.19,360.00,16.00,0.00,29.94,M,6.21,M,M,M,M,M,M,M,M,M,M,YBBN 011030Z 36016KT CAVOK 23/19 Q1014
YBBN,2013-10-01 11:00,153.1292,-27.3917,73.40,64.40,73.44,360.00,17.00,0.00,29.94,M,6.21,M,M,M,M,M,M,M,M,M,M,YBBN 011100Z 36017KT CAVOK 23/18 Q1014
YBBN,2013-10-01 11:30,153.1292,-27.3917,73.40,64.40,73.44,350.00,17.00,0.00,29.97,M,6.21,M,M,M,M,M,M,M,M,M,M,YBBN 011130Z 35017KT CAVOK 23/18 Q1015 RMK 5AC140
YBBN,2013-10-01 12:00,153.1292,-27.3917,73.40,62.60,68.94,300.00,14.00,0.00,30.00,M,6.21,M,M,M,M,M,M,M,M,M,M,YBBN 011200Z 30014KT CAVOK 23/17 Q1016 RMK 5AC140
YBBN,2013-10-01 12:30,153.1292,-27.3917,73.40,60.80,64.69,340.00,11.00,0.00,29.97,M,6.21,M,M,M,M,M,M,M,M,M,M,YBBN 011230Z 34011KT CAVOK 23/16 Q1015 RMK 5AC140
YBBN,2013-10-01 13:00,153.1292,-27.3917,73.40,59.00,60.67,310.00,9.00,0.00,30.00,M,6.21,M,M,M,M,M,M,M,M,M,M,YBBN 011300Z 31009KT CAVOK 23/15 Q1016
YBBN,2013-10-01 13:30,153.1292,-27.3917,73.40,57.20,56.88,290.00,8.00,0.00,30.00,M,6.21,M,M,M,M,M,M,M,M,M,M,YBBN 011330Z 29008KT CAVOK 23/14 Q1016
YBBN,2013-10-01 14:00,153.1292,-27.3917,73.40,57.20,56.88,290.00,9.00,0.00,30.00,M,6.21,M,M,M,M,M,M,M,M,M,M,YBBN 011400Z 29009KT CAVOK 23/14 Q1016 FM1500 32010KT 9999 -RA SCT020 BKN050
YBBN,2013-10-01 14:30,153.1292,-27.3917,73.40,57.20,56.88,280.00,11.00,0.00,30.00,M,6.21,M,M,M,M,M,M,M,M,M,M,YBBN 011430Z 28011KT CAVOK 23/14 Q1016
YBBN,2013-10-01 15:00,153.1292,-27.3917,73.40,55.40,53.29,270.00,10.00,0.00,30.00,M,6.21,M,M,M,M,M,M,M,M,M,M,YBBN 011500Z 27010KT CAVOK 23/13 Q1016 FM1600 32010KT 9999 -RA SCT020 BKN050
YBBN,2013-10-01 15:30,153.1292,-27.3917,73.40,55.40,53.29,260.00,9.00,0.00,30.00,M,6.21,M,M,M,M,M,M,M,M,M,M,YBBN 011530Z 26009KT CAVOK 23/13 Q1016 RMK 7SC075
YBBN,2013-10-01 16:00,153.1292,-27.3917,71.60,53.60,53.03,240.00,11.00,0.00,30.00,M,6.21,M,BKN,M,M,M,7000.00,M,M,M,-RA,YBBN 011600Z 24011KT 9999 -RA BKN070 22/12 Q1016
YBBN,2013-10-01 16:30,153.1292,-27.3917,69.80,57.20,64.26,240.00,8.00,0.00,30.00,M,6.21,M,FEW,BKN,M,M,6000.00,7500.00,M,M,-RA,YBBN 011630Z 24008KT 9999 -RA FEW060 BKN075 21/14 Q1016
YBBN,2013-10-01 17:00,153.1292,-27.3917,66.20,60.80,82.74,170.00,4.00,0.00,29.97,M,6.21,M,FEW,SCT,OVC,M,4000.00,6000.00,8700.00,M,-RA,YBBN 011700Z 17004KT 9999 -RA FEW040 SCT060 OVC087 19/16 Q1015
YBBN,2013-10-01 17:30,153.1292,-27.3917,66.20,60.80,82.74,200.00,3.00,0.00,29.97,M,6.21,M,FEW,SCT,OVC,M,4000.00,9000.00,11000.00,M,M,YBBN 011730Z 20003KT 9999 FEW040 SCT090 OVC110 19/16 Q1015
YBBN,2013-10-01 18:00,153.1292,-27.3917,66.20,60.80,82.74,300.00,6.00,0.00,29.97,M,6.21,M,FEW,BKN,OVC,M,4000.00,10000.00,11500.00,M,-RA,YBBN 011800Z 30006KT 9999 -RA FEW040 BKN100 OVC115 19/16 Q1015 FM1900 VRB06KT 9999 SCT030 BKN070
YBBN,2013-10-01 18:30,153.1292,-27.3917,64.40,60.80,88.09,300.00,3.00,0.00,29.97,M,6.21,M,FEW,SCT,OVC,M,3000.00,6000.00,11500.00,M,-RA,YBBN 011830Z 30003KT 9999 -RA FEW030 SCT060 OVC115 18/16 Q1015
YBBN,2013-10-01 19:00,153.1292,-27.3917,64.40,60.80,88.09,340.00,6.00,0.00,29.97,M,6.21,M,FEW,SCT,BKN,M,3000.00,10000.00,18000.00,M,M,YBBN 011900Z 34006KT 9999 FEW030 SCT100 BKN180 18/16 Q1015 NOSIG
YBBN,2013-10-01 19:30,153.1292,-27.3917,64.40,60.80,88.09,0.00,0.00,0.00,30.00,M,6.21,M,M,M,M,M,M,M,M,M,M,YBBN 011930Z 00000KT CAVOK 18/16 Q1016 RMK 7AC180
YBBN,2013-10-01 20:00,153.1292,-27.3917,64.40,60.80,88.09,200.00,5.00,0.00,30.00,M,6.21,M,M,M,M,M,M,M,M,M,M,YBBN 012000Z 20005KT CAVOK 18/16 Q1016 NOSIG
YBBN,2013-10-01 20:30,153.1292,-27.3917,64.40,60.80,88.09,190.00,5.00,0.00,30.00,M,6.21,M,FEW,SCT,BKN,M,3500.00,11000.00,22000.00,M,M,YBBN 012030Z 19005KT 9999 FEW035 SCT110 BKN220 18/16 Q1016
YBBN,2013-10-01 21:00,153.1292,-27.3917,66.20,60.80,82.74,260.00,5.00,0.00,30.03,M,6.21,M,FEW,SCT,M,M,3500.00,23000.00,M,M,M,YBBN 012100Z 26005KT 9999 FEW035 SCT230 19/16 Q1017 NOSIG
YBBN,2013-10-01 21:30,153.1292,-27.3917,68.00,62.60,82.86,270.00,4.00,0.00,30.03,M,6.21,M,FEW,SCT,M,M,3000.00,24000.00,M,M,M,YBBN 012130Z 27004KT 9999 FEW030 SCT240 20/17 Q1017
YBBN,2013-10-01 22:00,153.1292,-27.3917,69.80,60.80,73.09,280.00,4.00,0.00,30.03,M,6.21,M,FEW,SCT,M,M,2200.00,27000.00,M,M,M,YBBN 012200Z 28004KT 9999 FEW022 SCT270 21/16 Q1017 NOSIG
YBBN,2013-10-01 22:30,153.1292,-27.3917,71.60,59.00,64.48,330.00,5.00,0.00,30.03,M,6.21,M,FEW,M,M,M,2800.00,M,M,M,M,YBBN 012230Z 33005KT 9999 FEW028 22/15 Q1017
YBBN,2013-10-01 23:00,153.1292,-27.3917,73.40,57.20,56.88,340.00,7.00,0.00,30.03,M,6.21,M,FEW,M,M,M,2000.00,M,M,M,M,YBBN 012300Z 34007KT 9999 FEW020 23/14 Q1017
YBBN,2013-10-01 23:30,153.1292,-27.3917,73.40,55.40,53.29,350.00,8.00,0.00,30.00,M,6.21,M,FEW,M,M,M,2300.00,M,M,M,M,YBBN 012330Z 35008KT 9999 FEW023 23/13 Q1016
