#DEBUG: Format Typ    -> comma
#DEBUG: Time Period   -> 2013-10-21 00:00:00+00:00 2013-10-22 00:00:00+00:00
#DEBUG: Time Zone     -> Etc/UTC
#DEBUG: Data Contact   -> daryl herzmann akrherz@iastate.edu 515-294-5978
#DEBUG: Entries Found -> -1
station,valid,lon,lat,tmpf, dwpf, relh, drct, sknt, p01i, alti, mslp, vsby, gust, skyc1, skyc2, skyc3, skyc4, skyl1, skyl2, skyl3, skyl4, presentwx, metar
YBBN,2013-10-21 00:00,153.1292,-27.3917,75.20,62.60,64.91,350.00,9.00,0.00,30.12,M,6.21,M,FEW,SCT,M,M,3000.00,5500.00,M,M,M,YBBN 210000Z 35009KT 9999 FEW030 SCT055 24/17 Q1020
YBBN,2013-10-21 00:30,153.1292,-27.3917,77.00,59.00,53.80,360.00,8.00,0.00,30.12,M,6.21,M,FEW,M,M,M,3000.00,M,M,M,M,YBBN 210030Z 36008KT 9999 FEW030 25/15 Q1020
YBBN,2013-10-21 01:00,153.1292,-27.3917,77.00,59.00,53.80,20.00,11.00,0.00,30.09,M,6.21,M,NCD,M,M,M,M,M,M,M,//,YBBN 210100Z AUTO 02011KT 9999 // NCD 25/15 Q1019
YBBN,2013-10-21 01:30,153.1292,-27.3917,78.80,60.80,54.05,30.00,12.00,0.00,30.09,M,6.21,M,FEW,M,M,M,3000.00,M,M,M,M,YBBN 210130Z 03012KT 9999 FEW030 26/16 Q1019
YBBN,2013-10-21 02:00,153.1292,-27.3917,78.80,59.00,50.69,30.00,12.00,0.00,30.09,M,6.21,M,FEW,M,M,M,3000.00,M,M,M,M,YBBN 210200Z 03012KT 9999 FEW030 26/15 Q1019 NOSIG
YBBN,2013-10-21 02:30,153.1292,-27.3917,77.00,59.00,53.80,20.00,12.00,0.00,30.09,M,6.21,M,FEW,M,M,M,3500.00,M,M,M,M,YBBN 210230Z 02012KT 9999 FEW035 25/15 Q1019
YBBN,2013-10-21 03:00,153.1292,-27.3917,77.00,60.80,57.36,20.00,13.00,0.00,30.06,M,6.21,M,FEW,M,M,M,3500.00,M,M,M,M,YBBN 210300Z 02013KT 9999 FEW035 25/16 Q1018
YBBN,2013-10-21 03:30,153.1292,-27.3917,77.00,57.20,50.43,20.00,13.00,0.00,30.06,M,6.21,M,FEW,M,M,M,3500.00,M,M,M,M,YBBN 210330Z 02013KT 9999 FEW035 25/14 Q1018
YBBN,2013-10-21 04:00,153.1292,-27.3917,78.80,59.00,50.69,30.00,14.00,0.00,30.03,M,6.21,M,FEW,M,M,M,3500.00,M,M,M,M,YBBN 210400Z 03014KT 9999 FEW035 26/15 Q1017
YBBN,2013-10-21 04:30,153.1292,-27.3917,78.80,57.20,47.52,20.00,14.00,0.00,30.03,M,6.21,M,FEW,M,M,M,3500.00,M,M,M,M,YBBN 210430Z 02014KT 9999 FEW035 26/14 Q1017
YBBN,2013-10-21 05:00,153.1292,-27.3917,77.00,57.20,50.43,20.00,13.00,0.00,30.03,M,6.21,M,FEW,M,M,M,3500.00,M,M,M,M,YBBN 210500Z 02013KT 9999 FEW035 25/14 Q1017
YBBN,2013-10-21 05:30,153.1292,-27.3917,77.00,60.80,57.36,20.00,13.00,0.00,30.03,M,6.21,M,FEW,M,M,M,3500.00,M,M,M,M,YBBN 210530Z 02013KT 9999 FEW035 25/16 Q1017
YBBN,2013-10-21 06:00,153.1292,-27.3917,75.20,62.60,64.91,20.00,13.00,0.00,30.03,M,6.21,M,FEW,M,M,M,3000.00,M,M,M,M,YBBN 210600Z 02013KT 9999 FEW030 24/17 Q1017
YBBN,2013-10-21 06:30,153.1292,-27.3917,75.20,62.60,64.91,10.00,13.00,0.00,30.03,M,6.21,M,FEW,M,M,M,2500.00,M,M,M,M,YBBN 210630Z 01013KT 9999 FEW025 24/17 Q1017
YBBN,2013-10-21 07:00,153.1292,-27.3917,73.40,62.60,68.94,10.00,13.00,0.00,30.03,M,6.21,M,M,M,M,M,M,M,M,M,M,YBBN 210700Z 01013KT CAVOK 23/17 Q1017
YBBN,2013-10-21 07:30,153.1292,-27.3917,73.40,62.60,68.94,10.00,13.00,0.00,30.03,M,6.21,M,FEW,M,M,M,3000.00,M,M,M,M,YBBN 210730Z 01013KT 9999 FEW030 23/17 Q1017
YBBN,2013-10-21 08:00,153.1292,-27.3917,71.60,62.60,73.27,10.00,13.00,0.00,30.03,M,6.21,M,FEW,M,M,M,2500.00,M,M,M,M,YBBN 210800Z 01013KT 9999 FEW025 22/17 Q1017
YBBN,2013-10-21 08:30,153.1292,-27.3917,71.60,62.60,73.27,10.00,14.00,0.00,30.06,M,6.21,M,FEW,M,M,M,2500.00,M,M,M,M,YBBN 210830Z 01014KT 9999 FEW025 22/17 Q1018
YBBN,2013-10-21 09:00,153.1292,-27.3917,71.60,60.80,68.75,10.00,14.00,0.00,30.06,M,6.21,M,FEW,M,M,M,2500.00,M,M,M,M,YBBN 210900Z 01014KT 9999 FEW025 22/16 Q1018
YBBN,2013-10-21 09:30,153.1292,-27.3917,69.80,62.60,77.90,20.00,11.00,0.00,30.06,M,6.21,M,FEW,M,M,M,2500.00,M,M,M,M,YBBN 210930Z 02011KT 9999 FEW025 21/17 Q1018
YBBN,2013-10-21 10:00,153.1292,-27.3917,69.80,62.60,77.90,10.00,11.00,0.00,30.06,M,6.21,M,FEW,M,M,M,2000.00,M,M,M,M,YBBN 211000Z 01011KT 9999 FEW020 21/17 Q1018
YBBN,2013-10-21 10:30,153.1292,-27.3917,69.80,62.60,77.90,10.00,11.00,0.00,30.09,M,6.21,M,FEW,M,M,M,2000.00,M,M,M,M,YBBN 211030Z 01011KT 9999 FEW020 21/17 Q1019
YBBN,2013-10-21 11:00,153.1292,-27.3917,69.80,62.60,77.90,10.00,11.00,0.00,30.09,M,6.21,M,FEW,M,M,M,2000.00,M,M,M,M,YBBN 211100Z 01011KT 9999 FEW020 21/17 Q1019
YBBN,2013-10-21 11:30,153.1292,-27.3917,69.80,62.60,77.90,10.00,12.00,0.00,30.09,M,6.21,M,FEW,M,M,M,2000.00,M,M,M,M,YBBN 211130Z 01012KT 9999 FEW020 21/17 Q1019
YBBN,2013-10-21 12:00,153.1292,-27.3917,69.80,62.60,77.90,10.00,11.00,0.00,30.09,M,6.21,M,FEW,M,M,M,2000.00,M,M,M,M,YBBN 211200Z 01011KT 9999 FEW020 21/17 Q1019
YBBN,2013-10-21 12:30,153.1292,-27.3917,69.80,62.60,77.90,10.00,11.00,0.00,30.09,M,6.21,M,FEW,M,M,M,2000.00,M,M,M,M,YBBN 211230Z 01011KT 9999 FEW020 21/17 Q1019
YBBN,2013-10-21 13:00,153.1292,-27.3917,69.80,62.60,77.90,10.00,11.00,0.00,30.06,M,6.21,M,SCT,M,M,M,2000.00,M,M,M,M,YBBN 211300Z 01011KT 9999 SCT020 21/17 Q1018
YBBN,2013-10-21 13:30,153.1292,-27.3917,69.80,62.60,77.90,350.00,7.00,0.00,30.06,M,6.21,M,SCT,M,M,M,2200.00,M,M,M,M,YBBN 211330Z 35007KT 9999 SCT022 21/17 Q1018
YBBN,2013-10-21 14:00,153.1292,-27.3917,68.00,62.60,82.86,290.00,6.00,0.00,30.06,M,6.21,M,SCT,M,M,M,2200.00,M,M,M,M,YBBN 211400Z 29006KT 9999 SCT022 20/17 Q1018
YBBN,2013-10-21 14:30,153.1292,-27.3917,68.00,62.60,82.86,290.00,4.00,0.00,30.06,M,6.21,M,FEW,M,M,M,2200.00,M,M,M,M,YBBN 211430Z 29004KT 9999 FEW022 20/17 Q1018
YBBN,2013-10-21 15:00,153.1292,-27.3917,66.20,62.60,88.18,300.00,4.00,0.00,30.06,M,6.21,M,FEW,M,M,M,2200.00,M,M,M,M,YBBN 211500Z 30004KT 9999 FEW022 19/17 Q1018
YBBN,2013-10-21 15:30,153.1292,-27.3917,66.20,62.60,88.18,290.00,4.00,0.00,30.03,M,6.21,M,SCT,M,M,M,2200.00,M,M,M,M,YBBN 211530Z 29004KT 9999 SCT022 19/17 Q1017
YBBN,2013-10-21 16:00,153.1292,-27.3917,66.20,60.80,82.74,250.00,4.00,0.00,30.03,M,6.21,M,FEW,M,M,M,2200.00,M,M,M,M,YBBN 211600Z 25004KT 9999 FEW022 19/16 Q1017 NOSIG
YBBN,2013-10-21 16:30,153.1292,-27.3917,66.20,62.60,88.18,250.00,5.00,0.00,30.03,M,6.21,M,FEW,SCT,M,M,2200.00,3700.00,M,M,M,YBBN 211630Z 25005KT 9999 FEW022 SCT037 19/17 Q1017
YBBN,2013-10-21 17:00,153.1292,-27.3917,64.40,60.80,88.09,250.00,4.00,0.00,30.03,M,6.21,M,FEW,SCT,M,M,2200.00,3700.00,M,M,M,YBBN 211700Z 25004KT 9999 FEW022 SCT037 18/16 Q1017 NOSIG
YBBN,2013-10-21 17:30,153.1292,-27.3917,64.40,60.80,88.09,0.00,0.00,0.00,30.03,M,6.21,M,SCT,M,M,M,3800.00,M,M,M,M,YBBN 211730Z 00000KT 9999 SCT038 18/16 Q1017
YBBN,2013-10-21 18:00,153.1292,-27.3917,64.40,60.80,88.09,0.00,0.00,0.00,30.03,M,6.21,M,FEW,M,M,M,2500.00,M,M,M,M,YBBN 211800Z 00000KT 9999 FEW025 18/16 Q1017
YBBN,2013-10-21 18:30,153.1292,-27.3917,64.40,60.80,88.09,0.00,0.00,0.00,30.03,M,6.21,M,FEW,M,M,M,2500.00,M,M,M,M,YBBN 211830Z 00000KT 9999 FEW025 18/16 Q1017
YBBN,2013-10-21 19:00,153.1292,-27.3917,64.40,60.80,88.09,240.00,3.00,0.00,30.06,M,6.21,M,SCT,M,M,M,3000.00,M,M,M,M,YBBN 211900Z 24003KT 9999 SCT030 18/16 Q1018
YBBN,2013-10-21 19:30,153.1292,-27.3917,64.40,60.80,88.09,220.00,4.00,0.00,30.06,M,6.21,M,SCT,M,M,M,3500.00,M,M,M,M,YBBN 211930Z 22004KT 9999 SCT035 18/16 Q1018
YBBN,2013-10-21 20:00,153.1292,-27.3917,66.20,62.60,88.18,0.00,0.00,0.00,30.06,M,6.21,M,FEW,BKN,M,M,2500.00,3700.00,M,M,M,YBBN 212000Z 00000KT 9999 FEW025 BKN037 19/17 Q1018
YBBN,2013-10-21 20:30,153.1292,-27.3917,68.00,62.60,82.86,210.00,3.00,0.00,30.06,M,6.21,M,SCT,SCT,M,M,2500.00,3500.00,M,M,M,YBBN 212030Z 21003KT 9999 SCT025 SCT035 20/17 Q1018
YBBN,2013-10-21 21:00,153.1292,-27.3917,69.80,60.80,73.09,0.00,0.00,0.00,30.09,M,6.21,M,FEW,SCT,M,M,2700.00,4500.00,M,M,M,YBBN 212100Z 00000KT 9999 FEW027 SCT045 21/16 Q1019 FM2200 36007KT 9999 SCT030 SCT040
YBBN,2013-10-21 21:30,153.1292,-27.3917,73.40,62.60,68.94,330.00,4.00,0.00,30.09,M,6.21,M,FEW,M,M,M,2700.00,M,M,M,M,YBBN 212130Z 33004KT 9999 FEW027 23/17 Q1019
YBBN,2013-10-21 22:00,153.1292,-27.3917,73.40,60.80,64.69,340.00,7.00,0.00,30.09,M,6.21,M,FEW,M,M,M,2400.00,M,M,M,M,YBBN 212200Z 34007KT 9999 FEW024 23/16 Q1019
YBBN,2013-10-21 22:30,153.1292,-27.3917,73.40,60.80,64.69,10.00,7.00,0.00,30.09,M,6.21,M,FEW,M,M,M,2400.00,M,M,M,M,YBBN 212230Z 01007KT 9999 FEW024 23/16 Q1019
YBBN,2013-10-21 23:00,153.1292,-27.3917,75.20,60.80,60.90,350.00,8.00,0.00,30.09,M,6.21,M,FEW,M,M,M,2500.00,M,M,M,M,YBBN 212300Z 35008KT 9999 FEW025 24/16 Q1019
YBBN,2013-10-21 23:30,153.1292,-27.3917,75.20,59.00,57.12,10.00,9.00,0.00,30.09,M,6.21,M,FEW,M,M,M,2800.00,M,M,M,M,YBBN 212330Z 01009KT 9999 FEW028 24/15 Q1019
