#DEBUG: Format Typ    -> comma
#DEBUG: Time Period   -> 2014-12-15 00:00:00+00:00 2014-12-16 00:00:00+00:00
#DEBUG: Time Zone     -> Etc/UTC
#DEBUG: Data Contact   -> daryl herzmann akrherz@iastate.edu 515-294-5978
#DEBUG: Entries Found -> -1
station,valid,lon,lat,tmpf, dwpf, relh, drct, sknt, p01i, alti, mslp, vsby, gust, skyc1, skyc2, skyc3, skyc4, skyl1, skyl2, skyl3, skyl4, presentwx, metar
YBBN,2014-12-15 00:00,153.1292,-27.3917,78.80,57.20,47.52,170.00,6.00,0.00,29.85,M,6.21,M,FEW,M,M,M,3800.00,M,M,M,M,YBBN 150000Z 17006KT 9999 FEW038 26/14 Q1011
YBBN,2014-12-15 00:30,153.1292,-27.3917,77.00,59.00,53.80,100.00,7.00,0.00,29.83,M,6.21,M,SCT,M,M,M,4000.00,M,M,M,M,YBBN 150030Z 10007KT 9999 SCT040 25/15 Q1010
YBBN,2014-12-15 01:00,153.1292,-27.3917,77.00,57.20,50.43,100.00,8.00,0.00,29.83,M,6.21,M,SCT,M,M,M,4300.00,M,M,M,M,YBBN 150100Z 10008KT 9999 SCT043 25/14 Q1010 NOSIG
YBBN,2014-12-15 01:30,153.1292,-27.3917,77.00,59.00,53.80,90.00,9.00,0.00,29.83,M,6.21,M,SCT,M,M,M,4500.00,M,M,M,M,YBBN 150130Z 09009KT 9999 SCT045 25/15 Q1010
YBBN,2014-12-15 02:00,153.1292,-27.3917,78.80,57.20,47.52,90.00,9.00,0.00,29.80,M,6.21,M,FEW,M,M,M,4500.00,M,M,M,M,YBBN 150200Z 09009KT 9999 FEW045 26/14 Q1009 NOSIG
YBBN,2014-12-15 02:30,153.1292,-27.3917,80.60,59.00,47.79,90.00,9.00,0.00,29.80,M,6.21,M,FEW,M,M,M,4500.00,M,M,M,M,YBBN 150230Z 09009KT 9999 FEW045 27/15 Q1009
YBBN,2014-12-15 03:00,153.1292,-27.3917,80.60,59.00,47.79,90.00,10.00,0.00,29.80,M,6.21,M,FEW,M,M,M,4000.00,M,M,M,M,YBBN 150300Z 09010KT 9999 FEW040 27/15 Q1009 NOSIG
YBBN,2014-12-15 03:30,153.1292,-27.3917,78.80,59.00,50.69,100.00,10.00,0.00,29.80,M,6.21,M,FEW,M,M,M,4500.00,M,M,M,M,YBBN 150330Z 10010KT 9999 FEW045 26/15 Q1009
YBBN,2014-12-15 04:00,153.1292,-27.3917,78.80,59.00,50.69,120.00,10.00,0.00,29.80,M,6.21,M,FEW,M,M,M,4500.00,M,M,M,M,YBBN 150400Z 12010KT 9999 FEW045 26/15 Q1009 NOSIG
YBBN,2014-12-15 04:30,153.1292,-27.3917,78.80,60.80,54.05,110.00,10.00,0.00,29.80,M,6.21,M,FEW,M,M,M,4500.00,M,M,M,M,YBBN 150430Z 11010KT 9999 FEW045 26/16 Q1009
YBBN,2014-12-15 05:00,153.1292,-27.3917,78.80,59.00,50.69,110.00,9.00,0.00,29.80,M,6.21,M,FEW,M,M,M,4500.00,M,M,M,M,YBBN 150500Z 11009KT 9999 FEW045 26/15 Q1009 NOSIG
YBBN,2014-12-15 05:30,153.1292,-27.3917,78.80,60.80,54.05,90.00,10.00,0.00,29.77,M,6.21,M,FEW,M,M,M,4200.00,M,M,M,M,YBBN 150530Z 09010KT 9999 FEW042 26/16 Q1008
YBBN,2014-12-15 06:00,153.1292,-27.3917,78.80,59.00,50.69,110.00,9.00,0.00,29.80,M,6.21,M,FEW,M,M,M,4000.00,M,M,M,M,YBBN 150600Z 11009KT 9999 FEW040 26/15 Q1009 NOSIG
YBBN,2014-12-15 06:30,153.1292,-27.3917,77.00,60.80,57.36,110.00,9.00,0.00,29.80,M,6.21,M,FEW,M,M,M,4000.00,M,M,M,M,YBBN 150630Z 11009KT 9999 FEW040 25/16 Q1009
YBBN,2014-12-15 07:00,153.1292,-27.3917,77.00,60.80,57.36,120.00,10.00,0.00,29.80,M,6.21,M,FEW,M,M,M,3700.00,M,M,M,M,YBBN 150700Z 12010KT 9999 FEW037 25/16 Q1009 NOSIG
YBBN,2014-12-15 07:30,153.1292,-27.3917,77.00,60.80,57.36,110.00,7.00,0.00,29.80,M,6.21,M,FEW,M,M,M,3700.00,M,M,M,M,YBBN 150730Z 11007KT 9999 FEW037 25/16 Q1009
YBBN,2014-12-15 08:00,153.1292,-27.3917,75.20,60.80,60.90,100.00,8.00,0.00,29.83,M,6.21,M,FEW,M,M,M,3500.00,M,M,M,M,YBBN 150800Z 10008KT 9999 FEW035 24/16 Q1010 NOSIG
YBBN,2014-12-15 08:30,153.1292,-27.3917,75.20,60.80,60.90,100.00,7.00,0.00,29.83,M,6.21,M,FEW,M,M,M,3000.00,M,M,M,M,YBBN 150830Z 10007KT 9999 FEW030 24/16 Q1010
YBBN,2014-12-15 09:00,153.1292,-27.3917,73.40,60.80,64.69,110.00,8.00,0.00,29.83,M,6.21,M,M,M,M,M,M,M,M,M,M,YBBN 150900Z 11008KT CAVOK 23/16 Q1010
YBBN,2014-12-15 09:30,153.1292,-27.3917,73.40,60.80,64.69,100.00,7.00,0.00,29.83,M,6.21,M,M,M,M,M,M,M,M,M,M,YBBN 150930Z 10007KT CAVOK 23/16 Q1010
YBBN,2014-12-15 10:00,153.1292,-27.3917,73.40,60.80,64.69,110.00,7.00,0.00,29.85,M,6.21,M,M,M,M,M,M,M,M,M,M,YBBN 151000Z 11007KT CAVOK 23/16 Q1011
YBBN,2014-12-15 10:30,153.1292,-27.3917,73.40,60.80,64.69,100.00,5.00,0.00,29.85,M,6.21,M,M,M,M,M,M,M,M,M,M,YBBN 151030Z 10005KT CAVOK 23/16 Q1011
YBBN,2014-12-15 11:00,153.1292,-27.3917,73.40,60.80,64.69,110.00,7.00,0.00,29.85,M,6.21,M,M,M,M,M,M,M,M,M,M,YBBN 151100Z 11007KT CAVOK 23/16 Q1011
YBBN,2014-12-15 11:30,153.1292,-27.3917,73.40,60.80,64.69,110.00,6.00,0.00,29.85,M,6.21,M,M,M,M,M,M,M,M,M,M,YBBN 151130Z 11006KT CAVOK 23/16 Q1011
YBBN,2014-12-15 12:00,153.1292,-27.3917,73.40,60.80,64.69,100.00,3.00,0.00,29.85,M,6.21,M,M,M,M,M,M,M,M,M,M,YBBN 151200Z 10003KT CAVOK 23/16 Q1011
YBBN,2014-12-15 12:30,153.1292,-27.3917,71.60,60.80,68.75,90.00,5.00,0.00,29.85,M,6.21,M,M,M,M,M,M,M,M,M,M,YBBN 151230Z 09005KT CAVOK 22/16 Q1011
YBBN,2014-12-15 13:00,153.1292,-27.3917,73.40,60.80,64.69,100.00,4.00,0.00,29.85,M,6.21,M,FEW,SCT,M,M,3000.00,12000.00,M,M,M,YBBN 151300Z 10004KT 9999 FEW030 SCT120 23/16 Q1011
YBBN,2014-12-15 13:30,153.1292,-27.3917,71.60,60.80,68.75,120.00,3.00,0.00,29.85,M,6.21,M,FEW,SCT,M,M,3000.00,12000.00,M,M,M,YBBN 151330Z 12003KT 9999 FEW030 SCT120 22/16 Q1011
YBBN,2014-12-15 14:00,153.1292,-27.3917,71.60,60.80,68.75,0.00,0.00,0.00,29.85,M,6.21,M,M,M,M,M,M,M,M,M,M,YBBN 151400Z 00000KT CAVOK 22/16 Q1011
YBBN,2014-12-15 14:30,153.1292,-27.3917,69.80,60.80,73.09,0.00,0.00,0.00,29.83,M,6.21,M,M,M,M,M,M,M,M,M,M,YBBN 151430Z 00000KT CAVOK 21/16 Q1010
YBBN,2014-12-15 15:00,153.1292,-27.3917,69.80,60.80,73.09,150.00,2.00,0.00,29.83,M,6.21,M,M,M,M,M,M,M,M,M,M,YBBN 151500Z 15002KT CAVOK 21/16 Q1010
YBBN,2014-12-15 15:30,153.1292,-27.3917,69.80,60.80,73.09,160.00,3.00,0.00,29.80,M,6.21,M,M,M,M,M,M,M,M,M,M,YBBN 151530Z 16003KT CAVOK 21/16 Q1009
YBBN,2014-12-15 16:00,153.1292,-27.3917,69.80,60.80,73.09,190.00,5.00,0.00,29.83,M,6.21,M,M,M,M,M,M,M,M,M,M,YBBN 151600Z 19005KT CAVOK 21/16 Q1010
YBBN,2014-12-15 16:30,153.1292,-27.3917,68.00,60.80,77.75,190.00,4.00,0.00,29.83,M,6.21,M,FEW,M,M,M,2000.00,M,M,M,M,YBBN 151630Z 19004KT 9999 FEW020 20/16 Q1010
YBBN,2014-12-15 17:00,153.1292,-27.3917,66.20,60.80,82.74,180.00,4.00,0.00,29.83,M,6.21,M,M,M,M,M,M,M,M,M,M,YBBN 151700Z 18004KT CAVOK 19/16 Q1010
YBBN,2014-12-15 17:30,153.1292,-27.3917,66.20,60.80,82.74,0.00,0.00,0.00,29.83,M,6.21,M,M,M,M,M,M,M,M,M,M,YBBN 151730Z 00000KT CAVOK 19/16 Q1010
YBBN,2014-12-15 18:00,153.1292,-27.3917,66.20,60.80,82.74,210.00,3.00,0.00,29.83,M,6.21,M,M,M,M,M,M,M,M,M,M,YBBN 151800Z 21003KT CAVOK 19/16 Q1010 NOSIG
YBBN,2014-12-15 18:30,153.1292,-27.3917,66.20,60.80,82.74,190.00,4.00,0.00,29.83,M,6.21,M,M,M,M,M,M,M,M,M,M,YBBN 151830Z 19004KT CAVOK 19/16 Q1010
YBBN,2014-12-15 19:00,153.1292,-27.3917,64.40,60.80,88.09,0.00,0.00,0.00,29.83,M,6.21,M,FEW,M,M,M,2000.00,M,M,M,M,YBBN 151900Z 00000KT 9999 FEW020 18/16 Q1010
YBBN,2014-12-15 19:30,153.1292,-27.3917,66.20,60.80,82.74,200.00,2.00,0.00,29.83,M,6.21,M,M,M,M,M,M,M,M,M,M,YBBN 151930Z 20002KT CAVOK 19/16 Q1010
YBBN,2014-12-15 20:00,153.1292,-27.3917,69.80,62.60,77.90,0.00,0.00,0.00,29.83,M,6.21,M,FEW,M,M,M,2000.00,M,M,M,M,YBBN 152000Z 00000KT 9999 FEW020 21/17 Q1010 NOSIG
YBBN,2014-12-15 20:30,153.1292,-27.3917,71.60,60.80,68.75,190.00,4.00,0.00,29.83,M,6.21,M,FEW,M,M,M,2000.00,M,M,M,M,YBBN 152030Z 19004KT 9999 FEW020 22/16 Q1010
YBBN,2014-12-15 21:00,153.1292,-27.3917,73.40,60.80,64.69,230.00,4.00,0.00,29.85,M,6.21,M,FEW,M,M,M,2000.00,M,M,M,M,YBBN 152100Z 23004KT 9999 FEW020 23/16 Q1011 NOSIG
YBBN,2014-12-15 21:30,153.1292,-27.3917,75.20,60.80,60.90,100.00,2.00,0.00,29.85,M,6.21,M,FEW,M,M,M,2500.00,M,M,M,M,YBBN 152130Z 10002KT 9999 FEW025 24/16 Q1011
YBBN,2014-12-15 22:00,153.1292,-27.3917,75.20,62.60,64.91,330.00,5.00,0.00,29.83,M,6.21,M,SCT,M,M,M,2700.00,M,M,M,M,YBBN 152200Z 33005KT 9999 SCT027 24/17 Q1010 FM2300 36009KT 9999 SCT030
YBBN,2014-12-15 22:30,153.1292,-27.3917,75.20,62.60,64.91,350.00,7.00,0.00,29.83,M,6.21,M,SCT,M,M,M,3200.00,M,M,M,M,YBBN 152230Z 35007KT 9999 SCT032 24/17 Q1010
YBBN,2014-12-15 23:00,153.1292,-27.3917,77.00,60.80,57.36,360.00,8.00,0.00,29.83,M,6.21,M,FEW,BKN,M,M,3200.00,3700.00,M,M,M,YBBN 152300Z 36008KT 9999 FEW032 BKN037 25/16 Q1010 NOSIG
YBBN,2014-12-15 23:30,153.1292,-27.3917,77.00,60.80,57.36,10.00,7.00,0.00,29.83,M,6.21,M,FEW,SCT,M,M,3200.00,3700.00,M,M,M,YBBN 152330Z 01007KT 9999 FEW032 SCT037 25/16 Q1010
