#DEBUG: Format Typ    -> comma
#DEBUG: Time Period   -> 2015-09-24 00:00:00+00:00 2015-09-25 00:00:00+00:00
#DEBUG: Time Zone     -> Etc/UTC
#DEBUG: Data Contact   -> daryl herzmann akrherz@iastate.edu 515-294-5978
#DEBUG: Entries Found -> -1
station,valid,lon,lat,tmpf, dwpf, relh, drct, sknt, p01i, alti, mslp, vsby, gust, skyc1, skyc2, skyc3, skyc4, skyl1, skyl2, skyl3, skyl4, presentwx, metar
YBBN,2015-09-24 00:00,153.1292,-27.3917,66.20,35.60,32.14,190.00,9.00,0.00,30.15,M,6.21,M,FEW,M,M,M,4000.00,M,M,M,M,YBBN 240000Z 19009KT 150V230 9999 FEW040 19/02 Q1021 NOSIG
YBBN,2015-09-24 00:30,153.1292,-27.3917,66.20,35.60,32.14,190.00,7.00,0.00,30.15,M,6.21,M,FEW,M,M,M,4000.00,M,M,M,M,YBBN 240030Z 19007KT 170V230 9999 FEW040 19/02 Q1021
YBBN,2015-09-24 01:00,153.1292,-27.3917,68.00,37.40,32.43,240.00,7.00,0.00,30.15,M,6.21,M,FEW,M,M,M,4000.00,M,M,M,M,YBBN 240100Z 24007KT 180V260 9999 FEW040 20/03 Q1021 NOSIG
YBBN,2015-09-24 01:30,153.1292,-27.3917,68.00,33.80,28.11,170.00,5.00,0.00,30.12,M,6.21,M,M,M,M,M,M,M,M,M,M,YBBN 240130Z 17005KT 110V200 CAVOK 20/01 Q1020
YBBN,2015-09-24 02:00,153.1292,-27.3917,68.00,32.00,26.15,240.00,5.00,0.00,30.12,M,6.21,M,M,M,M,M,M,M,M,M,M,YBBN 240200Z 24005KT CAVOK 20/00 Q1020
YBBN,2015-09-24 02:30,153.1292,-27.3917,68.00,41.00,37.32,20.00,11.00,0.00,30.09,M,6.21,M,M,M,M,M,M,M,M,M,M,YBBN 240230Z 02011KT CAVOK 20/05 Q1019
YBBN,2015-09-24 03:00,153.1292,-27.3917,68.00,42.80,40.00,60.00,11.00,0.00,30.06,M,6.21,M,M,M,M,M,M,M,M,M,M,YBBN 240300Z 06011KT CAVOK 20/06 Q1018 NOSIG
YBBN,2015-09-24 03:30,153.1292,-27.3917,69.80,41.00,35.09,40.00,9.00,0.00,30.06,M,6.21,M,M,M,M,M,M,M,M,M,M,YBBN 240330Z 04009KT CAVOK 21/05 Q1018
YBBN,2015-09-24 04:00,153.1292,-27.3917,69.80,39.20,32.72,50.00,11.00,0.00,30.06,M,6.21,M,M,M,M,M,M,M,M,M,M,YBBN 240400Z 05011KT CAVOK 21/04 Q1018 NOSIG
YBBN,2015-09-24 04:30,153.1292,-27.3917,69.80,39.20,32.72,70.00,9.00,0.00,30.06,M,6.21,M,M,M,M,M,M,M,M,M,M,YBBN 240430Z 07009KT CAVOK 21/04 Q1018
YBBN,2015-09-24 05:00,153.1292,-27.3917,68.00,39.20,34.80,90.00,9.00,0.00,30.06,M,6.21,M,M,M,M,M,M,M,M,M,M,YBBN 240500Z 09009KT CAVOK 20/04 Q1018 NOSIG
YBBN,2015-09-24 05:30,153.1292,-27.3917,66.20,42.80,42.57,110.00,10.00,0.00,30.06,M,6.21,M,M,M,M,M,M,M,M,M,M,YBBN 240530Z 11010KT CAVOK 19/06 Q1018
YBBN,2015-09-24 06:00,153.1292,-27.3917,66.20,44.60,45.60,110.00,10.00,0.00,30.06,M,6.21,M,M,M,M,M,M,M,M,M,M,YBBN 240600Z 11010KT CAVOK 19/07 Q1018
YBBN,2015-09-24 06:30,153.1292,-27.3917,66.20,44.60,45.60,100.00,9.00,0.00,30.06,M,6.21,M,M,M,M,M,M,M,M,M,M,YBBN 240630Z 10009KT CAVOK 19/07 Q1018
YBBN,2015-09-24 07:00,153.1292,-27.3917,64.40,44.60,48.55,110.00,8.00,0.00,30.06,M,6.21,M,M,M,M,M,M,M,M,M,M,YBBN 240700Z 11008KT CAVOK 18/07 Q1018 NOSIG
YBBN,2015-09-24 07:30,153.1292,-27.3917,64.40,44.60,48.55,120.00,9.00,0.00,30.09,M,6.21,M,M,M,M,M,M,M,M,M,M,YBBN 240730Z 12009KT CAVOK 18/07 Q1019
YBBN,2015-09-24 08:00,153.1292,-27.3917,64.40,46.40,51.98,110.00,9.00,0.00,30.09,M,6.21,M,FEW,M,M,M,3800.00,M,M,M,M,YBBN 240800Z 11009KT 9999 FEW038 18/08 Q1019 NOSIG
YBBN,2015-09-24 08:30,153.1292,-27.3917,64.40,44.60,48.55,130.00,8.00,0.00,30.09,M,6.21,M,M,M,M,M,M,M,M,M,M,YBBN 240830Z 13008KT CAVOK 18/07 Q1019
YBBN,2015-09-24 09:00,153.1292,-27.3917,64.40,46.40,51.98,130.00,7.00,0.00,30.12,M,6.21,M,M,M,M,M,M,M,M,M,M,YBBN 240900Z 13007KT CAVOK 18/08 Q1020 NOSIG
YBBN,2015-09-24 09:30,153.1292,-27.3917,62.60,46.40,55.37,130.00,7.00,0.00,30.12,M,6.21,M,M,M,M,M,M,M,M,M,M,YBBN 240930Z 13007KT CAVOK 17/08 Q1020
YBBN,2015-09-24 10:00,153.1292,-27.3917,62.60,46.40,55.37,140.00,8.00,0.00,30.12,M,6.21,M,M,M,M,M,M,M,M,M,M,YBBN 241000Z 14008KT CAVOK 17/08 Q1020
YBBN,2015-09-24 10:30,153.1292,-27.3917,60.80,44.60,55.12,160.00,8.00,0.00,30.15,M,6.21,18.00,M,M,M,M,M,M,M,M,M,YBBN 241030Z 16008G18KT CAVOK 16/07 Q1021
YBBN,2015-09-24 11:00,153.1292,-27.3917,60.80,42.80,51.45,150.00,10.00,0.00,30.15,M,6.21,20.00,FEW,M,M,M,3500.00,M,M,M,M,YBBN 241100Z 15010G20KT 9999 FEW035 16/06 Q1021
YBBN,2015-09-24 11:30,153.1292,-27.3917,60.80,42.80,51.45,160.00,8.00,0.00,30.15,M,6.21,M,M,M,M,M,M,M,M,M,M,YBBN 241130Z 16008KT CAVOK 16/06 Q1021
YBBN,2015-09-24 12:00,153.1292,-27.3917,60.80,42.80,51.45,160.00,9.00,0.00,30.15,M,6.21,M,M,M,M,M,M,M,M,M,M,YBBN 241200Z 16009KT CAVOK 16/06 Q1021
YBBN,2015-09-24 12:30,153.1292,-27.3917,57.20,44.60,62.69,190.00,6.00,0.00,30.15,M,6.21,M,M,M,M,M,M,M,M,M,M,YBBN 241230Z 19006KT CAVOK 14/07 Q1021
YBBN,2015-09-24 13:00,153.1292,-27.3917,57.20,44.60,62.69,190.00,6.00,0.00,30.15,M,6.21,M,M,M,M,M,M,M,M,M,M,YBBN 241300Z 19006KT CAVOK 14/07 Q1021 NOSIG
YBBN,2015-09-24 13:30,153.1292,-27.3917,53.60,44.60,71.45,200.00,5.00,0.00,30.15,M,6.21,M,M,M,M,M,M,M,M,M,M,YBBN 241330Z 20005KT CAVOK 12/07 Q1021
YBBN,2015-09-24 14:00,153.1292,-27.3917,55.40,44.60,66.91,200.00,4.00,0.00,30.12,M,6.21,M,M,M,M,M,M,M,M,M,M,YBBN 241400Z 20004KT CAVOK 13/07 Q1020
YBBN,2015-09-24 14:30,153.1292,-27.3917,53.60,44.60,71.45,200.00,6.00,0.00,30.12,M,6.21,M,M,M,M,M,M,M,M,M,M,YBBN 241430Z 20006KT CAVOK 12/07 Q1020
YBBN,2015-09-24 15:00,153.1292,-27.3917,55.40,42.80,62.46,190.00,5.00,0.00,30.12,M,6.21,M,M,M,M,M,M,M,M,M,M,YBBN 241500Z 19005KT CAVOK 13/06 Q1020
YBBN,2015-09-24 15:30,153.1292,-27.3917,55.40,42.80,62.46,190.00,6.00,0.00,30.12,M,6.21,M,M,M,M,M,M,M,M,M,M,YBBN 241530Z 19006KT CAVOK 13/06 Q1020
YBBN,2015-09-24 16:00,153.1292,-27.3917,53.60,44.60,71.45,200.00,6.00,0.00,30.12,M,6.21,M,M,M,M,M,M,M,M,M,M,YBBN 241600Z 20006KT CAVOK 12/07 Q1020
YBBN,2015-09-24 16:30,153.1292,-27.3917,51.80,42.80,71.26,190.00,6.00,0.00,30.09,M,6.21,M,M,M,M,M,M,M,M,M,M,YBBN 241630Z 19006KT CAVOK 11/06 Q1019
YBBN,2015-09-24 17:00,153.1292,-27.3917,50.00,42.80,76.18,210.00,5.00,0.00,30.09,M,6.21,M,M,M,M,M,M,M,M,M,M,YBBN 241700Z 21005KT CAVOK 10/06 Q1019 NOSIG
YBBN,2015-09-24 17:30,153.1292,-27.3917,53.60,41.00,62.23,210.00,5.00,0.00,30.12,M,6.21,M,M,M,M,M,M,M,M,M,M,YBBN 241730Z 21005KT CAVOK 12/05 Q1020
YBBN,2015-09-24 18:00,153.1292,-27.3917,53.60,41.00,62.23,190.00,7.00,0.00,30.12,M,6.21,M,M,M,M,M,M,M,M,M,M,YBBN 241800Z 19007KT CAVOK 12/05 Q1020 NOSIG
YBBN,2015-09-24 18:30,153.1292,-27.3917,51.80,41.00,66.48,200.00,8.00,0.00,30.12,M,6.21,M,M,M,M,M,M,M,M,M,M,YBBN 241830Z 20008KT CAVOK 11/05 Q1020
YBBN,2015-09-24 19:00,153.1292,-27.3917,51.80,42.80,71.26,200.00,8.00,0.00,30.12,M,6.21,M,M,M,M,M,M,M,M,M,M,YBBN 241900Z 20008KT CAVOK 11/06 Q1020
YBBN,2015-09-24 19:30,153.1292,-27.3917,53.60,41.00,62.23,200.00,8.00,0.00,30.12,M,6.21,M,FEW,M,M,M,2500.00,M,M,M,M,YBBN 241930Z 20008KT 9999 FEW025 12/05 Q1020
YBBN,2015-09-24 20:00,153.1292,-27.3917,50.00,42.80,76.18,210.00,7.00,0.00,30.15,M,6.21,M,FEW,M,M,M,2200.00,M,M,M,M,YBBN 242000Z 21007KT 9999 FEW022 10/06 Q1021
YBBN,2015-09-24 20:30,153.1292,-27.3917,53.60,44.60,71.45,220.00,7.00,0.00,30.15,M,6.21,M,FEW,M,M,M,2500.00,M,M,M,M,YBBN 242030Z 22007KT 9999 FEW025 12/07 Q1021
YBBN,2015-09-24 21:00,153.1292,-27.3917,57.20,42.80,58.52,210.00,8.00,0.00,30.18,M,6.21,M,FEW,M,M,M,2500.00,M,M,M,M,YBBN 242100Z 21008KT 9999 FEW025 14/06 Q1022
YBBN,2015-09-24 21:30,153.1292,-27.3917,60.80,41.00,48.00,210.00,13.00,0.00,30.18,M,6.21,M,FEW,M,M,M,4000.00,M,M,M,M,YBBN 242130Z 21013KT 9999 FEW040 16/05 Q1022
YBBN,2015-09-24 22:00,153.1292,-27.3917,62.60,41.00,45.04,210.00,14.00,0.00,30.18,M,6.21,M,FEW,M,M,M,4500.00,M,M,M,M,YBBN 242200Z 21014KT 9999 FEW045 17/05 Q1022
YBBN,2015-09-24 22:30,153.1292,-27.3917,64.40,42.80,45.32,210.00,13.00,0.00,30.18,M,6.21,M,FEW,M,M,M,4000.00,M,M,M,M,YBBN 242230Z 21013KT 9999 FEW040 18/06 Q1022
YBBN,2015-09-24 23:00,153.1292,-27.3917,64.40,42.80,45.32,220.00,12.00,0.00,30.18,M,6.21,M,FEW,M,M,M,3500.00,M,M,M,M,YBBN 242300Z 22012KT 9999 FEW035 18/06 Q1022 NOSIG
YBBN,2015-09-24 23:30,153.1292,-27.3917,66.20,42.80,42.57,220.00,13.00,0.00,30.18,M,6.21,M,FEW,M,M,M,3200.00,M,M,M,M,YBBN 242330Z 22013KT 9999 FEW032 19/06 Q1022
