#DEBUG: Format Typ    -> comma
#DEBUG: Time Period   -> 2015-11-23 00:00:00+00:00 2015-11-24 00:00:00+00:00
#DEBUG: Time Zone     -> Etc/UTC
#DEBUG: Data Contact   -> daryl herzmann akrherz@iastate.edu 515-294-5978
#DEBUG: Entries Found -> -1
station,valid,lon,lat,tmpf, dwpf, relh, drct, sknt, p01i, alti, mslp, vsby, gust, skyc1, skyc2, skyc3, skyc4, skyl1, skyl2, skyl3, skyl4, presentwx, metar
YBBN,2015-11-23 00:00,153.1292,-27.3917,80.60,64.40,57.84,10.00,12.00,0.00,29.94,M,6.21,M,FEW,M,M,M,3500.00,M,M,M,M,YBBN 230000Z 01012KT 9999 FEW035 27/18 Q1014 NOSIG
YBBN,2015-11-23 00:30,153.1292,-27.3917,80.60,66.20,61.58,30.00,13.00,0.00,29.94,M,6.21,M,FEW,M,M,M,3500.00,M,M,M,M,YBBN 230030Z 03013KT 9999 FEW035 27/19 Q1014 NOSIG
YBBN,2015-11-23 01:00,153.1292,-27.3917,80.60,68.00,65.54,30.00,13.00,0.00,29.94,M,6.21,M,FEW,M,M,M,3700.00,M,M,M,M,YBBN 230100Z 03013KT 9999 FEW037 27/20 Q1014
YBBN,2015-11-23 01:30,153.1292,-27.3917,82.40,68.00,61.81,30.00,16.00,0.00,29.91,M,6.21,M,FEW,M,M,M,3800.00,M,M,M,M,YBBN 230130Z 03016KT 9999 FEW038 28/20 Q1013 NOSIG
YBBN,2015-11-23 02:00,153.1292,-27.3917,82.40,68.00,61.81,30.00,17.00,0.00,29.91,M,6.21,M,FEW,M,M,M,3800.00,M,M,M,M,YBBN 230200Z 03017KT 9999 FEW038 28/20 Q1013
YBBN,2015-11-23 02:30,153.1292,-27.3917,82.40,68.00,61.81,30.00,17.00,0.00,29.88,M,6.21,M,FEW,M,M,M,4000.00,M,M,M,M,YBBN 230230Z 03017KT 9999 FEW040 28/20 Q1012 NOSIG
YBBN,2015-11-23 03:00,153.1292,-27.3917,80.60,68.00,65.54,30.00,19.00,0.00,29.88,M,6.21,M,FEW,M,M,M,4000.00,M,M,M,M,YBBN 230300Z 03019KT 9999 FEW040 27/20 Q1012
YBBN,2015-11-23 03:30,153.1292,-27.3917,80.60,68.00,65.54,20.00,19.00,0.00,29.85,M,6.21,M,FEW,M,M,M,3700.00,M,M,M,M,YBBN 230330Z 02019KT 9999 FEW037 27/20 Q1011
YBBN,2015-11-23 04:00,153.1292,-27.3917,82.40,68.00,61.81,20.00,19.00,0.00,29.85,M,6.21,M,FEW,M,M,M,3500.00,M,M,M,M,YBBN 230400Z 02019KT 9999 FEW035 28/20 Q1011 NOSIG
YBBN,2015-11-23 04:30,153.1292,-27.3917,80.60,68.00,65.54,20.00,19.00,0.00,29.85,M,6.21,M,FEW,M,M,M,3400.00,M,M,M,M,YBBN 230430Z 02019KT 9999 FEW034 27/20 Q1011 NOSIG
YBBN,2015-11-23 05:00,153.1292,-27.3917,80.60,69.80,69.71,20.00,20.00,0.00,29.83,M,6.21,M,FEW,M,M,M,3500.00,M,M,M,M,YBBN 230500Z 02020KT 9999 FEW035 27/21 Q1010
YBBN,2015-11-23 05:30,153.1292,-27.3917,78.80,69.80,73.95,10.00,19.00,0.00,29.83,M,6.21,M,FEW,M,M,M,3700.00,M,M,M,M,YBBN 230530Z 01019KT 9999 FEW037 26/21 Q1010
YBBN,2015-11-23 06:00,153.1292,-27.3917,78.80,69.80,73.95,10.00,20.00,0.00,29.83,M,6.21,M,FEW,M,M,M,3700.00,M,M,M,M,YBBN 230600Z 01020KT 9999 FEW037 26/21 Q1010
YBBN,2015-11-23 06:30,153.1292,-27.3917,78.80,69.80,73.95,10.00,19.00,0.00,29.83,M,6.21,M,FEW,M,M,M,3800.00,M,M,M,M,YBBN 230630Z 01019KT 9999 FEW038 26/21 Q1010 NOSIG
YBBN,2015-11-23 07:00,153.1292,-27.3917,77.00,69.80,78.48,10.00,19.00,0.00,29.80,M,6.21,M,FEW,M,M,M,2200.00,M,M,M,VCSH,YBBN 230700Z 01019KT 9999 VCSH FEW022TCU 25/21 Q1009
YBBN,2015-11-23 07:30,153.1292,-27.3917,77.00,69.80,78.48,10.00,16.00,0.00,29.85,M,6.21,M,FEW,SCT,M,M,2200.00,25000.00,M,M,M,YBBN 230730Z 01016KT 9999 FEW022TCU SCT250 25/21 Q1011 NOSIG
YBBN,2015-11-23 08:00,153.1292,-27.3917,77.00,69.80,78.48,10.00,19.00,0.00,29.83,M,6.21,M,FEW,SCT,BKN,M,2100.00,16000.00,24000.00,M,M,YBBN 230800Z 01019KT 9999 FEW021TCU SCT160 BKN240 25/21 Q1010
YBBN,2015-11-23 08:30,153.1292,-27.3917,77.00,69.80,78.48,10.00,16.00,0.00,29.85,M,6.21,M,FEW,SCT,M,M,2500.00,25000.00,M,M,M,YBBN 230830Z 01016KT 9999 FEW025 SCT250 25/21 Q1011
YBBN,2015-11-23 09:00,153.1292,-27.3917,77.00,69.80,78.48,10.00,15.00,0.00,29.85,M,6.21,M,FEW,BKN,M,M,2500.00,24500.00,M,M,M,YBBN 230900Z 01015KT 9999 FEW025 BKN245 25/21 Q1011
YBBN,2015-11-23 10:00,153.1292,-27.3917,77.00,69.80,78.48,350.00,15.00,0.00,29.94,M,6.21,M,FEW,BKN,BKN,M,2500.00,14500.00,18000.00,M,M,YBBN 231000Z 35015KT 9999 FEW025 BKN145 BKN180 25/21 Q1014
YBBN,2015-11-23 10:22,153.1292,-27.3917,77.00,69.80,78.48,290.00,11.00,0.00,29.94,M,6.21,M,SCT,SCT,BKN,M,1900.00,2600.00,10000.00,M,-TSRA,YBBN 231022Z 29011KT 9999 -TSRA SCT019 SCT026CB BKN100 25/21 Q1014
YBBN,2015-11-23 10:30,153.1292,-27.3917,77.00,69.80,78.48,360.00,5.00,0.00,29.91,M,6.21,M,SCT,BKN,BKN,FEW,2100.00,9800.00,12500.00,2600.00,-TSRA,YBBN 231030Z 36005KT 290V010 9999 -TSRA SCT021 BKN098 BKN125 FEW026CB 25/21 Q1013
YBBN,2015-11-23 11:00,153.1292,-27.3917,77.00,71.60,83.44,50.00,14.00,0.00,29.88,M,6.21,M,FEW,SCT,BKN,M,2000.00,11000.00,14000.00,M,VCSH,YBBN 231100Z 05014KT 9999 VCSH FEW020 SCT110 BKN140 25/22 Q1012 RETS
YBBN,2015-11-23 11:30,153.1292,-27.3917,75.20,71.60,88.59,10.00,11.00,0.00,29.91,M,6.21,M,FEW,BKN,BKN,M,2000.00,15000.00,20000.00,M,M,YBBN 231130Z 01011KT 9999 FEW020 BKN150 BKN200 24/22 Q1013 RETS NOSIG
YBBN,2015-11-23 12:00,153.1292,-27.3917,75.20,71.60,88.59,360.00,9.00,0.00,29.91,M,6.21,M,FEW,SCT,BKN,M,2000.00,16000.00,21000.00,M,M,YBBN 231200Z 36009KT 9999 FEW020 SCT160 BKN210 24/22 Q1013 NOSIG
YBBN,2015-11-23 12:30,153.1292,-27.3917,75.20,71.60,88.59,10.00,12.00,0.00,29.91,M,6.21,M,FEW,BKN,BKN,M,2000.00,13500.00,16000.00,M,M,YBBN 231230Z 01012KT 9999 FEW020 BKN135 BKN160 24/22 Q1013 NOSIG
YBBN,2015-11-23 13:00,153.1292,-27.3917,75.20,69.80,83.32,360.00,13.00,0.00,29.91,M,6.21,M,FEW,OVC,M,M,2000.00,13500.00,M,M,M,YBBN 231300Z 36013KT 9999 FEW020 OVC135 24/21 Q1013
YBBN,2015-11-23 13:30,153.1292,-27.3917,75.20,71.60,88.59,360.00,12.00,0.00,29.88,M,6.21,M,FEW,SCT,OVC,M,2000.00,7700.00,12500.00,M,-SHRA,YBBN 231330Z 36012KT 9999 -SHRA FEW020 SCT077 OVC125 24/22 Q1012 NOSIG
YBBN,2015-11-23 14:00,153.1292,-27.3917,75.20,71.60,88.59,360.00,13.00,0.00,29.85,M,6.21,M,FEW,BKN,M,M,4000.00,12500.00,M,M,M,YBBN 231400Z 36013KT 9999 FEW040 BKN125 24/22 Q1011
YBBN,2015-11-23 14:30,153.1292,-27.3917,75.20,69.80,83.32,360.00,15.00,0.00,29.85,M,6.21,M,FEW,M,M,M,4000.00,M,M,M,M,YBBN 231430Z 36015KT 9999 FEW040 24/21 Q1011 NOSIG
YBBN,2015-11-23 15:00,153.1292,-27.3917,73.40,71.60,94.10,320.00,10.00,0.00,29.85,M,6.21,M,BKN,M,M,M,1800.00,M,M,M,M,YBBN 231500Z 32010KT 9999 BKN018 23/22 Q1011
YBBN,2015-11-23 15:30,153.1292,-27.3917,71.60,68.00,88.43,250.00,7.00,0.00,29.85,M,6.21,M,FEW,M,M,M,1100.00,M,M,M,M,YBBN 231530Z 25007KT 9999 FEW011 22/20 Q1011 NOSIG
YBBN,2015-11-23 16:00,153.1292,-27.3917,71.60,68.00,88.43,250.00,5.00,0.00,29.85,M,6.21,M,M,M,M,M,M,M,M,M,M,YBBN 231600Z 25005KT CAVOK 22/20 Q1011 NOSIG
YBBN,2015-11-23 16:30,153.1292,-27.3917,71.60,68.00,88.43,230.00,2.00,0.00,29.85,M,6.21,M,M,M,M,M,M,M,M,M,M,YBBN 231630Z 23002KT CAVOK 22/20 Q1011 NOSIG
YBBN,2015-11-23 17:00,153.1292,-27.3917,69.80,68.00,94.01,0.00,0.00,0.00,29.85,M,6.21,M,M,M,M,M,M,M,M,M,M,YBBN 231700Z 00000KT CAVOK 21/20 Q1011 NOSIG
YBBN,2015-11-23 17:30,153.1292,-27.3917,71.60,68.00,88.43,0.00,0.00,0.00,29.85,M,6.21,M,M,M,M,M,M,M,M,M,M,YBBN 231730Z 00000KT CAVOK 22/20 Q1011 NOSIG
YBBN,2015-11-23 18:00,153.1292,-27.3917,69.80,68.00,94.01,150.00,4.00,0.00,29.85,M,6.21,M,M,M,M,M,M,M,M,M,M,YBBN 231800Z 15004KT CAVOK 21/20 Q1011 NOSIG
YBBN,2015-11-23 18:30,153.1292,-27.3917,69.80,68.00,94.01,160.00,2.00,0.00,29.88,M,6.21,M,M,M,M,M,M,M,M,M,M,YBBN 231830Z 16002KT CAVOK 21/20 Q1012 NOSIG
YBBN,2015-11-23 19:00,153.1292,-27.3917,69.80,66.20,88.34,0.00,0.00,0.00,29.88,M,6.21,M,M,M,M,M,M,M,M,M,M,YBBN 231900Z 00000KT CAVOK 21/19 Q1012
YBBN,2015-11-23 19:30,153.1292,-27.3917,71.60,68.00,88.43,0.00,0.00,0.00,29.91,M,6.21,M,NCD,M,M,M,M,M,M,M,//,YBBN 231930Z AUTO 00000KT 9999 // NCD 22/20 Q1013
YBBN,2015-11-23 20:00,153.1292,-27.3917,73.40,68.00,83.21,0.00,0.00,0.00,29.91,M,6.21,M,M,M,M,M,M,M,M,M,M,YBBN 232000Z 00000KT CAVOK 23/20 Q1013 NOSIG
YBBN,2015-11-23 20:30,153.1292,-27.3917,75.20,69.80,83.32,350.00,1.00,0.00,29.91,M,6.21,M,M,M,M,M,M,M,M,M,M,YBBN 232030Z 35001KT CAVOK 24/21 Q1013 NOSIG
YBBN,2015-11-23 21:00,153.1292,-27.3917,77.00,68.00,73.78,360.00,5.00,0.00,29.94,M,6.21,M,FEW,M,M,M,1700.00,M,M,M,M,YBBN 232100Z 36005KT 9999 FEW017 25/20 Q1014
YBBN,2015-11-23 21:30,153.1292,-27.3917,77.00,69.80,78.48,300.00,4.00,0.00,29.94,M,6.21,M,SCT,M,M,M,1900.00,M,M,M,//,YBBN 232130Z AUTO 30004KT 9999 // SCT019 25/21 Q1014
YBBN,2015-11-23 22:00,153.1292,-27.3917,78.80,69.80,73.95,210.00,4.00,0.00,29.94,M,6.21,M,SCT,M,M,M,2100.00,M,M,M,M,YBBN 232200Z 21004KT 9999 SCT021 26/21 Q1014 NOSIG
YBBN,2015-11-23 22:30,153.1292,-27.3917,80.60,69.80,69.71,90.00,6.00,0.00,29.94,M,6.21,M,SCT,M,M,M,2200.00,M,M,M,M,YBBN 232230Z 09006KT 9999 SCT022 27/21 Q1014 NOSIG
YBBN,2015-11-23 23:00,153.1292,-27.3917,80.60,69.80,69.71,90.00,5.00,0.00,29.94,M,6.21,M,SCT,M,M,M,2300.00,M,M,M,M,YBBN 232300Z 09005KT 040V150 9999 SCT023 27/21 Q1014 NOSIG
YBBN,2015-11-23 23:30,153.1292,-27.3917,82.40,69.80,65.74,30.00,8.00,0.00,29.94,M,6.21,M,SCT,M,M,M,2600.00,M,M,M,M,YBBN 232330Z 03008KT 9999 SCT026 28/21 Q1014 NOSIG
