#DEBUG: Format Typ    -> comma
#DEBUG: Time Period   -> 2010-03-18 00:00:00+00:00 2010-03-19 00:00:00+00:00
#DEBUG: Time Zone     -> Etc/UTC
#DEBUG: Data Contact   -> daryl herzmann akrherz@iastate.edu 515-294-5978
#DEBUG: Entries Found -> -1
station,valid,lon,lat,tmpf, dwpf, relh, drct, sknt, p01i, alti, mslp, vsby, gust, skyc1, skyc2, skyc3, skyc4, skyl1, skyl2, skyl3, skyl4, presentwx, metar
YBBN,2010-03-18 00:00,153.1292,-27.3917,77.00,60.80,57.36,150.00,12.00,M,30.24,M,6.21,M,FEW,SCT,M,M,3500.00,6000.00,M,M,M,YBBN 180000Z 15012KT 9999 FEW035 SCT060 25/16 Q1024 NOSIG
YBBN,2010-03-18 00:30,153.1292,-27.3917,78.80,62.60,57.60,140.00,11.00,M,30.24,M,6.21,M,FEW,M,M,M,3500.00,M,M,M,M,YBBN 180030Z 14011KT 9999 FEW035 26/17 Q1024 NOSIG
YBBN,2010-03-18 01:00,153.1292,-27.3917,78.80,62.60,57.60,130.00,12.00,M,30.24,M,6.21,M,FEW,M,M,M,3500.00,M,M,M,M,YBBN 180100Z 13012KT 9999 FEW035 26/17 Q1024 RMK RASH TO SW NOSIG
YBBN,2010-03-18 01:30,153.1292,-27.3917,78.80,62.60,57.60,140.00,10.00,M,30.21,M,6.21,M,FEW,M,M,M,3500.00,M,M,M,M,YBBN 180130Z 14010KT 9999 FEW035 26/17 Q1023 NOSIG
YBBN,2010-03-18 02:00,153.1292,-27.3917,77.00,62.60,61.13,140.00,13.00,M,30.21,M,5.59,M,SCT,BKN,M,M,3500.00,6500.00,M,M,M,YBBN 180200Z 14013KT 9000 SCT035 BKN065 25/17 Q1023 RMK RASH TO SW NOSIG
YBBN,2010-03-18 02:30,153.1292,-27.3917,75.20,66.20,73.61,130.00,8.00,M,30.21,M,6.21,M,SCT,BKN,M,M,3500.00,6000.00,M,M,VCSH,YBBN 180230Z 13008KT 9999 VCSH SCT035 BKN060 24/19 Q1023 NOSIG
YBBN,2010-03-18 03:00,153.1292,-27.3917,80.60,60.80,50.95,110.00,11.00,M,30.18,M,6.21,M,FEW,M,M,M,3800.00,M,M,M,M,YBBN 180300Z 11011KT 9999 FEW038 27/16 Q1022 NOSIG
YBBN,2010-03-18 03:30,153.1292,-27.3917,80.60,60.80,50.95,100.00,12.00,M,30.18,M,6.21,M,FEW,M,M,M,4000.00,M,M,M,M,YBBN 180330Z 10012KT 9999 FEW040 27/16 Q1022 NOSIG
YBBN,2010-03-18 04:00,153.1292,-27.3917,78.80,62.60,57.60,120.00,12.00,M,30.18,M,6.21,M,SCT,M,M,M,4000.00,M,M,M,M,YBBN 180400Z 12012KT 9999 SCT040 26/17 Q1022 NOSIG
YBBN,2010-03-18 04:30,153.1292,-27.3917,77.00,62.60,61.13,130.00,14.00,M,30.18,M,6.21,M,SCT,BKN,M,M,4000.00,6000.00,M,M,-DZ,YBBN 180430Z 13014KT 9999 -DZ SCT040 BKN060 25/17 Q1022 NOSIG
YBBN,2010-03-18 05:00,153.1292,-27.3917,78.80,62.60,57.60,130.00,9.00,M,30.18,M,6.21,M,FEW,SCT,M,M,3500.00,7300.00,M,M,M,YBBN 180500Z 13009KT 9999 FEW035 SCT073 26/17 Q1022 NOSIG
YBBN,2010-03-18 05:30,153.1292,-27.3917,78.80,60.80,54.05,130.00,11.00,M,30.15,M,6.21,M,FEW,M,M,M,3500.00,M,M,M,M,YBBN 180530Z 13011KT 9999 FEW035 26/16 Q1021 NOSIG
YBBN,2010-03-18 06:00,153.1292,-27.3917,78.80,62.60,57.60,130.00,11.00,M,30.15,M,6.21,M,FEW,M,M,M,3500.00,M,M,M,M,YBBN 180600Z 13011KT 9999 FEW035 26/17 Q1021 NOSIG
YBBN,2010-03-18 06:30,153.1292,-27.3917,77.00,60.80,57.36,130.00,12.00,M,30.18,M,6.21,M,FEW,M,M,M,3500.00,M,M,M,M,YBBN 180630Z 13012KT 9999 FEW035 25/16 Q1022 NOSIG
YBBN,2010-03-18 07:00,153.1292,-27.3917,77.00,60.80,57.36,130.00,11.00,M,30.18,M,6.21,M,FEW,M,M,M,3500.00,M,M,M,M,YBBN 180700Z 13011KT 9999 FEW035 25/16 Q1022 NOSIG
YBBN,2010-03-18 07:30,153.1292,-27.3917,77.00,60.80,57.36,120.00,10.00,M,30.18,M,6.21,M,FEW,M,M,M,3500.00,M,M,M,M,YBBN 180730Z 12010KT 9999 FEW035 25/16 Q1022 NOSIG
YBBN,2010-03-18 08:00,153.1292,-27.3917,75.20,60.80,60.90,110.00,10.00,M,30.18,M,6.21,M,FEW,M,M,M,3300.00,M,M,M,M,YBBN 180800Z 11010KT 9999 FEW033 24/16 Q1022 NOSIG
YBBN,2010-03-18 08:30,153.1292,-27.3917,75.20,62.60,64.91,120.00,7.00,M,30.18,M,6.21,M,FEW,M,M,M,3000.00,M,M,M,M,YBBN 180830Z 12007KT 9999 FEW030 24/17 Q1022 NOSIG
YBBN,2010-03-18 09:00,153.1292,-27.3917,75.20,60.80,60.90,120.00,8.00,M,30.18,M,6.21,M,FEW,M,M,M,3000.00,M,M,M,M,YBBN 180900Z 12008KT 9999 FEW030 24/16 Q1022 NOSIG
YBBN,2010-03-18 09:30,153.1292,-27.3917,75.20,60.80,60.90,120.00,6.00,M,30.21,M,6.21,M,FEW,M,M,M,3000.00,M,M,M,M,YBBN 180930Z 12006KT 9999 FEW030 24/16 Q1023 NOSIG
YBBN,2010-03-18 10:00,153.1292,-27.3917,75.20,62.60,64.91,110.00,7.00,M,30.21,M,6.21,M,FEW,M,M,M,3000.00,M,M,M,M,YBBN 181000Z 11007KT 9999 FEW030 24/17 Q1023 NOSIG
YBBN,2010-03-18 10:30,153.1292,-27.3917,75.20,62.60,64.91,110.00,8.00,M,30.21,M,6.21,M,M,M,M,M,M,M,M,M,// //////,YBBN 181030Z 11008KT //// // ////// 24/17 Q1023 RMK VIS:9999 NOSIG
YBBN,2010-03-18 11:00,153.1292,-27.3917,75.20,62.60,64.91,110.00,9.00,M,30.21,M,6.21,M,FEW,M,M,M,3000.00,M,M,M,M,YBBN 181100Z 11009KT 9999 FEW030 24/17 Q1023 NOSIG
YBBN,2010-03-18 11:30,153.1292,-27.3917,75.20,62.60,64.91,110.00,7.00,M,30.21,M,6.21,M,FEW,M,M,M,3000.00,M,M,M,M,YBBN 181130Z 11007KT 9999 FEW030 24/17 Q1023 NOSIG
YBBN,2010-03-18 12:00,153.1292,-27.3917,73.40,60.80,64.69,100.00,8.00,M,30.21,M,6.21,M,FEW,M,M,M,3000.00,M,M,M,M,YBBN 181200Z 10008KT 9999 FEW030 23/16 Q1023 NOSIG
YBBN,2010-03-18 12:30,153.1292,-27.3917,73.40,62.60,68.94,100.00,7.00,M,30.18,M,6.21,M,FEW,M,M,M,3000.00,M,M,M,M,YBBN 181230Z 10007KT 9999 FEW030 23/17 Q1022 NOSIG
YBBN,2010-03-18 13:00,153.1292,-27.3917,73.40,62.60,68.94,90.00,7.00,M,30.18,M,6.21,M,FEW,M,M,M,3000.00,M,M,M,M,YBBN 181300Z 09007KT 9999 FEW030 23/17 Q1022 NOSIG
YBBN,2010-03-18 13:30,153.1292,-27.3917,73.40,60.80,64.69,90.00,8.00,M,30.18,M,6.21,M,FEW,M,M,M,3000.00,M,M,M,M,YBBN 181330Z 09008KT 9999 FEW030 23/16 Q1022 NOSIG
YBBN,2010-03-18 14:00,153.1292,-27.3917,73.40,62.60,68.94,100.00,8.00,M,30.18,M,6.21,M,FEW,M,M,M,3000.00,M,M,M,M,YBBN 181400Z 10008KT 9999 FEW030 23/17 Q1022 NOSIG
YBBN,2010-03-18 14:30,153.1292,-27.3917,73.40,62.60,68.94,110.00,7.00,M,30.18,M,6.21,M,FEW,M,M,M,3000.00,M,M,M,M,YBBN 181430Z 11007KT 9999 FEW030 23/17 Q1022 NOSIG
YBBN,2010-03-18 15:00,153.1292,-27.3917,73.40,62.60,68.94,110.00,6.00,M,30.15,M,6.21,M,FEW,M,M,M,3000.00,M,M,M,M,YBBN 181500Z 11006KT 9999 FEW030 23/17 Q1021 NOSIG
YBBN,2010-03-18 15:30,153.1292,-27.3917,73.40,62.60,68.94,110.00,6.00,M,30.15,M,6.21,M,FEW,M,M,M,3000.00,M,M,M,M,YBBN 181530Z 11006KT 9999 FEW030 23/17 Q1021 NOSIG
YBBN,2010-03-18 16:00,153.1292,-27.3917,73.40,62.60,68.94,110.00,6.00,M,30.12,M,6.21,M,SCT,M,M,M,3000.00,M,M,M,M,YBBN 181600Z 11006KT 9999 SCT030 23/17 Q1020 NOSIG
YBBN,2010-03-18 16:30,153.1292,-27.3917,73.40,62.60,68.94,120.00,6.00,M,30.12,M,6.21,M,FEW,M,M,M,3000.00,M,M,M,M,YBBN 181630Z 12006KT 9999 FEW030 23/17 Q1020 NOSIG
YBBN,2010-03-18 17:00,153.1292,-27.3917,69.80,62.60,77.90,120.00,5.00,M,30.12,M,6.21,M,FEW,M,M,M,3000.00,M,M,M,M,YBBN 181700Z 12005KT 9999 FEW030 21/17 Q1020 NOSIG
YBBN,2010-03-18 17:30,153.1292,-27.3917,68.00,62.60,82.86,110.00,7.00,M,30.12,M,6.21,M,FEW,M,M,M,3000.00,M,M,M,M,YBBN 181730Z 11007KT 9999 FEW030 20/17 Q1020 NOSIG
YBBN,2010-03-18 18:00,153.1292,-27.3917,66.20,62.60,88.18,120.00,3.00,M,30.12,M,6.21,M,FEW,M,M,M,3000.00,M,M,M,M,YBBN 181800Z 12003KT 9999 FEW030 19/17 Q1020 NOSIG
YBBN,2010-03-18 18:30,153.1292,-27.3917,66.20,62.60,88.18,150.00,3.00,M,30.12,M,6.21,M,FEW,M,M,M,3000.00,M,M,M,M,YBBN 181830Z 15003KT 9999 FEW030 19/17 Q1020 NOSIG
YBBN,2010-03-18 19:00,153.1292,-27.3917,66.20,62.60,88.18,220.00,6.00,M,30.12,M,6.21,M,SCT,BKN,M,M,3600.00,6600.00,M,M,M,YBBN 181900Z 22006KT 9999 SCT036 BKN066 19/17 Q1020 NOSIG
YBBN,2010-03-18 19:30,153.1292,-27.3917,68.00,64.40,88.26,210.00,6.00,M,30.12,M,6.21,M,SCT,BKN,M,M,4000.00,6400.00,M,M,M,YBBN 181930Z 21006KT 9999 SCT040 BKN064 20/18 Q1020 NOSIG
YBBN,2010-03-18 20:00,153.1292,-27.3917,68.00,64.40,88.26,220.00,6.00,M,30.12,M,6.21,M,SCT,SCT,M,M,4000.00,6400.00,M,M,M,YBBN 182000Z 22006KT 9999 SCT040 SCT064 20/18 Q1020 NOSIG
YBBN,2010-03-18 20:30,153.1292,-27.3917,71.60,64.40,78.04,100.00,6.00,M,30.15,M,6.21,M,SCT,BKN,M,M,4000.00,6400.00,M,M,M,YBBN 182030Z 10006KT 9999 SCT040 BKN064 22/18 Q1021 NOSIG
YBBN,2010-03-18 21:00,153.1292,-27.3917,75.20,64.40,69.14,110.00,7.00,M,30.15,M,6.21,M,FEW,BKN,M,M,4000.00,6600.00,M,M,M,YBBN 182100Z 11007KT 9999 FEW040 BKN066 24/18 Q1021 NOSIG
YBBN,2010-03-18 21:30,153.1292,-27.3917,77.00,62.60,61.13,110.00,8.00,M,30.15,M,6.21,M,FEW,BKN,M,M,4000.00,6500.00,M,M,M,YBBN 182130Z 11008KT 9999 FEW040 BKN065 25/17 Q1021 NOSIG
YBBN,2010-03-18 22:00,153.1292,-27.3917,77.00,60.80,57.36,100.00,7.00,M,30.15,M,6.21,M,FEW,BKN,M,M,4000.00,6400.00,M,M,M,YBBN 182200Z 10007KT 9999 FEW040 BKN064 25/16 Q1021 NOSIG
YBBN,2010-03-18 22:30,153.1292,-27.3917,78.80,60.80,54.05,110.00,8.00,M,30.18,M,6.21,M,FEW,BKN,M,M,3500.00,6600.00,M,M,M,YBBN 182230Z 11008KT 9999 FEW035 BKN066 26/16 Q1022 NOSIG
YBBN,2010-03-18 23:00,153.1292,-27.3917,78.80,60.80,54.05,80.00,11.00,M,30.18,M,6.21,M,FEW,SCT,M,M,3500.00,6600.00,M,M,M,YBBN 182300Z 08011KT 9999 FEW035 SCT066 26/16 Q1022 NOSIG
YBBN,2010-03-18 23:30,153.1292,-27.3917,78.80,60.80,54.05,90.00,10.00,M,30.18,M,6.21,M,FEW,SCT,M,M,3500.00,6400.00,M,M,M,YBBN 182330Z 09010KT 9999 FEW035 SCT064 26/16 Q1022 NOSIG
