#DEBUG: Format Typ    -> comma
#DEBUG: Time Period   -> 2013-02-03 00:00:00+00:00 2013-02-04 00:00:00+00:00
#DEBUG: Time Zone     -> Etc/UTC
#DEBUG: Data Contact   -> daryl herzmann akrherz@iastate.edu 515-294-5978
#DEBUG: Entries Found -> -1
station,valid,lon,lat,tmpf, dwpf, relh, drct, sknt, p01i, alti, mslp, vsby, gust, skyc1, skyc2, skyc3, skyc4, skyl1, skyl2, skyl3, skyl4, presentwx, metar
YBBN,2013-02-03 00:00,153.1292,-27.3917,77.00,53.60,44.25,100.00,7.00,0.00,29.85,M,6.21,M,FEW,M,M,M,4000.00,M,M,M,M,YBBN 030000Z 10007KT 9999 FEW040 25/12 Q1011
YBBN,2013-02-03 00:30,153.1292,-27.3917,77.00,53.60,44.25,110.00,5.00,0.00,29.85,M,6.21,M,FEW,M,M,M,4000.00,M,M,M,M,YBBN 030030Z 11005KT 9999 FEW040 25/12 Q1011
YBBN,2013-02-03 01:00,153.1292,-27.3917,78.80,53.60,41.69,90.00,7.00,0.00,29.85,M,6.21,M,FEW,M,M,M,4000.00,M,M,M,M,YBBN 030100Z 09007KT 9999 FEW040 26/12 Q1011 NOSIG
YBBN,2013-02-03 01:30,153.1292,-27.3917,78.80,55.40,44.52,30.00,10.00,0.00,29.83,M,6.21,M,FEW,M,M,M,4000.00,M,M,M,M,YBBN 030130Z 03010KT 9999 FEW040 26/13 Q1010
YBBN,2013-02-03 02:00,153.1292,-27.3917,78.80,57.20,47.52,30.00,10.00,0.00,29.83,M,6.21,M,M,M,M,M,M,M,M,M,M,YBBN 030200Z 03010KT CAVOK 26/14 Q1010 NOSIG
YBBN,2013-02-03 02:30,153.1292,-27.3917,78.80,55.40,44.52,40.00,11.00,0.00,29.83,M,6.21,M,M,M,M,M,M,M,M,M,M,YBBN 030230Z 04011KT CAVOK 26/13 Q1010
YBBN,2013-02-03 03:00,153.1292,-27.3917,80.60,57.20,44.80,50.00,9.00,0.00,29.83,M,6.21,M,M,M,M,M,M,M,M,M,M,YBBN 030300Z 05009KT CAVOK 27/14 Q1010
YBBN,2013-02-03 03:30,153.1292,-27.3917,80.60,57.20,44.80,10.00,10.00,0.00,29.80,M,6.21,M,M,M,M,M,M,M,M,M,M,YBBN 030330Z 01010KT CAVOK 27/14 Q1009
YBBN,2013-02-03 04:00,153.1292,-27.3917,78.80,57.20,47.52,70.00,11.00,0.00,29.80,M,6.21,M,M,M,M,M,M,M,M,M,M,YBBN 030400Z 07011KT CAVOK 26/14 Q1009 NOSIG
YBBN,2013-02-03 04:30,153.1292,-27.3917,78.80,57.20,47.52,80.00,10.00,0.00,29.80,M,6.21,M,M,M,M,M,M,M,M,M,M,YBBN 030430Z 08010KT CAVOK 26/14 Q1009
YBBN,2013-02-03 05:00,153.1292,-27.3917,78.80,55.40,44.52,80.00,11.00,0.00,29.80,M,6.21,M,M,M,M,M,M,M,M,M,M,YBBN 030500Z 08011KT CAVOK 26/13 Q1009 NOSIG
YBBN,2013-02-03 05:30,153.1292,-27.3917,78.80,57.20,47.52,90.00,10.00,0.00,29.80,M,6.21,M,M,M,M,M,M,M,M,M,M,YBBN 030530Z 09010KT CAVOK 26/14 Q1009
YBBN,2013-02-03 06:00,153.1292,-27.3917,78.80,57.20,47.52,120.00,9.00,0.00,29.83,M,6.21,M,M,M,M,M,M,M,M,M,M,YBBN 030600Z 12009KT CAVOK 26/14 Q1010
YBBN,2013-02-03 06:30,153.1292,-27.3917,77.00,57.20,50.43,120.00,12.00,0.00,29.83,M,6.21,M,M,M,M,M,M,M,M,M,M,YBBN 030630Z 12012KT CAVOK 25/14 Q1010
YBBN,2013-02-03 07:00,153.1292,-27.3917,77.00,57.20,50.43,120.00,11.00,0.00,29.83,M,6.21,M,M,M,M,M,M,M,M,M,M,YBBN 030700Z 12011KT CAVOK 25/14 Q1010
YBBN,2013-02-03 07:30,153.1292,-27.3917,75.20,57.20,53.55,110.00,11.00,0.00,29.85,M,6.21,M,M,M,M,M,M,M,M,M,M,YBBN 030730Z 11011KT CAVOK 24/14 Q1011
YBBN,2013-02-03 08:00,153.1292,-27.3917,75.20,55.40,50.17,110.00,10.00,0.00,29.85,M,6.21,M,M,M,M,M,M,M,M,M,M,YBBN 030800Z 11010KT CAVOK 24/13 Q1011
YBBN,2013-02-03 08:30,153.1292,-27.3917,75.20,57.20,53.55,120.00,9.00,0.00,29.88,M,6.21,M,M,M,M,M,M,M,M,M,M,YBBN 030830Z 12009KT CAVOK 24/14 Q1012
YBBN,2013-02-03 09:00,153.1292,-27.3917,73.40,55.40,53.29,120.00,9.00,0.00,29.88,M,6.21,M,M,M,M,M,M,M,M,M,M,YBBN 030900Z 12009KT CAVOK 23/13 Q1012 NOSIG
YBBN,2013-02-03 09:30,153.1292,-27.3917,75.20,53.60,46.98,130.00,9.00,0.00,29.91,M,6.21,M,M,M,M,M,M,M,M,M,M,YBBN 030930Z 13009KT CAVOK 24/12 Q1013
YBBN,2013-02-03 10:00,153.1292,-27.3917,75.20,53.60,46.98,130.00,8.00,0.00,29.91,M,6.21,M,M,M,M,M,M,M,M,M,M,YBBN 031000Z 13008KT CAVOK 24/12 Q1013
YBBN,2013-02-03 10:30,153.1292,-27.3917,75.20,55.40,50.17,130.00,7.00,0.00,29.91,M,6.21,M,M,M,M,M,M,M,M,M,M,YBBN 031030Z 13007KT CAVOK 24/13 Q1013 RMK 6AC090
YBBN,2013-02-03 11:00,153.1292,-27.3917,75.20,55.40,50.17,130.00,5.00,0.00,29.94,M,6.21,M,M,M,M,M,M,M,M,M,M,YBBN 031100Z 13005KT CAVOK 24/13 Q1014 NOSIG
YBBN,2013-02-03 11:30,153.1292,-27.3917,75.20,51.80,43.97,130.00,8.00,0.00,29.94,M,6.21,M,M,M,M,M,M,M,M,M,M,YBBN 031130Z 13008KT CAVOK 24/11 Q1014 RMK 6SC060
YBBN,2013-02-03 12:00,153.1292,-27.3917,75.20,53.60,46.98,150.00,5.00,0.00,29.94,M,6.21,M,M,M,M,M,M,M,M,M,M,YBBN 031200Z 15005KT CAVOK 24/12 Q1014 RMK 6SC085
YBBN,2013-02-03 12:30,153.1292,-27.3917,73.40,53.60,49.90,150.00,6.00,0.00,29.94,M,6.21,M,M,M,M,M,M,M,M,M,M,YBBN 031230Z 15006KT CAVOK 23/12 Q1014 RMK 5SC065
YBBN,2013-02-03 13:00,153.1292,-27.3917,73.40,53.60,49.90,160.00,7.00,0.00,29.94,M,6.21,M,M,M,M,M,M,M,M,M,M,YBBN 031300Z 16007KT CAVOK 23/12 Q1014 NOSIG
YBBN,2013-02-03 13:30,153.1292,-27.3917,73.40,53.60,49.90,160.00,5.00,0.00,29.94,M,6.21,M,M,M,M,M,M,M,M,M,M,YBBN 031330Z 16005KT CAVOK 23/12 Q1014
YBBN,2013-02-03 14:00,153.1292,-27.3917,73.40,51.80,46.71,140.00,6.00,0.00,29.94,M,6.21,M,M,M,M,M,M,M,M,M,M,YBBN 031400Z 14006KT CAVOK 23/11 Q1014 NOSIG
YBBN,2013-02-03 14:30,153.1292,-27.3917,71.60,51.80,49.64,130.00,5.00,0.00,29.94,M,6.21,M,M,M,M,M,M,M,M,M,M,YBBN 031430Z 13005KT CAVOK 22/11 Q1014
YBBN,2013-02-03 15:00,153.1292,-27.3917,69.80,53.60,56.38,170.00,4.00,0.00,29.94,M,6.21,M,M,M,M,M,M,M,M,M,M,YBBN 031500Z 17004KT CAVOK 21/12 Q1014 NOSIG
YBBN,2013-02-03 15:30,153.1292,-27.3917,68.00,53.60,59.97,200.00,6.00,0.00,29.94,M,6.21,M,M,M,M,M,M,M,M,M,M,YBBN 031530Z 20006KT CAVOK 20/12 Q1014
YBBN,2013-02-03 16:00,153.1292,-27.3917,68.00,55.40,64.04,200.00,6.00,0.00,29.94,M,6.21,M,M,M,M,M,M,M,M,M,M,YBBN 031600Z 20006KT CAVOK 20/13 Q1014
YBBN,2013-02-03 16:30,153.1292,-27.3917,68.00,55.40,64.04,200.00,6.00,0.00,29.94,M,6.21,M,M,M,M,M,M,M,M,M,M,YBBN 031630Z 20006KT CAVOK 20/13 Q1014
YBBN,2013-02-03 17:00,153.1292,-27.3917,66.20,57.20,72.74,210.00,5.00,0.00,29.94,M,6.21,M,M,M,M,M,M,M,M,M,M,YBBN 031700Z 21005KT CAVOK 19/14 Q1014 NOSIG
YBBN,2013-02-03 17:30,153.1292,-27.3917,64.40,57.20,77.45,250.00,7.00,0.00,29.94,M,6.21,M,M,M,M,M,M,M,M,M,M,YBBN 031730Z 25007KT CAVOK 18/14 Q1014
YBBN,2013-02-03 18:00,153.1292,-27.3917,68.00,57.20,68.35,200.00,5.00,0.00,29.94,M,6.21,M,M,M,M,M,M,M,M,M,M,YBBN 031800Z 20005KT CAVOK 20/14 Q1014 RMK 6SC075
YBBN,2013-02-03 18:30,153.1292,-27.3917,66.20,59.00,77.60,210.00,6.00,0.00,29.94,M,6.21,M,M,M,M,M,M,M,M,M,M,YBBN 031830Z 21006KT CAVOK 19/15 Q1014 RMK 7SC072
YBBN,2013-02-03 19:00,153.1292,-27.3917,68.00,59.00,72.92,200.00,5.00,0.00,29.97,M,6.21,M,M,M,M,M,M,M,M,M,M,YBBN 031900Z 20005KT CAVOK 20/15 Q1015 NOSIG
YBBN,2013-02-03 19:30,153.1292,-27.3917,68.00,59.00,72.92,210.00,6.00,0.00,29.97,M,6.21,M,M,M,M,M,M,M,M,M,M,YBBN 031930Z 21006KT CAVOK 20/15 Q1015 RMK 7SC068
YBBN,2013-02-03 20:00,153.1292,-27.3917,68.00,57.20,68.35,210.00,7.00,0.00,29.97,M,6.21,M,M,M,M,M,M,M,M,M,M,YBBN 032000Z 21007KT CAVOK 20/14 Q1015 RMK 7SC060
YBBN,2013-02-03 20:30,153.1292,-27.3917,69.80,59.00,68.55,200.00,7.00,0.00,29.97,M,6.21,M,M,M,M,M,M,M,M,M,M,YBBN 032030Z 20007KT CAVOK 21/15 Q1015 RMK 7SC054
YBBN,2013-02-03 21:00,153.1292,-27.3917,71.60,57.20,60.44,190.00,7.00,0.00,30.00,M,6.21,M,FEW,BKN,M,M,4500.00,5500.00,M,M,M,YBBN 032100Z 19007KT 9999 FEW045 BKN055 22/14 Q1016 NOSIG
YBBN,2013-02-03 21:30,153.1292,-27.3917,71.60,55.40,56.63,200.00,8.00,0.00,30.00,M,6.21,M,FEW,BKN,BKN,M,4500.00,5000.00,7500.00,M,M,YBBN 032130Z 20008KT 9999 FEW045 BKN050 BKN075 22/13 Q1016
YBBN,2013-02-03 22:00,153.1292,-27.3917,73.40,57.20,56.88,190.00,8.00,0.00,30.03,M,6.21,M,FEW,BKN,M,M,4500.00,5800.00,M,M,M,YBBN 032200Z 19008KT 9999 FEW045 BKN058 23/14 Q1017 NOSIG
YBBN,2013-02-03 22:30,153.1292,-27.3917,73.40,55.40,53.29,190.00,8.00,0.00,30.03,M,6.21,M,FEW,BKN,BKN,M,4500.00,5500.00,7500.00,M,M,YBBN 032230Z 19008KT 9999 FEW045 BKN055 BKN075 23/13 Q1017 RMK RAIN TO N
YBBN,2013-02-03 23:00,153.1292,-27.3917,73.40,55.40,53.29,200.00,7.00,0.00,30.03,M,6.21,M,M,M,M,M,M,M,M,M,M,YBBN 032300Z 20007KT CAVOK 23/13 Q1017
YBBN,2013-02-03 23:30,153.1292,-27.3917,77.00,57.20,50.43,210.00,7.00,0.00,30.03,M,6.21,M,FEW,SCT,BKN,M,4500.00,5500.00,7500.00,M,M,YBBN 032330Z 21007KT 9999 FEW045 SCT055 BKN075 25/14 Q1017
