#DEBUG: Format Typ    -> comma
#DEBUG: Time Period   -> 2013-11-13 00:00:00+00:00 2013-11-14 00:00:00+00:00
#DEBUG: Time Zone     -> Etc/UTC
#DEBUG: Data Contact   -> daryl herzmann akrherz@iastate.edu 515-294-5978
#DEBUG: Entries Found -> -1
station,valid,lon,lat,tmpf, dwpf, relh, drct, sknt, p01i, alti, mslp, vsby, gust, skyc1, skyc2, skyc3, skyc4, skyl1, skyl2, skyl3, skyl4, presentwx, metar
YBBN,2013-11-13 00:00,153.1292,-27.3917,82.40,64.40,54.55,30.00,11.00,0.00,30.00,M,6.21,M,FEW,BKN,M,M,2800.00,18000.00,M,M,M,YBBN 130000Z 03011KT 9999 FEW028 BKN180 28/18 Q1016 NOSIG
YBBN,2013-11-13 00:30,153.1292,-27.3917,80.60,64.40,57.84,30.00,14.00,0.00,29.97,M,6.21,M,FEW,M,M,M,2800.00,M,M,M,M,YBBN 130030Z 03014KT 9999 FEW028 27/18 Q1015
YBBN,2013-11-13 01:00,153.1292,-27.3917,80.60,64.40,57.84,40.00,14.00,0.00,29.97,M,6.21,M,FEW,FEW,M,M,2800.00,2800.00,M,M,M,YBBN 130100Z 04014KT 9999 FEW028 FEW028TCU 27/18 Q1015 INTER 0300/0400 4000 SHRA BKN018
YBBN,2013-11-13 01:30,153.1292,-27.3917,82.40,66.20,58.08,30.00,15.00,0.00,29.97,M,6.21,M,FEW,FEW,M,M,3500.00,3500.00,M,M,M,YBBN 130130Z 03015KT 9999 FEW035 FEW035TCU 28/19 Q1015
YBBN,2013-11-13 02:00,153.1292,-27.3917,82.40,66.20,58.08,30.00,16.00,0.00,29.94,M,6.21,M,FEW,FEW,M,M,3500.00,3500.00,M,M,M,YBBN 130200Z 03016KT 9999 FEW035 FEW035TCU 28/19 Q1014 INTER 0300/0500 4000 SHRA BKN018
YBBN,2013-11-13 02:30,153.1292,-27.3917,82.40,62.60,51.21,30.00,16.00,0.00,29.94,M,6.21,M,FEW,FEW,M,M,3500.00,3500.00,M,M,M,YBBN 130230Z 03016KT 9999 FEW035 FEW035TCU 28/17 Q1014
YBBN,2013-11-13 03:00,153.1292,-27.3917,82.40,60.80,48.05,30.00,15.00,0.00,29.94,M,6.21,M,FEW,FEW,M,M,3500.00,3500.00,M,M,M,YBBN 130300Z 03015KT 9999 FEW035 FEW035TCU 28/16 Q1014
YBBN,2013-11-13 03:30,153.1292,-27.3917,84.20,60.80,45.34,20.00,15.00,0.00,29.91,M,6.21,M,FEW,FEW,M,M,3500.00,3500.00,M,M,M,YBBN 130330Z 02015KT 9999 FEW035 FEW035TCU 29/16 Q1013
YBBN,2013-11-13 04:00,153.1292,-27.3917,80.60,66.20,61.58,20.00,15.00,0.00,29.91,M,6.21,M,FEW,FEW,M,M,3500.00,3500.00,M,M,M,YBBN 130400Z 02015KT 9999 FEW035 FEW035TCU 27/19 Q1013 INTER 0400/0700 4000 SHRA BKN018
YBBN,2013-11-13 04:30,153.1292,-27.3917,80.60,68.00,65.54,30.00,16.00,0.00,29.88,M,6.21,M,FEW,M,M,M,3200.00,M,M,M,M,YBBN 130430Z 03016KT 9999 FEW032 27/20 Q1012
YBBN,2013-11-13 05:00,153.1292,-27.3917,80.60,68.00,65.54,30.00,15.00,0.00,29.88,M,6.21,M,FEW,M,M,M,1600.00,M,M,M,M,YBBN 130500Z 03015KT 9999 FEW016 27/20 Q1012
YBBN,2013-11-13 05:30,153.1292,-27.3917,80.60,69.80,69.71,10.00,16.00,0.00,29.88,M,6.21,M,FEW,SCT,M,M,1600.00,2000.00,M,M,M,YBBN 130530Z 01016KT 9999 FEW016 SCT020 27/21 Q1012
YBBN,2013-11-13 06:00,153.1292,-27.3917,77.00,68.00,73.78,10.00,14.00,0.00,29.88,M,6.21,M,FEW,BKN,M,M,1800.00,30000.00,M,M,M,YBBN 130600Z 01014KT 9999 FEW018 BKN300 25/20 Q1012
YBBN,2013-11-13 06:30,153.1292,-27.3917,77.00,69.80,78.48,10.00,15.00,0.00,29.88,M,6.21,M,FEW,BKN,M,M,1600.00,30000.00,M,M,M,YBBN 130630Z 01015KT 9999 FEW016 BKN300 25/21 Q1012
YBBN,2013-11-13 07:00,153.1292,-27.3917,75.20,66.20,73.61,10.00,16.00,0.00,29.88,M,6.21,M,FEW,SCT,BKN,M,1600.00,18000.00,28000.00,M,M,YBBN 130700Z 01016KT 9999 FEW016 SCT180 BKN280 24/19 Q1012
YBBN,2013-11-13 07:30,153.1292,-27.3917,75.20,68.00,78.34,20.00,14.00,0.00,29.91,M,6.21,M,FEW,SCT,BKN,M,1500.00,18000.00,25000.00,M,M,YBBN 130730Z 02014KT 9999 FEW015 SCT180 BKN250 24/20 Q1013
YBBN,2013-11-13 08:00,153.1292,-27.3917,75.20,69.80,83.32,20.00,15.00,0.00,29.91,M,6.21,M,SCT,SCT,BKN,M,1300.00,1800.00,25000.00,M,M,YBBN 130800Z 02015KT 9999 SCT013 SCT018 BKN250 24/21 Q1013
YBBN,2013-11-13 08:30,153.1292,-27.3917,73.40,69.80,88.51,20.00,17.00,0.00,29.91,M,6.21,M,SCT,BKN,M,M,1300.00,2000.00,M,M,M,YBBN 130830Z 02017KT 9999 SCT013 BKN020 23/21 Q1013
YBBN,2013-11-13 09:00,153.1292,-27.3917,73.40,69.80,88.51,20.00,14.00,0.00,29.94,M,6.21,M,BKN,BKN,M,M,1300.00,2100.00,M,M,M,YBBN 130900Z 02014KT 9999 BKN013 BKN021 23/21 Q1014
YBBN,2013-11-13 09:30,153.1292,-27.3917,73.40,69.80,88.51,20.00,15.00,0.00,29.94,M,6.21,M,FEW,BKN,M,M,1300.00,14000.00,M,M,M,YBBN 130930Z 02015KT 9999 FEW013 BKN140 23/21 Q1014
YBBN,2013-11-13 10:00,153.1292,-27.3917,75.20,69.80,83.32,20.00,12.00,0.00,29.97,M,6.21,M,FEW,BKN,M,M,1300.00,14000.00,M,M,M,YBBN 131000Z 02012KT 9999 FEW013 BKN140 24/21 Q1015 TEMPO 1000/1300 VRB20G35KT 2000 TSRAGR BKN015 SCT030CB
YBBN,2013-11-13 10:30,153.1292,-27.3917,75.20,69.80,83.32,10.00,13.00,0.00,29.94,M,6.21,M,FEW,SCT,BKN,M,1400.00,3400.00,6200.00,M,M,YBBN 131030Z 01013KT 9999 FEW014 SCT034 BKN062 24/21 Q1014
YBBN,2013-11-13 11:00,153.1292,-27.3917,75.20,69.80,83.32,10.00,13.00,0.00,29.97,M,6.21,M,FEW,SCT,BKN,M,1400.00,6400.00,9300.00,M,M,YBBN 131100Z 01013KT 9999 FEW014 SCT064 BKN093 24/21 Q1015
YBBN,2013-11-13 11:30,153.1292,-27.3917,73.40,69.80,88.51,20.00,12.00,0.00,29.97,M,6.21,M,SCT,SCT,BKN,FEW,1600.00,3000.00,12000.00,3500.00,VCTS -SHRA,YBBN 131130Z 02012KT 9999 VCTS -SHRA SCT016 SCT030 BKN120 FEW035CB 23/21 Q1015
YBBN,2013-11-13 12:00,153.1292,-27.3917,73.40,71.60,94.10,30.00,7.00,0.00,29.97,M,5.59,M,FEW,SCT,BKN,M,1400.00,2800.00,4000.00,M,-SHRA,YBBN 131200Z 03007KT 9000 -SHRA FEW014 SCT028 BKN040 23/22 Q1015
YBBN,2013-11-13 12:30,153.1292,-27.3917,73.40,71.60,94.10,20.00,7.00,0.00,29.97,M,6.21,M,FEW,SCT,BKN,M,1400.00,4500.00,7200.00,M,-SHRA,YBBN 131230Z 02007KT 9999 -SHRA FEW014 SCT045 BKN072 23/22 Q1015
YBBN,2013-11-13 13:00,153.1292,-27.3917,73.40,71.60,94.10,10.00,9.00,0.00,30.00,M,5.59,M,FEW,BKN,OVC,FEW,2700.00,6800.00,10500.00,3000.00,-TSRA,YBBN 131300Z 01009KT 9000 -TSRA FEW027 BKN068 OVC105 FEW030CB 23/22 Q1016
YBBN,2013-11-13 13:20,153.1292,-27.3917,73.40,71.60,94.10,350.00,8.00,0.00,30.00,M,5.59,M,BKN,BKN,BKN,FEW,1000.00,2800.00,5100.00,3000.00,-SHRA VCTS,YBBN 131320Z 35008KT 9000 -SHRA VCTS BKN010 BKN028 BKN051 FEW030CB 23/22 Q1016 RETS
YBBN,2013-11-13 13:30,153.1292,-27.3917,71.60,68.00,88.43,310.00,14.00,0.00,30.00,M,2.49,25.00,FEW,BKN,BKN,FEW,600.00,1100.00,2300.00,3000.00,SHRA VCTS,YBBN 131330Z 31014G25KT 4000 SHRA VCTS FEW006 BKN011 BKN023 FEW030CB 22/20 Q1016 RETS
YBBN,2013-11-13 14:00,153.1292,-27.3917,66.20,64.40,93.92,350.00,16.00,0.00,29.97,M,5.59,M,SCT,SCT,BKN,M,1300.00,3600.00,6300.00,M,SHRA,YBBN 131400Z 35016KT 9000 SHRA SCT013 SCT036 BKN063 19/18 Q1015 RETS
YBBN,2013-11-13 15:00,153.1292,-27.3917,68.00,66.20,93.97,50.00,6.00,0.00,29.94,M,4.97,M,FEW,BKN,BKN,M,1200.00,5500.00,6800.00,M,-RA,YBBN 131500Z 05006KT 8000 -RA FEW012 BKN055 BKN068 20/19 Q1014 TEMPO 1500/1700 VRB20G35KT 2000 TSRA BKN010 SCT030CB
YBBN,2013-11-13 15:30,153.1292,-27.3917,68.00,66.20,93.97,360.00,6.00,0.00,29.94,M,6.21,M,FEW,BKN,BKN,M,800.00,10000.00,12000.00,M,-RA,YBBN 131530Z 36006KT 9999 -RA FEW008 BKN100 BKN120 20/19 Q1014
YBBN,2013-11-13 16:00,153.1292,-27.3917,66.20,64.40,93.92,310.00,7.00,0.00,29.94,M,6.21,M,FEW,BKN,BKN,M,1000.00,12000.00,17000.00,M,M,YBBN 131600Z 31007KT 9999 FEW010 BKN120 BKN170 19/18 Q1014 TEMPO 1630/1700 VRB20G35KT 2000 TSRA BKN010 SCT030CB
YBBN,2013-11-13 16:30,153.1292,-27.3917,66.20,64.40,93.92,280.00,8.00,0.00,29.91,M,6.21,M,FEW,SCT,BKN,M,1200.00,4500.00,12000.00,M,M,YBBN 131630Z 28008KT 9999 FEW012 SCT045 BKN120 19/18 Q1013
YBBN,2013-11-13 17:00,153.1292,-27.3917,66.20,64.40,93.92,260.00,3.00,0.00,29.91,M,6.21,M,FEW,SCT,BKN,M,4500.00,11000.00,14000.00,M,M,YBBN 131700Z 26003KT 9999 FEW045 SCT110 BKN140 19/18 Q1013 NOSIG
YBBN,2013-11-13 17:30,153.1292,-27.3917,66.20,64.40,93.92,320.00,4.00,0.00,29.91,M,6.21,M,M,M,M,M,M,M,M,M,M,YBBN 131730Z 32004KT CAVOK 19/18 Q1013 RMK 7AS160
YBBN,2013-11-13 18:00,153.1292,-27.3917,66.20,64.40,93.92,280.00,4.00,0.00,29.91,M,6.21,M,M,M,M,M,M,M,M,M,M,YBBN 131800Z 28004KT CAVOK 19/18 Q1013 NOSIG
YBBN,2013-11-13 18:30,153.1292,-27.3917,66.20,64.40,93.92,250.00,7.00,0.00,29.91,M,6.21,M,M,M,M,M,M,M,M,M,M,YBBN 131830Z 25007KT CAVOK 19/18 Q1013 RMK 7AC130
YBBN,2013-11-13 19:00,153.1292,-27.3917,66.20,64.40,93.92,150.00,3.00,0.00,29.94,M,6.21,M,M,M,M,M,M,M,M,M,M,YBBN 131900Z 15003KT CAVOK 19/18 Q1014 NOSIG
YBBN,2013-11-13 19:30,153.1292,-27.3917,68.00,64.40,88.26,0.00,0.00,0.00,29.97,M,6.21,M,FEW,BKN,M,M,3000.00,16000.00,M,M,M,YBBN 131930Z 00000KT 9999 FEW030 BKN160 20/18 Q1015
YBBN,2013-11-13 20:00,153.1292,-27.3917,68.00,64.40,88.26,0.00,0.00,0.00,29.97,M,6.21,M,FEW,BKN,M,M,3000.00,15000.00,M,M,M,YBBN 132000Z 00000KT 9999 FEW030 BKN150 20/18 Q1015 NOSIG
YBBN,2013-11-13 20:30,153.1292,-27.3917,69.80,66.20,88.34,240.00,5.00,0.00,29.97,M,6.21,M,FEW,SCT,BKN,M,3000.00,5500.00,15000.00,M,M,YBBN 132030Z 24005KT 9999 FEW030 SCT055 BKN150 21/19 Q1015
YBBN,2013-11-13 21:00,153.1292,-27.3917,69.80,66.20,88.34,280.00,2.00,0.00,29.97,M,6.21,M,FEW,BKN,M,M,3200.00,16000.00,M,M,M,YBBN 132100Z 28002KT 9999 FEW032 BKN160 21/19 Q1015 RMK SH TO NE
YBBN,2013-11-13 21:30,153.1292,-27.3917,73.40,64.40,73.44,270.00,5.00,0.00,29.97,M,6.21,M,FEW,SCT,M,M,3500.00,16000.00,M,M,M,YBBN 132130Z 27005KT 9999 FEW035 SCT160 23/18 Q1015
YBBN,2013-11-13 22:00,153.1292,-27.3917,73.40,66.20,78.19,310.00,5.00,0.00,29.97,M,6.21,M,FEW,SCT,M,M,1800.00,20000.00,M,M,M,YBBN 132200Z 31005KT 9999 FEW018 SCT200 23/19 Q1015 FM2300 02010KT 9999 -SHRA SCT025 BKN090
YBBN,2013-11-13 22:30,153.1292,-27.3917,75.20,68.00,78.34,320.00,7.00,0.00,29.97,M,6.21,M,FEW,SCT,M,M,3500.00,13000.00,M,M,M,YBBN 132230Z 32007KT 9999 FEW035 SCT130 24/20 Q1015
YBBN,2013-11-13 23:00,153.1292,-27.3917,77.00,66.20,69.33,340.00,10.00,0.00,29.97,M,6.21,M,FEW,SCT,M,M,2200.00,9000.00,M,M,M,YBBN 132300Z 34010KT 9999 FEW022 SCT090 25/19 Q1015 FM2315 02010KT 9999 -SHRA SCT025 BKN090
YBBN,2013-11-13 23:30,153.1292,-27.3917,78.80,68.00,69.52,360.00,10.00,0.00,29.97,M,6.21,M,FEW,SCT,M,M,2500.00,9000.00,M,M,M,YBBN 132330Z 36010KT 9999 FEW025 SCT090 26/20 Q1015
