#DEBUG: Format Typ    -> comma
#DEBUG: Time Period   -> 2011-11-05 00:00:00+00:00 2011-11-06 00:00:00+00:00
#DEBUG: Time Zone     -> Etc/UTC
#DEBUG: Data Contact   -> daryl herzmann akrherz@iastate.edu 515-294-5978
#DEBUG: Entries Found -> -1
station,valid,lon,lat,tmpf, dwpf, relh, drct, sknt, p01i, alti, mslp, vsby, gust, skyc1, skyc2, skyc3, skyc4, skyl1, skyl2, skyl3, skyl4, presentwx, metar
YBBN,2011-11-05 00:00,153.1292,-27.3917,73.40,59.00,60.67,80.00,10.00,M,30.12,M,6.21,M,SCT,BKN,M,M,2800.00,6000.00,M,M,M,YBBN 050000Z 08010KT 9999 SCT028 BKN060 23/15 Q1020 NOSIG
YBBN,2011-11-05 00:30,153.1292,-27.3917,73.40,59.00,60.67,70.00,10.00,M,30.09,M,6.21,M,FEW,BKN,M,M,2800.00,6000.00,M,M,M,YBBN 050030Z 07010KT 9999 FEW028 BKN060 23/15 Q1019
YBBN,2011-11-05 01:00,153.1292,-27.3917,75.20,59.00,57.12,70.00,10.00,M,30.09,M,6.21,M,FEW,BKN,M,M,2800.00,6500.00,M,M,M,YBBN 050100Z 07010KT 9999 FEW028 BKN065 24/15 Q1019 NOSIG
YBBN,2011-11-05 01:30,153.1292,-27.3917,75.20,59.00,57.12,60.00,11.00,M,30.09,M,6.21,M,FEW,BKN,M,M,2800.00,6800.00,M,M,M,YBBN 050130Z 06011KT 9999 FEW028 BKN068 24/15 Q1019
YBBN,2011-11-05 02:00,153.1292,-27.3917,75.20,59.00,57.12,70.00,11.00,M,30.09,M,6.21,M,FEW,BKN,M,M,3000.00,7000.00,M,M,M,YBBN 050200Z 07011KT 9999 FEW030 BKN070 24/15 Q1019 NOSIG
YBBN,2011-11-05 02:30,153.1292,-27.3917,77.00,59.00,53.80,70.00,11.00,M,30.09,M,6.21,M,FEW,BKN,M,M,3000.00,7200.00,M,M,M,YBBN 050230Z 07011KT 9999 FEW030 BKN072 25/15 Q1019
YBBN,2011-11-05 03:00,153.1292,-27.3917,75.20,57.20,53.55,70.00,10.00,M,30.06,M,6.21,M,FEW,SCT,BKN,M,3000.00,7200.00,27000.00,M,M,YBBN 050300Z 07010KT 9999 FEW030 SCT072 BKN270 24/14 Q1018 NOSIG
YBBN,2011-11-05 03:30,153.1292,-27.3917,75.20,57.20,53.55,70.00,12.00,M,30.06,M,6.21,M,FEW,BKN,M,M,3000.00,27000.00,M,M,M,YBBN 050330Z 07012KT 9999 FEW030 BKN270 24/14 Q1018
YBBN,2011-11-05 04:00,153.1292,-27.3917,75.20,57.20,53.55,70.00,11.00,M,30.06,M,6.21,M,FEW,BKN,M,M,3000.00,27000.00,M,M,M,YBBN 050400Z 07011KT 9999 FEW030 BKN270 24/14 Q1018 NOSIG
YBBN,2011-11-05 04:30,153.1292,-27.3917,75.20,55.40,50.17,40.00,13.00,M,30.03,M,6.21,M,FEW,BKN,M,M,3000.00,27000.00,M,M,M,YBBN 050430Z 04013KT 9999 FEW030 BKN270 24/13 Q1017
YBBN,2011-11-05 05:00,153.1292,-27.3917,75.20,57.20,53.55,50.00,11.00,M,30.03,M,6.21,M,FEW,BKN,M,M,3500.00,27000.00,M,M,M,YBBN 050500Z 05011KT 9999 FEW035 BKN270 24/14 Q1017 NOSIG
YBBN,2011-11-05 05:30,153.1292,-27.3917,75.20,53.60,46.98,60.00,9.00,M,30.03,M,6.21,M,FEW,BKN,M,M,3500.00,27000.00,M,M,M,YBBN 050530Z 06009KT 9999 FEW035 BKN270 24/12 Q1017
YBBN,2011-11-05 06:00,153.1292,-27.3917,73.40,53.60,49.90,50.00,9.00,M,30.03,M,6.21,M,FEW,BKN,M,M,3500.00,27000.00,M,M,M,YBBN 050600Z 05009KT 9999 FEW035 BKN270 23/12 Q1017 NOSIG
YBBN,2011-11-05 06:30,153.1292,-27.3917,73.40,55.40,53.29,70.00,8.00,M,30.03,M,6.21,M,FEW,BKN,M,M,3500.00,27000.00,M,M,M,YBBN 050630Z 07008KT 9999 FEW035 BKN270 23/13 Q1017
YBBN,2011-11-05 07:00,153.1292,-27.3917,73.40,57.20,56.88,60.00,10.00,M,30.03,M,6.21,M,FEW,BKN,M,M,3500.00,27000.00,M,M,M,YBBN 050700Z 06010KT 9999 FEW035 BKN270 23/14 Q1017 NOSIG
YBBN,2011-11-05 07:30,153.1292,-27.3917,71.60,57.20,60.44,70.00,10.00,M,30.03,M,6.21,M,FEW,BKN,M,M,3500.00,27000.00,M,M,M,YBBN 050730Z 07010KT 9999 FEW035 BKN270 22/14 Q1017
YBBN,2011-11-05 08:00,153.1292,-27.3917,71.60,57.20,60.44,60.00,8.00,M,30.06,M,6.21,M,FEW,BKN,M,M,3500.00,27000.00,M,M,M,YBBN 050800Z 06008KT 9999 FEW035 BKN270 22/14 Q1018 NOSIG
YBBN,2011-11-05 08:30,153.1292,-27.3917,69.80,57.20,64.26,50.00,8.00,M,30.06,M,6.21,M,M,M,M,M,M,M,M,M,M,YBBN 050830Z 05008KT CAVOK 21/14 Q1018
YBBN,2011-11-05 09:00,153.1292,-27.3917,69.80,57.20,64.26,60.00,8.00,M,30.06,M,6.21,M,M,M,M,M,M,M,M,M,M,YBBN 050900Z 06008KT CAVOK 21/14 Q1018 NOSIG
YBBN,2011-11-05 09:30,153.1292,-27.3917,69.80,57.20,64.26,50.00,7.00,M,30.06,M,6.21,M,M,M,M,M,M,M,M,M,M,YBBN 050930Z 05007KT CAVOK 21/14 Q1018
YBBN,2011-11-05 10:00,153.1292,-27.3917,69.80,57.20,64.26,50.00,8.00,M,30.06,M,6.21,M,FEW,M,M,M,3000.00,M,M,M,M,YBBN 051000Z 05008KT 9999 FEW030 21/14 Q1018 NOSIG
YBBN,2011-11-05 10:30,153.1292,-27.3917,68.00,57.20,68.35,50.00,6.00,M,30.06,M,6.21,M,FEW,M,M,M,3000.00,M,M,M,M,YBBN 051030Z 05006KT 9999 FEW030 20/14 Q1018
YBBN,2011-11-05 11:00,153.1292,-27.3917,66.20,57.20,72.74,40.00,6.00,M,30.06,M,6.21,M,FEW,M,M,M,3000.00,M,M,M,M,YBBN 051100Z 04006KT 9999 FEW030 19/14 Q1018 NOSIG
YBBN,2011-11-05 11:30,153.1292,-27.3917,66.20,57.20,72.74,40.00,7.00,M,30.06,M,6.21,M,FEW,M,M,M,3000.00,M,M,M,M,YBBN 051130Z 04007KT 9999 FEW030 19/14 Q1018
YBBN,2011-11-05 12:00,153.1292,-27.3917,66.20,57.20,72.74,50.00,5.00,M,30.09,M,6.21,M,FEW,M,M,M,3200.00,M,M,M,M,YBBN 051200Z 05005KT 9999 FEW032 19/14 Q1019 NOSIG
YBBN,2011-11-05 12:30,153.1292,-27.3917,66.20,57.20,72.74,40.00,6.00,M,30.06,M,6.21,M,FEW,M,M,M,3200.00,M,M,M,M,YBBN 051230Z 04006KT 9999 FEW032 19/14 Q1018
YBBN,2011-11-05 13:00,153.1292,-27.3917,66.20,57.20,72.74,50.00,6.00,M,30.06,M,6.21,M,FEW,M,M,M,3200.00,M,M,M,M,YBBN 051300Z 05006KT 9999 FEW032 19/14 Q1018 NOSIG
YBBN,2011-11-05 13:30,153.1292,-27.3917,66.20,57.20,72.74,50.00,5.00,M,30.06,M,6.21,M,FEW,M,M,M,3200.00,M,M,M,M,YBBN 051330Z 05005KT 9999 FEW032 19/14 Q1018
YBBN,2011-11-05 14:00,153.1292,-27.3917,66.20,57.20,72.74,50.00,5.00,M,30.06,M,6.21,M,SCT,M,M,M,3600.00,M,M,M,M,YBBN 051400Z 05005KT 9999 SCT036 19/14 Q1018 NOSIG
YBBN,2011-11-05 14:30,153.1292,-27.3917,66.20,57.20,72.74,50.00,6.00,M,30.03,M,6.21,M,FEW,M,M,M,3200.00,M,M,M,M,YBBN 051430Z 05006KT 9999 FEW032 19/14 Q1017
YBBN,2011-11-05 15:00,153.1292,-27.3917,64.40,57.20,77.45,40.00,4.00,M,30.03,M,6.21,M,FEW,M,M,M,3200.00,M,M,M,M,YBBN 051500Z 04004KT 9999 FEW032 18/14 Q1017 NOSIG
YBBN,2011-11-05 15:30,153.1292,-27.3917,66.20,57.20,72.74,60.00,4.00,M,30.03,M,6.21,M,FEW,M,M,M,3200.00,M,M,M,M,YBBN 051530Z 06004KT 9999 FEW032 19/14 Q1017
YBBN,2011-11-05 16:00,153.1292,-27.3917,62.60,59.00,88.00,40.00,1.00,M,30.00,M,6.21,M,FEW,M,M,M,3000.00,M,M,M,M,YBBN 051600Z 04001KT 9999 FEW030 17/15 Q1016 NOSIG
YBBN,2011-11-05 16:30,153.1292,-27.3917,62.60,59.00,88.00,230.00,3.00,M,30.00,M,6.21,M,FEW,SCT,M,M,3000.00,4000.00,M,M,M,YBBN 051630Z 23003KT 9999 FEW030 SCT040 17/15 Q1016
YBBN,2011-11-05 17:00,153.1292,-27.3917,62.60,59.00,88.00,230.00,4.00,M,30.00,M,6.21,M,FEW,BKN,M,M,2800.00,4000.00,M,M,M,YBBN 051700Z 23004KT 9999 FEW028 BKN040 17/15 Q1016 NOSIG
YBBN,2011-11-05 17:30,153.1292,-27.3917,64.40,59.00,82.62,0.00,0.00,M,30.00,M,6.21,M,FEW,BKN,M,M,2800.00,4000.00,M,M,M,YBBN 051730Z 00000KT 9999 FEW028 BKN040 18/15 Q1016
YBBN,2011-11-05 18:00,153.1292,-27.3917,62.60,59.00,88.00,0.00,0.00,M,30.00,M,6.21,M,FEW,BKN,M,M,2800.00,4000.00,M,M,M,YBBN 051800Z 00000KT 9999 FEW028 BKN040 17/15 Q1016 NOSIG
YBBN,2011-11-05 18:30,153.1292,-27.3917,62.60,59.00,88.00,210.00,5.00,M,30.00,M,6.21,M,FEW,BKN,M,M,2800.00,4000.00,M,M,M,YBBN 051830Z 21005KT 9999 FEW028 BKN040 17/15 Q1016
YBBN,2011-11-05 19:00,153.1292,-27.3917,62.60,59.00,88.00,340.00,5.00,M,30.03,M,6.21,M,FEW,SCT,BKN,M,2800.00,4000.00,24000.00,M,M,YBBN 051900Z 34005KT 9999 FEW028 SCT040 BKN240 17/15 Q1017 NOSIG
YBBN,2011-11-05 19:30,153.1292,-27.3917,62.60,60.80,93.83,220.00,5.00,M,30.03,M,6.21,M,FEW,SCT,BKN,M,3200.00,4000.00,24000.00,M,M,YBBN 051930Z 22005KT 9999 FEW032 SCT040 BKN240 17/16 Q1017
YBBN,2011-11-05 20:00,153.1292,-27.3917,66.20,60.80,82.74,260.00,6.00,M,30.03,M,6.21,M,FEW,BKN,M,M,3000.00,4000.00,M,M,M,YBBN 052000Z 26006KT 9999 FEW030 BKN040 19/16 Q1017 NOSIG
YBBN,2011-11-05 20:30,153.1292,-27.3917,68.00,60.80,77.75,220.00,7.00,M,30.06,M,6.21,M,FEW,BKN,M,M,3000.00,4000.00,M,M,M,YBBN 052030Z 22007KT 9999 FEW030 BKN040 20/16 Q1018
YBBN,2011-11-05 21:00,153.1292,-27.3917,68.00,59.00,72.92,230.00,7.00,M,30.06,M,6.21,M,FEW,BKN,M,M,3000.00,4300.00,M,M,M,YBBN 052100Z 23007KT 9999 FEW030 BKN043 20/15 Q1018 NOSIG
YBBN,2011-11-05 21:30,153.1292,-27.3917,69.80,59.00,68.55,230.00,5.00,M,30.06,M,6.21,M,FEW,BKN,M,M,3000.00,4700.00,M,M,M,YBBN 052130Z 23005KT 9999 FEW030 BKN047 21/15 Q1018
YBBN,2011-11-05 22:00,153.1292,-27.3917,71.60,60.80,68.75,220.00,3.00,M,30.06,M,6.21,M,FEW,BKN,M,M,3000.00,4700.00,M,M,M,YBBN 052200Z 22003KT 9999 FEW030 BKN047 22/16 Q1018 NOSIG
YBBN,2011-11-05 22:30,153.1292,-27.3917,73.40,57.20,56.88,360.00,7.00,M,30.06,M,6.21,M,SCT,M,M,M,3000.00,M,M,M,M,YBBN 052230Z 36007KT 9999 SCT030 23/14 Q1018
YBBN,2011-11-05 23:00,153.1292,-27.3917,75.20,59.00,57.12,360.00,8.00,M,30.06,M,6.21,M,SCT,M,M,M,3200.00,M,M,M,M,YBBN 052300Z 36008KT 9999 SCT032 24/15 Q1018 NOSIG
YBBN,2011-11-05 23:30,153.1292,-27.3917,75.20,59.00,57.12,10.00,7.00,M,30.06,M,6.21,M,FEW,M,M,M,3300.00,M,M,M,M,YBBN 052330Z 01007KT 9999 FEW033 24/15 Q1018
