#DEBUG: Format Typ    -> comma
#DEBUG: Time Period   -> 2012-12-26 00:00:00+00:00 2012-12-27 00:00:00+00:00
#DEBUG: Time Zone     -> Etc/UTC
#DEBUG: Data Contact   -> daryl herzmann akrherz@iastate.edu 515-294-5978
#DEBUG: Entries Found -> -1
station,valid,lon,lat,tmpf, dwpf, relh, drct, sknt, p01i, alti, mslp, vsby, gust, skyc1, skyc2, skyc3, skyc4, skyl1, skyl2, skyl3, skyl4, presentwx, metar
YBBN,2012-12-26 00:00,153.1292,-27.3917,71.60,68.00,88.43,290.00,6.00,0.00,29.85,M,6.21,M,SCT,BKN,M,M,800.00,8000.00,M,M,M,YBBN 260000Z 29006KT 9999 SCT008 BKN080 22/20 Q1011
YBBN,2012-12-26 00:30,153.1292,-27.3917,71.60,66.20,83.09,300.00,3.00,0.00,29.85,M,6.21,M,SCT,BKN,M,M,1400.00,12000.00,M,M,M,YBBN 260030Z 30003KT 9999 SCT014 BKN120 22/19 Q1011
YBBN,2012-12-26 01:00,153.1292,-27.3917,71.60,66.20,83.09,240.00,3.00,0.00,29.85,M,6.21,M,FEW,BKN,M,M,1500.00,13000.00,M,M,M,YBBN 260100Z 24003KT 9999 FEW015 BKN130 22/19 Q1011 INTER 0100/0400 3000 SHRA BKN010
YBBN,2012-12-26 01:30,153.1292,-27.3917,73.40,66.20,78.19,240.00,8.00,0.00,29.85,M,6.21,M,FEW,BKN,M,M,1500.00,13000.00,M,M,M,YBBN 260130Z 24008KT 9999 FEW015 BKN130 23/19 Q1011
YBBN,2012-12-26 02:00,153.1292,-27.3917,75.20,64.40,69.14,200.00,8.00,0.00,29.83,M,6.21,M,FEW,BKN,M,M,1700.00,13000.00,M,M,M,YBBN 260200Z 20008KT 9999 FEW017 BKN130 24/18 Q1010 INTER 0200/0500 3000 SHRA BKN010
YBBN,2012-12-26 02:30,153.1292,-27.3917,75.20,64.40,69.14,200.00,9.00,0.00,29.83,M,6.21,M,FEW,BKN,M,M,1800.00,14000.00,M,M,M,YBBN 260230Z 20009KT 9999 FEW018 BKN140 24/18 Q1010
YBBN,2012-12-26 03:00,153.1292,-27.3917,77.00,64.40,65.12,210.00,11.00,0.00,29.83,M,6.21,M,FEW,BKN,M,M,2000.00,14000.00,M,M,M,YBBN 260300Z 21011KT 9999 FEW020 BKN140 25/18 Q1010 INTER 0300/0600 3000 SHRA BKN010
YBBN,2012-12-26 03:30,153.1292,-27.3917,77.00,62.60,61.13,200.00,11.00,0.00,29.83,M,6.21,M,FEW,BKN,M,M,2600.00,14000.00,M,M,M,YBBN 260330Z 20011KT 9999 FEW026 BKN140 25/17 Q1010
YBBN,2012-12-26 04:00,153.1292,-27.3917,77.00,64.40,65.12,200.00,11.00,0.00,29.83,M,6.21,M,FEW,BKN,M,M,3000.00,14000.00,M,M,M,YBBN 260400Z 20011KT 9999 FEW030 BKN140 25/18 Q1010 INTER 0400/0700 3000 SHRA BKN010
YBBN,2012-12-26 04:30,153.1292,-27.3917,77.00,64.40,65.12,200.00,7.00,0.00,29.83,M,6.21,M,FEW,BKN,M,M,3000.00,16000.00,M,M,M,YBBN 260430Z 20007KT 9999 FEW030 BKN160 25/18 Q1010
YBBN,2012-12-26 05:00,153.1292,-27.3917,77.00,64.40,65.12,170.00,5.00,0.00,29.80,M,6.21,M,FEW,SCT,BKN,M,3000.00,8000.00,18000.00,M,M,YBBN 260500Z 17005KT 9999 FEW030 SCT080 BKN180 25/18 Q1009 RMK DISTANT CB TOPS TO SW AND S
YBBN,2012-12-26 05:30,153.1292,-27.3917,78.80,64.40,61.36,190.00,7.00,0.00,29.80,M,6.21,M,FEW,BKN,M,M,3500.00,17000.00,M,M,M,YBBN 260530Z 19007KT 9999 FEW035 BKN170 26/18 Q1009 RMK DISTANT CB TOPS TO S
YBBN,2012-12-26 06:00,153.1292,-27.3917,78.80,62.60,57.60,150.00,7.00,0.00,29.80,M,6.21,M,FEW,BKN,M,M,3500.00,20000.00,M,M,M,YBBN 260600Z 15007KT 9999 FEW035 BKN200 26/17 Q1009 INTER 0600/0900 3000 SHRA BKN010
YBBN,2012-12-26 06:30,153.1292,-27.3917,80.60,64.40,57.84,110.00,7.00,0.00,29.80,M,6.21,M,FEW,BKN,M,M,4000.00,22000.00,M,M,M,YBBN 260630Z 11007KT 9999 FEW040 BKN220 27/18 Q1009
YBBN,2012-12-26 07:00,153.1292,-27.3917,77.00,68.00,73.78,100.00,8.00,0.00,29.80,M,6.21,M,FEW,BKN,M,M,3300.00,22000.00,M,M,M,YBBN 260700Z 10008KT 9999 FEW033 BKN220 25/20 Q1009
YBBN,2012-12-26 07:30,153.1292,-27.3917,77.00,68.00,73.78,100.00,8.00,0.00,29.83,M,6.21,M,FEW,SCT,M,M,2000.00,21000.00,M,M,M,YBBN 260730Z 10008KT 9999 FEW020 SCT210 25/20 Q1010
YBBN,2012-12-26 08:00,153.1292,-27.3917,77.00,66.20,69.33,120.00,9.00,0.00,29.83,M,6.21,M,FEW,SCT,M,M,2500.00,22000.00,M,M,M,YBBN 260800Z 12009KT 9999 FEW025 SCT220 25/19 Q1010 NOSIG
YBBN,2012-12-26 08:30,153.1292,-27.3917,77.00,66.20,69.33,130.00,10.00,0.00,29.83,M,6.21,M,FEW,SCT,M,M,1800.00,22000.00,M,M,M,YBBN 260830Z 13010KT 9999 FEW018 SCT220 25/19 Q1010 RMK DISTANT CB TOP TO SW
YBBN,2012-12-26 09:00,153.1292,-27.3917,75.20,66.20,73.61,140.00,10.00,0.00,29.85,M,6.21,M,FEW,SCT,BKN,M,1800.00,2000.00,7000.00,M,M,YBBN 260900Z 14010KT 9999 FEW018 SCT020 BKN070 24/19 Q1011
YBBN,2012-12-26 09:30,153.1292,-27.3917,75.20,66.20,73.61,140.00,9.00,0.00,29.85,M,6.21,M,FEW,BKN,M,M,1800.00,7000.00,M,M,M,YBBN 260930Z 14009KT 9999 FEW018 BKN070 24/19 Q1011
YBBN,2012-12-26 10:00,153.1292,-27.3917,73.40,66.20,78.19,150.00,9.00,0.00,29.88,M,6.21,M,FEW,BKN,M,M,1800.00,7000.00,M,M,M,YBBN 261000Z 15009KT 9999 FEW018 BKN070 23/19 Q1012 NOSIG
YBBN,2012-12-26 10:30,153.1292,-27.3917,73.40,64.40,73.44,160.00,8.00,0.00,29.88,M,6.21,M,FEW,BKN,M,M,1800.00,7000.00,M,M,M,YBBN 261030Z 16008KT 9999 FEW018 BKN070 23/18 Q1012
YBBN,2012-12-26 11:00,153.1292,-27.3917,73.40,64.40,73.44,170.00,7.00,0.00,29.88,M,6.21,M,FEW,SCT,M,M,1800.00,14000.00,M,M,M,YBBN 261100Z 17007KT 9999 FEW018 SCT140 23/18 Q1012 NOSIG
YBBN,2012-12-26 11:30,153.1292,-27.3917,71.60,64.40,78.04,170.00,8.00,0.00,29.91,M,6.21,M,FEW,SCT,M,M,1800.00,14000.00,M,M,M,YBBN 261130Z 17008KT 9999 FEW018 SCT140 22/18 Q1013
YBBN,2012-12-26 12:00,153.1292,-27.3917,71.60,64.40,78.04,160.00,7.00,0.00,29.91,M,6.21,M,FEW,SCT,M,M,1800.00,24000.00,M,M,M,YBBN 261200Z 16007KT 9999 FEW018 SCT240 22/18 Q1013
YBBN,2012-12-26 12:30,153.1292,-27.3917,71.60,66.20,83.09,150.00,8.00,0.00,29.91,M,6.21,M,FEW,SCT,M,M,1800.00,24000.00,M,M,M,YBBN 261230Z 15008KT 9999 FEW018 SCT240 22/19 Q1013
YBBN,2012-12-26 13:00,153.1292,-27.3917,71.60,64.40,78.04,160.00,7.00,0.00,29.91,M,6.21,M,FEW,SCT,M,M,1800.00,14000.00,M,M,M,YBBN 261300Z 16007KT 9999 FEW018 SCT140 22/18 Q1013
YBBN,2012-12-26 13:30,153.1292,-27.3917,71.60,64.40,78.04,170.00,8.00,0.00,29.91,M,6.21,M,FEW,SCT,M,M,1800.00,10000.00,M,M,M,YBBN 261330Z 17008KT 9999 FEW018 SCT100 22/18 Q1013
YBBN,2012-12-26 14:00,153.1292,-27.3917,71.60,66.20,83.09,160.00,7.00,0.00,29.91,M,6.21,M,FEW,M,M,M,1800.00,M,M,M,M,YBBN 261400Z 16007KT 9999 FEW018 22/19 Q1013 NOSIG
YBBN,2012-12-26 14:30,153.1292,-27.3917,71.60,64.40,78.04,150.00,6.00,0.00,29.88,M,6.21,M,FEW,SCT,M,M,1800.00,24000.00,M,M,M,YBBN 261430Z 15006KT 9999 FEW018 SCT240 22/18 Q1012
YBBN,2012-12-26 15:00,153.1292,-27.3917,71.60,64.40,78.04,190.00,5.00,0.00,29.88,M,6.21,M,FEW,SCT,M,M,1800.00,12000.00,M,M,M,YBBN 261500Z 19005KT 9999 FEW018 SCT120 22/18 Q1012 NOSIG
YBBN,2012-12-26 15:30,153.1292,-27.3917,69.80,64.40,82.98,210.00,5.00,0.00,29.88,M,6.21,M,FEW,SCT,M,M,1800.00,4000.00,M,M,M,YBBN 261530Z 21005KT 9999 FEW018 SCT040 21/18 Q1012
YBBN,2012-12-26 16:00,153.1292,-27.3917,68.00,64.40,88.26,200.00,5.00,0.00,29.88,M,6.21,M,FEW,M,M,M,1800.00,M,M,M,M,YBBN 261600Z 20005KT 9999 FEW018 20/18 Q1012
YBBN,2012-12-26 16:30,153.1292,-27.3917,68.00,64.40,88.26,210.00,7.00,0.00,29.88,M,6.21,M,FEW,M,M,M,1500.00,M,M,M,M,YBBN 261630Z 21007KT 9999 FEW015 20/18 Q1012
YBBN,2012-12-26 17:00,153.1292,-27.3917,68.00,64.40,88.26,210.00,6.00,0.00,29.88,M,6.21,M,FEW,SCT,M,M,2000.00,4000.00,M,M,M,YBBN 261700Z 21006KT 9999 FEW020 SCT040 20/18 Q1012 NOSIG
YBBN,2012-12-26 17:30,153.1292,-27.3917,66.20,64.40,93.92,210.00,6.00,0.00,29.88,M,6.21,M,FEW,M,M,M,2000.00,M,M,M,M,YBBN 261730Z 21006KT 9999 FEW020 19/18 Q1012
YBBN,2012-12-26 18:00,153.1292,-27.3917,68.00,62.60,82.86,200.00,7.00,0.00,29.88,M,6.21,M,FEW,M,M,M,2000.00,M,M,M,M,YBBN 261800Z 20007KT 9999 FEW020 20/17 Q1012
YBBN,2012-12-26 18:30,153.1292,-27.3917,66.20,62.60,88.18,200.00,6.00,0.00,29.88,M,6.21,M,FEW,SCT,M,M,2000.00,3500.00,M,M,M,YBBN 261830Z 20006KT 9999 FEW020 SCT035 19/17 Q1012
YBBN,2012-12-26 19:00,153.1292,-27.3917,68.00,62.60,82.86,210.00,7.00,0.00,29.88,M,6.21,M,FEW,SCT,M,M,2000.00,3500.00,M,M,M,YBBN 261900Z 21007KT 9999 FEW020 SCT035 20/17 Q1012 NOSIG
YBBN,2012-12-26 19:30,153.1292,-27.3917,68.00,62.60,82.86,200.00,6.00,0.00,29.91,M,6.21,M,FEW,SCT,M,M,2000.00,3500.00,M,M,M,YBBN 261930Z 20006KT 9999 FEW020 SCT035 20/17 Q1013
YBBN,2012-12-26 20:00,153.1292,-27.3917,69.80,62.60,77.90,210.00,8.00,0.00,29.91,M,6.21,M,FEW,SCT,M,M,2100.00,3800.00,M,M,M,YBBN 262000Z 21008KT 9999 FEW021 SCT038 21/17 Q1013 NOSIG
YBBN,2012-12-26 20:30,153.1292,-27.3917,71.60,62.60,73.27,210.00,10.00,0.00,29.94,M,6.21,M,FEW,M,M,M,2000.00,M,M,M,M,YBBN 262030Z 21010KT 9999 FEW020 22/17 Q1014
YBBN,2012-12-26 21:00,153.1292,-27.3917,73.40,62.60,68.94,210.00,10.00,0.00,29.94,M,6.21,M,FEW,M,M,M,2500.00,M,M,M,M,YBBN 262100Z 21010KT 9999 FEW025 23/17 Q1014 NOSIG
YBBN,2012-12-26 21:30,153.1292,-27.3917,75.20,62.60,64.91,170.00,8.00,0.00,29.94,M,6.21,M,FEW,M,M,M,3300.00,M,M,M,M,YBBN 262130Z 17008KT 9999 FEW033 24/17 Q1014
YBBN,2012-12-26 22:00,153.1292,-27.3917,77.00,62.60,61.13,180.00,9.00,0.00,29.94,M,6.21,M,FEW,M,M,M,3000.00,M,M,M,M,YBBN 262200Z 18009KT 9999 FEW030 25/17 Q1014
YBBN,2012-12-26 22:30,153.1292,-27.3917,78.80,64.40,61.36,170.00,7.00,0.00,29.94,M,6.21,M,FEW,M,M,M,2900.00,M,M,M,M,YBBN 262230Z 17007KT 9999 FEW029 26/18 Q1014
YBBN,2012-12-26 23:00,153.1292,-27.3917,78.80,64.40,61.36,130.00,9.00,0.00,29.94,M,6.21,M,FEW,M,M,M,3000.00,M,M,M,M,YBBN 262300Z 13009KT 9999 FEW030 26/18 Q1014 NOSIG
YBBN,2012-12-26 23:30,153.1292,-27.3917,78.80,62.60,57.60,130.00,9.00,0.00,29.94,M,6.21,M,BKN,M,M,M,3400.00,M,M,M,M,YBBN 262330Z 13009KT 9999 BKN034 26/17 Q1014
