#DEBUG: Format Typ    -> comma
#DEBUG: Time Period   -> 2015-01-06 00:00:00+00:00 2015-01-07 00:00:00+00:00
#DEBUG: Time Zone     -> Etc/UTC
#DEBUG: Data Contact   -> daryl herzmann akrherz@iastate.edu 515-294-5978
#DEBUG: Entries Found -> -1
station,valid,lon,lat,tmpf, dwpf, relh, drct, sknt, p01i, alti, mslp, vsby, gust, skyc1, skyc2, skyc3, skyc4, skyl1, skyl2, skyl3, skyl4, presentwx, metar
YBBN,2015-01-06 00:00,153.1292,-27.3917,82.40,66.20,58.08,90.00,11.00,0.00,30.03,M,6.21,M,SCT,BKN,M,M,3300.00,27000.00,M,M,M,YBBN 060000Z 09011KT 9999 SCT033 BKN270 28/19 Q1017 NOSIG
YBBN,2015-01-06 00:30,153.1292,-27.3917,82.40,68.00,61.81,130.00,10.00,0.00,30.03,M,6.21,M,SCT,BKN,M,M,3300.00,27000.00,M,M,M,YBBN 060030Z 13010KT 9999 SCT033 BKN270 28/20 Q1017
YBBN,2015-01-06 01:00,153.1292,-27.3917,82.40,68.00,61.81,100.00,11.00,0.00,30.03,M,6.21,M,BKN,BKN,M,M,3100.00,27000.00,M,M,M,YBBN 060100Z 10011KT 9999 BKN031 BKN270 28/20 Q1017
YBBN,2015-01-06 01:30,153.1292,-27.3917,84.20,68.00,58.32,100.00,10.00,0.00,30.03,M,6.21,M,SCT,SCT,M,M,3100.00,27000.00,M,M,M,YBBN 060130Z 10010KT 9999 SCT031 SCT270 29/20 Q1017
YBBN,2015-01-06 02:00,153.1292,-27.3917,82.40,64.40,54.55,120.00,10.00,0.00,30.03,M,6.21,M,SCT,SCT,M,M,3300.00,27000.00,M,M,M,YBBN 060200Z 12010KT 9999 SCT033 SCT270 28/18 Q1017 NOSIG
YBBN,2015-01-06 02:30,153.1292,-27.3917,82.40,64.40,54.55,130.00,11.00,0.00,30.03,M,6.21,M,SCT,M,M,M,3300.00,M,M,M,M,YBBN 060230Z 13011KT 9999 SCT033 28/18 Q1017
YBBN,2015-01-06 03:00,153.1292,-27.3917,82.40,64.40,54.55,110.00,11.00,0.00,30.03,M,6.21,M,SCT,M,M,M,3500.00,M,M,M,M,YBBN 060300Z 11011KT 9999 SCT035 28/18 Q1017 NOSIG
YBBN,2015-01-06 03:30,153.1292,-27.3917,82.40,64.40,54.55,110.00,13.00,0.00,30.03,M,6.21,M,SCT,M,M,M,3500.00,M,M,M,M,YBBN 060330Z 11013KT 9999 SCT035 28/18 Q1017
YBBN,2015-01-06 04:00,153.1292,-27.3917,82.40,62.60,51.21,110.00,12.00,0.00,30.00,M,6.21,M,SCT,M,M,M,3500.00,M,M,M,M,YBBN 060400Z 11012KT 9999 SCT035 28/17 Q1016 NOSIG
YBBN,2015-01-06 04:30,153.1292,-27.3917,82.40,62.60,51.21,120.00,12.00,0.00,30.00,M,6.21,M,FEW,M,M,M,3500.00,M,M,M,M,YBBN 060430Z 12012KT 9999 FEW035 28/17 Q1016
YBBN,2015-01-06 05:00,153.1292,-27.3917,82.40,64.40,54.55,120.00,11.00,0.00,30.00,M,6.21,M,FEW,M,M,M,3500.00,M,M,M,M,YBBN 060500Z 12011KT 9999 FEW035 28/18 Q1016 NOSIG
YBBN,2015-01-06 05:30,153.1292,-27.3917,80.60,60.80,50.95,120.00,13.00,0.00,30.00,M,6.21,M,FEW,M,M,M,3500.00,M,M,M,M,YBBN 060530Z 12013KT 9999 FEW035 27/16 Q1016
YBBN,2015-01-06 06:00,153.1292,-27.3917,80.60,62.60,54.30,120.00,12.00,0.00,30.00,M,6.21,M,FEW,M,M,M,3500.00,M,M,M,M,YBBN 060600Z 12012KT 9999 FEW035 27/17 Q1016 NOSIG
YBBN,2015-01-06 06:30,153.1292,-27.3917,80.60,62.60,54.30,120.00,11.00,0.00,30.00,M,6.21,M,FEW,M,M,M,3500.00,M,M,M,M,YBBN 060630Z 12011KT 9999 FEW035 27/17 Q1016
YBBN,2015-01-06 07:00,153.1292,-27.3917,80.60,62.60,54.30,130.00,11.00,0.00,30.00,M,6.21,M,SCT,M,M,M,3500.00,M,M,M,M,YBBN 060700Z 13011KT 9999 SCT035 27/17 Q1016
YBBN,2015-01-06 07:30,153.1292,-27.3917,78.80,64.40,61.36,120.00,10.00,0.00,30.03,M,6.21,M,SCT,M,M,M,3500.00,M,M,M,M,YBBN 060730Z 12010KT 9999 SCT035 26/18 Q1017
YBBN,2015-01-06 08:00,153.1292,-27.3917,78.80,62.60,57.60,120.00,11.00,0.00,30.03,M,6.21,M,BKN,M,M,M,3500.00,M,M,M,M,YBBN 060800Z 12011KT 9999 BKN035 26/17 Q1017
YBBN,2015-01-06 08:30,153.1292,-27.3917,77.00,62.60,61.13,110.00,11.00,0.00,30.03,M,6.21,M,FEW,SCT,M,M,3400.00,3500.00,M,M,M,YBBN 060830Z 11011KT 9999 FEW034 SCT035 25/17 Q1017
YBBN,2015-01-06 09:00,153.1292,-27.3917,77.00,62.60,61.13,120.00,9.00,0.00,30.03,M,6.21,M,FEW,SCT,M,M,3000.00,3200.00,M,M,M,YBBN 060900Z 12009KT 9999 FEW030 SCT032 25/17 Q1017 NOSIG
YBBN,2015-01-06 09:30,153.1292,-27.3917,77.00,62.60,61.13,130.00,10.00,0.00,30.03,M,6.21,M,FEW,SCT,M,M,3000.00,3200.00,M,M,M,YBBN 060930Z 13010KT 9999 FEW030 SCT032 25/17 Q1017
YBBN,2015-01-06 10:00,153.1292,-27.3917,77.00,62.60,61.13,110.00,10.00,0.00,30.03,M,6.21,M,FEW,SCT,M,M,3000.00,3200.00,M,M,M,YBBN 061000Z 11010KT 9999 FEW030 SCT032 25/17 Q1017 NOSIG
YBBN,2015-01-06 10:30,153.1292,-27.3917,77.00,62.60,61.13,110.00,9.00,0.00,30.06,M,6.21,M,FEW,SCT,M,M,3000.00,3500.00,M,M,M,YBBN 061030Z 11009KT 9999 FEW030 SCT035 25/17 Q1018
YBBN,2015-01-06 11:00,153.1292,-27.3917,77.00,64.40,65.12,100.00,9.00,0.00,30.03,M,6.21,M,FEW,SCT,M,M,2900.00,3300.00,M,M,M,YBBN 061100Z 10009KT 9999 FEW029 SCT033 25/18 Q1017
YBBN,2015-01-06 11:30,153.1292,-27.3917,77.00,62.60,61.13,120.00,10.00,0.00,30.03,M,6.21,M,SCT,M,M,M,3200.00,M,M,M,M,YBBN 061130Z 12010KT 9999 SCT032 25/17 Q1017
YBBN,2015-01-06 12:00,153.1292,-27.3917,77.00,60.80,57.36,120.00,10.00,0.00,30.03,M,6.21,M,FEW,M,M,M,3200.00,M,M,M,M,YBBN 061200Z 12010KT 9999 FEW032 25/16 Q1017 NOSIG
YBBN,2015-01-06 12:30,153.1292,-27.3917,75.20,62.60,64.91,110.00,9.00,0.00,30.03,M,6.21,M,FEW,M,M,M,3200.00,M,M,M,M,YBBN 061230Z 11009KT 9999 FEW032 24/17 Q1017
YBBN,2015-01-06 13:00,153.1292,-27.3917,75.20,62.60,64.91,110.00,9.00,0.00,30.03,M,6.21,M,FEW,M,M,M,3200.00,M,M,M,M,YBBN 061300Z 11009KT 9999 FEW032 24/17 Q1017
YBBN,2015-01-06 13:30,153.1292,-27.3917,75.20,62.60,64.91,120.00,9.00,0.00,30.03,M,6.21,M,FEW,M,M,M,3200.00,M,M,M,M,YBBN 061330Z 12009KT 9999 FEW032 24/17 Q1017
YBBN,2015-01-06 14:00,153.1292,-27.3917,73.40,62.60,68.94,120.00,9.00,0.00,30.00,M,6.21,M,SCT,M,M,M,3000.00,M,M,M,M,YBBN 061400Z 12009KT 9999 SCT030 23/17 Q1016 NOSIG
YBBN,2015-01-06 14:30,153.1292,-27.3917,73.40,64.40,73.44,170.00,6.00,0.00,30.00,M,6.21,M,SCT,M,M,M,3000.00,M,M,M,M,YBBN 061430Z 17006KT 9999 SCT030 23/18 Q1016
YBBN,2015-01-06 15:00,153.1292,-27.3917,73.40,64.40,73.44,170.00,7.00,0.00,30.00,M,6.21,M,SCT,M,M,M,3000.00,M,M,M,M,YBBN 061500Z 17007KT 9999 SCT030 23/18 Q1016 NOSIG
YBBN,2015-01-06 15:30,153.1292,-27.3917,73.40,64.40,73.44,160.00,7.00,0.00,29.97,M,6.21,M,SCT,SCT,M,M,3000.00,5200.00,M,M,M,YBBN 061530Z 16007KT 9999 SCT030 SCT052 23/18 Q1015
YBBN,2015-01-06 16:00,153.1292,-27.3917,71.60,64.40,78.04,160.00,6.00,0.00,29.97,M,6.21,M,FEW,SCT,M,M,3000.00,5200.00,M,M,M,YBBN 061600Z 16006KT 9999 FEW030 SCT052 22/18 Q1015
YBBN,2015-01-06 16:30,153.1292,-27.3917,71.60,64.40,78.04,180.00,7.00,0.00,29.97,M,6.21,M,FEW,SCT,M,M,2400.00,2800.00,M,M,-SHRA,YBBN 061630Z 18007KT 9999 -SHRA FEW024 SCT028 22/18 Q1015
YBBN,2015-01-06 17:00,153.1292,-27.3917,71.60,64.40,78.04,170.00,6.00,0.00,29.97,M,6.21,M,FEW,SCT,M,M,2400.00,6000.00,M,M,VCSH,YBBN 061700Z 17006KT 9999 VCSH FEW024 SCT060 22/18 Q1015
YBBN,2015-01-06 17:30,153.1292,-27.3917,71.60,64.40,78.04,190.00,7.00,0.00,29.97,M,6.21,M,FEW,SCT,M,M,2400.00,2800.00,M,M,M,YBBN 061730Z 19007KT 9999 FEW024 SCT028 22/18 Q1015
YBBN,2015-01-06 18:00,153.1292,-27.3917,71.60,64.40,78.04,200.00,7.00,0.00,29.97,M,6.21,M,FEW,SCT,M,M,2400.00,2800.00,M,M,M,YBBN 061800Z 20007KT 9999 FEW024 SCT028 22/18 Q1015
YBBN,2015-01-06 18:30,153.1292,-27.3917,71.60,66.20,83.09,190.00,6.00,0.00,30.00,M,6.21,M,FEW,SCT,M,M,2400.00,2800.00,M,M,M,YBBN 061830Z 19006KT 9999 FEW024 SCT028 22/19 Q1016
YBBN,2015-01-06 19:00,153.1292,-27.3917,69.80,64.40,82.98,200.00,7.00,0.00,30.00,M,6.21,M,FEW,SCT,M,M,2400.00,2800.00,M,M,M,YBBN 061900Z 20007KT 9999 FEW024 SCT028 21/18 Q1016
YBBN,2015-01-06 19:30,153.1292,-27.3917,69.80,64.40,82.98,200.00,8.00,0.00,30.00,M,6.21,M,FEW,SCT,M,M,2000.00,2600.00,M,M,M,YBBN 061930Z 20008KT 9999 FEW020 SCT026 21/18 Q1016
YBBN,2015-01-06 20:00,153.1292,-27.3917,71.60,64.40,78.04,180.00,10.00,0.00,30.00,M,6.21,M,FEW,SCT,M,M,2000.00,5000.00,M,M,M,YBBN 062000Z 18010KT 9999 FEW020 SCT050 22/18 Q1016
YBBN,2015-01-06 20:30,153.1292,-27.3917,73.40,66.20,78.19,170.00,9.00,0.00,30.00,M,6.21,M,FEW,SCT,M,M,2500.00,8000.00,M,M,VCSH,YBBN 062030Z 17009KT 9999 VCSH FEW025 SCT080 23/19 Q1016
YBBN,2015-01-06 21:00,153.1292,-27.3917,75.20,66.20,73.61,170.00,10.00,0.00,30.00,M,6.21,M,FEW,BKN,M,M,2500.00,8000.00,M,M,VCSH,YBBN 062100Z 17010KT 9999 VCSH FEW025 BKN080 24/19 Q1016
YBBN,2015-01-06 21:30,153.1292,-27.3917,77.00,66.20,69.33,170.00,9.00,0.00,30.03,M,6.21,M,FEW,SCT,BKN,M,2500.00,4800.00,8300.00,M,VCSH,YBBN 062130Z 17009KT 9999 VCSH FEW025 SCT048 BKN083 25/19 Q1017
YBBN,2015-01-06 22:00,153.1292,-27.3917,78.80,66.20,65.33,140.00,11.00,0.00,30.03,M,6.21,M,FEW,SCT,M,M,2500.00,8500.00,M,M,VCSH,YBBN 062200Z 14011KT 9999 VCSH FEW025 SCT085 26/19 Q1017
YBBN,2015-01-06 22:30,153.1292,-27.3917,78.80,66.20,65.33,150.00,9.00,0.00,30.03,M,6.21,M,SCT,M,M,M,2400.00,M,M,M,M,YBBN 062230Z 15009KT 9999 SCT024 26/19 Q1017
YBBN,2015-01-06 23:00,153.1292,-27.3917,78.80,66.20,65.33,120.00,12.00,0.00,30.03,M,6.21,M,FEW,BKN,M,M,1800.00,2300.00,M,M,M,YBBN 062300Z 12012KT 9999 FEW018 BKN023 26/19 Q1017
YBBN,2015-01-06 23:30,153.1292,-27.3917,78.80,66.20,65.33,130.00,10.00,0.00,30.03,M,6.21,M,FEW,BKN,M,M,1500.00,2200.00,M,M,VCSH,YBBN 062330Z 13010KT 9999 VCSH FEW015 BKN022 26/19 Q1017
