#DEBUG: Format Typ    -> comma
#DEBUG: Time Period   -> 2015-01-24 00:00:00+00:00 2015-01-25 00:00:00+00:00
#DEBUG: Time Zone     -> Etc/UTC
#DEBUG: Data Contact   -> daryl herzmann akrherz@iastate.edu 515-294-5978
#DEBUG: Entries Found -> -1
station,valid,lon,lat,tmpf, dwpf, relh, drct, sknt, p01i, alti, mslp, vsby, gust, skyc1, skyc2, skyc3, skyc4, skyl1, skyl2, skyl3, skyl4, presentwx, metar
YBBN,2015-01-24 00:00,153.1292,-27.3917,77.00,71.60,83.44,170.00,6.00,0.00,29.71,M,6.21,M,FEW,SCT,BKN,M,1700.00,2800.00,4000.00,M,-SHRA,YBBN 240000Z 17006KT 9999 -SHRA FEW017 SCT028 BKN040 25/22 Q1006
YBBN,2015-01-24 00:30,153.1292,-27.3917,77.00,73.40,88.67,170.00,7.00,0.00,29.71,M,6.21,M,FEW,BKN,OVC,M,1500.00,2300.00,4500.00,M,-SHRA,YBBN 240030Z 17007KT 9999 -SHRA FEW015 BKN023 OVC045 25/23 Q1006
YBBN,2015-01-24 01:00,153.1292,-27.3917,77.00,73.40,88.67,150.00,5.00,0.00,29.71,M,6.21,M,SCT,BKN,M,M,1800.00,2500.00,M,M,-SHRA VCSH,YBBN 240100Z 15005KT 9999 -SHRA VCSH SCT018 BKN025 25/23 Q1006
YBBN,2015-01-24 01:30,153.1292,-27.3917,77.00,73.40,88.67,130.00,7.00,0.00,29.71,M,6.21,M,FEW,SCT,BKN,M,1000.00,2500.00,6000.00,M,VCSH,YBBN 240130Z 13007KT 9999 VCSH FEW010 SCT025 BKN060 25/23 Q1006
YBBN,2015-01-24 02:00,153.1292,-27.3917,80.60,69.80,69.71,90.00,4.00,0.00,29.71,M,6.21,M,SCT,BKN,BKN,M,2500.00,4500.00,7000.00,M,VCSH,YBBN 240200Z 09004KT 9999 VCSH SCT025 BKN045 BKN070 27/21 Q1006
YBBN,2015-01-24 02:30,153.1292,-27.3917,80.60,69.80,69.71,120.00,8.00,0.00,29.68,M,6.21,M,SCT,SCT,BKN,M,2500.00,4200.00,7000.00,M,M,YBBN 240230Z 12008KT 9999 SCT025 SCT042 BKN070 27/21 Q1005
YBBN,2015-01-24 03:00,153.1292,-27.3917,82.40,69.80,65.74,100.00,9.00,0.00,29.68,M,6.21,M,FEW,SCT,BKN,M,1800.00,9500.00,11500.00,M,M,YBBN 240300Z 10009KT 9999 FEW018 SCT095 BKN115 28/21 Q1005
YBBN,2015-01-24 03:30,153.1292,-27.3917,82.40,68.00,61.81,110.00,10.00,0.00,29.68,M,6.21,M,FEW,SCT,BKN,M,2500.00,7000.00,11500.00,M,M,YBBN 240330Z 11010KT 9999 FEW025 SCT070 BKN115 28/20 Q1005
YBBN,2015-01-24 04:00,153.1292,-27.3917,82.40,69.80,65.74,110.00,10.00,0.00,29.68,M,6.21,M,FEW,SCT,M,M,2500.00,11500.00,M,M,M,YBBN 240400Z 11010KT 9999 FEW025 SCT115 28/21 Q1005 NOSIG
YBBN,2015-01-24 04:30,153.1292,-27.3917,82.40,68.00,61.81,110.00,9.00,0.00,29.65,M,6.21,M,FEW,SCT,M,M,2500.00,11500.00,M,M,M,YBBN 240430Z 11009KT 9999 FEW025 SCT115 28/20 Q1004
YBBN,2015-01-24 05:00,153.1292,-27.3917,82.40,68.00,61.81,110.00,10.00,0.00,29.65,M,6.21,M,FEW,SCT,BKN,M,2500.00,4500.00,11500.00,M,M,YBBN 240500Z 11010KT 9999 FEW025 SCT045 BKN115 28/20 Q1004
YBBN,2015-01-24 05:30,153.1292,-27.3917,82.40,68.00,61.81,110.00,10.00,0.00,29.65,M,6.21,M,FEW,M,M,M,2500.00,M,M,M,M,YBBN 240530Z 11010KT 9999 FEW025 28/20 Q1004
YBBN,2015-01-24 06:00,153.1292,-27.3917,82.40,68.00,61.81,100.00,9.00,0.00,29.65,M,6.21,M,FEW,M,M,M,2500.00,M,M,M,M,YBBN 240600Z 10009KT 9999 FEW025 28/20 Q1004
YBBN,2015-01-24 06:30,153.1292,-27.3917,80.60,68.00,65.54,110.00,8.00,0.00,29.65,M,6.21,M,FEW,BKN,M,M,2800.00,7000.00,M,M,M,YBBN 240630Z 11008KT 9999 FEW028 BKN070 27/20 Q1004
YBBN,2015-01-24 07:00,153.1292,-27.3917,82.40,68.00,61.81,100.00,7.00,0.00,29.65,M,6.21,M,FEW,SCT,M,M,2800.00,10000.00,M,M,M,YBBN 240700Z 10007KT 9999 FEW028 SCT100 28/20 Q1004 NOSIG
YBBN,2015-01-24 07:30,153.1292,-27.3917,80.60,68.00,65.54,100.00,7.00,0.00,29.65,M,6.21,M,FEW,SCT,M,M,2800.00,10000.00,M,M,M,YBBN 240730Z 10007KT 9999 FEW028 SCT100 27/20 Q1004
YBBN,2015-01-24 08:00,153.1292,-27.3917,78.80,68.00,69.52,90.00,6.00,0.00,29.65,M,6.21,M,FEW,SCT,M,M,2500.00,10000.00,M,M,M,YBBN 240800Z 09006KT 9999 FEW025 SCT100 26/20 Q1004
YBBN,2015-01-24 08:30,153.1292,-27.3917,78.80,68.00,69.52,90.00,5.00,0.00,29.68,M,6.21,M,FEW,M,M,M,2500.00,M,M,M,M,YBBN 240830Z 09005KT 9999 FEW025 26/20 Q1005
YBBN,2015-01-24 09:00,153.1292,-27.3917,78.80,69.80,73.95,80.00,5.00,0.00,29.68,M,6.21,M,FEW,M,M,M,2500.00,M,M,M,M,YBBN 240900Z 08005KT 9999 FEW025 26/21 Q1005
YBBN,2015-01-24 09:30,153.1292,-27.3917,77.00,69.80,78.48,80.00,4.00,0.00,29.68,M,6.21,M,FEW,M,M,M,2400.00,M,M,M,M,YBBN 240930Z 08004KT 9999 FEW024 25/21 Q1005
YBBN,2015-01-24 10:00,153.1292,-27.3917,77.00,69.80,78.48,80.00,4.00,0.00,29.68,M,6.21,M,FEW,M,M,M,2200.00,M,M,M,M,YBBN 241000Z 08004KT 9999 FEW022 25/21 Q1005
YBBN,2015-01-24 10:30,153.1292,-27.3917,77.00,69.80,78.48,80.00,2.00,0.00,29.71,M,6.21,M,FEW,M,M,M,2000.00,M,M,M,M,YBBN 241030Z 08002KT 9999 FEW020 25/21 Q1006
YBBN,2015-01-24 11:00,153.1292,-27.3917,75.20,69.80,83.32,0.00,0.00,0.00,29.71,M,6.21,M,FEW,SCT,M,M,1800.00,3700.00,M,M,M,YBBN 241100Z 00000KT 9999 FEW018 SCT037 24/21 Q1006 NOSIG
YBBN,2015-01-24 11:30,153.1292,-27.3917,75.20,71.60,88.59,0.00,0.00,0.00,29.71,M,6.21,M,FEW,M,M,M,1700.00,M,M,M,M,YBBN 241130Z 00000KT 9999 FEW017 24/22 Q1006
YBBN,2015-01-24 12:00,153.1292,-27.3917,75.20,71.60,88.59,0.00,0.00,0.00,29.71,M,6.21,M,FEW,M,M,M,1600.00,M,M,M,M,YBBN 241200Z 00000KT 9999 FEW016 24/22 Q1006
YBBN,2015-01-24 12:30,153.1292,-27.3917,73.40,69.80,88.51,0.00,0.00,0.00,29.74,M,6.21,M,FEW,M,M,M,1500.00,M,M,M,M,YBBN 241230Z 00000KT 9999 FEW015 23/21 Q1007
YBBN,2015-01-24 13:00,153.1292,-27.3917,73.40,69.80,88.51,290.00,2.00,0.00,29.71,M,6.21,M,FEW,M,M,M,1700.00,M,M,M,M,YBBN 241300Z 29002KT 9999 FEW017 23/21 Q1006 NOSIG
YBBN,2015-01-24 13:30,153.1292,-27.3917,73.40,69.80,88.51,270.00,3.00,0.00,29.71,M,6.21,M,FEW,M,M,M,1700.00,M,M,M,M,YBBN 241330Z 27003KT 9999 FEW017 23/21 Q1006
YBBN,2015-01-24 14:00,153.1292,-27.3917,73.40,69.80,88.51,290.00,1.00,0.00,29.71,M,6.21,M,FEW,M,M,M,1800.00,M,M,M,M,YBBN 241400Z 29001KT 9999 FEW018 23/21 Q1006 NOSIG
YBBN,2015-01-24 14:30,153.1292,-27.3917,73.40,69.80,88.51,300.00,2.00,0.00,29.71,M,6.21,M,FEW,SCT,M,M,1800.00,12000.00,M,M,M,YBBN 241430Z 30002KT 9999 FEW018 SCT120 23/21 Q1006
YBBN,2015-01-24 15:00,153.1292,-27.3917,73.40,69.80,88.51,270.00,3.00,0.00,29.68,M,6.21,M,M,M,M,M,M,M,M,M,M,YBBN 241500Z 27003KT CAVOK 23/21 Q1005 NOSIG
YBBN,2015-01-24 15:30,153.1292,-27.3917,73.40,69.80,88.51,320.00,1.00,0.00,29.68,M,6.21,M,M,M,M,M,M,M,M,M,M,YBBN 241530Z 32001KT CAVOK 23/21 Q1005
YBBN,2015-01-24 16:00,153.1292,-27.3917,73.40,69.80,88.51,310.00,7.00,0.00,29.68,M,6.21,M,M,M,M,M,M,M,M,M,M,YBBN 241600Z 31007KT CAVOK 23/21 Q1005 NOSIG
YBBN,2015-01-24 16:30,153.1292,-27.3917,73.40,69.80,88.51,310.00,6.00,0.00,29.68,M,6.21,M,FEW,M,M,M,1800.00,M,M,M,M,YBBN 241630Z 31006KT 9999 FEW018 23/21 Q1005
YBBN,2015-01-24 17:00,153.1292,-27.3917,71.60,69.80,94.06,300.00,4.00,0.00,29.68,M,6.21,M,M,M,M,M,M,M,M,M,M,YBBN 241700Z 30004KT CAVOK 22/21 Q1005
YBBN,2015-01-24 17:30,153.1292,-27.3917,71.60,69.80,94.06,310.00,3.00,0.00,29.68,M,6.21,M,M,M,M,M,M,M,M,M,M,YBBN 241730Z 31003KT CAVOK 22/21 Q1005
YBBN,2015-01-24 18:00,153.1292,-27.3917,71.60,69.80,94.06,290.00,5.00,0.00,29.68,M,6.21,M,M,M,M,M,M,M,M,M,M,YBBN 241800Z 29005KT CAVOK 22/21 Q1005 NOSIG
YBBN,2015-01-24 18:30,153.1292,-27.3917,71.60,69.80,94.06,310.00,3.00,0.00,29.71,M,6.21,M,SCT,BKN,M,M,4300.00,8200.00,M,M,M,YBBN 241830Z 31003KT 9999 SCT043 BKN082 22/21 Q1006
YBBN,2015-01-24 19:00,153.1292,-27.3917,71.60,69.80,94.06,330.00,1.00,0.00,29.68,M,6.21,M,FEW,SCT,M,M,4000.00,9500.00,M,M,M,YBBN 241900Z 33001KT 9999 FEW040 SCT095 22/21 Q1005
YBBN,2015-01-24 19:30,153.1292,-27.3917,71.60,69.80,94.06,0.00,0.00,0.00,29.68,M,6.21,M,FEW,M,M,M,2000.00,M,M,M,M,YBBN 241930Z 00000KT 9999 FEW020 22/21 Q1005
YBBN,2015-01-24 20:00,153.1292,-27.3917,73.40,69.80,88.51,320.00,4.00,0.00,29.71,M,6.21,M,FEW,M,M,M,2000.00,M,M,M,M,YBBN 242000Z 32004KT 9999 FEW020 23/21 Q1006
YBBN,2015-01-24 20:30,153.1292,-27.3917,75.20,69.80,83.32,300.00,4.00,0.00,29.71,M,6.21,M,FEW,M,M,M,2500.00,M,M,M,M,YBBN 242030Z 30004KT 9999 FEW025 24/21 Q1006
YBBN,2015-01-24 21:00,153.1292,-27.3917,77.00,69.80,78.48,330.00,4.00,0.00,29.71,M,6.21,M,FEW,M,M,M,2500.00,M,M,M,M,YBBN 242100Z 33004KT 9999 FEW025 25/21 Q1006 NOSIG
YBBN,2015-01-24 21:30,153.1292,-27.3917,78.80,71.60,78.62,340.00,4.00,0.00,29.71,M,6.21,M,FEW,M,M,M,2500.00,M,M,M,M,YBBN 242130Z 34004KT 9999 FEW025 26/22 Q1006
YBBN,2015-01-24 22:00,153.1292,-27.3917,80.60,69.80,69.71,330.00,5.00,0.00,29.71,M,6.21,M,FEW,M,M,M,3000.00,M,M,M,M,YBBN 242200Z 33005KT 9999 FEW030 27/21 Q1006
YBBN,2015-01-24 22:30,153.1292,-27.3917,82.40,71.60,69.90,360.00,7.00,0.00,29.71,M,6.21,M,FEW,M,M,M,3500.00,M,M,M,M,YBBN 242230Z 36007KT 9999 FEW035 28/22 Q1006
YBBN,2015-01-24 23:00,153.1292,-27.3917,84.20,73.40,70.08,360.00,7.00,0.00,29.71,M,6.21,M,FEW,M,M,M,3500.00,M,M,M,M,YBBN 242300Z 36007KT 9999 FEW035 29/23 Q1006
YBBN,2015-01-24 23:30,153.1292,-27.3917,84.20,73.40,70.08,360.00,7.00,0.00,29.71,M,6.21,M,FEW,M,M,M,3500.00,M,M,M,M,YBBN 242330Z 36007KT 9999 FEW035 29/23 Q1006
