#DEBUG: Format Typ    -> comma
#DEBUG: Time Period   -> 2015-11-03 00:00:00+00:00 2015-11-04 00:00:00+00:00
#DEBUG: Time Zone     -> Etc/UTC
#DEBUG: Data Contact   -> daryl herzmann akrherz@iastate.edu 515-294-5978
#DEBUG: Entries Found -> -1
station,valid,lon,lat,tmpf, dwpf, relh, drct, sknt, p01i, alti, mslp, vsby, gust, skyc1, skyc2, skyc3, skyc4, skyl1, skyl2, skyl3, skyl4, presentwx, metar
YBBN,2015-11-03 00:00,153.1292,-27.3917,77.00,64.40,65.12,10.00,11.00,0.00,30.00,M,6.21,M,M,M,M,M,M,M,M,M,M,YBBN 030000Z 01011KT CAVOK 25/18 Q1016
YBBN,2015-11-03 00:30,153.1292,-27.3917,78.80,66.20,65.33,20.00,10.00,0.00,30.00,M,6.21,M,FEW,M,M,M,3100.00,M,M,M,M,YBBN 030030Z 02010KT 9999 FEW031 26/19 Q1016
YBBN,2015-11-03 01:00,153.1292,-27.3917,78.80,66.20,65.33,30.00,13.00,0.00,29.97,M,6.21,M,FEW,FEW,M,M,3200.00,3500.00,M,M,M,YBBN 030100Z 03013KT 9999 FEW032 FEW035TCU 26/19 Q1015 NOSIG
YBBN,2015-11-03 01:30,153.1292,-27.3917,82.40,69.80,65.74,30.00,14.00,0.00,29.97,M,6.21,M,FEW,FEW,M,M,3400.00,3700.00,M,M,M,YBBN 030130Z 03014KT 9999 FEW034 FEW037TCU 28/21 Q1015
YBBN,2015-11-03 02:00,153.1292,-27.3917,80.60,69.80,69.71,30.00,15.00,0.00,29.94,M,6.21,M,FEW,FEW,M,M,3700.00,4000.00,M,M,M,YBBN 030200Z 03015KT 9999 FEW037 FEW040TCU 27/21 Q1014 NOSIG
YBBN,2015-11-03 02:30,153.1292,-27.3917,80.60,68.00,65.54,30.00,15.00,0.00,29.94,M,6.21,M,FEW,M,M,M,4000.00,M,M,M,M,YBBN 030230Z 03015KT 9999 FEW040 27/20 Q1014
YBBN,2015-11-03 03:00,153.1292,-27.3917,80.60,69.80,69.71,30.00,17.00,0.00,29.94,M,6.21,M,FEW,M,M,M,4300.00,M,M,M,M,YBBN 030300Z 03017KT 9999 FEW043 27/21 Q1014 RMK DIST CB TOP SOUTH
YBBN,2015-11-03 03:30,153.1292,-27.3917,78.80,69.80,73.95,20.00,17.00,0.00,29.91,M,6.21,M,FEW,M,M,M,4500.00,M,M,M,M,YBBN 030330Z 02017KT 9999 FEW045 26/21 Q1013 RMK DIST CB TOP SOUTH
YBBN,2015-11-03 04:00,153.1292,-27.3917,78.80,69.80,73.95,20.00,17.00,0.00,29.91,M,6.21,M,FEW,FEW,M,M,4700.00,4800.00,M,M,M,YBBN 030400Z 02017KT 9999 FEW047 FEW048TCU 26/21 Q1013 NOSIG
YBBN,2015-11-03 04:30,153.1292,-27.3917,78.80,68.00,69.52,20.00,19.00,0.00,29.88,M,6.21,M,FEW,FEW,M,M,4800.00,5000.00,M,M,M,YBBN 030430Z 02019KT 9999 FEW048 FEW050TCU 26/20 Q1012 RMK DIST CB TOP SOUTH/ HZ
YBBN,2015-11-03 05:00,153.1292,-27.3917,77.00,68.00,73.78,20.00,19.00,0.00,29.88,M,6.21,M,FEW,M,M,M,4800.00,M,M,M,M,YBBN 030500Z 02019KT 9999 FEW048 25/20 Q1012 NOSIG
YBBN,2015-11-03 05:30,153.1292,-27.3917,77.00,69.80,78.48,20.00,18.00,0.00,29.88,M,6.21,M,FEW,SCT,M,M,4800.00,30000.00,M,M,M,YBBN 030530Z 02018KT 9999 FEW048 SCT300 25/21 Q1012 RMK DIST CB TOP SOUTH/HAZE
YBBN,2015-11-03 06:00,153.1292,-27.3917,77.00,69.80,78.48,10.00,18.00,0.00,29.88,M,6.21,M,FEW,BKN,M,M,4500.00,30000.00,M,M,M,YBBN 030600Z 01018KT 9999 FEW045 BKN300 25/21 Q1012 NOSIG
YBBN,2015-11-03 06:30,153.1292,-27.3917,77.00,69.80,78.48,10.00,18.00,0.00,29.91,M,6.21,M,FEW,BKN,M,M,4300.00,30000.00,M,M,M,YBBN 030630Z 01018KT 9999 FEW043 BKN300 25/21 Q1013 RMK DIST CB TOP SOUTH/HAZE
YBBN,2015-11-03 07:00,153.1292,-27.3917,75.20,69.80,83.32,10.00,17.00,0.00,29.88,M,6.21,M,M,M,M,M,M,M,M,M,M,YBBN 030700Z 01017KT CAVOK 24/21 Q1012 NOSIG
YBBN,2015-11-03 07:30,153.1292,-27.3917,75.20,69.80,83.32,10.00,16.00,0.00,29.91,M,6.21,M,M,M,M,M,M,M,M,M,M,YBBN 030730Z 01016KT CAVOK 24/21 Q1013 RMK DIST CB TOP S/SW /HAZE
YBBN,2015-11-03 08:00,153.1292,-27.3917,75.20,69.80,83.32,10.00,15.00,0.00,29.91,M,6.21,M,M,M,M,M,M,M,M,M,M,YBBN 030800Z 01015KT CAVOK 24/21 Q1013 NOSIG
YBBN,2015-11-03 08:30,153.1292,-27.3917,75.20,69.80,83.32,10.00,17.00,0.00,29.91,M,6.21,M,M,M,M,M,M,M,M,M,M,YBBN 030830Z 01017KT CAVOK 24/21 Q1013 RMK 2AC110 3AC150 5CI300
YBBN,2015-11-03 09:00,153.1292,-27.3917,75.20,69.80,83.32,10.00,15.00,0.00,29.94,M,6.21,M,M,M,M,M,M,M,M,M,M,YBBN 030900Z 01015KT CAVOK 24/21 Q1014 NOSIG
YBBN,2015-11-03 09:30,153.1292,-27.3917,75.20,69.80,83.32,10.00,14.00,0.00,29.94,M,6.21,M,M,M,M,M,M,M,M,M,M,YBBN 030930Z 01014KT CAVOK 24/21 Q1014 RMK 5AC120 5AC160 6CI300 DISTANT CB TOP S/SW HAZE.
YBBN,2015-11-03 10:00,153.1292,-27.3917,75.20,69.80,83.32,360.00,16.00,0.00,29.94,M,6.21,M,M,M,M,M,M,M,M,M,M,YBBN 031000Z 36016KT CAVOK 24/21 Q1014 RMK 6AC120 5AC160 DISTANT CB TOP S/SW HAZE.
YBBN,2015-11-03 10:30,153.1292,-27.3917,75.20,69.80,83.32,360.00,15.00,0.00,29.94,M,6.21,M,FEW,BKN,BKN,M,2000.00,11000.00,16000.00,M,VCSH,YBBN 031030Z 36015KT 9999 VCSH FEW020 BKN110 BKN160 24/21 Q1014 RMK LIGHTNING SEEN TO SOUTH HAZE.
YBBN,2015-11-03 10:46,153.1292,-27.3917,75.20,69.80,83.32,170.00,7.00,0.00,30.00,M,6.21,M,FEW,SCT,BKN,M,1500.00,8500.00,11000.00,M,-SHRA,YBBN 031046Z 17007KT 010V180 9999 -SHRA FEW015 SCT085 BKN110 24/21 Q1016 RMK LIGHTNING SEEN TO S/SW. HAZE.
YBBN,2015-11-03 11:00,153.1292,-27.3917,75.20,69.80,83.32,90.00,9.00,0.00,30.03,M,6.21,M,FEW,SCT,BKN,M,1400.00,1700.00,11000.00,M,-SHRA,YBBN 031100Z 09009KT 090V160 9999 -SHRA FEW014 SCT017 BKN110 24/21 Q1017
YBBN,2015-11-03 11:30,153.1292,-27.3917,75.20,68.00,78.34,100.00,9.00,0.00,30.03,M,6.21,M,FEW,SCT,BKN,M,1300.00,1700.00,10000.00,M,-SHRA,YBBN 031130Z 10009KT 9999 4000E -SHRA FEW013 SCT017 BKN100 24/20 Q1017 RMK LIGHTNING SEEN TO SW.
YBBN,2015-11-03 11:47,153.1292,-27.3917,71.60,68.00,88.43,130.00,8.00,0.00,30.06,M,3.11,M,FEW,SCT,BKN,M,1200.00,1700.00,10000.00,M,-SHRA,YBBN 031147Z 13008KT 090V160 5000 -SHRA FEW012 SCT017 BKN100 22/20 Q1018
YBBN,2015-11-03 11:57,153.1292,-27.3917,71.60,69.80,94.06,140.00,8.00,0.00,30.06,M,2.17,M,FEW,BKN,BKN,FEW,1300.00,1700.00,10000.00,1700.00,TSRA,YBBN 031157Z 14008KT 3500 TSRA FEW013 BKN017 BKN100 FEW017CB 22/21 Q1018
YBBN,2015-11-03 12:00,153.1292,-27.3917,71.60,69.80,94.06,140.00,8.00,0.00,30.06,M,1.55,M,FEW,BKN,BKN,FEW,1300.00,1800.00,10000.00,1700.00,+TSRA,YBBN 031200Z 14008KT 2500 +TSRA FEW013 BKN018 BKN100 FEW017CB 22/21 Q1018
YBBN,2015-11-03 12:12,153.1292,-27.3917,69.80,69.80,100.00,150.00,8.00,0.00,30.06,M,0.75,M,FEW,BKN,BKN,M,1700.00,1800.00,4000.00,M,+TSRA,YBBN 031212Z 15008KT 1200 +TSRA FEW017CB BKN018 BKN040 21/21 Q1018
YBBN,2015-11-03 12:25,153.1292,-27.3917,69.80,68.00,94.01,120.00,7.00,0.00,30.06,M,0.93,M,FEW,BKN,BKN,M,1700.00,1900.00,3800.00,M,+TSRA,YBBN 031225Z 12007KT 1500 +TSRA FEW017CB BKN019 BKN038 21/20 Q1018
YBBN,2015-11-03 12:30,153.1292,-27.3917,69.80,68.00,94.01,90.00,9.00,0.00,30.06,M,1.86,M,FEW,SCT,BKN,FEW,800.00,1900.00,3700.00,1700.00,TSRA,YBBN 031230Z 09009KT 3000 TSRA FEW008 SCT019 BKN037 FEW017CB 21/20 Q1018
YBBN,2015-11-03 12:42,153.1292,-27.3917,68.00,66.20,93.97,80.00,10.00,0.00,30.03,M,3.11,M,FEW,SCT,BKN,FEW,800.00,1900.00,3700.00,1800.00,VCTS,YBBN 031242Z 08010KT 5000 VCTS FEW008 SCT019 BKN037 FEW018CB 20/19 Q1017
YBBN,2015-11-03 13:00,153.1292,-27.3917,68.00,66.20,93.97,60.00,14.00,0.00,30.00,M,4.97,M,FEW,BKN,BKN,M,1800.00,3700.00,13000.00,M,-SHRA,YBBN 031300Z 06014KT 8000 -SHRA FEW018CB BKN037 BKN130 20/19 Q1016
YBBN,2015-11-03 13:30,153.1292,-27.3917,69.80,66.20,88.34,60.00,14.00,0.00,30.00,M,6.21,M,SCT,BKN,BKN,M,4500.00,10000.00,14000.00,M,VCSH,YBBN 031330Z 06014KT 9999 VCSH SCT045 BKN100 BKN140 21/19 Q1016
YBBN,2015-11-03 14:00,153.1292,-27.3917,71.60,68.00,88.43,40.00,12.00,0.00,29.97,M,6.21,M,FEW,BKN,BKN,M,1500.00,10000.00,14000.00,M,VCSH,YBBN 031400Z 04012KT 9999 VCSH FEW015 BKN100 BKN140 22/20 Q1015
YBBN,2015-11-03 14:30,153.1292,-27.3917,71.60,69.80,94.06,360.00,9.00,0.00,29.97,M,6.21,M,FEW,BKN,BKN,M,1700.00,9800.00,14000.00,M,M,YBBN 031430Z 36009KT 9999 FEW017 BKN098 BKN140 22/21 Q1015
YBBN,2015-11-03 15:00,153.1292,-27.3917,73.40,68.00,83.21,350.00,15.00,0.00,29.94,M,6.21,M,FEW,SCT,M,M,1800.00,14000.00,M,M,M,YBBN 031500Z 35015KT 9999 FEW018 SCT140 23/20 Q1014
YBBN,2015-11-03 15:30,153.1292,-27.3917,71.60,68.00,88.43,340.00,11.00,0.00,29.94,M,6.21,M,M,M,M,M,M,M,M,M,M,YBBN 031530Z 34011KT CAVOK 22/20 Q1014
YBBN,2015-11-03 16:00,153.1292,-27.3917,71.60,68.00,88.43,320.00,12.00,0.00,29.94,M,6.21,M,M,M,M,M,M,M,M,M,M,YBBN 031600Z 32012KT CAVOK 22/20 Q1014
YBBN,2015-11-03 16:30,153.1292,-27.3917,69.80,68.00,94.01,310.00,7.00,0.00,29.94,M,6.21,M,M,M,M,M,M,M,M,M,M,YBBN 031630Z 31007KT CAVOK 21/20 Q1014
YBBN,2015-11-03 17:00,153.1292,-27.3917,69.80,66.20,88.34,340.00,3.00,0.00,29.91,M,6.21,M,M,M,M,M,M,M,M,M,M,YBBN 031700Z 34003KT CAVOK 21/19 Q1013
YBBN,2015-11-03 17:30,153.1292,-27.3917,69.80,66.20,88.34,350.00,1.00,0.00,29.94,M,6.21,M,M,M,M,M,M,M,M,M,M,YBBN 031730Z 35001KT CAVOK 21/19 Q1014
YBBN,2015-11-03 18:00,153.1292,-27.3917,68.00,66.20,93.97,0.00,0.00,0.00,29.94,M,6.21,M,FEW,M,M,M,1700.00,M,M,M,M,YBBN 031800Z 00000KT 9999 FEW017 20/19 Q1014
YBBN,2015-11-03 18:30,153.1292,-27.3917,68.00,66.20,93.97,350.00,4.00,0.00,29.94,M,6.21,M,FEW,M,M,M,1700.00,M,M,M,M,YBBN 031830Z 35004KT 9999 FEW017 20/19 Q1014
YBBN,2015-11-03 19:00,153.1292,-27.3917,68.00,66.20,93.97,200.00,6.00,0.00,29.97,M,6.21,M,FEW,BKN,M,M,1500.00,1700.00,M,M,PRFG,YBBN 031900Z 20006KT 9999 PRFG FEW015 BKN017 20/19 Q1015
YBBN,2015-11-03 19:30,153.1292,-27.3917,68.00,68.00,100.00,200.00,7.00,0.00,29.97,M,6.21,M,FEW,BKN,M,M,1500.00,1700.00,M,M,PRFG,YBBN 031930Z 20007KT 9999 PRFG FEW015 BKN017 20/20 Q1015
YBBN,2015-11-03 20:00,153.1292,-27.3917,69.80,68.00,94.01,200.00,5.00,0.00,29.97,M,6.21,M,FEW,BKN,M,M,1500.00,1700.00,M,M,PRFG,YBBN 032000Z 20005KT 9999 PRFG FEW015 BKN017 21/20 Q1015
YBBN,2015-11-03 20:30,153.1292,-27.3917,71.60,68.00,88.43,190.00,3.00,0.00,29.97,M,6.21,M,BKN,M,M,M,1500.00,M,M,M,VCFG,YBBN 032030Z 19003KT 9999 VCFG BKN015 22/20 Q1015 RMK VICINITY FOG BANK TO SW / BR
YBBN,2015-11-03 21:00,153.1292,-27.3917,73.40,68.00,83.21,130.00,4.00,0.00,30.00,M,6.21,M,SCT,M,M,M,1700.00,M,M,M,//,YBBN 032100Z AUTO 13004KT 100V170 9999 // SCT017 23/20 Q1016
YBBN,2015-11-03 21:30,153.1292,-27.3917,75.20,68.00,78.34,50.00,4.00,0.00,30.00,M,6.21,M,SCT,M,M,M,1500.00,M,M,M,M,YBBN 032130Z 05004KT 360V070 9999 SCT015 24/20 Q1016
YBBN,2015-11-03 22:00,153.1292,-27.3917,75.20,68.00,78.34,110.00,4.00,0.00,30.00,M,6.21,M,BKN,M,M,M,1600.00,M,M,M,M,YBBN 032200Z 11004KT 040V160 9999 BKN016 24/20 Q1016 NOSIG
YBBN,2015-11-03 22:30,153.1292,-27.3917,75.20,66.20,73.61,110.00,3.00,0.00,30.00,M,6.21,M,BKN,M,M,M,1700.00,M,M,M,M,YBBN 032230Z 11003KT 9999 BKN017 24/19 Q1016
YBBN,2015-11-03 23:00,153.1292,-27.3917,77.00,68.00,73.78,60.00,5.00,0.00,29.97,M,6.21,M,BKN,M,M,M,1800.00,M,M,M,M,YBBN 032300Z 06005KT 9999 BKN018 25/20 Q1015
YBBN,2015-11-03 23:30,153.1292,-27.3917,77.00,68.00,73.78,40.00,6.00,0.00,29.97,M,6.21,M,BKN,M,M,M,1900.00,M,M,M,M,YBBN 032330Z 04006KT 9999 BKN019 25/20 Q1015
