#DEBUG: Format Typ    -> comma
#DEBUG: Time Period   -> 2016-04-05 00:00:00+00:00 2016-04-06 00:00:00+00:00
#DEBUG: Time Zone     -> Etc/UTC
#DEBUG: Data Contact   -> daryl herzmann akrherz@iastate.edu 515-294-5978
#DEBUG: Entries Found -> -1
station,valid,lon,lat,tmpf, dwpf, relh, drct, sknt, p01i, alti, mslp, vsby, gust, skyc1, skyc2, skyc3, skyc4, skyl1, skyl2, skyl3, skyl4, presentwx, metar
YBBN,2016-04-05 00:00,153.1292,-27.3917,78.80,59.00,50.69,140.00,11.00,0.00,30.09,M,6.21,M,SCT,M,M,M,3700.00,M,M,M,M,YBBN 050000Z 14011KT 9999 SCT037 26/15 Q1019 NOSIG
YBBN,2016-04-05 00:30,153.1292,-27.3917,78.80,60.80,54.05,130.00,12.00,0.00,30.09,M,6.21,M,SCT,M,M,M,4000.00,M,M,M,M,YBBN 050030Z 13012KT 9999 SCT040 26/16 Q1019 NOSIG
YBBN,2016-04-05 01:00,153.1292,-27.3917,80.60,60.80,50.95,120.00,11.00,0.00,30.09,M,6.21,M,SCT,M,M,M,4000.00,M,M,M,M,YBBN 050100Z 12011KT 9999 SCT040 27/16 Q1019 NOSIG
YBBN,2016-04-05 01:30,153.1292,-27.3917,80.60,59.00,47.79,110.00,11.00,0.00,30.06,M,6.21,M,SCT,M,M,M,4200.00,M,M,M,M,YBBN 050130Z 11011KT 9999 SCT042 27/15 Q1018 NOSIG
YBBN,2016-04-05 02:00,153.1292,-27.3917,80.60,60.80,50.95,110.00,13.00,0.00,30.06,M,6.21,M,SCT,M,M,M,4200.00,M,M,M,M,YBBN 050200Z 11013KT 9999 SCT042 27/16 Q1018 NOSIG
YBBN,2016-04-05 02:30,153.1292,-27.3917,80.60,59.00,47.79,110.00,12.00,0.00,30.03,M,6.21,M,FEW,M,M,M,4500.00,M,M,M,M,YBBN 050230Z 11012KT 9999 FEW045 27/15 Q1017
YBBN,2016-04-05 03:00,153.1292,-27.3917,78.80,59.00,50.69,110.00,13.00,0.00,30.03,M,6.21,M,SCT,M,M,M,4500.00,M,M,M,M,YBBN 050300Z 11013KT 9999 SCT045 26/15 Q1017 NOSIG
YBBN,2016-04-05 03:30,153.1292,-27.3917,80.60,59.00,47.79,110.00,13.00,0.00,30.03,M,6.21,M,FEW,M,M,M,4000.00,M,M,M,M,YBBN 050330Z 11013KT 9999 FEW040 27/15 Q1017 NOSIG
YBBN,2016-04-05 04:00,153.1292,-27.3917,80.60,59.00,47.79,110.00,12.00,0.00,30.03,M,6.21,M,FEW,M,M,M,4000.00,M,M,M,M,YBBN 050400Z 11012KT 9999 FEW040 27/15 Q1017 NOSIG
YBBN,2016-04-05 04:30,153.1292,-27.3917,80.60,59.00,47.79,110.00,12.00,0.00,30.03,M,6.21,M,FEW,M,M,M,4000.00,M,M,M,M,YBBN 050430Z 11012KT 9999 FEW040 27/15 Q1017 NOSIG
YBBN,2016-04-05 05:00,153.1292,-27.3917,80.60,59.00,47.79,110.00,13.00,0.00,30.00,M,6.21,M,FEW,M,M,M,4000.00,M,M,M,M,YBBN 050500Z 11013KT 9999 FEW040 27/15 Q1016 NOSIG
YBBN,2016-04-05 05:30,153.1292,-27.3917,78.80,60.80,54.05,110.00,11.00,0.00,30.00,M,6.21,M,FEW,M,M,M,3500.00,M,M,M,M,YBBN 050530Z 11011KT 9999 FEW035 26/16 Q1016 NOSIG
YBBN,2016-04-05 06:00,153.1292,-27.3917,78.80,60.80,54.05,110.00,11.00,0.00,30.03,M,6.21,M,FEW,M,M,M,3500.00,M,M,M,M,YBBN 050600Z 11011KT 9999 FEW035 26/16 Q1017 NOSIG
YBBN,2016-04-05 06:30,153.1292,-27.3917,77.00,60.80,57.36,120.00,10.00,0.00,30.03,M,6.21,M,FEW,M,M,M,3500.00,M,M,M,M,YBBN 050630Z 12010KT 9999 FEW035 25/16 Q1017 NOSIG
YBBN,2016-04-05 07:00,153.1292,-27.3917,77.00,59.00,53.80,120.00,9.00,0.00,30.03,M,6.21,M,FEW,M,M,M,3500.00,M,M,M,M,YBBN 050700Z 12009KT 9999 FEW035 25/15 Q1017 NOSIG
YBBN,2016-04-05 07:30,153.1292,-27.3917,77.00,59.00,53.80,140.00,8.00,0.00,30.06,M,6.21,M,FEW,M,M,M,3000.00,M,M,M,M,YBBN 050730Z 14008KT 9999 FEW030 25/15 Q1018 NOSIG
YBBN,2016-04-05 08:00,153.1292,-27.3917,75.20,59.00,57.12,130.00,9.00,0.00,30.06,M,6.21,M,FEW,M,M,M,3000.00,M,M,M,M,YBBN 050800Z 13009KT 9999 FEW030 24/15 Q1018 NOSIG
YBBN,2016-04-05 08:30,153.1292,-27.3917,75.20,59.00,57.12,130.00,8.00,0.00,30.06,M,6.21,M,M,M,M,M,M,M,M,M,M,YBBN 050830Z 13008KT CAVOK 24/15 Q1018 NOSIG
YBBN,2016-04-05 09:00,153.1292,-27.3917,75.20,60.80,60.90,130.00,8.00,0.00,30.06,M,6.21,M,M,M,M,M,M,M,M,M,M,YBBN 050900Z 13008KT CAVOK 24/16 Q1018 NOSIG
YBBN,2016-04-05 09:30,153.1292,-27.3917,73.40,62.60,68.94,150.00,5.00,0.00,30.09,M,6.21,M,M,M,M,M,M,M,M,M,M,YBBN 050930Z 15005KT CAVOK 23/17 Q1019 NOSIG
YBBN,2016-04-05 10:00,153.1292,-27.3917,73.40,62.60,68.94,160.00,5.00,0.00,30.09,M,6.21,M,M,M,M,M,M,M,M,M,M,YBBN 051000Z 16005KT CAVOK 23/17 Q1019
YBBN,2016-04-05 10:30,153.1292,-27.3917,73.40,62.60,68.94,160.00,5.00,0.00,30.09,M,6.21,M,M,M,M,M,M,M,M,M,M,YBBN 051030Z 16005KT CAVOK 23/17 Q1019 NOSIG
YBBN,2016-04-05 11:00,153.1292,-27.3917,71.60,62.60,73.27,180.00,5.00,0.00,30.09,M,6.21,M,M,M,M,M,M,M,M,M,M,YBBN 051100Z 18005KT CAVOK 22/17 Q1019 NOSIG
YBBN,2016-04-05 11:30,153.1292,-27.3917,71.60,62.60,73.27,200.00,5.00,0.00,30.09,M,6.21,M,M,M,M,M,M,M,M,M,M,YBBN 051130Z 20005KT CAVOK 22/17 Q1019 NOSIG
YBBN,2016-04-05 12:00,153.1292,-27.3917,71.60,62.60,73.27,180.00,5.00,0.00,30.09,M,6.21,M,FEW,M,M,M,3000.00,M,M,M,M,YBBN 051200Z 18005KT 9999 FEW030 22/17 Q1019 NOSIG
YBBN,2016-04-05 12:30,153.1292,-27.3917,71.60,62.60,73.27,180.00,5.00,0.00,30.09,M,6.21,M,FEW,SCT,M,M,3000.00,6000.00,M,M,M,YBBN 051230Z 18005KT 9999 FEW030 SCT060 22/17 Q1019 NOSIG
YBBN,2016-04-05 13:00,153.1292,-27.3917,69.80,62.60,77.90,200.00,5.00,0.00,30.09,M,6.21,M,FEW,M,M,M,3000.00,M,M,M,M,YBBN 051300Z 20005KT 9999 FEW030 21/17 Q1019
YBBN,2016-04-05 13:30,153.1292,-27.3917,69.80,62.60,77.90,190.00,5.00,0.00,30.09,M,6.21,M,FEW,M,M,M,3000.00,M,M,M,M,YBBN 051330Z 19005KT 9999 FEW030 21/17 Q1019 NOSIG
YBBN,2016-04-05 14:00,153.1292,-27.3917,69.80,62.60,77.90,200.00,5.00,0.00,30.09,M,6.21,M,SCT,M,M,M,3000.00,M,M,M,M,YBBN 051400Z 20005KT 9999 SCT030 21/17 Q1019
YBBN,2016-04-05 14:30,153.1292,-27.3917,69.80,60.80,73.09,200.00,5.00,0.00,30.06,M,6.21,M,FEW,M,M,M,3000.00,M,M,M,M,YBBN 051430Z 20005KT 9999 FEW030 21/16 Q1018 NOSIG
YBBN,2016-04-05 15:00,153.1292,-27.3917,69.80,60.80,73.09,210.00,5.00,0.00,30.06,M,6.21,M,FEW,M,M,M,3000.00,M,M,M,M,YBBN 051500Z 21005KT 9999 FEW030 21/16 Q1018
YBBN,2016-04-05 15:30,153.1292,-27.3917,66.20,60.80,82.74,200.00,6.00,0.00,30.06,M,6.21,M,FEW,M,M,M,3000.00,M,M,M,M,YBBN 051530Z 20006KT 9999 FEW030 19/16 Q1018 NOSIG
YBBN,2016-04-05 16:00,153.1292,-27.3917,68.00,60.80,77.75,200.00,7.00,0.00,30.06,M,6.21,M,FEW,M,M,M,3200.00,M,M,M,M,YBBN 051600Z 20007KT 9999 FEW032 20/16 Q1018 NOSIG
YBBN,2016-04-05 16:30,153.1292,-27.3917,66.20,60.80,82.74,200.00,5.00,0.00,30.06,M,6.21,M,FEW,M,M,M,3200.00,M,M,M,M,YBBN 051630Z 20005KT 9999 FEW032 19/16 Q1018 NOSIG
YBBN,2016-04-05 17:00,153.1292,-27.3917,66.20,59.00,77.60,200.00,6.00,0.00,30.06,M,6.21,M,FEW,M,M,M,3200.00,M,M,M,M,YBBN 051700Z 20006KT 9999 FEW032 19/15 Q1018
YBBN,2016-04-05 17:30,153.1292,-27.3917,64.40,59.00,82.62,210.00,8.00,0.00,30.06,M,6.21,M,M,M,M,M,M,M,M,M,M,YBBN 051730Z 21008KT CAVOK 18/15 Q1018 NOSIG
YBBN,2016-04-05 18:00,153.1292,-27.3917,64.40,59.00,82.62,200.00,7.00,0.00,30.06,M,6.21,M,FEW,M,M,M,3200.00,M,M,M,M,YBBN 051800Z 20007KT 9999 FEW032 18/15 Q1018 NOSIG
YBBN,2016-04-05 18:30,153.1292,-27.3917,64.40,59.00,82.62,210.00,7.00,0.00,30.06,M,6.21,M,FEW,M,M,M,3200.00,M,M,M,M,YBBN 051830Z 21007KT 9999 FEW032 18/15 Q1018 NOSIG
YBBN,2016-04-05 19:00,153.1292,-27.3917,64.40,59.00,82.62,210.00,8.00,0.00,30.09,M,6.21,M,M,M,M,M,M,M,M,M,M,YBBN 051900Z 21008KT CAVOK 18/15 Q1019 NOSIG
YBBN,2016-04-05 19:30,153.1292,-27.3917,66.20,59.00,77.60,200.00,8.00,0.00,30.09,M,6.21,M,FEW,M,M,M,2000.00,M,M,M,M,YBBN 051930Z 20008KT 9999 FEW020 19/15 Q1019 NOSIG
YBBN,2016-04-05 20:00,153.1292,-27.3917,64.40,59.00,82.62,200.00,8.00,0.00,30.09,M,6.21,M,FEW,M,M,M,3000.00,M,M,M,M,YBBN 052000Z 20008KT 9999 FEW030 18/15 Q1019 NOSIG
YBBN,2016-04-05 20:30,153.1292,-27.3917,66.20,59.00,77.60,200.00,8.00,0.00,30.09,M,6.21,M,FEW,M,M,M,2000.00,M,M,M,M,YBBN 052030Z 20008KT 9999 FEW020 19/15 Q1019 NOSIG
YBBN,2016-04-05 21:00,153.1292,-27.3917,68.00,59.00,72.92,200.00,7.00,0.00,30.12,M,6.21,M,FEW,M,M,M,2000.00,M,M,M,M,YBBN 052100Z 20007KT 9999 FEW020 20/15 Q1020 NOSIG
YBBN,2016-04-05 21:30,153.1292,-27.3917,69.80,59.00,68.55,210.00,8.00,0.00,30.12,M,6.21,M,FEW,M,M,M,2500.00,M,M,M,M,YBBN 052130Z 21008KT 9999 FEW025 21/15 Q1020 NOSIG
YBBN,2016-04-05 22:00,153.1292,-27.3917,73.40,60.80,64.69,190.00,8.00,0.00,30.12,M,6.21,M,FEW,M,M,M,2500.00,M,M,M,M,YBBN 052200Z 19008KT 9999 FEW025 23/16 Q1020 NOSIG
YBBN,2016-04-05 22:30,153.1292,-27.3917,73.40,60.80,64.69,190.00,7.00,0.00,30.12,M,6.21,M,FEW,M,M,M,2500.00,M,M,M,M,YBBN 052230Z 19007KT 9999 FEW025 23/16 Q1020 NOSIG
YBBN,2016-04-05 23:00,153.1292,-27.3917,77.00,62.60,61.13,180.00,7.00,0.00,30.15,M,6.21,M,FEW,M,M,M,2800.00,M,M,M,M,YBBN 052300Z 18007KT 9999 FEW028 25/17 Q1021 NOSIG
YBBN,2016-04-05 23:30,153.1292,-27.3917,80.60,64.40,57.84,130.00,6.00,0.00,30.15,M,6.21,M,FEW,M,M,M,3000.00,M,M,M,M,YBBN 052330Z 13006KT 090V150 9999 FEW030 27/18 Q1021 NOSIG
