#DEBUG: Format Typ    -> comma
#DEBUG: Time Period   -> 2012-03-21 00:00:00+00:00 2012-03-22 00:00:00+00:00
#DEBUG: Time Zone     -> Etc/UTC
#DEBUG: Data Contact   -> daryl herzmann akrherz@iastate.edu 515-294-5978
#DEBUG: Entries Found -> -1
station,valid,lon,lat,tmpf, dwpf, relh, drct, sknt, p01i, alti, mslp, vsby, gust, skyc1, skyc2, skyc3, skyc4, skyl1, skyl2, skyl3, skyl4, presentwx, metar
YBBN,2012-03-21 00:00,153.1292,-27.3917,77.00,66.20,69.33,100.00,7.00,0.00,29.77,M,6.21,M,SCT,SCT,M,M,3500.00,22000.00,M,M,M,YBBN 210000Z 10007KT 9999 SCT035 SCT220 25/19 Q1008
YBBN,2012-03-21 00:30,153.1292,-27.3917,78.80,66.20,65.33,120.00,8.00,0.00,29.77,M,6.21,M,SCT,SCT,M,M,3000.00,22000.00,M,M,M,YBBN 210030Z 12008KT 9999 SCT030 SCT220 26/19 Q1008
YBBN,2012-03-21 01:00,153.1292,-27.3917,77.00,64.40,65.12,90.00,8.00,0.00,29.77,M,6.21,M,FEW,SCT,BKN,M,3000.00,4500.00,22000.00,M,M,YBBN 210100Z 09008KT 9999 FEW030 SCT045 BKN220 25/18 Q1008
YBBN,2012-03-21 01:30,153.1292,-27.3917,77.00,66.20,69.33,80.00,8.00,0.00,29.77,M,6.21,M,FEW,SCT,BKN,M,3000.00,4500.00,22000.00,M,M,YBBN 210130Z 08008KT 9999 FEW030 SCT045 BKN220 25/19 Q1008
YBBN,2012-03-21 02:00,153.1292,-27.3917,78.80,68.00,69.52,70.00,11.00,0.00,29.74,M,6.21,M,FEW,SCT,BKN,M,3500.00,4500.00,22000.00,M,M,YBBN 210200Z 07011KT 9999 FEW035 SCT045 BKN220 26/20 Q1007 NOSIG
YBBN,2012-03-21 02:30,153.1292,-27.3917,78.80,66.20,65.33,70.00,10.00,0.00,29.74,M,6.21,M,FEW,SCT,BKN,M,2600.00,4500.00,22000.00,M,M,YBBN 210230Z 07010KT 9999 FEW026 SCT045 BKN220 26/19 Q1007
YBBN,2012-03-21 03:00,153.1292,-27.3917,78.80,66.20,65.33,70.00,10.00,0.00,29.71,M,6.21,M,FEW,SCT,BKN,M,2500.00,6000.00,20000.00,M,M,YBBN 210300Z 07010KT 9999 FEW025 SCT060 BKN200 26/19 Q1006
YBBN,2012-03-21 03:30,153.1292,-27.3917,78.80,68.00,69.52,70.00,10.00,0.00,29.71,M,6.21,M,FEW,BKN,BKN,M,2500.00,5500.00,20000.00,M,M,YBBN 210330Z 07010KT 9999 FEW025 BKN055 BKN200 26/20 Q1006
YBBN,2012-03-21 04:00,153.1292,-27.3917,77.00,68.00,73.78,70.00,10.00,0.00,29.71,M,6.21,M,FEW,BKN,BKN,M,2500.00,4500.00,20000.00,M,M,YBBN 210400Z 07010KT 9999 FEW025 BKN045 BKN200 25/20 Q1006
YBBN,2012-03-21 04:30,153.1292,-27.3917,77.00,68.00,73.78,70.00,10.00,0.00,29.68,M,6.21,M,FEW,BKN,BKN,M,2500.00,6000.00,20000.00,M,VCSH,YBBN 210430Z 07010KT 9999 VCSH FEW025 BKN060 BKN200 25/20 Q1005
YBBN,2012-03-21 05:00,153.1292,-27.3917,77.00,66.20,69.33,70.00,9.00,0.00,29.68,M,6.21,M,FEW,SCT,BKN,M,2500.00,6000.00,20000.00,M,VCSH,YBBN 210500Z 07009KT 9999 VCSH FEW025 SCT060 BKN200 25/19 Q1005 NOSIG
YBBN,2012-03-21 05:30,153.1292,-27.3917,77.00,68.00,73.78,70.00,9.00,0.00,29.68,M,6.21,M,FEW,SCT,BKN,M,2500.00,6000.00,20000.00,M,M,YBBN 210530Z 07009KT 9999 FEW025 SCT060 BKN200 25/20 Q1005
YBBN,2012-03-21 06:00,153.1292,-27.3917,77.00,68.00,73.78,70.00,8.00,0.00,29.68,M,6.21,M,FEW,SCT,BKN,M,2300.00,6000.00,20000.00,M,VCSH,YBBN 210600Z 07008KT 9999 VCSH FEW023 SCT060 BKN200 25/20 Q1005 INTER 0800/0900 4000 RA BKN012
YBBN,2012-03-21 06:30,153.1292,-27.3917,77.00,68.00,73.78,80.00,7.00,0.00,29.68,M,6.21,M,FEW,BKN,BKN,M,2300.00,6000.00,18000.00,M,M,YBBN 210630Z 08007KT 9999 FEW023 BKN060 BKN180 25/20 Q1005
YBBN,2012-03-21 07:00,153.1292,-27.3917,75.20,68.00,78.34,70.00,7.00,0.00,29.68,M,6.21,M,FEW,SCT,BKN,M,2000.00,7000.00,18000.00,M,VCSH,YBBN 210700Z 07007KT 9999 VCSH FEW020 SCT070 BKN180 24/20 Q1005
YBBN,2012-03-21 07:30,153.1292,-27.3917,75.20,68.00,78.34,70.00,7.00,0.00,29.68,M,6.21,M,FEW,SCT,BKN,M,2000.00,6000.00,16000.00,M,VCSH,YBBN 210730Z 07007KT 9999 VCSH FEW020 SCT060 BKN160 24/20 Q1005
YBBN,2012-03-21 08:00,153.1292,-27.3917,75.20,68.00,78.34,80.00,7.00,0.00,29.68,M,6.21,M,FEW,SCT,BKN,M,2200.00,5000.00,16000.00,M,-RA,YBBN 210800Z 08007KT 9999 -RA FEW022 SCT050 BKN160 24/20 Q1005
YBBN,2012-03-21 08:30,153.1292,-27.3917,75.20,68.00,78.34,70.00,6.00,0.00,29.71,M,6.21,M,FEW,BKN,BKN,M,2200.00,5900.00,16000.00,M,VCSH,YBBN 210830Z 07006KT 9999 VCSH FEW022 BKN059 BKN160 24/20 Q1006
YBBN,2012-03-21 09:00,153.1292,-27.3917,75.20,68.00,78.34,80.00,6.00,0.00,29.71,M,6.21,M,FEW,BKN,M,M,2200.00,5700.00,M,M,VCSH,YBBN 210900Z 08006KT 9999 VCSH FEW022 BKN057 24/20 Q1006
YBBN,2012-03-21 09:30,153.1292,-27.3917,75.20,68.00,78.34,80.00,6.00,0.00,29.71,M,6.21,M,FEW,OVC,M,M,2200.00,5700.00,M,M,M,YBBN 210930Z 08006KT 9999 FEW022 OVC057 24/20 Q1006
YBBN,2012-03-21 10:00,153.1292,-27.3917,75.20,68.00,78.34,70.00,7.00,0.00,29.71,M,6.21,M,FEW,BKN,M,M,2200.00,6300.00,M,M,M,YBBN 211000Z 07007KT 9999 FEW022 BKN063 24/20 Q1006 INTER 1000/1300 4000 RA BKN012
YBBN,2012-03-21 10:30,153.1292,-27.3917,75.20,68.00,78.34,70.00,7.00,0.00,29.74,M,6.21,M,FEW,BKN,M,M,3000.00,6300.00,M,M,M,YBBN 211030Z 07007KT 9999 FEW030 BKN063 24/20 Q1007
YBBN,2012-03-21 11:00,153.1292,-27.3917,75.20,68.00,78.34,80.00,6.00,0.00,29.74,M,6.21,M,FEW,SCT,BKN,M,3000.00,6300.00,13000.00,M,M,YBBN 211100Z 08006KT 9999 FEW030 SCT063 BKN130 24/20 Q1007 INTER 1100/1400 4000 RA BKN012
YBBN,2012-03-21 11:30,153.1292,-27.3917,75.20,68.00,78.34,70.00,6.00,0.00,29.74,M,6.21,M,FEW,BKN,M,M,3000.00,6300.00,M,M,M,YBBN 211130Z 07006KT 9999 FEW030 BKN063 24/20 Q1007
YBBN,2012-03-21 12:00,153.1292,-27.3917,75.20,68.00,78.34,80.00,5.00,0.00,29.74,M,6.21,M,SCT,BKN,M,M,2100.00,6100.00,M,M,M,YBBN 211200Z 08005KT 9999 SCT021 BKN061 24/20 Q1007 INTER 1230/1500 4000 RA BKN012
YBBN,2012-03-21 12:30,153.1292,-27.3917,75.20,68.00,78.34,90.00,6.00,0.00,29.71,M,6.21,M,SCT,BKN,M,M,2200.00,6100.00,M,M,M,YBBN 211230Z 09006KT 9999 SCT022 BKN061 24/20 Q1006
YBBN,2012-03-21 13:00,153.1292,-27.3917,75.20,68.00,78.34,80.00,7.00,0.00,29.71,M,6.21,M,FEW,BKN,BKN,M,2200.00,6100.00,13000.00,M,M,YBBN 211300Z 08007KT 9999 FEW022 BKN061 BKN130 24/20 Q1006
YBBN,2012-03-21 13:30,153.1292,-27.3917,75.20,68.00,78.34,90.00,7.00,0.00,29.71,M,6.21,M,FEW,SCT,BKN,M,2200.00,12000.00,14000.00,M,M,YBBN 211330Z 09007KT 9999 FEW022 SCT120 BKN140 24/20 Q1006
YBBN,2012-03-21 14:00,153.1292,-27.3917,75.20,68.00,78.34,90.00,7.00,0.00,29.71,M,6.21,M,SCT,BKN,M,M,2700.00,14000.00,M,M,M,YBBN 211400Z 09007KT 9999 SCT027 BKN140 24/20 Q1006
YBBN,2012-03-21 14:30,153.1292,-27.3917,75.20,68.00,78.34,90.00,6.00,0.00,29.71,M,6.21,M,SCT,BKN,M,M,2800.00,4000.00,M,M,M,YBBN 211430Z 09006KT 9999 SCT028 BKN040 24/20 Q1006
YBBN,2012-03-21 15:00,153.1292,-27.3917,75.20,68.00,78.34,80.00,7.00,0.00,29.68,M,6.21,M,FEW,SCT,BKN,M,2800.00,6000.00,12000.00,M,M,YBBN 211500Z 08007KT 9999 FEW028 SCT060 BKN120 24/20 Q1005
YBBN,2012-03-21 15:30,153.1292,-27.3917,75.20,68.00,78.34,80.00,6.00,0.00,29.68,M,6.21,M,FEW,SCT,BKN,M,2800.00,5800.00,12000.00,M,M,YBBN 211530Z 08006KT 9999 FEW028 SCT058 BKN120 24/20 Q1005
YBBN,2012-03-21 16:00,153.1292,-27.3917,75.20,68.00,78.34,80.00,7.00,0.00,29.68,M,6.21,M,FEW,SCT,BKN,M,2800.00,5800.00,12000.00,M,M,YBBN 211600Z 08007KT 9999 FEW028 SCT058 BKN120 24/20 Q1005
YBBN,2012-03-21 16:30,153.1292,-27.3917,75.20,68.00,78.34,80.00,6.00,0.00,29.68,M,6.21,M,FEW,SCT,BKN,M,2800.00,6200.00,12000.00,M,M,YBBN 211630Z 08006KT 9999 FEW028 SCT062 BKN120 24/20 Q1005
YBBN,2012-03-21 17:00,153.1292,-27.3917,75.20,68.00,78.34,90.00,6.00,0.00,29.65,M,6.21,M,FEW,BKN,BKN,M,2800.00,4200.00,6200.00,M,VCSH,YBBN 211700Z 09006KT 9999 VCSH FEW028 BKN042 BKN062 24/20 Q1004
YBBN,2012-03-21 17:30,153.1292,-27.3917,75.20,68.00,78.34,80.00,6.00,0.00,29.68,M,6.21,M,FEW,SCT,OVC,M,2600.00,3800.00,11000.00,M,M,YBBN 211730Z 08006KT 9999 FEW026 SCT038 OVC110 24/20 Q1005
YBBN,2012-03-21 18:00,153.1292,-27.3917,75.20,68.00,78.34,80.00,7.00,0.00,29.68,M,6.21,M,FEW,BKN,M,M,2300.00,4000.00,M,M,M,YBBN 211800Z 08007KT 9999 FEW023 BKN040 24/20 Q1005
YBBN,2012-03-21 18:30,153.1292,-27.3917,75.20,68.00,78.34,80.00,7.00,0.00,29.65,M,6.21,M,FEW,SCT,OVC,M,2300.00,4000.00,10000.00,M,VCSH,YBBN 211830Z 08007KT 9999 VCSH FEW023 SCT040 OVC100 24/20 Q1004
YBBN,2012-03-21 19:00,153.1292,-27.3917,75.20,68.00,78.34,90.00,7.00,0.00,29.68,M,6.21,M,FEW,SCT,BKN,M,2300.00,4000.00,13000.00,M,VCSH,YBBN 211900Z 09007KT 9999 VCSH FEW023 SCT040 BKN130 24/20 Q1005 INTER 2000/2200 4000 RA BKN012
YBBN,2012-03-21 19:30,153.1292,-27.3917,75.20,68.00,78.34,90.00,6.00,0.00,29.68,M,6.21,M,FEW,SCT,OVC,M,2300.00,4000.00,14000.00,M,VCSH,YBBN 211930Z 09006KT 9999 VCSH FEW023 SCT040 OVC140 24/20 Q1005
YBBN,2012-03-21 20:00,153.1292,-27.3917,75.20,68.00,78.34,80.00,6.00,0.00,29.68,M,6.21,M,SCT,BKN,M,M,3000.00,4200.00,M,M,-SHRA,YBBN 212000Z 08006KT 9999 -SHRA SCT030 BKN042 24/20 Q1005 INTER 2000/2300 4000 RA BKN012
YBBN,2012-03-21 20:30,153.1292,-27.3917,75.20,68.00,78.34,100.00,6.00,0.00,29.68,M,6.21,M,FEW,BKN,BKN,M,3000.00,4200.00,14000.00,M,M,YBBN 212030Z 10006KT 9999 FEW030 BKN042 BKN140 24/20 Q1005
YBBN,2012-03-21 21:00,153.1292,-27.3917,75.20,68.00,78.34,90.00,7.00,0.00,29.71,M,6.21,M,FEW,SCT,BKN,M,3000.00,4500.00,14000.00,M,M,YBBN 212100Z 09007KT 9999 FEW030 SCT045 BKN140 24/20 Q1006
YBBN,2012-03-21 21:30,153.1292,-27.3917,75.20,69.80,83.32,90.00,7.00,0.00,29.71,M,6.21,M,FEW,BKN,BKN,M,3000.00,4500.00,13000.00,M,-SHRA,YBBN 212130Z 09007KT 9999 -SHRA FEW030 BKN045 BKN130 24/21 Q1006
YBBN,2012-03-21 22:00,153.1292,-27.3917,77.00,69.80,78.48,90.00,8.00,0.00,29.71,M,6.21,M,FEW,SCT,BKN,M,2600.00,5500.00,12000.00,M,VCSH,YBBN 212200Z 09008KT 9999 VCSH FEW026 SCT055 BKN120 25/21 Q1006 INTER 2200/0100 4000 RA BKN012
YBBN,2012-03-21 22:30,153.1292,-27.3917,77.00,69.80,78.48,90.00,8.00,0.00,29.71,M,6.21,M,FEW,SCT,BKN,M,2400.00,6000.00,12000.00,M,-SHRA,YBBN 212230Z 09008KT 9999 -SHRA FEW024 SCT060 BKN120 25/21 Q1006
YBBN,2012-03-21 23:00,153.1292,-27.3917,77.00,69.80,78.48,90.00,9.00,0.00,29.71,M,6.21,M,FEW,SCT,OVC,M,1800.00,6000.00,11000.00,M,-SHRA VCSH,YBBN 212300Z 09009KT 9999 -SHRA VCSH FEW018 SCT060 OVC110 25/21 Q1006
YBBN,2012-03-21 23:30,153.1292,-27.3917,75.20,69.80,83.32,70.00,9.00,0.00,29.71,M,4.97,M,FEW,SCT,OVC,M,1800.00,2200.00,10000.00,M,-SHRA,YBBN 212330Z 07009KT 8000 -SHRA FEW018 SCT022 OVC100 24/21 Q1006
