#DEBUG: Format Typ    -> comma
#DEBUG: Time Period   -> 2015-07-14 00:00:00+00:00 2015-07-15 00:00:00+00:00
#DEBUG: Time Zone     -> Etc/UTC
#DEBUG: Data Contact   -> daryl herzmann akrherz@iastate.edu 515-294-5978
#DEBUG: Entries Found -> -1
station,valid,lon,lat,tmpf, dwpf, relh, drct, sknt, p01i, alti, mslp, vsby, gust, skyc1, skyc2, skyc3, skyc4, skyl1, skyl2, skyl3, skyl4, presentwx, metar
YBBN,2015-07-14 00:00,153.1292,-27.3917,57.20,33.80,41.13,260.00,17.00,0.00,30.03,M,6.21,M,FEW,M,M,M,3500.00,M,M,M,M,YBBN 140000Z 26017KT 9999 FEW035 14/01 Q1017 NOSIG
YBBN,2015-07-14 00:30,153.1292,-27.3917,59.00,33.80,38.56,250.00,19.00,0.00,30.03,M,6.21,M,FEW,M,M,M,3500.00,M,M,M,M,YBBN 140030Z 25019KT 9999 FEW035 15/01 Q1017
YBBN,2015-07-14 01:00,153.1292,-27.3917,59.00,35.60,41.42,260.00,19.00,0.00,30.00,M,6.21,M,FEW,M,M,M,3500.00,M,M,M,M,YBBN 140100Z 26019KT 9999 FEW035 15/02 Q1016
YBBN,2015-07-14 01:30,153.1292,-27.3917,60.80,35.60,38.85,250.00,17.00,0.00,30.00,M,6.21,M,FEW,M,M,M,3500.00,M,M,M,M,YBBN 140130Z 25017KT 9999 FEW035 16/02 Q1016
YBBN,2015-07-14 02:00,153.1292,-27.3917,62.60,35.60,36.45,240.00,17.00,0.00,30.00,M,6.21,M,FEW,M,M,M,4000.00,M,M,M,M,YBBN 140200Z 24017KT 9999 FEW040 17/02 Q1016 NOSIG
YBBN,2015-07-14 02:30,153.1292,-27.3917,62.60,35.60,36.45,240.00,18.00,0.00,29.97,M,6.21,M,FEW,M,M,M,4500.00,M,M,M,M,YBBN 140230Z 24018KT 9999 FEW045 17/02 Q1015
YBBN,2015-07-14 03:00,153.1292,-27.3917,64.40,37.40,36.74,250.00,14.00,0.00,29.97,M,6.21,M,M,M,M,M,M,M,M,M,M,YBBN 140300Z 25014KT CAVOK 18/03 Q1015 NOSIG
YBBN,2015-07-14 03:30,153.1292,-27.3917,64.40,35.60,34.22,250.00,13.00,0.00,29.94,M,6.21,M,M,M,M,M,M,M,M,M,M,YBBN 140330Z 25013KT CAVOK 18/02 Q1014
YBBN,2015-07-14 04:00,153.1292,-27.3917,64.40,37.40,36.74,240.00,16.00,0.00,29.94,M,6.21,M,M,M,M,M,M,M,M,M,M,YBBN 140400Z 24016KT CAVOK 18/03 Q1014 NOSIG
YBBN,2015-07-14 04:30,153.1292,-27.3917,66.20,37.40,34.51,250.00,16.00,0.00,29.94,M,6.21,M,M,M,M,M,M,M,M,M,M,YBBN 140430Z 25016KT CAVOK 19/03 Q1014
YBBN,2015-07-14 05:00,153.1292,-27.3917,64.40,35.60,34.22,260.00,12.00,0.00,29.94,M,6.21,M,M,M,M,M,M,M,M,M,M,YBBN 140500Z 26012KT CAVOK 18/02 Q1014 NOSIG
YBBN,2015-07-14 05:30,153.1292,-27.3917,64.40,35.60,34.22,270.00,15.00,0.00,29.94,M,6.21,M,M,M,M,M,M,M,M,M,M,YBBN 140530Z 27015KT CAVOK 18/02 Q1014
YBBN,2015-07-14 06:00,153.1292,-27.3917,64.40,37.40,36.74,250.00,15.00,0.00,29.94,M,6.21,M,M,M,M,M,M,M,M,M,M,YBBN 140600Z 25015KT CAVOK 18/03 Q1014
YBBN,2015-07-14 06:30,153.1292,-27.3917,62.60,35.60,36.45,260.00,16.00,0.00,29.97,M,6.21,M,M,M,M,M,M,M,M,M,M,YBBN 140630Z 26016KT CAVOK 17/02 Q1015
YBBN,2015-07-14 07:00,153.1292,-27.3917,60.80,37.40,41.71,270.00,15.00,0.00,29.97,M,6.21,M,M,M,M,M,M,M,M,M,M,YBBN 140700Z 27015KT CAVOK 16/03 Q1015 NOSIG
YBBN,2015-07-14 07:30,153.1292,-27.3917,59.00,35.60,41.42,280.00,13.00,0.00,29.97,M,6.21,M,M,M,M,M,M,M,M,M,M,YBBN 140730Z 28013KT CAVOK 15/02 Q1015
YBBN,2015-07-14 08:00,153.1292,-27.3917,59.00,35.60,41.42,250.00,14.00,0.00,30.00,M,6.21,M,M,M,M,M,M,M,M,M,M,YBBN 140800Z 25014KT CAVOK 15/02 Q1016 NOSIG
YBBN,2015-07-14 08:30,153.1292,-27.3917,57.20,35.60,44.19,260.00,17.00,0.00,30.00,M,6.21,M,M,M,M,M,M,M,M,M,M,YBBN 140830Z 26017KT CAVOK 14/02 Q1016
YBBN,2015-07-14 09:00,153.1292,-27.3917,57.20,35.60,44.19,250.00,12.00,0.00,30.00,M,6.21,M,M,M,M,M,M,M,M,M,M,YBBN 140900Z 25012KT CAVOK 14/02 Q1016
YBBN,2015-07-14 09:30,153.1292,-27.3917,57.20,35.60,44.19,250.00,11.00,0.00,30.00,M,6.21,M,M,M,M,M,M,M,M,M,M,YBBN 140930Z 25011KT CAVOK 14/02 Q1016
YBBN,2015-07-14 10:00,153.1292,-27.3917,55.40,35.60,47.16,240.00,11.00,0.00,30.03,M,6.21,M,M,M,M,M,M,M,M,M,M,YBBN 141000Z 24011KT CAVOK 13/02 Q1017 NOSIG
YBBN,2015-07-14 10:30,153.1292,-27.3917,55.40,35.60,47.16,260.00,9.00,0.00,30.03,M,6.21,M,M,M,M,M,M,M,M,M,M,YBBN 141030Z 26009KT CAVOK 13/02 Q1017
YBBN,2015-07-14 11:00,153.1292,-27.3917,55.40,35.60,47.16,270.00,9.00,0.00,30.06,M,6.21,M,M,M,M,M,M,M,M,M,M,YBBN 141100Z 27009KT CAVOK 13/02 Q1018 NOSIG
YBBN,2015-07-14 11:30,153.1292,-27.3917,53.60,37.40,54.07,280.00,8.00,0.00,30.06,M,6.21,M,M,M,M,M,M,M,M,M,M,YBBN 141130Z 28008KT CAVOK 12/03 Q1018
YBBN,2015-07-14 12:00,153.1292,-27.3917,51.80,37.40,57.77,250.00,7.00,0.00,30.06,M,6.21,M,M,M,M,M,M,M,M,M,M,YBBN 141200Z 25007KT CAVOK 11/03 Q1018
YBBN,2015-07-14 12:30,153.1292,-27.3917,50.00,37.40,61.76,290.00,2.00,0.00,30.06,M,6.21,M,M,M,M,M,M,M,M,M,M,YBBN 141230Z 29002KT CAVOK 10/03 Q1018
YBBN,2015-07-14 13:00,153.1292,-27.3917,48.20,37.40,66.05,220.00,5.00,0.00,30.06,M,6.21,M,M,M,M,M,M,M,M,M,M,YBBN 141300Z 22005KT CAVOK 09/03 Q1018 NOSIG
YBBN,2015-07-14 13:30,153.1292,-27.3917,48.20,37.40,66.05,210.00,5.00,0.00,30.06,M,6.21,M,M,M,M,M,M,M,M,M,M,YBBN 141330Z 21005KT CAVOK 09/03 Q1018
YBBN,2015-07-14 14:00,153.1292,-27.3917,46.40,37.40,70.68,220.00,7.00,0.00,30.03,M,6.21,M,M,M,M,M,M,M,M,M,M,YBBN 141400Z 22007KT CAVOK 08/03 Q1017 NOSIG
YBBN,2015-07-14 14:30,153.1292,-27.3917,46.40,37.40,70.68,220.00,7.00,0.00,30.03,M,6.21,M,M,M,M,M,M,M,M,M,M,YBBN 141430Z 22007KT CAVOK 08/03 Q1017
YBBN,2015-07-14 15:00,153.1292,-27.3917,46.40,39.20,75.84,210.00,6.00,0.00,30.03,M,6.21,M,M,M,M,M,M,M,M,M,M,YBBN 141500Z 21006KT CAVOK 08/04 Q1017
YBBN,2015-07-14 15:30,153.1292,-27.3917,48.20,39.20,70.88,210.00,6.00,0.00,30.03,M,6.21,M,M,M,M,M,M,M,M,M,M,YBBN 141530Z 21006KT CAVOK 09/04 Q1017
YBBN,2015-07-14 16:00,153.1292,-27.3917,42.80,39.20,86.99,200.00,6.00,0.00,30.03,M,6.21,M,M,M,M,M,M,M,M,M,M,YBBN 141600Z 20006KT CAVOK 06/04 Q1017
YBBN,2015-07-14 16:30,153.1292,-27.3917,42.80,37.40,81.07,220.00,6.00,0.00,30.03,M,6.21,M,M,M,M,M,M,M,M,M,M,YBBN 141630Z 22006KT CAVOK 06/03 Q1017
YBBN,2015-07-14 17:00,153.1292,-27.3917,42.80,37.40,81.07,220.00,5.00,0.00,30.03,M,6.21,M,M,M,M,M,M,M,M,M,M,YBBN 141700Z 22005KT CAVOK 06/03 Q1017 NOSIG
YBBN,2015-07-14 17:30,153.1292,-27.3917,42.80,37.40,81.07,220.00,2.00,0.00,30.03,M,6.21,M,M,M,M,M,M,M,M,M,M,YBBN 141730Z 22002KT CAVOK 06/03 Q1017
YBBN,2015-07-14 18:00,153.1292,-27.3917,41.00,37.40,86.89,240.00,4.00,0.00,30.06,M,6.21,M,M,M,M,M,M,M,M,M,M,YBBN 141800Z 24004KT CAVOK 05/03 Q1018 NOSIG
YBBN,2015-07-14 18:30,153.1292,-27.3917,44.60,37.40,75.68,200.00,5.00,0.00,30.03,M,6.21,M,M,M,M,M,M,M,M,M,M,YBBN 141830Z 20005KT CAVOK 07/03 Q1017
YBBN,2015-07-14 19:00,153.1292,-27.3917,42.80,39.20,86.99,200.00,3.00,0.00,30.03,M,6.21,M,M,M,M,M,M,M,M,M,M,YBBN 141900Z 20003KT CAVOK 06/04 Q1017 NOSIG
YBBN,2015-07-14 19:30,153.1292,-27.3917,42.80,39.20,86.99,240.00,3.00,0.00,30.06,M,6.21,M,M,M,M,M,M,M,M,M,M,YBBN 141930Z 24003KT CAVOK 06/04 Q1018
YBBN,2015-07-14 20:00,153.1292,-27.3917,41.00,39.20,93.24,0.00,0.00,0.00,30.06,M,6.21,M,M,M,M,M,M,M,M,M,M,YBBN 142000Z 00000KT CAVOK 05/04 Q1018 NOSIG
YBBN,2015-07-14 20:30,153.1292,-27.3917,42.80,39.20,86.99,200.00,4.00,0.00,30.09,M,6.21,M,M,M,M,M,M,M,M,M,M,YBBN 142030Z 20004KT CAVOK 06/04 Q1019
YBBN,2015-07-14 21:00,153.1292,-27.3917,44.60,39.20,81.20,200.00,3.00,0.00,30.09,M,6.21,M,M,M,M,M,M,M,M,M,M,YBBN 142100Z 20003KT CAVOK 07/04 Q1019 NOSIG
YBBN,2015-07-14 21:30,153.1292,-27.3917,44.60,39.20,81.20,210.00,5.00,0.00,30.09,M,6.21,M,M,M,M,M,M,M,M,M,M,YBBN 142130Z 21005KT CAVOK 07/04 Q1019
YBBN,2015-07-14 22:00,153.1292,-27.3917,46.40,42.80,87.19,240.00,4.00,0.00,30.09,M,6.21,M,M,M,M,M,M,M,M,M,M,YBBN 142200Z 24004KT CAVOK 08/06 Q1019 NOSIG
YBBN,2015-07-14 22:30,153.1292,-27.3917,50.00,41.00,71.07,270.00,4.00,0.00,30.09,M,6.21,M,M,M,M,M,M,M,M,M,M,YBBN 142230Z 27004KT CAVOK 10/05 Q1019
YBBN,2015-07-14 23:00,153.1292,-27.3917,53.60,41.00,62.23,200.00,2.00,0.00,30.12,M,6.21,M,M,M,M,M,M,M,M,M,M,YBBN 142300Z 20002KT CAVOK 12/05 Q1020 NOSIG
YBBN,2015-07-14 23:30,153.1292,-27.3917,55.40,39.20,54.34,270.00,4.00,0.00,30.12,M,6.21,M,M,M,M,M,M,M,M,M,M,YBBN 142330Z 27004KT CAVOK 13/04 Q1020
