#DEBUG: Format Typ    -> comma
#DEBUG: Time Period   -> 2011-11-07 00:00:00+00:00 2011-11-08 00:00:00+00:00
#DEBUG: Time Zone     -> Etc/UTC
#DEBUG: Data Contact   -> daryl herzmann akrherz@iastate.edu 515-294-5978
#DEBUG: Entries Found -> -1
station,valid,lon,lat,tmpf, dwpf, relh, drct, sknt, p01i, alti, mslp, vsby, gust, skyc1, skyc2, skyc3, skyc4, skyl1, skyl2, skyl3, skyl4, presentwx, metar
YBBN,2011-11-07 00:00,153.1292,-27.3917,75.20,59.00,57.12,20.00,9.00,M,30.06,M,6.21,M,FEW,M,M,M,3200.00,M,M,M,M,YBBN 070000Z 02009KT 9999 FEW032 24/15 Q1018 NOSIG
YBBN,2011-11-07 00:30,153.1292,-27.3917,77.00,60.80,57.36,30.00,12.00,M,30.06,M,6.21,M,FEW,M,M,M,3500.00,M,M,M,M,YBBN 070030Z 03012KT 9999 FEW035 25/16 Q1018
YBBN,2011-11-07 01:00,153.1292,-27.3917,75.20,60.80,60.90,40.00,11.00,M,30.03,M,6.21,M,FEW,M,M,M,3500.00,M,M,M,M,YBBN 070100Z 04011KT 9999 FEW035 24/16 Q1017 NOSIG
YBBN,2011-11-07 01:30,153.1292,-27.3917,77.00,60.80,57.36,40.00,12.00,M,30.03,M,6.21,M,FEW,M,M,M,3500.00,M,M,M,M,YBBN 070130Z 04012KT 9999 FEW035 25/16 Q1017
YBBN,2011-11-07 02:00,153.1292,-27.3917,77.00,62.60,61.13,40.00,14.00,M,30.03,M,6.21,M,FEW,M,M,M,3500.00,M,M,M,M,YBBN 070200Z 04014KT 9999 FEW035 25/17 Q1017 NOSIG
YBBN,2011-11-07 02:30,153.1292,-27.3917,77.00,62.60,61.13,20.00,15.00,M,30.03,M,6.21,M,FEW,M,M,M,3500.00,M,M,M,M,YBBN 070230Z 02015KT 9999 FEW035 25/17 Q1017
YBBN,2011-11-07 03:00,153.1292,-27.3917,77.00,60.80,57.36,20.00,15.00,M,30.00,M,6.21,M,FEW,M,M,M,3500.00,M,M,M,M,YBBN 070300Z 02015KT 9999 FEW035 25/16 Q1016 NOSIG
YBBN,2011-11-07 03:30,153.1292,-27.3917,77.00,60.80,57.36,20.00,16.00,M,30.00,M,6.21,M,FEW,M,M,M,3500.00,M,M,M,M,YBBN 070330Z 02016KT 9999 FEW035 25/16 Q1016
YBBN,2011-11-07 04:00,153.1292,-27.3917,77.00,60.80,57.36,30.00,15.00,M,29.97,M,6.21,M,FEW,M,M,M,3500.00,M,M,M,M,YBBN 070400Z 03015KT 9999 FEW035 25/16 Q1015 NOSIG
YBBN,2011-11-07 04:30,153.1292,-27.3917,77.00,60.80,57.36,30.00,17.00,M,29.97,M,6.21,M,FEW,M,M,M,4000.00,M,M,M,M,YBBN 070430Z 03017KT 9999 FEW040 25/16 Q1015
YBBN,2011-11-07 05:00,153.1292,-27.3917,77.00,60.80,57.36,20.00,15.00,M,29.97,M,6.21,M,FEW,M,M,M,4000.00,M,M,M,M,YBBN 070500Z 02015KT 9999 FEW040 25/16 Q1015 NOSIG
YBBN,2011-11-07 05:30,153.1292,-27.3917,75.20,59.00,57.12,10.00,14.00,M,29.97,M,6.21,M,FEW,M,M,M,4000.00,M,M,M,M,YBBN 070530Z 01014KT 9999 FEW040 24/15 Q1015
YBBN,2011-11-07 06:00,153.1292,-27.3917,75.20,60.80,60.90,20.00,15.00,M,29.97,M,6.21,M,FEW,M,M,M,4000.00,M,M,M,M,YBBN 070600Z 02015KT 9999 FEW040 24/16 Q1015 NOSIG
YBBN,2011-11-07 06:30,153.1292,-27.3917,73.40,60.80,64.69,20.00,15.00,M,29.97,M,6.21,M,FEW,M,M,M,4000.00,M,M,M,M,YBBN 070630Z 02015KT 9999 FEW040 23/16 Q1015
YBBN,2011-11-07 07:00,153.1292,-27.3917,73.40,62.60,68.94,20.00,14.00,M,29.97,M,6.21,M,FEW,M,M,M,4000.00,M,M,M,M,YBBN 070700Z 02014KT 9999 FEW040 23/17 Q1015 NOSIG
YBBN,2011-11-07 07:30,153.1292,-27.3917,71.60,60.80,68.75,30.00,14.00,M,30.00,M,6.21,M,FEW,M,M,M,4000.00,M,M,M,M,YBBN 070730Z 03014KT 9999 FEW040 22/16 Q1016
YBBN,2011-11-07 08:00,153.1292,-27.3917,71.60,60.80,68.75,20.00,12.00,M,30.00,M,6.21,M,FEW,M,M,M,3500.00,M,M,M,M,YBBN 070800Z 02012KT 9999 FEW035 22/16 Q1016 NOSIG
YBBN,2011-11-07 08:30,153.1292,-27.3917,69.80,60.80,73.09,30.00,13.00,M,30.00,M,6.21,M,FEW,M,M,M,3500.00,M,M,M,M,YBBN 070830Z 03013KT 9999 FEW035 21/16 Q1016
YBBN,2011-11-07 09:00,153.1292,-27.3917,69.80,60.80,73.09,30.00,11.00,M,30.03,M,6.21,M,FEW,M,M,M,3500.00,M,M,M,M,YBBN 070900Z 03011KT 9999 FEW035 21/16 Q1017 NOSIG
YBBN,2011-11-07 09:30,153.1292,-27.3917,69.80,60.80,73.09,30.00,12.00,M,30.06,M,6.21,M,FEW,M,M,M,2500.00,M,M,M,M,YBBN 070930Z 03012KT 9999 FEW025 21/16 Q1018
YBBN,2011-11-07 10:00,153.1292,-27.3917,69.80,60.80,73.09,20.00,11.00,M,30.06,M,6.21,M,FEW,M,M,M,2800.00,M,M,M,M,YBBN 071000Z 02011KT 9999 FEW028 21/16 Q1018 NOSIG
YBBN,2011-11-07 10:30,153.1292,-27.3917,69.80,60.80,73.09,20.00,11.00,M,30.06,M,6.21,M,FEW,M,M,M,2800.00,M,M,M,M,YBBN 071030Z 02011KT 9999 FEW028 21/16 Q1018
YBBN,2011-11-07 11:00,153.1292,-27.3917,69.80,60.80,73.09,20.00,11.00,M,30.06,M,6.21,M,FEW,M,M,M,2800.00,M,M,M,M,YBBN 071100Z 02011KT 9999 FEW028 21/16 Q1018 NOSIG
YBBN,2011-11-07 11:30,153.1292,-27.3917,69.80,60.80,73.09,20.00,11.00,M,30.06,M,6.21,M,FEW,M,M,M,2800.00,M,M,M,M,YBBN 071130Z 02011KT 9999 FEW028 21/16 Q1018
YBBN,2011-11-07 12:00,153.1292,-27.3917,69.80,60.80,73.09,20.00,12.00,M,30.06,M,6.21,M,FEW,M,M,M,2800.00,M,M,M,M,YBBN 071200Z 02012KT 9999 FEW028 21/16 Q1018 NOSIG
YBBN,2011-11-07 12:30,153.1292,-27.3917,69.80,60.80,73.09,10.00,11.00,M,30.06,M,6.21,M,FEW,M,M,M,2800.00,M,M,M,M,YBBN 071230Z 01011KT 9999 FEW028 21/16 Q1018
YBBN,2011-11-07 13:00,153.1292,-27.3917,69.80,60.80,73.09,10.00,12.00,M,30.06,M,6.21,M,SCT,M,M,M,2700.00,M,M,M,M,YBBN 071300Z 01012KT 9999 SCT027 21/16 Q1018 NOSIG
YBBN,2011-11-07 13:30,153.1292,-27.3917,69.80,60.80,73.09,20.00,10.00,M,30.06,M,6.21,M,SCT,M,M,M,3000.00,M,M,M,M,YBBN 071330Z 02010KT 9999 SCT030 21/16 Q1018
YBBN,2011-11-07 14:00,153.1292,-27.3917,69.80,60.80,73.09,10.00,10.00,M,30.06,M,6.21,M,BKN,M,M,M,2800.00,M,M,M,M,YBBN 071400Z 01010KT 9999 BKN028 21/16 Q1018 NOSIG
YBBN,2011-11-07 14:30,153.1292,-27.3917,69.80,60.80,73.09,10.00,10.00,M,30.06,M,6.21,M,BKN,M,M,M,2800.00,M,M,M,M,YBBN 071430Z 01010KT 9999 BKN028 21/16 Q1018
YBBN,2011-11-07 15:00,153.1292,-27.3917,68.00,60.80,77.75,310.00,7.00,M,30.06,M,6.21,M,SCT,M,M,M,3000.00,M,M,M,M,YBBN 071500Z 31007KT 9999 SCT030 20/16 Q1018 NOSIG
YBBN,2011-11-07 15:30,153.1292,-27.3917,66.20,60.80,82.74,310.00,4.00,M,30.03,M,6.21,M,SCT,M,M,M,3200.00,M,M,M,M,YBBN 071530Z 31004KT 9999 SCT032 19/16 Q1017
YBBN,2011-11-07 16:00,153.1292,-27.3917,66.20,60.80,82.74,300.00,6.00,M,30.03,M,6.21,M,SCT,M,M,M,3000.00,M,M,M,M,YBBN 071600Z 30006KT 9999 SCT030 19/16 Q1017 NOSIG
YBBN,2011-11-07 16:30,153.1292,-27.3917,66.20,60.80,82.74,300.00,6.00,M,30.03,M,6.21,M,SCT,M,M,M,3000.00,M,M,M,M,YBBN 071630Z 30006KT 9999 SCT030 19/16 Q1017
YBBN,2011-11-07 17:00,153.1292,-27.3917,66.20,60.80,82.74,300.00,5.00,M,30.03,M,6.21,M,FEW,SCT,M,M,2800.00,3300.00,M,M,M,YBBN 071700Z 30005KT 9999 FEW028 SCT033 19/16 Q1017 NOSIG
YBBN,2011-11-07 17:30,153.1292,-27.3917,64.40,60.80,88.09,290.00,4.00,M,30.03,M,6.21,M,FEW,M,M,M,2800.00,M,M,M,M,YBBN 071730Z 29004KT 9999 FEW028 18/16 Q1017
YBBN,2011-11-07 18:00,153.1292,-27.3917,64.40,60.80,88.09,290.00,3.00,M,30.03,M,6.21,M,FEW,SCT,M,M,2800.00,3300.00,M,M,M,YBBN 071800Z 29003KT 9999 FEW028 SCT033 18/16 Q1017 NOSIG
YBBN,2011-11-07 18:30,153.1292,-27.3917,64.40,60.80,88.09,0.00,0.00,M,30.06,M,6.21,M,FEW,SCT,M,M,2800.00,3200.00,M,M,M,YBBN 071830Z 00000KT 9999 FEW028 SCT032 18/16 Q1018
YBBN,2011-11-07 19:00,153.1292,-27.3917,64.40,60.80,88.09,0.00,0.00,M,30.06,M,6.21,M,FEW,SCT,M,M,2900.00,3500.00,M,M,M,YBBN 071900Z 00000KT 9999 FEW029 SCT035 18/16 Q1018 NOSIG
YBBN,2011-11-07 19:30,153.1292,-27.3917,66.20,60.80,82.74,260.00,3.00,M,30.06,M,6.21,M,FEW,SCT,M,M,2900.00,3400.00,M,M,M,YBBN 071930Z 26003KT 9999 FEW029 SCT034 19/16 Q1018
YBBN,2011-11-07 20:00,153.1292,-27.3917,68.00,62.60,82.86,240.00,3.00,M,30.09,M,6.21,M,FEW,M,M,M,2900.00,M,M,M,M,YBBN 072000Z 24003KT 9999 FEW029 20/17 Q1019 NOSIG
YBBN,2011-11-07 20:30,153.1292,-27.3917,69.80,60.80,73.09,280.00,4.00,M,30.09,M,6.21,M,FEW,M,M,M,3000.00,M,M,M,M,YBBN 072030Z 28004KT 9999 FEW030 21/16 Q1019
YBBN,2011-11-07 21:00,153.1292,-27.3917,71.60,60.80,68.75,320.00,5.00,M,30.09,M,6.21,M,FEW,M,M,M,3200.00,M,M,M,M,YBBN 072100Z 32005KT 9999 FEW032 22/16 Q1019 NOSIG
YBBN,2011-11-07 21:30,153.1292,-27.3917,73.40,60.80,64.69,350.00,7.00,M,30.09,M,6.21,M,FEW,M,M,M,3200.00,M,M,M,M,YBBN 072130Z 35007KT 9999 FEW032 23/16 Q1019
YBBN,2011-11-07 22:00,153.1292,-27.3917,75.20,60.80,60.90,350.00,7.00,M,30.12,M,6.21,M,FEW,M,M,M,2800.00,M,M,M,M,YBBN 072200Z 35007KT 9999 FEW028 24/16 Q1020 NOSIG
YBBN,2011-11-07 22:30,153.1292,-27.3917,75.20,60.80,60.90,350.00,7.00,M,30.12,M,6.21,M,FEW,M,M,M,2800.00,M,M,M,M,YBBN 072230Z 35007KT 9999 FEW028 24/16 Q1020
YBBN,2011-11-07 23:00,153.1292,-27.3917,75.20,60.80,60.90,10.00,7.00,M,30.09,M,6.21,M,FEW,M,M,M,3000.00,M,M,M,M,YBBN 072300Z 01007KT 9999 FEW030 24/16 Q1019 NOSIG
YBBN,2011-11-07 23:30,153.1292,-27.3917,77.00,60.80,57.36,10.00,8.00,M,30.09,M,6.21,M,FEW,M,M,M,3000.00,M,M,M,M,YBBN 072330Z 01008KT 9999 FEW030 25/16 Q1019
