#DEBUG: Format Typ    -> comma
#DEBUG: Time Period   -> 2015-10-30 00:00:00+00:00 2015-10-31 00:00:00+00:00
#DEBUG: Time Zone     -> Etc/UTC
#DEBUG: Data Contact   -> daryl herzmann akrherz@iastate.edu 515-294-5978
#DEBUG: Entries Found -> -1
station,valid,lon,lat,tmpf, dwpf, relh, drct, sknt, p01i, alti, mslp, vsby, gust, skyc1, skyc2, skyc3, skyc4, skyl1, skyl2, skyl3, skyl4, presentwx, metar
YBBN,2015-10-30 00:00,153.1292,-27.3917,73.40,57.20,56.88,110.00,7.00,0.00,30.21,M,6.21,M,SCT,SCT,M,M,3000.00,6500.00,M,M,VCSH,YBBN 300000Z 11007KT 080V150 9999 VCSH SCT030 SCT065 23/14 Q1023 NOSIG
YBBN,2015-10-30 00:30,153.1292,-27.3917,73.40,59.00,60.67,110.00,8.00,0.00,30.18,M,6.21,M,BKN,SCT,M,M,2800.00,6500.00,M,M,VCSH,YBBN 300030Z 11008KT 9999 VCSH BKN028 SCT065 23/15 Q1022
YBBN,2015-10-30 01:00,153.1292,-27.3917,73.40,57.20,56.88,100.00,8.00,0.00,30.18,M,6.21,M,SCT,BKN,M,M,2800.00,6500.00,M,M,M,YBBN 300100Z 10008KT 9999 SCT028 BKN065 23/14 Q1022 NOSIG
YBBN,2015-10-30 01:30,153.1292,-27.3917,73.40,59.00,60.67,110.00,8.00,0.00,30.18,M,6.21,M,SCT,BKN,M,M,2800.00,7000.00,M,M,M,YBBN 300130Z 11008KT 080V140 9999 SCT028 BKN070 23/15 Q1022
YBBN,2015-10-30 02:00,153.1292,-27.3917,73.40,59.00,60.67,60.00,9.00,0.00,30.18,M,6.21,M,SCT,BKN,M,M,2800.00,7000.00,M,M,M,YBBN 300200Z 06009KT 9999 SCT028 BKN070 23/15 Q1022 NOSIG
YBBN,2015-10-30 02:30,153.1292,-27.3917,71.60,57.20,60.44,70.00,9.00,0.00,30.15,M,6.21,M,SCT,BKN,M,M,2800.00,7000.00,M,M,M,YBBN 300230Z 07009KT 9999 SCT028 BKN070 22/14 Q1021
YBBN,2015-10-30 03:00,153.1292,-27.3917,73.40,57.20,56.88,70.00,9.00,0.00,30.15,M,6.21,M,SCT,BKN,M,M,2800.00,7000.00,M,M,M,YBBN 300300Z 07009KT 9999 SCT028 BKN070 23/14 Q1021 NOSIG
YBBN,2015-10-30 03:30,153.1292,-27.3917,73.40,57.20,56.88,60.00,10.00,0.00,30.15,M,6.21,M,FEW,BKN,M,M,2800.00,7000.00,M,M,M,YBBN 300330Z 06010KT 9999 FEW028 BKN070 23/14 Q1021
YBBN,2015-10-30 04:00,153.1292,-27.3917,73.40,57.20,56.88,60.00,11.00,0.00,30.15,M,6.21,M,SCT,BKN,M,M,2800.00,8000.00,M,M,M,YBBN 300400Z 06011KT 9999 SCT028 BKN080 23/14 Q1021
YBBN,2015-10-30 04:30,153.1292,-27.3917,71.60,55.40,56.63,60.00,9.00,0.00,30.15,M,6.21,M,FEW,SCT,BKN,M,1800.00,2800.00,8000.00,M,M,YBBN 300430Z 06009KT 9999 FEW018 SCT028 BKN080 22/13 Q1021
YBBN,2015-10-30 05:00,153.1292,-27.3917,71.60,55.40,56.63,60.00,10.00,0.00,30.12,M,6.21,M,FEW,BKN,M,M,3000.00,8000.00,M,M,M,YBBN 300500Z 06010KT 9999 FEW030 BKN080 22/13 Q1020 NOSIG
YBBN,2015-10-30 05:30,153.1292,-27.3917,71.60,55.40,56.63,50.00,10.00,0.00,30.12,M,6.21,M,FEW,BKN,M,M,3000.00,8000.00,M,M,M,YBBN 300530Z 05010KT 9999 FEW030 BKN080 22/13 Q1020
YBBN,2015-10-30 06:00,153.1292,-27.3917,71.60,55.40,56.63,40.00,9.00,0.00,30.15,M,6.21,M,FEW,SCT,M,M,3000.00,9000.00,M,M,M,YBBN 300600Z 04009KT 9999 FEW030 SCT090 22/13 Q1021 NOSIG
YBBN,2015-10-30 06:30,153.1292,-27.3917,71.60,55.40,56.63,60.00,8.00,0.00,30.15,M,6.21,M,FEW,SCT,M,M,3000.00,9000.00,M,M,M,YBBN 300630Z 06008KT 9999 FEW030 SCT090 22/13 Q1021
YBBN,2015-10-30 07:00,153.1292,-27.3917,71.60,55.40,56.63,70.00,8.00,0.00,30.15,M,6.21,M,FEW,M,M,M,3000.00,M,M,M,M,YBBN 300700Z 07008KT 9999 FEW030 22/13 Q1021 NOSIG
YBBN,2015-10-30 07:30,153.1292,-27.3917,71.60,53.60,53.03,50.00,7.00,0.00,30.15,M,6.21,M,FEW,M,M,M,3500.00,M,M,M,M,YBBN 300730Z 05007KT 9999 FEW035 22/12 Q1021
YBBN,2015-10-30 08:00,153.1292,-27.3917,69.80,55.40,60.21,50.00,7.00,0.00,30.15,M,6.21,M,FEW,M,M,M,3500.00,M,M,M,M,YBBN 300800Z 05007KT 9999 FEW035 21/13 Q1021 NOSIG
YBBN,2015-10-30 08:30,153.1292,-27.3917,69.80,53.60,56.38,60.00,7.00,0.00,30.15,M,6.21,M,SCT,M,M,M,3500.00,M,M,M,M,YBBN 300830Z 06007KT 9999 SCT035 21/12 Q1021
YBBN,2015-10-30 09:00,153.1292,-27.3917,69.80,55.40,60.21,60.00,6.00,0.00,30.15,M,6.21,M,SCT,M,M,M,4000.00,M,M,M,M,YBBN 300900Z 06006KT 9999 SCT040 21/13 Q1021 NOSIG
YBBN,2015-10-30 09:30,153.1292,-27.3917,69.80,55.40,60.21,70.00,5.00,0.00,30.18,M,6.21,M,SCT,M,M,M,4400.00,M,M,M,M,YBBN 300930Z 07005KT 9999 SCT044 21/13 Q1022
YBBN,2015-10-30 10:00,153.1292,-27.3917,69.80,55.40,60.21,60.00,5.00,0.00,30.18,M,6.21,M,SCT,M,M,M,4000.00,M,M,M,M,YBBN 301000Z 06005KT 9999 SCT040 21/13 Q1022 NOSIG
YBBN,2015-10-30 10:30,153.1292,-27.3917,69.80,57.20,64.26,50.00,6.00,0.00,30.18,M,6.21,M,SCT,M,M,M,3600.00,M,M,M,M,YBBN 301030Z 05006KT 9999 SCT036 21/14 Q1022
YBBN,2015-10-30 11:00,153.1292,-27.3917,69.80,55.40,60.21,50.00,6.00,0.00,30.18,M,6.21,M,BKN,M,M,M,4500.00,M,M,M,M,YBBN 301100Z 05006KT 9999 BKN045 21/13 Q1022 NOSIG
YBBN,2015-10-30 11:30,153.1292,-27.3917,69.80,55.40,60.21,50.00,6.00,0.00,30.18,M,6.21,M,BKN,M,M,M,4400.00,M,M,M,M,YBBN 301130Z 05006KT 9999 BKN044 21/13 Q1022
YBBN,2015-10-30 12:00,153.1292,-27.3917,69.80,55.40,60.21,40.00,7.00,0.00,30.18,M,6.21,M,BKN,M,M,M,4000.00,M,M,M,M,YBBN 301200Z 04007KT 9999 BKN040 21/13 Q1022
YBBN,2015-10-30 12:30,153.1292,-27.3917,69.80,55.40,60.21,50.00,6.00,0.00,30.18,M,6.21,M,SCT,M,M,M,4500.00,M,M,M,M,YBBN 301230Z 05006KT 9999 SCT045 21/13 Q1022
YBBN,2015-10-30 13:00,153.1292,-27.3917,68.00,55.40,64.04,40.00,7.00,0.00,30.18,M,6.21,M,M,M,M,M,M,M,M,M,M,YBBN 301300Z 04007KT CAVOK 20/13 Q1022 RMK 5SC052
YBBN,2015-10-30 13:30,153.1292,-27.3917,68.00,57.20,68.35,30.00,6.00,0.00,30.18,M,6.21,M,FEW,BKN,M,M,3500.00,5000.00,M,M,M,YBBN 301330Z 03006KT 9999 FEW035 BKN050 20/14 Q1022
YBBN,2015-10-30 14:00,153.1292,-27.3917,68.00,57.20,68.35,40.00,6.00,0.00,30.18,M,6.21,M,FEW,BKN,M,M,3500.00,5500.00,M,M,M,YBBN 301400Z 04006KT 9999 FEW035 BKN055 20/14 Q1022 NOSIG
YBBN,2015-10-30 14:30,153.1292,-27.3917,69.80,55.40,60.21,50.00,5.00,0.00,30.18,M,6.21,M,M,M,M,M,M,M,M,M,M,YBBN 301430Z 05005KT CAVOK 21/13 Q1022 RMK 5SC055
YBBN,2015-10-30 15:00,153.1292,-27.3917,69.80,55.40,60.21,50.00,7.00,0.00,30.15,M,6.21,M,BKN,M,M,M,3800.00,M,M,M,M,YBBN 301500Z 05007KT 9999 BKN038 21/13 Q1021 NOSIG
YBBN,2015-10-30 15:30,153.1292,-27.3917,68.00,57.20,68.35,0.00,0.00,0.00,30.15,M,6.21,M,BKN,M,M,M,3800.00,M,M,M,M,YBBN 301530Z 00000KT 9999 BKN038 20/14 Q1021
YBBN,2015-10-30 16:00,153.1292,-27.3917,66.20,59.00,77.60,20.00,5.00,0.00,30.15,M,6.21,M,SCT,M,M,M,3000.00,M,M,M,M,YBBN 301600Z 02005KT 9999 SCT030 19/15 Q1021 NOSIG
YBBN,2015-10-30 16:30,153.1292,-27.3917,64.40,60.80,88.09,40.00,4.00,0.00,30.15,M,6.21,M,BKN,M,M,M,3700.00,M,M,M,M,YBBN 301630Z 04004KT 9999 BKN037 18/16 Q1021
YBBN,2015-10-30 17:00,153.1292,-27.3917,66.20,59.00,77.60,50.00,7.00,0.00,30.15,M,6.21,M,SCT,BKN,M,M,3700.00,5000.00,M,M,M,YBBN 301700Z 05007KT 9999 SCT037 BKN050 19/15 Q1021
YBBN,2015-10-30 17:30,153.1292,-27.3917,68.00,55.40,64.04,50.00,5.00,0.00,30.15,M,6.21,M,BKN,M,M,M,3700.00,M,M,M,M,YBBN 301730Z 05005KT 9999 BKN037 20/13 Q1021
YBBN,2015-10-30 18:00,153.1292,-27.3917,68.00,55.40,64.04,70.00,4.00,0.00,30.15,M,6.21,M,BKN,M,M,M,4800.00,M,M,M,M,YBBN 301800Z 07004KT 9999 BKN048 20/13 Q1021 NOSIG
YBBN,2015-10-30 18:30,153.1292,-27.3917,68.00,55.40,64.04,70.00,5.00,0.00,30.15,M,6.21,M,M,M,M,M,M,M,M,M,M,YBBN 301830Z 07005KT CAVOK 20/13 Q1021 RMK 5SC050
YBBN,2015-10-30 19:00,153.1292,-27.3917,62.60,59.00,88.00,110.00,4.00,0.00,30.15,M,6.21,M,M,M,M,M,M,M,M,M,M,YBBN 301900Z 11004KT 080V210 CAVOK 17/15 Q1021
YBBN,2015-10-30 19:30,153.1292,-27.3917,62.60,59.00,88.00,210.00,5.00,0.00,30.18,M,6.21,M,FEW,M,M,M,2500.00,M,M,M,M,YBBN 301930Z 21005KT 9999 FEW025 17/15 Q1022
YBBN,2015-10-30 20:00,153.1292,-27.3917,64.40,59.00,82.62,200.00,4.00,0.00,30.18,M,6.21,M,FEW,M,M,M,3000.00,M,M,M,M,YBBN 302000Z 20004KT 9999 FEW030 18/15 Q1022
YBBN,2015-10-30 20:30,153.1292,-27.3917,68.00,59.00,72.92,0.00,0.00,0.00,30.18,M,6.21,M,FEW,M,M,M,3000.00,M,M,M,M,YBBN 302030Z 00000KT 9999 FEW030 20/15 Q1022
YBBN,2015-10-30 21:00,153.1292,-27.3917,71.60,55.40,56.63,50.00,7.00,0.00,30.18,M,6.21,M,FEW,M,M,M,3500.00,M,M,M,M,YBBN 302100Z 05007KT 9999 FEW035 22/13 Q1022 NOSIG
YBBN,2015-10-30 21:30,153.1292,-27.3917,71.60,55.40,56.63,40.00,8.00,0.00,30.18,M,6.21,M,FEW,M,M,M,3500.00,M,M,M,M,YBBN 302130Z 04008KT 9999 FEW035 22/13 Q1022
YBBN,2015-10-30 22:00,153.1292,-27.3917,71.60,55.40,56.63,40.00,8.00,0.00,30.18,M,6.21,M,SCT,M,M,M,3800.00,M,M,M,M,YBBN 302200Z 04008KT 9999 SCT038 22/13 Q1022
YBBN,2015-10-30 22:30,153.1292,-27.3917,73.40,55.40,53.29,40.00,8.00,0.00,30.21,M,6.21,M,SCT,M,M,M,3800.00,M,M,M,M,YBBN 302230Z 04008KT 9999 SCT038 23/13 Q1023
YBBN,2015-10-30 23:00,153.1292,-27.3917,73.40,57.20,56.88,50.00,9.00,0.00,30.18,M,6.21,M,SCT,M,M,M,3600.00,M,M,M,M,YBBN 302300Z 05009KT 9999 SCT036 23/14 Q1022
YBBN,2015-10-30 23:30,153.1292,-27.3917,75.20,57.20,53.55,40.00,10.00,0.00,30.18,M,6.21,M,SCT,M,M,M,3800.00,M,M,M,M,YBBN 302330Z 04010KT 9999 SCT038 24/14 Q1022
