#DEBUG: Format Typ    -> comma
#DEBUG: Time Period   -> 2013-09-03 00:00:00+00:00 2013-09-04 00:00:00+00:00
#DEBUG: Time Zone     -> Etc/UTC
#DEBUG: Data Contact   -> daryl herzmann akrherz@iastate.edu 515-294-5978
#DEBUG: Entries Found -> -1
station,valid,lon,lat,tmpf, dwpf, relh, drct, sknt, p01i, alti, mslp, vsby, gust, skyc1, skyc2, skyc3, skyc4, skyl1, skyl2, skyl3, skyl4, presentwx, metar
YBBN,2013-09-03 00:00,153.1292,-27.3917,69.80,53.60,56.38,150.00,6.00,0.00,30.42,M,6.21,M,FEW,BKN,M,M,3800.00,6000.00,M,M,M,YBBN 030000Z 15006KT 9999 FEW038 BKN060 21/12 Q1030
YBBN,2013-09-03 00:30,153.1292,-27.3917,71.60,53.60,53.03,120.00,12.00,0.00,30.42,M,6.21,M,SCT,BKN,M,M,3800.00,6000.00,M,M,M,YBBN 030030Z 12012KT 9999 SCT038 BKN060 22/12 Q1030
YBBN,2013-09-03 01:00,153.1292,-27.3917,71.60,51.80,49.64,120.00,12.00,0.00,30.42,M,6.21,M,SCT,M,M,M,3600.00,M,M,M,M,YBBN 030100Z 12012KT 9999 SCT036 22/11 Q1030 NOSIG
YBBN,2013-09-03 01:30,153.1292,-27.3917,71.60,50.00,46.43,110.00,12.00,0.00,30.42,M,6.21,M,SCT,M,M,M,3600.00,M,M,M,M,YBBN 030130Z 11012KT 9999 SCT036 22/10 Q1030
YBBN,2013-09-03 02:00,153.1292,-27.3917,69.80,50.00,49.37,110.00,13.00,0.00,30.39,M,6.21,M,SCT,M,M,M,4200.00,M,M,M,M,YBBN 030200Z 11013KT 9999 SCT042 21/10 Q1029 NOSIG
YBBN,2013-09-03 02:30,153.1292,-27.3917,71.60,48.20,43.42,110.00,14.00,0.00,30.39,M,6.21,M,SCT,M,M,M,4200.00,M,M,M,M,YBBN 030230Z 11014KT 9999 SCT042 22/09 Q1029
YBBN,2013-09-03 03:00,153.1292,-27.3917,71.60,46.40,40.57,110.00,13.00,0.00,30.39,M,6.21,M,SCT,M,M,M,4500.00,M,M,M,M,YBBN 030300Z 11013KT 9999 SCT045 22/08 Q1029
YBBN,2013-09-03 03:30,153.1292,-27.3917,71.60,50.00,46.43,120.00,13.00,0.00,30.39,M,6.21,M,SCT,M,M,M,4500.00,M,M,M,M,YBBN 030330Z 12013KT 9999 SCT045 22/10 Q1029
YBBN,2013-09-03 04:00,153.1292,-27.3917,69.80,50.00,49.37,110.00,13.00,0.00,30.36,M,6.21,M,M,M,M,M,M,M,M,M,M,YBBN 030400Z 11013KT CAVOK 21/10 Q1028
YBBN,2013-09-03 04:30,153.1292,-27.3917,71.60,50.00,46.43,120.00,13.00,0.00,30.36,M,6.21,M,SCT,M,M,M,4500.00,M,M,M,M,YBBN 030430Z 12013KT 9999 SCT045 22/10 Q1028
YBBN,2013-09-03 05:00,153.1292,-27.3917,69.80,50.00,49.37,120.00,14.00,0.00,30.36,M,6.21,M,SCT,M,M,M,4500.00,M,M,M,M,YBBN 030500Z 12014KT 9999 SCT045 21/10 Q1028 NOSIG
YBBN,2013-09-03 05:30,153.1292,-27.3917,69.80,46.40,43.13,130.00,12.00,0.00,30.36,M,6.21,M,SCT,M,M,M,4200.00,M,M,M,M,YBBN 030530Z 13012KT 9999 SCT042 21/08 Q1028
YBBN,2013-09-03 06:00,153.1292,-27.3917,69.80,44.60,40.29,120.00,10.00,0.00,30.39,M,6.21,M,FEW,M,M,M,4200.00,M,M,M,M,YBBN 030600Z 12010KT 9999 FEW042 21/07 Q1029
YBBN,2013-09-03 06:30,153.1292,-27.3917,68.00,44.60,42.85,120.00,11.00,0.00,30.39,M,6.21,M,FEW,M,M,M,4200.00,M,M,M,M,YBBN 030630Z 12011KT 9999 FEW042 20/07 Q1029
YBBN,2013-09-03 07:00,153.1292,-27.3917,68.00,46.40,45.88,130.00,10.00,0.00,30.39,M,6.21,M,FEW,M,M,M,4000.00,M,M,M,M,YBBN 030700Z 13010KT 9999 FEW040 20/08 Q1029 NOSIG
YBBN,2013-09-03 07:30,153.1292,-27.3917,68.00,46.40,45.88,140.00,9.00,0.00,30.39,M,6.21,M,FEW,M,M,M,4000.00,M,M,M,M,YBBN 030730Z 14009KT 9999 FEW040 20/08 Q1029
YBBN,2013-09-03 08:00,153.1292,-27.3917,66.20,46.40,48.83,160.00,8.00,0.00,30.42,M,6.21,M,FEW,M,M,M,4000.00,M,M,M,M,YBBN 030800Z 16008KT 9999 FEW040 19/08 Q1030 NOSIG
YBBN,2013-09-03 08:30,153.1292,-27.3917,64.40,46.40,51.98,170.00,8.00,0.00,30.42,M,6.21,M,FEW,M,M,M,4000.00,M,M,M,M,YBBN 030830Z 17008KT 9999 FEW040 18/08 Q1030
YBBN,2013-09-03 09:00,153.1292,-27.3917,64.40,44.60,48.55,170.00,7.00,0.00,30.42,M,6.21,M,FEW,SCT,M,M,4000.00,6500.00,M,M,M,YBBN 030900Z 17007KT 9999 FEW040 SCT065 18/07 Q1030
YBBN,2013-09-03 09:30,153.1292,-27.3917,64.40,46.40,51.98,170.00,7.00,0.00,30.42,M,6.21,M,FEW,BKN,M,M,4000.00,6500.00,M,M,M,YBBN 030930Z 17007KT 9999 FEW040 BKN065 18/08 Q1030
YBBN,2013-09-03 10:00,153.1292,-27.3917,64.40,46.40,51.98,170.00,9.00,0.00,30.45,M,6.21,M,FEW,BKN,M,M,4000.00,6500.00,M,M,M,YBBN 031000Z 17009KT 9999 FEW040 BKN065 18/08 Q1031
YBBN,2013-09-03 10:30,153.1292,-27.3917,64.40,46.40,51.98,170.00,8.00,0.00,30.45,M,6.21,M,FEW,BKN,M,M,4000.00,6000.00,M,M,M,YBBN 031030Z 17008KT 9999 FEW040 BKN060 18/08 Q1031
YBBN,2013-09-03 11:00,153.1292,-27.3917,62.60,46.40,55.37,170.00,8.00,0.00,30.45,M,6.21,M,FEW,M,M,M,4000.00,M,M,M,M,YBBN 031100Z 17008KT 9999 FEW040 17/08 Q1031
YBBN,2013-09-03 11:30,153.1292,-27.3917,62.60,46.40,55.37,160.00,7.00,0.00,30.45,M,6.21,M,FEW,M,M,M,4000.00,M,M,M,M,YBBN 031130Z 16007KT 9999 FEW040 17/08 Q1031
YBBN,2013-09-03 12:00,153.1292,-27.3917,62.60,46.40,55.37,170.00,8.00,0.00,30.45,M,6.21,M,FEW,BKN,M,M,4000.00,5800.00,M,M,M,YBBN 031200Z 17008KT 9999 FEW040 BKN058 17/08 Q1031 NOSIG
YBBN,2013-09-03 12:30,153.1292,-27.3917,62.60,46.40,55.37,170.00,8.00,0.00,30.45,M,6.21,M,FEW,BKN,M,M,4000.00,6000.00,M,M,M,YBBN 031230Z 17008KT 9999 FEW040 BKN060 17/08 Q1031
YBBN,2013-09-03 13:00,153.1292,-27.3917,60.80,48.20,63.15,180.00,7.00,0.00,30.45,M,6.21,M,FEW,BKN,M,M,4000.00,6000.00,M,M,M,YBBN 031300Z 18007KT 9999 FEW040 BKN060 16/09 Q1031
YBBN,2013-09-03 13:30,153.1292,-27.3917,60.80,48.20,63.15,190.00,5.00,0.00,30.45,M,6.21,M,FEW,SCT,M,M,4000.00,6000.00,M,M,M,YBBN 031330Z 19005KT 9999 FEW040 SCT060 16/09 Q1031
YBBN,2013-09-03 14:00,153.1292,-27.3917,62.60,50.00,63.38,160.00,6.00,0.00,30.45,M,6.21,M,FEW,SCT,M,M,4000.00,6000.00,M,M,M,YBBN 031400Z 16006KT 9999 FEW040 SCT060 17/10 Q1031 RMK METCONSOLE CRASHED SO MESSAGE WAS FORCED
YBBN,2013-09-03 14:30,153.1292,-27.3917,60.80,48.20,63.15,160.00,6.00,0.00,30.42,M,6.21,M,FEW,M,M,M,4000.00,M,M,M,M,YBBN 031430Z 16006KT 9999 FEW040 16/09 Q1030
YBBN,2013-09-03 15:00,153.1292,-27.3917,59.00,48.20,67.33,170.00,6.00,0.00,30.42,M,6.21,M,FEW,M,M,M,4000.00,M,M,M,M,YBBN 031500Z 17006KT 9999 FEW040 15/09 Q1030
YBBN,2013-09-03 15:30,153.1292,-27.3917,59.00,48.20,67.33,180.00,6.00,0.00,30.42,M,6.21,M,FEW,M,M,M,4000.00,M,M,M,M,YBBN 031530Z 18006KT 9999 FEW040 15/09 Q1030
YBBN,2013-09-03 16:00,153.1292,-27.3917,59.00,46.40,62.92,170.00,7.00,0.00,30.42,M,6.21,M,FEW,SCT,M,M,4000.00,6000.00,M,M,M,YBBN 031600Z 17007KT 9999 FEW040 SCT060 15/08 Q1030 NOSIG
YBBN,2013-09-03 16:30,153.1292,-27.3917,57.20,48.20,71.83,210.00,6.00,0.00,30.39,M,6.21,M,FEW,BKN,M,M,4000.00,6000.00,M,M,M,YBBN 031630Z 21006KT 9999 FEW040 BKN060 14/09 Q1029
YBBN,2013-09-03 17:00,153.1292,-27.3917,57.20,48.20,71.83,200.00,6.00,0.00,30.39,M,6.21,M,FEW,M,M,M,4000.00,M,M,M,M,YBBN 031700Z 20006KT 9999 FEW040 14/09 Q1029 NOSIG
YBBN,2013-09-03 17:30,153.1292,-27.3917,59.00,48.20,67.33,190.00,6.00,0.00,30.39,M,6.21,M,FEW,BKN,M,M,4000.00,6000.00,M,M,M,YBBN 031730Z 19006KT 9999 FEW040 BKN060 15/09 Q1029
YBBN,2013-09-03 18:00,153.1292,-27.3917,60.80,48.20,63.15,180.00,5.00,0.00,30.39,M,6.21,M,FEW,SCT,M,M,4000.00,5600.00,M,M,M,YBBN 031800Z 18005KT 9999 FEW040 SCT056 16/09 Q1029
YBBN,2013-09-03 18:30,153.1292,-27.3917,57.20,48.20,71.83,200.00,5.00,0.00,30.39,M,6.21,M,FEW,M,M,M,4000.00,M,M,M,M,YBBN 031830Z 20005KT 9999 FEW040 14/09 Q1029
YBBN,2013-09-03 19:00,153.1292,-27.3917,53.60,48.20,81.87,200.00,7.00,0.00,30.42,M,6.21,M,FEW,M,M,M,4000.00,M,M,M,M,YBBN 031900Z 20007KT 9999 FEW040 12/09 Q1030 NOSIG
YBBN,2013-09-03 19:30,153.1292,-27.3917,53.60,48.20,81.87,210.00,7.00,0.00,30.42,M,6.21,M,FEW,M,M,M,4000.00,M,M,M,M,YBBN 031930Z 21007KT 9999 FEW040 12/09 Q1030
YBBN,2013-09-03 20:00,153.1292,-27.3917,57.20,48.20,71.83,200.00,5.00,0.00,30.42,M,6.21,M,FEW,M,M,M,4000.00,M,M,M,M,YBBN 032000Z 20005KT 9999 FEW040 14/09 Q1030 NOSIG
YBBN,2013-09-03 20:30,153.1292,-27.3917,55.40,48.20,76.66,200.00,5.00,0.00,30.42,M,6.21,M,SCT,M,M,M,4500.00,M,M,M,M,YBBN 032030Z 20005KT 9999 SCT045 13/09 Q1030
YBBN,2013-09-03 21:00,153.1292,-27.3917,59.00,51.80,76.98,210.00,6.00,0.00,30.42,M,6.21,M,FEW,M,M,M,4500.00,M,M,M,M,YBBN 032100Z 21006KT 9999 FEW045 15/11 Q1030 NOSIG
YBBN,2013-09-03 21:30,153.1292,-27.3917,64.40,50.00,59.50,170.00,6.00,0.00,30.45,M,6.21,M,M,M,M,M,M,M,M,M,M,YBBN 032130Z 17006KT CAVOK 18/10 Q1031
YBBN,2013-09-03 22:00,153.1292,-27.3917,66.20,50.00,55.88,180.00,7.00,0.00,30.45,M,6.21,M,M,M,M,M,M,M,M,M,M,YBBN 032200Z 18007KT CAVOK 19/10 Q1031
YBBN,2013-09-03 22:30,153.1292,-27.3917,66.20,48.20,52.25,180.00,7.00,0.00,30.45,M,6.21,M,FEW,M,M,M,3500.00,M,M,M,M,YBBN 032230Z 18007KT 9999 FEW035 19/09 Q1031
YBBN,2013-09-03 23:00,153.1292,-27.3917,69.80,44.60,40.29,140.00,9.00,0.00,30.45,M,6.21,M,FEW,M,M,M,3500.00,M,M,M,M,YBBN 032300Z 14009KT 9999 FEW035 21/07 Q1031
YBBN,2013-09-03 23:30,153.1292,-27.3917,69.80,46.40,43.13,130.00,10.00,0.00,30.45,M,6.21,M,FEW,M,M,M,3500.00,M,M,M,M,YBBN 032330Z 13010KT 9999 FEW035 21/08 Q1031
