#DEBUG: Format Typ    -> comma
#DEBUG: Time Period   -> 2014-10-27 00:00:00+00:00 2014-10-28 00:00:00+00:00
#DEBUG: Time Zone     -> Etc/UTC
#DEBUG: Data Contact   -> daryl herzmann akrherz@iastate.edu 515-294-5978
#DEBUG: Entries Found -> -1
station,valid,lon,lat,tmpf, dwpf, relh, drct, sknt, p01i, alti, mslp, vsby, gust, skyc1, skyc2, skyc3, skyc4, skyl1, skyl2, skyl3, skyl4, presentwx, metar
YBBN,2014-10-27 00:00,153.1292,-27.3917,80.60,66.20,61.58,10.00,15.00,0.00,29.83,M,6.21,M,M,M,M,M,M,M,M,M,M,YBBN 270000Z 01015KT CAVOK 27/19 Q1010
YBBN,2014-10-27 00:30,153.1292,-27.3917,80.60,66.20,61.58,20.00,18.00,0.00,29.83,M,6.21,M,M,M,M,M,M,M,M,M,M,YBBN 270030Z 02018KT CAVOK 27/19 Q1010
YBBN,2014-10-27 01:00,153.1292,-27.3917,82.40,68.00,61.81,20.00,18.00,0.00,29.83,M,6.21,M,M,M,M,M,M,M,M,M,M,YBBN 270100Z 02018KT CAVOK 28/20 Q1010 NOSIG
YBBN,2014-10-27 01:30,153.1292,-27.3917,82.40,68.00,61.81,20.00,18.00,0.00,29.80,M,6.21,M,M,M,M,M,M,M,M,M,M,YBBN 270130Z 02018KT CAVOK 28/20 Q1009
YBBN,2014-10-27 02:00,153.1292,-27.3917,82.40,68.00,61.81,30.00,18.00,0.00,29.80,M,6.21,M,M,M,M,M,M,M,M,M,M,YBBN 270200Z 03018KT CAVOK 28/20 Q1009
YBBN,2014-10-27 02:30,153.1292,-27.3917,82.40,68.00,61.81,20.00,19.00,0.00,29.77,M,6.21,M,FEW,M,M,M,3500.00,M,M,M,M,YBBN 270230Z 02019KT 9999 FEW035 28/20 Q1008
YBBN,2014-10-27 03:00,153.1292,-27.3917,82.40,69.80,65.74,30.00,18.00,0.00,29.77,M,6.21,M,FEW,M,M,M,3200.00,M,M,M,M,YBBN 270300Z 03018KT 9999 FEW032 28/21 Q1008 NOSIG
YBBN,2014-10-27 03:30,153.1292,-27.3917,82.40,69.80,65.74,30.00,19.00,0.00,29.74,M,6.21,M,FEW,SCT,M,M,3400.00,19000.00,M,M,M,YBBN 270330Z 03019KT 9999 FEW034 SCT190 28/21 Q1007
YBBN,2014-10-27 04:00,153.1292,-27.3917,82.40,69.80,65.74,30.00,18.00,0.00,29.71,M,6.21,M,FEW,SCT,M,M,3200.00,18500.00,M,M,M,YBBN 270400Z 03018KT 9999 FEW032 SCT185 28/21 Q1006 NOSIG
YBBN,2014-10-27 04:30,153.1292,-27.3917,80.60,69.80,69.71,30.00,18.00,0.00,29.71,M,6.21,M,FEW,M,M,M,2800.00,M,M,M,M,YBBN 270430Z 03018KT 9999 FEW028 27/21 Q1006 RMK CB TOPS TO SW
YBBN,2014-10-27 05:00,153.1292,-27.3917,78.80,69.80,73.95,20.00,18.00,0.00,29.68,M,6.21,M,FEW,FEW,M,M,2800.00,4500.00,M,M,M,YBBN 270500Z 02018KT 9999 FEW028 FEW045CB 26/21 Q1005 NOSIG
YBBN,2014-10-27 05:30,153.1292,-27.3917,80.60,69.80,69.71,20.00,20.00,0.00,29.68,M,6.21,M,FEW,FEW,M,M,2800.00,4500.00,M,M,M,YBBN 270530Z 02020KT 9999 FEW028 FEW045CB 27/21 Q1005
YBBN,2014-10-27 06:00,153.1292,-27.3917,77.00,69.80,78.48,20.00,20.00,0.00,29.68,M,6.21,M,FEW,SCT,FEW,M,2200.00,19000.00,4000.00,M,M,YBBN 270600Z 02020KT 9999 FEW022 SCT190 FEW040CB 25/21 Q1005 RMK LIGHTNING TO SW
YBBN,2014-10-27 06:30,153.1292,-27.3917,77.00,69.80,78.48,10.00,19.00,0.00,29.68,M,6.21,M,FEW,SCT,FEW,M,2800.00,27000.00,5000.00,M,VCTS VCSH,YBBN 270630Z 01019KT 9999 VCTS VCSH FEW028 SCT270 FEW050CB 25/21 Q1005
YBBN,2014-10-27 06:50,153.1292,-27.3917,77.00,69.80,78.48,310.00,16.00,0.00,29.74,M,6.21,M,FEW,SCT,FEW,M,1800.00,12000.00,5000.00,M,TS VCSH,YBBN 270650Z 31016KT 9999 TS VCSH FEW018 SCT120 FEW050CB 25/21 Q1007
YBBN,2014-10-27 07:00,153.1292,-27.3917,78.80,69.80,73.95,330.00,11.00,0.00,29.77,M,6.21,M,FEW,SCT,FEW,M,1800.00,12000.00,5000.00,M,-TSRA,YBBN 270700Z 33011KT 9999 -TSRA FEW018 SCT120 FEW050CB 26/21 Q1008
YBBN,2014-10-27 07:22,153.1292,-27.3917,78.80,69.80,73.95,150.00,9.00,0.00,29.71,M,6.21,M,FEW,SCT,FEW,M,1600.00,11000.00,5000.00,M,-TSRA,YBBN 270722Z 15009KT 9999 -TSRA FEW016 SCT110 FEW050CB 26/21 Q1006
YBBN,2014-10-27 07:30,153.1292,-27.3917,80.60,68.00,65.54,120.00,10.00,0.00,29.68,M,6.21,M,FEW,SCT,FEW,M,2000.00,12000.00,5000.00,M,VCTS -SHRA,YBBN 270730Z 12010KT 9999 VCTS -SHRA FEW020 SCT120 FEW050CB 27/20 Q1005
YBBN,2014-10-27 08:00,153.1292,-27.3917,78.80,68.00,69.52,30.00,17.00,0.00,29.71,M,6.21,M,FEW,SCT,BKN,M,4500.00,10000.00,17000.00,M,VCSH,YBBN 270800Z 03017KT 9999 VCSH FEW045 SCT100 BKN170 26/20 Q1006 NOSIG
YBBN,2014-10-27 08:30,153.1292,-27.3917,77.00,69.80,78.48,20.00,23.00,0.00,29.71,M,6.21,M,M,M,M,M,M,M,M,M,M,YBBN 270830Z 02023KT CAVOK 25/21 Q1006 RMK LIGHTNING TO NW AND NE 5AC150
YBBN,2014-10-27 08:50,153.1292,-27.3917,77.00,69.80,78.48,340.00,17.00,0.00,29.74,M,6.21,M,M,M,M,M,M,M,M,M,M,YBBN 270850Z 34017KT CAVOK 25/21 Q1007
YBBN,2014-10-27 09:00,153.1292,-27.3917,77.00,69.80,78.48,350.00,17.00,0.00,29.77,M,6.21,M,BKN,BKN,M,M,15000.00,23000.00,M,M,VCSH,YBBN 270900Z 35017KT 9999 VCSH BKN150 BKN230 25/21 Q1008 RMK LIGHTNING TO NW AND NE
YBBN,2014-10-27 09:30,153.1292,-27.3917,77.00,69.80,78.48,360.00,13.00,0.00,29.77,M,6.21,M,FEW,SCT,BKN,M,12000.00,15000.00,18000.00,M,VCSH,YBBN 270930Z 36013KT 9999 VCSH FEW120 SCT150 BKN180 25/21 Q1008 RMK LIGHTNING TO NW AND NE
YBBN,2014-10-27 10:00,153.1292,-27.3917,75.20,69.80,83.32,10.00,11.00,0.00,29.77,M,6.21,M,FEW,SCT,BKN,M,13000.00,15000.00,18000.00,M,-RA,YBBN 271000Z 01011KT 9999 -RA FEW130 SCT150 BKN180 24/21 Q1008 INTER 1000/1100 6000 SHRA SCT020
YBBN,2014-10-27 10:21,153.1292,-27.3917,75.20,69.80,83.32,30.00,15.00,0.00,29.77,M,6.21,25.00,FEW,BKN,M,M,13000.00,15000.00,M,M,VCSH,YBBN 271021Z 03015G25KT 9999 VCSH FEW130 BKN150 24/21 Q1008
YBBN,2014-10-27 10:30,153.1292,-27.3917,77.00,68.00,73.78,30.00,18.00,0.00,29.77,M,6.21,M,M,M,M,M,M,M,M,M,M,YBBN 271030Z 03018KT CAVOK 25/20 Q1008 RMK LIGHTNING TO N 5AC150 5AC180
YBBN,2014-10-27 11:00,153.1292,-27.3917,75.20,69.80,83.32,30.00,20.00,0.00,29.77,M,6.21,M,M,M,M,M,M,M,M,M,M,YBBN 271100Z 03020KT CAVOK 24/21 Q1008
YBBN,2014-10-27 11:30,153.1292,-27.3917,77.00,68.00,73.78,10.00,17.00,0.00,29.80,M,6.21,M,M,M,M,M,M,M,M,M,M,YBBN 271130Z 01017KT CAVOK 25/20 Q1009 RMK 5AC150 5AS200
YBBN,2014-10-27 12:00,153.1292,-27.3917,80.60,62.60,54.30,10.00,18.00,0.00,29.77,M,6.21,M,M,M,M,M,M,M,M,M,M,YBBN 271200Z 01018KT CAVOK 27/17 Q1008
YBBN,2014-10-27 12:30,153.1292,-27.3917,78.80,64.40,61.36,10.00,17.00,0.00,29.80,M,6.21,M,M,M,M,M,M,M,M,M,M,YBBN 271230Z 01017KT CAVOK 26/18 Q1009 RMK 5AC150 5AS200
YBBN,2014-10-27 13:00,153.1292,-27.3917,78.80,62.60,57.60,310.00,11.00,0.00,29.83,M,6.21,M,M,M,M,M,M,M,M,M,M,YBBN 271300Z 31011KT CAVOK 26/17 Q1010 RMK 5AC150 5AS200
YBBN,2014-10-27 13:30,153.1292,-27.3917,84.20,53.60,34.97,320.00,12.00,0.00,29.83,M,6.21,M,M,M,M,M,M,M,M,M,M,YBBN 271330Z 32012KT CAVOK 29/12 Q1010 RMK 5AC150
YBBN,2014-10-27 14:00,153.1292,-27.3917,82.40,55.40,39.58,330.00,12.00,0.00,29.80,M,6.21,M,M,M,M,M,M,M,M,M,M,YBBN 271400Z 33012KT CAVOK 28/13 Q1009 NOSIG
YBBN,2014-10-27 14:30,153.1292,-27.3917,82.40,51.80,34.69,300.00,12.00,0.00,29.77,M,6.21,M,M,M,M,M,M,M,M,M,M,YBBN 271430Z 30012KT CAVOK 28/11 Q1008
YBBN,2014-10-27 15:00,153.1292,-27.3917,82.40,53.60,37.07,290.00,11.00,0.00,29.77,M,6.21,M,M,M,M,M,M,M,M,M,M,YBBN 271500Z 29011KT CAVOK 28/12 Q1008 NOSIG
YBBN,2014-10-27 15:30,153.1292,-27.3917,78.80,55.40,44.52,280.00,9.00,0.00,29.77,M,6.21,M,M,M,M,M,M,M,M,M,M,YBBN 271530Z 28009KT CAVOK 26/13 Q1008
YBBN,2014-10-27 16:00,153.1292,-27.3917,77.00,55.40,47.25,260.00,7.00,0.00,29.77,M,6.21,M,M,M,M,M,M,M,M,M,M,YBBN 271600Z 26007KT CAVOK 25/13 Q1008
YBBN,2014-10-27 16:30,153.1292,-27.3917,77.00,55.40,47.25,0.00,0.00,0.00,29.74,M,6.21,M,M,M,M,M,M,M,M,M,M,YBBN 271630Z 00000KT CAVOK 25/13 Q1007
YBBN,2014-10-27 17:00,153.1292,-27.3917,71.60,57.20,60.44,240.00,5.00,0.00,29.77,M,6.21,M,M,M,M,M,M,M,M,M,M,YBBN 271700Z 24005KT CAVOK 22/14 Q1008
YBBN,2014-10-27 17:30,153.1292,-27.3917,73.40,59.00,60.67,210.00,5.00,0.00,29.77,M,6.21,M,M,M,M,M,M,M,M,M,M,YBBN 271730Z 21005KT CAVOK 23/15 Q1008
YBBN,2014-10-27 18:00,153.1292,-27.3917,71.60,60.80,68.75,210.00,1.00,0.00,29.77,M,6.21,M,M,M,M,M,M,M,M,M,M,YBBN 271800Z 21001KT CAVOK 22/16 Q1008 NOSIG
YBBN,2014-10-27 18:30,153.1292,-27.3917,71.60,59.00,64.48,200.00,5.00,0.00,29.77,M,6.21,M,M,M,M,M,M,M,M,M,M,YBBN 271830Z 20005KT CAVOK 22/15 Q1008
YBBN,2014-10-27 19:00,153.1292,-27.3917,73.40,59.00,60.67,200.00,6.00,0.00,29.77,M,6.21,M,M,M,M,M,M,M,M,M,M,YBBN 271900Z 20006KT CAVOK 23/15 Q1008 NOSIG
YBBN,2014-10-27 19:30,153.1292,-27.3917,73.40,59.00,60.67,0.00,0.00,0.00,29.80,M,6.21,M,M,M,M,M,M,M,M,M,M,YBBN 271930Z 00000KT CAVOK 23/15 Q1009
YBBN,2014-10-27 20:00,153.1292,-27.3917,75.20,59.00,57.12,210.00,5.00,0.00,29.80,M,6.21,M,M,M,M,M,M,M,M,M,M,YBBN 272000Z 21005KT CAVOK 24/15 Q1009 NOSIG
YBBN,2014-10-27 20:30,153.1292,-27.3917,77.00,60.80,57.36,190.00,5.00,0.00,29.80,M,6.21,M,M,M,M,M,M,M,M,M,M,YBBN 272030Z 19005KT CAVOK 25/16 Q1009 RMK 5AC200
YBBN,2014-10-27 21:00,153.1292,-27.3917,78.80,59.00,50.69,140.00,1.00,0.00,29.80,M,6.21,M,M,M,M,M,M,M,M,M,M,YBBN 272100Z 14001KT CAVOK 26/15 Q1009 NOSIG
YBBN,2014-10-27 21:30,153.1292,-27.3917,80.60,62.60,54.30,40.00,7.00,0.00,29.83,M,6.21,M,M,M,M,M,M,M,M,M,M,YBBN 272130Z 04007KT CAVOK 27/17 Q1010
YBBN,2014-10-27 22:00,153.1292,-27.3917,80.60,62.60,54.30,40.00,9.00,0.00,29.83,M,6.21,M,M,M,M,M,M,M,M,M,M,YBBN 272200Z 04009KT CAVOK 27/17 Q1010 NOSIG
YBBN,2014-10-27 22:30,153.1292,-27.3917,82.40,62.60,51.21,20.00,7.00,0.00,29.83,M,6.21,M,M,M,M,M,M,M,M,M,M,YBBN 272230Z 02007KT CAVOK 28/17 Q1010
YBBN,2014-10-27 23:00,153.1292,-27.3917,84.20,60.80,45.34,50.00,10.00,0.00,29.85,M,6.21,M,M,M,M,M,M,M,M,M,M,YBBN 272300Z 05010KT CAVOK 29/16 Q1011 FM2300 12012KT 9999 FEW030
YBBN,2014-10-27 23:30,153.1292,-27.3917,80.60,68.00,65.54,110.00,15.00,0.00,29.85,M,6.21,M,M,M,M,M,M,M,M,M,M,YBBN 272330Z 11015KT CAVOK 27/20 Q1011
YBBN,2014-10-27 23:34,153.1292,-27.3917,80.60,68.00,65.54,110.00,16.00,0.00,29.85,M,6.21,28.00,M,M,M,M,M,M,M,M,M,YBBN 272334Z 11016G28KT CAVOK 27/20 Q1011
