#DEBUG: Format Typ    -> comma
#DEBUG: Time Period   -> 2013-07-19 00:00:00+00:00 2013-07-20 00:00:00+00:00
#DEBUG: Time Zone     -> Etc/UTC
#DEBUG: Data Contact   -> daryl herzmann akrherz@iastate.edu 515-294-5978
#DEBUG: Entries Found -> -1
station,valid,lon,lat,tmpf, dwpf, relh, drct, sknt, p01i, alti, mslp, vsby, gust, skyc1, skyc2, skyc3, skyc4, skyl1, skyl2, skyl3, skyl4, presentwx, metar
YBBN,2013-07-19 00:00,153.1292,-27.3917,68.00,60.80,77.75,310.00,3.00,0.00,30.15,M,6.21,M,FEW,BKN,M,M,1800.00,5000.00,M,M,M,YBBN 190000Z 31003KT 9999 FEW018 BKN050 20/16 Q1021 INTER 0000/0300 3000 SHRA BKN012
YBBN,2013-07-19 00:30,153.1292,-27.3917,68.00,62.60,82.86,350.00,4.00,0.00,30.15,M,6.21,M,FEW,SCT,BKN,M,1800.00,2000.00,5800.00,M,M,YBBN 190030Z 35004KT 9999 FEW018 SCT020 BKN058 20/17 Q1021
YBBN,2013-07-19 01:00,153.1292,-27.3917,69.80,62.60,77.90,340.00,5.00,0.00,30.15,M,6.21,M,FEW,SCT,M,M,1800.00,5800.00,M,M,VCSH,YBBN 190100Z 34005KT 9999 VCSH FEW018 SCT058 21/17 Q1021
YBBN,2013-07-19 01:30,153.1292,-27.3917,69.80,60.80,73.09,20.00,5.00,0.00,30.12,M,6.21,M,SCT,SCT,M,M,1800.00,5800.00,M,M,M,YBBN 190130Z 02005KT 9999 SCT018 SCT058 21/16 Q1020
YBBN,2013-07-19 02:00,153.1292,-27.3917,71.60,60.80,68.75,30.00,5.00,0.00,30.09,M,6.21,M,FEW,SCT,M,M,1800.00,3000.00,M,M,M,YBBN 190200Z 03005KT 9999 FEW018 SCT030 22/16 Q1019
YBBN,2013-07-19 02:30,153.1292,-27.3917,71.60,62.60,73.27,50.00,6.00,0.00,30.09,M,6.21,M,FEW,SCT,M,M,2000.00,5000.00,M,M,M,YBBN 190230Z 05006KT 9999 FEW020 SCT050 22/17 Q1019
YBBN,2013-07-19 03:00,153.1292,-27.3917,69.80,62.60,77.90,50.00,7.00,0.00,30.06,M,6.21,M,SCT,BKN,M,M,2000.00,6200.00,M,M,M,YBBN 190300Z 05007KT 9999 SCT020 BKN062 21/17 Q1018
YBBN,2013-07-19 03:30,153.1292,-27.3917,69.80,62.60,77.90,60.00,6.00,0.00,30.06,M,6.21,M,FEW,BKN,M,M,2000.00,5800.00,M,M,M,YBBN 190330Z 06006KT 9999 FEW020 BKN058 21/17 Q1018
YBBN,2013-07-19 04:00,153.1292,-27.3917,69.80,60.80,73.09,40.00,5.00,0.00,30.06,M,6.21,M,FEW,BKN,M,M,2200.00,5600.00,M,M,-DZ,YBBN 190400Z 04005KT 9999 -DZ FEW022 BKN056 21/16 Q1018
YBBN,2013-07-19 04:30,153.1292,-27.3917,71.60,62.60,73.27,30.00,7.00,0.00,30.03,M,6.21,M,FEW,BKN,M,M,2200.00,6000.00,M,M,M,YBBN 190430Z 03007KT 9999 FEW022 BKN060 22/17 Q1017
YBBN,2013-07-19 05:00,153.1292,-27.3917,69.80,60.80,73.09,40.00,7.00,0.00,30.03,M,6.21,M,FEW,BKN,BKN,M,2500.00,4300.00,6200.00,M,M,YBBN 190500Z 04007KT 9999 FEW025 BKN043 BKN062 21/16 Q1017 INTER 0500/0800 3000 SHRA BKN012
YBBN,2013-07-19 05:30,153.1292,-27.3917,69.80,60.80,73.09,50.00,8.00,0.00,30.03,M,6.21,M,FEW,SCT,M,M,2500.00,4500.00,M,M,M,YBBN 190530Z 05008KT 9999 FEW025 SCT045 21/16 Q1017
YBBN,2013-07-19 06:00,153.1292,-27.3917,68.00,62.60,82.86,60.00,5.00,0.00,30.03,M,6.21,M,FEW,BKN,M,M,1500.00,4500.00,M,M,M,YBBN 190600Z 06005KT 9999 FEW015 BKN045 20/17 Q1017 INTER 0600/0900 3000 SHRA BKN012
YBBN,2013-07-19 06:30,153.1292,-27.3917,68.00,62.60,82.86,60.00,4.00,0.00,30.03,M,6.21,M,FEW,BKN,M,M,1500.00,5500.00,M,M,M,YBBN 190630Z 06004KT 9999 FEW015 BKN055 20/17 Q1017 RMK DIST SHRA
YBBN,2013-07-19 07:00,153.1292,-27.3917,66.20,62.60,88.18,70.00,4.00,0.00,30.03,M,6.21,M,FEW,BKN,M,M,1500.00,5000.00,M,M,VCSH,YBBN 190700Z 07004KT 9999 VCSH FEW015 BKN050 19/17 Q1017
YBBN,2013-07-19 07:20,153.1292,-27.3917,66.20,62.60,88.18,50.00,4.00,0.00,30.03,M,3.11,M,FEW,SCT,BKN,M,1500.00,2500.00,5500.00,M,-SHRA,YBBN 190720Z 05004KT 5000 -SHRA FEW015 SCT025 BKN055 19/17 Q1017
YBBN,2013-07-19 07:30,153.1292,-27.3917,66.20,62.60,88.18,50.00,5.00,0.00,30.03,M,3.11,M,FEW,SCT,BKN,M,1200.00,2300.00,5000.00,M,-SHRA,YBBN 190730Z 05005KT 5000 -SHRA FEW012 SCT023 BKN050 19/17 Q1017
YBBN,2013-07-19 08:00,153.1292,-27.3917,64.40,62.60,93.88,30.00,2.00,0.00,30.03,M,3.73,M,FEW,SCT,BKN,M,1200.00,2300.00,5000.00,M,SHRA,YBBN 190800Z 03002KT 6000 SHRA FEW012 SCT023 BKN050 18/17 Q1017 RESHRA
YBBN,2013-07-19 08:30,153.1292,-27.3917,64.40,62.60,93.88,310.00,5.00,0.00,30.06,M,3.73,M,FEW,SCT,BKN,M,1000.00,4500.00,7000.00,M,-SHRA,YBBN 190830Z 31005KT 6000 -SHRA FEW010 SCT045 BKN070 18/17 Q1018
YBBN,2013-07-19 08:58,153.1292,-27.3917,64.40,62.60,93.88,350.00,5.00,0.00,30.06,M,2.49,M,FEW,SCT,BKN,M,1000.00,2300.00,5000.00,M,+SHRA,YBBN 190858Z 35005KT 4000 +SHRA FEW010 SCT023 BKN050 18/17 Q1018
YBBN,2013-07-19 09:00,153.1292,-27.3917,64.40,64.40,100.00,360.00,5.00,0.00,30.06,M,2.49,M,FEW,SCT,BKN,M,1000.00,2300.00,4500.00,M,+SHRA,YBBN 190900Z 36005KT 4000 +SHRA FEW010 SCT023 BKN045 18/18 Q1018
YBBN,2013-07-19 09:03,153.1292,-27.3917,64.40,64.40,100.00,360.00,7.00,0.00,30.06,M,1.24,M,FEW,SCT,BKN,M,500.00,2300.00,3500.00,M,+SHRA,YBBN 190903Z 36007KT 2000 +SHRA FEW005 SCT023 BKN035 18/18 Q1018
YBBN,2013-07-19 09:30,153.1292,-27.3917,62.60,62.60,100.00,10.00,4.00,0.00,30.06,M,4.97,M,FEW,SCT,BKN,M,1100.00,2100.00,3500.00,M,-SHRA,YBBN 190930Z 01004KT 8000 -SHRA FEW011 SCT021 BKN035 17/17 Q1018
YBBN,2013-07-19 10:00,153.1292,-27.3917,64.40,62.60,93.88,10.00,2.00,0.00,30.06,M,3.73,M,FEW,SCT,BKN,M,1100.00,1600.00,3500.00,M,-SHRA,YBBN 191000Z 01002KT 6000 -SHRA FEW011 SCT016 BKN035 18/17 Q1018
YBBN,2013-07-19 10:30,153.1292,-27.3917,64.40,62.60,93.88,0.00,0.00,0.00,30.06,M,6.21,M,FEW,SCT,BKN,M,1800.00,4500.00,8500.00,M,VCSH,YBBN 191030Z 00000KT 9999 VCSH FEW018 SCT045 BKN085 18/17 Q1018
YBBN,2013-07-19 11:00,153.1292,-27.3917,64.40,62.60,93.88,330.00,4.00,0.00,30.06,M,3.11,M,FEW,SCT,BKN,M,1200.00,2100.00,4000.00,M,SHRA,YBBN 191100Z 33004KT 5000 SHRA FEW012 SCT021 BKN040 18/17 Q1018
YBBN,2013-07-19 11:30,153.1292,-27.3917,64.40,62.60,93.88,350.00,5.00,0.00,30.06,M,6.21,M,FEW,SCT,BKN,M,800.00,2100.00,3000.00,M,-SHRA,YBBN 191130Z 35005KT 9999 -SHRA FEW008 SCT021 BKN030 18/17 Q1018
YBBN,2013-07-19 12:00,153.1292,-27.3917,64.40,64.40,100.00,350.00,10.00,0.00,30.06,M,3.11,M,FEW,SCT,BKN,M,800.00,1200.00,3500.00,M,SHRA,YBBN 191200Z 35010KT 5000 SHRA FEW008 SCT012 BKN035 18/18 Q1018
YBBN,2013-07-19 12:30,153.1292,-27.3917,64.40,64.40,100.00,350.00,7.00,0.00,30.03,M,6.21,M,FEW,BKN,BKN,M,1800.00,4000.00,7000.00,M,VCSH,YBBN 191230Z 35007KT 9999 VCSH FEW018 BKN040 BKN070 18/18 Q1017
YBBN,2013-07-19 13:00,153.1292,-27.3917,64.40,64.40,100.00,350.00,5.00,0.00,30.03,M,6.21,M,FEW,BKN,M,M,2000.00,3500.00,M,M,VCSH,YBBN 191300Z 35005KT 9999 VCSH FEW020 BKN035 18/18 Q1017 INTER 1300/1600 3000 SHRA BKN012
YBBN,2013-07-19 13:30,153.1292,-27.3917,64.40,64.40,100.00,360.00,6.00,0.00,30.03,M,6.21,M,FEW,BKN,M,M,2000.00,3500.00,M,M,VCSH,YBBN 191330Z 36006KT 9999 VCSH FEW020 BKN035 18/18 Q1017
YBBN,2013-07-19 13:44,153.1292,-27.3917,64.40,64.40,100.00,350.00,8.00,0.00,30.03,M,2.49,M,FEW,SCT,BKN,M,600.00,1100.00,3000.00,M,+SHRA,YBBN 191344Z 35008KT 4000 +SHRA FEW006 SCT011 BKN030 18/18 Q1017
YBBN,2013-07-19 14:00,153.1292,-27.3917,64.40,64.40,100.00,340.00,7.00,0.00,30.03,M,4.35,M,FEW,SCT,BKN,M,500.00,900.00,3000.00,M,-SHRA,YBBN 191400Z 34007KT 7000 -SHRA FEW005 SCT009 BKN030 18/18 Q1017
YBBN,2013-07-19 14:30,153.1292,-27.3917,64.40,64.40,100.00,330.00,5.00,0.00,30.00,M,6.21,M,FEW,SCT,BKN,M,1400.00,3500.00,7000.00,M,-SHRA,YBBN 191430Z 33005KT 9999 -SHRA FEW014 SCT035 BKN070 18/18 Q1016
YBBN,2013-07-19 15:00,153.1292,-27.3917,64.40,62.60,93.88,330.00,5.00,0.00,30.00,M,6.21,M,FEW,SCT,BKN,M,600.00,1000.00,3500.00,M,-SHRA,YBBN 191500Z 33005KT 9999 -SHRA FEW006 SCT010 BKN035 18/17 Q1016 INTER 1500/1800 3000 SHRA BKN012
YBBN,2013-07-19 15:30,153.1292,-27.3917,64.40,62.60,93.88,360.00,8.00,0.00,30.00,M,6.21,M,FEW,SCT,BKN,M,1200.00,1800.00,2800.00,M,VCSH,YBBN 191530Z 36008KT 9999 VCSH FEW012 SCT018 BKN028 18/17 Q1016
YBBN,2013-07-19 16:00,153.1292,-27.3917,64.40,62.60,93.88,360.00,7.00,0.00,29.97,M,6.21,M,FEW,SCT,BKN,M,1000.00,2700.00,7000.00,M,VCSH,YBBN 191600Z 36007KT 9999 VCSH FEW010 SCT027 BKN070 18/17 Q1015
YBBN,2013-07-19 16:30,153.1292,-27.3917,64.40,62.60,93.88,360.00,8.00,0.00,29.97,M,6.21,M,FEW,SCT,M,M,1600.00,2900.00,M,M,M,YBBN 191630Z 36008KT 9999 FEW016 SCT029 18/17 Q1015
YBBN,2013-07-19 17:00,153.1292,-27.3917,64.40,62.60,93.88,360.00,5.00,0.00,29.97,M,6.21,M,SCT,BKN,M,M,1400.00,2900.00,M,M,VCSH,YBBN 191700Z 36005KT 9999 VCSH SCT014 BKN029 18/17 Q1015
YBBN,2013-07-19 17:30,153.1292,-27.3917,62.60,62.60,100.00,300.00,4.00,0.00,29.97,M,6.21,M,FEW,BKN,M,M,700.00,1100.00,M,M,M,YBBN 191730Z 30004KT 9999 FEW007 BKN011 17/17 Q1015
YBBN,2013-07-19 18:00,153.1292,-27.3917,62.60,62.60,100.00,340.00,5.00,0.00,29.94,M,6.21,M,FEW,SCT,M,M,500.00,2500.00,M,M,M,YBBN 191800Z 34005KT 9999 FEW005 SCT025 17/17 Q1014 TEMPO 1800/2100 3000 SHRA BKN010
YBBN,2013-07-19 18:30,153.1292,-27.3917,62.60,60.80,93.83,340.00,4.00,0.00,29.94,M,6.21,M,SCT,M,M,M,1300.00,M,M,M,M,YBBN 191830Z 34004KT 9999 SCT013 17/16 Q1014
YBBN,2013-07-19 19:00,153.1292,-27.3917,62.60,60.80,93.83,360.00,7.00,0.00,29.94,M,6.21,M,FEW,SCT,M,M,1400.00,3500.00,M,M,M,YBBN 191900Z 36007KT 9999 FEW014 SCT035 17/16 Q1014
YBBN,2013-07-19 19:30,153.1292,-27.3917,62.60,62.60,100.00,360.00,7.00,0.00,29.97,M,6.21,M,FEW,SCT,M,M,1500.00,3200.00,M,M,M,YBBN 191930Z 36007KT 9999 FEW015 SCT032 17/17 Q1015
YBBN,2013-07-19 20:00,153.1292,-27.3917,62.60,60.80,93.83,10.00,7.00,0.00,29.97,M,6.21,M,FEW,SCT,M,M,1500.00,4000.00,M,M,M,YBBN 192000Z 01007KT 9999 FEW015 SCT040 17/16 Q1015 TEMPO 2000/2300 3000 SHRA BKN010
YBBN,2013-07-19 20:30,153.1292,-27.3917,62.60,60.80,93.83,10.00,7.00,0.00,29.97,M,6.21,M,FEW,M,M,M,500.00,M,M,M,M,YBBN 192030Z 01007KT 9999 FEW005 17/16 Q1015
YBBN,2013-07-19 21:00,153.1292,-27.3917,62.60,62.60,100.00,360.00,8.00,0.00,29.97,M,6.21,M,FEW,SCT,M,M,500.00,6000.00,M,M,M,YBBN 192100Z 36008KT 9999 FEW005 SCT060 17/17 Q1015
YBBN,2013-07-19 21:30,153.1292,-27.3917,66.20,64.40,93.92,360.00,8.00,0.00,29.97,M,6.21,M,FEW,BKN,M,M,1200.00,16000.00,M,M,M,YBBN 192130Z 36008KT 9999 FEW012 BKN160 19/18 Q1015
YBBN,2013-07-19 22:00,153.1292,-27.3917,66.20,62.60,88.18,360.00,10.00,0.00,29.97,M,6.21,M,FEW,BKN,M,M,500.00,16000.00,M,M,M,YBBN 192200Z 36010KT 9999 FEW005 BKN160 19/17 Q1015
YBBN,2013-07-19 22:30,153.1292,-27.3917,66.20,64.40,93.92,360.00,9.00,0.00,29.97,M,6.21,M,FEW,BKN,M,M,800.00,16000.00,M,M,M,YBBN 192230Z 36009KT 9999 FEW008 BKN160 19/18 Q1015
YBBN,2013-07-19 23:00,153.1292,-27.3917,68.00,62.60,82.86,330.00,9.00,0.00,29.97,M,6.21,M,FEW,SCT,M,M,1200.00,16000.00,M,M,M,YBBN 192300Z 33009KT 9999 FEW012 SCT160 20/17 Q1015 INTER 2330/0200 3000 SHRA BKN012
YBBN,2013-07-19 23:30,153.1292,-27.3917,69.80,62.60,77.90,340.00,9.00,0.00,29.97,M,6.21,M,FEW,SCT,M,M,1500.00,16000.00,M,M,M,YBBN 192330Z 34009KT 9999 FEW015 SCT160 21/17 Q1015
