#DEBUG: Format Typ    -> comma
#DEBUG: Time Period   -> 2015-05-17 00:00:00+00:00 2015-05-18 00:00:00+00:00
#DEBUG: Time Zone     -> Etc/UTC
#DEBUG: Data Contact   -> daryl herzmann akrherz@iastate.edu 515-294-5978
#DEBUG: Entries Found -> -1
station,valid,lon,lat,tmpf, dwpf, relh, drct, sknt, p01i, alti, mslp, vsby, gust, skyc1, skyc2, skyc3, skyc4, skyl1, skyl2, skyl3, skyl4, presentwx, metar
YBBN,2015-05-17 00:00,153.1292,-27.3917,68.00,59.00,72.92,150.00,7.00,0.00,30.39,M,6.21,M,FEW,SCT,M,M,1800.00,5800.00,M,M,VCSH,YBBN 170000Z 15007KT 9999 VCSH FEW018 SCT058 20/15 Q1029
YBBN,2015-05-17 00:30,153.1292,-27.3917,69.80,57.20,64.26,120.00,9.00,0.00,30.39,M,6.21,M,FEW,BKN,M,M,1600.00,16000.00,M,M,VCSH,YBBN 170030Z 12009KT 9999 VCSH FEW016 BKN160 21/14 Q1029
YBBN,2015-05-17 01:00,153.1292,-27.3917,68.00,60.80,77.75,130.00,9.00,0.00,30.39,M,6.21,M,FEW,SCT,BKN,M,2800.00,5800.00,16000.00,M,VCSH,YBBN 170100Z 13009KT 9999 VCSH FEW028 SCT058 BKN160 20/16 Q1029
YBBN,2015-05-17 01:30,153.1292,-27.3917,71.60,57.20,60.44,140.00,8.00,0.00,30.36,M,6.21,M,FEW,BKN,M,M,2800.00,16000.00,M,M,VCSH,YBBN 170130Z 14008KT 9999 VCSH FEW028 BKN160 22/14 Q1028
YBBN,2015-05-17 02:00,153.1292,-27.3917,71.60,57.20,60.44,130.00,10.00,0.00,30.36,M,6.21,M,FEW,BKN,M,M,2500.00,16000.00,M,M,VCSH,YBBN 170200Z 13010KT 9999 VCSH FEW025 BKN160 22/14 Q1028 NOSIG
YBBN,2015-05-17 02:30,153.1292,-27.3917,71.60,59.00,64.48,130.00,8.00,0.00,30.36,M,6.21,M,FEW,SCT,M,M,2500.00,5400.00,M,M,M,YBBN 170230Z 13008KT 9999 FEW025 SCT054 22/15 Q1028
YBBN,2015-05-17 03:00,153.1292,-27.3917,73.40,59.00,60.67,130.00,10.00,0.00,30.36,M,6.21,M,SCT,SCT,M,M,2800.00,6000.00,M,M,VCSH,YBBN 170300Z 13010KT 9999 VCSH SCT028 SCT060 23/15 Q1028 NOSIG
YBBN,2015-05-17 03:30,153.1292,-27.3917,71.60,57.20,60.44,120.00,11.00,0.00,30.33,M,6.21,M,FEW,SCT,BKN,M,2800.00,5400.00,16000.00,M,VCSH,YBBN 170330Z 12011KT 9999 VCSH FEW028 SCT054 BKN160 22/14 Q1027
YBBN,2015-05-17 04:00,153.1292,-27.3917,71.60,55.40,56.63,120.00,9.00,0.00,30.33,M,6.21,M,FEW,SCT,BKN,M,1800.00,5400.00,16000.00,M,M,YBBN 170400Z 12009KT 9999 FEW018 SCT054 BKN160 22/13 Q1027
YBBN,2015-05-17 04:30,153.1292,-27.3917,71.60,55.40,56.63,130.00,8.00,0.00,30.33,M,6.21,M,FEW,SCT,BKN,M,2500.00,5500.00,14000.00,M,M,YBBN 170430Z 13008KT 9999 FEW025 SCT055 BKN140 22/13 Q1027
YBBN,2015-05-17 05:00,153.1292,-27.3917,71.60,55.40,56.63,120.00,10.00,0.00,30.33,M,6.21,M,FEW,BKN,BKN,M,2500.00,5200.00,12000.00,M,M,YBBN 170500Z 12010KT 9999 FEW025 BKN052 BKN120 22/13 Q1027 NOSIG
YBBN,2015-05-17 05:30,153.1292,-27.3917,69.80,55.40,60.21,140.00,9.00,0.00,30.33,M,6.21,M,FEW,BKN,BKN,M,2500.00,5200.00,12000.00,M,VCSH,YBBN 170530Z 14009KT 9999 VCSH FEW025 BKN052 BKN120 21/13 Q1027
YBBN,2015-05-17 06:00,153.1292,-27.3917,68.00,57.20,68.35,120.00,10.00,0.00,30.33,M,6.21,M,FEW,BKN,BKN,M,2500.00,4000.00,12000.00,M,VCSH,YBBN 170600Z 12010KT 9999 VCSH FEW025 BKN040 BKN120 20/14 Q1027 NOSIG
YBBN,2015-05-17 06:30,153.1292,-27.3917,64.40,60.80,88.09,130.00,9.00,0.00,30.36,M,6.21,M,FEW,SCT,BKN,M,2500.00,3800.00,12000.00,M,-SHRA,YBBN 170630Z 13009KT 9999 -SHRA FEW025 SCT038 BKN120 18/16 Q1028
YBBN,2015-05-17 07:00,153.1292,-27.3917,66.20,59.00,77.60,170.00,7.00,0.00,30.36,M,6.21,M,FEW,SCT,BKN,M,2600.00,5200.00,12000.00,M,M,YBBN 170700Z 17007KT 9999 FEW026 SCT052 BKN120 19/15 Q1028
YBBN,2015-05-17 07:30,153.1292,-27.3917,64.40,59.00,82.62,170.00,7.00,0.00,30.36,M,6.21,M,FEW,SCT,BKN,M,2600.00,5200.00,10000.00,M,M,YBBN 170730Z 17007KT 9999 FEW026 SCT052 BKN100 18/15 Q1028
YBBN,2015-05-17 08:00,153.1292,-27.3917,64.40,59.00,82.62,170.00,6.00,0.00,30.36,M,6.21,M,FEW,SCT,M,M,2600.00,6500.00,M,M,M,YBBN 170800Z 17006KT 9999 FEW026 SCT065 18/15 Q1028 NOSIG
YBBN,2015-05-17 08:30,153.1292,-27.3917,64.40,59.00,82.62,180.00,6.00,0.00,30.36,M,6.21,M,FEW,SCT,BKN,M,2600.00,7000.00,23000.00,M,M,YBBN 170830Z 18006KT 9999 FEW026 SCT070 BKN230 18/15 Q1028
YBBN,2015-05-17 09:00,153.1292,-27.3917,66.20,59.00,77.60,160.00,7.00,0.00,30.36,M,6.21,M,FEW,SCT,BKN,M,2600.00,3500.00,6000.00,M,VCSH,YBBN 170900Z 16007KT 9999 VCSH FEW026 SCT035 BKN060 19/15 Q1028
YBBN,2015-05-17 10:00,153.1292,-27.3917,66.20,59.00,77.60,160.00,5.00,0.00,30.36,M,6.21,M,FEW,SCT,BKN,M,1500.00,2500.00,6000.00,M,-SHRA,YBBN 171000Z 16005KT 9999 -SHRA FEW015 SCT025 BKN060 19/15 Q1028
YBBN,2015-05-17 10:30,153.1292,-27.3917,66.20,59.00,77.60,140.00,5.00,0.00,30.39,M,3.11,M,FEW,SCT,BKN,M,1200.00,1800.00,2500.00,M,-SHRA,YBBN 171030Z 14005KT 5000 -SHRA FEW012 SCT018 BKN025 19/15 Q1029
YBBN,2015-05-17 10:51,153.1292,-27.3917,64.40,60.80,88.09,160.00,5.00,0.00,30.39,M,4.97,M,FEW,SCT,BKN,M,1500.00,2800.00,9000.00,M,M,YBBN 171051Z 16005KT 8000 FEW015 SCT028 BKN090 18/16 Q1029
YBBN,2015-05-17 11:00,153.1292,-27.3917,64.40,60.80,88.09,170.00,5.00,0.00,30.39,M,6.21,M,FEW,SCT,BKN,M,1300.00,2200.00,9000.00,M,-SHRA,YBBN 171100Z 17005KT 9999 -SHRA FEW013 SCT022 BKN090 18/16 Q1029
YBBN,2015-05-17 11:36,153.1292,-27.3917,64.40,62.60,93.88,140.00,4.00,0.00,30.39,M,2.80,M,FEW,BKN,M,M,1300.00,2500.00,M,M,+SHRA,YBBN 171136Z 14004KT 4500 +SHRA FEW013 BKN025 18/17 Q1029
YBBN,2015-05-17 12:00,153.1292,-27.3917,64.40,62.60,93.88,120.00,5.00,0.00,30.36,M,4.35,M,FEW,SCT,BKN,M,1100.00,2500.00,5500.00,M,-SHRA,YBBN 171200Z 12005KT 7000 -SHRA FEW011 SCT025 BKN055 18/17 Q1028 RESHRA
YBBN,2015-05-17 12:30,153.1292,-27.3917,64.40,62.60,93.88,170.00,6.00,0.00,30.36,M,6.21,M,FEW,SCT,BKN,M,1400.00,2800.00,6000.00,M,-DZ VCSH,YBBN 171230Z 17006KT 9999 -DZ VCSH FEW014 SCT028 BKN060 18/17 Q1028
YBBN,2015-05-17 13:00,153.1292,-27.3917,62.60,62.60,100.00,190.00,5.00,0.00,30.36,M,6.21,M,FEW,SCT,BKN,M,2500.00,6000.00,23000.00,M,VCSH,YBBN 171300Z 19005KT 9999 VCSH FEW025 SCT060 BKN230 17/17 Q1028
YBBN,2015-05-17 13:30,153.1292,-27.3917,64.40,60.80,88.09,160.00,5.00,0.00,30.33,M,6.21,M,FEW,SCT,BKN,M,1800.00,2900.00,8000.00,M,M,YBBN 171330Z 16005KT 9999 FEW018 SCT029 BKN080 18/16 Q1027
YBBN,2015-05-17 14:00,153.1292,-27.3917,64.40,62.60,93.88,150.00,5.00,0.00,30.33,M,6.21,M,FEW,SCT,BKN,M,3000.00,6000.00,23500.00,M,M,YBBN 171400Z 15005KT 9999 FEW030 SCT060 BKN235 18/17 Q1027
YBBN,2015-05-17 14:30,153.1292,-27.3917,64.40,60.80,88.09,190.00,5.00,0.00,30.33,M,6.21,M,FEW,SCT,BKN,M,3000.00,4800.00,23000.00,M,M,YBBN 171430Z 19005KT 9999 FEW030 SCT048 BKN230 18/16 Q1027
YBBN,2015-05-17 15:00,153.1292,-27.3917,62.60,60.80,93.83,170.00,5.00,0.00,30.30,M,6.21,M,FEW,SCT,BKN,M,3000.00,21000.00,24000.00,M,M,YBBN 171500Z 17005KT 9999 FEW030 SCT210 BKN240 17/16 Q1026
YBBN,2015-05-17 15:30,153.1292,-27.3917,64.40,62.60,93.88,170.00,4.00,0.00,30.30,M,6.21,M,FEW,BKN,M,M,3000.00,20000.00,M,M,M,YBBN 171530Z 17004KT 9999 FEW030 BKN200 18/17 Q1026
YBBN,2015-05-17 16:00,153.1292,-27.3917,64.40,60.80,88.09,140.00,7.00,0.00,30.27,M,6.21,M,FEW,BKN,BKN,M,3000.00,5000.00,19000.00,M,M,YBBN 171600Z 14007KT 9999 FEW030 BKN050 BKN190 18/16 Q1025
YBBN,2015-05-17 16:30,153.1292,-27.3917,62.60,60.80,93.83,190.00,5.00,0.00,30.30,M,6.21,M,FEW,BKN,BKN,M,3000.00,5200.00,21000.00,M,M,YBBN 171630Z 19005KT 9999 FEW030 BKN052 BKN210 17/16 Q1026
YBBN,2015-05-17 17:00,153.1292,-27.3917,62.60,60.80,93.83,210.00,7.00,0.00,30.30,M,6.21,M,SCT,BKN,OVC,M,3000.00,4900.00,8500.00,M,//,YBBN 171700Z AUTO 21007KT 9999 // SCT030 BKN049 OVC085 17/16 Q1026
YBBN,2015-05-17 17:30,153.1292,-27.3917,62.60,60.80,93.83,210.00,7.00,0.00,30.30,M,6.21,M,FEW,SCT,BKN,M,1200.00,2900.00,5000.00,M,-SHRA,YBBN 171730Z 21007KT 9999 4500NE -SHRA FEW012 SCT029 BKN050 17/16 Q1026
YBBN,2015-05-17 17:44,153.1292,-27.3917,62.60,62.60,100.00,190.00,5.00,0.00,30.30,M,3.73,M,SCT,BKN,M,M,1400.00,2800.00,M,M,SHRA,YBBN 171744Z 19005KT 6000 SHRA SCT014 BKN028 17/17 Q1026
YBBN,2015-05-17 18:00,153.1292,-27.3917,62.60,62.60,100.00,200.00,6.00,0.00,30.30,M,6.21,M,FEW,SCT,BKN,M,1500.00,2600.00,4000.00,M,VCSH,YBBN 171800Z 20006KT 9999 VCSH FEW015 SCT026 BKN040 17/17 Q1026 RESHRA
YBBN,2015-05-17 18:24,153.1292,-27.3917,62.60,62.60,100.00,200.00,9.00,0.00,30.30,M,5.59,M,FEW,BKN,OVC,M,900.00,1400.00,4000.00,M,-SHRA,YBBN 171824Z 20009KT 9000 -SHRA FEW009 BKN014 OVC040 17/17 Q1026
YBBN,2015-05-17 18:30,153.1292,-27.3917,62.60,62.60,100.00,190.00,7.00,0.00,30.30,M,6.21,M,SCT,BKN,OVC,M,900.00,1400.00,4000.00,M,VCSH,YBBN 171830Z 19007KT 9999 VCSH SCT009 BKN014 OVC040 17/17 Q1026
YBBN,2015-05-17 19:00,153.1292,-27.3917,62.60,62.60,100.00,210.00,5.00,0.00,30.30,M,6.21,M,FEW,SCT,BKN,M,600.00,2800.00,7000.00,M,VCSH,YBBN 171900Z 21005KT 9999 VCSH FEW006 SCT028 BKN070 17/17 Q1026
YBBN,2015-05-17 19:30,153.1292,-27.3917,62.60,62.60,100.00,220.00,5.00,0.00,30.30,M,6.21,M,FEW,BKN,OVC,M,1000.00,2800.00,7000.00,M,-SHRA,YBBN 171930Z 22005KT 9999 -SHRA FEW010 BKN028 OVC070 17/17 Q1026
YBBN,2015-05-17 20:00,153.1292,-27.3917,64.40,62.60,93.88,190.00,4.00,0.00,30.30,M,4.97,M,FEW,SCT,BKN,M,600.00,1600.00,2500.00,M,-SHRA,YBBN 172000Z 19004KT 8000 -SHRA FEW006 SCT016 BKN025 18/17 Q1026
YBBN,2015-05-17 20:13,153.1292,-27.3917,62.60,62.60,100.00,200.00,7.00,0.00,30.30,M,3.73,M,FEW,BKN,OVC,M,800.00,1600.00,2200.00,M,-SHRA,YBBN 172013Z 20007KT 6000 -SHRA FEW008 BKN016 OVC022 17/17 Q1026
YBBN,2015-05-17 20:30,153.1292,-27.3917,62.60,62.60,100.00,200.00,8.00,0.00,30.30,M,3.73,M,FEW,BKN,BKN,M,600.00,1700.00,5000.00,M,-SHRA,YBBN 172030Z 20008KT 6000 -SHRA FEW006 BKN017 BKN050 17/17 Q1026
YBBN,2015-05-17 21:00,153.1292,-27.3917,62.60,62.60,100.00,210.00,5.00,0.00,30.33,M,4.35,M,FEW,SCT,BKN,M,800.00,2500.00,3500.00,M,-DZ,YBBN 172100Z 21005KT 7000 -DZ FEW008 SCT025 BKN035 17/17 Q1027
YBBN,2015-05-17 21:30,153.1292,-27.3917,62.60,62.60,100.00,220.00,9.00,0.00,30.33,M,6.21,M,FEW,SCT,BKN,M,1000.00,3800.00,6000.00,M,VCSH,YBBN 172130Z 22009KT 9999 VCSH FEW010 SCT038 BKN060 17/17 Q1027
YBBN,2015-05-17 22:00,153.1292,-27.3917,64.40,62.60,93.88,210.00,12.00,0.00,30.33,M,6.21,M,FEW,SCT,BKN,M,600.00,4000.00,6500.00,M,M,YBBN 172200Z 21012KT 9999 FEW006 SCT040 BKN065 18/17 Q1027
YBBN,2015-05-17 22:30,153.1292,-27.3917,64.40,62.60,93.88,200.00,8.00,0.00,30.33,M,6.21,M,FEW,BKN,M,M,600.00,8500.00,M,M,M,YBBN 172230Z 20008KT 9999 FEW006 BKN085 18/17 Q1027
YBBN,2015-05-17 23:00,153.1292,-27.3917,66.20,62.60,88.18,180.00,9.00,0.00,30.33,M,6.21,M,FEW,SCT,BKN,M,800.00,5500.00,8500.00,M,M,YBBN 172300Z 18009KT 9999 FEW008 SCT055 BKN085 19/17 Q1027
YBBN,2015-05-17 23:30,153.1292,-27.3917,68.00,62.60,82.86,170.00,7.00,0.00,30.33,M,6.21,M,FEW,BKN,M,M,1200.00,8500.00,M,M,M,YBBN 172330Z 17007KT 9999 FEW012 BKN085 20/17 Q1027
