#DEBUG: Format Typ    -> comma
#DEBUG: Time Period   -> 2012-03-22 00:00:00+00:00 2012-03-23 00:00:00+00:00
#DEBUG: Time Zone     -> Etc/UTC
#DEBUG: Data Contact   -> daryl herzmann akrherz@iastate.edu 515-294-5978
#DEBUG: Entries Found -> -1
station,valid,lon,lat,tmpf, dwpf, relh, drct, sknt, p01i, alti, mslp, vsby, gust, skyc1, skyc2, skyc3, skyc4, skyl1, skyl2, skyl3, skyl4, presentwx, metar
YBBN,2012-03-22 00:00,153.1292,-27.3917,73.40,69.80,88.51,100.00,8.00,0.00,29.71,M,3.11,M,FEW,SCT,BKN,M,1800.00,3000.00,6000.00,M,-SHRA,YBBN 220000Z 10008KT 5000 -SHRA FEW018 SCT030 BKN060 23/21 Q1006
YBBN,2012-03-22 00:30,153.1292,-27.3917,73.40,71.60,94.10,110.00,8.00,0.00,29.71,M,2.49,M,FEW,SCT,BKN,M,1600.00,3000.00,5000.00,M,RA,YBBN 220030Z 11008KT 4000 RA FEW016 SCT030 BKN050 23/22 Q1006
YBBN,2012-03-22 01:00,153.1292,-27.3917,71.60,68.00,88.43,150.00,10.00,0.00,29.71,M,3.73,M,FEW,SCT,BKN,M,1800.00,3500.00,5000.00,M,-RA,YBBN 220100Z 15010KT 6000 -RA FEW018 SCT035 BKN050 22/20 Q1006 RERA
YBBN,2012-03-22 01:30,153.1292,-27.3917,75.20,69.80,83.32,150.00,6.00,0.00,29.71,M,6.21,M,FEW,SCT,BKN,M,1800.00,4000.00,6000.00,M,VCSH,YBBN 220130Z 15006KT 9999 VCSH FEW018 SCT040 BKN060 24/21 Q1006
YBBN,2012-03-22 01:51,153.1292,-27.3917,75.20,69.80,83.32,130.00,8.00,0.00,29.71,M,2.49,M,FEW,SCT,BKN,M,1800.00,3000.00,5500.00,M,-RA,YBBN 220151Z 13008KT 4000 -RA FEW018 SCT030 BKN055 24/21 Q1006
YBBN,2012-03-22 02:00,153.1292,-27.3917,71.60,69.80,94.06,100.00,8.00,0.00,29.71,M,2.49,M,FEW,SCT,BKN,M,1800.00,3000.00,5000.00,M,-RA,YBBN 220200Z 10008KT 4000 -RA FEW018 SCT030 BKN050 22/21 Q1006
YBBN,2012-03-22 02:30,153.1292,-27.3917,71.60,69.80,94.06,90.00,9.00,0.00,29.68,M,2.49,M,FEW,SCT,BKN,M,1600.00,3000.00,5000.00,M,-RA,YBBN 220230Z 09009KT 4000 -RA FEW016 SCT030 BKN050 22/21 Q1005
YBBN,2012-03-22 03:00,153.1292,-27.3917,69.80,69.80,100.00,80.00,6.00,0.00,29.68,M,2.49,M,FEW,SCT,BKN,M,900.00,1200.00,3000.00,M,-RA,YBBN 220300Z 08006KT 4000 -RA FEW009 SCT012 BKN030 21/21 Q1005
YBBN,2012-03-22 03:30,153.1292,-27.3917,71.60,69.80,94.06,90.00,6.00,0.00,29.68,M,3.11,M,FEW,SCT,BKN,M,900.00,1400.00,5000.00,M,-RA,YBBN 220330Z 09006KT 5000 -RA FEW009 SCT014 BKN050 22/21 Q1005
YBBN,2012-03-22 04:00,153.1292,-27.3917,71.60,69.80,94.06,90.00,9.00,0.00,29.65,M,3.11,M,FEW,SCT,BKN,M,800.00,1400.00,3500.00,M,-RA VCSH,YBBN 220400Z 09009KT 5000 -RA VCSH FEW008 SCT014 BKN035 22/21 Q1004
YBBN,2012-03-22 04:30,153.1292,-27.3917,71.60,69.80,94.06,90.00,10.00,0.00,29.65,M,2.49,M,FEW,SCT,BKN,M,600.00,1200.00,3000.00,M,-RA VCSH,YBBN 220430Z 09010KT 4000 -RA VCSH FEW006 SCT012 BKN030 22/21 Q1004
YBBN,2012-03-22 05:00,153.1292,-27.3917,69.80,69.80,100.00,130.00,11.00,0.00,29.65,M,2.49,M,FEW,SCT,BKN,M,600.00,1200.00,2800.00,M,-RA VCSH,YBBN 220500Z 13011KT 4000 -RA VCSH FEW006 SCT012 BKN028 21/21 Q1004
YBBN,2012-03-22 05:30,153.1292,-27.3917,69.80,69.80,100.00,160.00,11.00,0.00,29.65,M,2.49,M,FEW,SCT,BKN,M,600.00,1200.00,2800.00,M,-RA,YBBN 220530Z 16011KT 4000 -RA FEW006 SCT012 BKN028 21/21 Q1004
YBBN,2012-03-22 06:00,153.1292,-27.3917,69.80,69.80,100.00,160.00,10.00,0.00,29.65,M,2.49,M,FEW,SCT,BKN,M,700.00,1100.00,2800.00,M,-RA VCSH,YBBN 220600Z 16010KT 4000 -RA VCSH FEW007 SCT011 BKN028 21/21 Q1004
YBBN,2012-03-22 06:30,153.1292,-27.3917,69.80,68.00,94.01,160.00,9.00,0.00,29.65,M,2.49,M,FEW,SCT,BKN,M,800.00,1200.00,2800.00,M,-RA VCSH,YBBN 220630Z 16009KT 4000 -RA VCSH FEW008 SCT012 BKN028 21/20 Q1004
YBBN,2012-03-22 07:00,153.1292,-27.3917,69.80,68.00,94.01,160.00,9.00,0.00,29.68,M,3.11,M,FEW,SCT,BKN,M,800.00,1200.00,2800.00,M,-RA VCSH,YBBN 220700Z 16009KT 5000 -RA VCSH FEW008 SCT012 BKN028 21/20 Q1005
YBBN,2012-03-22 07:30,153.1292,-27.3917,69.80,66.20,88.34,160.00,10.00,0.00,29.68,M,3.11,M,FEW,SCT,M,M,1000.00,3800.00,M,M,-RA VCSH,YBBN 220730Z 16010KT 5000 -RA VCSH FEW010 SCT038 21/19 Q1005
YBBN,2012-03-22 08:00,153.1292,-27.3917,68.00,66.20,93.97,160.00,9.00,0.00,29.68,M,3.11,M,FEW,OVC,M,M,1200.00,3800.00,M,M,-RA VCSH,YBBN 220800Z 16009KT 5000 -RA VCSH FEW012 OVC038 20/19 Q1005
YBBN,2012-03-22 08:26,153.1292,-27.3917,68.00,68.00,100.00,170.00,11.00,0.00,29.68,M,6.21,M,FEW,OVC,M,M,1200.00,4000.00,M,M,-RA,YBBN 220826Z 17011KT 9999 -RA FEW012 OVC040 20/20 Q1005
YBBN,2012-03-22 08:30,153.1292,-27.3917,68.00,68.00,100.00,160.00,10.00,0.00,29.68,M,6.21,M,FEW,SCT,OVC,M,1100.00,1600.00,3500.00,M,-RA,YBBN 220830Z 16010KT 9999 -RA FEW011 SCT016 OVC035 20/20 Q1005
YBBN,2012-03-22 09:00,153.1292,-27.3917,69.80,68.00,94.01,150.00,9.00,0.00,29.68,M,6.21,M,FEW,SCT,OVC,M,1100.00,1600.00,3500.00,M,-RA,YBBN 220900Z 15009KT 9999 -RA FEW011 SCT016 OVC035 21/20 Q1005
YBBN,2012-03-22 09:30,153.1292,-27.3917,69.80,68.00,94.01,170.00,9.00,0.00,29.68,M,6.21,M,FEW,OVC,M,M,1200.00,2700.00,M,M,-RA,YBBN 220930Z 17009KT 9999 -RA FEW012 OVC027 21/20 Q1005
YBBN,2012-03-22 10:00,153.1292,-27.3917,69.80,64.40,82.98,140.00,12.00,0.00,29.71,M,6.21,M,FEW,OVC,M,M,1600.00,2300.00,M,M,-RA,YBBN 221000Z 14012KT 9999 -RA FEW016 OVC023 21/18 Q1006 TEMPO 1000/1300 3000 RA BKN010
YBBN,2012-03-22 10:12,153.1292,-27.3917,68.00,66.20,93.97,150.00,11.00,0.00,29.71,M,3.73,M,BKN,OVC,M,M,1500.00,2100.00,M,M,//,YBBN 221012Z AUTO 15011KT 6000 // BKN015 OVC021 20/19 Q1006
YBBN,2012-03-22 10:27,153.1292,-27.3917,68.00,66.20,93.97,170.00,10.00,0.00,29.71,M,4.35,M,BKN,OVC,M,M,1300.00,2300.00,M,M,-RA,YBBN 221027Z 17010KT 7000 -RA BKN013 OVC023 20/19 Q1006
YBBN,2012-03-22 11:00,153.1292,-27.3917,68.00,68.00,100.00,160.00,9.00,0.00,29.71,M,4.35,M,FEW,OVC,M,M,700.00,1100.00,M,M,-RA,YBBN 221100Z 16009KT 7000 -RA FEW007 OVC011 20/20 Q1006
YBBN,2012-03-22 11:18,153.1292,-27.3917,69.80,68.00,94.01,160.00,9.00,0.00,29.71,M,3.73,M,FEW,OVC,M,M,700.00,900.00,M,M,-RA,YBBN 221118Z 16009KT 6000 -RA FEW007 OVC009 21/20 Q1006
YBBN,2012-03-22 11:30,153.1292,-27.3917,69.80,68.00,94.01,160.00,10.00,0.00,29.71,M,3.73,M,FEW,OVC,M,M,700.00,900.00,M,M,-RA,YBBN 221130Z 16010KT 6000 -RA FEW007 OVC009 21/20 Q1006
YBBN,2012-03-22 12:00,153.1292,-27.3917,69.80,68.00,94.01,160.00,9.00,0.00,29.71,M,6.21,M,FEW,OVC,M,M,700.00,900.00,M,M,-RA,YBBN 221200Z 16009KT 9999 -RA FEW007 OVC009 21/20 Q1006
YBBN,2012-03-22 12:30,153.1292,-27.3917,69.80,68.00,94.01,180.00,8.00,0.00,29.68,M,3.73,M,FEW,BKN,OVC,M,700.00,900.00,1300.00,M,-RA,YBBN 221230Z 18008KT 6000 -RA FEW007 BKN009 OVC013 21/20 Q1005
YBBN,2012-03-22 13:00,153.1292,-27.3917,69.80,68.00,94.01,170.00,8.00,0.00,29.68,M,2.49,M,BKN,BKN,OVC,M,900.00,1300.00,2100.00,M,-RA,YBBN 221300Z 17008KT 4000 -RA BKN009 BKN013 OVC021 21/20 Q1005
YBBN,2012-03-22 13:30,153.1292,-27.3917,69.80,68.00,94.01,170.00,7.00,0.00,29.68,M,4.35,M,BKN,BKN,OVC,M,900.00,1600.00,2100.00,M,-RA,YBBN 221330Z 17007KT 7000 -RA BKN009 BKN016 OVC021 21/20 Q1005
YBBN,2012-03-22 14:00,153.1292,-27.3917,69.80,68.00,94.01,180.00,7.00,0.00,29.68,M,3.11,M,FEW,BKN,OVC,M,300.00,600.00,900.00,M,RA,YBBN 221400Z 18007KT 5000 RA FEW003 BKN006 OVC009 21/20 Q1005
YBBN,2012-03-22 14:30,153.1292,-27.3917,68.00,68.00,100.00,200.00,7.00,0.00,29.65,M,3.73,M,BKN,OVC,M,M,600.00,900.00,M,M,-RA,YBBN 221430Z 20007KT 6000 -RA BKN006 OVC009 20/20 Q1004
YBBN,2012-03-22 14:58,153.1292,-27.3917,68.00,68.00,100.00,200.00,9.00,0.00,29.65,M,5.59,M,OVC,M,M,M,900.00,M,M,M,-RA,YBBN 221458Z 20009KT 9000 -RA OVC009 20/20 Q1004
YBBN,2012-03-22 15:30,153.1292,-27.3917,68.00,68.00,100.00,200.00,7.00,0.00,29.65,M,6.21,M,BKN,OVC,M,M,800.00,1300.00,M,M,M,YBBN 221530Z 20007KT 9999 BKN008 OVC013 20/20 Q1004
YBBN,2012-03-22 16:00,153.1292,-27.3917,68.00,68.00,100.00,200.00,8.00,0.00,29.62,M,5.59,M,SCT,BKN,OVC,M,600.00,800.00,1500.00,M,M,YBBN 221600Z 20008KT 9000 SCT006 BKN008 OVC015 20/20 Q1003
YBBN,2012-03-22 16:30,153.1292,-27.3917,68.00,68.00,100.00,210.00,9.00,0.00,29.62,M,6.21,M,OVC,M,M,M,600.00,M,M,M,M,YBBN 221630Z 21009KT 9999 OVC006 20/20 Q1003
YBBN,2012-03-22 17:00,153.1292,-27.3917,68.00,66.20,93.97,220.00,9.00,0.00,29.62,M,6.21,M,FEW,OVC,M,M,600.00,800.00,M,M,M,YBBN 221700Z 22009KT 9999 FEW006 OVC008 20/19 Q1003
YBBN,2012-03-22 17:30,153.1292,-27.3917,68.00,66.20,93.97,220.00,10.00,0.00,29.59,M,6.21,M,OVC,M,M,M,800.00,M,M,M,//,YBBN 221730Z AUTO 22010KT 9999 // OVC008 20/19 Q1002
YBBN,2012-03-22 18:00,153.1292,-27.3917,68.00,66.20,93.97,210.00,10.00,0.00,29.59,M,6.21,M,FEW,BKN,BKN,M,800.00,1200.00,1600.00,M,M,YBBN 221800Z 21010KT 9999 FEW008 BKN012 BKN016 20/19 Q1002
YBBN,2012-03-22 18:30,153.1292,-27.3917,68.00,66.20,93.97,210.00,10.00,0.00,29.59,M,6.21,M,FEW,BKN,OVC,M,600.00,1200.00,1800.00,M,M,YBBN 221830Z 21010KT 9999 FEW006 BKN012 OVC018 20/19 Q1002
YBBN,2012-03-22 18:51,153.1292,-27.3917,68.00,66.20,93.97,210.00,11.00,0.00,29.62,M,6.21,M,FEW,SCT,BKN,M,800.00,1500.00,1800.00,M,-RA,YBBN 221851Z 21011KT 9999 -RA FEW008 SCT015 BKN018 20/19 Q1003
YBBN,2012-03-22 19:00,153.1292,-27.3917,68.00,66.20,93.97,210.00,11.00,0.00,29.62,M,6.21,M,FEW,SCT,BKN,M,1000.00,1600.00,5000.00,M,M,YBBN 221900Z 21011KT 9999 FEW010 SCT016 BKN050 20/19 Q1003
YBBN,2012-03-22 19:30,153.1292,-27.3917,68.00,66.20,93.97,210.00,9.00,0.00,29.62,M,6.21,M,FEW,SCT,BKN,M,1000.00,1800.00,14000.00,M,M,YBBN 221930Z 21009KT 9999 FEW010 SCT018 BKN140 20/19 Q1003
YBBN,2012-03-22 20:00,153.1292,-27.3917,68.00,66.20,93.97,210.00,8.00,0.00,29.62,M,6.21,M,FEW,SCT,M,M,1000.00,1300.00,M,M,M,YBBN 222000Z 21008KT 9999 FEW010 SCT013 20/19 Q1003
YBBN,2012-03-22 20:30,153.1292,-27.3917,68.00,66.20,93.97,210.00,9.00,0.00,29.62,M,6.21,M,FEW,SCT,BKN,M,1000.00,1500.00,14000.00,M,-RA,YBBN 222030Z 21009KT 9999 -RA FEW010 SCT015 BKN140 20/19 Q1003
YBBN,2012-03-22 21:00,153.1292,-27.3917,68.00,68.00,100.00,220.00,9.00,0.00,29.62,M,6.21,M,FEW,SCT,BKN,M,800.00,1500.00,8500.00,M,-RA,YBBN 222100Z 22009KT 9999 -RA FEW008 SCT015 BKN085 20/20 Q1003
YBBN,2012-03-22 21:30,153.1292,-27.3917,68.00,66.20,93.97,210.00,9.00,0.00,29.65,M,6.21,M,FEW,BKN,M,M,800.00,8000.00,M,M,M,YBBN 222130Z 21009KT 9999 FEW008 BKN080 20/19 Q1004
YBBN,2012-03-22 22:00,153.1292,-27.3917,69.80,68.00,94.01,220.00,9.00,0.00,29.65,M,6.21,M,FEW,BKN,M,M,800.00,8000.00,M,M,M,YBBN 222200Z 22009KT 9999 FEW008 BKN080 21/20 Q1004
YBBN,2012-03-22 22:30,153.1292,-27.3917,69.80,68.00,94.01,220.00,9.00,0.00,29.65,M,6.21,M,FEW,BKN,M,M,800.00,7500.00,M,M,-RA,YBBN 222230Z 22009KT 9999 -RA FEW008 BKN075 21/20 Q1004
YBBN,2012-03-22 23:00,153.1292,-27.3917,71.60,68.00,88.43,260.00,7.00,0.00,29.65,M,6.21,M,FEW,BKN,M,M,800.00,7300.00,M,M,-RA,YBBN 222300Z 26007KT 9999 -RA FEW008 BKN073 22/20 Q1004
YBBN,2012-03-22 23:30,153.1292,-27.3917,71.60,68.00,88.43,240.00,6.00,0.00,29.65,M,6.21,M,FEW,BKN,M,M,800.00,7000.00,M,M,-RA,YBBN 222330Z 24006KT 9999 -RA FEW008 BKN070 22/20 Q1004
