#DEBUG: Format Typ    -> comma
#DEBUG: Time Period   -> 2013-09-08 00:00:00+00:00 2013-09-09 00:00:00+00:00
#DEBUG: Time Zone     -> Etc/UTC
#DEBUG: Data Contact   -> daryl herzmann akrherz@iastate.edu 515-294-5978
#DEBUG: Entries Found -> -1
station,valid,lon,lat,tmpf, dwpf, relh, drct, sknt, p01i, alti, mslp, vsby, gust, skyc1, skyc2, skyc3, skyc4, skyl1, skyl2, skyl3, skyl4, presentwx, metar
YBBN,2013-09-08 00:00,153.1292,-27.3917,71.60,55.40,56.63,360.00,9.00,0.00,30.27,M,6.21,M,M,M,M,M,M,M,M,M,M,YBBN 080000Z 36009KT CAVOK 22/13 Q1025 NOSIG
YBBN,2013-09-08 00:30,153.1292,-27.3917,71.60,55.40,56.63,360.00,10.00,0.00,30.24,M,6.21,M,M,M,M,M,M,M,M,M,M,YBBN 080030Z 36010KT CAVOK 22/13 Q1024
YBBN,2013-09-08 01:00,153.1292,-27.3917,71.60,53.60,53.03,10.00,12.00,0.00,30.24,M,6.21,M,M,M,M,M,M,M,M,M,M,YBBN 080100Z 01012KT CAVOK 22/12 Q1024 NOSIG
YBBN,2013-09-08 01:30,153.1292,-27.3917,73.40,55.40,53.29,20.00,13.00,0.00,30.21,M,6.21,M,M,M,M,M,M,M,M,M,M,YBBN 080130Z 02013KT CAVOK 23/13 Q1023
YBBN,2013-09-08 02:00,153.1292,-27.3917,73.40,55.40,53.29,20.00,13.00,0.00,30.21,M,6.21,M,M,M,M,M,M,M,M,M,M,YBBN 080200Z 02013KT CAVOK 23/13 Q1023
YBBN,2013-09-08 02:30,153.1292,-27.3917,73.40,53.60,49.90,20.00,15.00,0.00,30.18,M,6.21,M,M,M,M,M,M,M,M,M,M,YBBN 080230Z 02015KT CAVOK 23/12 Q1022
YBBN,2013-09-08 03:00,153.1292,-27.3917,73.40,55.40,53.29,20.00,15.00,0.00,30.15,M,6.21,M,M,M,M,M,M,M,M,M,M,YBBN 080300Z 02015KT CAVOK 23/13 Q1021
YBBN,2013-09-08 03:30,153.1292,-27.3917,73.40,55.40,53.29,20.00,17.00,0.00,30.15,M,6.21,M,M,M,M,M,M,M,M,M,M,YBBN 080330Z 02017KT CAVOK 23/13 Q1021
YBBN,2013-09-08 04:00,153.1292,-27.3917,73.40,55.40,53.29,10.00,16.00,0.00,30.15,M,6.21,M,M,M,M,M,M,M,M,M,M,YBBN 080400Z 01016KT CAVOK 23/13 Q1021
YBBN,2013-09-08 04:30,153.1292,-27.3917,71.60,55.40,56.63,20.00,17.00,0.00,30.12,M,6.21,M,M,M,M,M,M,M,M,M,M,YBBN 080430Z 02017KT CAVOK 22/13 Q1020
YBBN,2013-09-08 05:00,153.1292,-27.3917,71.60,55.40,56.63,20.00,16.00,0.00,30.12,M,6.21,M,M,M,M,M,M,M,M,M,M,YBBN 080500Z 02016KT CAVOK 22/13 Q1020 NOSIG
YBBN,2013-09-08 05:30,153.1292,-27.3917,71.60,55.40,56.63,10.00,17.00,0.00,30.12,M,6.21,M,M,M,M,M,M,M,M,M,M,YBBN 080530Z 01017KT CAVOK 22/13 Q1020
YBBN,2013-09-08 06:00,153.1292,-27.3917,71.60,57.20,60.44,10.00,16.00,0.00,30.12,M,6.21,M,M,M,M,M,M,M,M,M,M,YBBN 080600Z 01016KT CAVOK 22/14 Q1020
YBBN,2013-09-08 06:30,153.1292,-27.3917,69.80,57.20,64.26,10.00,14.00,0.00,30.15,M,6.21,M,M,M,M,M,M,M,M,M,M,YBBN 080630Z 01014KT CAVOK 21/14 Q1021
YBBN,2013-09-08 07:00,153.1292,-27.3917,68.00,57.20,68.35,10.00,14.00,0.00,30.15,M,6.21,M,M,M,M,M,M,M,M,M,M,YBBN 080700Z 01014KT CAVOK 20/14 Q1021
YBBN,2013-09-08 07:30,153.1292,-27.3917,68.00,57.20,68.35,10.00,13.00,0.00,30.15,M,6.21,M,M,M,M,M,M,M,M,M,M,YBBN 080730Z 01013KT CAVOK 20/14 Q1021
YBBN,2013-09-08 08:00,153.1292,-27.3917,68.00,57.20,68.35,360.00,10.00,0.00,30.15,M,6.21,M,M,M,M,M,M,M,M,M,M,YBBN 080800Z 36010KT CAVOK 20/14 Q1021 NOSIG
YBBN,2013-09-08 08:30,153.1292,-27.3917,66.20,57.20,72.74,10.00,10.00,0.00,30.18,M,6.21,M,M,M,M,M,M,M,M,M,M,YBBN 080830Z 01010KT CAVOK 19/14 Q1022
YBBN,2013-09-08 09:00,153.1292,-27.3917,66.20,57.20,72.74,360.00,11.00,0.00,30.18,M,6.21,M,M,M,M,M,M,M,M,M,M,YBBN 080900Z 36011KT CAVOK 19/14 Q1022
YBBN,2013-09-08 09:30,153.1292,-27.3917,66.20,59.00,77.60,360.00,10.00,0.00,30.18,M,6.21,M,M,M,M,M,M,M,M,M,M,YBBN 080930Z 36010KT CAVOK 19/15 Q1022
YBBN,2013-09-08 10:00,153.1292,-27.3917,66.20,57.20,72.74,360.00,8.00,0.00,30.18,M,6.21,M,M,M,M,M,M,M,M,M,M,YBBN 081000Z 36008KT CAVOK 19/14 Q1022 NOSIG
YBBN,2013-09-08 10:30,153.1292,-27.3917,64.40,57.20,77.45,360.00,8.00,0.00,30.21,M,6.21,M,M,M,M,M,M,M,M,M,M,YBBN 081030Z 36008KT CAVOK 18/14 Q1023
YBBN,2013-09-08 11:00,153.1292,-27.3917,64.40,57.20,77.45,360.00,8.00,0.00,30.21,M,6.21,M,M,M,M,M,M,M,M,M,M,YBBN 081100Z 36008KT CAVOK 18/14 Q1023 NOSIG
YBBN,2013-09-08 11:30,153.1292,-27.3917,62.60,57.20,82.50,360.00,8.00,0.00,30.21,M,6.21,M,M,M,M,M,M,M,M,M,M,YBBN 081130Z 36008KT CAVOK 17/14 Q1023
YBBN,2013-09-08 12:00,153.1292,-27.3917,62.60,57.20,82.50,360.00,9.00,0.00,30.21,M,6.21,M,M,M,M,M,M,M,M,M,M,YBBN 081200Z 36009KT CAVOK 17/14 Q1023
YBBN,2013-09-08 12:30,153.1292,-27.3917,64.40,57.20,77.45,360.00,10.00,0.00,30.18,M,6.21,M,M,M,M,M,M,M,M,M,M,YBBN 081230Z 36010KT CAVOK 18/14 Q1022
YBBN,2013-09-08 13:00,153.1292,-27.3917,62.60,55.40,77.29,350.00,9.00,0.00,30.21,M,6.21,M,M,M,M,M,M,M,M,M,M,YBBN 081300Z 35009KT CAVOK 17/13 Q1023
YBBN,2013-09-08 13:30,153.1292,-27.3917,62.60,55.40,77.29,350.00,8.00,0.00,30.21,M,6.21,M,M,M,M,M,M,M,M,M,M,YBBN 081330Z 35008KT CAVOK 17/13 Q1023
YBBN,2013-09-08 14:00,153.1292,-27.3917,60.80,55.40,82.37,270.00,5.00,0.00,30.21,M,6.21,M,M,M,M,M,M,M,M,M,M,YBBN 081400Z 27005KT CAVOK 16/13 Q1023 NOSIG
YBBN,2013-09-08 14:30,153.1292,-27.3917,60.80,55.40,82.37,230.00,4.00,0.00,30.21,M,6.21,M,M,M,M,M,M,M,M,M,M,YBBN 081430Z 23004KT CAVOK 16/13 Q1023
YBBN,2013-09-08 15:00,153.1292,-27.3917,59.00,53.60,82.25,250.00,3.00,0.00,30.21,M,6.21,M,M,M,M,M,M,M,M,M,M,YBBN 081500Z 25003KT CAVOK 15/12 Q1023
YBBN,2013-09-08 15:30,153.1292,-27.3917,59.00,53.60,82.25,200.00,3.00,0.00,30.21,M,6.21,M,M,M,M,M,M,M,M,M,M,YBBN 081530Z 20003KT CAVOK 15/12 Q1023
YBBN,2013-09-08 16:00,153.1292,-27.3917,57.20,51.80,82.12,0.00,0.00,0.00,30.18,M,6.21,M,M,M,M,M,M,M,M,M,M,YBBN 081600Z 00000KT CAVOK 14/11 Q1022
YBBN,2013-09-08 16:30,153.1292,-27.3917,57.20,51.80,82.12,0.00,0.00,0.00,30.18,M,6.21,M,M,M,M,M,M,M,M,M,M,YBBN 081630Z 00000KT CAVOK 14/11 Q1022
YBBN,2013-09-08 17:00,153.1292,-27.3917,57.20,53.60,87.74,20.00,3.00,0.00,30.18,M,6.21,M,M,M,M,M,M,M,M,M,M,YBBN 081700Z 02003KT CAVOK 14/12 Q1022
YBBN,2013-09-08 17:30,153.1292,-27.3917,55.40,51.80,87.65,250.00,5.00,0.00,30.18,M,6.21,M,M,M,M,M,M,M,M,M,M,YBBN 081730Z 25005KT CAVOK 13/11 Q1022
YBBN,2013-09-08 18:00,153.1292,-27.3917,53.60,51.80,93.60,240.00,4.00,0.00,30.18,M,6.21,M,M,M,M,M,M,M,M,M,M,YBBN 081800Z 24004KT CAVOK 12/11 Q1022
YBBN,2013-09-08 18:30,153.1292,-27.3917,53.60,51.80,93.60,210.00,3.00,0.00,30.18,M,6.21,M,M,M,M,M,M,M,M,M,M,YBBN 081830Z 21003KT CAVOK 12/11 Q1022
YBBN,2013-09-08 19:00,153.1292,-27.3917,53.60,51.80,93.60,230.00,1.00,0.00,30.18,M,6.21,M,M,M,M,M,M,M,M,M,M,YBBN 081900Z 23001KT CAVOK 12/11 Q1022 NOSIG
YBBN,2013-09-08 19:30,153.1292,-27.3917,53.60,51.80,93.60,220.00,4.00,0.00,30.18,M,6.21,M,M,M,M,M,M,M,M,M,M,YBBN 081930Z 22004KT CAVOK 12/11 Q1022
YBBN,2013-09-08 20:00,153.1292,-27.3917,53.60,51.80,93.60,260.00,3.00,0.00,30.18,M,6.21,M,CLR,M,M,M,M,M,M,M,MIFG,YBBN 082000Z 26003KT 9999 MIFG SKC 12/11 Q1022
YBBN,2013-09-08 20:30,153.1292,-27.3917,53.60,51.80,93.60,200.00,4.00,0.00,30.21,M,6.21,M,CLR,M,M,M,M,M,M,M,MIFG,YBBN 082030Z 20004KT 9999 MIFG SKC 12/11 Q1023
YBBN,2013-09-08 21:00,153.1292,-27.3917,57.20,55.40,93.69,200.00,3.00,0.00,30.21,M,6.21,M,M,M,M,M,M,M,M,M,M,YBBN 082100Z 20003KT CAVOK 14/13 Q1023 RMK SMOKE ALOFT
YBBN,2013-09-08 21:30,153.1292,-27.3917,60.80,55.40,82.37,200.00,5.00,0.00,30.21,M,6.21,M,M,M,M,M,M,M,M,M,M,YBBN 082130Z 20005KT CAVOK 16/13 Q1023 RMK SMOKE ALOFT
YBBN,2013-09-08 22:00,153.1292,-27.3917,64.40,55.40,72.56,200.00,6.00,0.00,30.24,M,6.21,M,M,M,M,M,M,M,M,M,M,YBBN 082200Z 20006KT CAVOK 18/13 Q1024 NOSIG
YBBN,2013-09-08 22:30,153.1292,-27.3917,66.20,53.60,63.82,210.00,6.00,0.00,30.24,M,6.21,M,FEW,M,M,M,3500.00,M,M,M,M,YBBN 082230Z 21006KT 9999 FEW035 19/12 Q1024 RMK HAZE
YBBN,2013-09-08 23:00,153.1292,-27.3917,69.80,53.60,56.38,240.00,4.00,0.00,30.21,M,6.21,M,FEW,M,M,M,3500.00,M,M,M,M,YBBN 082300Z 24004KT 9999 FEW035 21/12 Q1023 NOSIG
YBBN,2013-09-08 23:30,153.1292,-27.3917,71.60,55.40,56.63,340.00,6.00,0.00,30.21,M,6.21,M,FEW,M,M,M,2500.00,M,M,M,M,YBBN 082330Z 34006KT 9999 FEW025 22/13 Q1023
