#DEBUG: Format Typ    -> comma
#DEBUG: Time Period   -> 2013-10-22 00:00:00+00:00 2013-10-23 00:00:00+00:00
#DEBUG: Time Zone     -> Etc/UTC
#DEBUG: Data Contact   -> daryl herzmann akrherz@iastate.edu 515-294-5978
#DEBUG: Entries Found -> -1
station,valid,lon,lat,tmpf, dwpf, relh, drct, sknt, p01i, alti, mslp, vsby, gust, skyc1, skyc2, skyc3, skyc4, skyl1, skyl2, skyl3, skyl4, presentwx, metar
YBBN,2013-10-22 00:00,153.1292,-27.3917,77.00,60.80,57.36,10.00,8.00,0.00,30.09,M,6.21,M,FEW,M,M,M,2800.00,M,M,M,M,YBBN 220000Z 01008KT 9999 FEW028 25/16 Q1019
YBBN,2013-10-22 00:30,153.1292,-27.3917,77.00,60.80,57.36,20.00,12.00,0.00,30.06,M,6.21,M,FEW,M,M,M,3000.00,M,M,M,M,YBBN 220030Z 02012KT 9999 FEW030 25/16 Q1018
YBBN,2013-10-22 01:00,153.1292,-27.3917,78.80,60.80,54.05,20.00,12.00,0.00,30.06,M,6.21,M,FEW,M,M,M,3500.00,M,M,M,M,YBBN 220100Z 02012KT 9999 FEW035 26/16 Q1018
YBBN,2013-10-22 01:30,153.1292,-27.3917,78.80,59.00,50.69,20.00,13.00,0.00,30.03,M,6.21,M,FEW,M,M,M,3500.00,M,M,M,M,YBBN 220130Z 02013KT 9999 FEW035 26/15 Q1017
YBBN,2013-10-22 02:00,153.1292,-27.3917,78.80,59.00,50.69,20.00,15.00,0.00,30.03,M,6.21,M,FEW,M,M,M,3500.00,M,M,M,M,YBBN 220200Z 02015KT 9999 FEW035 26/15 Q1017 NOSIG
YBBN,2013-10-22 02:30,153.1292,-27.3917,78.80,55.40,44.52,20.00,15.00,0.00,30.00,M,6.21,M,FEW,M,M,M,3500.00,M,M,M,M,YBBN 220230Z 02015KT 9999 FEW035 26/13 Q1016
YBBN,2013-10-22 03:00,153.1292,-27.3917,78.80,59.00,50.69,30.00,15.00,0.00,30.00,M,6.21,M,FEW,M,M,M,3500.00,M,M,M,M,YBBN 220300Z 03015KT 9999 FEW035 26/15 Q1016 NOSIG
YBBN,2013-10-22 03:30,153.1292,-27.3917,78.80,60.80,54.05,30.00,16.00,0.00,30.00,M,6.21,M,FEW,M,M,M,4000.00,M,M,M,M,YBBN 220330Z 03016KT 9999 FEW040 26/16 Q1016
YBBN,2013-10-22 04:00,153.1292,-27.3917,77.00,59.00,53.80,30.00,16.00,0.00,29.97,M,6.21,M,FEW,M,M,M,4000.00,M,M,M,M,YBBN 220400Z 03016KT 9999 FEW040 25/15 Q1015
YBBN,2013-10-22 04:30,153.1292,-27.3917,77.00,60.80,57.36,20.00,17.00,0.00,29.97,M,6.21,M,M,M,M,M,M,M,M,M,M,YBBN 220430Z 02017KT CAVOK 25/16 Q1015
YBBN,2013-10-22 05:00,153.1292,-27.3917,77.00,59.00,53.80,10.00,17.00,0.00,29.97,M,6.21,M,FEW,M,M,M,4000.00,M,M,M,M,YBBN 220500Z 01017KT 9999 FEW040 25/15 Q1015
YBBN,2013-10-22 05:30,153.1292,-27.3917,75.20,59.00,57.12,10.00,18.00,0.00,29.97,M,6.21,M,M,M,M,M,M,M,M,M,M,YBBN 220530Z 01018KT CAVOK 24/15 Q1015
YBBN,2013-10-22 06:00,153.1292,-27.3917,75.20,59.00,57.12,10.00,18.00,0.00,29.97,M,6.21,M,M,M,M,M,M,M,M,M,M,YBBN 220600Z 01018KT CAVOK 24/15 Q1015
YBBN,2013-10-22 06:30,153.1292,-27.3917,75.20,59.00,57.12,10.00,17.00,0.00,29.97,M,6.21,M,NCD,M,M,M,M,M,M,M,//,YBBN 220630Z AUTO 01017KT 9999 // NCD 24/15 Q1015
YBBN,2013-10-22 07:00,153.1292,-27.3917,73.40,60.80,64.69,20.00,15.00,0.00,29.97,M,6.21,M,M,M,M,M,M,M,M,M,M,YBBN 220700Z 02015KT CAVOK 23/16 Q1015
YBBN,2013-10-22 07:30,153.1292,-27.3917,73.40,62.60,68.94,10.00,14.00,0.00,29.97,M,6.21,M,M,M,M,M,M,M,M,M,M,YBBN 220730Z 01014KT CAVOK 23/17 Q1015
YBBN,2013-10-22 08:00,153.1292,-27.3917,71.60,62.60,73.27,10.00,15.00,0.00,29.97,M,6.21,M,FEW,M,M,M,2500.00,M,M,M,M,YBBN 220800Z 01015KT 9999 FEW025 22/17 Q1015
YBBN,2013-10-22 08:30,153.1292,-27.3917,71.60,62.60,73.27,20.00,16.00,0.00,30.00,M,6.21,M,FEW,M,M,M,1800.00,M,M,M,M,YBBN 220830Z 02016KT 9999 FEW018 22/17 Q1016
YBBN,2013-10-22 09:00,153.1292,-27.3917,71.60,62.60,73.27,10.00,14.00,0.00,30.00,M,6.21,M,FEW,M,M,M,1800.00,M,M,M,M,YBBN 220900Z 01014KT 9999 FEW018 22/17 Q1016
YBBN,2013-10-22 09:30,153.1292,-27.3917,71.60,62.60,73.27,10.00,14.00,0.00,30.00,M,6.21,M,FEW,M,M,M,1800.00,M,M,M,M,YBBN 220930Z 01014KT 9999 FEW018 22/17 Q1016
YBBN,2013-10-22 10:00,153.1292,-27.3917,71.60,64.40,78.04,10.00,15.00,0.00,30.00,M,6.21,M,FEW,M,M,M,2000.00,M,M,M,M,YBBN 221000Z 01015KT 9999 FEW020 22/18 Q1016
YBBN,2013-10-22 10:30,153.1292,-27.3917,71.60,62.60,73.27,10.00,14.00,0.00,30.03,M,6.21,M,SCT,M,M,M,2000.00,M,M,M,M,YBBN 221030Z 01014KT 9999 SCT020 22/17 Q1017
YBBN,2013-10-22 11:00,153.1292,-27.3917,71.60,64.40,78.04,10.00,15.00,0.00,30.03,M,6.21,M,BKN,M,M,M,1800.00,M,M,M,M,YBBN 221100Z 01015KT 9999 BKN018 22/18 Q1017
YBBN,2013-10-22 11:30,153.1292,-27.3917,71.60,64.40,78.04,10.00,15.00,0.00,30.03,M,6.21,M,FEW,M,M,M,1800.00,M,M,M,M,YBBN 221130Z 01015KT 9999 FEW018 22/18 Q1017
YBBN,2013-10-22 12:00,153.1292,-27.3917,71.60,64.40,78.04,10.00,15.00,0.00,30.03,M,6.21,M,SCT,M,M,M,1800.00,M,M,M,M,YBBN 221200Z 01015KT 9999 SCT018 22/18 Q1017
YBBN,2013-10-22 12:30,153.1292,-27.3917,71.60,64.40,78.04,10.00,15.00,0.00,30.03,M,6.21,M,BKN,M,M,M,1800.00,M,M,M,M,YBBN 221230Z 01015KT 9999 BKN018 22/18 Q1017
YBBN,2013-10-22 13:00,153.1292,-27.3917,69.80,64.40,82.98,330.00,9.00,0.00,30.03,M,6.21,M,SCT,M,M,M,1800.00,M,M,M,M,YBBN 221300Z 33009KT 9999 SCT018 21/18 Q1017 NOSIG
YBBN,2013-10-22 13:30,153.1292,-27.3917,68.00,64.40,88.26,340.00,9.00,0.00,30.03,M,6.21,M,SCT,M,M,M,1800.00,M,M,M,M,YBBN 221330Z 34009KT 9999 SCT018 20/18 Q1017
YBBN,2013-10-22 14:00,153.1292,-27.3917,68.00,64.40,88.26,340.00,8.00,0.00,30.00,M,6.21,M,SCT,M,M,M,1800.00,M,M,M,M,YBBN 221400Z 34008KT 9999 SCT018 20/18 Q1016
YBBN,2013-10-22 14:30,153.1292,-27.3917,68.00,64.40,88.26,320.00,7.00,0.00,30.00,M,6.21,M,SCT,SCT,M,M,1700.00,3000.00,M,M,M,YBBN 221430Z 32007KT 9999 SCT017 SCT030 20/18 Q1016
YBBN,2013-10-22 15:00,153.1292,-27.3917,68.00,64.40,88.26,350.00,9.00,0.00,30.00,M,6.21,M,FEW,SCT,M,M,1700.00,3000.00,M,M,M,YBBN 221500Z 35009KT 9999 FEW017 SCT030 20/18 Q1016 NOSIG
YBBN,2013-10-22 15:30,153.1292,-27.3917,69.80,64.40,82.98,350.00,9.00,0.00,30.00,M,6.21,M,SCT,M,M,M,1700.00,M,M,M,M,YBBN 221530Z 35009KT 9999 SCT017 21/18 Q1016
YBBN,2013-10-22 16:00,153.1292,-27.3917,69.80,66.20,88.34,340.00,8.00,0.00,30.00,M,6.21,M,FEW,SCT,M,M,1500.00,2000.00,M,M,M,YBBN 221600Z 34008KT 9999 FEW015 SCT020 21/19 Q1016 NOSIG
YBBN,2013-10-22 16:30,153.1292,-27.3917,68.00,64.40,88.26,330.00,8.00,0.00,29.97,M,6.21,M,FEW,SCT,M,M,1500.00,2000.00,M,M,M,YBBN 221630Z 33008KT 9999 FEW015 SCT020 20/18 Q1015 RMK HZ
YBBN,2013-10-22 17:00,153.1292,-27.3917,66.20,64.40,93.92,300.00,6.00,0.00,29.97,M,6.21,M,FEW,M,M,M,1300.00,M,M,M,M,YBBN 221700Z 30006KT 9999 FEW013 19/18 Q1015 NOSIG
YBBN,2013-10-22 17:30,153.1292,-27.3917,68.00,64.40,88.26,350.00,11.00,0.00,29.97,M,6.21,M,FEW,M,M,M,1400.00,M,M,M,M,YBBN 221730Z 35011KT 9999 FEW014 20/18 Q1015 RMK HZ
YBBN,2013-10-22 18:00,153.1292,-27.3917,68.00,64.40,88.26,350.00,12.00,0.00,29.97,M,6.21,M,FEW,M,M,M,1400.00,M,M,M,M,YBBN 221800Z 35012KT 9999 FEW014 20/18 Q1015
YBBN,2013-10-22 18:30,153.1292,-27.3917,68.00,64.40,88.26,350.00,13.00,0.00,29.97,M,6.21,M,FEW,M,M,M,1400.00,M,M,M,M,YBBN 221830Z 35013KT 9999 FEW014 20/18 Q1015 RMK HZ
YBBN,2013-10-22 19:00,153.1292,-27.3917,69.80,64.40,82.98,350.00,13.00,0.00,29.97,M,6.21,M,FEW,SCT,M,M,1400.00,2500.00,M,M,M,YBBN 221900Z 35013KT 9999 FEW014 SCT025 21/18 Q1015 NOSIG
YBBN,2013-10-22 19:30,153.1292,-27.3917,68.00,64.40,88.26,350.00,12.00,0.00,29.97,M,6.21,M,FEW,M,M,M,1400.00,M,M,M,M,YBBN 221930Z 35012KT 9999 FEW014 20/18 Q1015 RMK HZ
YBBN,2013-10-22 20:00,153.1292,-27.3917,68.00,64.40,88.26,350.00,10.00,0.00,30.00,M,6.21,M,FEW,M,M,M,1400.00,M,M,M,M,YBBN 222000Z 35010KT 9999 FEW014 20/18 Q1016 FM2000 34010KT 9999 FEW025
YBBN,2013-10-22 20:30,153.1292,-27.3917,69.80,64.40,82.98,310.00,7.00,0.00,30.00,M,6.21,M,FEW,M,M,M,1800.00,M,M,M,M,YBBN 222030Z 31007KT 9999 FEW018 21/18 Q1016 RMK HAZE
YBBN,2013-10-22 21:00,153.1292,-27.3917,71.60,64.40,78.04,330.00,9.00,0.00,30.00,M,6.21,M,FEW,M,M,M,1800.00,M,M,M,M,YBBN 222100Z 33009KT 9999 FEW018 22/18 Q1016 NOSIG
YBBN,2013-10-22 21:30,153.1292,-27.3917,73.40,64.40,73.44,340.00,11.00,0.00,30.00,M,6.21,M,FEW,M,M,M,2000.00,M,M,M,M,YBBN 222130Z 34011KT 9999 FEW020 23/18 Q1016 RMK HAZE
YBBN,2013-10-22 22:00,153.1292,-27.3917,75.20,62.60,64.91,340.00,14.00,0.00,30.00,M,6.21,M,FEW,M,M,M,2200.00,M,M,M,M,YBBN 222200Z 34014KT 9999 FEW022 24/17 Q1016 NOSIG
YBBN,2013-10-22 22:30,153.1292,-27.3917,77.00,62.60,61.13,360.00,14.00,0.00,30.00,M,6.21,M,FEW,M,M,M,2500.00,M,M,M,M,YBBN 222230Z 36014KT 9999 FEW025 25/17 Q1016
YBBN,2013-10-22 23:00,153.1292,-27.3917,78.80,62.60,57.60,350.00,12.00,0.00,29.97,M,6.21,M,FEW,M,M,M,2700.00,M,M,M,M,YBBN 222300Z 35012KT 9999 FEW027 26/17 Q1015
YBBN,2013-10-22 23:30,153.1292,-27.3917,78.80,60.80,54.05,10.00,12.00,0.00,29.97,M,6.21,M,FEW,M,M,M,2700.00,M,M,M,M,YBBN 222330Z 01012KT 9999 FEW027 26/16 Q1015
