#DEBUG: Format Typ    -> comma
#DEBUG: Time Period   -> 2014-10-21 00:00:00+00:00 2014-10-22 00:00:00+00:00
#DEBUG: Time Zone     -> Etc/UTC
#DEBUG: Data Contact   -> daryl herzmann akrherz@iastate.edu 515-294-5978
#DEBUG: Entries Found -> -1
station,valid,lon,lat,tmpf, dwpf, relh, drct, sknt, p01i, alti, mslp, vsby, gust, skyc1, skyc2, skyc3, skyc4, skyl1, skyl2, skyl3, skyl4, presentwx, metar
YBBN,2014-10-21 00:00,153.1292,-27.3917,75.20,55.40,50.17,130.00,13.00,0.00,30.30,M,6.21,M,SCT,BKN,M,M,3500.00,5000.00,M,M,VCSH,YBBN 210000Z 13013KT 9999 VCSH SCT035 BKN050 24/13 Q1026 NOSIG
YBBN,2014-10-21 00:30,153.1292,-27.3917,75.20,53.60,46.98,120.00,14.00,0.00,30.30,M,6.21,M,SCT,SCT,M,M,3500.00,5500.00,M,M,M,YBBN 210030Z 12014KT 9999 SCT035 SCT055 24/12 Q1026
YBBN,2014-10-21 00:58,153.1292,-27.3917,77.00,55.40,47.25,120.00,15.00,0.00,30.30,M,6.21,25.00,FEW,SCT,M,M,3600.00,5800.00,M,M,M,YBBN 210058Z 12015G25KT 9999 FEW036 SCT058 25/13 Q1026
YBBN,2014-10-21 01:00,153.1292,-27.3917,75.20,55.40,50.17,130.00,15.00,0.00,30.30,M,6.21,25.00,FEW,SCT,M,M,3600.00,5800.00,M,M,M,YBBN 210100Z 13015G25KT 9999 FEW036 SCT058 24/13 Q1026
YBBN,2014-10-21 01:30,153.1292,-27.3917,75.20,57.20,53.55,110.00,15.00,0.00,30.30,M,6.21,26.00,FEW,SCT,M,M,4000.00,5800.00,M,M,M,YBBN 210130Z 11015G26KT 9999 FEW040 SCT058 24/14 Q1026
YBBN,2014-10-21 02:00,153.1292,-27.3917,75.20,55.40,50.17,110.00,15.00,0.00,30.27,M,6.21,M,FEW,SCT,M,M,4000.00,6000.00,M,M,M,YBBN 210200Z 11015KT 9999 FEW040 SCT060 24/13 Q1025 NOSIG
YBBN,2014-10-21 02:09,153.1292,-27.3917,77.00,55.40,47.25,110.00,15.00,0.00,30.27,M,6.21,25.00,FEW,SCT,M,M,4000.00,6000.00,M,M,M,YBBN 210209Z 11015G25KT 9999 FEW040 SCT060 25/13 Q1025
YBBN,2014-10-21 02:30,153.1292,-27.3917,77.00,55.40,47.25,110.00,16.00,0.00,30.27,M,6.21,M,FEW,SCT,M,M,4400.00,6000.00,M,M,M,YBBN 210230Z 11016KT 9999 FEW044 SCT060 25/13 Q1025
YBBN,2014-10-21 02:49,153.1292,-27.3917,75.20,57.20,53.55,110.00,16.00,0.00,30.27,M,6.21,26.00,SCT,SCT,M,M,4400.00,6000.00,M,M,M,YBBN 210249Z 11016G26KT 9999 SCT044 SCT060 24/14 Q1025
YBBN,2014-10-21 03:00,153.1292,-27.3917,75.20,57.20,53.55,110.00,15.00,0.00,30.27,M,6.21,M,SCT,BKN,M,M,4500.00,6000.00,M,M,M,YBBN 210300Z 11015KT 9999 SCT045 BKN060 24/14 Q1025 NOSIG
YBBN,2014-10-21 03:30,153.1292,-27.3917,75.20,55.40,50.17,120.00,15.00,0.00,30.24,M,6.21,M,SCT,BKN,M,M,4500.00,6000.00,M,M,M,YBBN 210330Z 12015KT 9999 SCT045 BKN060 24/13 Q1024
YBBN,2014-10-21 04:00,153.1292,-27.3917,73.40,57.20,56.88,120.00,15.00,0.00,30.24,M,6.21,M,SCT,BKN,M,M,4500.00,6300.00,M,M,M,YBBN 210400Z 12015KT 9999 SCT045 BKN063 23/14 Q1024 NOSIG
YBBN,2014-10-21 04:30,153.1292,-27.3917,73.40,57.20,56.88,130.00,14.00,0.00,30.24,M,6.21,M,FEW,BKN,M,M,4500.00,6500.00,M,M,M,YBBN 210430Z 13014KT 9999 FEW045 BKN065 23/14 Q1024
YBBN,2014-10-21 05:00,153.1292,-27.3917,73.40,57.20,56.88,120.00,14.00,0.00,30.24,M,6.21,M,SCT,BKN,M,M,4500.00,6500.00,M,M,M,YBBN 210500Z 12014KT 9999 SCT045 BKN065 23/14 Q1024 NOSIG
YBBN,2014-10-21 05:28,153.1292,-27.3917,73.40,57.20,56.88,130.00,15.00,0.00,30.24,M,6.21,26.00,SCT,BKN,M,M,4500.00,6500.00,M,M,M,YBBN 210528Z 13015G26KT 9999 SCT045 BKN065 23/14 Q1024
YBBN,2014-10-21 05:30,153.1292,-27.3917,71.60,57.20,60.44,130.00,14.00,0.00,30.24,M,6.21,26.00,FEW,BKN,M,M,4500.00,6600.00,M,M,M,YBBN 210530Z 13014G26KT 9999 FEW045 BKN066 22/14 Q1024
YBBN,2014-10-21 06:00,153.1292,-27.3917,71.60,55.40,56.63,130.00,14.00,0.00,30.24,M,6.21,27.00,FEW,SCT,BKN,M,2400.00,4500.00,6600.00,M,M,YBBN 210600Z 13014G27KT 9999 FEW024 SCT045 BKN066 22/13 Q1024 NOSIG
YBBN,2014-10-21 06:30,153.1292,-27.3917,71.60,55.40,56.63,130.00,14.00,0.00,30.27,M,6.21,M,FEW,SCT,BKN,M,2400.00,4500.00,6600.00,M,M,YBBN 210630Z 13014KT 9999 FEW024 SCT045 BKN066 22/13 Q1025
YBBN,2014-10-21 06:50,153.1292,-27.3917,71.60,55.40,56.63,130.00,15.00,0.00,30.27,M,6.21,26.00,FEW,BKN,M,M,2400.00,6600.00,M,M,M,YBBN 210650Z 13015G26KT 9999 FEW024 BKN066 22/13 Q1025
YBBN,2014-10-21 07:00,153.1292,-27.3917,71.60,55.40,56.63,140.00,13.00,0.00,30.27,M,6.21,M,FEW,BKN,M,M,2500.00,6800.00,M,M,M,YBBN 210700Z 14013KT 9999 FEW025 BKN068 22/13 Q1025 NOSIG
YBBN,2014-10-21 07:30,153.1292,-27.3917,69.80,53.60,56.38,140.00,13.00,0.00,30.27,M,6.21,M,FEW,BKN,M,M,2500.00,6800.00,M,M,M,YBBN 210730Z 14013KT 9999 FEW025 BKN068 21/12 Q1025
YBBN,2014-10-21 08:00,153.1292,-27.3917,69.80,53.60,56.38,130.00,13.00,0.00,30.27,M,6.21,M,FEW,BKN,M,M,2500.00,6500.00,M,M,M,YBBN 210800Z 13013KT 9999 FEW025 BKN065 21/12 Q1025
YBBN,2014-10-21 08:30,153.1292,-27.3917,69.80,53.60,56.38,130.00,13.00,0.00,30.30,M,6.21,M,FEW,BKN,M,M,2500.00,6500.00,M,M,M,YBBN 210830Z 13013KT 9999 FEW025 BKN065 21/12 Q1026
YBBN,2014-10-21 09:00,153.1292,-27.3917,68.00,53.60,59.97,140.00,12.00,0.00,30.30,M,6.21,M,M,M,M,M,M,M,M,M,M,YBBN 210900Z 14012KT CAVOK 20/12 Q1026
YBBN,2014-10-21 09:30,153.1292,-27.3917,68.00,53.60,59.97,130.00,13.00,0.00,30.30,M,6.21,M,M,M,M,M,M,M,M,M,M,YBBN 210930Z 13013KT CAVOK 20/12 Q1026 RMK 7SC065
YBBN,2014-10-21 10:00,153.1292,-27.3917,68.00,55.40,64.04,150.00,11.00,0.00,30.30,M,6.21,M,M,M,M,M,M,M,M,M,M,YBBN 211000Z 15011KT CAVOK 20/13 Q1026 NOSIG
YBBN,2014-10-21 10:30,153.1292,-27.3917,68.00,55.40,64.04,150.00,11.00,0.00,30.33,M,6.21,M,M,M,M,M,M,M,M,M,M,YBBN 211030Z 15011KT CAVOK 20/13 Q1027 RMK 5SC063
YBBN,2014-10-21 11:00,153.1292,-27.3917,66.20,55.40,68.15,140.00,11.00,0.00,30.33,M,6.21,M,FEW,SCT,M,M,2800.00,6300.00,M,M,M,YBBN 211100Z 14011KT 9999 FEW028 SCT063 19/13 Q1027 NOSIG
YBBN,2014-10-21 11:30,153.1292,-27.3917,66.20,55.40,68.15,150.00,10.00,0.00,30.33,M,6.21,M,M,M,M,M,M,M,M,M,M,YBBN 211130Z 15010KT CAVOK 19/13 Q1027
YBBN,2014-10-21 12:00,153.1292,-27.3917,64.40,55.40,72.56,160.00,9.00,0.00,30.33,M,6.21,M,M,M,M,M,M,M,M,M,M,YBBN 211200Z 16009KT CAVOK 18/13 Q1027 NOSIG
YBBN,2014-10-21 12:30,153.1292,-27.3917,66.20,55.40,68.15,160.00,9.00,0.00,30.33,M,6.21,M,FEW,BKN,M,M,3500.00,6000.00,M,M,M,YBBN 211230Z 16009KT 9999 FEW035 BKN060 19/13 Q1027
YBBN,2014-10-21 13:00,153.1292,-27.3917,64.40,55.40,72.56,180.00,7.00,0.00,30.33,M,6.21,M,FEW,BKN,M,M,4000.00,5800.00,M,M,M,YBBN 211300Z 18007KT 9999 FEW040 BKN058 18/13 Q1027
YBBN,2014-10-21 13:30,153.1292,-27.3917,64.40,55.40,72.56,170.00,9.00,0.00,30.33,M,6.21,M,FEW,BKN,M,M,4000.00,5700.00,M,M,VCSH,YBBN 211330Z 17009KT 9999 VCSH FEW040 BKN057 18/13 Q1027
YBBN,2014-10-21 14:00,153.1292,-27.3917,64.40,55.40,72.56,170.00,10.00,0.00,30.30,M,6.21,M,FEW,BKN,M,M,3500.00,4500.00,M,M,VCSH,YBBN 211400Z 17010KT 9999 VCSH FEW035 BKN045 18/13 Q1026 NOSIG
YBBN,2014-10-21 14:30,153.1292,-27.3917,64.40,55.40,72.56,170.00,8.00,0.00,30.30,M,6.21,M,FEW,BKN,M,M,3000.00,5000.00,M,M,M,YBBN 211430Z 17008KT 9999 FEW030 BKN050 18/13 Q1026
YBBN,2014-10-21 15:00,153.1292,-27.3917,62.60,55.40,77.29,180.00,5.00,0.00,30.27,M,6.21,M,FEW,SCT,M,M,3400.00,5500.00,M,M,M,YBBN 211500Z 18005KT 9999 FEW034 SCT055 17/13 Q1025 NOSIG
YBBN,2014-10-21 15:30,153.1292,-27.3917,62.60,55.40,77.29,180.00,6.00,0.00,30.27,M,6.21,M,FEW,BKN,M,M,2500.00,5500.00,M,M,M,YBBN 211530Z 18006KT 9999 FEW025 BKN055 17/13 Q1025
YBBN,2014-10-21 16:00,153.1292,-27.3917,62.60,53.60,72.38,180.00,6.00,0.00,30.27,M,6.21,M,FEW,BKN,M,M,2800.00,6000.00,M,M,M,YBBN 211600Z 18006KT 9999 FEW028 BKN060 17/12 Q1025 NOSIG
YBBN,2014-10-21 16:30,153.1292,-27.3917,62.60,55.40,77.29,190.00,6.00,0.00,30.27,M,6.21,M,FEW,BKN,M,M,4000.00,6000.00,M,M,M,YBBN 211630Z 19006KT 9999 FEW040 BKN060 17/13 Q1025
YBBN,2014-10-21 17:00,153.1292,-27.3917,62.60,53.60,72.38,210.00,6.00,0.00,30.24,M,6.21,M,FEW,BKN,M,M,4000.00,6000.00,M,M,M,YBBN 211700Z 21006KT 9999 FEW040 BKN060 17/12 Q1024 NOSIG
YBBN,2014-10-21 17:30,153.1292,-27.3917,62.60,53.60,72.38,180.00,5.00,0.00,30.24,M,6.21,M,M,M,M,M,M,M,M,M,M,YBBN 211730Z 18005KT CAVOK 17/12 Q1024 RMK 5SC055
YBBN,2014-10-21 18:00,153.1292,-27.3917,62.60,53.60,72.38,180.00,5.00,0.00,30.24,M,6.21,M,M,M,M,M,M,M,M,M,M,YBBN 211800Z 18005KT CAVOK 17/12 Q1024
YBBN,2014-10-21 18:30,153.1292,-27.3917,62.60,55.40,77.29,190.00,6.00,0.00,30.24,M,6.21,M,FEW,SCT,BKN,M,3200.00,4000.00,5000.00,M,VCSH,YBBN 211830Z 19006KT 9999 VCSH FEW032 SCT040 BKN050 17/13 Q1024
YBBN,2014-10-21 19:00,153.1292,-27.3917,62.60,55.40,77.29,190.00,7.00,0.00,30.24,M,6.21,M,FEW,SCT,BKN,M,1500.00,2800.00,5000.00,M,M,YBBN 211900Z 19007KT 9999 FEW015 SCT028 BKN050 17/13 Q1024
YBBN,2014-10-21 19:30,153.1292,-27.3917,62.60,53.60,72.38,190.00,7.00,0.00,30.24,M,6.21,M,FEW,SCT,BKN,M,2500.00,3500.00,5500.00,M,M,YBBN 211930Z 19007KT 9999 FEW025 SCT035 BKN055 17/12 Q1024
YBBN,2014-10-21 20:00,153.1292,-27.3917,64.40,53.60,67.95,200.00,8.00,0.00,30.27,M,6.21,M,FEW,SCT,BKN,M,2800.00,4000.00,5000.00,M,M,YBBN 212000Z 20008KT 9999 FEW028 SCT040 BKN050 18/12 Q1025
YBBN,2014-10-21 20:30,153.1292,-27.3917,64.40,53.60,67.95,210.00,9.00,0.00,30.27,M,6.21,M,FEW,SCT,M,M,2500.00,4200.00,M,M,M,YBBN 212030Z 21009KT 9999 FEW025 SCT042 18/12 Q1025
YBBN,2014-10-21 21:00,153.1292,-27.3917,66.20,53.60,63.82,200.00,9.00,0.00,30.27,M,6.21,M,FEW,SCT,M,M,2500.00,4200.00,M,M,M,YBBN 212100Z 20009KT 9999 FEW025 SCT042 19/12 Q1025 NOSIG
YBBN,2014-10-21 21:30,153.1292,-27.3917,66.20,53.60,63.82,170.00,8.00,0.00,30.27,M,6.21,M,FEW,BKN,M,M,2500.00,4000.00,M,M,M,YBBN 212130Z 17008KT 9999 FEW025 BKN040 19/12 Q1025
YBBN,2014-10-21 22:00,153.1292,-27.3917,68.00,53.60,59.97,170.00,7.00,0.00,30.27,M,6.21,M,FEW,SCT,M,M,2500.00,4500.00,M,M,M,YBBN 212200Z 17007KT 9999 FEW025 SCT045 20/12 Q1025 NOSIG
YBBN,2014-10-21 22:30,153.1292,-27.3917,71.60,53.60,53.03,130.00,7.00,0.00,30.27,M,6.21,M,SCT,M,M,M,2600.00,M,M,M,M,YBBN 212230Z 13007KT 9999 SCT026 22/12 Q1025
YBBN,2014-10-21 23:00,153.1292,-27.3917,71.60,53.60,53.03,100.00,9.00,0.00,30.27,M,6.21,M,SCT,BKN,M,M,2800.00,4000.00,M,M,M,YBBN 212300Z 10009KT 9999 SCT028 BKN040 22/12 Q1025 NOSIG
YBBN,2014-10-21 23:30,153.1292,-27.3917,71.60,51.80,49.64,130.00,11.00,0.00,30.27,M,6.21,M,SCT,BKN,M,M,3000.00,4500.00,M,M,M,YBBN 212330Z 13011KT 9999 SCT030 BKN045 22/11 Q1025
