#DEBUG: Format Typ    -> comma
#DEBUG: Time Period   -> 2015-03-29 00:00:00+00:00 2015-03-30 00:00:00+00:00
#DEBUG: Time Zone     -> Etc/UTC
#DEBUG: Data Contact   -> daryl herzmann akrherz@iastate.edu 515-294-5978
#DEBUG: Entries Found -> -1
station,valid,lon,lat,tmpf, dwpf, relh, drct, sknt, p01i, alti, mslp, vsby, gust, skyc1, skyc2, skyc3, skyc4, skyl1, skyl2, skyl3, skyl4, presentwx, metar
YBBN,2015-03-29 00:00,153.1292,-27.3917,78.80,62.60,57.60,70.00,10.00,0.00,30.21,M,6.21,M,SCT,M,M,M,3800.00,M,M,M,M,YBBN 290000Z 07010KT 9999 SCT038 26/17 Q1023 NOSIG
YBBN,2015-03-29 00:30,153.1292,-27.3917,78.80,62.60,57.60,70.00,8.00,0.00,30.21,M,6.21,M,FEW,M,M,M,3500.00,M,M,M,M,YBBN 290030Z 07008KT 9999 FEW035 26/17 Q1023
YBBN,2015-03-29 01:00,153.1292,-27.3917,80.60,64.40,57.84,80.00,9.00,0.00,30.21,M,6.21,M,FEW,M,M,M,3500.00,M,M,M,M,YBBN 290100Z 08009KT 9999 FEW035 27/18 Q1023 NOSIG
YBBN,2015-03-29 01:30,153.1292,-27.3917,80.60,64.40,57.84,60.00,10.00,0.00,30.18,M,6.21,M,FEW,M,M,M,3500.00,M,M,M,M,YBBN 290130Z 06010KT 9999 FEW035 27/18 Q1022
YBBN,2015-03-29 02:00,153.1292,-27.3917,80.60,62.60,54.30,60.00,9.00,0.00,30.18,M,6.21,M,FEW,BKN,M,M,3500.00,25000.00,M,M,M,YBBN 290200Z 06009KT 9999 FEW035 BKN250 27/17 Q1022
YBBN,2015-03-29 02:30,153.1292,-27.3917,80.60,64.40,57.84,60.00,9.00,0.00,30.18,M,6.21,M,FEW,BKN,M,M,3500.00,25000.00,M,M,M,YBBN 290230Z 06009KT 9999 FEW035 BKN250 27/18 Q1022
YBBN,2015-03-29 03:00,153.1292,-27.3917,80.60,62.60,54.30,60.00,9.00,0.00,30.15,M,6.21,M,FEW,SCT,M,M,3500.00,25000.00,M,M,M,YBBN 290300Z 06009KT 9999 FEW035 SCT250 27/17 Q1021 NOSIG
YBBN,2015-03-29 03:30,153.1292,-27.3917,80.60,62.60,54.30,60.00,8.00,0.00,30.15,M,6.21,M,FEW,BKN,M,M,3500.00,25000.00,M,M,M,YBBN 290330Z 06008KT 9999 FEW035 BKN250 27/17 Q1021
YBBN,2015-03-29 04:00,153.1292,-27.3917,78.80,60.80,54.05,30.00,13.00,0.00,30.15,M,6.21,M,FEW,SCT,M,M,3500.00,25000.00,M,M,M,YBBN 290400Z 03013KT 9999 FEW035 SCT250 26/16 Q1021 NOSIG
YBBN,2015-03-29 04:30,153.1292,-27.3917,78.80,62.60,57.60,40.00,12.00,0.00,30.15,M,6.21,M,FEW,SCT,M,M,3500.00,25000.00,M,M,M,YBBN 290430Z 04012KT 9999 FEW035 SCT250 26/17 Q1021
YBBN,2015-03-29 05:00,153.1292,-27.3917,80.60,62.60,54.30,50.00,10.00,0.00,30.15,M,6.21,M,FEW,SCT,M,M,3500.00,25000.00,M,M,M,YBBN 290500Z 05010KT 9999 FEW035 SCT250 27/17 Q1021 NOSIG
YBBN,2015-03-29 05:30,153.1292,-27.3917,78.80,60.80,54.05,40.00,11.00,0.00,30.12,M,6.21,M,FEW,SCT,M,M,3500.00,25000.00,M,M,M,YBBN 290530Z 04011KT 9999 FEW035 SCT250 26/16 Q1020
YBBN,2015-03-29 06:00,153.1292,-27.3917,78.80,60.80,54.05,40.00,11.00,0.00,30.15,M,6.21,M,FEW,SCT,M,M,3500.00,25000.00,M,M,M,YBBN 290600Z 04011KT 9999 FEW035 SCT250 26/16 Q1021
YBBN,2015-03-29 06:30,153.1292,-27.3917,78.80,60.80,54.05,50.00,8.00,0.00,30.15,M,6.21,M,FEW,M,M,M,3200.00,M,M,M,M,YBBN 290630Z 05008KT 9999 FEW032 26/16 Q1021
YBBN,2015-03-29 07:00,153.1292,-27.3917,77.00,60.80,57.36,50.00,9.00,0.00,30.15,M,6.21,M,FEW,M,M,M,3200.00,M,M,M,M,YBBN 290700Z 05009KT 9999 FEW032 25/16 Q1021 NOSIG
YBBN,2015-03-29 07:30,153.1292,-27.3917,77.00,60.80,57.36,40.00,9.00,0.00,30.15,M,6.21,M,FEW,M,M,M,3000.00,M,M,M,M,YBBN 290730Z 04009KT 9999 FEW030 25/16 Q1021
YBBN,2015-03-29 08:00,153.1292,-27.3917,75.20,60.80,60.90,60.00,7.00,0.00,30.15,M,6.21,M,FEW,M,M,M,2800.00,M,M,M,M,YBBN 290800Z 06007KT 9999 FEW028 24/16 Q1021 NOSIG
YBBN,2015-03-29 08:30,153.1292,-27.3917,75.20,60.80,60.90,60.00,7.00,0.00,30.15,M,6.21,M,M,M,M,M,M,M,M,M,M,YBBN 290830Z 06007KT CAVOK 24/16 Q1021
YBBN,2015-03-29 09:00,153.1292,-27.3917,75.20,62.60,64.91,60.00,6.00,0.00,30.15,M,6.21,M,M,M,M,M,M,M,M,M,M,YBBN 290900Z 06006KT CAVOK 24/17 Q1021
YBBN,2015-03-29 09:30,153.1292,-27.3917,75.20,62.60,64.91,60.00,6.00,0.00,30.18,M,6.21,M,M,M,M,M,M,M,M,M,M,YBBN 290930Z 06006KT CAVOK 24/17 Q1022
YBBN,2015-03-29 10:00,153.1292,-27.3917,75.20,62.60,64.91,60.00,5.00,0.00,30.18,M,6.21,M,M,M,M,M,M,M,M,M,M,YBBN 291000Z 06005KT CAVOK 24/17 Q1022
YBBN,2015-03-29 10:30,153.1292,-27.3917,75.20,62.60,64.91,70.00,5.00,0.00,30.21,M,6.21,M,M,M,M,M,M,M,M,M,M,YBBN 291030Z 07005KT CAVOK 24/17 Q1023
YBBN,2015-03-29 11:00,153.1292,-27.3917,75.20,62.60,64.91,60.00,6.00,0.00,30.21,M,6.21,M,FEW,M,M,M,3000.00,M,M,M,M,YBBN 291100Z 06006KT 9999 FEW030 24/17 Q1023
YBBN,2015-03-29 11:30,153.1292,-27.3917,75.20,62.60,64.91,60.00,7.00,0.00,30.21,M,6.21,M,FEW,M,M,M,3000.00,M,M,M,M,YBBN 291130Z 06007KT 9999 FEW030 24/17 Q1023
YBBN,2015-03-29 12:00,153.1292,-27.3917,75.20,62.60,64.91,60.00,7.00,0.00,30.18,M,6.21,M,FEW,SCT,M,M,3000.00,25000.00,M,M,M,YBBN 291200Z 06007KT 9999 FEW030 SCT250 24/17 Q1022
YBBN,2015-03-29 12:30,153.1292,-27.3917,75.20,62.60,64.91,60.00,6.00,0.00,30.18,M,6.21,M,FEW,BKN,M,M,3000.00,25000.00,M,M,M,YBBN 291230Z 06006KT 9999 FEW030 BKN250 24/17 Q1022
YBBN,2015-03-29 13:00,153.1292,-27.3917,75.20,62.60,64.91,60.00,5.00,0.00,30.18,M,6.21,M,SCT,BKN,M,M,3200.00,25000.00,M,M,M,YBBN 291300Z 06005KT 9999 SCT032 BKN250 24/17 Q1022
YBBN,2015-03-29 13:30,153.1292,-27.3917,73.40,62.60,68.94,60.00,5.00,0.00,30.18,M,6.21,M,BKN,SCT,M,M,3400.00,25000.00,M,M,M,YBBN 291330Z 06005KT 9999 BKN034 SCT250 23/17 Q1022
YBBN,2015-03-29 14:00,153.1292,-27.3917,75.20,62.60,64.91,60.00,6.00,0.00,30.18,M,6.21,M,BKN,SCT,M,M,3700.00,25000.00,M,M,M,YBBN 291400Z 06006KT 9999 BKN037 SCT250 24/17 Q1022
YBBN,2015-03-29 14:30,153.1292,-27.3917,75.20,62.60,64.91,60.00,6.00,0.00,30.18,M,6.21,M,FEW,BKN,M,M,3000.00,4300.00,M,M,M,YBBN 291430Z 06006KT 9999 FEW030 BKN043 24/17 Q1022
YBBN,2015-03-29 15:00,153.1292,-27.3917,75.20,62.60,64.91,60.00,6.00,0.00,30.18,M,6.21,M,SCT,M,M,M,4000.00,M,M,M,M,YBBN 291500Z 06006KT 9999 SCT040 24/17 Q1022
YBBN,2015-03-29 15:30,153.1292,-27.3917,73.40,62.60,68.94,60.00,5.00,0.00,30.15,M,6.21,M,SCT,M,M,M,4300.00,M,M,M,M,YBBN 291530Z 06005KT 9999 SCT043 23/17 Q1021
YBBN,2015-03-29 16:00,153.1292,-27.3917,73.40,62.60,68.94,50.00,6.00,0.00,30.15,M,6.21,M,SCT,SCT,M,M,3500.00,4500.00,M,M,M,YBBN 291600Z 05006KT 9999 SCT035 SCT045 23/17 Q1021
YBBN,2015-03-29 16:30,153.1292,-27.3917,75.20,62.60,64.91,50.00,6.00,0.00,30.15,M,6.21,M,FEW,SCT,BKN,M,3500.00,5500.00,25000.00,M,M,YBBN 291630Z 05006KT 9999 FEW035 SCT055 BKN250 24/17 Q1021
YBBN,2015-03-29 17:00,153.1292,-27.3917,75.20,62.60,64.91,60.00,7.00,0.00,30.15,M,6.21,M,SCT,SCT,M,M,3400.00,5000.00,M,M,M,YBBN 291700Z 06007KT 9999 SCT034 SCT050 24/17 Q1021
YBBN,2015-03-29 17:30,153.1292,-27.3917,75.20,62.60,64.91,50.00,7.00,0.00,30.15,M,6.21,M,FEW,SCT,BKN,M,3500.00,4500.00,25000.00,M,M,YBBN 291730Z 05007KT 9999 FEW035 SCT045 BKN250 24/17 Q1021
YBBN,2015-03-29 18:00,153.1292,-27.3917,73.40,62.60,68.94,50.00,7.00,0.00,30.15,M,6.21,M,FEW,SCT,BKN,M,3500.00,4500.00,25000.00,M,M,YBBN 291800Z 05007KT 9999 FEW035 SCT045 BKN250 23/17 Q1021 NOSIG
YBBN,2015-03-29 18:30,153.1292,-27.3917,75.20,62.60,64.91,60.00,6.00,0.00,30.15,M,6.21,M,FEW,SCT,BKN,M,3300.00,5000.00,25000.00,M,M,YBBN 291830Z 06006KT 9999 FEW033 SCT050 BKN250 24/17 Q1021
YBBN,2015-03-29 19:00,153.1292,-27.3917,75.20,64.40,69.14,50.00,5.00,0.00,30.15,M,6.21,M,SCT,BKN,M,M,3500.00,4500.00,M,M,M,YBBN 291900Z 05005KT 9999 SCT035 BKN045 24/18 Q1021
YBBN,2015-03-29 19:30,153.1292,-27.3917,75.20,62.60,64.91,50.00,6.00,0.00,30.15,M,6.21,M,SCT,SCT,BKN,M,3000.00,5500.00,25000.00,M,M,YBBN 291930Z 05006KT 9999 SCT030 SCT055 BKN250 24/17 Q1021
YBBN,2015-03-29 20:00,153.1292,-27.3917,71.60,66.20,83.09,50.00,6.00,0.00,30.18,M,6.21,M,SCT,SCT,BKN,M,3300.00,6000.00,25000.00,M,M,YBBN 292000Z 05006KT 9999 SCT033 SCT060 BKN250 22/19 Q1022
YBBN,2015-03-29 20:30,153.1292,-27.3917,69.80,64.40,82.98,70.00,1.00,0.00,30.18,M,6.21,M,SCT,SCT,BKN,M,3000.00,6000.00,30000.00,M,M,YBBN 292030Z 07001KT 9999 SCT030 SCT060 BKN300 21/18 Q1022
YBBN,2015-03-29 21:00,153.1292,-27.3917,71.60,66.20,83.09,80.00,2.00,0.00,30.18,M,6.21,M,SCT,SCT,BKN,M,3200.00,6000.00,30000.00,M,M,YBBN 292100Z 08002KT 9999 SCT032 SCT060 BKN300 22/19 Q1022
YBBN,2015-03-29 21:30,153.1292,-27.3917,73.40,66.20,78.19,160.00,4.00,0.00,30.21,M,6.21,M,SCT,BKN,BKN,M,3200.00,6000.00,30000.00,M,M,YBBN 292130Z 16004KT 9999 SCT032 BKN060 BKN300 23/19 Q1023
YBBN,2015-03-29 22:00,153.1292,-27.3917,77.00,64.40,65.12,50.00,8.00,0.00,30.21,M,6.21,M,FEW,SCT,BKN,M,3200.00,6000.00,30000.00,M,M,YBBN 292200Z 05008KT 9999 FEW032 SCT060 BKN300 25/18 Q1023
YBBN,2015-03-29 22:30,153.1292,-27.3917,77.00,62.60,61.13,50.00,9.00,0.00,30.21,M,6.21,M,FEW,SCT,BKN,M,3200.00,6000.00,30000.00,M,M,YBBN 292230Z 05009KT 9999 FEW032 SCT060 BKN300 25/17 Q1023
YBBN,2015-03-29 23:00,153.1292,-27.3917,77.00,62.60,61.13,70.00,7.00,0.00,30.24,M,6.21,M,FEW,SCT,BKN,M,3200.00,6000.00,30000.00,M,M,YBBN 292300Z 07007KT 9999 FEW032 SCT060 BKN300 25/17 Q1024 NOSIG
YBBN,2015-03-29 23:30,153.1292,-27.3917,77.00,62.60,61.13,60.00,8.00,0.00,30.21,M,6.21,M,FEW,SCT,BKN,M,3300.00,6000.00,30000.00,M,M,YBBN 292330Z 06008KT 9999 FEW033 SCT060 BKN300 25/17 Q1023
