#DEBUG: Format Typ    -> comma
#DEBUG: Time Period   -> 2011-12-24 00:00:00+00:00 2011-12-25 00:00:00+00:00
#DEBUG: Time Zone     -> Etc/UTC
#DEBUG: Data Contact   -> daryl herzmann akrherz@iastate.edu 515-294-5978
#DEBUG: Entries Found -> -1
station,valid,lon,lat,tmpf, dwpf, relh, drct, sknt, p01i, alti, mslp, vsby, gust, skyc1, skyc2, skyc3, skyc4, skyl1, skyl2, skyl3, skyl4, presentwx, metar
YBBN,2011-12-24 01:30,153.1292,-27.3917,73.40,68.00,83.21,110.00,10.00,M,29.80,M,4.97,M,FEW,SCT,BKN,M,1500.00,1900.00,8000.00,M,-SHRA,YBBN 240130Z 11010KT 8000 -SHRA FEW015 SCT019 BKN080 23/20 Q1009
YBBN,2011-12-24 02:30,153.1292,-27.3917,75.20,69.80,83.32,140.00,9.00,M,29.77,M,6.21,M,FEW,BKN,BKN,M,1500.00,6000.00,8000.00,M,M,YBBN 240230Z 14009KT 9999 FEW015 BKN060 BKN080 24/21 Q1008
YBBN,2011-12-24 03:30,153.1292,-27.3917,77.00,66.20,69.33,130.00,10.00,M,29.77,M,6.21,M,FEW,BKN,M,M,1800.00,8500.00,M,M,M,YBBN 240330Z 13010KT 9999 FEW018 BKN085 25/19 Q1008
YBBN,2011-12-24 04:30,153.1292,-27.3917,78.80,66.20,65.33,130.00,13.00,M,29.74,M,6.21,M,SCT,BKN,M,M,2500.00,9000.00,M,M,M,YBBN 240430Z 13013KT 9999 SCT025 BKN090 26/19 Q1007
YBBN,2011-12-24 05:30,153.1292,-27.3917,77.00,66.20,69.33,120.00,13.00,M,29.74,M,6.21,M,FEW,BKN,M,M,3000.00,20000.00,M,M,M,YBBN 240530Z 12013KT 9999 FEW030 BKN200 25/19 Q1007
YBBN,2011-12-24 06:30,153.1292,-27.3917,77.00,66.20,69.33,120.00,12.00,M,29.74,M,6.21,M,FEW,SCT,M,M,2500.00,20000.00,M,M,M,YBBN 240630Z 12012KT 9999 FEW025 SCT200 25/19 Q1007
YBBN,2011-12-24 07:30,153.1292,-27.3917,77.00,66.20,69.33,120.00,11.00,M,29.74,M,6.21,M,FEW,FEW,M,M,1600.00,2200.00,M,M,VCSH,YBBN 240730Z 12011KT 9999 VCSH FEW016 FEW022TCU 25/19 Q1007
YBBN,2011-12-24 11:30,153.1292,-27.3917,69.80,68.00,94.01,200.00,6.00,M,29.80,M,3.73,M,FEW,BKN,FEW,M,1300.00,1900.00,2000.00,M,-SHRA VCSH,YBBN 241130Z 20006KT 6000 -SHRA VCSH FEW013 BKN019 FEW020TCU 21/20 Q1009 RMK SH NE FM1130 14013KT 9999 -SHRA FEW015 SCT025 INTER 1130/1430 3000 SHRA BKN015
YBBN,2011-12-24 12:10,153.1292,-27.3917,69.80,66.20,88.34,150.00,9.00,M,29.80,M,3.11,20.00,FEW,SCT,FEW,M,1400.00,1900.00,2000.00,M,SHRA,YBBN 241210Z 15009G20KT 5000 SHRA FEW014 SCT019 FEW020TCU 21/19 Q1009 RESHRA RMK +SHRA NW FM1210 14013KT 9999 -SHRA FEW015 SCT025 INTER 1210/1510 3000 SHRA BKN015
YBBN,2011-12-24 13:30,153.1292,-27.3917,71.60,68.00,88.43,130.00,8.00,M,29.77,M,5.59,M,FEW,SCT,M,M,1500.00,1900.00,M,M,-SHRA VCSH,YBBN 241330Z 13008KT 9000 -SHRA VCSH FEW015 SCT019 22/20 Q1008
YBBN,2011-12-24 14:30,153.1292,-27.3917,69.80,68.00,94.01,180.00,7.00,M,29.74,M,6.21,M,FEW,SCT,M,M,1700.00,2000.00,M,M,-SHRA VCSH,YBBN 241430Z 18007KT 9999 -SHRA VCSH FEW017 SCT020 21/20 Q1007
YBBN,2011-12-24 15:30,153.1292,-27.3917,69.80,66.20,88.34,190.00,7.00,M,29.74,M,3.73,M,FEW,SCT,M,M,1500.00,2000.00,M,M,SHRA VCSH,YBBN 241530Z 19007KT 6000 SHRA VCSH FEW015 SCT020 21/19 Q1007 RMK SH E/NE FM1530 20007KT 9999 -SHRA SCT012 BKN020 INTER 1530/1830 3000 SHRA BKN015
YBBN,2011-12-24 15:50,153.1292,-27.3917,69.80,66.20,88.34,190.00,7.00,M,29.74,M,6.21,M,FEW,M,M,M,1700.00,M,M,M,VCSH,YBBN 241550Z 19007KT 9999 VCSH FEW017 21/19 Q1007 RMK SH NW INTER 1550/1850 3000 SHRA BKN015
YBBN,2011-12-24 16:30,153.1292,-27.3917,68.00,64.40,88.26,210.00,7.00,M,29.71,M,6.21,M,FEW,M,M,M,1700.00,M,M,M,M,YBBN 241630Z 21007KT 9999 FEW017 20/18 Q1006
YBBN,2011-12-24 17:30,153.1292,-27.3917,68.00,64.40,88.26,200.00,7.00,M,29.71,M,6.21,M,FEW,SCT,M,M,1600.00,2100.00,M,M,-SHRA VCSH,YBBN 241730Z 20007KT 9999 -SHRA VCSH FEW016 SCT021 20/18 Q1006
YBBN,2011-12-24 18:30,153.1292,-27.3917,68.00,64.40,88.26,200.00,7.00,M,29.74,M,6.21,M,FEW,M,M,M,1500.00,M,M,M,VCSH,YBBN 241830Z 20007KT 9999 VCSH FEW015 20/18 Q1007
YBBN,2011-12-24 19:30,153.1292,-27.3917,66.20,64.40,93.92,220.00,7.00,M,29.74,M,6.21,M,FEW,M,M,M,1500.00,M,M,M,VCSH,YBBN 241930Z 22007KT 9999 VCSH FEW015 19/18 Q1007
YBBN,2011-12-24 20:30,153.1292,-27.3917,71.60,64.40,78.04,200.00,7.00,M,29.74,M,6.21,M,FEW,M,M,M,2200.00,M,M,M,M,YBBN 242030Z 20007KT 9999 FEW022 22/18 Q1007
YBBN,2011-12-24 21:00,153.1292,-27.3917,73.40,64.40,73.44,180.00,9.00,M,29.77,M,6.21,M,SCT,M,M,M,2800.00,M,M,M,M,YBBN 242100Z 18009KT 9999 SCT028 23/18 Q1008 NOSIG
YBBN,2011-12-24 21:30,153.1292,-27.3917,73.40,64.40,73.44,180.00,9.00,M,29.77,M,6.21,M,FEW,M,M,M,2800.00,M,M,M,M,YBBN 242130Z 18009KT 9999 FEW028 23/18 Q1008
YBBN,2011-12-24 22:00,153.1292,-27.3917,75.20,64.40,69.14,140.00,12.00,M,29.77,M,6.21,M,FEW,M,M,M,2800.00,M,M,M,M,YBBN 242200Z 14012KT 9999 FEW028 24/18 Q1008 NOSIG
YBBN,2011-12-24 22:30,153.1292,-27.3917,75.20,59.00,57.12,140.00,11.00,M,29.77,M,6.21,M,SCT,M,M,M,3000.00,M,M,M,M,YBBN 242230Z 14011KT 9999 SCT030 24/15 Q1008
YBBN,2011-12-24 23:00,153.1292,-27.3917,77.00,60.80,57.36,140.00,12.00,M,29.77,M,6.21,M,SCT,M,M,M,3000.00,M,M,M,M,YBBN 242300Z 14012KT 9999 SCT030 25/16 Q1008 NOSIG
YBBN,2011-12-24 23:30,153.1292,-27.3917,78.80,60.80,54.05,140.00,13.00,M,29.77,M,6.21,M,SCT,M,M,M,3200.00,M,M,M,M,YBBN 242330Z 14013KT 9999 SCT032 26/16 Q1008
