#DEBUG: Format Typ    -> comma
#DEBUG: Time Period   -> 2012-12-23 00:00:00+00:00 2012-12-24 00:00:00+00:00
#DEBUG: Time Zone     -> Etc/UTC
#DEBUG: Data Contact   -> daryl herzmann akrherz@iastate.edu 515-294-5978
#DEBUG: Entries Found -> -1
station,valid,lon,lat,tmpf, dwpf, relh, drct, sknt, p01i, alti, mslp, vsby, gust, skyc1, skyc2, skyc3, skyc4, skyl1, skyl2, skyl3, skyl4, presentwx, metar
YBBN,2012-12-23 00:00,153.1292,-27.3917,82.40,66.20,58.08,80.00,9.00,0.00,30.03,M,6.21,M,FEW,M,M,M,2500.00,M,M,M,M,YBBN 230000Z 08009KT 9999 FEW025 28/19 Q1017 NOSIG
YBBN,2012-12-23 00:30,153.1292,-27.3917,82.40,66.20,58.08,60.00,10.00,0.00,30.00,M,6.21,M,FEW,M,M,M,3000.00,M,M,M,M,YBBN 230030Z 06010KT 9999 FEW030 28/19 Q1016
YBBN,2012-12-23 01:00,153.1292,-27.3917,82.40,64.40,54.55,40.00,9.00,0.00,30.00,M,6.21,M,FEW,M,M,M,3500.00,M,M,M,M,YBBN 230100Z 04009KT 9999 FEW035 28/18 Q1016
YBBN,2012-12-23 01:30,153.1292,-27.3917,82.40,66.20,58.08,60.00,10.00,0.00,30.00,M,6.21,M,FEW,M,M,M,4000.00,M,M,M,M,YBBN 230130Z 06010KT 9999 FEW040 28/19 Q1016
YBBN,2012-12-23 02:00,153.1292,-27.3917,84.20,64.40,51.47,70.00,9.00,0.00,30.00,M,6.21,M,FEW,M,M,M,4000.00,M,M,M,M,YBBN 230200Z 07009KT 9999 FEW040 29/18 Q1016 NOSIG
YBBN,2012-12-23 02:30,153.1292,-27.3917,84.20,62.60,48.32,60.00,10.00,0.00,29.97,M,6.21,M,FEW,M,M,M,4500.00,M,M,M,M,YBBN 230230Z 06010KT 9999 FEW045 29/17 Q1015
YBBN,2012-12-23 03:00,153.1292,-27.3917,84.20,66.20,54.80,50.00,12.00,0.00,29.97,M,6.21,M,FEW,M,M,M,4000.00,M,M,M,M,YBBN 230300Z 05012KT 9999 FEW040 29/19 Q1015 NOSIG
YBBN,2012-12-23 03:30,153.1292,-27.3917,84.20,66.20,54.80,70.00,12.00,0.00,29.97,M,6.21,M,FEW,M,M,M,4000.00,M,M,M,M,YBBN 230330Z 07012KT 9999 FEW040 29/19 Q1015
YBBN,2012-12-23 04:00,153.1292,-27.3917,82.40,66.20,58.08,50.00,14.00,0.00,29.97,M,6.21,M,FEW,M,M,M,3500.00,M,M,M,M,YBBN 230400Z 05014KT 9999 FEW035 28/19 Q1015
YBBN,2012-12-23 04:30,153.1292,-27.3917,82.40,66.20,58.08,60.00,13.00,0.00,29.97,M,6.21,M,FEW,M,M,M,3500.00,M,M,M,M,YBBN 230430Z 06013KT 9999 FEW035 28/19 Q1015 RMK DISTANT CB TOPS TO SE
YBBN,2012-12-23 05:00,153.1292,-27.3917,82.40,68.00,61.81,60.00,13.00,0.00,29.94,M,6.21,M,FEW,M,M,M,3000.00,M,M,M,M,YBBN 230500Z 06013KT 9999 FEW030 28/20 Q1014 NOSIG
YBBN,2012-12-23 05:30,153.1292,-27.3917,82.40,68.00,61.81,70.00,13.00,0.00,29.94,M,6.21,M,FEW,M,M,M,3000.00,M,M,M,M,YBBN 230530Z 07013KT 9999 FEW030 28/20 Q1014 RMK DISTANT CB TOPS TO SE
YBBN,2012-12-23 06:00,153.1292,-27.3917,80.60,64.40,57.84,70.00,11.00,0.00,29.94,M,6.21,M,FEW,M,M,M,3500.00,M,M,M,M,YBBN 230600Z 07011KT 9999 FEW035 27/18 Q1014 NOSIG
YBBN,2012-12-23 06:30,153.1292,-27.3917,80.60,66.20,61.58,70.00,11.00,0.00,29.94,M,6.21,M,FEW,M,M,M,3000.00,M,M,M,M,YBBN 230630Z 07011KT 9999 FEW030 27/19 Q1014 RMK DISTANT CB TOPS SW THROUGH SE
YBBN,2012-12-23 07:00,153.1292,-27.3917,80.60,66.20,61.58,70.00,11.00,0.00,29.94,M,6.21,M,FEW,M,M,M,3000.00,M,M,M,M,YBBN 230700Z 07011KT 9999 FEW030 27/19 Q1014 NOSIG
YBBN,2012-12-23 07:30,153.1292,-27.3917,80.60,68.00,65.54,60.00,11.00,0.00,29.97,M,6.21,M,FEW,M,M,M,2500.00,M,M,M,M,YBBN 230730Z 06011KT 9999 FEW025 27/20 Q1015 RMK DISTANT CB TOPS TO S
YBBN,2012-12-23 08:00,153.1292,-27.3917,78.80,68.00,69.52,70.00,10.00,0.00,29.97,M,6.21,M,SCT,M,M,M,2000.00,M,M,M,M,YBBN 230800Z 07010KT 9999 SCT020 26/20 Q1015
YBBN,2012-12-23 08:30,153.1292,-27.3917,78.80,68.00,69.52,70.00,9.00,0.00,30.00,M,6.21,M,FEW,SCT,M,M,1800.00,2000.00,M,M,VCSH,YBBN 230830Z 07009KT 9999 VCSH FEW018 SCT020 26/20 Q1016
YBBN,2012-12-23 09:00,153.1292,-27.3917,77.00,68.00,73.78,70.00,9.00,0.00,30.00,M,6.21,M,FEW,BKN,M,M,1800.00,2000.00,M,M,VCSH,YBBN 230900Z 07009KT 9999 VCSH FEW018 BKN020 25/20 Q1016
YBBN,2012-12-23 09:30,153.1292,-27.3917,77.00,68.00,73.78,70.00,9.00,0.00,30.00,M,5.59,M,FEW,BKN,M,M,1700.00,2000.00,M,M,-SHRA VCSH,YBBN 230930Z 07009KT 9000 -SHRA VCSH FEW017 BKN020 25/20 Q1016 RMK SH W/SW
YBBN,2012-12-23 10:00,153.1292,-27.3917,77.00,68.00,73.78,70.00,9.00,0.00,30.00,M,6.21,M,FEW,SCT,M,M,1700.00,2000.00,M,M,VCSH,YBBN 231000Z 07009KT 9999 VCSH FEW017 SCT020 25/20 Q1016 NOSIG
YBBN,2012-12-23 10:30,153.1292,-27.3917,77.00,69.80,78.48,70.00,8.00,0.00,30.00,M,6.21,M,FEW,BKN,M,M,1700.00,1900.00,M,M,VCSH,YBBN 231030Z 07008KT 9999 VCSH FEW017 BKN019 25/21 Q1016
YBBN,2012-12-23 11:00,153.1292,-27.3917,77.00,69.80,78.48,50.00,9.00,0.00,30.00,M,4.97,M,FEW,BKN,M,M,1300.00,1900.00,M,M,-SHRA VCSH,YBBN 231100Z 05009KT 8000 -SHRA VCSH FEW013 BKN019 25/21 Q1016 INTER 1130/1230 5000 SHRA SCT013 BKN018
YBBN,2012-12-23 11:30,153.1292,-27.3917,77.00,69.80,78.48,70.00,9.00,0.00,30.00,M,5.59,M,FEW,SCT,BKN,M,1300.00,1900.00,3900.00,M,-SHRA VCSH,YBBN 231130Z 07009KT 9000 -SHRA VCSH FEW013 SCT019 BKN039 25/21 Q1016
YBBN,2012-12-23 12:00,153.1292,-27.3917,77.00,69.80,78.48,60.00,9.00,0.00,30.03,M,4.97,M,FEW,SCT,BKN,FEW,1300.00,1900.00,4400.00,2200.00,-SHRA VCSH,YBBN 231200Z 06009KT 8000 -SHRA VCSH FEW013 SCT019 BKN044 FEW022TCU 25/21 Q1017 NOSIG
YBBN,2012-12-23 12:30,153.1292,-27.3917,77.00,68.00,73.78,60.00,9.00,0.00,30.03,M,5.59,M,FEW,SCT,BKN,M,1400.00,1900.00,4000.00,M,-SHRA VCSH,YBBN 231230Z 06009KT 9000 -SHRA VCSH FEW014 SCT019 BKN040 25/20 Q1017 RMK SHRA SW
YBBN,2012-12-23 13:00,153.1292,-27.3917,77.00,68.00,73.78,70.00,8.00,0.00,30.00,M,6.21,M,FEW,SCT,BKN,M,1500.00,1900.00,4600.00,M,VCSH,YBBN 231300Z 07008KT 9999 VCSH FEW015 SCT019 BKN046 25/20 Q1016 NOSIG
YBBN,2012-12-23 13:30,153.1292,-27.3917,77.00,68.00,73.78,70.00,8.00,0.00,30.00,M,6.21,M,FEW,SCT,BKN,M,1800.00,2000.00,4400.00,M,VCSH,YBBN 231330Z 07008KT 9999 VCSH FEW018 SCT020 BKN044 25/20 Q1016
YBBN,2012-12-23 14:00,153.1292,-27.3917,77.00,66.20,69.33,60.00,8.00,0.00,30.00,M,6.21,M,FEW,SCT,BKN,M,1800.00,2000.00,4500.00,M,M,YBBN 231400Z 06008KT 9999 FEW018 SCT020 BKN045 25/19 Q1016 NOSIG
YBBN,2012-12-23 14:30,153.1292,-27.3917,75.20,66.20,73.61,60.00,8.00,0.00,30.00,M,6.21,M,FEW,BKN,M,M,1900.00,2200.00,M,M,M,YBBN 231430Z 06008KT 9999 FEW019 BKN022 24/19 Q1016 RMK DIST SH W/SW
YBBN,2012-12-23 15:00,153.1292,-27.3917,75.20,66.20,73.61,70.00,7.00,0.00,29.97,M,6.21,M,FEW,SCT,M,M,1900.00,2200.00,M,M,M,YBBN 231500Z 07007KT 9999 FEW019 SCT022 24/19 Q1015 RMK DIST SH WEST
YBBN,2012-12-23 15:30,153.1292,-27.3917,75.20,66.20,73.61,80.00,5.00,0.00,29.97,M,6.21,M,FEW,SCT,M,M,1800.00,2200.00,M,M,M,YBBN 231530Z 08005KT 9999 FEW018 SCT022 24/19 Q1015
YBBN,2012-12-23 16:00,153.1292,-27.3917,75.20,66.20,73.61,80.00,6.00,0.00,29.97,M,6.21,M,FEW,M,M,M,2000.00,M,M,M,M,YBBN 231600Z 08006KT 9999 FEW020 24/19 Q1015 NOSIG
YBBN,2012-12-23 16:30,153.1292,-27.3917,75.20,66.20,73.61,90.00,5.00,0.00,29.97,M,6.21,M,FEW,M,M,M,2200.00,M,M,M,M,YBBN 231630Z 09005KT 9999 FEW022 24/19 Q1015
YBBN,2012-12-23 17:00,153.1292,-27.3917,75.20,66.20,73.61,90.00,6.00,0.00,29.97,M,6.21,M,FEW,SCT,M,M,1700.00,2200.00,M,M,M,YBBN 231700Z 09006KT 9999 FEW017 SCT022 24/19 Q1015
YBBN,2012-12-23 17:30,153.1292,-27.3917,75.20,66.20,73.61,90.00,6.00,0.00,29.97,M,6.21,M,FEW,BKN,M,M,1800.00,2200.00,M,M,M,YBBN 231730Z 09006KT 9999 FEW018 BKN022 24/19 Q1015
YBBN,2012-12-23 18:00,153.1292,-27.3917,75.20,66.20,73.61,90.00,7.00,0.00,29.97,M,6.21,M,FEW,SCT,M,M,1900.00,2200.00,M,M,M,YBBN 231800Z 09007KT 9999 FEW019 SCT022 24/19 Q1015
YBBN,2012-12-23 18:30,153.1292,-27.3917,75.20,66.20,73.61,80.00,6.00,0.00,29.97,M,6.21,M,FEW,SCT,M,M,1900.00,2200.00,M,M,VCSH,YBBN 231830Z 08006KT 9999 VCSH FEW019 SCT022 24/19 Q1015 RMK SHRA NW
YBBN,2012-12-23 19:00,153.1292,-27.3917,75.20,64.40,69.14,90.00,6.00,0.00,29.97,M,6.21,M,FEW,SCT,BKN,M,1900.00,2300.00,26000.00,M,M,YBBN 231900Z 09006KT 9999 FEW019 SCT023 BKN260 24/18 Q1015 RMK DIST SH W/NW
YBBN,2012-12-23 19:30,153.1292,-27.3917,75.20,62.60,64.91,100.00,7.00,0.00,30.00,M,6.21,M,FEW,BKN,M,M,2300.00,26000.00,M,M,M,YBBN 231930Z 10007KT 9999 FEW023 BKN260 24/17 Q1016 RMK DIST SH W/NW
YBBN,2012-12-23 20:00,153.1292,-27.3917,75.20,62.60,64.91,100.00,6.00,0.00,30.00,M,6.21,M,FEW,BKN,M,M,2300.00,26000.00,M,M,M,YBBN 232000Z 10006KT 9999 FEW023 BKN260 24/17 Q1016 RMK DIST SH NW
YBBN,2012-12-23 20:30,153.1292,-27.3917,77.00,62.60,61.13,90.00,6.00,0.00,30.00,M,6.21,M,FEW,BKN,M,M,2300.00,26000.00,M,M,M,YBBN 232030Z 09006KT 9999 FEW023 BKN260 25/17 Q1016
YBBN,2012-12-23 21:00,153.1292,-27.3917,77.00,62.60,61.13,110.00,7.00,0.00,30.00,M,6.21,M,FEW,BKN,M,M,2300.00,26000.00,M,M,M,YBBN 232100Z 11007KT 9999 FEW023 BKN260 25/17 Q1016
YBBN,2012-12-23 21:30,153.1292,-27.3917,78.80,64.40,61.36,110.00,8.00,0.00,30.03,M,6.21,M,SCT,BKN,M,M,2400.00,26000.00,M,M,M,YBBN 232130Z 11008KT 9999 SCT024 BKN260 26/18 Q1017
YBBN,2012-12-23 22:00,153.1292,-27.3917,78.80,62.60,57.60,100.00,8.00,0.00,30.03,M,6.21,M,SCT,BKN,M,M,2800.00,26000.00,M,M,M,YBBN 232200Z 10008KT 9999 SCT028 BKN260 26/17 Q1017 NOSIG
YBBN,2012-12-23 22:30,153.1292,-27.3917,78.80,62.60,57.60,100.00,7.00,0.00,30.03,M,6.21,M,SCT,BKN,M,M,2800.00,26000.00,M,M,M,YBBN 232230Z 10007KT 9999 SCT028 BKN260 26/17 Q1017
YBBN,2012-12-23 23:00,153.1292,-27.3917,78.80,62.60,57.60,90.00,8.00,0.00,30.03,M,6.21,M,BKN,BKN,M,M,3000.00,26000.00,M,M,M,YBBN 232300Z 09008KT 9999 BKN030 BKN260 26/17 Q1017 NOSIG
YBBN,2012-12-23 23:30,153.1292,-27.3917,78.80,62.60,57.60,80.00,8.00,0.00,30.03,M,6.21,M,SCT,SCT,BKN,M,3200.00,4200.00,26000.00,M,M,YBBN 232330Z 08008KT 9999 SCT032 SCT042 BKN260 26/17 Q1017
