#DEBUG: Format Typ    -> comma
#DEBUG: Time Period   -> 2010-12-22 00:00:00+00:00 2010-12-23 00:00:00+00:00
#DEBUG: Time Zone     -> Etc/UTC
#DEBUG: Data Contact   -> daryl herzmann akrherz@iastate.edu 515-294-5978
#DEBUG: Entries Found -> -1
station,valid,lon,lat,tmpf, dwpf, relh, drct, sknt, p01i, alti, mslp, vsby, gust, skyc1, skyc2, skyc3, skyc4, skyl1, skyl2, skyl3, skyl4, presentwx, metar
YBBN,2010-12-22 19:00,153.1292,-27.3917,68.00,68.00,100.00,210.00,5.00,M,29.94,M,4.97,M,FEW,BKN,M,M,400.00,800.00,M,M,M,YBBN 221900Z 21005KT 8000 FEW004 BKN008 20/20 Q1014 RMK HZ FM1900 19006KT 7000 -SHRA SCT005 BKN012 OVC030 TEMPO 1900/2200 4000 SHRA BKN005
YBBN,2010-12-22 19:30,153.1292,-27.3917,68.00,68.00,100.00,200.00,5.00,M,29.94,M,4.97,M,FEW,BKN,M,M,500.00,800.00,M,M,M,YBBN 221930Z 20005KT 8000 FEW005 BKN008 20/20 Q1014 RMK HZ FM1900 19006KT 7000 -SHRA SCT005 BKN012 OVC030 TEMPO 1900/2200 4000 SHRA BKN005 TEMPO 2200/2230 4000 SHRA BKN012
YBBN,2010-12-22 20:00,153.1292,-27.3917,68.00,68.00,100.00,220.00,7.00,M,29.97,M,4.97,M,FEW,BKN,M,M,500.00,800.00,M,M,VCSH,YBBN 222000Z 22007KT 8000 VCSH FEW005 BKN008 20/20 Q1015 RMK HZ FM2000 19006KT 7000 -SHRA SCT005 BKN012 OVC030 TEMPO 2000/2130 4000 SHRA BKN005 TEMPO 2130/2300 4000 SHRA BKN012
