#DEBUG: Format Typ    -> comma
#DEBUG: Time Period   -> 2012-04-07 00:00:00+00:00 2012-04-08 00:00:00+00:00
#DEBUG: Time Zone     -> Etc/UTC
#DEBUG: Data Contact   -> daryl herzmann akrherz@iastate.edu 515-294-5978
#DEBUG: Entries Found -> -1
station,valid,lon,lat,tmpf, dwpf, relh, drct, sknt, p01i, alti, mslp, vsby, gust, skyc1, skyc2, skyc3, skyc4, skyl1, skyl2, skyl3, skyl4, presentwx, metar
YBBN,2012-04-07 00:00,153.1292,-27.3917,77.00,59.00,53.80,220.00,7.00,0.00,30.06,M,6.21,M,FEW,M,M,M,3500.00,M,M,M,M,YBBN 070000Z 22007KT 9999 FEW035 25/15 Q1018 RMK FU NORTH
YBBN,2012-04-07 00:30,153.1292,-27.3917,77.00,57.20,50.43,180.00,5.00,0.00,30.03,M,6.21,M,FEW,M,M,M,3500.00,M,M,M,M,YBBN 070030Z 18005KT 9999 FEW035 25/14 Q1017
YBBN,2012-04-07 01:00,153.1292,-27.3917,77.00,57.20,50.43,260.00,5.00,0.00,30.03,M,6.21,M,FEW,M,M,M,3500.00,M,M,M,M,YBBN 070100Z 26005KT 9999 FEW035 25/14 Q1017 NOSIG
YBBN,2012-04-07 01:30,153.1292,-27.3917,78.80,57.20,47.52,270.00,6.00,0.00,30.03,M,6.21,M,FEW,M,M,M,3700.00,M,M,M,M,YBBN 070130Z 27006KT 9999 FEW037 26/14 Q1017
YBBN,2012-04-07 02:00,153.1292,-27.3917,78.80,57.20,47.52,20.00,10.00,0.00,30.00,M,6.21,M,FEW,M,M,M,3700.00,M,M,M,M,YBBN 070200Z 02010KT 9999 FEW037 26/14 Q1016
YBBN,2012-04-07 02:30,153.1292,-27.3917,78.80,57.20,47.52,50.00,9.00,0.00,30.00,M,6.21,M,FEW,M,M,M,3900.00,M,M,M,M,YBBN 070230Z 05009KT 9999 FEW039 26/14 Q1016
YBBN,2012-04-07 03:00,153.1292,-27.3917,78.80,55.40,44.52,30.00,9.00,0.00,29.97,M,6.21,M,FEW,M,M,M,4000.00,M,M,M,M,YBBN 070300Z 03009KT 9999 FEW040 26/13 Q1015
YBBN,2012-04-07 03:30,153.1292,-27.3917,80.60,59.00,47.79,30.00,8.00,0.00,29.97,M,6.21,M,FEW,M,M,M,4000.00,M,M,M,M,YBBN 070330Z 03008KT 9999 FEW040 27/15 Q1015
YBBN,2012-04-07 04:00,153.1292,-27.3917,80.60,59.00,47.79,40.00,9.00,0.00,29.94,M,6.21,M,FEW,M,M,M,4200.00,M,M,M,M,YBBN 070400Z 04009KT 9999 FEW042 27/15 Q1014 NOSIG
YBBN,2012-04-07 04:30,153.1292,-27.3917,78.80,59.00,50.69,40.00,9.00,0.00,29.94,M,6.21,M,FEW,M,M,M,4200.00,M,M,M,M,YBBN 070430Z 04009KT 9999 FEW042 26/15 Q1014
YBBN,2012-04-07 05:00,153.1292,-27.3917,78.80,59.00,50.69,50.00,9.00,0.00,29.94,M,6.21,M,FEW,M,M,M,4000.00,M,M,M,M,YBBN 070500Z 05009KT 9999 FEW040 26/15 Q1014 NOSIG
YBBN,2012-04-07 05:30,153.1292,-27.3917,78.80,59.00,50.69,40.00,8.00,0.00,29.94,M,6.21,M,FEW,M,M,M,3800.00,M,M,M,M,YBBN 070530Z 04008KT 9999 FEW038 26/15 Q1014
YBBN,2012-04-07 06:00,153.1292,-27.3917,77.00,59.00,53.80,40.00,8.00,0.00,29.94,M,6.21,M,FEW,M,M,M,3800.00,M,M,M,M,YBBN 070600Z 04008KT 9999 FEW038 25/15 Q1014 NOSIG
YBBN,2012-04-07 06:30,153.1292,-27.3917,77.00,59.00,53.80,50.00,8.00,0.00,29.97,M,6.21,M,M,M,M,M,M,M,M,M,M,YBBN 070630Z 05008KT CAVOK 25/15 Q1015
YBBN,2012-04-07 07:00,153.1292,-27.3917,75.20,59.00,57.12,60.00,7.00,0.00,29.97,M,6.21,M,M,M,M,M,M,M,M,M,M,YBBN 070700Z 06007KT CAVOK 24/15 Q1015 NOSIG
YBBN,2012-04-07 07:30,153.1292,-27.3917,75.20,60.80,60.90,70.00,6.00,0.00,29.97,M,6.21,M,M,M,M,M,M,M,M,M,M,YBBN 070730Z 07006KT CAVOK 24/16 Q1015
YBBN,2012-04-07 08:00,153.1292,-27.3917,73.40,62.60,68.94,70.00,6.00,0.00,30.00,M,6.21,M,M,M,M,M,M,M,M,M,M,YBBN 070800Z 07006KT CAVOK 23/17 Q1016
YBBN,2012-04-07 08:30,153.1292,-27.3917,73.40,62.60,68.94,60.00,5.00,0.00,30.00,M,6.21,M,M,M,M,M,M,M,M,M,M,YBBN 070830Z 06005KT CAVOK 23/17 Q1016
YBBN,2012-04-07 09:00,153.1292,-27.3917,73.40,62.60,68.94,70.00,5.00,0.00,30.00,M,6.21,M,M,M,M,M,M,M,M,M,M,YBBN 070900Z 07005KT CAVOK 23/17 Q1016
YBBN,2012-04-07 09:30,153.1292,-27.3917,73.40,62.60,68.94,40.00,5.00,0.00,30.03,M,6.21,M,M,M,M,M,M,M,M,M,M,YBBN 070930Z 04005KT CAVOK 23/17 Q1017
YBBN,2012-04-07 10:00,153.1292,-27.3917,71.60,62.60,73.27,60.00,5.00,0.00,30.03,M,6.21,M,M,M,M,M,M,M,M,M,M,YBBN 071000Z 06005KT CAVOK 22/17 Q1017
YBBN,2012-04-07 10:30,153.1292,-27.3917,71.60,64.40,78.04,50.00,4.00,0.00,30.03,M,6.21,M,M,M,M,M,M,M,M,M,M,YBBN 071030Z 05004KT CAVOK 22/18 Q1017
YBBN,2012-04-07 11:00,153.1292,-27.3917,71.60,64.40,78.04,80.00,4.00,0.00,30.03,M,6.21,M,M,M,M,M,M,M,M,M,M,YBBN 071100Z 08004KT CAVOK 22/18 Q1017 NOSIG
YBBN,2012-04-07 11:30,153.1292,-27.3917,71.60,64.40,78.04,70.00,5.00,0.00,30.03,M,6.21,M,M,M,M,M,M,M,M,M,M,YBBN 071130Z 07005KT CAVOK 22/18 Q1017
YBBN,2012-04-07 12:00,153.1292,-27.3917,69.80,62.60,77.90,70.00,4.00,0.00,30.03,M,6.21,M,FEW,M,M,M,4000.00,M,M,M,M,YBBN 071200Z 07004KT 9999 FEW040 21/17 Q1017
YBBN,2012-04-07 12:30,153.1292,-27.3917,68.00,62.60,82.86,60.00,4.00,0.00,30.03,M,6.21,M,FEW,SCT,M,M,4000.00,30000.00,M,M,M,YBBN 071230Z 06004KT 9999 FEW040 SCT300 20/17 Q1017
YBBN,2012-04-07 13:00,153.1292,-27.3917,68.00,62.60,82.86,70.00,3.00,0.00,30.03,M,6.21,M,FEW,SCT,M,M,4000.00,30000.00,M,M,M,YBBN 071300Z 07003KT 9999 FEW040 SCT300 20/17 Q1017
YBBN,2012-04-07 13:30,153.1292,-27.3917,68.00,62.60,82.86,70.00,3.00,0.00,30.03,M,6.21,M,FEW,SCT,M,M,4000.00,30000.00,M,M,M,YBBN 071330Z 07003KT 9999 FEW040 SCT300 20/17 Q1017
YBBN,2012-04-07 14:00,153.1292,-27.3917,68.00,62.60,82.86,80.00,3.00,0.00,30.03,M,6.21,M,FEW,SCT,M,M,3000.00,30000.00,M,M,M,YBBN 071400Z 08003KT 9999 FEW030 SCT300 20/17 Q1017 NOSIG
YBBN,2012-04-07 14:30,153.1292,-27.3917,66.20,62.60,88.18,230.00,5.00,0.00,30.03,M,6.21,M,FEW,SCT,M,M,3000.00,30000.00,M,M,M,YBBN 071430Z 23005KT 9999 FEW030 SCT300 19/17 Q1017
YBBN,2012-04-07 15:00,153.1292,-27.3917,66.20,62.60,88.18,220.00,5.00,0.00,30.03,M,6.21,M,FEW,SCT,M,M,3000.00,30000.00,M,M,M,YBBN 071500Z 22005KT 9999 FEW030 SCT300 19/17 Q1017 NOSIG
YBBN,2012-04-07 15:30,153.1292,-27.3917,64.40,62.60,93.88,220.00,4.00,0.00,30.03,M,6.21,M,FEW,BKN,M,M,3000.00,30000.00,M,M,M,YBBN 071530Z 22004KT 9999 FEW030 BKN300 18/17 Q1017
YBBN,2012-04-07 16:00,153.1292,-27.3917,64.40,62.60,93.88,260.00,5.00,0.00,30.03,M,6.21,M,M,M,M,M,M,M,M,M,M,YBBN 071600Z 26005KT CAVOK 18/17 Q1017 NOSIG
YBBN,2012-04-07 16:30,153.1292,-27.3917,64.40,62.60,93.88,330.00,5.00,0.00,30.03,M,6.21,M,FEW,SCT,M,M,3000.00,30000.00,M,M,M,YBBN 071630Z 33005KT 9999 FEW030 SCT300 18/17 Q1017
YBBN,2012-04-07 17:00,153.1292,-27.3917,64.40,62.60,93.88,10.00,5.00,0.00,30.03,M,6.21,M,FEW,SCT,M,M,3000.00,30000.00,M,M,M,YBBN 071700Z 01005KT 9999 FEW030 SCT300 18/17 Q1017 NOSIG
YBBN,2012-04-07 17:30,153.1292,-27.3917,62.60,60.80,93.83,270.00,6.00,0.00,30.03,M,6.21,M,FEW,M,M,M,3000.00,M,M,M,M,YBBN 071730Z 27006KT 9999 FEW030 17/16 Q1017
YBBN,2012-04-07 18:00,153.1292,-27.3917,62.60,60.80,93.83,240.00,6.00,0.00,30.03,M,6.21,M,FEW,M,M,M,3000.00,M,M,M,M,YBBN 071800Z 24006KT 9999 FEW030 17/16 Q1017
YBBN,2012-04-07 18:30,153.1292,-27.3917,62.60,60.80,93.83,240.00,6.00,0.00,30.03,M,6.21,M,BKN,M,M,M,3500.00,M,M,M,M,YBBN 071830Z 24006KT 9999 BKN035 17/16 Q1017
YBBN,2012-04-07 19:00,153.1292,-27.3917,60.80,60.80,100.00,240.00,6.00,0.00,30.06,M,6.21,M,FEW,M,M,M,3500.00,M,M,M,M,YBBN 071900Z 24006KT 9999 FEW035 16/16 Q1018
YBBN,2012-04-07 19:30,153.1292,-27.3917,62.60,60.80,93.83,230.00,6.00,0.00,30.06,M,6.21,M,FEW,M,M,M,3500.00,M,M,M,M,YBBN 071930Z 23006KT 9999 FEW035 17/16 Q1018
YBBN,2012-04-07 20:00,153.1292,-27.3917,60.80,60.80,100.00,230.00,7.00,0.00,30.06,M,6.21,M,FEW,M,M,M,3500.00,M,M,M,M,YBBN 072000Z 23007KT 9999 FEW035 16/16 Q1018 NOSIG
YBBN,2012-04-07 20:30,153.1292,-27.3917,62.60,60.80,93.83,230.00,8.00,0.00,30.06,M,6.21,M,FEW,M,M,M,3200.00,M,M,M,M,YBBN 072030Z 23008KT 9999 FEW032 17/16 Q1018 RMK DIST SH NE
YBBN,2012-04-07 21:00,153.1292,-27.3917,64.40,62.60,93.88,220.00,8.00,0.00,30.06,M,6.21,M,FEW,M,M,M,3200.00,M,M,M,M,YBBN 072100Z 22008KT 9999 FEW032 18/17 Q1018 NOSIG
YBBN,2012-04-07 21:30,153.1292,-27.3917,68.00,62.60,82.86,220.00,8.00,0.00,30.09,M,6.21,M,FEW,M,M,M,3200.00,M,M,M,M,YBBN 072130Z 22008KT 9999 FEW032 20/17 Q1019 RMK DIST SH NE
YBBN,2012-04-07 22:00,153.1292,-27.3917,69.80,62.60,77.90,230.00,9.00,0.00,30.09,M,6.21,M,FEW,M,M,M,3300.00,M,M,M,M,YBBN 072200Z 23009KT 9999 FEW033 21/17 Q1019 NOSIG
YBBN,2012-04-07 22:30,153.1292,-27.3917,73.40,62.60,68.94,200.00,7.00,0.00,30.09,M,6.21,M,FEW,M,M,M,3300.00,M,M,M,M,YBBN 072230Z 20007KT 9999 FEW033 23/17 Q1019 RMK DIST SH E/NE
YBBN,2012-04-07 23:00,153.1292,-27.3917,75.20,60.80,60.90,200.00,9.00,0.00,30.09,M,6.21,M,FEW,M,M,M,2300.00,M,M,M,M,YBBN 072300Z 20009KT 9999 FEW023 24/16 Q1019 NOSIG
YBBN,2012-04-07 23:30,153.1292,-27.3917,75.20,60.80,60.90,170.00,6.00,0.00,30.09,M,6.21,M,FEW,M,M,M,2300.00,M,M,M,VCSH,YBBN 072330Z 17006KT 9999 VCSH FEW023 24/16 Q1019 RMK SH NE/SE
