#DEBUG: Format Typ    -> comma
#DEBUG: Time Period   -> 2012-12-21 00:00:00+00:00 2012-12-22 00:00:00+00:00
#DEBUG: Time Zone     -> Etc/UTC
#DEBUG: Data Contact   -> daryl herzmann akrherz@iastate.edu 515-294-5978
#DEBUG: Entries Found -> -1
station,valid,lon,lat,tmpf, dwpf, relh, drct, sknt, p01i, alti, mslp, vsby, gust, skyc1, skyc2, skyc3, skyc4, skyl1, skyl2, skyl3, skyl4, presentwx, metar
YBBN,2012-12-21 00:00,153.1292,-27.3917,82.40,69.80,65.74,70.00,7.00,0.00,29.91,M,6.21,M,FEW,SCT,BKN,M,3000.00,12000.00,27000.00,M,M,YBBN 210000Z 07007KT 9999 FEW030 SCT120 BKN270 28/21 Q1013 INTER 0200/0300 3000 SHRA BKN015
YBBN,2012-12-21 00:30,153.1292,-27.3917,84.20,71.60,65.95,70.00,7.00,0.00,29.91,M,6.21,M,FEW,SCT,BKN,M,3000.00,12000.00,27000.00,M,M,YBBN 210030Z 07007KT 9999 FEW030 SCT120 BKN270 29/22 Q1013
YBBN,2012-12-21 01:00,153.1292,-27.3917,84.20,69.80,62.03,60.00,7.00,0.00,29.91,M,6.21,M,FEW,SCT,BKN,M,3000.00,18000.00,27000.00,M,M,YBBN 210100Z 06007KT 9999 FEW030 SCT180 BKN270 29/21 Q1013
YBBN,2012-12-21 01:30,153.1292,-27.3917,86.00,69.80,58.55,30.00,9.00,0.00,29.88,M,6.21,M,FEW,SCT,BKN,M,4500.00,18000.00,27000.00,M,M,YBBN 210130Z 03009KT 9999 FEW045 SCT180 BKN270 30/21 Q1012
YBBN,2012-12-21 02:00,153.1292,-27.3917,86.00,68.00,55.04,60.00,10.00,0.00,29.88,M,6.21,M,FEW,SCT,M,M,4500.00,18000.00,M,M,M,YBBN 210200Z 06010KT 9999 FEW045 SCT180 30/20 Q1012
YBBN,2012-12-21 02:30,153.1292,-27.3917,84.20,68.00,58.32,70.00,9.00,0.00,29.88,M,6.21,M,FEW,SCT,M,M,4000.00,18000.00,M,M,M,YBBN 210230Z 07009KT 9999 FEW040 SCT180 29/20 Q1012
YBBN,2012-12-21 03:00,153.1292,-27.3917,84.20,69.80,62.03,60.00,10.00,0.00,29.85,M,6.21,M,FEW,SCT,M,M,3500.00,16000.00,M,M,M,YBBN 210300Z 06010KT 9999 FEW035 SCT160 29/21 Q1011 INTER 0300/0600 3000 SHRA BKN015
YBBN,2012-12-21 03:30,153.1292,-27.3917,84.20,68.00,58.32,70.00,10.00,0.00,29.85,M,6.21,M,FEW,SCT,BKN,M,4000.00,14000.00,16000.00,M,M,YBBN 210330Z 07010KT 9999 FEW040 SCT140 BKN160 29/20 Q1011
YBBN,2012-12-21 04:00,153.1292,-27.3917,82.40,66.20,58.08,70.00,11.00,0.00,29.85,M,6.21,M,FEW,SCT,BKN,M,3500.00,13000.00,18000.00,M,M,YBBN 210400Z 07011KT 9999 FEW035 SCT130 BKN180 28/19 Q1011
YBBN,2012-12-21 04:30,153.1292,-27.3917,82.40,68.00,61.81,70.00,10.00,0.00,29.85,M,6.21,M,FEW,BKN,M,M,3000.00,11000.00,M,M,M,YBBN 210430Z 07010KT 9999 FEW030 BKN110 28/20 Q1011 RMK DISTANT SHOWERS TO SW
YBBN,2012-12-21 05:00,153.1292,-27.3917,80.60,69.80,69.71,70.00,9.00,0.00,29.85,M,6.21,M,SCT,BKN,FEW,M,2000.00,11000.00,2500.00,M,VCSH,YBBN 210500Z 07009KT 9999 VCSH SCT020 BKN110 FEW025TCU 27/21 Q1011 RMK SHOWERS TO SW
YBBN,2012-12-21 05:30,153.1292,-27.3917,80.60,71.60,74.11,120.00,11.00,0.00,29.85,M,6.21,M,FEW,BKN,M,M,2000.00,11000.00,M,M,VCSH,YBBN 210530Z 12011KT 9999 VCSH FEW020TCU BKN110 27/22 Q1011 RMK TCU W THROUGH NE. SHOWERS SW THROUGH SE.
YBBN,2012-12-21 06:00,153.1292,-27.3917,78.80,71.60,78.62,120.00,10.00,0.00,29.85,M,6.21,M,FEW,BKN,M,M,2000.00,14000.00,M,M,VCSH,YBBN 210600Z 12010KT 9999 VCSH FEW020TCU BKN140 26/22 Q1011 INTER 0600/0900 3000 SHRA BKN015
YBBN,2012-12-21 06:30,153.1292,-27.3917,78.80,71.60,78.62,130.00,10.00,0.00,29.85,M,6.21,M,SCT,BKN,M,M,1600.00,14000.00,M,M,-SHRA,YBBN 210630Z 13010KT 9999 -SHRA SCT016 BKN140 26/22 Q1011
YBBN,2012-12-21 07:00,153.1292,-27.3917,78.80,71.60,78.62,130.00,8.00,0.00,29.85,M,6.21,M,SCT,BKN,M,M,1600.00,15000.00,M,M,-SHRA,YBBN 210700Z 13008KT 9999 -SHRA SCT016 BKN150 26/22 Q1011
YBBN,2012-12-21 07:30,153.1292,-27.3917,78.80,71.60,78.62,110.00,7.00,0.00,29.88,M,6.21,M,SCT,BKN,M,M,1800.00,14000.00,M,M,VCSH,YBBN 210730Z 11007KT 9999 VCSH SCT018 BKN140 26/22 Q1012
YBBN,2012-12-21 08:00,153.1292,-27.3917,78.80,71.60,78.62,100.00,7.00,0.00,29.88,M,6.21,M,SCT,BKN,M,M,1400.00,15000.00,M,M,VCSH,YBBN 210800Z 10007KT 9999 VCSH SCT014TCU BKN150 26/22 Q1012 NOSIG
YBBN,2012-12-21 08:30,153.1292,-27.3917,78.80,73.40,83.55,110.00,7.00,0.00,29.88,M,6.21,M,SCT,BKN,M,M,1400.00,15000.00,M,M,-SHRA,YBBN 210830Z 11007KT 9999 -SHRA SCT014 BKN150 26/23 Q1012
YBBN,2012-12-21 09:00,153.1292,-27.3917,78.80,73.40,83.55,100.00,5.00,0.00,29.88,M,6.21,M,FEW,BKN,M,M,1400.00,14000.00,M,M,-SHRA,YBBN 210900Z 10005KT 9999 -SHRA FEW014 BKN140 26/23 Q1012
YBBN,2012-12-21 09:30,153.1292,-27.3917,78.80,73.40,83.55,90.00,3.00,0.00,29.91,M,6.21,M,FEW,SCT,BKN,M,1300.00,1700.00,11500.00,M,M,YBBN 210930Z 09003KT 9999 FEW013 SCT017 BKN115 26/23 Q1013
YBBN,2012-12-21 10:00,153.1292,-27.3917,78.80,73.40,83.55,90.00,5.00,0.00,29.91,M,6.21,M,FEW,SCT,BKN,M,1200.00,1800.00,14000.00,M,M,YBBN 211000Z 09005KT 9999 FEW012 SCT018 BKN140 26/23 Q1013 NOSIG
YBBN,2012-12-21 10:23,153.1292,-27.3917,77.00,71.60,83.44,90.00,6.00,0.00,29.91,M,4.97,M,FEW,BKN,BKN,M,1200.00,1600.00,3700.00,M,-SHRA,YBBN 211023Z 09006KT 8000 4000NE -SHRA FEW012 BKN016 BKN037 25/22 Q1013
YBBN,2012-12-21 10:32,153.1292,-27.3917,75.20,71.60,88.59,120.00,7.00,0.00,29.94,M,3.11,M,SCT,BKN,M,M,1600.00,2000.00,M,M,-SHRA,YBBN 211032Z 12007KT 5000 -SHRA SCT016 BKN020 24/22 Q1014
YBBN,2012-12-21 10:39,153.1292,-27.3917,77.00,71.60,83.44,170.00,6.00,0.00,29.91,M,3.11,M,FEW,BKN,FEW,M,1600.00,2500.00,2500.00,M,-TSRA,YBBN 211039Z 17006KT 5000 -TSRA FEW016 BKN025 FEW025CB 25/22 Q1013
YBBN,2012-12-21 11:00,153.1292,-27.3917,77.00,71.60,83.44,220.00,4.00,0.00,29.91,M,6.21,M,FEW,SCT,BKN,M,1400.00,2000.00,11500.00,M,-SHRA,YBBN 211100Z 22004KT 9999 -SHRA FEW014 SCT020 BKN115 25/22 Q1013 RETS
YBBN,2012-12-21 11:30,153.1292,-27.3917,75.20,73.40,94.14,0.00,0.00,0.00,29.91,M,6.21,M,FEW,BKN,BKN,M,1800.00,3200.00,14000.00,M,M,YBBN 211130Z 00000KT 9999 FEW018 BKN032 BKN140 24/23 Q1013
YBBN,2012-12-21 12:00,153.1292,-27.3917,75.20,73.40,94.14,60.00,4.00,0.00,29.91,M,6.21,M,SCT,BKN,M,M,1800.00,14000.00,M,M,-SHRA,YBBN 211200Z 06004KT 9999 -SHRA SCT018 BKN140 24/23 Q1013 INTER 1400/1500 3000 SHRA BKN015
YBBN,2012-12-21 12:30,153.1292,-27.3917,77.00,71.60,83.44,90.00,4.00,0.00,29.91,M,6.21,M,FEW,SCT,BKN,M,1300.00,1700.00,15000.00,M,M,YBBN 211230Z 09004KT 9999 FEW013 SCT017 BKN150 25/22 Q1013
YBBN,2012-12-21 13:00,153.1292,-27.3917,77.00,71.60,83.44,90.00,5.00,0.00,29.91,M,6.21,M,SCT,BKN,M,M,1900.00,15000.00,M,M,M,YBBN 211300Z 09005KT 9999 SCT019 BKN150 25/22 Q1013
YBBN,2012-12-21 13:30,153.1292,-27.3917,77.00,71.60,83.44,80.00,4.00,0.00,29.91,M,6.21,M,FEW,BKN,M,M,1900.00,15000.00,M,M,M,YBBN 211330Z 08004KT 9999 FEW019 BKN150 25/22 Q1013
YBBN,2012-12-21 14:00,153.1292,-27.3917,77.00,71.60,83.44,70.00,4.00,0.00,29.91,M,6.21,M,SCT,BKN,M,M,2200.00,14000.00,M,M,M,YBBN 211400Z 07004KT 9999 SCT022 BKN140 25/22 Q1013
YBBN,2012-12-21 14:30,153.1292,-27.3917,77.00,71.60,83.44,70.00,3.00,0.00,29.91,M,6.21,M,SCT,BKN,BKN,M,2000.00,3000.00,14000.00,M,-SHRA,YBBN 211430Z 07003KT 9999 -SHRA SCT020 BKN030 BKN140 25/22 Q1013
YBBN,2012-12-21 15:00,153.1292,-27.3917,77.00,69.80,78.48,90.00,5.00,0.00,29.91,M,6.21,M,SCT,BKN,M,M,2000.00,15000.00,M,M,M,YBBN 211500Z 09005KT 9999 SCT020 BKN150 25/21 Q1013
YBBN,2012-12-21 15:30,153.1292,-27.3917,77.00,69.80,78.48,80.00,4.00,0.00,29.88,M,6.21,M,FEW,BKN,M,M,2000.00,15000.00,M,M,M,YBBN 211530Z 08004KT 9999 FEW020 BKN150 25/21 Q1012
YBBN,2012-12-21 16:00,153.1292,-27.3917,77.00,69.80,78.48,90.00,4.00,0.00,29.88,M,6.21,M,FEW,BKN,M,M,2000.00,15000.00,M,M,M,YBBN 211600Z 09004KT 9999 FEW020 BKN150 25/21 Q1012 INTER 1600/1900 3000 SHRA BKN015
YBBN,2012-12-21 16:30,153.1292,-27.3917,77.00,69.80,78.48,60.00,4.00,0.00,29.88,M,6.21,M,SCT,BKN,M,M,2000.00,15000.00,M,M,M,YBBN 211630Z 06004KT 9999 SCT020 BKN150 25/21 Q1012
YBBN,2012-12-21 17:00,153.1292,-27.3917,77.00,68.00,73.78,60.00,5.00,0.00,29.88,M,6.21,M,BKN,BKN,M,M,2200.00,15000.00,M,M,M,YBBN 211700Z 06005KT 9999 BKN022 BKN150 25/20 Q1012 INTER 1700/2000 3000 SHRA BKN015
YBBN,2012-12-21 17:30,153.1292,-27.3917,77.00,68.00,73.78,60.00,5.00,0.00,29.88,M,6.21,M,FEW,BKN,BKN,M,2200.00,4000.00,15000.00,M,M,YBBN 211730Z 06005KT 9999 FEW022 BKN040 BKN150 25/20 Q1012
YBBN,2012-12-21 18:00,153.1292,-27.3917,77.00,68.00,73.78,80.00,4.00,0.00,29.88,M,6.21,M,FEW,SCT,BKN,M,2200.00,4000.00,16000.00,M,M,YBBN 211800Z 08004KT 9999 FEW022 SCT040 BKN160 25/20 Q1012 INTER 1800/2100 3000 SHRA BKN015
YBBN,2012-12-21 18:30,153.1292,-27.3917,77.00,68.00,73.78,70.00,4.00,0.00,29.88,M,6.21,M,SCT,SCT,BKN,M,2400.00,4000.00,16000.00,M,M,YBBN 211830Z 07004KT 9999 SCT024 SCT040 BKN160 25/20 Q1012
YBBN,2012-12-21 19:00,153.1292,-27.3917,77.00,68.00,73.78,80.00,4.00,0.00,29.88,M,6.21,M,SCT,BKN,M,M,2200.00,16000.00,M,M,M,YBBN 211900Z 08004KT 9999 SCT022 BKN160 25/20 Q1012
YBBN,2012-12-21 19:30,153.1292,-27.3917,77.00,69.80,78.48,70.00,5.00,0.00,29.88,M,6.21,M,FEW,SCT,BKN,M,2200.00,4000.00,16000.00,M,M,YBBN 211930Z 07005KT 9999 FEW022 SCT040 BKN160 25/21 Q1012
YBBN,2012-12-21 20:00,153.1292,-27.3917,77.00,69.80,78.48,60.00,7.00,0.00,29.91,M,6.21,M,FEW,BKN,BKN,M,1500.00,1900.00,16000.00,M,M,YBBN 212000Z 06007KT 9999 FEW015 BKN019 BKN160 25/21 Q1013
YBBN,2012-12-21 20:30,153.1292,-27.3917,77.00,69.80,78.48,50.00,7.00,0.00,29.91,M,6.21,M,SCT,BKN,M,M,2000.00,14000.00,M,M,M,YBBN 212030Z 05007KT 9999 SCT020 BKN140 25/21 Q1013
YBBN,2012-12-21 21:00,153.1292,-27.3917,78.80,69.80,73.95,70.00,7.00,0.00,29.91,M,6.21,M,FEW,SCT,BKN,M,1500.00,2300.00,22000.00,M,M,YBBN 212100Z 07007KT 9999 FEW015 SCT023 BKN220 26/21 Q1013 NOSIG
YBBN,2012-12-21 21:30,153.1292,-27.3917,78.80,68.00,69.52,100.00,7.00,0.00,29.94,M,6.21,M,FEW,SCT,BKN,M,1500.00,2300.00,15000.00,M,M,YBBN 212130Z 10007KT 9999 FEW015 SCT023 BKN150 26/20 Q1014
YBBN,2012-12-21 22:00,153.1292,-27.3917,78.80,68.00,69.52,90.00,7.00,0.00,29.94,M,6.21,M,SCT,BKN,M,M,2500.00,15000.00,M,M,M,YBBN 212200Z 09007KT 9999 SCT025 BKN150 26/20 Q1014 NOSIG
YBBN,2012-12-21 22:30,153.1292,-27.3917,78.80,68.00,69.52,90.00,6.00,0.00,29.94,M,6.21,M,SCT,BKN,M,M,2700.00,16000.00,M,M,M,YBBN 212230Z 09006KT 9999 SCT027 BKN160 26/20 Q1014
YBBN,2012-12-21 23:00,153.1292,-27.3917,78.80,68.00,69.52,100.00,6.00,0.00,29.94,M,6.21,M,SCT,BKN,M,M,3200.00,16000.00,M,M,M,YBBN 212300Z 10006KT 9999 SCT032 BKN160 26/20 Q1014
YBBN,2012-12-21 23:30,153.1292,-27.3917,80.60,68.00,65.54,90.00,7.00,0.00,29.94,M,6.21,M,SCT,BKN,M,M,3000.00,16000.00,M,M,M,YBBN 212330Z 09007KT 9999 SCT030 BKN160 27/20 Q1014
