#DEBUG: Format Typ    -> comma
#DEBUG: Time Period   -> 2012-03-20 00:00:00+00:00 2012-03-21 00:00:00+00:00
#DEBUG: Time Zone     -> Etc/UTC
#DEBUG: Data Contact   -> daryl herzmann akrherz@iastate.edu 515-294-5978
#DEBUG: Entries Found -> -1
station,valid,lon,lat,tmpf, dwpf, relh, drct, sknt, p01i, alti, mslp, vsby, gust, skyc1, skyc2, skyc3, skyc4, skyl1, skyl2, skyl3, skyl4, presentwx, metar
YBBN,2012-03-20 00:00,153.1292,-27.3917,75.20,69.80,83.32,70.00,9.00,0.00,29.94,M,3.73,M,FEW,SCT,BKN,FEW,800.00,2200.00,4200.00,2300.00,-SHRA VCSH,YBBN 200000Z 07009KT 6000 -SHRA VCSH FEW008 SCT022 BKN042 FEW023TCU 24/21 Q1014 RESHRA
YBBN,2012-03-20 00:20,153.1292,-27.3917,75.20,69.80,83.32,80.00,9.00,0.00,29.91,M,5.59,M,FEW,SCT,BKN,M,1200.00,2200.00,4800.00,M,-SHRA VCSH,YBBN 200020Z 08009KT 9000 -SHRA VCSH FEW012 SCT022 BKN048 24/21 Q1013
YBBN,2012-03-20 00:30,153.1292,-27.3917,77.00,69.80,78.48,100.00,9.00,0.00,29.91,M,6.21,M,FEW,SCT,M,M,1200.00,2300.00,M,M,VCSH,YBBN 200030Z 10009KT 9999 VCSH FEW012 SCT023 25/21 Q1013
YBBN,2012-03-20 01:00,153.1292,-27.3917,80.60,69.80,69.71,80.00,11.00,0.00,29.91,M,6.21,M,FEW,SCT,M,M,1800.00,2500.00,M,M,VCSH,YBBN 200100Z 08011KT 9999 VCSH FEW018 SCT025 27/21 Q1013
YBBN,2012-03-20 01:30,153.1292,-27.3917,80.60,66.20,61.58,70.00,11.00,0.00,29.91,M,6.21,M,FEW,SCT,M,M,2000.00,2500.00,M,M,VCSH,YBBN 200130Z 07011KT 9999 VCSH FEW020 SCT025 27/19 Q1013
YBBN,2012-03-20 02:00,153.1292,-27.3917,80.60,66.20,61.58,80.00,13.00,0.00,29.88,M,6.21,M,FEW,SCT,M,M,2000.00,2700.00,M,M,VCSH,YBBN 200200Z 08013KT 9999 VCSH FEW020 SCT027 27/19 Q1012
YBBN,2012-03-20 02:30,153.1292,-27.3917,78.80,68.00,69.52,80.00,12.00,0.00,29.88,M,6.21,M,FEW,SCT,M,M,2000.00,2700.00,M,M,VCSH,YBBN 200230Z 08012KT 9999 VCSH FEW020 SCT027 26/20 Q1012 RMK MOD TURB REP ON FINAL RWY19
YBBN,2012-03-20 02:47,153.1292,-27.3917,78.80,69.80,73.95,90.00,11.00,0.00,29.88,M,3.73,M,FEW,SCT,M,M,2200.00,2800.00,M,M,SHRA VCSH,YBBN 200247Z 09011KT 6000 SHRA VCSH FEW022 SCT028 26/21 Q1012 RMK MOD TURB REP ON FINAL RWY19
YBBN,2012-03-20 03:00,153.1292,-27.3917,78.80,68.00,69.52,90.00,10.00,0.00,29.85,M,4.97,M,FEW,SCT,FEW,M,2000.00,2800.00,2900.00,M,SHRA VCSH,YBBN 200300Z 09010KT 8000 SHRA VCSH FEW020 SCT028 FEW029TCU 26/20 Q1011
YBBN,2012-03-20 03:30,153.1292,-27.3917,80.60,68.00,65.54,100.00,11.00,0.00,29.85,M,6.21,M,FEW,SCT,FEW,M,2000.00,2800.00,2900.00,M,VCSH,YBBN 200330Z 10011KT 9999 VCSH FEW020 SCT028 FEW029TCU 27/20 Q1011 RMK SH S/SW
YBBN,2012-03-20 04:00,153.1292,-27.3917,78.80,69.80,73.95,100.00,12.00,0.00,29.85,M,6.21,M,FEW,SCT,FEW,M,2300.00,2800.00,3000.00,M,VCSH,YBBN 200400Z 10012KT 9999 VCSH FEW023 SCT028 FEW030TCU 26/21 Q1011 INTER 0400/0700 3000 SHRA BKN010
YBBN,2012-03-20 04:30,153.1292,-27.3917,78.80,68.00,69.52,90.00,11.00,0.00,29.83,M,5.59,M,FEW,SCT,FEW,M,2300.00,2800.00,2900.00,M,-SHRA VCSH,YBBN 200430Z 09011KT 9000 -SHRA VCSH FEW023 SCT028 FEW029TCU 26/20 Q1010 RMK SH W/NW
YBBN,2012-03-20 05:00,153.1292,-27.3917,78.80,68.00,69.52,100.00,12.00,0.00,29.83,M,5.59,M,FEW,SCT,FEW,M,1700.00,2700.00,2800.00,M,-SHRA VCSH,YBBN 200500Z 10012KT 9000 -SHRA VCSH FEW017 SCT027 FEW028TCU 26/20 Q1010 INTER 0500/0800 3000 SHRA BKN010
YBBN,2012-03-20 05:30,153.1292,-27.3917,78.80,68.00,69.52,100.00,11.00,0.00,29.83,M,6.21,M,FEW,SCT,FEW,M,1600.00,2600.00,2700.00,M,-SHRA VCSH,YBBN 200530Z 10011KT 9999 -SHRA VCSH FEW016 SCT026 FEW027TCU 26/20 Q1010
YBBN,2012-03-20 06:00,153.1292,-27.3917,78.80,68.00,69.52,90.00,12.00,0.00,29.83,M,4.97,M,FEW,SCT,FEW,M,1400.00,2500.00,2700.00,M,SHRA VCSH,YBBN 200600Z 09012KT 8000 SHRA VCSH FEW014 SCT025 FEW027TCU 26/20 Q1010 INTER 0600/0900 3000 SHRA BKN010
YBBN,2012-03-20 06:30,153.1292,-27.3917,77.00,68.00,73.78,90.00,12.00,0.00,29.83,M,4.97,M,FEW,SCT,FEW,M,1400.00,2500.00,2600.00,M,-SHRA VCSH,YBBN 200630Z 09012KT 8000 -SHRA VCSH FEW014 SCT025 FEW026TCU 25/20 Q1010
YBBN,2012-03-20 07:00,153.1292,-27.3917,75.20,66.20,73.61,100.00,9.00,0.00,29.83,M,4.97,M,FEW,SCT,BKN,M,1600.00,2500.00,9000.00,M,-SHRA VCSH,YBBN 200700Z 10009KT 8000 -SHRA VCSH FEW016 SCT025 BKN090 24/19 Q1010 INTER 0700/1000 3000 SHRA BKN010
YBBN,2012-03-20 07:16,153.1292,-27.3917,75.20,68.00,78.34,80.00,8.00,0.00,29.83,M,3.73,M,FEW,SCT,BKN,M,1500.00,4200.00,6300.00,M,SHRA VCSH,YBBN 200716Z 08008KT 6000 SHRA VCSH FEW015 SCT042 BKN063 24/20 Q1010
YBBN,2012-03-20 07:30,153.1292,-27.3917,75.20,69.80,83.32,70.00,8.00,0.00,29.83,M,1.86,M,FEW,SCT,BKN,M,1200.00,3800.00,6400.00,M,SHRA VCSH,YBBN 200730Z 07008KT 3000 SHRA VCSH FEW012 SCT038 BKN064 24/21 Q1010
YBBN,2012-03-20 07:45,153.1292,-27.3917,71.60,68.00,88.43,120.00,7.00,0.00,29.83,M,3.73,M,FEW,SCT,BKN,M,1300.00,4200.00,8400.00,M,-SHRA,YBBN 200745Z 12007KT 6000 -SHRA FEW013 SCT042 BKN084 22/20 Q1010 RESHRA
YBBN,2012-03-20 08:00,153.1292,-27.3917,73.40,69.80,88.51,90.00,7.00,0.00,29.83,M,3.73,M,FEW,SCT,BKN,M,900.00,1800.00,7000.00,M,-SHRA VCSH,YBBN 200800Z 09007KT 6000 -SHRA VCSH FEW009 SCT018 BKN070 23/21 Q1010
YBBN,2012-03-20 08:30,153.1292,-27.3917,71.60,68.00,88.43,90.00,8.00,0.00,29.85,M,6.21,M,FEW,SCT,BKN,M,900.00,3000.00,4600.00,M,VCSH,YBBN 200830Z 09008KT 9999 VCSH FEW009 SCT030 BKN046 22/20 Q1011
YBBN,2012-03-20 09:00,153.1292,-27.3917,73.40,68.00,83.21,90.00,8.00,0.00,29.85,M,6.21,M,FEW,SCT,BKN,M,1000.00,3000.00,4900.00,M,M,YBBN 200900Z 09008KT 9999 FEW010 SCT030 BKN049 23/20 Q1011 INTER 0900/1200 3000 SHRA BKN010
YBBN,2012-03-20 09:30,153.1292,-27.3917,73.40,68.00,83.21,80.00,9.00,0.00,29.85,M,6.21,M,FEW,SCT,BKN,M,1200.00,4500.00,5300.00,M,M,YBBN 200930Z 08009KT 9999 FEW012 SCT045 BKN053 23/20 Q1011
YBBN,2012-03-20 10:00,153.1292,-27.3917,73.40,66.20,78.19,80.00,9.00,0.00,29.85,M,6.21,M,FEW,BKN,BKN,M,1500.00,5700.00,7700.00,M,M,YBBN 201000Z 08009KT 9999 FEW015 BKN057 BKN077 23/19 Q1011 INTER 1000/1300 3000 SHRA BKN010
YBBN,2012-03-20 10:30,153.1292,-27.3917,73.40,68.00,83.21,110.00,7.00,0.00,29.85,M,6.21,M,FEW,SCT,BKN,M,1500.00,5700.00,7100.00,M,M,YBBN 201030Z 11007KT 9999 FEW015 SCT057 BKN071 23/20 Q1011
YBBN,2012-03-20 11:00,153.1292,-27.3917,73.40,68.00,83.21,150.00,6.00,0.00,29.85,M,6.21,M,FEW,SCT,BKN,M,2300.00,6000.00,8200.00,M,M,YBBN 201100Z 15006KT 9999 FEW023 SCT060 BKN082 23/20 Q1011 INTER 1100/1400 3000 SHRA BKN010
YBBN,2012-03-20 11:30,153.1292,-27.3917,71.60,68.00,88.43,180.00,6.00,0.00,29.85,M,6.21,M,SCT,SCT,BKN,M,2700.00,3900.00,5900.00,M,VCSH,YBBN 201130Z 18006KT 9999 VCSH SCT027 SCT039 BKN059 22/20 Q1011
YBBN,2012-03-20 12:00,153.1292,-27.3917,71.60,68.00,88.43,150.00,6.00,0.00,29.85,M,5.59,M,FEW,SCT,BKN,M,1800.00,3800.00,6900.00,M,-SHRA,YBBN 201200Z 15006KT 9000 -SHRA FEW018 SCT038 BKN069 22/20 Q1011
YBBN,2012-03-20 12:30,153.1292,-27.3917,69.80,68.00,94.01,180.00,7.00,0.00,29.85,M,6.21,M,FEW,SCT,BKN,M,1700.00,3000.00,5800.00,M,VCSH,YBBN 201230Z 18007KT 9999 VCSH FEW017 SCT030 BKN058 21/20 Q1011
YBBN,2012-03-20 13:00,153.1292,-27.3917,69.80,68.00,94.01,180.00,7.00,0.00,29.85,M,6.21,M,FEW,SCT,BKN,M,1700.00,2700.00,4300.00,M,M,YBBN 201300Z 18007KT 9999 FEW017 SCT027 BKN043 21/20 Q1011
YBBN,2012-03-20 13:30,153.1292,-27.3917,69.80,68.00,94.01,190.00,6.00,0.00,29.85,M,5.59,M,SCT,BKN,M,M,2200.00,4600.00,M,M,-SHRA,YBBN 201330Z 19006KT 9000 -SHRA SCT022 BKN046 21/20 Q1011
YBBN,2012-03-20 14:00,153.1292,-27.3917,69.80,68.00,94.01,210.00,5.00,0.00,29.83,M,6.21,M,FEW,BKN,M,M,2800.00,5400.00,M,M,VCSH,YBBN 201400Z 21005KT 9999 VCSH FEW028 BKN054 21/20 Q1010
YBBN,2012-03-20 14:30,153.1292,-27.3917,69.80,68.00,94.01,210.00,5.00,0.00,29.83,M,6.21,M,FEW,SCT,M,M,2800.00,5400.00,M,M,M,YBBN 201430Z 21005KT 9999 FEW028 SCT054 21/20 Q1010
YBBN,2012-03-20 15:00,153.1292,-27.3917,69.80,68.00,94.01,210.00,5.00,0.00,29.83,M,6.21,M,FEW,SCT,M,M,2800.00,5400.00,M,M,M,YBBN 201500Z 21005KT 9999 FEW028 SCT054 21/20 Q1010
YBBN,2012-03-20 15:30,153.1292,-27.3917,68.00,66.20,93.97,200.00,5.00,0.00,29.80,M,6.21,M,FEW,SCT,M,M,2800.00,5400.00,M,M,M,YBBN 201530Z 20005KT 9999 FEW028 SCT054 20/19 Q1009
YBBN,2012-03-20 16:00,153.1292,-27.3917,68.00,66.20,93.97,210.00,5.00,0.00,29.80,M,6.21,M,FEW,M,M,M,2800.00,M,M,M,M,YBBN 201600Z 21005KT 9999 FEW028 20/19 Q1009
YBBN,2012-03-20 16:30,153.1292,-27.3917,68.00,66.20,93.97,210.00,5.00,0.00,29.80,M,6.21,M,FEW,M,M,M,2800.00,M,M,M,M,YBBN 201630Z 21005KT 9999 FEW028 20/19 Q1009
YBBN,2012-03-20 17:00,153.1292,-27.3917,68.00,66.20,93.97,200.00,6.00,0.00,29.77,M,6.21,M,FEW,BKN,M,M,2800.00,30000.00,M,M,M,YBBN 201700Z 20006KT 9999 FEW028 BKN300 20/19 Q1008
YBBN,2012-03-20 17:30,153.1292,-27.3917,68.00,66.20,93.97,200.00,6.00,0.00,29.77,M,6.21,M,FEW,BKN,M,M,2800.00,30000.00,M,M,M,YBBN 201730Z 20006KT 9999 FEW028 BKN300 20/19 Q1008
YBBN,2012-03-20 18:00,153.1292,-27.3917,68.00,66.20,93.97,200.00,5.00,0.00,29.77,M,6.21,M,FEW,BKN,M,M,2800.00,30000.00,M,M,M,YBBN 201800Z 20005KT 9999 FEW028 BKN300 20/19 Q1008 NOSIG
YBBN,2012-03-20 18:30,153.1292,-27.3917,68.00,66.20,93.97,210.00,6.00,0.00,29.77,M,6.21,M,FEW,BKN,M,M,2800.00,30000.00,M,M,M,YBBN 201830Z 21006KT 9999 FEW028 BKN300 20/19 Q1008
YBBN,2012-03-20 19:00,153.1292,-27.3917,68.00,66.20,93.97,220.00,7.00,0.00,29.77,M,6.21,M,FEW,BKN,M,M,2800.00,28000.00,M,M,M,YBBN 201900Z 22007KT 9999 FEW028 BKN280 20/19 Q1008 NOSIG
YBBN,2012-03-20 19:30,153.1292,-27.3917,68.00,66.20,93.97,200.00,5.00,0.00,29.77,M,6.21,M,SCT,BKN,M,M,3100.00,27000.00,M,M,M,YBBN 201930Z 20005KT 9999 SCT031 BKN270 20/19 Q1008
YBBN,2012-03-20 20:00,153.1292,-27.3917,68.00,66.20,93.97,220.00,7.00,0.00,29.80,M,6.21,M,SCT,BKN,M,M,3100.00,25000.00,M,M,M,YBBN 202000Z 22007KT 9999 SCT031 BKN250 20/19 Q1009
YBBN,2012-03-20 20:30,153.1292,-27.3917,68.00,66.20,93.97,200.00,5.00,0.00,29.80,M,6.21,M,FEW,BKN,M,M,3100.00,25000.00,M,M,M,YBBN 202030Z 20005KT 9999 FEW031 BKN250 20/19 Q1009
YBBN,2012-03-20 21:00,153.1292,-27.3917,69.80,66.20,88.34,210.00,7.00,0.00,29.80,M,6.21,M,FEW,BKN,M,M,3000.00,25000.00,M,M,VCSH,YBBN 202100Z 21007KT 9999 VCSH FEW030 BKN250 21/19 Q1009
YBBN,2012-03-20 21:30,153.1292,-27.3917,69.80,66.20,88.34,180.00,5.00,0.00,29.80,M,6.21,M,FEW,BKN,M,M,3000.00,25000.00,M,M,M,YBBN 202130Z 18005KT 9999 FEW030 BKN250 21/19 Q1009
YBBN,2012-03-20 22:00,153.1292,-27.3917,71.60,66.20,83.09,190.00,6.00,0.00,29.80,M,6.21,M,FEW,BKN,M,M,2500.00,25000.00,M,M,M,YBBN 202200Z 19006KT 9999 FEW025 BKN250 22/19 Q1009 NOSIG
YBBN,2012-03-20 22:30,153.1292,-27.3917,73.40,68.00,83.21,170.00,5.00,0.00,29.80,M,6.21,M,FEW,BKN,M,M,3000.00,25000.00,M,M,VCSH,YBBN 202230Z 17005KT 9999 VCSH FEW030 BKN250 23/20 Q1009
YBBN,2012-03-20 23:00,153.1292,-27.3917,75.20,68.00,78.34,130.00,5.00,0.00,29.80,M,6.21,M,FEW,BKN,BKN,M,3000.00,5500.00,22000.00,M,VCSH,YBBN 202300Z 13005KT 9999 VCSH FEW030 BKN055 BKN220 24/20 Q1009
YBBN,2012-03-20 23:30,153.1292,-27.3917,77.00,68.00,73.78,110.00,6.00,0.00,29.80,M,6.21,M,FEW,SCT,BKN,M,3500.00,5000.00,22000.00,M,M,YBBN 202330Z 11006KT 9999 FEW035 SCT050 BKN220 25/20 Q1009
