#DEBUG: Format Typ    -> comma
#DEBUG: Time Period   -> 2014-03-18 00:00:00+00:00 2014-03-19 00:00:00+00:00
#DEBUG: Time Zone     -> Etc/UTC
#DEBUG: Data Contact   -> daryl herzmann akrherz@iastate.edu 515-294-5978
#DEBUG: Entries Found -> -1
station,valid,lon,lat,tmpf, dwpf, relh, drct, sknt, p01i, alti, mslp, vsby, gust, skyc1, skyc2, skyc3, skyc4, skyl1, skyl2, skyl3, skyl4, presentwx, metar
YBBN,2014-03-18 00:00,153.1292,-27.3917,84.20,71.60,65.95,30.00,6.00,0.00,30.12,M,6.21,M,SCT,M,M,M,2000.00,M,M,M,M,YBBN 180000Z 03006KT 9999 SCT020 29/22 Q1020 NOSIG
YBBN,2014-03-18 00:30,153.1292,-27.3917,84.20,69.80,62.03,30.00,8.00,0.00,30.12,M,6.21,M,SCT,M,M,M,2400.00,M,M,M,M,YBBN 180030Z 03008KT 9999 SCT024 29/21 Q1020
YBBN,2014-03-18 01:00,153.1292,-27.3917,84.20,71.60,65.95,30.00,8.00,0.00,30.12,M,6.21,M,SCT,M,M,M,2500.00,M,M,M,M,YBBN 180100Z 03008KT 9999 SCT025 29/22 Q1020
YBBN,2014-03-18 01:30,153.1292,-27.3917,84.20,69.80,62.03,30.00,9.00,0.00,30.12,M,6.21,M,FEW,M,M,M,2500.00,M,M,M,M,YBBN 180130Z 03009KT 9999 FEW025 29/21 Q1020
YBBN,2014-03-18 02:00,153.1292,-27.3917,82.40,71.60,69.90,20.00,9.00,0.00,30.12,M,6.21,M,FEW,M,M,M,2000.00,M,M,M,M,YBBN 180200Z 02009KT 9999 FEW020 28/22 Q1020 NOSIG
YBBN,2014-03-18 02:30,153.1292,-27.3917,84.20,71.60,65.95,20.00,10.00,0.00,30.09,M,6.21,M,FEW,M,M,M,2000.00,M,M,M,M,YBBN 180230Z 02010KT 9999 FEW020 29/22 Q1019
YBBN,2014-03-18 03:00,153.1292,-27.3917,84.20,71.60,65.95,30.00,9.00,0.00,30.09,M,6.21,M,FEW,M,M,M,2000.00,M,M,M,M,YBBN 180300Z 03009KT 9999 FEW020 29/22 Q1019
YBBN,2014-03-18 03:30,153.1292,-27.3917,86.00,71.60,62.25,20.00,10.00,0.00,30.09,M,6.21,M,FEW,M,M,M,2200.00,M,M,M,M,YBBN 180330Z 02010KT 9999 FEW022 30/22 Q1019
YBBN,2014-03-18 04:00,153.1292,-27.3917,84.20,69.80,62.03,10.00,9.00,0.00,30.09,M,6.21,M,FEW,M,M,M,2200.00,M,M,M,M,YBBN 180400Z 01009KT 9999 FEW022 29/21 Q1019
YBBN,2014-03-18 04:30,153.1292,-27.3917,84.20,71.60,65.95,20.00,9.00,0.00,30.06,M,6.21,M,FEW,M,M,M,2200.00,M,M,M,M,YBBN 180430Z 02009KT 9999 FEW022 29/22 Q1018
YBBN,2014-03-18 05:00,153.1292,-27.3917,82.40,71.60,69.90,20.00,9.00,0.00,30.06,M,6.21,M,FEW,M,M,M,2200.00,M,M,M,M,YBBN 180500Z 02009KT 9999 FEW022 28/22 Q1018 FM0530 09007KT 9999 SCT030 SCT045
YBBN,2014-03-18 05:30,153.1292,-27.3917,82.40,71.60,69.90,10.00,9.00,0.00,30.06,M,6.21,M,FEW,M,M,M,2200.00,M,M,M,M,YBBN 180530Z 01009KT 9999 FEW022 28/22 Q1018
YBBN,2014-03-18 06:00,153.1292,-27.3917,82.40,71.60,69.90,10.00,9.00,0.00,30.06,M,6.21,M,FEW,M,M,M,2200.00,M,M,M,M,YBBN 180600Z 01009KT 9999 FEW022 28/22 Q1018 FM0630 05007KT 9999 SCT025 SCT040
YBBN,2014-03-18 06:30,153.1292,-27.3917,80.60,71.60,74.11,10.00,10.00,0.00,30.06,M,6.21,M,FEW,M,M,M,2000.00,M,M,M,M,YBBN 180630Z 01010KT 9999 FEW020 27/22 Q1018
YBBN,2014-03-18 07:00,153.1292,-27.3917,80.60,71.60,74.11,10.00,9.00,0.00,30.06,M,6.21,M,FEW,M,M,M,2000.00,M,M,M,M,YBBN 180700Z 01009KT 9999 FEW020 27/22 Q1018 FM0730 05007KT 9999 SCT025 SCT040
YBBN,2014-03-18 07:30,153.1292,-27.3917,78.80,71.60,78.62,30.00,7.00,0.00,30.09,M,6.21,M,FEW,M,M,M,2000.00,M,M,M,M,YBBN 180730Z 03007KT 9999 FEW020 26/22 Q1019
YBBN,2014-03-18 08:00,153.1292,-27.3917,78.80,69.80,73.95,50.00,8.00,0.00,30.09,M,6.21,M,FEW,M,M,M,1800.00,M,M,M,M,YBBN 180800Z 05008KT 9999 FEW018 26/21 Q1019
YBBN,2014-03-18 08:30,153.1292,-27.3917,78.80,69.80,73.95,60.00,8.00,0.00,30.09,M,6.21,M,FEW,M,M,M,1800.00,M,M,M,M,YBBN 180830Z 06008KT 9999 FEW018 26/21 Q1019
YBBN,2014-03-18 09:00,153.1292,-27.3917,78.80,71.60,78.62,50.00,8.00,0.00,30.12,M,6.21,M,FEW,SCT,M,M,1800.00,2000.00,M,M,M,YBBN 180900Z 05008KT 9999 FEW018 SCT020 26/22 Q1020
YBBN,2014-03-18 09:30,153.1292,-27.3917,78.80,71.60,78.62,40.00,8.00,0.00,30.12,M,6.21,M,FEW,BKN,M,M,1500.00,2000.00,M,M,M,YBBN 180930Z 04008KT 9999 FEW015 BKN020 26/22 Q1020
YBBN,2014-03-18 10:00,153.1292,-27.3917,78.80,71.60,78.62,40.00,8.00,0.00,30.12,M,6.21,M,FEW,BKN,M,M,1500.00,1900.00,M,M,M,YBBN 181000Z 04008KT 9999 FEW015 BKN019 26/22 Q1020 NOSIG
YBBN,2014-03-18 10:30,153.1292,-27.3917,78.80,71.60,78.62,30.00,8.00,0.00,30.15,M,6.21,M,FEW,BKN,M,M,1500.00,2200.00,M,M,-SHRA,YBBN 181030Z 03008KT 9999 -SHRA FEW015 BKN022 26/22 Q1021
YBBN,2014-03-18 11:00,153.1292,-27.3917,78.80,71.60,78.62,30.00,9.00,0.00,30.15,M,6.21,M,FEW,SCT,BKN,M,1500.00,2200.00,3000.00,M,M,YBBN 181100Z 03009KT 9999 FEW015 SCT022 BKN030 26/22 Q1021
YBBN,2014-03-18 11:30,153.1292,-27.3917,78.80,69.80,73.95,40.00,9.00,0.00,30.15,M,6.21,M,FEW,BKN,M,M,2000.00,3500.00,M,M,M,YBBN 181130Z 04009KT 9999 FEW020 BKN035 26/21 Q1021
YBBN,2014-03-18 12:00,153.1292,-27.3917,77.00,71.60,83.44,30.00,9.00,0.00,30.15,M,6.21,M,FEW,BKN,M,M,1500.00,3500.00,M,M,M,YBBN 181200Z 03009KT 9999 FEW015 BKN035 25/22 Q1021
YBBN,2014-03-18 12:30,153.1292,-27.3917,78.80,69.80,73.95,40.00,9.00,0.00,30.15,M,6.21,M,FEW,BKN,M,M,1500.00,3500.00,M,M,M,YBBN 181230Z 04009KT 9999 FEW015 BKN035 26/21 Q1021
YBBN,2014-03-18 13:00,153.1292,-27.3917,77.00,69.80,78.48,50.00,10.00,0.00,30.15,M,6.21,M,FEW,BKN,M,M,1500.00,3500.00,M,M,M,YBBN 181300Z 05010KT 9999 FEW015 BKN035 25/21 Q1021
YBBN,2014-03-18 13:30,153.1292,-27.3917,77.00,69.80,78.48,30.00,10.00,0.00,30.12,M,6.21,M,FEW,BKN,M,M,1600.00,3300.00,M,M,M,YBBN 181330Z 03010KT 9999 FEW016 BKN033 25/21 Q1020
YBBN,2014-03-18 14:00,153.1292,-27.3917,77.00,69.80,78.48,40.00,7.00,0.00,30.12,M,6.21,M,FEW,BKN,M,M,1600.00,3300.00,M,M,M,YBBN 181400Z 04007KT 9999 FEW016 BKN033 25/21 Q1020 NOSIG
YBBN,2014-03-18 14:30,153.1292,-27.3917,77.00,69.80,78.48,40.00,8.00,0.00,30.12,M,6.21,M,FEW,BKN,M,M,1600.00,3500.00,M,M,M,YBBN 181430Z 04008KT 9999 FEW016 BKN035 25/21 Q1020
YBBN,2014-03-18 15:00,153.1292,-27.3917,77.00,69.80,78.48,30.00,8.00,0.00,30.12,M,6.21,M,SCT,BKN,M,M,1600.00,4000.00,M,M,M,YBBN 181500Z 03008KT 9999 SCT016 BKN040 25/21 Q1020
YBBN,2014-03-18 15:30,153.1292,-27.3917,77.00,69.80,78.48,40.00,7.00,0.00,30.12,M,6.21,M,FEW,SCT,BKN,M,1600.00,3300.00,4200.00,M,M,YBBN 181530Z 04007KT 9999 FEW016 SCT033 BKN042 25/21 Q1020
YBBN,2014-03-18 16:00,153.1292,-27.3917,77.00,69.80,78.48,40.00,7.00,0.00,30.09,M,6.21,M,FEW,SCT,BKN,M,1500.00,3300.00,4200.00,M,M,YBBN 181600Z 04007KT 9999 FEW015 SCT033 BKN042 25/21 Q1019 NOSIG
YBBN,2014-03-18 16:30,153.1292,-27.3917,77.00,68.00,73.78,50.00,6.00,0.00,30.09,M,6.21,M,FEW,SCT,BKN,M,1500.00,3300.00,4200.00,M,M,YBBN 181630Z 05006KT 9999 FEW015 SCT033 BKN042 25/20 Q1019
YBBN,2014-03-18 17:00,153.1292,-27.3917,77.00,69.80,78.48,50.00,6.00,0.00,30.09,M,6.21,M,FEW,BKN,M,M,1500.00,4500.00,M,M,M,YBBN 181700Z 05006KT 9999 FEW015 BKN045 25/21 Q1019 NOSIG
YBBN,2014-03-18 17:30,153.1292,-27.3917,75.20,69.80,83.32,50.00,5.00,0.00,30.09,M,6.21,M,FEW,SCT,M,M,1500.00,4500.00,M,M,M,YBBN 181730Z 05005KT 9999 FEW015 SCT045 24/21 Q1019
YBBN,2014-03-18 18:00,153.1292,-27.3917,75.20,69.80,83.32,40.00,6.00,0.00,30.09,M,6.21,M,FEW,M,M,M,1500.00,M,M,M,M,YBBN 181800Z 04006KT 9999 FEW015 24/21 Q1019
YBBN,2014-03-18 18:30,153.1292,-27.3917,75.20,69.80,83.32,60.00,5.00,0.00,30.09,M,6.21,M,FEW,M,M,M,1500.00,M,M,M,M,YBBN 181830Z 06005KT 9999 FEW015 24/21 Q1019
YBBN,2014-03-18 19:00,153.1292,-27.3917,75.20,69.80,83.32,60.00,4.00,0.00,30.09,M,6.21,M,FEW,BKN,M,M,1500.00,10000.00,M,M,M,YBBN 181900Z 06004KT 9999 FEW015 BKN100 24/21 Q1019 NOSIG
YBBN,2014-03-18 19:30,153.1292,-27.3917,75.20,68.00,78.34,70.00,4.00,0.00,30.12,M,6.21,M,FEW,SCT,BKN,M,1500.00,2000.00,8200.00,M,M,YBBN 181930Z 07004KT 9999 FEW015 SCT020 BKN082 24/20 Q1020
YBBN,2014-03-18 20:00,153.1292,-27.3917,75.20,68.00,78.34,50.00,4.00,0.00,30.12,M,6.21,M,FEW,SCT,BKN,M,1500.00,2000.00,8500.00,M,M,YBBN 182000Z 05004KT 9999 FEW015 SCT020 BKN085 24/20 Q1020
YBBN,2014-03-18 20:30,153.1292,-27.3917,77.00,68.00,73.78,60.00,4.00,0.00,30.12,M,6.21,M,FEW,SCT,BKN,M,1700.00,2300.00,9500.00,M,M,YBBN 182030Z 06004KT 9999 FEW017 SCT023 BKN095 25/20 Q1020
YBBN,2014-03-18 21:00,153.1292,-27.3917,77.00,68.00,73.78,70.00,5.00,0.00,30.12,M,6.21,M,FEW,SCT,BKN,M,1500.00,2200.00,9800.00,M,M,YBBN 182100Z 07005KT 9999 FEW015 SCT022 BKN098 25/20 Q1020 NOSIG
YBBN,2014-03-18 21:30,153.1292,-27.3917,77.00,68.00,73.78,70.00,6.00,0.00,30.15,M,6.21,M,FEW,SCT,BKN,M,1800.00,2200.00,10500.00,M,M,YBBN 182130Z 07006KT 9999 FEW018 SCT022 BKN105 25/20 Q1021
YBBN,2014-03-18 22:00,153.1292,-27.3917,78.80,66.20,65.33,80.00,6.00,0.00,30.15,M,6.21,M,FEW,SCT,M,M,2200.00,10500.00,M,M,M,YBBN 182200Z 08006KT 9999 FEW022 SCT105 26/19 Q1021 NOSIG
YBBN,2014-03-18 22:30,153.1292,-27.3917,78.80,68.00,69.52,80.00,7.00,0.00,30.15,M,6.21,M,SCT,SCT,M,M,2400.00,10000.00,M,M,M,YBBN 182230Z 08007KT 9999 SCT024 SCT100 26/20 Q1021
YBBN,2014-03-18 23:00,153.1292,-27.3917,78.80,68.00,69.52,70.00,8.00,0.00,30.18,M,6.21,M,BKN,SCT,M,M,2400.00,11000.00,M,M,M,YBBN 182300Z 07008KT 9999 BKN024 SCT110 26/20 Q1022
YBBN,2014-03-18 23:30,153.1292,-27.3917,78.80,68.00,69.52,80.00,8.00,0.00,30.18,M,6.21,M,SCT,SCT,M,M,2500.00,11000.00,M,M,M,YBBN 182330Z 08008KT 9999 SCT025 SCT110 26/20 Q1022
