#DEBUG: Format Typ    -> comma
#DEBUG: Time Period   -> 2013-02-04 00:00:00+00:00 2013-02-05 00:00:00+00:00
#DEBUG: Time Zone     -> Etc/UTC
#DEBUG: Data Contact   -> daryl herzmann akrherz@iastate.edu 515-294-5978
#DEBUG: Entries Found -> -1
station,valid,lon,lat,tmpf, dwpf, relh, drct, sknt, p01i, alti, mslp, vsby, gust, skyc1, skyc2, skyc3, skyc4, skyl1, skyl2, skyl3, skyl4, presentwx, metar
YBBN,2013-02-04 00:00,153.1292,-27.3917,78.80,57.20,47.52,150.00,7.00,0.00,30.03,M,6.21,M,FEW,SCT,BKN,M,4800.00,7000.00,8000.00,M,M,YBBN 040000Z 15007KT 9999 FEW048 SCT070 BKN080 26/14 Q1017
YBBN,2013-02-04 01:00,153.1292,-27.3917,78.80,57.20,47.52,110.00,8.00,0.00,30.00,M,6.21,M,M,M,M,M,M,M,M,M,M,YBBN 040100Z 11008KT CAVOK 26/14 Q1016 NOSIG
YBBN,2013-02-04 01:30,153.1292,-27.3917,80.60,59.00,47.79,120.00,11.00,0.00,30.00,M,6.21,M,M,M,M,M,M,M,M,M,M,YBBN 040130Z 12011KT CAVOK 27/15 Q1016
YBBN,2013-02-04 02:00,153.1292,-27.3917,82.40,57.20,42.25,110.00,13.00,0.00,30.00,M,6.21,M,M,M,M,M,M,M,M,M,M,YBBN 040200Z 11013KT CAVOK 28/14 Q1016 NOSIG
YBBN,2013-02-04 02:30,153.1292,-27.3917,80.60,57.20,44.80,110.00,12.00,0.00,30.00,M,6.21,M,M,M,M,M,M,M,M,M,M,YBBN 040230Z 11012KT CAVOK 27/14 Q1016 RMK 5CU056
YBBN,2013-02-04 03:00,153.1292,-27.3917,78.80,62.60,57.60,110.00,12.00,0.00,29.97,M,6.21,M,M,M,M,M,M,M,M,M,M,YBBN 040300Z 11012KT CAVOK 26/17 Q1015
YBBN,2013-02-04 03:30,153.1292,-27.3917,78.80,62.60,57.60,110.00,13.00,0.00,29.97,M,6.21,M,FEW,SCT,BKN,M,4500.00,5800.00,7000.00,M,M,YBBN 040330Z 11013KT 9999 FEW045 SCT058 BKN070 26/17 Q1015
YBBN,2013-02-04 04:00,153.1292,-27.3917,80.60,62.60,54.30,120.00,13.00,0.00,29.97,M,6.21,M,FEW,BKN,M,M,4500.00,7300.00,M,M,M,YBBN 040400Z 12013KT 9999 FEW045 BKN073 27/17 Q1015 NOSIG
YBBN,2013-02-04 04:30,153.1292,-27.3917,80.60,62.60,54.30,110.00,15.00,0.00,29.97,M,6.21,M,FEW,SCT,BKN,M,4500.00,5800.00,8200.00,M,M,YBBN 040430Z 11015KT 9999 FEW045 SCT058 BKN082 27/17 Q1015
YBBN,2013-02-04 05:00,153.1292,-27.3917,78.80,62.60,57.60,120.00,14.00,0.00,29.97,M,6.21,26.00,FEW,SCT,BKN,M,4500.00,6000.00,8000.00,M,M,YBBN 040500Z 12014G26KT 9999 FEW045 SCT060 BKN080 26/17 Q1015
YBBN,2013-02-04 05:30,153.1292,-27.3917,80.60,60.80,50.95,120.00,15.00,0.00,29.97,M,6.21,M,FEW,SCT,M,M,4500.00,8500.00,M,M,M,YBBN 040530Z 12015KT 9999 FEW045 SCT085 27/16 Q1015
YBBN,2013-02-04 05:45,153.1292,-27.3917,80.60,62.60,54.30,120.00,15.00,0.00,29.97,M,6.21,25.00,SCT,M,M,M,8600.00,M,M,M,//,YBBN 040545Z AUTO 12015G25KT 9999 // SCT086 27/17 Q1015
YBBN,2013-02-04 06:00,153.1292,-27.3917,80.60,60.80,50.95,120.00,13.00,0.00,30.00,M,6.21,23.00,FEW,SCT,M,M,4500.00,8500.00,M,M,M,YBBN 040600Z 12013G23KT 9999 FEW045 SCT085 27/16 Q1016
YBBN,2013-02-04 06:30,153.1292,-27.3917,78.80,62.60,57.60,130.00,15.00,0.00,30.00,M,6.21,M,FEW,BKN,M,M,4000.00,9000.00,M,M,M,YBBN 040630Z 13015KT 9999 FEW040 BKN090 26/17 Q1016 RMK FU
YBBN,2013-02-04 07:00,153.1292,-27.3917,77.00,60.80,57.36,130.00,15.00,0.00,30.00,M,6.21,M,FEW,SCT,M,M,4000.00,9000.00,M,M,M,YBBN 040700Z 13015KT 9999 FEW040 SCT090 25/16 Q1016 NOSIG
YBBN,2013-02-04 07:30,153.1292,-27.3917,77.00,62.60,61.13,130.00,11.00,0.00,30.00,M,6.21,M,FEW,BKN,M,M,4000.00,8500.00,M,M,M,YBBN 040730Z 13011KT 9999 FEW040 BKN085 25/17 Q1016
YBBN,2013-02-04 08:00,153.1292,-27.3917,77.00,62.60,61.13,130.00,13.00,0.00,30.03,M,6.21,M,FEW,BKN,M,M,3500.00,9500.00,M,M,M,YBBN 040800Z 13013KT 9999 FEW035 BKN095 25/17 Q1017
YBBN,2013-02-04 08:30,153.1292,-27.3917,77.00,60.80,57.36,140.00,12.00,0.00,30.03,M,6.21,M,FEW,BKN,M,M,3500.00,10000.00,M,M,M,YBBN 040830Z 14012KT 9999 FEW035 BKN100 25/16 Q1017
YBBN,2013-02-04 09:00,153.1292,-27.3917,75.20,59.00,57.12,150.00,12.00,0.00,30.06,M,6.21,M,FEW,BKN,M,M,3500.00,10000.00,M,M,M,YBBN 040900Z 15012KT 9999 FEW035 BKN100 24/15 Q1018
YBBN,2013-02-04 09:30,153.1292,-27.3917,75.20,57.20,53.55,150.00,11.00,0.00,30.06,M,6.21,23.00,FEW,SCT,M,M,3500.00,10000.00,M,M,M,YBBN 040930Z 15011G23KT 9999 FEW035 SCT100 24/14 Q1018
YBBN,2013-02-04 09:45,153.1292,-27.3917,75.20,59.00,57.12,150.00,10.00,0.00,30.06,M,6.21,M,FEW,SCT,M,M,3500.00,10000.00,M,M,M,YBBN 040945Z 15010KT 9999 FEW035 SCT100 24/15 Q1018 RMK MODERATE TURB. REPORTED BLW 500 FEET
YBBN,2013-02-04 10:00,153.1292,-27.3917,75.20,59.00,57.12,150.00,11.00,0.00,30.06,M,6.21,M,NCD,M,M,M,M,M,M,M,//,YBBN 041000Z AUTO 15011KT 9999 // NCD 24/15 Q1018
YBBN,2013-02-04 10:30,153.1292,-27.3917,73.40,59.00,60.67,170.00,10.00,0.00,30.09,M,6.21,M,M,M,M,M,M,M,M,M,M,YBBN 041030Z 17010KT CAVOK 23/15 Q1019
YBBN,2013-02-04 11:00,153.1292,-27.3917,73.40,59.00,60.67,170.00,10.00,0.00,30.09,M,6.21,M,M,M,M,M,M,M,M,M,M,YBBN 041100Z 17010KT CAVOK 23/15 Q1019
YBBN,2013-02-04 11:30,153.1292,-27.3917,73.40,60.80,64.69,160.00,11.00,0.00,30.09,M,6.21,M,M,M,M,M,M,M,M,M,M,YBBN 041130Z 16011KT CAVOK 23/16 Q1019
YBBN,2013-02-04 12:00,153.1292,-27.3917,71.60,60.80,68.75,170.00,10.00,0.00,30.09,M,6.21,M,M,M,M,M,M,M,M,M,M,YBBN 041200Z 17010KT CAVOK 22/16 Q1019
YBBN,2013-02-04 12:30,153.1292,-27.3917,71.60,60.80,68.75,170.00,10.00,0.00,30.09,M,6.21,M,M,M,M,M,M,M,M,M,M,YBBN 041230Z 17010KT CAVOK 22/16 Q1019
YBBN,2013-02-04 13:00,153.1292,-27.3917,71.60,59.00,64.48,170.00,10.00,0.00,30.09,M,6.21,M,M,M,M,M,M,M,M,M,M,YBBN 041300Z 17010KT CAVOK 22/15 Q1019
YBBN,2013-02-04 13:30,153.1292,-27.3917,71.60,59.00,64.48,190.00,9.00,0.00,30.09,M,6.21,M,M,M,M,M,M,M,M,M,M,YBBN 041330Z 19009KT CAVOK 22/15 Q1019
YBBN,2013-02-04 14:00,153.1292,-27.3917,71.60,59.00,64.48,180.00,8.00,0.00,30.09,M,6.21,M,M,M,M,M,M,M,M,M,M,YBBN 041400Z 18008KT CAVOK 22/15 Q1019
YBBN,2013-02-04 14:30,153.1292,-27.3917,71.60,59.00,64.48,190.00,8.00,0.00,30.06,M,6.21,M,FEW,M,M,M,3800.00,M,M,M,M,YBBN 041430Z 19008KT 9999 FEW038 22/15 Q1018
YBBN,2013-02-04 15:00,153.1292,-27.3917,71.60,59.00,64.48,190.00,8.00,0.00,30.06,M,6.21,M,FEW,M,M,M,3800.00,M,M,M,M,YBBN 041500Z 19008KT 9999 FEW038 22/15 Q1018
YBBN,2013-02-04 15:30,153.1292,-27.3917,69.80,59.00,68.55,200.00,9.00,0.00,30.06,M,6.21,M,M,M,M,M,M,M,M,M,M,YBBN 041530Z 20009KT CAVOK 21/15 Q1018
YBBN,2013-02-04 16:00,153.1292,-27.3917,69.80,59.00,68.55,200.00,8.00,0.00,30.06,M,6.21,M,M,M,M,M,M,M,M,M,M,YBBN 041600Z 20008KT CAVOK 21/15 Q1018
YBBN,2013-02-04 16:30,153.1292,-27.3917,69.80,60.80,73.09,190.00,8.00,0.00,30.06,M,6.21,M,M,M,M,M,M,M,M,M,M,YBBN 041630Z 19008KT CAVOK 21/16 Q1018
YBBN,2013-02-04 17:00,153.1292,-27.3917,69.80,60.80,73.09,200.00,8.00,0.00,30.06,M,6.21,M,M,M,M,M,M,M,M,M,M,YBBN 041700Z 20008KT CAVOK 21/16 Q1018
YBBN,2013-02-04 17:30,153.1292,-27.3917,66.20,60.80,82.74,210.00,8.00,0.00,30.06,M,6.21,M,M,M,M,M,M,M,M,M,M,YBBN 041730Z 21008KT CAVOK 19/16 Q1018
YBBN,2013-02-04 18:00,153.1292,-27.3917,64.40,60.80,88.09,210.00,7.00,0.00,30.06,M,6.21,M,FEW,M,M,M,3800.00,M,M,M,M,YBBN 041800Z 21007KT 9999 FEW038 18/16 Q1018
YBBN,2013-02-04 18:30,153.1292,-27.3917,64.40,60.80,88.09,210.00,9.00,0.00,30.06,M,6.21,M,M,M,M,M,M,M,M,M,M,YBBN 041830Z 21009KT CAVOK 18/16 Q1018
YBBN,2013-02-04 19:00,153.1292,-27.3917,66.20,60.80,82.74,200.00,8.00,0.00,30.06,M,6.21,M,M,M,M,M,M,M,M,M,M,YBBN 041900Z 20008KT CAVOK 19/16 Q1018
YBBN,2013-02-04 19:30,153.1292,-27.3917,66.20,60.80,82.74,200.00,9.00,0.00,30.06,M,6.21,M,FEW,M,M,M,3000.00,M,M,M,M,YBBN 041930Z 20009KT 9999 FEW030 19/16 Q1018
YBBN,2013-02-04 20:00,153.1292,-27.3917,66.20,60.80,82.74,210.00,8.00,0.00,30.06,M,6.21,M,FEW,M,M,M,3000.00,M,M,M,M,YBBN 042000Z 21008KT 9999 FEW030 19/16 Q1018
YBBN,2013-02-04 20:30,153.1292,-27.3917,68.00,60.80,77.75,200.00,8.00,0.00,30.09,M,6.21,M,FEW,M,M,M,3000.00,M,M,M,M,YBBN 042030Z 20008KT 9999 FEW030 20/16 Q1019
YBBN,2013-02-04 21:00,153.1292,-27.3917,71.60,60.80,68.75,200.00,8.00,0.00,30.09,M,6.21,M,FEW,M,M,M,3000.00,M,M,M,M,YBBN 042100Z 20008KT 9999 FEW030 22/16 Q1019
YBBN,2013-02-04 21:30,153.1292,-27.3917,73.40,59.00,60.67,190.00,9.00,0.00,30.09,M,6.21,M,FEW,M,M,M,3000.00,M,M,M,M,YBBN 042130Z 19009KT 9999 FEW030 23/15 Q1019
YBBN,2013-02-04 22:00,153.1292,-27.3917,75.20,59.00,57.12,170.00,10.00,0.00,30.09,M,6.21,M,FEW,M,M,M,3000.00,M,M,M,M,YBBN 042200Z 17010KT 9999 FEW030 24/15 Q1019
YBBN,2013-02-04 22:30,153.1292,-27.3917,77.00,59.00,53.80,140.00,11.00,0.00,30.09,M,6.21,M,FEW,M,M,M,3000.00,M,M,M,M,YBBN 042230Z 14011KT 9999 FEW030 25/15 Q1019
YBBN,2013-02-04 23:00,153.1292,-27.3917,78.80,59.00,50.69,160.00,11.00,0.00,30.09,M,6.21,21.00,SCT,M,M,M,3000.00,M,M,M,M,YBBN 042300Z 16011G21KT 9999 SCT030 26/15 Q1019 NOSIG
YBBN,2013-02-04 23:30,153.1292,-27.3917,78.80,60.80,54.05,160.00,10.00,0.00,30.09,M,6.21,M,SCT,M,M,M,3500.00,M,M,M,M,YBBN 042330Z 16010KT 9999 SCT035 26/16 Q1019
