#DEBUG: Format Typ    -> comma
#DEBUG: Time Period   -> 2010-05-01 00:00:00+00:00 2010-05-02 00:00:00+00:00
#DEBUG: Time Zone     -> Etc/UTC
#DEBUG: Data Contact   -> daryl herzmann akrherz@iastate.edu 515-294-5978
#DEBUG: Entries Found -> -1
station,valid,lon,lat,tmpf, dwpf, relh, drct, sknt, p01i, alti, mslp, vsby, gust, skyc1, skyc2, skyc3, skyc4, skyl1, skyl2, skyl3, skyl4, presentwx, metar
YBBN,2010-05-01 01:00,153.1292,-27.3917,77.00,60.80,57.36,130.00,8.00,M,30.24,M,6.21,M,FEW,SCT,M,M,2200.00,3200.00,M,M,VCSH,YBBN 010100Z 13008KT 9999 VCSH FEW022 SCT032 25/16 Q1024 NOSIG
YBBN,2010-05-01 01:30,153.1292,-27.3917,77.00,60.80,57.36,110.00,8.00,M,30.24,M,6.21,M,SCT,M,M,M,3300.00,M,M,M,M,YBBN 010130Z 11008KT 9999 SCT033 25/16 Q1024 NOSIG
YBBN,2010-05-01 02:00,153.1292,-27.3917,77.00,60.80,57.36,130.00,8.00,M,30.21,M,6.21,M,SCT,M,M,M,3500.00,M,M,M,M,YBBN 010200Z 13008KT 9999 SCT035 25/16 Q1023 NOSIG
YBBN,2010-05-01 03:00,153.1292,-27.3917,77.00,60.80,57.36,120.00,9.00,M,30.18,M,6.21,M,SCT,M,M,M,3500.00,M,M,M,M,YBBN 010300Z 12009KT 9999 SCT035 25/16 Q1022 NOSIG
YBBN,2010-05-01 03:30,153.1292,-27.3917,77.00,60.80,57.36,130.00,9.00,M,30.18,M,6.21,M,FEW,M,M,M,3500.00,M,M,M,M,YBBN 010330Z 13009KT 9999 FEW035 25/16 Q1022 NOSIG
YBBN,2010-05-01 04:00,153.1292,-27.3917,77.00,60.80,57.36,120.00,9.00,M,30.18,M,6.21,M,FEW,M,M,M,3500.00,M,M,M,M,YBBN 010400Z 12009KT 9999 FEW035 25/16 Q1022 NOSIG
YBBN,2010-05-01 04:30,153.1292,-27.3917,77.00,60.80,57.36,110.00,9.00,M,30.18,M,6.21,M,FEW,M,M,M,3500.00,M,M,M,M,YBBN 010430Z 11009KT 9999 FEW035 25/16 Q1022 NOSIG
YBBN,2010-05-01 05:00,153.1292,-27.3917,75.20,62.60,64.91,110.00,11.00,M,30.18,M,6.21,M,SCT,M,M,M,3500.00,M,M,M,M,YBBN 010500Z 11011KT 9999 SCT035 24/17 Q1022 NOSIG
YBBN,2010-05-01 05:30,153.1292,-27.3917,75.20,60.80,60.90,100.00,8.00,M,30.18,M,6.21,M,FEW,M,M,M,3500.00,M,M,M,M,YBBN 010530Z 10008KT 9999 FEW035 24/16 Q1022 NOSIG
YBBN,2010-05-01 06:00,153.1292,-27.3917,75.20,62.60,64.91,100.00,8.00,M,30.18,M,6.21,M,FEW,SCT,M,M,3500.00,9600.00,M,M,M,YBBN 010600Z 10008KT 9999 FEW035 SCT096 24/17 Q1022 NOSIG
YBBN,2010-05-01 06:30,153.1292,-27.3917,73.40,62.60,68.94,110.00,7.00,M,30.21,M,6.21,M,FEW,SCT,M,M,3500.00,9600.00,M,M,M,YBBN 010630Z 11007KT 9999 FEW035 SCT096 23/17 Q1023 NOSIG
YBBN,2010-05-01 07:00,153.1292,-27.3917,73.40,62.60,68.94,90.00,5.00,M,30.21,M,6.21,M,FEW,SCT,M,M,3300.00,9600.00,M,M,M,YBBN 010700Z 09005KT 9999 FEW033 SCT096 23/17 Q1023 NOSIG
YBBN,2010-05-01 07:30,153.1292,-27.3917,71.60,64.40,78.04,100.00,4.00,M,30.21,M,6.21,M,FEW,BKN,M,M,3000.00,9900.00,M,M,M,YBBN 010730Z 10004KT 9999 FEW030 BKN099 22/18 Q1023 NOSIG
YBBN,2010-05-01 08:00,153.1292,-27.3917,71.60,64.40,78.04,100.00,3.00,M,30.24,M,6.21,M,FEW,BKN,M,M,3000.00,10000.00,M,M,M,YBBN 010800Z 10003KT 9999 FEW030 BKN100 22/18 Q1024 NOSIG
YBBN,2010-05-01 08:30,153.1292,-27.3917,71.60,62.60,73.27,110.00,7.00,M,30.24,M,6.21,M,FEW,BKN,M,M,3000.00,10000.00,M,M,M,YBBN 010830Z 11007KT 9999 FEW030 BKN100 22/17 Q1024 NOSIG
YBBN,2010-05-01 09:00,153.1292,-27.3917,71.60,62.60,73.27,100.00,6.00,M,30.27,M,6.21,M,FEW,BKN,M,M,3000.00,10000.00,M,M,M,YBBN 010900Z 10006KT 9999 FEW030 BKN100 22/17 Q1025 NOSIG
YBBN,2010-05-01 09:30,153.1292,-27.3917,71.60,60.80,68.75,80.00,6.00,M,30.27,M,6.21,M,FEW,BKN,M,M,3000.00,10000.00,M,M,M,YBBN 010930Z 08006KT 9999 FEW030 BKN100 22/16 Q1025 NOSIG
YBBN,2010-05-01 10:00,153.1292,-27.3917,71.60,60.80,68.75,100.00,5.00,M,30.27,M,6.21,M,FEW,BKN,M,M,3000.00,10000.00,M,M,M,YBBN 011000Z 10005KT 9999 FEW030 BKN100 22/16 Q1025 NOSIG
YBBN,2010-05-01 10:30,153.1292,-27.3917,71.60,59.00,64.48,110.00,3.00,M,30.27,M,6.21,M,FEW,BKN,M,M,2500.00,9800.00,M,M,M,YBBN 011030Z 11003KT 9999 FEW025 BKN098 22/15 Q1025 NOSIG
YBBN,2010-05-01 11:00,153.1292,-27.3917,71.60,60.80,68.75,110.00,3.00,M,30.27,M,6.21,M,FEW,BKN,M,M,3000.00,9800.00,M,M,M,YBBN 011100Z 11003KT 9999 FEW030 BKN098 22/16 Q1025 NOSIG
YBBN,2010-05-01 11:30,153.1292,-27.3917,71.60,60.80,68.75,140.00,3.00,M,30.27,M,6.21,M,FEW,BKN,M,M,3000.00,9800.00,M,M,M,YBBN 011130Z 14003KT 9999 FEW030 BKN098 22/16 Q1025 NOSIG
YBBN,2010-05-01 12:00,153.1292,-27.3917,69.80,60.80,73.09,170.00,5.00,M,30.27,M,6.21,M,FEW,BKN,M,M,3000.00,10000.00,M,M,M,YBBN 011200Z 17005KT 9999 FEW030 BKN100 21/16 Q1025 NOSIG
YBBN,2010-05-01 12:30,153.1292,-27.3917,68.00,60.80,77.75,200.00,4.00,M,30.27,M,6.21,M,FEW,SCT,BKN,M,3000.00,8500.00,10000.00,M,M,YBBN 011230Z 20004KT 9999 FEW030 SCT085 BKN100 20/16 Q1025 NOSIG
YBBN,2010-05-01 13:00,153.1292,-27.3917,68.00,62.60,82.86,200.00,4.00,M,30.27,M,6.21,M,FEW,BKN,M,M,3000.00,10000.00,M,M,M,YBBN 011300Z 20004KT 9999 FEW030 BKN100 20/17 Q1025 NOSIG
YBBN,2010-05-01 13:30,153.1292,-27.3917,68.00,60.80,77.75,200.00,5.00,M,30.27,M,6.21,M,FEW,SCT,M,M,3000.00,9700.00,M,M,M,YBBN 011330Z 20005KT 9999 FEW030 SCT097 20/16 Q1025 NOSIG
YBBN,2010-05-01 14:00,153.1292,-27.3917,68.00,62.60,82.86,200.00,5.00,M,30.24,M,6.21,M,FEW,BKN,M,M,3000.00,9500.00,M,M,M,YBBN 011400Z 20005KT 9999 FEW030 BKN095 20/17 Q1024 NOSIG
YBBN,2010-05-01 14:30,153.1292,-27.3917,68.00,62.60,82.86,210.00,4.00,M,30.24,M,6.21,M,FEW,SCT,M,M,3000.00,4000.00,M,M,M,YBBN 011430Z 21004KT 9999 FEW030 SCT040 20/17 Q1024 NOSIG
YBBN,2010-05-01 15:00,153.1292,-27.3917,66.20,60.80,82.74,210.00,6.00,M,30.24,M,6.21,M,FEW,M,M,M,3000.00,M,M,M,M,YBBN 011500Z 21006KT 9999 FEW030 19/16 Q1024 NOSIG
YBBN,2010-05-01 15:30,153.1292,-27.3917,64.40,62.60,93.88,210.00,6.00,M,30.24,M,6.21,M,FEW,SCT,M,M,3000.00,4000.00,M,M,M,YBBN 011530Z 21006KT 9999 FEW030 SCT040 18/17 Q1024 NOSIG
YBBN,2010-05-01 16:00,153.1292,-27.3917,64.40,62.60,93.88,210.00,7.00,M,30.24,M,6.21,M,FEW,SCT,M,M,3000.00,4500.00,M,M,M,YBBN 011600Z 21007KT 9999 FEW030 SCT045 18/17 Q1024 NOSIG
YBBN,2010-05-01 16:30,153.1292,-27.3917,64.40,62.60,93.88,210.00,7.00,M,30.24,M,6.21,M,FEW,SCT,M,M,3000.00,4500.00,M,M,M,YBBN 011630Z 21007KT 9999 FEW030 SCT045 18/17 Q1024 NOSIG
YBBN,2010-05-01 17:00,153.1292,-27.3917,64.40,60.80,88.09,220.00,7.00,M,30.21,M,6.21,M,FEW,BKN,M,M,2500.00,9300.00,M,M,M,YBBN 011700Z 22007KT 9999 FEW025 BKN093 18/16 Q1023 NOSIG
YBBN,2010-05-01 17:30,153.1292,-27.3917,66.20,62.60,88.18,200.00,5.00,M,30.21,M,6.21,M,FEW,SCT,BKN,M,2500.00,3800.00,7800.00,M,VCSH,YBBN 011730Z 20005KT 9999 VCSH FEW025 SCT038 BKN078 19/17 Q1023 NOSIG
YBBN,2010-05-01 18:00,153.1292,-27.3917,66.20,62.60,88.18,220.00,7.00,M,30.21,M,6.21,M,FEW,BKN,M,M,2500.00,9500.00,M,M,M,YBBN 011800Z 22007KT 9999 FEW025 BKN095 19/17 Q1023 NOSIG
YBBN,2010-05-01 18:30,153.1292,-27.3917,64.40,62.60,93.88,220.00,6.00,M,30.21,M,6.21,M,FEW,SCT,BKN,M,2500.00,3500.00,9600.00,M,VCSH,YBBN 011830Z 22006KT 9999 VCSH FEW025 SCT035 BKN096 18/17 Q1023 NOSIG
YBBN,2010-05-01 19:00,153.1292,-27.3917,64.40,62.60,93.88,220.00,6.00,M,30.24,M,6.21,M,FEW,SCT,BKN,M,2500.00,3500.00,9600.00,M,M,YBBN 011900Z 22006KT 9999 FEW025 SCT035 BKN096 18/17 Q1024 NOSIG
YBBN,2010-05-01 19:30,153.1292,-27.3917,64.40,62.60,93.88,220.00,7.00,M,30.24,M,6.21,M,FEW,BKN,M,M,2500.00,9600.00,M,M,M,YBBN 011930Z 22007KT 9999 FEW025 BKN096 18/17 Q1024 NOSIG
YBBN,2010-05-01 20:00,153.1292,-27.3917,64.40,60.80,88.09,220.00,7.00,M,30.24,M,6.21,M,FEW,BKN,M,M,2500.00,9500.00,M,M,M,YBBN 012000Z 22007KT 9999 FEW025 BKN095 18/16 Q1024 NOSIG
YBBN,2010-05-01 20:30,153.1292,-27.3917,62.60,60.80,93.83,220.00,7.00,M,30.27,M,6.21,M,FEW,M,M,M,2500.00,M,M,M,M,YBBN 012030Z 22007KT 9999 FEW025 17/16 Q1025 NOSIG
YBBN,2010-05-01 21:00,153.1292,-27.3917,64.40,60.80,88.09,210.00,7.00,M,30.27,M,6.21,M,FEW,M,M,M,2500.00,M,M,M,M,YBBN 012100Z 21007KT 9999 FEW025 18/16 Q1025 NOSIG
YBBN,2010-05-01 21:30,153.1292,-27.3917,66.20,62.60,88.18,220.00,9.00,M,30.27,M,6.21,M,FEW,M,M,M,2500.00,M,M,M,M,YBBN 012130Z 22009KT 9999 FEW025 19/17 Q1025 NOSIG
YBBN,2010-05-01 22:00,153.1292,-27.3917,69.80,62.60,77.90,210.00,7.00,M,30.27,M,6.21,M,FEW,M,M,M,2500.00,M,M,M,M,YBBN 012200Z 21007KT 9999 FEW025 21/17 Q1025 NOSIG
YBBN,2010-05-01 22:30,153.1292,-27.3917,71.60,62.60,73.27,210.00,7.00,M,30.30,M,6.21,M,FEW,M,M,M,2700.00,M,M,M,M,YBBN 012230Z 21007KT 9999 FEW027 22/17 Q1026 NOSIG
YBBN,2010-05-01 23:00,153.1292,-27.3917,73.40,62.60,68.94,200.00,6.00,M,30.30,M,6.21,M,FEW,M,M,M,3000.00,M,M,M,M,YBBN 012300Z 20006KT 9999 FEW030 23/17 Q1026 NOSIG
YBBN,2010-05-01 23:30,153.1292,-27.3917,75.20,62.60,64.91,180.00,6.00,M,30.30,M,6.21,M,FEW,SCT,M,M,3000.00,9000.00,M,M,M,YBBN 012330Z 18006KT 9999 FEW030 SCT090 24/17 Q1026 NOSIG
