#DEBUG: Format Typ    -> comma
#DEBUG: Time Period   -> 2010-02-27 00:00:00+00:00 2010-02-28 00:00:00+00:00
#DEBUG: Time Zone     -> Etc/UTC
#DEBUG: Data Contact   -> daryl herzmann akrherz@iastate.edu 515-294-5978
#DEBUG: Entries Found -> -1
station,valid,lon,lat,tmpf, dwpf, relh, drct, sknt, p01i, alti, mslp, vsby, gust, skyc1, skyc2, skyc3, skyc4, skyl1, skyl2, skyl3, skyl4, presentwx, metar
YBBN,2010-02-27 03:30,153.1292,-27.3917,78.80,69.80,73.95,140.00,12.00,M,30.00,M,6.21,M,FEW,BKN,FEW,M,1400.00,4000.00,2200.00,M,-SHRA,YBBN 270330Z 14012KT 9999 -SHRA FEW014 BKN040 FEW022TCU 26/21 Q1016 RMK CB TOP TO NE INTER 0330/0630 3000 SHRA BKN012
YBBN,2010-02-27 22:30,153.1292,-27.3917,78.80,73.40,83.55,130.00,6.00,M,30.00,M,6.21,M,SCT,M,M,M,1900.00,M,M,M,M,YBBN 272230Z 13006KT 9999 SCT019 26/23 Q1016 RMK CB TOP TO SW INTER 2230/0130 3000 SHRA SCT010 BKN020
