#DEBUG: Format Typ    -> comma
#DEBUG: Time Period   -> 2012-02-22 00:00:00+00:00 2012-02-23 00:00:00+00:00
#DEBUG: Time Zone     -> Etc/UTC
#DEBUG: Data Contact   -> daryl herzmann akrherz@iastate.edu 515-294-5978
#DEBUG: Entries Found -> -1
station,valid,lon,lat,tmpf, dwpf, relh, drct, sknt, p01i, alti, mslp, vsby, gust, skyc1, skyc2, skyc3, skyc4, skyl1, skyl2, skyl3, skyl4, presentwx, metar
YBBN,2012-02-22 00:00,153.1292,-27.3917,80.60,64.40,57.84,80.00,10.00,0.00,29.94,M,6.21,M,FEW,SCT,M,M,3000.00,30000.00,M,M,M,YBBN 220000Z 08010KT 9999 FEW030 SCT300 27/18 Q1014
YBBN,2012-02-22 00:30,153.1292,-27.3917,80.60,64.40,57.84,120.00,11.00,0.00,29.94,M,6.21,M,FEW,BKN,M,M,3000.00,30000.00,M,M,M,YBBN 220030Z 12011KT 9999 FEW030 BKN300 27/18 Q1014
YBBN,2012-02-22 01:00,153.1292,-27.3917,80.60,64.40,57.84,90.00,9.00,0.00,29.91,M,6.21,M,FEW,SCT,BKN,M,3000.00,11500.00,30000.00,M,M,YBBN 220100Z 09009KT 9999 FEW030 SCT115 BKN300 27/18 Q1013 NOSIG
YBBN,2012-02-22 01:30,153.1292,-27.3917,80.60,64.40,57.84,90.00,11.00,0.00,29.91,M,6.21,M,FEW,BKN,M,M,3200.00,30000.00,M,M,M,YBBN 220130Z 09011KT 9999 FEW032 BKN300 27/18 Q1013
YBBN,2012-02-22 02:00,153.1292,-27.3917,80.60,64.40,57.84,110.00,12.00,0.00,29.91,M,6.21,M,FEW,BKN,M,M,3200.00,30000.00,M,M,M,YBBN 220200Z 11012KT 9999 FEW032 BKN300 27/18 Q1013 NOSIG
YBBN,2012-02-22 02:30,153.1292,-27.3917,80.60,66.20,61.58,90.00,11.00,0.00,29.91,M,6.21,M,FEW,BKN,M,M,3300.00,30000.00,M,M,M,YBBN 220230Z 09011KT 9999 FEW033 BKN300 27/19 Q1013
YBBN,2012-02-22 03:00,153.1292,-27.3917,80.60,68.00,65.54,100.00,12.00,0.00,29.91,M,6.21,M,FEW,BKN,BKN,M,3200.00,11000.00,30000.00,M,M,YBBN 220300Z 10012KT 9999 FEW032 BKN110 BKN300 27/20 Q1013 NOSIG
YBBN,2012-02-22 03:30,153.1292,-27.3917,80.60,68.00,65.54,100.00,11.00,0.00,29.91,M,6.21,M,FEW,BKN,M,M,3200.00,11000.00,M,M,M,YBBN 220330Z 10011KT 9999 FEW032 BKN110 27/20 Q1013
YBBN,2012-02-22 04:00,153.1292,-27.3917,80.60,68.00,65.54,100.00,12.00,0.00,29.88,M,6.21,M,FEW,BKN,M,M,3200.00,30000.00,M,M,M,YBBN 220400Z 10012KT 9999 FEW032 BKN300 27/20 Q1012 NOSIG
YBBN,2012-02-22 04:30,153.1292,-27.3917,80.60,68.00,65.54,90.00,11.00,0.00,29.88,M,6.21,M,FEW,BKN,M,M,3200.00,30000.00,M,M,M,YBBN 220430Z 09011KT 9999 FEW032 BKN300 27/20 Q1012
YBBN,2012-02-22 05:00,153.1292,-27.3917,80.60,68.00,65.54,100.00,11.00,0.00,29.88,M,6.21,M,FEW,BKN,M,M,3200.00,30000.00,M,M,M,YBBN 220500Z 10011KT 9999 FEW032 BKN300 27/20 Q1012
YBBN,2012-02-22 05:30,153.1292,-27.3917,80.60,68.00,65.54,110.00,10.00,0.00,29.88,M,6.21,M,SCT,BKN,M,M,2500.00,30000.00,M,M,M,YBBN 220530Z 11010KT 9999 SCT025 BKN300 27/20 Q1012
YBBN,2012-02-22 06:00,153.1292,-27.3917,78.80,68.00,69.52,100.00,9.00,0.00,29.88,M,6.21,M,SCT,BKN,M,M,2200.00,30000.00,M,M,M,YBBN 220600Z 10009KT 9999 SCT022 BKN300 26/20 Q1012
YBBN,2012-02-22 06:30,153.1292,-27.3917,78.80,68.00,69.52,90.00,10.00,0.00,29.88,M,6.21,M,SCT,BKN,M,M,2200.00,30000.00,M,M,M,YBBN 220630Z 09010KT 9999 SCT022 BKN300 26/20 Q1012
YBBN,2012-02-22 07:00,153.1292,-27.3917,77.00,68.00,73.78,80.00,11.00,0.00,29.88,M,6.21,M,FEW,SCT,BKN,M,1500.00,2000.00,30000.00,M,VCSH,YBBN 220700Z 08011KT 9999 VCSH FEW015 SCT020 BKN300 25/20 Q1012
YBBN,2012-02-22 07:30,153.1292,-27.3917,77.00,68.00,73.78,80.00,10.00,0.00,29.88,M,6.21,M,FEW,SCT,BKN,M,1500.00,2200.00,9500.00,M,VCSH,YBBN 220730Z 08010KT 9999 VCSH FEW015 SCT022 BKN095 25/20 Q1012
YBBN,2012-02-22 08:00,153.1292,-27.3917,77.00,68.00,73.78,80.00,10.00,0.00,29.91,M,5.59,M,FEW,SCT,BKN,M,1500.00,2400.00,11000.00,M,VCSH,YBBN 220800Z 08010KT 9000 VCSH FEW015 SCT024 BKN110 25/20 Q1013
YBBN,2012-02-22 08:30,153.1292,-27.3917,75.20,69.80,83.32,80.00,10.00,0.00,29.91,M,4.97,M,FEW,SCT,BKN,M,1500.00,2200.00,11000.00,M,VCSH,YBBN 220830Z 08010KT 8000 VCSH FEW015 SCT022 BKN110 24/21 Q1013 RMK +SHRA TO DIST W
YBBN,2012-02-22 09:00,153.1292,-27.3917,75.20,69.80,83.32,150.00,5.00,0.00,29.94,M,3.11,M,FEW,SCT,BKN,M,1500.00,2400.00,11000.00,M,-SHRA VCSH,YBBN 220900Z 15005KT 5000 -SHRA VCSH FEW015 SCT024 BKN110 24/21 Q1014
YBBN,2012-02-22 09:30,153.1292,-27.3917,75.20,69.80,83.32,80.00,8.00,0.00,29.94,M,3.11,M,FEW,BKN,M,M,1700.00,2400.00,M,M,-SHRA VCSH,YBBN 220930Z 08008KT 5000 -SHRA VCSH FEW017 BKN024 24/21 Q1014
YBBN,2012-02-22 10:00,153.1292,-27.3917,75.20,69.80,83.32,90.00,7.00,0.00,29.94,M,4.35,M,FEW,SCT,BKN,M,1700.00,2200.00,11000.00,M,-SHRA VCSH,YBBN 221000Z 09007KT 7000 -SHRA VCSH FEW017 SCT022 BKN110 24/21 Q1014
YBBN,2012-02-22 10:30,153.1292,-27.3917,75.20,69.80,83.32,80.00,6.00,0.00,29.97,M,4.97,M,FEW,SCT,BKN,M,1700.00,2400.00,11000.00,M,-SHRA VCSH,YBBN 221030Z 08006KT 8000 -SHRA VCSH FEW017 SCT024 BKN110 24/21 Q1015
YBBN,2012-02-22 11:00,153.1292,-27.3917,75.20,69.80,83.32,90.00,5.00,0.00,29.97,M,4.97,M,SCT,BKN,M,M,2400.00,11000.00,M,M,-SHRA VCSH,YBBN 221100Z 09005KT 8000 -SHRA VCSH SCT024 BKN110 24/21 Q1015 INTER 1100/1400 3000 SHRA BKN015
YBBN,2012-02-22 11:30,153.1292,-27.3917,75.20,69.80,83.32,90.00,5.00,0.00,29.97,M,6.21,M,FEW,BKN,M,M,2400.00,11000.00,M,M,-SHRA VCSH,YBBN 221130Z 09005KT 9999 -SHRA VCSH FEW024 BKN110 24/21 Q1015
YBBN,2012-02-22 12:00,153.1292,-27.3917,75.20,68.00,78.34,90.00,5.00,0.00,30.00,M,4.97,M,FEW,BKN,M,M,2500.00,11000.00,M,M,-SHRA VCSH,YBBN 221200Z 09005KT 8000 -SHRA VCSH FEW025 BKN110 24/20 Q1016
YBBN,2012-02-22 12:30,153.1292,-27.3917,75.20,68.00,78.34,90.00,6.00,0.00,30.00,M,4.97,M,FEW,BKN,M,M,2500.00,9000.00,M,M,-RA VCSH,YBBN 221230Z 09006KT 8000 -RA VCSH FEW025 BKN090 24/20 Q1016
YBBN,2012-02-22 13:00,153.1292,-27.3917,73.40,69.80,88.51,90.00,5.00,0.00,30.00,M,4.97,M,FEW,SCT,BKN,M,3100.00,4600.00,9000.00,M,RA,YBBN 221300Z 09005KT 8000 RA FEW031 SCT046 BKN090 23/21 Q1016 INTER 1300/1600 3000 SHRA BKN015
YBBN,2012-02-22 13:30,153.1292,-27.3917,73.40,69.80,88.51,80.00,4.00,0.00,30.00,M,4.97,M,FEW,BKN,M,M,2800.00,13000.00,M,M,-RA,YBBN 221330Z 08004KT 8000 -RA FEW028 BKN130 23/21 Q1016
YBBN,2012-02-22 14:00,153.1292,-27.3917,73.40,69.80,88.51,190.00,3.00,0.00,30.00,M,4.97,M,SCT,BKN,M,M,2600.00,12000.00,M,M,-RA,YBBN 221400Z 19003KT 8000 -RA SCT026 BKN120 23/21 Q1016
YBBN,2012-02-22 14:30,153.1292,-27.3917,73.40,69.80,88.51,210.00,5.00,0.00,29.97,M,6.21,M,FEW,BKN,M,M,2400.00,11000.00,M,M,-RA,YBBN 221430Z 21005KT 9999 -RA FEW024 BKN110 23/21 Q1015
YBBN,2012-02-22 15:00,153.1292,-27.3917,71.60,69.80,94.06,190.00,5.00,0.00,29.97,M,6.21,M,FEW,BKN,M,M,2400.00,12000.00,M,M,-RA,YBBN 221500Z 19005KT 9999 -RA FEW024 BKN120 22/21 Q1015 INTER 1500/1800 3000 SHRA BKN015
YBBN,2012-02-22 15:30,153.1292,-27.3917,71.60,69.80,94.06,150.00,6.00,0.00,29.97,M,6.21,M,FEW,BKN,M,M,2200.00,11000.00,M,M,-RA,YBBN 221530Z 15006KT 9999 -RA FEW022 BKN110 22/21 Q1015
YBBN,2012-02-22 16:00,153.1292,-27.3917,71.60,69.80,94.06,170.00,6.00,0.00,29.97,M,6.21,M,FEW,BKN,M,M,2200.00,11000.00,M,M,-RA,YBBN 221600Z 17006KT 9999 -RA FEW022 BKN110 22/21 Q1015
YBBN,2012-02-22 16:30,153.1292,-27.3917,71.60,69.80,94.06,160.00,6.00,0.00,29.97,M,6.21,M,FEW,BKN,M,M,2200.00,11000.00,M,M,-RA,YBBN 221630Z 16006KT 9999 -RA FEW022 BKN110 22/21 Q1015
YBBN,2012-02-22 17:00,153.1292,-27.3917,71.60,69.80,94.06,150.00,6.00,0.00,29.97,M,4.97,M,FEW,SCT,BKN,M,2200.00,6000.00,11000.00,M,-RA,YBBN 221700Z 15006KT 8000 -RA FEW022 SCT060 BKN110 22/21 Q1015 INTER 1700/2000 3000 SHRA BKN015
YBBN,2012-02-22 17:30,153.1292,-27.3917,71.60,69.80,94.06,160.00,6.00,0.00,29.97,M,3.11,M,FEW,SCT,BKN,M,800.00,2000.00,11000.00,M,RA,YBBN 221730Z 16006KT 5000 RA FEW008 SCT020 BKN110 22/21 Q1015 FM1815 16007KT 9999 -RA SCT020 SCT040 BKN110 INTER 1800/2100 3000 SHRA BKN015
YBBN,2012-02-22 18:00,153.1292,-27.3917,71.60,69.80,94.06,100.00,5.00,0.00,29.97,M,3.73,M,FEW,SCT,BKN,M,500.00,800.00,11000.00,M,RA,YBBN 221800Z 10005KT 6000 RA FEW005 SCT008 BKN110 22/21 Q1015
YBBN,2012-02-22 18:29,153.1292,-27.3917,69.80,68.00,94.01,160.00,5.00,0.00,29.97,M,6.21,M,FEW,BKN,M,M,800.00,11000.00,M,M,-RA,YBBN 221829Z 16005KT 9999 -RA FEW008 BKN110 21/20 Q1015
YBBN,2012-02-22 19:00,153.1292,-27.3917,69.80,68.00,94.01,190.00,6.00,0.00,29.97,M,6.21,M,FEW,SCT,BKN,M,800.00,6700.00,11000.00,M,VCSH,YBBN 221900Z 19006KT 9999 VCSH FEW008 SCT067 BKN110 21/20 Q1015 INTER 1900/2200 3000 SHRA BKN015
YBBN,2012-02-22 19:30,153.1292,-27.3917,69.80,68.00,94.01,190.00,6.00,0.00,30.00,M,6.21,M,FEW,SCT,BKN,M,2200.00,7300.00,11000.00,M,M,YBBN 221930Z 19006KT 9999 FEW022 SCT073 BKN110 21/20 Q1016
YBBN,2012-02-22 20:00,153.1292,-27.3917,69.80,68.00,94.01,190.00,7.00,0.00,30.00,M,6.21,M,SCT,SCT,BKN,M,1600.00,7300.00,11000.00,M,-RA,YBBN 222000Z 19007KT 9999 -RA SCT016 SCT073 BKN110 21/20 Q1016 INTER 2000/2300 3000 SHRA BKN015
YBBN,2012-02-22 20:30,153.1292,-27.3917,69.80,68.00,94.01,200.00,7.00,0.00,30.00,M,5.59,M,FEW,SCT,BKN,M,1500.00,3300.00,8800.00,M,-DZ,YBBN 222030Z 20007KT 9000 -DZ FEW015 SCT033 BKN088 21/20 Q1016
YBBN,2012-02-22 21:00,153.1292,-27.3917,69.80,68.00,94.01,190.00,8.00,0.00,30.03,M,6.21,M,FEW,SCT,OVC,M,1500.00,4500.00,8500.00,M,VCSH,YBBN 222100Z 19008KT 9999 VCSH FEW015 SCT045 OVC085 21/20 Q1017 INTER 2100/2400 3000 SHRA BKN015
YBBN,2012-02-22 21:30,153.1292,-27.3917,69.80,68.00,94.01,180.00,7.00,0.00,30.03,M,6.21,M,FEW,SCT,OVC,M,1500.00,2500.00,8500.00,M,VCSH,YBBN 222130Z 18007KT 9999 VCSH FEW015 SCT025 OVC085 21/20 Q1017
YBBN,2012-02-22 22:00,153.1292,-27.3917,71.60,68.00,88.43,170.00,6.00,0.00,30.03,M,6.21,M,FEW,OVC,M,M,1500.00,9000.00,M,M,M,YBBN 222200Z 17006KT 9999 FEW015 OVC090 22/20 Q1017
YBBN,2012-02-22 22:30,153.1292,-27.3917,71.60,68.00,88.43,180.00,9.00,0.00,30.06,M,6.21,M,FEW,SCT,OVC,M,2500.00,4500.00,9000.00,M,-SHRA,YBBN 222230Z 18009KT 9999 4000NE -SHRA FEW025 SCT045 OVC090 22/20 Q1018
YBBN,2012-02-22 23:00,153.1292,-27.3917,73.40,68.00,83.21,170.00,7.00,0.00,30.06,M,6.21,M,FEW,SCT,BKN,M,1700.00,4000.00,9000.00,M,VCSH,YBBN 222300Z 17007KT 9999 VCSH FEW017 SCT040 BKN090 23/20 Q1018
YBBN,2012-02-22 23:30,153.1292,-27.3917,73.40,68.00,83.21,180.00,8.00,0.00,30.06,M,6.21,M,FEW,OVC,M,M,1700.00,9000.00,M,M,M,YBBN 222330Z 18008KT 9999 FEW017 OVC090 23/20 Q1018
