#DEBUG: Format Typ    -> comma
#DEBUG: Time Period   -> 2014-11-26 00:00:00+00:00 2014-11-27 00:00:00+00:00
#DEBUG: Time Zone     -> Etc/UTC
#DEBUG: Data Contact   -> daryl herzmann akrherz@iastate.edu 515-294-5978
#DEBUG: Entries Found -> -1
station,valid,lon,lat,tmpf, dwpf, relh, drct, sknt, p01i, alti, mslp, vsby, gust, skyc1, skyc2, skyc3, skyc4, skyl1, skyl2, skyl3, skyl4, presentwx, metar
YBBN,2014-11-26 00:00,153.1292,-27.3917,78.80,66.20,65.33,10.00,13.00,0.00,30.03,M,6.21,M,FEW,BKN,M,M,1600.00,6000.00,M,M,VCSH,YBBN 260000Z 01013KT 9999 VCSH FEW016 BKN060 26/19 Q1017 INTER 0000/0200 3000 SHRA BKN012
YBBN,2014-11-26 00:30,153.1292,-27.3917,80.60,66.20,61.58,10.00,14.00,0.00,30.00,M,6.21,M,FEW,BKN,M,M,1600.00,5700.00,M,M,M,YBBN 260030Z 01014KT 9999 FEW016 BKN057 27/19 Q1016
YBBN,2014-11-26 01:00,153.1292,-27.3917,80.60,66.20,61.58,10.00,13.00,0.00,30.00,M,6.21,M,FEW,BKN,M,M,1600.00,5700.00,M,M,M,YBBN 260100Z 01013KT 9999 FEW016 BKN057 27/19 Q1016 INTER 0100/0200 3000 SHRA BKN012
YBBN,2014-11-26 01:30,153.1292,-27.3917,82.40,66.20,58.08,10.00,13.00,0.00,30.00,M,6.21,M,FEW,BKN,M,M,2000.00,28000.00,M,M,M,YBBN 260130Z 01013KT 9999 FEW020 BKN280 28/19 Q1016
YBBN,2014-11-26 02:00,153.1292,-27.3917,82.40,64.40,54.55,10.00,14.00,0.00,30.00,M,6.21,M,FEW,SCT,BKN,M,2000.00,8100.00,28000.00,M,M,YBBN 260200Z 01014KT 9999 FEW020 SCT081 BKN280 28/18 Q1016 NOSIG
YBBN,2014-11-26 02:30,153.1292,-27.3917,82.40,66.20,58.08,10.00,15.00,0.00,29.97,M,6.21,M,FEW,SCT,BKN,M,2000.00,7100.00,28000.00,M,M,YBBN 260230Z 01015KT 9999 FEW020 SCT071 BKN280 28/19 Q1015
YBBN,2014-11-26 03:00,153.1292,-27.3917,80.60,66.20,61.58,20.00,15.00,0.00,29.97,M,6.21,M,FEW,BKN,M,M,2000.00,28000.00,M,M,M,YBBN 260300Z 02015KT 9999 FEW020 BKN280 27/19 Q1015 NOSIG
YBBN,2014-11-26 03:30,153.1292,-27.3917,80.60,68.00,65.54,10.00,14.00,0.00,29.97,M,6.21,M,FEW,BKN,M,M,2000.00,28000.00,M,M,M,YBBN 260330Z 01014KT 9999 FEW020 BKN280 27/20 Q1015
YBBN,2014-11-26 04:00,153.1292,-27.3917,80.60,68.00,65.54,10.00,14.00,0.00,29.97,M,6.21,M,FEW,BKN,M,M,2000.00,28000.00,M,M,M,YBBN 260400Z 01014KT 9999 FEW020 BKN280 27/20 Q1015 NOSIG
YBBN,2014-11-26 04:30,153.1292,-27.3917,82.40,68.00,61.81,20.00,13.00,0.00,29.97,M,6.21,M,FEW,BKN,M,M,2000.00,28000.00,M,M,M,YBBN 260430Z 02013KT 9999 FEW020 BKN280 28/20 Q1015
YBBN,2014-11-26 05:00,153.1292,-27.3917,80.60,71.60,74.11,10.00,13.00,0.00,29.94,M,6.21,M,FEW,BKN,M,M,2600.00,28000.00,M,M,M,YBBN 260500Z 01013KT 9999 FEW026 BKN280 27/22 Q1014 NOSIG
YBBN,2014-11-26 05:30,153.1292,-27.3917,80.60,68.00,65.54,10.00,12.00,0.00,29.94,M,6.21,M,FEW,BKN,M,M,2600.00,28000.00,M,M,M,YBBN 260530Z 01012KT 9999 FEW026 BKN280 27/20 Q1014
YBBN,2014-11-26 06:00,153.1292,-27.3917,78.80,68.00,69.52,10.00,12.00,0.00,29.97,M,6.21,M,FEW,BKN,M,M,2600.00,26000.00,M,M,M,YBBN 260600Z 01012KT 9999 FEW026 BKN260 26/20 Q1015 NOSIG
YBBN,2014-11-26 06:30,153.1292,-27.3917,78.80,68.00,69.52,20.00,9.00,0.00,29.97,M,6.21,M,FEW,BKN,M,M,2600.00,26000.00,M,M,M,YBBN 260630Z 02009KT 9999 FEW026 BKN260 26/20 Q1015
YBBN,2014-11-26 07:00,153.1292,-27.3917,78.80,68.00,69.52,20.00,8.00,0.00,29.97,M,6.21,M,M,M,M,M,M,M,M,M,M,YBBN 260700Z 02008KT CAVOK 26/20 Q1015 NOSIG
YBBN,2014-11-26 07:30,153.1292,-27.3917,78.80,66.20,65.33,40.00,9.00,0.00,29.97,M,6.21,M,FEW,SCT,BKN,M,2500.00,9000.00,26000.00,M,M,YBBN 260730Z 04009KT 9999 FEW025 SCT090 BKN260 26/19 Q1015
YBBN,2014-11-26 08:00,153.1292,-27.3917,77.00,66.20,69.33,40.00,7.00,0.00,30.00,M,6.21,M,FEW,SCT,BKN,M,2500.00,9800.00,26000.00,M,M,YBBN 260800Z 04007KT 9999 FEW025 SCT098 BKN260 25/19 Q1016
YBBN,2014-11-26 08:30,153.1292,-27.3917,77.00,64.40,65.12,50.00,5.00,0.00,30.00,M,6.21,M,FEW,SCT,BKN,M,2500.00,9500.00,26000.00,M,M,YBBN 260830Z 05005KT 9999 FEW025 SCT095 BKN260 25/18 Q1016
YBBN,2014-11-26 09:00,153.1292,-27.3917,77.00,66.20,69.33,50.00,5.00,0.00,30.00,M,6.21,M,FEW,SCT,BKN,M,2500.00,10000.00,25000.00,M,M,YBBN 260900Z 05005KT 9999 FEW025 SCT100 BKN250 25/19 Q1016 NOSIG
YBBN,2014-11-26 09:30,153.1292,-27.3917,77.00,66.20,69.33,50.00,5.00,0.00,30.03,M,6.21,M,FEW,BKN,M,M,2200.00,9500.00,M,M,M,YBBN 260930Z 05005KT 9999 FEW022 BKN095 25/19 Q1017
YBBN,2014-11-26 10:00,153.1292,-27.3917,75.20,68.00,78.34,30.00,4.00,0.00,30.03,M,6.21,M,FEW,M,M,M,2500.00,M,M,M,M,YBBN 261000Z 03004KT 9999 FEW025 24/20 Q1017
YBBN,2014-11-26 10:30,153.1292,-27.3917,75.20,68.00,78.34,360.00,6.00,0.00,30.03,M,6.21,M,FEW,BKN,BKN,M,1800.00,7500.00,9500.00,M,M,YBBN 261030Z 36006KT 9999 FEW018 BKN075 BKN095 24/20 Q1017
YBBN,2014-11-26 11:00,153.1292,-27.3917,75.20,68.00,78.34,10.00,3.00,0.00,30.03,M,6.21,M,SCT,BKN,M,M,2200.00,9500.00,M,M,M,YBBN 261100Z 01003KT 9999 SCT022 BKN095 24/20 Q1017
YBBN,2014-11-26 11:30,153.1292,-27.3917,75.20,68.00,78.34,30.00,4.00,0.00,30.03,M,6.21,M,FEW,BKN,M,M,1100.00,10000.00,M,M,M,YBBN 261130Z 03004KT 9999 FEW011 BKN100 24/20 Q1017
YBBN,2014-11-26 12:00,153.1292,-27.3917,73.40,68.00,83.21,30.00,6.00,0.00,30.00,M,6.21,M,FEW,BKN,M,M,1400.00,10000.00,M,M,M,YBBN 261200Z 03006KT 9999 FEW014 BKN100 23/20 Q1016 NOSIG
YBBN,2014-11-26 12:30,153.1292,-27.3917,75.20,68.00,78.34,20.00,8.00,0.00,30.00,M,6.21,M,FEW,BKN,M,M,1600.00,17000.00,M,M,M,YBBN 261230Z 02008KT 9999 FEW016 BKN170 24/20 Q1016
YBBN,2014-11-26 13:00,153.1292,-27.3917,75.20,68.00,78.34,10.00,7.00,0.00,30.00,M,6.21,M,FEW,BKN,M,M,1800.00,17000.00,M,M,M,YBBN 261300Z 01007KT 9999 FEW018 BKN170 24/20 Q1016
YBBN,2014-11-26 13:30,153.1292,-27.3917,75.20,68.00,78.34,10.00,10.00,0.00,30.00,M,6.21,M,FEW,BKN,M,M,1800.00,16000.00,M,M,M,YBBN 261330Z 01010KT 9999 FEW018 BKN160 24/20 Q1016
YBBN,2014-11-26 14:00,153.1292,-27.3917,75.20,68.00,78.34,350.00,8.00,0.00,29.97,M,6.21,M,FEW,BKN,M,M,1800.00,16000.00,M,M,M,YBBN 261400Z 35008KT 9999 FEW018 BKN160 24/20 Q1015
YBBN,2014-11-26 14:30,153.1292,-27.3917,75.20,68.00,78.34,350.00,7.00,0.00,29.97,M,6.21,M,FEW,BKN,M,M,1800.00,11000.00,M,M,M,YBBN 261430Z 35007KT 9999 FEW018 BKN110 24/20 Q1015
YBBN,2014-11-26 15:00,153.1292,-27.3917,75.20,68.00,78.34,10.00,7.00,0.00,29.97,M,6.21,M,SCT,M,M,M,2200.00,M,M,M,M,YBBN 261500Z 01007KT 9999 SCT022 24/20 Q1015 NOSIG
YBBN,2014-11-26 15:30,153.1292,-27.3917,75.20,68.00,78.34,10.00,7.00,0.00,29.97,M,6.21,M,FEW,SCT,M,M,2000.00,2800.00,M,M,M,YBBN 261530Z 01007KT 9999 FEW020 SCT028 24/20 Q1015
YBBN,2014-11-26 16:00,153.1292,-27.3917,75.20,68.00,78.34,10.00,7.00,0.00,29.94,M,6.21,M,SCT,M,M,M,2000.00,M,M,M,M,YBBN 261600Z 01007KT 9999 SCT020 24/20 Q1014 NOSIG
YBBN,2014-11-26 16:30,153.1292,-27.3917,73.40,68.00,83.21,250.00,6.00,0.00,29.97,M,6.21,M,BKN,M,M,M,2000.00,M,M,M,M,YBBN 261630Z 25006KT 9999 BKN020 23/20 Q1015
YBBN,2014-11-26 17:00,153.1292,-27.3917,73.40,69.80,88.51,300.00,7.00,0.00,29.94,M,6.21,M,FEW,SCT,M,M,1800.00,2200.00,M,M,-SHRA,YBBN 261700Z 30007KT 9999 -SHRA FEW018 SCT022 23/21 Q1014
YBBN,2014-11-26 17:30,153.1292,-27.3917,73.40,69.80,88.51,20.00,1.00,0.00,29.97,M,6.21,M,FEW,BKN,M,M,1800.00,5500.00,M,M,VCSH,YBBN 261730Z 02001KT 9999 VCSH FEW018 BKN055 23/21 Q1015
YBBN,2014-11-26 18:00,153.1292,-27.3917,73.40,69.80,88.51,0.00,0.00,0.00,29.97,M,6.21,M,BKN,M,M,M,2100.00,M,M,M,-DZ,YBBN 261800Z 00000KT 9999 -DZ BKN021 23/21 Q1015
YBBN,2014-11-26 18:30,153.1292,-27.3917,73.40,68.00,83.21,310.00,1.00,0.00,29.97,M,6.21,M,FEW,BKN,M,M,2200.00,4000.00,M,M,M,YBBN 261830Z 31001KT 9999 FEW022 BKN040 23/20 Q1015
YBBN,2014-11-26 19:00,153.1292,-27.3917,73.40,68.00,83.21,300.00,6.00,0.00,29.97,M,6.21,M,FEW,BKN,M,M,2200.00,3500.00,M,M,VCSH,YBBN 261900Z 30006KT 9999 VCSH FEW022 BKN035 23/20 Q1015
YBBN,2014-11-26 19:30,153.1292,-27.3917,73.40,68.00,83.21,310.00,5.00,0.00,29.97,M,6.21,M,FEW,BKN,M,M,2200.00,4500.00,M,M,M,YBBN 261930Z 31005KT 9999 FEW022 BKN045 23/20 Q1015
YBBN,2014-11-26 20:00,153.1292,-27.3917,75.20,68.00,78.34,310.00,5.00,0.00,30.00,M,6.21,M,FEW,SCT,BKN,M,2200.00,3000.00,3600.00,M,M,YBBN 262000Z 31005KT 9999 FEW022 SCT030 BKN036 24/20 Q1016 NOSIG
YBBN,2014-11-26 20:30,153.1292,-27.3917,75.20,68.00,78.34,300.00,4.00,0.00,30.00,M,6.21,M,FEW,SCT,BKN,M,2200.00,3500.00,30000.00,M,M,YBBN 262030Z 30004KT 9999 FEW022 SCT035 BKN300 24/20 Q1016
YBBN,2014-11-26 21:00,153.1292,-27.3917,77.00,66.20,69.33,310.00,5.00,0.00,30.00,M,6.21,M,FEW,BKN,M,M,2000.00,30000.00,M,M,M,YBBN 262100Z 31005KT 9999 FEW020 BKN300 25/19 Q1016 NOSIG
YBBN,2014-11-26 21:30,153.1292,-27.3917,78.80,66.20,65.33,330.00,6.00,0.00,30.00,M,6.21,M,FEW,SCT,M,M,2200.00,30000.00,M,M,M,YBBN 262130Z 33006KT 9999 FEW022 SCT300 26/19 Q1016
YBBN,2014-11-26 22:00,153.1292,-27.3917,78.80,66.20,65.33,340.00,7.00,0.00,30.00,M,6.21,M,FEW,SCT,M,M,2200.00,30000.00,M,M,M,YBBN 262200Z 34007KT 9999 FEW022 SCT300 26/19 Q1016
YBBN,2014-11-26 22:30,153.1292,-27.3917,78.80,66.20,65.33,360.00,7.00,0.00,30.00,M,6.21,M,FEW,SCT,M,M,2400.00,30000.00,M,M,M,YBBN 262230Z 36007KT 9999 FEW024 SCT300 26/19 Q1016
YBBN,2014-11-26 23:00,153.1292,-27.3917,80.60,66.20,61.58,10.00,7.00,0.00,30.00,M,6.21,M,FEW,BKN,M,M,2400.00,30000.00,M,M,M,YBBN 262300Z 01007KT 9999 FEW024 BKN300 27/19 Q1016 NOSIG
YBBN,2014-11-26 23:30,153.1292,-27.3917,82.40,68.00,61.81,20.00,9.00,0.00,30.00,M,6.21,M,FEW,BKN,M,M,2800.00,30000.00,M,M,M,YBBN 262330Z 02009KT 9999 FEW028 BKN300 28/20 Q1016
