#DEBUG: Format Typ    -> comma
#DEBUG: Time Period   -> 2014-11-25 00:00:00+00:00 2014-11-26 00:00:00+00:00
#DEBUG: Time Zone     -> Etc/UTC
#DEBUG: Data Contact   -> daryl herzmann akrherz@iastate.edu 515-294-5978
#DEBUG: Entries Found -> -1
station,valid,lon,lat,tmpf, dwpf, relh, drct, sknt, p01i, alti, mslp, vsby, gust, skyc1, skyc2, skyc3, skyc4, skyl1, skyl2, skyl3, skyl4, presentwx, metar
YBBN,2014-11-25 00:00,153.1292,-27.3917,80.60,62.60,54.30,20.00,10.00,0.00,29.97,M,6.21,M,M,M,M,M,M,M,M,M,M,YBBN 250000Z 02010KT CAVOK 27/17 Q1015 FM0100 01016KT 9999 FEW030
YBBN,2014-11-25 00:30,153.1292,-27.3917,82.40,62.60,51.21,20.00,11.00,0.00,29.97,M,6.21,M,M,M,M,M,M,M,M,M,M,YBBN 250030Z 02011KT CAVOK 28/17 Q1015
YBBN,2014-11-25 01:00,153.1292,-27.3917,82.40,64.40,54.55,30.00,15.00,0.00,29.94,M,6.21,M,M,M,M,M,M,M,M,M,M,YBBN 250100Z 03015KT CAVOK 28/18 Q1014
YBBN,2014-11-25 01:30,153.1292,-27.3917,82.40,64.40,54.55,30.00,16.00,0.00,29.94,M,6.21,M,M,M,M,M,M,M,M,M,M,YBBN 250130Z 03016KT CAVOK 28/18 Q1014
YBBN,2014-11-25 02:00,153.1292,-27.3917,82.40,64.40,54.55,30.00,16.00,0.00,29.91,M,6.21,M,FEW,SCT,M,M,4000.00,32000.00,M,M,M,YBBN 250200Z 03016KT 9999 FEW040 SCT320 28/18 Q1013
YBBN,2014-11-25 02:30,153.1292,-27.3917,82.40,64.40,54.55,20.00,17.00,0.00,29.91,M,6.21,M,FEW,M,M,M,4200.00,M,M,M,M,YBBN 250230Z 02017KT 9999 FEW042 28/18 Q1013
YBBN,2014-11-25 03:00,153.1292,-27.3917,82.40,66.20,58.08,20.00,17.00,0.00,29.88,M,6.21,M,FEW,SCT,M,M,4500.00,32000.00,M,M,M,YBBN 250300Z 02017KT 9999 FEW045 SCT320 28/19 Q1012 NOSIG
YBBN,2014-11-25 03:30,153.1292,-27.3917,82.40,64.40,54.55,20.00,17.00,0.00,29.88,M,6.21,M,FEW,SCT,M,M,4700.00,32000.00,M,M,M,YBBN 250330Z 02017KT 9999 FEW047 SCT320 28/18 Q1012
YBBN,2014-11-25 04:00,153.1292,-27.3917,84.20,66.20,54.80,20.00,18.00,0.00,29.88,M,6.21,M,FEW,SCT,M,M,4900.00,30000.00,M,M,M,YBBN 250400Z 02018KT 9999 FEW049 SCT300 29/19 Q1012 NOSIG
YBBN,2014-11-25 04:30,153.1292,-27.3917,82.40,68.00,61.81,20.00,18.00,0.00,29.85,M,6.21,M,M,M,M,M,M,M,M,M,M,YBBN 250430Z 02018KT CAVOK 28/20 Q1011
YBBN,2014-11-25 05:00,153.1292,-27.3917,82.40,68.00,61.81,20.00,16.00,0.00,29.85,M,6.21,M,FEW,BKN,M,M,4800.00,30000.00,M,M,M,YBBN 250500Z 02016KT 9999 FEW048 BKN300 28/20 Q1011 NOSIG
YBBN,2014-11-25 05:30,153.1292,-27.3917,82.40,68.00,61.81,10.00,17.00,0.00,29.85,M,6.21,M,FEW,BKN,M,M,4700.00,30000.00,M,M,M,YBBN 250530Z 01017KT 9999 FEW047 BKN300 28/20 Q1011 RMK HZ
YBBN,2014-11-25 06:00,153.1292,-27.3917,80.60,69.80,69.71,10.00,17.00,0.00,29.85,M,6.21,M,FEW,BKN,M,M,4600.00,30000.00,M,M,M,YBBN 250600Z 01017KT 9999 FEW046 BKN300 27/21 Q1011
YBBN,2014-11-25 06:30,153.1292,-27.3917,80.60,69.80,69.71,10.00,17.00,0.00,29.85,M,6.21,M,M,M,M,M,M,M,M,M,M,YBBN 250630Z 01017KT CAVOK 27/21 Q1011 RMK HZ/DIST CB TOP SW/ DIST FU NW
YBBN,2014-11-25 07:00,153.1292,-27.3917,78.80,69.80,73.95,10.00,17.00,0.00,29.85,M,6.21,M,M,M,M,M,M,M,M,M,M,YBBN 250700Z 01017KT CAVOK 26/21 Q1011 NOSIG
YBBN,2014-11-25 07:30,153.1292,-27.3917,78.80,71.60,78.62,10.00,18.00,0.00,29.88,M,6.21,M,M,M,M,M,M,M,M,M,M,YBBN 250730Z 01018KT CAVOK 26/22 Q1012 RMK HZ/DIST CB TOP STH/ DIST FU WEST
YBBN,2014-11-25 08:00,153.1292,-27.3917,77.00,71.60,83.44,10.00,18.00,0.00,29.88,M,6.21,M,FEW,SCT,BKN,M,1700.00,22000.00,30000.00,M,M,YBBN 250800Z 01018KT 9999 FEW017 SCT220 BKN300 25/22 Q1012 NOSIG
YBBN,2014-11-25 08:30,153.1292,-27.3917,77.00,71.60,83.44,10.00,18.00,0.00,29.88,M,6.21,M,FEW,BKN,M,M,1000.00,30000.00,M,M,M,YBBN 250830Z 01018KT 9999 FEW010 BKN300 25/22 Q1012
YBBN,2014-11-25 09:00,153.1292,-27.3917,77.00,71.60,83.44,10.00,14.00,0.00,29.91,M,6.21,M,BKN,M,M,M,1200.00,M,M,M,//,YBBN 250900Z AUTO 01014KT 9999 // BKN012 25/22 Q1013
YBBN,2014-11-25 09:30,153.1292,-27.3917,77.00,71.60,83.44,20.00,13.00,0.00,29.94,M,6.21,M,BKN,M,M,M,1300.00,M,M,M,M,YBBN 250930Z 02013KT 9999 BKN013 25/22 Q1014
YBBN,2014-11-25 10:00,153.1292,-27.3917,77.00,71.60,83.44,30.00,11.00,0.00,29.97,M,6.21,M,BKN,M,M,M,1300.00,M,M,M,M,YBBN 251000Z 03011KT 9999 BKN013 25/22 Q1015
YBBN,2014-11-25 10:30,153.1292,-27.3917,77.00,71.60,83.44,40.00,8.00,0.00,30.00,M,6.21,M,SCT,BKN,M,M,1600.00,30000.00,M,M,M,YBBN 251030Z 04008KT 9999 SCT016 BKN300 25/22 Q1016
YBBN,2014-11-25 11:00,153.1292,-27.3917,77.00,71.60,83.44,40.00,8.00,0.00,30.00,M,6.21,M,SCT,M,M,M,1600.00,M,M,M,M,YBBN 251100Z 04008KT 9999 SCT016 25/22 Q1016
YBBN,2014-11-25 11:30,153.1292,-27.3917,77.00,71.60,83.44,40.00,8.00,0.00,30.03,M,6.21,M,FEW,SCT,M,M,1600.00,2500.00,M,M,VCSH,YBBN 251130Z 04008KT 9999 VCSH FEW016 SCT025 25/22 Q1017
YBBN,2014-11-25 12:00,153.1292,-27.3917,77.00,71.60,83.44,70.00,5.00,0.00,30.03,M,6.21,M,FEW,SCT,M,M,1600.00,2400.00,M,M,VCSH,YBBN 251200Z 07005KT 9999 VCSH FEW016 SCT024 25/22 Q1017
YBBN,2014-11-25 12:30,153.1292,-27.3917,77.00,71.60,83.44,50.00,4.00,0.00,30.03,M,6.21,M,FEW,SCT,BKN,M,800.00,2200.00,5000.00,M,VCSH,YBBN 251230Z 05004KT 9999 VCSH FEW008 SCT022 BKN050 25/22 Q1017
YBBN,2014-11-25 13:00,153.1292,-27.3917,77.00,71.60,83.44,20.00,7.00,0.00,30.03,M,5.59,M,FEW,SCT,BKN,M,1200.00,2400.00,6000.00,M,VCSH,YBBN 251300Z 02007KT 9000 VCSH FEW012 SCT024 BKN060 25/22 Q1017
YBBN,2014-11-25 13:30,153.1292,-27.3917,77.00,71.60,83.44,10.00,7.00,0.00,30.03,M,6.21,M,FEW,SCT,BKN,M,1400.00,2200.00,4400.00,M,VCSH,YBBN 251330Z 01007KT 9999 VCSH FEW014 SCT022 BKN044 25/22 Q1017
YBBN,2014-11-25 14:00,153.1292,-27.3917,77.00,71.60,83.44,10.00,7.00,0.00,30.00,M,4.97,M,SCT,BKN,M,M,1500.00,2200.00,M,M,VCSH,YBBN 251400Z 01007KT 8000 VCSH SCT015 BKN022 25/22 Q1016
YBBN,2014-11-25 14:30,153.1292,-27.3917,77.00,71.60,83.44,10.00,8.00,0.00,30.00,M,4.35,M,FEW,SCT,BKN,M,1500.00,2100.00,4000.00,M,VCSH,YBBN 251430Z 01008KT 7000 VCSH FEW015 SCT021 BKN040 25/22 Q1016
YBBN,2014-11-25 15:00,153.1292,-27.3917,75.20,71.60,88.59,10.00,7.00,0.00,29.97,M,6.21,M,BKN,M,M,M,1400.00,M,M,M,VCSH,YBBN 251500Z 01007KT 9999 VCSH BKN014 24/22 Q1015
YBBN,2014-11-25 15:30,153.1292,-27.3917,75.20,71.60,88.59,20.00,9.00,0.00,29.97,M,6.21,M,FEW,SCT,M,M,1200.00,2500.00,M,M,VCSH,YBBN 251530Z 02009KT 9999 VCSH FEW012 SCT025 24/22 Q1015
YBBN,2014-11-25 16:00,153.1292,-27.3917,75.20,71.60,88.59,20.00,9.00,0.00,29.97,M,6.21,M,FEW,SCT,M,M,1300.00,4500.00,M,M,M,YBBN 251600Z 02009KT 9999 FEW013 SCT045 24/22 Q1015
YBBN,2014-11-25 16:30,153.1292,-27.3917,75.20,71.60,88.59,20.00,9.00,0.00,29.94,M,6.21,M,SCT,M,M,M,1500.00,M,M,M,M,YBBN 251630Z 02009KT 9999 SCT015 24/22 Q1014
YBBN,2014-11-25 17:00,153.1292,-27.3917,75.20,71.60,88.59,10.00,9.00,0.00,29.94,M,6.21,M,FEW,SCT,M,M,1500.00,2100.00,M,M,M,YBBN 251700Z 01009KT 9999 FEW015 SCT021 24/22 Q1014
YBBN,2014-11-25 17:30,153.1292,-27.3917,75.20,71.60,88.59,10.00,8.00,0.00,29.97,M,6.21,M,FEW,SCT,M,M,1600.00,2300.00,M,M,M,YBBN 251730Z 01008KT 9999 FEW016 SCT023 24/22 Q1015
YBBN,2014-11-25 18:00,153.1292,-27.3917,75.20,71.60,88.59,10.00,8.00,0.00,29.97,M,6.21,M,FEW,SCT,BKN,M,1100.00,2200.00,5500.00,M,M,YBBN 251800Z 01008KT 9999 FEW011 SCT022 BKN055 24/22 Q1015 INTER 1800/2100 3000 SHRA BKN012
YBBN,2014-11-25 18:30,153.1292,-27.3917,75.20,71.60,88.59,20.00,10.00,0.00,29.97,M,6.21,M,FEW,SCT,M,M,1300.00,2300.00,M,M,VCSH,YBBN 251830Z 02010KT 9999 VCSH FEW013 SCT023 24/22 Q1015
YBBN,2014-11-25 19:00,153.1292,-27.3917,75.20,71.60,88.59,20.00,9.00,0.00,29.97,M,6.21,M,FEW,SCT,M,M,1300.00,2200.00,M,M,M,YBBN 251900Z 02009KT 9999 FEW013 SCT022 24/22 Q1015 INTER 1900/2200 3000 SHRA BKN012
YBBN,2014-11-25 19:30,153.1292,-27.3917,75.20,69.80,83.32,10.00,7.00,0.00,29.97,M,6.21,M,FEW,SCT,M,M,1400.00,2500.00,M,M,VCSH,YBBN 251930Z 01007KT 9999 VCSH FEW014 SCT025 24/21 Q1015
YBBN,2014-11-25 20:00,153.1292,-27.3917,77.00,71.60,83.44,20.00,7.00,0.00,30.00,M,6.21,M,FEW,BKN,M,M,1600.00,2500.00,M,M,VCSH,YBBN 252000Z 02007KT 9999 VCSH FEW016 BKN025 25/22 Q1016 INTER 2000/2300 3000 SHRA BKN012
YBBN,2014-11-25 20:30,153.1292,-27.3917,77.00,69.80,78.48,30.00,9.00,0.00,30.00,M,6.21,M,FEW,SCT,BKN,M,1400.00,2500.00,30000.00,M,VCSH,YBBN 252030Z 03009KT 9999 VCSH FEW014 SCT025 BKN300 25/21 Q1016
YBBN,2014-11-25 21:00,153.1292,-27.3917,78.80,69.80,73.95,40.00,10.00,0.00,30.00,M,6.21,M,FEW,SCT,BKN,M,1400.00,2500.00,30000.00,M,VCSH,YBBN 252100Z 04010KT 9999 VCSH FEW014 SCT025 BKN300 26/21 Q1016
YBBN,2014-11-25 21:30,153.1292,-27.3917,77.00,71.60,83.44,10.00,7.00,0.00,30.03,M,6.21,M,FEW,SCT,BKN,M,1400.00,1600.00,5700.00,M,VCSH,YBBN 252130Z 01007KT 9999 VCSH FEW014 SCT016 BKN057 25/22 Q1017
YBBN,2014-11-25 22:00,153.1292,-27.3917,78.80,69.80,73.95,30.00,11.00,0.00,30.00,M,6.21,M,FEW,SCT,BKN,M,1000.00,1600.00,3200.00,M,VCSH,YBBN 252200Z 03011KT 9999 VCSH FEW010 SCT016 BKN032 26/21 Q1016 INTER 2220/0100 3000 SHRA BKN012
YBBN,2014-11-25 22:30,153.1292,-27.3917,78.80,69.80,73.95,30.00,11.00,0.00,30.03,M,6.21,M,FEW,SCT,BKN,M,1600.00,2000.00,5400.00,M,VCSH,YBBN 252230Z 03011KT 9999 VCSH FEW016 SCT020 BKN054 26/21 Q1017
YBBN,2014-11-25 23:00,153.1292,-27.3917,78.80,69.80,73.95,20.00,12.00,0.00,30.03,M,6.21,M,FEW,SCT,BKN,M,1600.00,2200.00,4400.00,M,VCSH,YBBN 252300Z 02012KT 9999 VCSH FEW016 SCT022 BKN044 26/21 Q1017 INTER 2300/0200 3000 SHRA BKN012
YBBN,2014-11-25 23:30,153.1292,-27.3917,78.80,68.00,69.52,10.00,12.00,0.00,30.03,M,6.21,M,FEW,SCT,BKN,M,1600.00,2000.00,5200.00,M,VCSH,YBBN 252330Z 01012KT 9999 VCSH FEW016 SCT020 BKN052 26/20 Q1017
