#DEBUG: Format Typ    -> comma
#DEBUG: Time Period   -> 2015-05-26 00:00:00+00:00 2015-05-27 00:00:00+00:00
#DEBUG: Time Zone     -> Etc/UTC
#DEBUG: Data Contact   -> daryl herzmann akrherz@iastate.edu 515-294-5978
#DEBUG: Entries Found -> -1
station,valid,lon,lat,tmpf, dwpf, relh, drct, sknt, p01i, alti, mslp, vsby, gust, skyc1, skyc2, skyc3, skyc4, skyl1, skyl2, skyl3, skyl4, presentwx, metar
YBBN,2015-05-26 00:00,153.1292,-27.3917,66.20,53.60,63.82,200.00,8.00,0.00,30.36,M,6.21,M,FEW,SCT,M,M,2800.00,27000.00,M,M,M,YBBN 260000Z 20008KT 9999 FEW028 SCT270 19/12 Q1028
YBBN,2015-05-26 00:30,153.1292,-27.3917,69.80,55.40,60.21,190.00,7.00,0.00,30.33,M,6.21,M,FEW,BKN,M,M,3000.00,27000.00,M,M,M,YBBN 260030Z 19007KT 9999 FEW030 BKN270 21/13 Q1027
YBBN,2015-05-26 01:00,153.1292,-27.3917,69.80,55.40,60.21,170.00,8.00,0.00,30.33,M,6.21,M,FEW,BKN,M,M,3200.00,27000.00,M,M,M,YBBN 260100Z 17008KT 9999 FEW032 BKN270 21/13 Q1027 NOSIG
YBBN,2015-05-26 01:30,153.1292,-27.3917,69.80,55.40,60.21,150.00,6.00,0.00,30.33,M,6.21,M,FEW,BKN,M,M,3000.00,27000.00,M,M,M,YBBN 260130Z 15006KT 9999 FEW030 BKN270 21/13 Q1027
YBBN,2015-05-26 02:00,153.1292,-27.3917,71.60,57.20,60.44,150.00,5.00,0.00,30.30,M,6.21,M,FEW,BKN,M,M,3000.00,27000.00,M,M,M,YBBN 260200Z 15005KT 9999 FEW030 BKN270 22/14 Q1026
YBBN,2015-05-26 02:30,153.1292,-27.3917,69.80,57.20,64.26,110.00,6.00,0.00,30.27,M,6.21,M,SCT,BKN,M,M,3000.00,27000.00,M,M,M,YBBN 260230Z 11006KT 9999 SCT030 BKN270 21/14 Q1025
YBBN,2015-05-26 03:00,153.1292,-27.3917,71.60,57.20,60.44,120.00,6.00,0.00,30.27,M,6.21,M,SCT,BKN,M,M,3000.00,27000.00,M,M,M,YBBN 260300Z 12006KT 9999 SCT030 BKN270 22/14 Q1025 NOSIG
YBBN,2015-05-26 03:30,153.1292,-27.3917,69.80,57.20,64.26,100.00,6.00,0.00,30.27,M,6.21,M,SCT,BKN,M,M,3200.00,27000.00,M,M,M,YBBN 260330Z 10006KT 9999 SCT032 BKN270 21/14 Q1025
YBBN,2015-05-26 04:00,153.1292,-27.3917,69.80,57.20,64.26,120.00,5.00,0.00,30.27,M,6.21,M,SCT,BKN,M,M,3000.00,27000.00,M,M,M,YBBN 260400Z 12005KT 9999 SCT030 BKN270 21/14 Q1025 NOSIG
YBBN,2015-05-26 04:30,153.1292,-27.3917,69.80,59.00,68.55,130.00,6.00,0.00,30.24,M,6.21,M,FEW,BKN,M,M,3000.00,26000.00,M,M,M,YBBN 260430Z 13006KT 9999 FEW030 BKN260 21/15 Q1024
YBBN,2015-05-26 05:00,153.1292,-27.3917,69.80,57.20,64.26,120.00,6.00,0.00,30.24,M,6.21,M,FEW,SCT,BKN,M,3000.00,19500.00,24000.00,M,M,YBBN 260500Z 12006KT 9999 FEW030 SCT195 BKN240 21/14 Q1024 NOSIG
YBBN,2015-05-26 05:30,153.1292,-27.3917,69.80,59.00,68.55,110.00,7.00,0.00,30.24,M,6.21,M,FEW,SCT,BKN,M,3000.00,18500.00,24000.00,M,M,YBBN 260530Z 11007KT 9999 FEW030 SCT185 BKN240 21/15 Q1024
YBBN,2015-05-26 06:00,153.1292,-27.3917,68.00,59.00,72.92,110.00,7.00,0.00,30.24,M,6.21,M,FEW,BKN,M,M,3000.00,18500.00,M,M,M,YBBN 260600Z 11007KT 9999 FEW030 BKN185 20/15 Q1024 NOSIG
YBBN,2015-05-26 06:30,153.1292,-27.3917,68.00,59.00,72.92,130.00,5.00,0.00,30.24,M,6.21,M,FEW,BKN,M,M,3000.00,18500.00,M,M,M,YBBN 260630Z 13005KT 9999 FEW030 BKN185 20/15 Q1024
YBBN,2015-05-26 07:00,153.1292,-27.3917,68.00,59.00,72.92,120.00,5.00,0.00,30.24,M,6.21,M,FEW,SCT,BKN,M,3000.00,17500.00,22000.00,M,M,YBBN 260700Z 12005KT 9999 FEW030 SCT175 BKN220 20/15 Q1024 NOSIG
YBBN,2015-05-26 07:30,153.1292,-27.3917,66.20,59.00,77.60,130.00,5.00,0.00,30.24,M,6.21,M,FEW,SCT,BKN,M,2800.00,17000.00,22000.00,M,M,YBBN 260730Z 13005KT 9999 FEW028 SCT170 BKN220 19/15 Q1024
YBBN,2015-05-26 08:00,153.1292,-27.3917,66.20,59.00,77.60,150.00,3.00,0.00,30.27,M,6.21,M,FEW,SCT,BKN,M,2500.00,20000.00,22000.00,M,M,YBBN 260800Z 15003KT 9999 FEW025 SCT200 BKN220 19/15 Q1025 NOSIG
YBBN,2015-05-26 08:30,153.1292,-27.3917,66.20,59.00,77.60,140.00,4.00,0.00,30.27,M,6.21,M,FEW,BKN,M,M,2500.00,20000.00,M,M,M,YBBN 260830Z 14004KT 9999 FEW025 BKN200 19/15 Q1025
YBBN,2015-05-26 09:00,153.1292,-27.3917,66.20,60.80,82.74,80.00,5.00,0.00,30.27,M,6.21,M,FEW,BKN,M,M,2500.00,20000.00,M,M,M,YBBN 260900Z 08005KT 9999 FEW025 BKN200 19/16 Q1025
YBBN,2015-05-26 09:30,153.1292,-27.3917,64.40,62.60,93.88,100.00,2.00,0.00,30.27,M,6.21,M,FEW,BKN,M,M,2500.00,20000.00,M,M,M,YBBN 260930Z 10002KT 9999 FEW025 BKN200 18/17 Q1025
YBBN,2015-05-26 10:00,153.1292,-27.3917,64.40,62.60,93.88,0.00,0.00,0.00,30.27,M,6.21,M,FEW,BKN,M,M,2500.00,20000.00,M,M,M,YBBN 261000Z 00000KT 9999 FEW025 BKN200 18/17 Q1025 NOSIG
YBBN,2015-05-26 10:30,153.1292,-27.3917,64.40,60.80,88.09,80.00,3.00,0.00,30.27,M,6.21,M,FEW,BKN,M,M,1200.00,18000.00,M,M,M,YBBN 261030Z 08003KT 9999 FEW012 BKN180 18/16 Q1025
YBBN,2015-05-26 11:00,153.1292,-27.3917,62.60,60.80,93.83,0.00,0.00,0.00,30.27,M,6.21,M,FEW,SCT,BKN,M,1200.00,18000.00,24000.00,M,M,YBBN 261100Z 00000KT 9999 FEW012 SCT180 BKN240 17/16 Q1025
YBBN,2015-05-26 11:30,153.1292,-27.3917,62.60,60.80,93.83,170.00,4.00,0.00,30.27,M,6.21,M,FEW,SCT,BKN,M,2200.00,20000.00,24000.00,M,M,YBBN 261130Z 17004KT 9999 FEW022 SCT200 BKN240 17/16 Q1025
YBBN,2015-05-26 12:00,153.1292,-27.3917,62.60,60.80,93.83,0.00,0.00,0.00,30.27,M,6.21,M,FEW,SCT,BKN,M,2200.00,20000.00,24000.00,M,M,YBBN 261200Z 00000KT 9999 FEW022 SCT200 BKN240 17/16 Q1025 NOSIG
YBBN,2015-05-26 12:30,153.1292,-27.3917,62.60,60.80,93.83,190.00,4.00,0.00,30.27,M,6.21,M,FEW,SCT,BKN,M,2200.00,3500.00,24000.00,M,M,YBBN 261230Z 19004KT 9999 FEW022 SCT035 BKN240 17/16 Q1025
YBBN,2015-05-26 13:00,153.1292,-27.3917,60.80,59.00,93.79,200.00,4.00,0.00,30.27,M,6.21,M,FEW,SCT,BKN,M,2200.00,4000.00,24000.00,M,M,YBBN 261300Z 20004KT 9999 FEW022 SCT040 BKN240 16/15 Q1025 NOSIG
YBBN,2015-05-26 13:30,153.1292,-27.3917,62.60,59.00,88.00,190.00,4.00,0.00,30.24,M,6.21,M,FEW,SCT,M,M,2200.00,4000.00,M,M,M,YBBN 261330Z 19004KT 9999 FEW022 SCT040 17/15 Q1024
YBBN,2015-05-26 14:00,153.1292,-27.3917,60.80,57.20,87.92,190.00,4.00,0.00,30.24,M,6.21,M,FEW,SCT,M,M,2200.00,4000.00,M,M,M,YBBN 261400Z 19004KT 9999 FEW022 SCT040 16/14 Q1024 NOSIG
YBBN,2015-05-26 14:30,153.1292,-27.3917,60.80,57.20,87.92,200.00,5.00,0.00,30.24,M,6.21,M,FEW,SCT,M,M,2200.00,4200.00,M,M,M,YBBN 261430Z 20005KT 9999 FEW022 SCT042 16/14 Q1024
YBBN,2015-05-26 15:00,153.1292,-27.3917,60.80,59.00,93.79,200.00,5.00,0.00,30.24,M,6.21,M,FEW,SCT,M,M,2200.00,4200.00,M,M,M,YBBN 261500Z 20005KT 9999 FEW022 SCT042 16/15 Q1024 NOSIG
YBBN,2015-05-26 15:30,153.1292,-27.3917,59.00,57.20,93.74,190.00,5.00,0.00,30.21,M,6.21,M,FEW,M,M,M,2200.00,M,M,M,M,YBBN 261530Z 19005KT 9999 FEW022 15/14 Q1023
YBBN,2015-05-26 16:00,153.1292,-27.3917,59.00,57.20,93.74,200.00,7.00,0.00,30.24,M,6.21,M,FEW,SCT,M,M,2200.00,4200.00,M,M,M,YBBN 261600Z 20007KT 9999 FEW022 SCT042 15/14 Q1024 NOSIG
YBBN,2015-05-26 16:30,153.1292,-27.3917,59.00,57.20,93.74,200.00,8.00,0.00,30.24,M,6.21,M,FEW,SCT,M,M,2200.00,4600.00,M,M,M,YBBN 261630Z 20008KT 9999 FEW022 SCT046 15/14 Q1024
YBBN,2015-05-26 17:00,153.1292,-27.3917,57.20,55.40,93.69,210.00,8.00,0.00,30.24,M,6.21,M,FEW,SCT,M,M,2200.00,4200.00,M,M,M,YBBN 261700Z 21008KT 9999 FEW022 SCT042 14/13 Q1024 NOSIG
YBBN,2015-05-26 17:30,153.1292,-27.3917,57.20,55.40,93.69,200.00,7.00,0.00,30.21,M,6.21,M,FEW,M,M,M,2200.00,M,M,M,M,YBBN 261730Z 20007KT 9999 FEW022 14/13 Q1023
YBBN,2015-05-26 18:00,153.1292,-27.3917,57.20,55.40,93.69,210.00,8.00,0.00,30.21,M,6.21,M,FEW,M,M,M,2200.00,M,M,M,M,YBBN 261800Z 21008KT 9999 FEW022 14/13 Q1023 NOSIG
YBBN,2015-05-26 18:30,153.1292,-27.3917,57.20,55.40,93.69,200.00,8.00,0.00,30.21,M,6.21,M,FEW,M,M,M,2200.00,M,M,M,M,YBBN 261830Z 20008KT 9999 FEW022 14/13 Q1023
YBBN,2015-05-26 19:00,153.1292,-27.3917,57.20,55.40,93.69,200.00,8.00,0.00,30.21,M,6.21,M,FEW,M,M,M,2200.00,M,M,M,M,YBBN 261900Z 20008KT 9999 FEW022 14/13 Q1023
YBBN,2015-05-26 19:30,153.1292,-27.3917,57.20,53.60,87.74,200.00,8.00,0.00,30.21,M,6.21,M,FEW,M,M,M,800.00,M,M,M,M,YBBN 261930Z 20008KT 9999 FEW008 14/12 Q1023
YBBN,2015-05-26 20:00,153.1292,-27.3917,57.20,53.60,87.74,200.00,9.00,0.00,30.24,M,6.21,M,FEW,SCT,M,M,2200.00,3000.00,M,M,M,YBBN 262000Z 20009KT 9999 FEW022 SCT030 14/12 Q1024
YBBN,2015-05-26 20:30,153.1292,-27.3917,57.20,53.60,87.74,200.00,9.00,0.00,30.24,M,6.21,M,FEW,M,M,M,2500.00,M,M,M,M,YBBN 262030Z 20009KT 9999 FEW025 14/12 Q1024
YBBN,2015-05-26 21:00,153.1292,-27.3917,57.20,55.40,93.69,200.00,8.00,0.00,30.24,M,6.21,M,FEW,M,M,M,2500.00,M,M,M,M,YBBN 262100Z 20008KT 9999 FEW025 14/13 Q1024
YBBN,2015-05-26 21:30,153.1292,-27.3917,59.00,55.40,87.83,210.00,8.00,0.00,30.24,M,6.21,M,FEW,M,M,M,2500.00,M,M,M,M,YBBN 262130Z 21008KT 9999 FEW025 15/13 Q1024
YBBN,2015-05-26 22:00,153.1292,-27.3917,60.80,55.40,82.37,210.00,10.00,0.00,30.27,M,6.21,M,FEW,M,M,M,2500.00,M,M,M,M,YBBN 262200Z 21010KT 9999 FEW025 16/13 Q1025
YBBN,2015-05-26 22:30,153.1292,-27.3917,62.60,55.40,77.29,210.00,9.00,0.00,30.27,M,6.21,M,FEW,BKN,M,M,2500.00,25000.00,M,M,M,YBBN 262230Z 21009KT 9999 FEW025 BKN250 17/13 Q1025
YBBN,2015-05-26 23:00,153.1292,-27.3917,64.40,55.40,72.56,210.00,10.00,0.00,30.27,M,6.21,M,FEW,BKN,M,M,2500.00,25000.00,M,M,M,YBBN 262300Z 21010KT 9999 FEW025 BKN250 18/13 Q1025
YBBN,2015-05-26 23:30,153.1292,-27.3917,66.20,55.40,68.15,210.00,10.00,0.00,30.27,M,6.21,M,FEW,BKN,M,M,2500.00,25000.00,M,M,M,YBBN 262330Z 21010KT 9999 FEW025 BKN250 19/13 Q1025
