#DEBUG: Format Typ    -> comma
#DEBUG: Time Period   -> 2015-01-09 00:00:00+00:00 2015-01-10 00:00:00+00:00
#DEBUG: Time Zone     -> Etc/UTC
#DEBUG: Data Contact   -> daryl herzmann akrherz@iastate.edu 515-294-5978
#DEBUG: Entries Found -> -1
station,valid,lon,lat,tmpf, dwpf, relh, drct, sknt, p01i, alti, mslp, vsby, gust, skyc1, skyc2, skyc3, skyc4, skyl1, skyl2, skyl3, skyl4, presentwx, metar
YBBN,2015-01-09 00:00,153.1292,-27.3917,80.60,68.00,65.54,100.00,6.00,0.00,29.91,M,6.21,M,FEW,M,M,M,2300.00,M,M,M,M,YBBN 090000Z 10006KT 9999 FEW023 27/20 Q1013 NOSIG
YBBN,2015-01-09 00:30,153.1292,-27.3917,80.60,68.00,65.54,70.00,8.00,0.00,29.88,M,6.21,M,FEW,BKN,M,M,2300.00,7800.00,M,M,M,YBBN 090030Z 07008KT 9999 FEW023 BKN078 27/20 Q1012
YBBN,2015-01-09 01:00,153.1292,-27.3917,82.40,66.20,58.08,50.00,8.00,0.00,29.88,M,6.21,M,FEW,BKN,M,M,2300.00,7700.00,M,M,M,YBBN 090100Z 05008KT 9999 FEW023 BKN077 28/19 Q1012
YBBN,2015-01-09 01:30,153.1292,-27.3917,80.60,68.00,65.54,90.00,8.00,0.00,29.88,M,6.21,M,FEW,BKN,M,M,2300.00,7900.00,M,M,M,YBBN 090130Z 09008KT 9999 FEW023 BKN079 27/20 Q1012
YBBN,2015-01-09 02:00,153.1292,-27.3917,82.40,69.80,65.74,40.00,9.00,0.00,29.88,M,6.21,M,FEW,BKN,M,M,2300.00,8400.00,M,M,M,YBBN 090200Z 04009KT 9999 FEW023 BKN084 28/21 Q1012
YBBN,2015-01-09 02:30,153.1292,-27.3917,82.40,68.00,61.81,60.00,9.00,0.00,29.88,M,6.21,M,FEW,SCT,M,M,2300.00,8400.00,M,M,M,YBBN 090230Z 06009KT 9999 FEW023 SCT084 28/20 Q1012
YBBN,2015-01-09 03:00,153.1292,-27.3917,84.20,68.00,58.32,60.00,10.00,0.00,29.85,M,6.21,M,FEW,SCT,M,M,2300.00,8400.00,M,M,M,YBBN 090300Z 06010KT 9999 FEW023 SCT084 29/20 Q1011 NOSIG
YBBN,2015-01-09 03:30,153.1292,-27.3917,82.40,68.00,61.81,70.00,11.00,0.00,29.85,M,6.21,M,FEW,SCT,M,M,2300.00,30000.00,M,M,M,YBBN 090330Z 07011KT 9999 FEW023 SCT300 28/20 Q1011
YBBN,2015-01-09 04:00,153.1292,-27.3917,82.40,69.80,65.74,40.00,13.00,0.00,29.85,M,6.21,M,FEW,SCT,M,M,2300.00,30000.00,M,M,M,YBBN 090400Z 04013KT 9999 FEW023 SCT300 28/21 Q1011 NOSIG
YBBN,2015-01-09 04:30,153.1292,-27.3917,82.40,68.00,61.81,30.00,13.00,0.00,29.83,M,6.21,M,FEW,M,M,M,2400.00,M,M,M,M,YBBN 090430Z 03013KT 9999 FEW024 28/20 Q1010
YBBN,2015-01-09 05:00,153.1292,-27.3917,84.20,68.00,58.32,M,M,0.00,29.83,M,6.21,M,FEW,M,M,M,2400.00,M,M,M,M,YBBN 090500Z /////KT 9999 FEW024 29/20 Q1010 RMK WIND DATA DROPPING OUT
YBBN,2015-01-09 05:30,153.1292,-27.3917,82.40,68.00,61.81,40.00,11.00,0.00,29.83,M,6.21,M,FEW,M,M,M,2400.00,M,M,M,M,YBBN 090530Z 04011KT 9999 FEW024 28/20 Q1010
YBBN,2015-01-09 06:00,153.1292,-27.3917,82.40,68.00,61.81,50.00,11.00,0.00,29.83,M,6.21,M,SCT,M,M,M,2700.00,M,M,M,M,YBBN 090600Z 05011KT 9999 SCT027 28/20 Q1010
YBBN,2015-01-09 06:30,153.1292,-27.3917,80.60,68.00,65.54,50.00,11.00,0.00,29.83,M,6.21,M,SCT,M,M,M,2700.00,M,M,M,M,YBBN 090630Z 05011KT 9999 SCT027 27/20 Q1010
YBBN,2015-01-09 07:00,153.1292,-27.3917,80.60,68.00,65.54,50.00,12.00,0.00,29.83,M,6.21,M,FEW,M,M,M,2700.00,M,M,M,M,YBBN 090700Z 05012KT 9999 FEW027 27/20 Q1010 NOSIG
YBBN,2015-01-09 07:30,153.1292,-27.3917,80.60,68.00,65.54,50.00,12.00,0.00,29.83,M,6.21,M,FEW,SCT,M,M,2700.00,30000.00,M,M,M,YBBN 090730Z 05012KT 9999 FEW027 SCT300 27/20 Q1010
YBBN,2015-01-09 08:00,153.1292,-27.3917,78.80,69.80,73.95,50.00,12.00,0.00,29.85,M,6.21,M,FEW,SCT,M,M,2200.00,30000.00,M,M,M,YBBN 090800Z 05012KT 9999 FEW022 SCT300 26/21 Q1011
YBBN,2015-01-09 08:30,153.1292,-27.3917,78.80,69.80,73.95,50.00,11.00,0.00,29.85,M,6.21,M,FEW,SCT,M,M,2200.00,30000.00,M,M,M,YBBN 090830Z 05011KT 9999 FEW022 SCT300 26/21 Q1011
YBBN,2015-01-09 09:00,153.1292,-27.3917,78.80,69.80,73.95,50.00,11.00,0.00,29.85,M,6.21,M,FEW,BKN,M,M,2400.00,30000.00,M,M,M,YBBN 090900Z 05011KT 9999 FEW024 BKN300 26/21 Q1011
YBBN,2015-01-09 09:30,153.1292,-27.3917,77.00,69.80,78.48,40.00,10.00,0.00,29.88,M,6.21,M,FEW,BKN,M,M,2400.00,30000.00,M,M,M,YBBN 090930Z 04010KT 9999 FEW024 BKN300 25/21 Q1012
YBBN,2015-01-09 10:00,153.1292,-27.3917,77.00,69.80,78.48,40.00,9.00,0.00,29.88,M,6.21,M,FEW,BKN,M,M,2400.00,30000.00,M,M,M,YBBN 091000Z 04009KT 9999 FEW024 BKN300 25/21 Q1012 NOSIG
YBBN,2015-01-09 10:30,153.1292,-27.3917,77.00,68.00,73.78,40.00,9.00,0.00,29.88,M,6.21,M,FEW,BKN,M,M,2400.00,30000.00,M,M,M,YBBN 091030Z 04009KT 9999 FEW024 BKN300 25/20 Q1012
YBBN,2015-01-09 11:00,153.1292,-27.3917,77.00,68.00,73.78,40.00,9.00,0.00,29.88,M,6.21,M,SCT,BKN,M,M,2400.00,30000.00,M,M,M,YBBN 091100Z 04009KT 9999 SCT024 BKN300 25/20 Q1012 NOSIG
YBBN,2015-01-09 11:30,153.1292,-27.3917,77.00,69.80,78.48,40.00,9.00,0.00,29.88,M,6.21,M,FEW,BKN,M,M,2400.00,30000.00,M,M,M,YBBN 091130Z 04009KT 9999 FEW024 BKN300 25/21 Q1012
YBBN,2015-01-09 12:00,153.1292,-27.3917,77.00,68.00,73.78,40.00,9.00,0.00,29.88,M,6.21,M,SCT,BKN,M,M,2400.00,30000.00,M,M,M,YBBN 091200Z 04009KT 9999 SCT024 BKN300 25/20 Q1012 NOSIG
YBBN,2015-01-09 12:30,153.1292,-27.3917,77.00,68.00,73.78,40.00,9.00,0.00,29.88,M,6.21,M,SCT,M,M,M,2400.00,M,M,M,M,YBBN 091230Z 04009KT 9999 SCT024 25/20 Q1012
YBBN,2015-01-09 13:00,153.1292,-27.3917,77.00,68.00,73.78,40.00,10.00,0.00,29.88,M,6.21,M,SCT,BKN,M,M,2400.00,30000.00,M,M,M,YBBN 091300Z 04010KT 9999 SCT024 BKN300 25/20 Q1012 NOSIG
YBBN,2015-01-09 13:30,153.1292,-27.3917,77.00,68.00,73.78,30.00,10.00,0.00,29.88,M,6.21,M,SCT,BKN,M,M,2400.00,30000.00,M,M,M,YBBN 091330Z 03010KT 9999 SCT024 BKN300 25/20 Q1012
YBBN,2015-01-09 14:00,153.1292,-27.3917,77.00,68.00,73.78,40.00,9.00,0.00,29.88,M,6.21,M,FEW,SCT,BKN,M,2400.00,5000.00,30000.00,M,M,YBBN 091400Z 04009KT 9999 FEW024 SCT050 BKN300 25/20 Q1012
YBBN,2015-01-09 14:30,153.1292,-27.3917,77.00,68.00,73.78,40.00,10.00,0.00,29.88,M,6.21,M,FEW,SCT,BKN,M,2400.00,5000.00,30000.00,M,M,YBBN 091430Z 04010KT 9999 FEW024 SCT050 BKN300 25/20 Q1012
YBBN,2015-01-09 15:00,153.1292,-27.3917,75.20,66.20,73.61,30.00,8.00,0.00,29.85,M,6.21,M,FEW,BKN,M,M,2400.00,30000.00,M,M,M,YBBN 091500Z 03008KT 9999 FEW024 BKN300 24/19 Q1011
YBBN,2015-01-09 15:30,153.1292,-27.3917,75.20,66.20,73.61,40.00,7.00,0.00,29.85,M,6.21,M,FEW,M,M,M,2400.00,M,M,M,M,YBBN 091530Z 04007KT 9999 FEW024 24/19 Q1011
YBBN,2015-01-09 16:00,153.1292,-27.3917,73.40,66.20,78.19,40.00,7.00,0.00,29.85,M,6.21,M,FEW,M,M,M,2400.00,M,M,M,M,YBBN 091600Z 04007KT 9999 FEW024 23/19 Q1011
YBBN,2015-01-09 16:30,153.1292,-27.3917,73.40,66.20,78.19,40.00,7.00,0.00,29.85,M,6.21,M,FEW,BKN,M,M,2400.00,30000.00,M,M,M,YBBN 091630Z 04007KT 9999 FEW024 BKN300 23/19 Q1011
YBBN,2015-01-09 17:00,153.1292,-27.3917,73.40,66.20,78.19,40.00,5.00,0.00,29.85,M,6.21,M,FEW,BKN,M,M,2400.00,30000.00,M,M,M,YBBN 091700Z 04005KT 9999 FEW024 BKN300 23/19 Q1011
YBBN,2015-01-09 17:30,153.1292,-27.3917,75.20,68.00,78.34,30.00,5.00,0.00,29.85,M,6.21,M,SCT,BKN,M,M,2400.00,30000.00,M,M,M,YBBN 091730Z 03005KT 9999 SCT024 BKN300 24/20 Q1011
YBBN,2015-01-09 18:00,153.1292,-27.3917,73.40,69.80,88.51,20.00,8.00,0.00,29.85,M,6.21,M,SCT,M,M,M,2400.00,M,M,M,VCSH,YBBN 091800Z 02008KT 9999 VCSH SCT024 23/21 Q1011 RESHRA
YBBN,2015-01-09 18:30,153.1292,-27.3917,73.40,68.00,83.21,30.00,8.00,0.00,29.85,M,6.21,M,FEW,BKN,M,M,2400.00,30000.00,M,M,M,YBBN 091830Z 03008KT 9999 FEW024 BKN300 23/20 Q1011
YBBN,2015-01-09 19:00,153.1292,-27.3917,73.40,68.00,83.21,30.00,7.00,0.00,29.88,M,6.21,M,SCT,BKN,M,M,2400.00,30000.00,M,M,M,YBBN 091900Z 03007KT 9999 SCT024 BKN300 23/20 Q1012
YBBN,2015-01-09 19:30,153.1292,-27.3917,75.20,68.00,78.34,30.00,7.00,0.00,29.88,M,6.21,M,FEW,SCT,M,M,2500.00,30000.00,M,M,M,YBBN 091930Z 03007KT 9999 FEW025 SCT300 24/20 Q1012
YBBN,2015-01-09 20:00,153.1292,-27.3917,77.00,68.00,73.78,40.00,7.00,0.00,29.88,M,6.21,M,SCT,SCT,M,M,2500.00,30000.00,M,M,M,YBBN 092000Z 04007KT 9999 SCT025 SCT300 25/20 Q1012 NOSIG
YBBN,2015-01-09 20:30,153.1292,-27.3917,78.80,68.00,69.52,40.00,9.00,0.00,29.88,M,6.21,M,FEW,M,M,M,2500.00,M,M,M,M,YBBN 092030Z 04009KT 9999 FEW025 26/20 Q1012
YBBN,2015-01-09 21:00,153.1292,-27.3917,78.80,68.00,69.52,50.00,11.00,0.00,29.88,M,6.21,M,FEW,BKN,M,M,2500.00,30000.00,M,M,M,YBBN 092100Z 05011KT 9999 FEW025 BKN300 26/20 Q1012 NOSIG
YBBN,2015-01-09 21:30,153.1292,-27.3917,80.60,68.00,65.54,50.00,10.00,0.00,29.91,M,6.21,M,SCT,SCT,M,M,2500.00,4100.00,M,M,M,YBBN 092130Z 05010KT 9999 SCT025 SCT041 27/20 Q1013
YBBN,2015-01-09 22:00,153.1292,-27.3917,80.60,68.00,65.54,50.00,9.00,0.00,29.91,M,6.21,M,BKN,M,M,M,2700.00,M,M,M,M,YBBN 092200Z 05009KT 9999 BKN027 27/20 Q1013
YBBN,2015-01-09 22:30,153.1292,-27.3917,82.40,68.00,61.81,50.00,11.00,0.00,29.88,M,6.21,M,SCT,M,M,M,2800.00,M,M,M,M,YBBN 092230Z 05011KT 9999 SCT028 28/20 Q1012
YBBN,2015-01-09 23:00,153.1292,-27.3917,82.40,68.00,61.81,50.00,11.00,0.00,29.88,M,6.21,M,SCT,M,M,M,2800.00,M,M,M,M,YBBN 092300Z 05011KT 9999 SCT028 28/20 Q1012
YBBN,2015-01-09 23:30,153.1292,-27.3917,82.40,66.20,58.08,30.00,11.00,0.00,29.88,M,6.21,M,SCT,M,M,M,2800.00,M,M,M,M,YBBN 092330Z 03011KT 9999 SCT028 28/19 Q1012
