#DEBUG: Format Typ    -> comma
#DEBUG: Time Period   -> 2013-04-22 00:00:00+00:00 2013-04-23 00:00:00+00:00
#DEBUG: Time Zone     -> Etc/UTC
#DEBUG: Data Contact   -> daryl herzmann akrherz@iastate.edu 515-294-5978
#DEBUG: Entries Found -> -1
station,valid,lon,lat,tmpf, dwpf, relh, drct, sknt, p01i, alti, mslp, vsby, gust, skyc1, skyc2, skyc3, skyc4, skyl1, skyl2, skyl3, skyl4, presentwx, metar
YBBN,2013-04-22 00:00,153.1292,-27.3917,73.40,55.40,53.29,340.00,6.00,0.00,29.94,M,6.21,M,M,M,M,M,M,M,M,M,M,YBBN 220000Z 34006KT CAVOK 23/13 Q1014 NOSIG
YBBN,2013-04-22 00:30,153.1292,-27.3917,73.40,57.20,56.88,10.00,7.00,0.00,29.94,M,6.21,M,M,M,M,M,M,M,M,M,M,YBBN 220030Z 01007KT CAVOK 23/14 Q1014
YBBN,2013-04-22 01:00,153.1292,-27.3917,75.20,57.20,53.55,10.00,8.00,0.00,29.91,M,6.21,M,M,M,M,M,M,M,M,M,M,YBBN 220100Z 01008KT CAVOK 24/14 Q1013
YBBN,2013-04-22 01:30,153.1292,-27.3917,75.20,59.00,57.12,10.00,9.00,0.00,29.91,M,6.21,M,M,M,M,M,M,M,M,M,M,YBBN 220130Z 01009KT CAVOK 24/15 Q1013
YBBN,2013-04-22 02:00,153.1292,-27.3917,73.40,59.00,60.67,20.00,9.00,0.00,29.88,M,6.21,M,M,M,M,M,M,M,M,M,M,YBBN 220200Z 02009KT CAVOK 23/15 Q1012 RMK 5AC130
YBBN,2013-04-22 02:30,153.1292,-27.3917,73.40,62.60,68.94,20.00,10.00,0.00,29.85,M,6.21,M,M,M,M,M,M,M,M,M,M,YBBN 220230Z 02010KT CAVOK 23/17 Q1011
YBBN,2013-04-22 03:00,153.1292,-27.3917,75.20,62.60,64.91,30.00,11.00,0.00,29.85,M,6.21,M,M,M,M,M,M,M,M,M,M,YBBN 220300Z 03011KT CAVOK 24/17 Q1011 NOSIG
YBBN,2013-04-22 03:30,153.1292,-27.3917,75.20,62.60,64.91,30.00,13.00,0.00,29.83,M,6.21,M,M,M,M,M,M,M,M,M,M,YBBN 220330Z 03013KT CAVOK 24/17 Q1010
YBBN,2013-04-22 04:00,153.1292,-27.3917,75.20,60.80,60.90,20.00,13.00,0.00,29.83,M,6.21,M,M,M,M,M,M,M,M,M,M,YBBN 220400Z 02013KT CAVOK 24/16 Q1010 NOSIG
YBBN,2013-04-22 04:30,153.1292,-27.3917,75.20,60.80,60.90,10.00,15.00,0.00,29.83,M,6.21,M,M,M,M,M,M,M,M,M,M,YBBN 220430Z 01015KT CAVOK 24/16 Q1010
YBBN,2013-04-22 05:00,153.1292,-27.3917,75.20,60.80,60.90,20.00,15.00,0.00,29.83,M,6.21,M,M,M,M,M,M,M,M,M,M,YBBN 220500Z 02015KT CAVOK 24/16 Q1010 NOSIG
YBBN,2013-04-22 05:30,153.1292,-27.3917,75.20,62.60,64.91,20.00,16.00,0.00,29.83,M,6.21,M,M,M,M,M,M,M,M,M,M,YBBN 220530Z 02016KT CAVOK 24/17 Q1010
YBBN,2013-04-22 06:00,153.1292,-27.3917,75.20,64.40,69.14,20.00,15.00,0.00,29.83,M,6.21,M,M,M,M,M,M,M,M,M,M,YBBN 220600Z 02015KT CAVOK 24/18 Q1010 NOSIG
YBBN,2013-04-22 06:30,153.1292,-27.3917,73.40,62.60,68.94,20.00,15.00,0.00,29.83,M,6.21,M,M,M,M,M,M,M,M,M,M,YBBN 220630Z 02015KT CAVOK 23/17 Q1010
YBBN,2013-04-22 07:00,153.1292,-27.3917,73.40,64.40,73.44,10.00,16.00,0.00,29.83,M,6.21,M,M,M,M,M,M,M,M,M,M,YBBN 220700Z 01016KT CAVOK 23/18 Q1010
YBBN,2013-04-22 07:30,153.1292,-27.3917,71.60,64.40,78.04,10.00,14.00,0.00,29.83,M,6.21,M,M,M,M,M,M,M,M,M,M,YBBN 220730Z 01014KT CAVOK 22/18 Q1010
YBBN,2013-04-22 08:00,153.1292,-27.3917,73.40,64.40,73.44,10.00,15.00,0.00,29.85,M,6.21,M,M,M,M,M,M,M,M,M,M,YBBN 220800Z 01015KT CAVOK 23/18 Q1011
YBBN,2013-04-22 08:30,153.1292,-27.3917,71.60,66.20,83.09,10.00,13.00,0.00,29.85,M,6.21,M,M,M,M,M,M,M,M,M,M,YBBN 220830Z 01013KT CAVOK 22/19 Q1011
YBBN,2013-04-22 09:00,153.1292,-27.3917,73.40,66.20,78.19,360.00,15.00,0.00,29.85,M,6.21,M,M,M,M,M,M,M,M,M,M,YBBN 220900Z 36015KT CAVOK 23/19 Q1011 NOSIG
YBBN,2013-04-22 09:30,153.1292,-27.3917,73.40,66.20,78.19,360.00,14.00,0.00,29.88,M,6.21,M,M,M,M,M,M,M,M,M,M,YBBN 220930Z 36014KT CAVOK 23/19 Q1012
YBBN,2013-04-22 10:00,153.1292,-27.3917,71.60,66.20,83.09,350.00,11.00,0.00,29.88,M,6.21,M,M,M,M,M,M,M,M,M,M,YBBN 221000Z 35011KT CAVOK 22/19 Q1012 NOSIG
YBBN,2013-04-22 10:30,153.1292,-27.3917,69.80,66.20,88.34,360.00,9.00,0.00,29.88,M,6.21,M,M,M,M,M,M,M,M,M,M,YBBN 221030Z 36009KT CAVOK 21/19 Q1012
YBBN,2013-04-22 11:00,153.1292,-27.3917,69.80,64.40,82.98,350.00,7.00,0.00,29.88,M,6.21,M,M,M,M,M,M,M,M,M,M,YBBN 221100Z 35007KT CAVOK 21/18 Q1012 NOSIG
YBBN,2013-04-22 11:30,153.1292,-27.3917,68.00,64.40,88.26,350.00,5.00,0.00,29.91,M,6.21,M,M,M,M,M,M,M,M,M,M,YBBN 221130Z 35005KT CAVOK 20/18 Q1013
YBBN,2013-04-22 12:00,153.1292,-27.3917,68.00,64.40,88.26,330.00,4.00,0.00,29.88,M,6.21,M,M,M,M,M,M,M,M,M,M,YBBN 221200Z 33004KT CAVOK 20/18 Q1012 NOSIG
YBBN,2013-04-22 12:30,153.1292,-27.3917,66.20,62.60,88.18,330.00,5.00,0.00,29.88,M,6.21,M,M,M,M,M,M,M,M,M,M,YBBN 221230Z 33005KT CAVOK 19/17 Q1012
YBBN,2013-04-22 13:00,153.1292,-27.3917,66.20,62.60,88.18,340.00,4.00,0.00,29.88,M,6.21,M,M,M,M,M,M,M,M,M,M,YBBN 221300Z 34004KT CAVOK 19/17 Q1012 NOSIG
YBBN,2013-04-22 13:30,153.1292,-27.3917,64.40,62.60,93.88,360.00,7.00,0.00,29.88,M,6.21,M,M,M,M,M,M,M,M,M,M,YBBN 221330Z 36007KT CAVOK 18/17 Q1012
YBBN,2013-04-22 14:00,153.1292,-27.3917,64.40,62.60,93.88,360.00,4.00,0.00,29.88,M,6.21,M,M,M,M,M,M,M,M,M,M,YBBN 221400Z 36004KT CAVOK 18/17 Q1012 NOSIG
YBBN,2013-04-22 14:30,153.1292,-27.3917,62.60,62.60,100.00,330.00,3.00,0.00,29.88,M,6.21,M,M,M,M,M,M,M,M,M,M,YBBN 221430Z 33003KT CAVOK 17/17 Q1012
YBBN,2013-04-22 15:00,153.1292,-27.3917,62.60,60.80,93.83,240.00,4.00,0.00,29.88,M,6.21,M,M,M,M,M,M,M,M,M,M,YBBN 221500Z 24004KT CAVOK 17/16 Q1012 NOSIG
YBBN,2013-04-22 15:30,153.1292,-27.3917,62.60,60.80,93.83,210.00,5.00,0.00,29.88,M,6.21,M,M,M,M,M,M,M,M,M,M,YBBN 221530Z 21005KT CAVOK 17/16 Q1012
YBBN,2013-04-22 16:00,153.1292,-27.3917,62.60,60.80,93.83,210.00,6.00,0.00,29.88,M,6.21,M,M,M,M,M,M,M,M,M,M,YBBN 221600Z 21006KT CAVOK 17/16 Q1012 NOSIG
YBBN,2013-04-22 16:30,153.1292,-27.3917,62.60,60.80,93.83,200.00,5.00,0.00,29.85,M,6.21,M,M,M,M,M,M,M,M,M,M,YBBN 221630Z 20005KT CAVOK 17/16 Q1011
YBBN,2013-04-22 17:00,153.1292,-27.3917,62.60,60.80,93.83,230.00,4.00,0.00,29.85,M,6.21,M,M,M,M,M,M,M,M,M,M,YBBN 221700Z 23004KT CAVOK 17/16 Q1011 NOSIG
YBBN,2013-04-22 17:30,153.1292,-27.3917,60.80,60.80,100.00,210.00,5.00,0.00,29.85,M,6.21,M,M,M,M,M,M,M,M,M,M,YBBN 221730Z 21005KT CAVOK 16/16 Q1011
YBBN,2013-04-22 18:00,153.1292,-27.3917,62.60,60.80,93.83,200.00,5.00,0.00,29.85,M,6.21,M,M,M,M,M,M,M,M,M,M,YBBN 221800Z 20005KT CAVOK 17/16 Q1011 NOSIG
YBBN,2013-04-22 18:30,153.1292,-27.3917,60.80,60.80,100.00,200.00,5.00,0.00,29.85,M,6.21,M,M,M,M,M,M,M,M,M,M,YBBN 221830Z 20005KT CAVOK 16/16 Q1011
YBBN,2013-04-22 19:00,153.1292,-27.3917,60.80,59.00,93.79,190.00,4.00,0.00,29.85,M,6.21,M,M,M,M,M,M,M,M,M,M,YBBN 221900Z 19004KT CAVOK 16/15 Q1011 NOSIG
YBBN,2013-04-22 19:30,153.1292,-27.3917,62.60,60.80,93.83,200.00,4.00,0.00,29.88,M,6.21,M,M,M,M,M,M,M,M,M,M,YBBN 221930Z 20004KT CAVOK 17/16 Q1012
YBBN,2013-04-22 20:00,153.1292,-27.3917,62.60,60.80,93.83,190.00,5.00,0.00,29.88,M,6.21,M,M,M,M,M,M,M,M,M,M,YBBN 222000Z 19005KT CAVOK 17/16 Q1012 NOSIG
YBBN,2013-04-22 20:30,153.1292,-27.3917,64.40,62.60,93.88,180.00,5.00,0.00,29.88,M,6.21,M,M,M,M,M,M,M,M,M,M,YBBN 222030Z 18005KT CAVOK 18/17 Q1012 RMK 6AC130
YBBN,2013-04-22 21:00,153.1292,-27.3917,64.40,62.60,93.88,190.00,5.00,0.00,29.88,M,6.21,M,M,M,M,M,M,M,M,M,M,YBBN 222100Z 19005KT CAVOK 18/17 Q1012 NOSIG
YBBN,2013-04-22 21:30,153.1292,-27.3917,66.20,62.60,88.18,200.00,3.00,0.00,29.88,M,6.21,M,M,M,M,M,M,M,M,M,M,YBBN 222130Z 20003KT CAVOK 19/17 Q1012 RMK 5AC180
YBBN,2013-04-22 22:00,153.1292,-27.3917,68.00,62.60,82.86,200.00,7.00,0.00,29.91,M,6.21,M,M,M,M,M,M,M,M,M,M,YBBN 222200Z 20007KT CAVOK 20/17 Q1013 NOSIG
YBBN,2013-04-22 22:30,153.1292,-27.3917,69.80,62.60,77.90,210.00,6.00,0.00,29.91,M,6.21,M,M,M,M,M,M,M,M,M,M,YBBN 222230Z 21006KT CAVOK 21/17 Q1013
YBBN,2013-04-22 23:00,153.1292,-27.3917,71.60,62.60,73.27,200.00,4.00,0.00,29.91,M,6.21,M,M,M,M,M,M,M,M,M,M,YBBN 222300Z 20004KT CAVOK 22/17 Q1013
YBBN,2013-04-22 23:30,153.1292,-27.3917,75.20,64.40,69.14,60.00,2.00,0.00,29.91,M,6.21,M,M,M,M,M,M,M,M,M,M,YBBN 222330Z 06002KT CAVOK 24/18 Q1013
