#DEBUG: Format Typ    -> comma
#DEBUG: Time Period   -> 2011-02-19 00:00:00+00:00 2011-02-20 00:00:00+00:00
#DEBUG: Time Zone     -> Etc/UTC
#DEBUG: Data Contact   -> daryl herzmann akrherz@iastate.edu 515-294-5978
#DEBUG: Entries Found -> -1
station,valid,lon,lat,tmpf, dwpf, relh, drct, sknt, p01i, alti, mslp, vsby, gust, skyc1, skyc2, skyc3, skyc4, skyl1, skyl2, skyl3, skyl4, presentwx, metar
YBBN,2011-02-19 00:00,153.1292,-27.3917,82.40,71.60,69.90,60.00,7.00,M,29.94,M,6.21,M,BKN,M,M,M,2500.00,M,M,M,M,YBBN 190000Z 06007KT 9999 BKN025 28/22 Q1014 NOSIG
YBBN,2011-02-19 00:30,153.1292,-27.3917,82.40,69.80,65.74,70.00,6.00,M,29.94,M,6.21,M,SCT,M,M,M,3000.00,M,M,M,M,YBBN 190030Z 07006KT 9999 SCT030 28/21 Q1014 NOSIG
YBBN,2011-02-19 01:00,153.1292,-27.3917,82.40,71.60,69.90,50.00,7.00,M,29.91,M,6.21,M,SCT,M,M,M,3000.00,M,M,M,M,YBBN 190100Z 05007KT 9999 SCT030 28/22 Q1013 NOSIG
YBBN,2011-02-19 01:30,153.1292,-27.3917,84.20,71.60,65.95,30.00,9.00,M,29.91,M,6.21,M,FEW,M,M,M,3300.00,M,M,M,M,YBBN 190130Z 03009KT 9999 FEW033 29/22 Q1013 NOSIG
YBBN,2011-02-19 02:00,153.1292,-27.3917,84.20,69.80,62.03,30.00,9.00,M,29.91,M,6.21,M,FEW,M,M,M,3300.00,M,M,M,M,YBBN 190200Z 03009KT 9999 FEW033 29/21 Q1013 NOSIG
YBBN,2011-02-19 02:30,153.1292,-27.3917,84.20,71.60,65.95,30.00,9.00,M,29.88,M,6.21,M,FEW,M,M,M,2700.00,M,M,M,M,YBBN 190230Z 03009KT 9999 FEW027 29/22 Q1012 NOSIG
YBBN,2011-02-19 03:00,153.1292,-27.3917,84.20,71.60,65.95,30.00,9.00,M,29.88,M,6.21,M,FEW,M,M,M,2500.00,M,M,M,M,YBBN 190300Z 03009KT 9999 FEW025 29/22 Q1012 NOSIG
YBBN,2011-02-19 03:30,153.1292,-27.3917,84.20,71.60,65.95,30.00,9.00,M,29.88,M,6.21,M,FEW,M,M,M,2500.00,M,M,M,M,YBBN 190330Z 03009KT 9999 FEW025 29/22 Q1012 NOSIG
YBBN,2011-02-19 04:00,153.1292,-27.3917,84.20,69.80,62.03,50.00,10.00,M,29.85,M,6.21,M,FEW,M,M,M,2500.00,M,M,M,M,YBBN 190400Z 05010KT 9999 FEW025 29/21 Q1011 NOSIG
YBBN,2011-02-19 04:30,153.1292,-27.3917,84.20,69.80,62.03,60.00,9.00,M,29.85,M,6.21,M,FEW,M,M,M,2500.00,M,M,M,M,YBBN 190430Z 06009KT 9999 FEW025 29/21 Q1011 NOSIG
YBBN,2011-02-19 05:00,153.1292,-27.3917,84.20,69.80,62.03,60.00,9.00,M,29.85,M,6.21,M,FEW,M,M,M,2500.00,M,M,M,M,YBBN 190500Z 06009KT 9999 FEW025 29/21 Q1011 NOSIG
YBBN,2011-02-19 05:30,153.1292,-27.3917,84.20,71.60,65.95,60.00,10.00,M,29.85,M,6.21,M,FEW,M,M,M,2500.00,M,M,M,M,YBBN 190530Z 06010KT 9999 FEW025 29/22 Q1011 NOSIG
YBBN,2011-02-19 06:00,153.1292,-27.3917,84.20,69.80,62.03,50.00,10.00,M,29.85,M,6.21,M,FEW,M,M,M,2500.00,M,M,M,M,YBBN 190600Z 05010KT 9999 FEW025 29/21 Q1011 NOSIG
YBBN,2011-02-19 06:30,153.1292,-27.3917,82.40,69.80,65.74,60.00,10.00,M,29.85,M,6.21,M,FEW,M,M,M,2500.00,M,M,M,M,YBBN 190630Z 06010KT 9999 FEW025 28/21 Q1011 NOSIG
YBBN,2011-02-19 07:00,153.1292,-27.3917,82.40,69.80,65.74,50.00,9.00,M,29.85,M,6.21,M,FEW,M,M,M,2500.00,M,M,M,M,YBBN 190700Z 05009KT 9999 FEW025 28/21 Q1011 NOSIG
YBBN,2011-02-19 07:30,153.1292,-27.3917,80.60,69.80,69.71,50.00,8.00,M,29.85,M,6.21,M,FEW,M,M,M,2500.00,M,M,M,M,YBBN 190730Z 05008KT 9999 FEW025 27/21 Q1011 NOSIG
YBBN,2011-02-19 08:00,153.1292,-27.3917,80.60,69.80,69.71,50.00,8.00,M,29.85,M,6.21,M,FEW,M,M,M,2500.00,M,M,M,M,YBBN 190800Z 05008KT 9999 FEW025 27/21 Q1011 NOSIG
YBBN,2011-02-19 08:30,153.1292,-27.3917,78.80,71.60,78.62,50.00,7.00,M,29.85,M,6.21,M,FEW,M,M,M,2500.00,M,M,M,M,YBBN 190830Z 05007KT 9999 FEW025 26/22 Q1011 NOSIG
YBBN,2011-02-19 09:00,153.1292,-27.3917,78.80,69.80,73.95,60.00,7.00,M,29.88,M,6.21,M,FEW,M,M,M,2500.00,M,M,M,M,YBBN 190900Z 06007KT 9999 FEW025 26/21 Q1012 NOSIG
YBBN,2011-02-19 09:30,153.1292,-27.3917,78.80,69.80,73.95,50.00,6.00,M,29.88,M,6.21,M,FEW,M,M,M,2500.00,M,M,M,M,YBBN 190930Z 05006KT 9999 FEW025 26/21 Q1012 NOSIG
YBBN,2011-02-19 10:00,153.1292,-27.3917,77.00,69.80,78.48,40.00,5.00,M,29.88,M,6.21,M,FEW,M,M,M,2000.00,M,M,M,M,YBBN 191000Z 04005KT 9999 FEW020 25/21 Q1012 NOSIG
YBBN,2011-02-19 10:30,153.1292,-27.3917,77.00,69.80,78.48,40.00,5.00,M,29.88,M,6.21,M,FEW,M,M,M,2000.00,M,M,M,M,YBBN 191030Z 04005KT 9999 FEW020 25/21 Q1012 NOSIG
YBBN,2011-02-19 11:00,153.1292,-27.3917,75.20,69.80,83.32,30.00,5.00,M,29.88,M,6.21,M,FEW,M,M,M,2000.00,M,M,M,M,YBBN 191100Z 03005KT 9999 FEW020 24/21 Q1012 NOSIG
YBBN,2011-02-19 11:30,153.1292,-27.3917,75.20,71.60,88.59,10.00,6.00,M,29.88,M,6.21,M,FEW,M,M,M,2000.00,M,M,M,M,YBBN 191130Z 01006KT 9999 FEW020 24/22 Q1012 NOSIG
YBBN,2011-02-19 12:00,153.1292,-27.3917,75.20,69.80,83.32,10.00,6.00,M,29.88,M,6.21,M,FEW,M,M,M,2000.00,M,M,M,M,YBBN 191200Z 01006KT 9999 FEW020 24/21 Q1012 NOSIG
YBBN,2011-02-19 12:30,153.1292,-27.3917,75.20,69.80,83.32,20.00,7.00,M,29.88,M,6.21,M,FEW,M,M,M,2000.00,M,M,M,M,YBBN 191230Z 02007KT 9999 FEW020 24/21 Q1012 NOSIG
YBBN,2011-02-19 13:00,153.1292,-27.3917,75.20,69.80,83.32,20.00,8.00,M,29.88,M,6.21,M,FEW,M,M,M,2000.00,M,M,M,M,YBBN 191300Z 02008KT 9999 FEW020 24/21 Q1012 NOSIG
YBBN,2011-02-19 13:30,153.1292,-27.3917,77.00,69.80,78.48,20.00,8.00,M,29.88,M,6.21,M,FEW,M,M,M,2000.00,M,M,M,M,YBBN 191330Z 02008KT 9999 FEW020 25/21 Q1012 NOSIG
YBBN,2011-02-19 14:00,153.1292,-27.3917,75.20,71.60,88.59,20.00,7.00,M,29.88,M,6.21,M,FEW,M,M,M,2000.00,M,M,M,M,YBBN 191400Z 02007KT 9999 FEW020 24/22 Q1012 NOSIG
YBBN,2011-02-19 14:30,153.1292,-27.3917,75.20,71.60,88.59,350.00,6.00,M,29.88,M,6.21,M,SCT,M,M,M,2000.00,M,M,M,M,YBBN 191430Z 35006KT 9999 SCT020 24/22 Q1012 NOSIG
YBBN,2011-02-19 15:00,153.1292,-27.3917,75.20,71.60,88.59,310.00,7.00,M,29.85,M,6.21,M,SCT,M,M,M,2000.00,M,M,M,M,YBBN 191500Z 31007KT 9999 SCT020 24/22 Q1011 NOSIG
YBBN,2011-02-19 15:30,153.1292,-27.3917,75.20,69.80,83.32,290.00,6.00,M,29.85,M,6.21,M,FEW,M,M,M,2200.00,M,M,M,M,YBBN 191530Z 29006KT 9999 FEW022 24/21 Q1011 NOSIG
YBBN,2011-02-19 16:00,153.1292,-27.3917,73.40,69.80,88.51,290.00,5.00,M,29.85,M,6.21,M,FEW,M,M,M,2200.00,M,M,M,M,YBBN 191600Z 29005KT 9999 FEW022 23/21 Q1011 NOSIG
YBBN,2011-02-19 16:30,153.1292,-27.3917,73.40,69.80,88.51,270.00,4.00,M,29.85,M,6.21,M,FEW,M,M,M,2200.00,M,M,M,M,YBBN 191630Z 27004KT 9999 FEW022 23/21 Q1011 NOSIG
YBBN,2011-02-19 17:00,153.1292,-27.3917,73.40,69.80,88.51,280.00,1.00,M,29.85,M,6.21,M,FEW,M,M,M,2200.00,M,M,M,M,YBBN 191700Z 28001KT 9999 FEW022 23/21 Q1011 NOSIG
YBBN,2011-02-19 17:30,153.1292,-27.3917,73.40,69.80,88.51,320.00,2.00,M,29.85,M,6.21,M,FEW,M,M,M,2200.00,M,M,M,M,YBBN 191730Z 32002KT 9999 FEW022 23/21 Q1011 NOSIG
YBBN,2011-02-19 18:00,153.1292,-27.3917,71.60,69.80,94.06,290.00,4.00,M,29.85,M,6.21,M,FEW,M,M,M,2200.00,M,M,M,M,YBBN 191800Z 29004KT 9999 FEW022 22/21 Q1011 NOSIG
YBBN,2011-02-19 18:30,153.1292,-27.3917,71.60,69.80,94.06,290.00,4.00,M,29.85,M,6.21,M,FEW,M,M,M,2000.00,M,M,M,M,YBBN 191830Z 29004KT 9999 FEW020 22/21 Q1011 NOSIG
YBBN,2011-02-19 19:00,153.1292,-27.3917,71.60,69.80,94.06,250.00,4.00,M,29.85,M,6.21,M,FEW,M,M,M,2000.00,M,M,M,M,YBBN 191900Z 25004KT 9999 FEW020 22/21 Q1011 NOSIG
YBBN,2011-02-19 19:30,153.1292,-27.3917,71.60,69.80,94.06,0.00,0.00,M,29.85,M,6.21,M,FEW,M,M,M,1800.00,M,M,M,M,YBBN 191930Z 00000KT 9999 FEW018 22/21 Q1011 NOSIG
YBBN,2011-02-19 20:00,153.1292,-27.3917,71.60,69.80,94.06,250.00,4.00,M,29.85,M,6.21,M,FEW,M,M,M,2000.00,M,M,M,M,YBBN 192000Z 25004KT 9999 FEW020 22/21 Q1011 NOSIG
YBBN,2011-02-19 20:30,153.1292,-27.3917,73.40,69.80,88.51,270.00,5.00,M,29.85,M,6.21,M,FEW,M,M,M,2000.00,M,M,M,M,YBBN 192030Z 27005KT 9999 FEW020 23/21 Q1011 NOSIG
YBBN,2011-02-19 21:00,153.1292,-27.3917,77.00,71.60,83.44,270.00,3.00,M,29.85,M,6.21,M,FEW,M,M,M,2000.00,M,M,M,M,YBBN 192100Z 27003KT 9999 FEW020 25/22 Q1011 NOSIG
YBBN,2011-02-19 21:30,153.1292,-27.3917,78.80,69.80,73.95,290.00,3.00,M,29.85,M,6.21,M,FEW,M,M,M,2000.00,M,M,M,M,YBBN 192130Z 29003KT 9999 FEW020 26/21 Q1011 NOSIG
YBBN,2011-02-19 22:00,153.1292,-27.3917,80.60,69.80,69.71,350.00,5.00,M,29.85,M,6.21,M,M,M,M,M,M,M,M,M,M,YBBN 192200Z 35005KT CAVOK 27/21 Q1011 NOSIG
YBBN,2011-02-19 22:30,153.1292,-27.3917,80.60,66.20,61.58,360.00,6.00,M,29.85,M,6.21,M,FEW,M,M,M,2000.00,M,M,M,M,YBBN 192230Z 36006KT 9999 FEW020 27/19 Q1011 NOSIG
YBBN,2011-02-19 23:00,153.1292,-27.3917,82.40,66.20,58.08,360.00,6.00,M,29.85,M,6.21,M,M,M,M,M,M,M,M,M,M,YBBN 192300Z 36006KT CAVOK 28/19 Q1011 NOSIG
YBBN,2011-02-19 23:30,153.1292,-27.3917,84.20,66.20,54.80,10.00,7.00,M,29.85,M,6.21,M,M,M,M,M,M,M,M,M,M,YBBN 192330Z 01007KT CAVOK 29/19 Q1011 NOSIG
