#DEBUG: Format Typ    -> comma
#DEBUG: Time Period   -> 2010-01-01 00:00:00+00:00 2010-01-02 00:00:00+00:00
#DEBUG: Time Zone     -> Etc/UTC
#DEBUG: Data Contact   -> daryl herzmann akrherz@iastate.edu 515-294-5978
#DEBUG: Entries Found -> -1
station,valid,lon,lat,tmpf, dwpf, relh, drct, sknt, p01i, alti, mslp, vsby, gust, skyc1, skyc2, skyc3, skyc4, skyl1, skyl2, skyl3, skyl4, presentwx, metar
YBBN,2010-01-01 01:00,153.1292,-27.3917,80.60,69.80,69.71,30.00,10.00,M,29.97,M,6.21,M,FEW,SCT,BKN,M,2800.00,22000.00,26000.00,M,M,YBBN 010100Z 03010KT 9999 FEW028 SCT220 BKN260 27/21 Q1015 NOSIG
YBBN,2010-01-01 01:30,153.1292,-27.3917,80.60,68.00,65.54,30.00,11.00,M,29.97,M,6.21,M,FEW,SCT,BKN,M,3000.00,20000.00,26000.00,M,M,YBBN 010130Z 03011KT 9999 FEW030 SCT200 BKN260 27/20 Q1015 NOSIG
YBBN,2010-01-01 02:00,153.1292,-27.3917,80.60,69.80,69.71,30.00,11.00,M,29.94,M,6.21,M,FEW,BKN,BKN,M,2800.00,18000.00,26000.00,M,M,YBBN 010200Z 03011KT 9999 FEW028 BKN180 BKN260 27/21 Q1014 NOSIG
YBBN,2010-01-01 02:30,153.1292,-27.3917,80.60,68.00,65.54,30.00,13.00,M,29.94,M,6.21,M,FEW,BKN,BKN,M,2800.00,18000.00,26000.00,M,M,YBBN 010230Z 03013KT 9999 FEW028 BKN180 BKN260 27/20 Q1014 NOSIG
YBBN,2010-01-01 03:00,153.1292,-27.3917,80.60,69.80,69.71,30.00,14.00,M,29.94,M,6.21,M,FEW,BKN,BKN,M,2800.00,18000.00,26000.00,M,M,YBBN 010300Z 03014KT 9999 FEW028 BKN180 BKN260 27/21 Q1014 NOSIG
YBBN,2010-01-01 03:30,153.1292,-27.3917,78.80,68.00,69.52,20.00,14.00,M,29.94,M,6.21,M,FEW,BKN,BKN,M,2800.00,18000.00,26000.00,M,M,YBBN 010330Z 02014KT 9999 FEW028 BKN180 BKN260 26/20 Q1014 NOSIG
YBBN,2010-01-01 04:00,153.1292,-27.3917,80.60,68.00,65.54,30.00,15.00,M,29.91,M,6.21,M,FEW,BKN,BKN,M,2800.00,18000.00,26000.00,M,M,YBBN 010400Z 03015KT 9999 FEW028 BKN180 BKN260 27/20 Q1013 RMK DIST RASH W NOSIG
YBBN,2010-01-01 04:30,153.1292,-27.3917,78.80,69.80,73.95,30.00,15.00,M,29.91,M,6.21,M,FEW,BKN,M,M,2800.00,26000.00,M,M,M,YBBN 010430Z 03015KT 9999 FEW028 BKN260 26/21 Q1013 NOSIG
YBBN,2010-01-01 05:00,153.1292,-27.3917,80.60,68.00,65.54,30.00,14.00,M,29.91,M,6.21,M,FEW,SCT,BKN,M,2800.00,6500.00,26000.00,M,M,YBBN 010500Z 03014KT 9999 FEW028 SCT065 BKN260 27/20 Q1013 NOSIG
YBBN,2010-01-01 05:30,153.1292,-27.3917,82.40,68.00,61.81,40.00,13.00,M,29.91,M,6.21,M,FEW,SCT,BKN,M,2800.00,6500.00,26000.00,M,M,YBBN 010530Z 04013KT 9999 FEW028 SCT065 BKN260 28/20 Q1013 NOSIG
YBBN,2010-01-01 06:00,153.1292,-27.3917,78.80,68.00,69.52,30.00,13.00,M,29.88,M,6.21,M,FEW,SCT,BKN,M,2800.00,18000.00,26000.00,M,M,YBBN 010600Z 03013KT 9999 FEW028 SCT180 BKN260 26/20 Q1012 NOSIG
YBBN,2010-01-01 06:30,153.1292,-27.3917,78.80,68.00,69.52,40.00,11.00,M,29.91,M,6.21,M,M,M,M,M,M,M,M,M,// //////,YBBN 010630Z 04011KT //// // ////// 26/20 Q1013 RMK CLD:CLR BLW 125 VIS:9999 INTER 0900/0930 3000 SHRA BKN015
YBBN,2010-01-01 15:00,153.1292,-27.3917,77.00,69.80,78.48,10.00,12.00,M,29.88,M,6.21,M,BKN,BKN,M,M,2000.00,4400.00,M,M,M,YBBN 011500Z 01012KT 9999 BKN020 BKN044 25/21 Q1012 NOSIG
YBBN,2010-01-01 15:30,153.1292,-27.3917,77.00,69.80,78.48,10.00,12.00,M,29.88,M,6.21,M,SCT,BKN,BKN,M,1800.00,5400.00,16000.00,M,M,YBBN 011530Z 01012KT 9999 SCT018 BKN054 BKN160 25/21 Q1012 NOSIG
YBBN,2010-01-01 16:00,153.1292,-27.3917,77.00,69.80,78.48,10.00,10.00,M,29.88,M,6.21,M,SCT,BKN,M,M,1800.00,15000.00,M,M,M,YBBN 011600Z 01010KT 9999 SCT018 BKN150 25/21 Q1012 NOSIG
YBBN,2010-01-01 16:30,153.1292,-27.3917,77.00,69.80,78.48,10.00,10.00,M,29.85,M,6.21,M,SCT,BKN,M,M,1900.00,16000.00,M,M,M,YBBN 011630Z 01010KT 9999 SCT019 BKN160 25/21 Q1011 NOSIG
YBBN,2010-01-01 17:00,153.1292,-27.3917,75.20,71.60,88.59,320.00,9.00,M,29.85,M,6.21,M,SCT,BKN,M,M,1900.00,3600.00,M,M,M,YBBN 011700Z 32009KT 9999 SCT019 BKN036 24/22 Q1011 NOSIG
YBBN,2010-01-01 17:30,153.1292,-27.3917,75.20,71.60,88.59,330.00,5.00,M,29.85,M,6.21,M,FEW,SCT,BKN,M,1900.00,4100.00,6300.00,M,M,YBBN 011730Z 33005KT 9999 FEW019 SCT041 BKN063 24/22 Q1011 NOSIG
YBBN,2010-01-01 18:00,153.1292,-27.3917,75.20,71.60,88.59,310.00,5.00,M,29.88,M,6.21,M,FEW,SCT,BKN,M,1900.00,6300.00,13000.00,M,M,YBBN 011800Z 31005KT 9999 FEW019 SCT063 BKN130 24/22 Q1012 NOSIG
YBBN,2010-01-01 18:30,153.1292,-27.3917,75.20,71.60,88.59,310.00,5.00,M,29.88,M,6.21,M,FEW,BKN,M,M,2000.00,13000.00,M,M,M,YBBN 011830Z 31005KT 9999 FEW020 BKN130 24/22 Q1012 NOSIG
YBBN,2010-01-01 19:00,153.1292,-27.3917,73.40,71.60,94.10,310.00,4.00,M,29.88,M,6.21,M,FEW,BKN,M,M,2000.00,15000.00,M,M,M,YBBN 011900Z 31004KT 9999 FEW020 BKN150 23/22 Q1012 NOSIG
YBBN,2010-01-01 19:30,153.1292,-27.3917,75.20,71.60,88.59,310.00,6.00,M,29.88,M,6.21,M,FEW,BKN,M,M,2000.00,16000.00,M,M,M,YBBN 011930Z 31006KT 9999 FEW020 BKN160 24/22 Q1012 NOSIG
YBBN,2010-01-01 20:00,153.1292,-27.3917,75.20,71.60,88.59,330.00,6.00,M,29.88,M,6.21,M,FEW,SCT,BKN,M,2200.00,4500.00,16000.00,M,M,YBBN 012000Z 33006KT 9999 FEW022 SCT045 BKN160 24/22 Q1012 NOSIG
YBBN,2010-01-01 20:30,153.1292,-27.3917,77.00,71.60,83.44,340.00,6.00,M,29.88,M,6.21,M,FEW,BKN,M,M,2200.00,13000.00,M,M,M,YBBN 012030Z 34006KT 9999 FEW022 BKN130 25/22 Q1012 NOSIG
YBBN,2010-01-01 21:00,153.1292,-27.3917,78.80,69.80,73.95,340.00,8.00,M,29.91,M,6.21,M,FEW,BKN,M,M,1800.00,13000.00,M,M,M,YBBN 012100Z 34008KT 9999 FEW018 BKN130 26/21 Q1013 NOSIG
YBBN,2010-01-01 21:30,153.1292,-27.3917,78.80,69.80,73.95,340.00,10.00,M,29.91,M,6.21,M,FEW,SCT,M,M,1800.00,18000.00,M,M,M,YBBN 012130Z 34010KT 9999 FEW018 SCT180 26/21 Q1013 NOSIG
YBBN,2010-01-01 22:00,153.1292,-27.3917,80.60,69.80,69.71,350.00,10.00,M,29.91,M,6.21,M,FEW,SCT,M,M,2000.00,17000.00,M,M,M,YBBN 012200Z 35010KT 9999 FEW020 SCT170 27/21 Q1013 NOSIG
YBBN,2010-01-01 22:30,153.1292,-27.3917,80.60,69.80,69.71,350.00,12.00,M,29.88,M,6.21,M,FEW,M,M,M,2000.00,M,M,M,M,YBBN 012230Z 35012KT 9999 FEW020 27/21 Q1012 NOSIG
YBBN,2010-01-01 23:00,153.1292,-27.3917,82.40,68.00,61.81,360.00,10.00,M,29.88,M,6.21,M,FEW,M,M,M,2000.00,M,M,M,M,YBBN 012300Z 36010KT 9999 FEW020 28/20 Q1012 NOSIG
YBBN,2010-01-01 23:30,153.1292,-27.3917,82.40,68.00,61.81,10.00,9.00,M,29.88,M,6.21,M,FEW,M,M,M,2000.00,M,M,M,M,YBBN 012330Z 01009KT 9999 FEW020 28/20 Q1012 NOSIG
