#DEBUG: Format Typ    -> comma
#DEBUG: Time Period   -> 2015-01-15 00:00:00+00:00 2015-01-16 00:00:00+00:00
#DEBUG: Time Zone     -> Etc/UTC
#DEBUG: Data Contact   -> daryl herzmann akrherz@iastate.edu 515-294-5978
#DEBUG: Entries Found -> -1
station,valid,lon,lat,tmpf, dwpf, relh, drct, sknt, p01i, alti, mslp, vsby, gust, skyc1, skyc2, skyc3, skyc4, skyl1, skyl2, skyl3, skyl4, presentwx, metar
YBBN,2015-01-15 00:00,153.1292,-27.3917,86.00,73.40,66.15,270.00,10.00,0.00,29.65,M,6.21,M,SCT,M,M,M,3000.00,M,M,M,M,YBBN 150000Z 27010KT 9999 SCT030 30/23 Q1004
YBBN,2015-01-15 00:30,153.1292,-27.3917,89.60,73.40,59.01,260.00,9.00,0.00,29.65,M,6.21,M,SCT,M,M,M,3200.00,M,M,M,M,YBBN 150030Z 26009KT 9999 SCT032 32/23 Q1004
YBBN,2015-01-15 01:00,153.1292,-27.3917,87.80,71.60,58.78,300.00,9.00,0.00,29.62,M,6.21,M,SCT,M,M,M,3600.00,M,M,M,M,YBBN 150100Z 30009KT 9999 SCT036 31/22 Q1003
YBBN,2015-01-15 01:30,153.1292,-27.3917,89.60,71.60,55.53,360.00,9.00,0.00,29.62,M,6.21,M,FEW,M,M,M,4000.00,M,M,M,M,YBBN 150130Z 36009KT 9999 FEW040 32/22 Q1003
YBBN,2015-01-15 02:00,153.1292,-27.3917,91.40,71.60,52.48,330.00,11.00,0.00,29.62,M,6.21,M,FEW,M,M,M,4000.00,M,M,M,M,YBBN 150200Z 33011KT 9999 FEW040 33/22 Q1003
YBBN,2015-01-15 02:30,153.1292,-27.3917,93.20,69.80,46.67,350.00,9.00,0.00,29.59,M,6.21,M,SCT,M,M,M,4400.00,M,M,M,M,YBBN 150230Z 35009KT 9999 SCT044 34/21 Q1002
YBBN,2015-01-15 03:00,153.1292,-27.3917,95.00,68.00,41.50,270.00,13.00,0.00,29.59,M,6.21,24.00,M,M,M,M,M,M,M,M,M,YBBN 150300Z 27013G24KT CAVOK 35/20 Q1002
YBBN,2015-01-15 03:30,153.1292,-27.3917,95.00,68.00,41.50,250.00,10.00,0.00,29.59,M,6.21,M,M,M,M,M,M,M,M,M,M,YBBN 150330Z 25010KT CAVOK 35/20 Q1002
YBBN,2015-01-15 04:00,153.1292,-27.3917,93.20,66.20,41.23,250.00,14.00,0.00,29.56,M,6.21,M,M,M,M,M,M,M,M,M,M,YBBN 150400Z 25014KT CAVOK 34/19 Q1001
YBBN,2015-01-15 04:30,153.1292,-27.3917,93.20,62.60,36.35,240.00,15.00,0.00,29.56,M,6.21,M,M,M,M,M,M,M,M,M,M,YBBN 150430Z 24015KT CAVOK 34/17 Q1001
YBBN,2015-01-15 05:00,153.1292,-27.3917,96.80,62.60,32.54,240.00,17.00,0.00,29.56,M,6.21,M,M,M,M,M,M,M,M,M,M,YBBN 150500Z 24017KT CAVOK 36/17 Q1001 NOSIG
YBBN,2015-01-15 05:30,153.1292,-27.3917,96.80,62.60,32.54,240.00,18.00,0.00,29.56,M,6.21,M,M,M,M,M,M,M,M,M,M,YBBN 150530Z 24018KT CAVOK 36/17 Q1001
YBBN,2015-01-15 06:00,153.1292,-27.3917,96.80,59.00,28.63,250.00,18.00,0.00,29.56,M,6.21,M,M,M,M,M,M,M,M,M,M,YBBN 150600Z 25018KT CAVOK 36/15 Q1001
YBBN,2015-01-15 06:31,153.1292,-27.3917,96.80,59.00,28.63,250.00,15.00,0.00,29.56,M,6.21,26.00,M,M,M,M,M,M,M,M,M,YBBN 150631Z 25015G26KT CAVOK 36/15 Q1001
YBBN,2015-01-15 07:00,153.1292,-27.3917,95.00,57.20,28.37,250.00,16.00,0.00,29.56,M,6.21,M,M,M,M,M,M,M,M,M,M,YBBN 150700Z 25016KT CAVOK 35/14 Q1001
YBBN,2015-01-15 07:30,153.1292,-27.3917,95.00,57.20,28.37,260.00,14.00,0.00,29.56,M,6.21,M,M,M,M,M,M,M,M,M,M,YBBN 150730Z 26014KT CAVOK 35/14 Q1001
YBBN,2015-01-15 08:00,153.1292,-27.3917,93.20,57.20,29.99,270.00,12.00,0.00,29.56,M,6.21,M,M,M,M,M,M,M,M,M,M,YBBN 150800Z 27012KT CAVOK 34/14 Q1001 NOSIG
YBBN,2015-01-15 08:30,153.1292,-27.3917,91.40,57.20,31.72,260.00,11.00,0.00,29.59,M,6.21,M,M,M,M,M,M,M,M,M,M,YBBN 150830Z 26011KT CAVOK 33/14 Q1002
YBBN,2015-01-15 09:00,153.1292,-27.3917,89.60,57.20,33.56,270.00,8.00,0.00,29.59,M,6.21,M,M,M,M,M,M,M,M,M,M,YBBN 150900Z 27008KT CAVOK 32/14 Q1002 NOSIG
YBBN,2015-01-15 09:30,153.1292,-27.3917,87.80,57.20,35.53,270.00,7.00,0.00,29.59,M,6.21,M,M,M,M,M,M,M,M,M,M,YBBN 150930Z 27007KT CAVOK 31/14 Q1002
YBBN,2015-01-15 10:00,153.1292,-27.3917,84.20,73.40,70.08,120.00,7.00,0.00,29.62,M,6.21,M,M,M,M,M,M,M,M,M,M,YBBN 151000Z 12007KT CAVOK 29/23 Q1003 NOSIG
YBBN,2015-01-15 10:30,153.1292,-27.3917,82.40,75.20,78.90,150.00,6.00,0.00,29.65,M,6.21,M,M,M,M,M,M,M,M,M,M,YBBN 151030Z 15006KT CAVOK 28/24 Q1004
YBBN,2015-01-15 11:00,153.1292,-27.3917,80.60,75.20,83.66,150.00,7.00,0.00,29.65,M,6.21,M,M,M,M,M,M,M,M,M,M,YBBN 151100Z 15007KT CAVOK 27/24 Q1004 NOSIG
YBBN,2015-01-15 11:30,153.1292,-27.3917,80.60,75.20,83.66,160.00,7.00,0.00,29.68,M,6.21,M,M,M,M,M,M,M,M,M,M,YBBN 151130Z 16007KT CAVOK 27/24 Q1005
YBBN,2015-01-15 12:00,153.1292,-27.3917,80.60,73.40,78.76,160.00,5.00,0.00,29.68,M,6.21,M,M,M,M,M,M,M,M,M,M,YBBN 151200Z 16005KT CAVOK 27/23 Q1005 NOSIG
YBBN,2015-01-15 12:30,153.1292,-27.3917,78.80,73.40,83.55,140.00,7.00,0.00,29.68,M,6.21,M,M,M,M,M,M,M,M,M,M,YBBN 151230Z 14007KT CAVOK 26/23 Q1005
YBBN,2015-01-15 13:00,153.1292,-27.3917,78.80,73.40,83.55,150.00,7.00,0.00,29.68,M,6.21,M,M,M,M,M,M,M,M,M,M,YBBN 151300Z 15007KT CAVOK 26/23 Q1005 NOSIG
YBBN,2015-01-15 13:30,153.1292,-27.3917,78.80,73.40,83.55,150.00,9.00,0.00,29.68,M,6.21,M,M,M,M,M,M,M,M,M,M,YBBN 151330Z 15009KT CAVOK 26/23 Q1005
YBBN,2015-01-15 14:00,153.1292,-27.3917,78.80,73.40,83.55,150.00,7.00,0.00,29.68,M,6.21,M,M,M,M,M,M,M,M,M,M,YBBN 151400Z 15007KT CAVOK 26/23 Q1005
YBBN,2015-01-15 14:30,153.1292,-27.3917,78.80,71.60,78.62,160.00,7.00,0.00,29.68,M,6.21,M,M,M,M,M,M,M,M,M,M,YBBN 151430Z 16007KT CAVOK 26/22 Q1005
YBBN,2015-01-15 15:00,153.1292,-27.3917,77.00,73.40,88.67,160.00,8.00,0.00,29.68,M,6.21,M,M,M,M,M,M,M,M,M,M,YBBN 151500Z 16008KT CAVOK 25/23 Q1005
YBBN,2015-01-15 15:30,153.1292,-27.3917,77.00,71.60,83.44,170.00,7.00,0.00,29.68,M,6.21,M,FEW,M,M,M,2500.00,M,M,M,M,YBBN 151530Z 17007KT 9999 FEW025 25/22 Q1005
YBBN,2015-01-15 16:00,153.1292,-27.3917,77.00,73.40,88.67,170.00,8.00,0.00,29.68,M,6.21,M,FEW,M,M,M,2500.00,M,M,M,M,YBBN 151600Z 17008KT 9999 FEW025 25/23 Q1005 NOSIG
YBBN,2015-01-15 16:30,153.1292,-27.3917,77.00,71.60,83.44,190.00,7.00,0.00,29.68,M,6.21,M,FEW,M,M,M,2500.00,M,M,M,M,YBBN 151630Z 19007KT 9999 FEW025 25/22 Q1005
YBBN,2015-01-15 17:00,153.1292,-27.3917,75.20,71.60,88.59,200.00,2.00,0.00,29.71,M,6.21,M,FEW,M,M,M,2500.00,M,M,M,M,YBBN 151700Z 20002KT 9999 FEW025 24/22 Q1006 NOSIG
YBBN,2015-01-15 17:30,153.1292,-27.3917,75.20,71.60,88.59,220.00,3.00,0.00,29.71,M,6.21,M,SCT,M,M,M,1500.00,M,M,M,M,YBBN 151730Z 22003KT 9999 SCT015 24/22 Q1006
YBBN,2015-01-15 18:00,153.1292,-27.3917,73.40,71.60,94.10,230.00,1.00,0.00,29.71,M,6.21,M,FEW,M,M,M,1400.00,M,M,M,M,YBBN 151800Z 23001KT 9999 FEW014 23/22 Q1006
YBBN,2015-01-15 18:30,153.1292,-27.3917,75.20,71.60,88.59,180.00,4.00,0.00,29.71,M,6.21,M,FEW,M,M,M,1400.00,M,M,M,M,YBBN 151830Z 18004KT 9999 FEW014 24/22 Q1006
YBBN,2015-01-15 19:00,153.1292,-27.3917,73.40,69.80,88.51,200.00,2.00,0.00,29.74,M,6.21,M,FEW,M,M,M,1400.00,M,M,M,M,YBBN 151900Z 20002KT 9999 FEW014 23/21 Q1007 NOSIG
YBBN,2015-01-15 19:30,153.1292,-27.3917,73.40,71.60,94.10,190.00,4.00,0.00,29.74,M,6.21,M,FEW,M,M,M,1400.00,M,M,M,M,YBBN 151930Z 19004KT 9999 FEW014 23/22 Q1007
YBBN,2015-01-15 20:00,153.1292,-27.3917,75.20,71.60,88.59,200.00,5.00,0.00,29.77,M,6.21,M,FEW,M,M,M,1400.00,M,M,M,M,YBBN 152000Z 20005KT 9999 FEW014 24/22 Q1008
YBBN,2015-01-15 20:30,153.1292,-27.3917,77.00,71.60,83.44,190.00,5.00,0.00,29.77,M,6.21,M,FEW,M,M,M,1400.00,M,M,M,M,YBBN 152030Z 19005KT 9999 FEW014 25/22 Q1008
YBBN,2015-01-15 21:00,153.1292,-27.3917,80.60,68.00,65.54,180.00,6.00,0.00,29.77,M,6.21,M,FEW,M,M,M,1500.00,M,M,M,M,YBBN 152100Z 18006KT 9999 FEW015 27/20 Q1008
YBBN,2015-01-15 21:30,153.1292,-27.3917,82.40,69.80,65.74,170.00,6.00,0.00,29.77,M,6.21,M,FEW,M,M,M,1500.00,M,M,M,M,YBBN 152130Z 17006KT 9999 FEW015 28/21 Q1008
YBBN,2015-01-15 22:00,153.1292,-27.3917,82.40,69.80,65.74,150.00,5.00,0.00,29.77,M,6.21,M,FEW,M,M,M,1500.00,M,M,M,M,YBBN 152200Z 15005KT 9999 FEW015 28/21 Q1008
YBBN,2015-01-15 22:30,153.1292,-27.3917,84.20,69.80,62.03,120.00,7.00,0.00,29.77,M,6.21,M,FEW,M,M,M,1500.00,M,M,M,M,YBBN 152230Z 12007KT 9999 FEW015 29/21 Q1008
YBBN,2015-01-15 23:00,153.1292,-27.3917,84.20,69.80,62.03,100.00,6.00,0.00,29.77,M,6.21,M,FEW,M,M,M,2500.00,M,M,M,M,YBBN 152300Z 10006KT 9999 FEW025 29/21 Q1008 NOSIG
YBBN,2015-01-15 23:30,153.1292,-27.3917,84.20,69.80,62.03,90.00,7.00,0.00,29.77,M,6.21,M,FEW,M,M,M,2800.00,M,M,M,M,YBBN 152330Z 09007KT 9999 FEW028 29/21 Q1008
