#DEBUG: Format Typ    -> comma
#DEBUG: Time Period   -> 2010-04-30 00:00:00+00:00 2010-05-01 00:00:00+00:00
#DEBUG: Time Zone     -> Etc/UTC
#DEBUG: Data Contact   -> daryl herzmann akrherz@iastate.edu 515-294-5978
#DEBUG: Entries Found -> -1
station,valid,lon,lat,tmpf, dwpf, relh, drct, sknt, p01i, alti, mslp, vsby, gust, skyc1, skyc2, skyc3, skyc4, skyl1, skyl2, skyl3, skyl4, presentwx, metar
YBBN,2010-04-30 00:00,153.1292,-27.3917,75.20,50.00,41.14,210.00,8.00,M,30.18,M,6.21,M,M,M,M,M,M,M,M,M,M,YBBN 300000Z 21008KT CAVOK 24/10 Q1022 NOSIG
YBBN,2010-04-30 00:30,153.1292,-27.3917,77.00,53.60,44.25,210.00,7.00,M,30.15,M,6.21,M,FEW,M,M,M,3000.00,M,M,M,M,YBBN 300030Z 21007KT 9999 FEW030 25/12 Q1021 NOSIG
YBBN,2010-04-30 01:00,153.1292,-27.3917,77.00,57.20,50.43,180.00,7.00,M,30.15,M,6.21,M,FEW,M,M,M,3000.00,M,M,M,M,YBBN 300100Z 18007KT 9999 FEW030 25/14 Q1021 NOSIG
YBBN,2010-04-30 01:30,153.1292,-27.3917,78.80,59.00,50.69,130.00,6.00,M,30.15,M,6.21,M,FEW,M,M,M,3000.00,M,M,M,M,YBBN 300130Z 13006KT 9999 FEW030 26/15 Q1021 NOSIG
YBBN,2010-04-30 02:00,153.1292,-27.3917,77.00,59.00,53.80,90.00,8.00,M,30.15,M,6.21,M,FEW,M,M,M,3000.00,M,M,M,M,YBBN 300200Z 09008KT 9999 FEW030 25/15 Q1021 NOSIG
YBBN,2010-04-30 02:30,153.1292,-27.3917,78.80,60.80,54.05,120.00,7.00,M,30.12,M,6.21,M,FEW,M,M,M,3000.00,M,M,M,M,YBBN 300230Z 12007KT 9999 FEW030 26/16 Q1020 NOSIG
YBBN,2010-04-30 03:00,153.1292,-27.3917,77.00,64.40,65.12,100.00,9.00,M,30.12,M,6.21,M,FEW,M,M,M,3000.00,M,M,M,M,YBBN 300300Z 10009KT 9999 FEW030 25/18 Q1020 NOSIG
YBBN,2010-04-30 03:30,153.1292,-27.3917,77.00,64.40,65.12,110.00,11.00,M,30.12,M,6.21,M,FEW,M,M,M,3000.00,M,M,M,M,YBBN 300330Z 11011KT 9999 FEW030 25/18 Q1020 NOSIG
YBBN,2010-04-30 04:00,153.1292,-27.3917,77.00,66.20,69.33,110.00,12.00,M,30.09,M,6.21,M,FEW,M,M,M,3000.00,M,M,M,M,YBBN 300400Z 11012KT 9999 FEW030 25/19 Q1019 NOSIG
YBBN,2010-04-30 04:30,153.1292,-27.3917,77.00,64.40,65.12,110.00,10.00,M,30.09,M,6.21,M,FEW,M,M,M,3000.00,M,M,M,M,YBBN 300430Z 11010KT 9999 FEW030 25/18 Q1019 NOSIG
YBBN,2010-04-30 05:00,153.1292,-27.3917,77.00,64.40,65.12,120.00,11.00,M,30.09,M,6.21,M,FEW,M,M,M,3000.00,M,M,M,M,YBBN 300500Z 12011KT 9999 FEW030 25/18 Q1019 NOSIG
YBBN,2010-04-30 05:30,153.1292,-27.3917,77.00,62.60,61.13,120.00,11.00,M,30.12,M,6.21,M,FEW,M,M,M,3000.00,M,M,M,M,YBBN 300530Z 12011KT 9999 FEW030 25/17 Q1020 NOSIG
YBBN,2010-04-30 06:00,153.1292,-27.3917,75.20,62.60,64.91,120.00,12.00,M,30.12,M,6.21,M,FEW,M,M,M,3000.00,M,M,M,M,YBBN 300600Z 12012KT 9999 FEW030 24/17 Q1020 NOSIG
YBBN,2010-04-30 06:30,153.1292,-27.3917,75.20,62.60,64.91,130.00,10.00,M,30.12,M,6.21,M,FEW,M,M,M,3000.00,M,M,M,M,YBBN 300630Z 13010KT 9999 FEW030 24/17 Q1020 NOSIG
YBBN,2010-04-30 07:00,153.1292,-27.3917,75.20,62.60,64.91,130.00,8.00,M,30.12,M,6.21,M,FEW,M,M,M,3000.00,M,M,M,M,YBBN 300700Z 13008KT 9999 FEW030 24/17 Q1020 NOSIG
YBBN,2010-04-30 07:30,153.1292,-27.3917,73.40,60.80,64.69,130.00,9.00,M,30.15,M,6.21,M,FEW,M,M,M,3000.00,M,M,M,M,YBBN 300730Z 13009KT 9999 FEW030 23/16 Q1021 NOSIG
YBBN,2010-04-30 08:00,153.1292,-27.3917,73.40,60.80,64.69,130.00,7.00,M,30.15,M,6.21,M,FEW,M,M,M,3000.00,M,M,M,M,YBBN 300800Z 13007KT 9999 FEW030 23/16 Q1021 NOSIG
YBBN,2010-04-30 08:30,153.1292,-27.3917,73.40,60.80,64.69,130.00,6.00,M,30.15,M,6.21,M,M,M,M,M,M,M,M,M,M,YBBN 300830Z 13006KT CAVOK 23/16 Q1021 NOSIG
YBBN,2010-04-30 09:00,153.1292,-27.3917,73.40,60.80,64.69,130.00,7.00,M,30.18,M,6.21,M,M,M,M,M,M,M,M,M,M,YBBN 300900Z 13007KT CAVOK 23/16 Q1022 NOSIG
YBBN,2010-04-30 09:30,153.1292,-27.3917,73.40,62.60,68.94,120.00,6.00,M,30.18,M,6.21,M,M,M,M,M,M,M,M,M,M,YBBN 300930Z 12006KT CAVOK 23/17 Q1022 NOSIG
YBBN,2010-04-30 10:00,153.1292,-27.3917,73.40,62.60,68.94,120.00,7.00,M,30.18,M,6.21,M,M,M,M,M,M,M,M,M,M,YBBN 301000Z 12007KT CAVOK 23/17 Q1022 NOSIG
YBBN,2010-04-30 10:30,153.1292,-27.3917,73.40,60.80,64.69,110.00,6.00,M,30.21,M,6.21,M,M,M,M,M,M,M,M,M,M,YBBN 301030Z 11006KT CAVOK 23/16 Q1023 NOSIG
YBBN,2010-04-30 11:00,153.1292,-27.3917,71.60,60.80,68.75,110.00,7.00,M,30.21,M,6.21,M,M,M,M,M,M,M,M,M,M,YBBN 301100Z 11007KT CAVOK 22/16 Q1023 NOSIG
YBBN,2010-04-30 11:30,153.1292,-27.3917,71.60,62.60,73.27,120.00,5.00,M,30.21,M,6.21,M,M,M,M,M,M,M,M,M,M,YBBN 301130Z 12005KT CAVOK 22/17 Q1023 NOSIG
YBBN,2010-04-30 12:00,153.1292,-27.3917,69.80,60.80,73.09,110.00,5.00,M,30.21,M,6.21,M,M,M,M,M,M,M,M,M,M,YBBN 301200Z 11005KT CAVOK 21/16 Q1023 NOSIG
YBBN,2010-04-30 12:30,153.1292,-27.3917,66.20,60.80,82.74,210.00,6.00,M,30.21,M,6.21,M,M,M,M,M,M,M,M,M,M,YBBN 301230Z 21006KT CAVOK 19/16 Q1023 NOSIG
YBBN,2010-04-30 13:00,153.1292,-27.3917,64.40,60.80,88.09,210.00,6.00,M,30.21,M,6.21,M,M,M,M,M,M,M,M,M,M,YBBN 301300Z 21006KT CAVOK 18/16 Q1023 NOSIG
YBBN,2010-04-30 13:30,153.1292,-27.3917,64.40,60.80,88.09,210.00,7.00,M,30.21,M,6.21,M,M,M,M,M,M,M,M,M,M,YBBN 301330Z 21007KT CAVOK 18/16 Q1023 NOSIG
YBBN,2010-04-30 14:00,153.1292,-27.3917,64.40,60.80,88.09,210.00,6.00,M,30.21,M,6.21,M,FEW,M,M,M,4000.00,M,M,M,M,YBBN 301400Z 21006KT 9999 FEW040 18/16 Q1023 NOSIG
YBBN,2010-04-30 14:30,153.1292,-27.3917,66.20,60.80,82.74,210.00,7.00,M,30.21,M,6.21,M,FEW,BKN,M,M,4000.00,6000.00,M,M,M,YBBN 301430Z 21007KT 9999 FEW040 BKN060 19/16 Q1023 NOSIG
YBBN,2010-04-30 15:00,153.1292,-27.3917,64.40,60.80,88.09,220.00,7.00,M,30.21,M,6.21,M,FEW,M,M,M,4000.00,M,M,M,M,YBBN 301500Z 22007KT 9999 FEW040 18/16 Q1023 NOSIG
YBBN,2010-04-30 15:30,153.1292,-27.3917,62.60,59.00,88.00,220.00,7.00,M,30.21,M,6.21,M,FEW,M,M,M,3000.00,M,M,M,M,YBBN 301530Z 22007KT 9999 FEW030 17/15 Q1023 NOSIG
YBBN,2010-04-30 16:00,153.1292,-27.3917,62.60,59.00,88.00,220.00,7.00,M,30.18,M,6.21,M,FEW,M,M,M,3000.00,M,M,M,M,YBBN 301600Z 22007KT 9999 FEW030 17/15 Q1022 NOSIG
YBBN,2010-04-30 16:30,153.1292,-27.3917,62.60,59.00,88.00,220.00,7.00,M,30.18,M,6.21,M,FEW,M,M,M,3000.00,M,M,M,M,YBBN 301630Z 22007KT 9999 FEW030 17/15 Q1022 NOSIG
YBBN,2010-04-30 17:00,153.1292,-27.3917,62.60,59.00,88.00,220.00,6.00,M,30.18,M,6.21,M,FEW,M,M,M,3000.00,M,M,M,M,YBBN 301700Z 22006KT 9999 FEW030 17/15 Q1022 NOSIG
YBBN,2010-04-30 17:30,153.1292,-27.3917,60.80,59.00,93.79,220.00,6.00,M,30.18,M,6.21,M,FEW,M,M,M,3000.00,M,M,M,M,YBBN 301730Z 22006KT 9999 FEW030 16/15 Q1022 NOSIG
YBBN,2010-04-30 18:00,153.1292,-27.3917,62.60,59.00,88.00,230.00,7.00,M,30.18,M,6.21,M,FEW,M,M,M,3000.00,M,M,M,M,YBBN 301800Z 23007KT 9999 FEW030 17/15 Q1022 NOSIG
YBBN,2010-04-30 18:30,153.1292,-27.3917,62.60,59.00,88.00,220.00,7.00,M,30.18,M,6.21,M,FEW,BKN,M,M,4000.00,6000.00,M,M,M,YBBN 301830Z 22007KT 9999 FEW040 BKN060 17/15 Q1022 NOSIG
YBBN,2010-04-30 19:00,153.1292,-27.3917,62.60,59.00,88.00,220.00,8.00,M,30.21,M,6.21,M,FEW,SCT,M,M,4000.00,6000.00,M,M,M,YBBN 301900Z 22008KT 9999 FEW040 SCT060 17/15 Q1023 NOSIG
YBBN,2010-04-30 19:30,153.1292,-27.3917,62.60,59.00,88.00,220.00,8.00,M,30.21,M,6.21,M,FEW,SCT,M,M,4000.00,6000.00,M,M,M,YBBN 301930Z 22008KT 9999 FEW040 SCT060 17/15 Q1023 NOSIG
YBBN,2010-04-30 20:00,153.1292,-27.3917,62.60,59.00,88.00,220.00,7.00,M,30.21,M,6.21,M,FEW,BKN,M,M,4000.00,6000.00,M,M,M,YBBN 302000Z 22007KT 9999 FEW040 BKN060 17/15 Q1023 NOSIG
YBBN,2010-04-30 20:30,153.1292,-27.3917,62.60,59.00,88.00,220.00,7.00,M,30.21,M,6.21,M,SCT,SCT,M,M,4000.00,6000.00,M,M,M,YBBN 302030Z 22007KT 9999 SCT040 SCT060 17/15 Q1023 NOSIG
YBBN,2010-04-30 21:30,153.1292,-27.3917,66.20,60.80,82.74,220.00,9.00,M,30.24,M,6.21,M,SCT,M,M,M,4000.00,M,M,M,M,YBBN 302130Z 22009KT 9999 SCT040 19/16 Q1024 NOSIG
YBBN,2010-04-30 22:00,153.1292,-27.3917,68.00,60.80,77.75,220.00,9.00,M,30.27,M,6.21,M,FEW,M,M,M,4000.00,M,M,M,M,YBBN 302200Z 22009KT 9999 FEW040 20/16 Q1025 NOSIG
YBBN,2010-04-30 22:30,153.1292,-27.3917,71.60,62.60,73.27,220.00,9.00,M,30.27,M,6.21,M,FEW,M,M,M,4000.00,M,M,M,M,YBBN 302230Z 22009KT 9999 FEW040 22/17 Q1025 NOSIG
YBBN,2010-04-30 23:00,153.1292,-27.3917,71.60,60.80,68.75,210.00,7.00,M,30.27,M,6.21,M,SCT,M,M,M,4000.00,M,M,M,M,YBBN 302300Z 21007KT 9999 SCT040 22/16 Q1025 NOSIG
