#DEBUG: Format Typ    -> comma
#DEBUG: Time Period   -> 2012-09-26 00:00:00+00:00 2012-09-27 00:00:00+00:00
#DEBUG: Time Zone     -> Etc/UTC
#DEBUG: Data Contact   -> daryl herzmann akrherz@iastate.edu 515-294-5978
#DEBUG: Entries Found -> -1
station,valid,lon,lat,tmpf, dwpf, relh, drct, sknt, p01i, alti, mslp, vsby, gust, skyc1, skyc2, skyc3, skyc4, skyl1, skyl2, skyl3, skyl4, presentwx, metar
YBBN,2012-09-26 00:00,153.1292,-27.3917,73.40,50.00,43.69,90.00,9.00,0.00,30.15,M,6.21,M,FEW,SCT,M,M,4000.00,11500.00,M,M,M,YBBN 260000Z 09009KT 9999 FEW040 SCT115 23/10 Q1021
YBBN,2012-09-26 00:30,153.1292,-27.3917,73.40,50.00,43.69,80.00,9.00,0.00,30.15,M,6.21,M,FEW,BKN,M,M,4000.00,11500.00,M,M,M,YBBN 260030Z 08009KT 9999 FEW040 BKN115 23/10 Q1021
YBBN,2012-09-26 01:00,153.1292,-27.3917,73.40,51.80,46.71,70.00,10.00,0.00,30.12,M,6.21,M,FEW,SCT,BKN,M,4000.00,6000.00,10500.00,M,M,YBBN 260100Z 07010KT 9999 FEW040 SCT060 BKN105 23/11 Q1020
YBBN,2012-09-26 01:30,153.1292,-27.3917,73.40,50.00,43.69,80.00,9.00,0.00,30.12,M,6.21,M,SCT,BKN,M,M,4200.00,6000.00,M,M,M,YBBN 260130Z 08009KT 9999 SCT042 BKN060 23/10 Q1020
YBBN,2012-09-26 02:00,153.1292,-27.3917,73.40,50.00,43.69,90.00,8.00,0.00,30.12,M,6.21,M,SCT,BKN,M,M,4200.00,6200.00,M,M,M,YBBN 260200Z 09008KT 9999 SCT042 BKN062 23/10 Q1020
YBBN,2012-09-26 02:30,153.1292,-27.3917,71.60,48.20,43.42,60.00,10.00,0.00,30.12,M,6.21,M,SCT,BKN,M,M,4200.00,6200.00,M,M,M,YBBN 260230Z 06010KT 9999 SCT042 BKN062 22/09 Q1020
YBBN,2012-09-26 03:00,153.1292,-27.3917,73.40,48.20,40.85,70.00,9.00,0.00,30.09,M,6.21,M,FEW,BKN,M,M,4200.00,6000.00,M,M,M,YBBN 260300Z 07009KT 9999 FEW042 BKN060 23/09 Q1019 NOSIG
YBBN,2012-09-26 03:30,153.1292,-27.3917,73.40,46.40,38.18,70.00,7.00,0.00,30.09,M,6.21,M,FEW,SCT,BKN,M,4200.00,6000.00,10000.00,M,M,YBBN 260330Z 07007KT 9999 FEW042 SCT060 BKN100 23/08 Q1019
YBBN,2012-09-26 04:00,153.1292,-27.3917,73.40,46.40,38.18,70.00,7.00,0.00,30.09,M,6.21,M,FEW,SCT,BKN,M,4500.00,6000.00,10000.00,M,M,YBBN 260400Z 07007KT 9999 FEW045 SCT060 BKN100 23/08 Q1019 NOSIG
YBBN,2012-09-26 04:30,153.1292,-27.3917,73.40,50.00,43.69,60.00,10.00,0.00,30.09,M,6.21,M,FEW,SCT,M,M,4500.00,6000.00,M,M,M,YBBN 260430Z 06010KT 9999 FEW045 SCT060 23/10 Q1019
YBBN,2012-09-26 05:00,153.1292,-27.3917,73.40,48.20,40.85,70.00,10.00,0.00,30.06,M,6.21,M,FEW,M,M,M,4500.00,M,M,M,M,YBBN 260500Z 07010KT 9999 FEW045 23/09 Q1018 NOSIG
YBBN,2012-09-26 05:30,153.1292,-27.3917,71.60,48.20,43.42,60.00,12.00,0.00,30.06,M,6.21,M,FEW,M,M,M,4500.00,M,M,M,M,YBBN 260530Z 06012KT 9999 FEW045 22/09 Q1018
YBBN,2012-09-26 06:00,153.1292,-27.3917,71.60,48.20,43.42,70.00,10.00,0.00,30.06,M,6.21,M,M,M,M,M,M,M,M,M,M,YBBN 260600Z 07010KT CAVOK 22/09 Q1018 NOSIG
YBBN,2012-09-26 06:30,153.1292,-27.3917,69.80,50.00,49.37,60.00,10.00,0.00,30.09,M,6.21,M,M,M,M,M,M,M,M,M,M,YBBN 260630Z 06010KT CAVOK 21/10 Q1019
YBBN,2012-09-26 07:00,153.1292,-27.3917,69.80,48.20,46.16,70.00,9.00,0.00,30.09,M,6.21,M,M,M,M,M,M,M,M,M,M,YBBN 260700Z 07009KT CAVOK 21/09 Q1019 NOSIG
YBBN,2012-09-26 07:30,153.1292,-27.3917,68.00,48.20,49.10,70.00,8.00,0.00,30.09,M,6.21,M,M,M,M,M,M,M,M,M,M,YBBN 260730Z 07008KT CAVOK 20/09 Q1019
YBBN,2012-09-26 08:00,153.1292,-27.3917,68.00,48.20,49.10,80.00,6.00,0.00,30.09,M,6.21,M,M,M,M,M,M,M,M,M,M,YBBN 260800Z 08006KT CAVOK 20/09 Q1019 NOSIG
YBBN,2012-09-26 08:30,153.1292,-27.3917,68.00,50.00,52.51,80.00,7.00,0.00,30.09,M,6.21,M,M,M,M,M,M,M,M,M,M,YBBN 260830Z 08007KT CAVOK 20/10 Q1019
YBBN,2012-09-26 09:00,153.1292,-27.3917,68.00,50.00,52.51,90.00,6.00,0.00,30.12,M,6.21,M,M,M,M,M,M,M,M,M,M,YBBN 260900Z 09006KT CAVOK 20/10 Q1020 NOSIG
YBBN,2012-09-26 09:30,153.1292,-27.3917,68.00,51.80,56.13,90.00,7.00,0.00,30.12,M,6.21,M,M,M,M,M,M,M,M,M,M,YBBN 260930Z 09007KT CAVOK 20/11 Q1020
YBBN,2012-09-26 10:00,153.1292,-27.3917,66.20,51.80,59.74,90.00,6.00,0.00,30.12,M,6.21,M,M,M,M,M,M,M,M,M,M,YBBN 261000Z 09006KT CAVOK 19/11 Q1020
YBBN,2012-09-26 10:30,153.1292,-27.3917,66.20,51.80,59.74,70.00,5.00,0.00,30.15,M,6.21,M,M,M,M,M,M,M,M,M,M,YBBN 261030Z 07005KT CAVOK 19/11 Q1021
YBBN,2012-09-26 11:00,153.1292,-27.3917,66.20,53.60,63.82,60.00,6.00,0.00,30.15,M,6.21,M,M,M,M,M,M,M,M,M,M,YBBN 261100Z 06006KT CAVOK 19/12 Q1021
YBBN,2012-09-26 11:30,153.1292,-27.3917,66.20,51.80,59.74,70.00,5.00,0.00,30.15,M,6.21,M,FEW,M,M,M,3000.00,M,M,M,M,YBBN 261130Z 07005KT 9999 FEW030 19/11 Q1021
YBBN,2012-09-26 12:00,153.1292,-27.3917,66.20,51.80,59.74,70.00,5.00,0.00,30.15,M,6.21,M,FEW,M,M,M,3500.00,M,M,M,M,YBBN 261200Z 07005KT 9999 FEW035 19/11 Q1021
YBBN,2012-09-26 12:30,153.1292,-27.3917,66.20,53.60,63.82,60.00,4.00,0.00,30.15,M,6.21,M,BKN,M,M,M,3500.00,M,M,M,M,YBBN 261230Z 06004KT 9999 BKN035 19/12 Q1021
YBBN,2012-09-26 13:00,153.1292,-27.3917,66.20,55.40,68.15,60.00,6.00,0.00,30.15,M,6.21,M,BKN,M,M,M,3500.00,M,M,M,M,YBBN 261300Z 06006KT 9999 BKN035 19/13 Q1021
YBBN,2012-09-26 13:30,153.1292,-27.3917,68.00,51.80,56.13,60.00,5.00,0.00,30.15,M,6.21,M,BKN,M,M,M,3500.00,M,M,M,M,YBBN 261330Z 06005KT 9999 BKN035 20/11 Q1021
YBBN,2012-09-26 14:00,153.1292,-27.3917,66.20,53.60,63.82,60.00,5.00,0.00,30.15,M,6.21,M,BKN,M,M,M,3500.00,M,M,M,M,YBBN 261400Z 06005KT 9999 BKN035 19/12 Q1021
YBBN,2012-09-26 14:30,153.1292,-27.3917,62.60,55.40,77.29,60.00,4.00,0.00,30.15,M,6.21,M,BKN,M,M,M,3500.00,M,M,M,M,YBBN 261430Z 06004KT 9999 BKN035 17/13 Q1021
YBBN,2012-09-26 15:00,153.1292,-27.3917,60.80,55.40,82.37,60.00,4.00,0.00,30.15,M,6.21,M,BKN,M,M,M,3500.00,M,M,M,M,YBBN 261500Z 06004KT 9999 BKN035 16/13 Q1021
YBBN,2012-09-26 15:30,153.1292,-27.3917,59.00,53.60,82.25,110.00,1.00,0.00,30.12,M,6.21,M,FEW,M,M,M,3500.00,M,M,M,M,YBBN 261530Z 11001KT 9999 FEW035 15/12 Q1020
YBBN,2012-09-26 16:00,153.1292,-27.3917,59.00,53.60,82.25,210.00,4.00,0.00,30.12,M,6.21,M,FEW,SCT,M,M,3500.00,4500.00,M,M,M,YBBN 261600Z 21004KT 9999 FEW035 SCT045 15/12 Q1020 NOSIG
YBBN,2012-09-26 16:30,153.1292,-27.3917,59.00,53.60,82.25,200.00,6.00,0.00,30.12,M,6.21,M,FEW,SCT,M,M,3500.00,4500.00,M,M,M,YBBN 261630Z 20006KT 9999 FEW035 SCT045 15/12 Q1020
YBBN,2012-09-26 17:00,153.1292,-27.3917,59.00,53.60,82.25,210.00,6.00,0.00,30.12,M,6.21,M,FEW,SCT,M,M,3500.00,4500.00,M,M,M,YBBN 261700Z 21006KT 9999 FEW035 SCT045 15/12 Q1020 NOSIG
YBBN,2012-09-26 17:30,153.1292,-27.3917,59.00,53.60,82.25,210.00,6.00,0.00,30.12,M,6.21,M,FEW,BKN,M,M,3500.00,4500.00,M,M,M,YBBN 261730Z 21006KT 9999 FEW035 BKN045 15/12 Q1020
YBBN,2012-09-26 18:00,153.1292,-27.3917,59.00,53.60,82.25,210.00,6.00,0.00,30.12,M,6.21,M,FEW,SCT,M,M,3500.00,5000.00,M,M,M,YBBN 261800Z 21006KT 9999 FEW035 SCT050 15/12 Q1020 NOSIG
YBBN,2012-09-26 18:30,153.1292,-27.3917,57.20,51.80,82.12,200.00,6.00,0.00,30.12,M,6.21,M,FEW,SCT,M,M,3500.00,5000.00,M,M,M,YBBN 261830Z 20006KT 9999 FEW035 SCT050 14/11 Q1020
YBBN,2012-09-26 19:00,153.1292,-27.3917,57.20,51.80,82.12,200.00,6.00,0.00,30.12,M,6.21,M,FEW,SCT,M,M,3500.00,5000.00,M,M,M,YBBN 261900Z 20006KT 9999 FEW035 SCT050 14/11 Q1020
YBBN,2012-09-26 19:30,153.1292,-27.3917,57.20,51.80,82.12,200.00,6.00,0.00,30.15,M,6.21,M,FEW,SCT,M,M,3500.00,5000.00,M,M,M,YBBN 261930Z 20006KT 9999 FEW035 SCT050 14/11 Q1021
YBBN,2012-09-26 20:00,153.1292,-27.3917,59.00,51.80,76.98,200.00,6.00,0.00,30.15,M,6.21,M,FEW,SCT,M,M,2000.00,5000.00,M,M,M,YBBN 262000Z 20006KT 9999 FEW020 SCT050 15/11 Q1021 NOSIG
YBBN,2012-09-26 20:30,153.1292,-27.3917,59.00,51.80,76.98,200.00,7.00,0.00,30.15,M,6.21,M,FEW,SCT,M,M,2000.00,5000.00,M,M,M,YBBN 262030Z 20007KT 9999 FEW020 SCT050 15/11 Q1021 RMK FU
YBBN,2012-09-26 21:00,153.1292,-27.3917,62.60,53.60,72.38,200.00,5.00,0.00,30.15,M,5.59,M,FEW,SCT,M,M,2200.00,5200.00,M,M,M,YBBN 262100Z 20005KT 9000 FEW022 SCT052 17/12 Q1021 NOSIG
YBBN,2012-09-26 21:30,153.1292,-27.3917,66.20,53.60,63.82,210.00,6.00,0.00,30.18,M,5.59,M,FEW,M,M,M,2300.00,M,M,M,M,YBBN 262130Z 21006KT 9000 FEW023 19/12 Q1022 RMK FU
YBBN,2012-09-26 22:00,153.1292,-27.3917,68.00,53.60,59.97,210.00,5.00,0.00,30.18,M,6.21,M,FEW,M,M,M,2600.00,M,M,M,M,YBBN 262200Z 21005KT 9999 FEW026 20/12 Q1022 NOSIG
YBBN,2012-09-26 22:30,153.1292,-27.3917,71.60,53.60,53.03,180.00,4.00,0.00,30.18,M,6.21,M,FEW,M,M,M,2800.00,M,M,M,M,YBBN 262230Z 18004KT 9999 FEW028 22/12 Q1022 RMK FU
YBBN,2012-09-26 23:00,153.1292,-27.3917,71.60,53.60,53.03,350.00,6.00,0.00,30.18,M,6.21,M,SCT,M,M,M,3200.00,M,M,M,M,YBBN 262300Z 35006KT 9999 SCT032 22/12 Q1022 NOSIG
YBBN,2012-09-26 23:30,153.1292,-27.3917,73.40,53.60,49.90,360.00,8.00,0.00,30.18,M,6.21,M,SCT,M,M,M,3500.00,M,M,M,M,YBBN 262330Z 36008KT 9999 SCT035 23/12 Q1022 RMK FU
