#DEBUG: Format Typ    -> comma
#DEBUG: Time Period   -> 2016-01-07 00:00:00+00:00 2016-01-08 00:00:00+00:00
#DEBUG: Time Zone     -> Etc/UTC
#DEBUG: Data Contact   -> daryl herzmann akrherz@iastate.edu 515-294-5978
#DEBUG: Entries Found -> -1
station,valid,lon,lat,tmpf, dwpf, relh, drct, sknt, p01i, alti, mslp, vsby, gust, skyc1, skyc2, skyc3, skyc4, skyl1, skyl2, skyl3, skyl4, presentwx, metar
YBBN,2016-01-07 00:00,153.1292,-27.3917,80.60,57.20,44.80,120.00,8.00,0.00,29.83,M,6.21,M,FEW,M,M,M,4000.00,M,M,M,M,YBBN 070000Z 12008KT 9999 FEW040 27/14 Q1010
YBBN,2016-01-07 00:30,153.1292,-27.3917,80.60,60.80,50.95,70.00,9.00,0.00,29.83,M,6.21,M,FEW,M,M,M,4000.00,M,M,M,M,YBBN 070030Z 07009KT 9999 FEW040 27/16 Q1010 NOSIG
YBBN,2016-01-07 01:00,153.1292,-27.3917,82.40,64.40,54.55,70.00,9.00,0.00,29.83,M,6.21,M,FEW,M,M,M,3800.00,M,M,M,M,YBBN 070100Z 07009KT 9999 FEW038 28/18 Q1010 NOSIG
YBBN,2016-01-07 01:30,153.1292,-27.3917,82.40,62.60,51.21,70.00,10.00,0.00,29.83,M,6.21,M,FEW,M,M,M,3800.00,M,M,M,M,YBBN 070130Z 07010KT 9999 FEW038 28/17 Q1010 NOSIG
YBBN,2016-01-07 02:00,153.1292,-27.3917,82.40,62.60,51.21,70.00,10.00,0.00,29.83,M,6.21,M,FEW,M,M,M,3700.00,M,M,M,M,YBBN 070200Z 07010KT 9999 FEW037 28/17 Q1010 NOSIG
YBBN,2016-01-07 02:30,153.1292,-27.3917,82.40,62.60,51.21,70.00,10.00,0.00,29.83,M,6.21,M,FEW,M,M,M,3600.00,M,M,M,M,YBBN 070230Z 07010KT 9999 FEW036 28/17 Q1010
YBBN,2016-01-07 03:00,153.1292,-27.3917,80.60,64.40,57.84,80.00,9.00,0.00,29.83,M,6.21,M,FEW,M,M,M,3500.00,M,M,M,M,YBBN 070300Z 08009KT 9999 FEW035 27/18 Q1010 NOSIG
YBBN,2016-01-07 03:30,153.1292,-27.3917,82.40,64.40,54.55,70.00,10.00,0.00,29.80,M,6.21,M,FEW,M,M,M,3700.00,M,M,M,M,YBBN 070330Z 07010KT 9999 FEW037 28/18 Q1009 NOSIG
YBBN,2016-01-07 04:00,153.1292,-27.3917,82.40,62.60,51.21,60.00,11.00,0.00,29.83,M,6.21,M,FEW,M,M,M,3700.00,M,M,M,M,YBBN 070400Z 06011KT 9999 FEW037 28/17 Q1010 NOSIG
YBBN,2016-01-07 04:30,153.1292,-27.3917,82.40,62.60,51.21,70.00,12.00,0.00,29.80,M,6.21,M,FEW,M,M,M,3800.00,M,M,M,M,YBBN 070430Z 07012KT 9999 FEW038 28/17 Q1009 NOSIG
YBBN,2016-01-07 05:00,153.1292,-27.3917,80.60,62.60,54.30,70.00,12.00,0.00,29.80,M,6.21,M,FEW,M,M,M,4000.00,M,M,M,M,YBBN 070500Z 07012KT 9999 FEW040 27/17 Q1009 NOSIG
YBBN,2016-01-07 05:30,153.1292,-27.3917,82.40,62.60,51.21,70.00,12.00,0.00,29.80,M,6.21,M,FEW,M,M,M,3800.00,M,M,M,M,YBBN 070530Z 07012KT 9999 FEW038 28/17 Q1009 NOSIG
YBBN,2016-01-07 06:00,153.1292,-27.3917,80.60,60.80,50.95,60.00,12.00,0.00,29.83,M,6.21,M,FEW,M,M,M,3500.00,M,M,M,M,YBBN 070600Z 06012KT 9999 FEW035 27/16 Q1010
YBBN,2016-01-07 08:00,153.1292,-27.3917,78.80,60.80,54.05,90.00,7.00,0.00,29.85,M,6.21,M,FEW,M,M,M,3500.00,M,M,M,M,YBBN 070800Z 09007KT 9999 FEW035 26/16 Q1011
YBBN,2016-01-07 08:30,153.1292,-27.3917,77.00,62.60,61.13,100.00,7.00,0.00,29.88,M,6.21,M,FEW,SCT,M,M,3200.00,10000.00,M,M,M,YBBN 070830Z 10007KT 9999 FEW032 SCT100 25/17 Q1012 NOSIG
YBBN,2016-01-07 09:00,153.1292,-27.3917,77.00,64.40,65.12,100.00,8.00,0.00,29.91,M,6.21,M,FEW,BKN,M,M,3200.00,4500.00,M,M,M,YBBN 070900Z 10008KT 9999 FEW032 BKN045 25/18 Q1013
YBBN,2016-01-07 09:30,153.1292,-27.3917,77.00,64.40,65.12,90.00,7.00,0.00,29.91,M,6.21,M,FEW,BKN,M,M,3200.00,4500.00,M,M,M,YBBN 070930Z 09007KT 9999 FEW032 BKN045 25/18 Q1013
YBBN,2016-01-07 10:00,153.1292,-27.3917,77.00,64.40,65.12,90.00,8.00,0.00,29.94,M,6.21,M,FEW,BKN,M,M,2900.00,4500.00,M,M,M,YBBN 071000Z 09008KT 9999 FEW029 BKN045 25/18 Q1014
YBBN,2016-01-07 10:30,153.1292,-27.3917,77.00,64.40,65.12,100.00,8.00,0.00,29.94,M,6.21,M,FEW,BKN,M,M,2900.00,4500.00,M,M,M,YBBN 071030Z 10008KT 9999 FEW029 BKN045 25/18 Q1014 NOSIG
YBBN,2016-01-07 11:00,153.1292,-27.3917,77.00,64.40,65.12,110.00,9.00,0.00,29.97,M,6.21,M,FEW,BKN,M,M,2800.00,4500.00,M,M,M,YBBN 071100Z 11009KT 9999 FEW028 BKN045 25/18 Q1015
YBBN,2016-01-07 12:00,153.1292,-27.3917,77.00,64.40,65.12,130.00,8.00,0.00,30.00,M,6.21,M,FEW,BKN,M,M,2900.00,4500.00,M,M,M,YBBN 071200Z 13008KT 9999 FEW029 BKN045 25/18 Q1016
YBBN,2016-01-07 13:00,153.1292,-27.3917,75.20,59.00,57.12,140.00,8.00,0.00,30.00,M,6.21,M,FEW,BKN,M,M,2800.00,4700.00,M,M,VCSH,YBBN 071300Z 14008KT 9999 VCSH FEW028 BKN047 24/15 Q1016
YBBN,2016-01-07 14:00,153.1292,-27.3917,75.20,60.80,60.90,140.00,8.00,0.00,30.00,M,6.21,M,FEW,BKN,M,M,2800.00,5000.00,M,M,-DZ,YBBN 071400Z 14008KT 9999 -DZ FEW028 BKN050 24/16 Q1016
YBBN,2016-01-07 14:30,153.1292,-27.3917,73.40,55.40,53.29,140.00,11.00,0.00,30.00,M,6.21,M,FEW,BKN,M,M,3000.00,5500.00,M,M,M,YBBN 071430Z 14011KT 9999 FEW030 BKN055 23/13 Q1016 NOSIG
YBBN,2016-01-07 15:00,153.1292,-27.3917,73.40,57.20,56.88,150.00,9.00,0.00,29.97,M,6.21,M,FEW,BKN,M,M,3000.00,5700.00,M,M,M,YBBN 071500Z 15009KT 9999 FEW030 BKN057 23/14 Q1015
YBBN,2016-01-07 15:30,153.1292,-27.3917,73.40,57.20,56.88,150.00,8.00,0.00,29.97,M,6.21,M,FEW,SCT,M,M,3000.00,6000.00,M,M,M,YBBN 071530Z 15008KT 9999 FEW030 SCT060 23/14 Q1015 NOSIG
YBBN,2016-01-07 16:00,153.1292,-27.3917,73.40,57.20,56.88,150.00,8.00,0.00,29.97,M,6.21,M,FEW,SCT,M,M,3000.00,7000.00,M,M,M,YBBN 071600Z 15008KT 9999 FEW030 SCT070 23/14 Q1015 NOSIG
YBBN,2016-01-07 16:30,153.1292,-27.3917,71.60,57.20,60.44,150.00,8.00,0.00,29.97,M,6.21,M,M,M,M,M,M,M,M,M,M,YBBN 071630Z 15008KT CAVOK 22/14 Q1015 NOSIG
YBBN,2016-01-07 17:00,153.1292,-27.3917,71.60,57.20,60.44,150.00,8.00,0.00,29.97,M,6.21,M,M,M,M,M,M,M,M,M,M,YBBN 071700Z 15008KT CAVOK 22/14 Q1015
YBBN,2016-01-07 17:30,153.1292,-27.3917,71.60,59.00,64.48,170.00,6.00,0.00,30.00,M,6.21,M,M,M,M,M,M,M,M,M,M,YBBN 071730Z 17006KT CAVOK 22/15 Q1016 NOSIG
YBBN,2016-01-07 18:00,153.1292,-27.3917,71.60,57.20,60.44,150.00,6.00,0.00,30.00,M,6.21,M,M,M,M,M,M,M,M,M,M,YBBN 071800Z 15006KT CAVOK 22/14 Q1016 NOSIG
YBBN,2016-01-07 18:30,153.1292,-27.3917,71.60,57.20,60.44,170.00,5.00,0.00,30.00,M,6.21,M,M,M,M,M,M,M,M,M,M,YBBN 071830Z 17005KT CAVOK 22/14 Q1016 NOSIG
YBBN,2016-01-07 19:00,153.1292,-27.3917,71.60,55.40,56.63,160.00,7.00,0.00,30.00,M,6.21,M,M,M,M,M,M,M,M,M,M,YBBN 071900Z 16007KT CAVOK 22/13 Q1016 NOSIG
