#DEBUG: Format Typ    -> comma
#DEBUG: Time Period   -> 2011-09-26 00:00:00+00:00 2011-09-27 00:00:00+00:00
#DEBUG: Time Zone     -> Etc/UTC
#DEBUG: Data Contact   -> daryl herzmann akrherz@iastate.edu 515-294-5978
#DEBUG: Entries Found -> -1
station,valid,lon,lat,tmpf, dwpf, relh, drct, sknt, p01i, alti, mslp, vsby, gust, skyc1, skyc2, skyc3, skyc4, skyl1, skyl2, skyl3, skyl4, presentwx, metar
YBBN,2011-09-26 00:00,153.1292,-27.3917,68.00,50.00,52.51,190.00,10.00,M,30.03,M,6.21,M,SCT,BKN,M,M,3800.00,4900.00,M,M,M,YBBN 260000Z 19010KT 9999 SCT038 BKN049 20/10 Q1017 NOSIG
YBBN,2011-09-26 00:30,153.1292,-27.3917,71.60,51.80,49.64,180.00,8.00,M,30.03,M,6.21,M,SCT,BKN,M,M,3800.00,5000.00,M,M,M,YBBN 260030Z 18008KT 9999 SCT038 BKN050 22/11 Q1017 NOSIG
YBBN,2011-09-26 01:00,153.1292,-27.3917,71.60,50.00,46.43,140.00,8.00,M,30.00,M,6.21,M,SCT,BKN,M,M,4000.00,5200.00,M,M,M,YBBN 260100Z 14008KT 9999 SCT040 BKN052 22/10 Q1016 NOSIG
YBBN,2011-09-26 01:30,153.1292,-27.3917,69.80,50.00,49.37,100.00,5.00,M,30.00,M,6.21,M,BKN,BKN,M,M,4000.00,4500.00,M,M,M,YBBN 260130Z 10005KT 9999 BKN040 BKN045 21/10 Q1016 NOSIG
YBBN,2011-09-26 02:00,153.1292,-27.3917,71.60,50.00,46.43,170.00,6.00,M,30.00,M,6.21,M,SCT,BKN,M,M,4500.00,5500.00,M,M,M,YBBN 260200Z 17006KT 9999 SCT045 BKN055 22/10 Q1016 NOSIG
YBBN,2011-09-26 02:30,153.1292,-27.3917,71.60,50.00,46.43,160.00,7.00,M,30.00,M,6.21,M,SCT,BKN,M,M,4500.00,6400.00,M,M,M,YBBN 260230Z 16007KT 9999 SCT045 BKN064 22/10 Q1016 NOSIG
YBBN,2011-09-26 03:00,153.1292,-27.3917,73.40,51.80,46.71,200.00,5.00,M,29.97,M,6.21,M,SCT,BKN,M,M,4800.00,7000.00,M,M,M,YBBN 260300Z 20005KT 9999 SCT048 BKN070 23/11 Q1015 NOSIG
YBBN,2011-09-26 03:30,153.1292,-27.3917,73.40,51.80,46.71,130.00,11.00,M,29.97,M,6.21,M,SCT,BKN,M,M,4700.00,6600.00,M,M,M,YBBN 260330Z 13011KT 9999 SCT047 BKN066 23/11 Q1015 NOSIG
YBBN,2011-09-26 04:00,153.1292,-27.3917,69.80,53.60,56.38,130.00,12.00,M,29.97,M,6.21,M,SCT,BKN,M,M,4700.00,8000.00,M,M,M,YBBN 260400Z 13012KT 9999 SCT047 BKN080 21/12 Q1015 NOSIG
YBBN,2011-09-26 04:30,153.1292,-27.3917,71.60,51.80,49.64,130.00,12.00,M,29.97,M,6.21,M,FEW,SCT,M,M,4800.00,9200.00,M,M,M,YBBN 260430Z 13012KT 9999 FEW048 SCT092 22/11 Q1015 NOSIG
YBBN,2011-09-26 05:00,153.1292,-27.3917,71.60,50.00,46.43,150.00,10.00,M,29.97,M,6.21,M,FEW,BKN,M,M,4800.00,9000.00,M,M,-SHRA,YBBN 260500Z 15010KT 9999 -SHRA FEW048 BKN090 22/10 Q1015 NOSIG
YBBN,2011-09-26 05:30,153.1292,-27.3917,71.60,48.20,43.42,140.00,12.00,M,29.97,M,6.21,M,FEW,BKN,M,M,4800.00,9200.00,M,M,M,YBBN 260530Z 14012KT 9999 FEW048 BKN092 22/09 Q1015 NOSIG
YBBN,2011-09-26 06:00,153.1292,-27.3917,69.80,48.20,46.16,150.00,11.00,M,29.97,M,6.21,M,FEW,M,M,M,4100.00,M,M,M,M,YBBN 260600Z 15011KT 9999 FEW041 21/09 Q1015 NOSIG
YBBN,2011-09-26 06:30,153.1292,-27.3917,69.80,46.40,43.13,170.00,11.00,M,30.00,M,6.21,M,FEW,M,M,M,4000.00,M,M,M,M,YBBN 260630Z 17011KT 9999 FEW040 21/08 Q1016 NOSIG
YBBN,2011-09-26 07:00,153.1292,-27.3917,68.00,46.40,45.88,160.00,10.00,M,30.00,M,6.21,M,FEW,M,M,M,4000.00,M,M,M,M,YBBN 260700Z 16010KT 9999 FEW040 20/08 Q1016 NOSIG
YBBN,2011-09-26 07:30,153.1292,-27.3917,68.00,46.40,45.88,150.00,8.00,M,30.00,M,6.21,M,M,M,M,M,M,M,M,M,M,YBBN 260730Z 15008KT CAVOK 20/08 Q1016 NOSIG
YBBN,2011-09-26 08:00,153.1292,-27.3917,66.20,48.20,52.25,150.00,9.00,M,30.03,M,6.21,M,M,M,M,M,M,M,M,M,M,YBBN 260800Z 15009KT CAVOK 19/09 Q1017 NOSIG
YBBN,2011-09-26 08:30,153.1292,-27.3917,66.20,48.20,52.25,160.00,8.00,M,30.03,M,6.21,M,M,M,M,M,M,M,M,M,M,YBBN 260830Z 16008KT CAVOK 19/09 Q1017 NOSIG
YBBN,2011-09-26 09:00,153.1292,-27.3917,64.40,46.40,51.98,170.00,9.00,M,30.03,M,6.21,M,M,M,M,M,M,M,M,M,M,YBBN 260900Z 17009KT CAVOK 18/08 Q1017 NOSIG
YBBN,2011-09-26 09:30,153.1292,-27.3917,64.40,46.40,51.98,170.00,8.00,M,30.06,M,6.21,M,M,M,M,M,M,M,M,M,M,YBBN 260930Z 17008KT CAVOK 18/08 Q1018 NOSIG
YBBN,2011-09-26 10:00,153.1292,-27.3917,62.60,48.20,59.26,170.00,7.00,M,30.06,M,6.21,M,M,M,M,M,M,M,M,M,M,YBBN 261000Z 17007KT CAVOK 17/09 Q1018 NOSIG
YBBN,2011-09-26 10:30,153.1292,-27.3917,62.60,46.40,55.37,190.00,7.00,M,30.06,M,6.21,M,M,M,M,M,M,M,M,M,M,YBBN 261030Z 19007KT CAVOK 17/08 Q1018 NOSIG
YBBN,2011-09-26 11:00,153.1292,-27.3917,62.60,48.20,59.26,190.00,6.00,M,30.09,M,6.21,M,M,M,M,M,M,M,M,M,M,YBBN 261100Z 19006KT CAVOK 17/09 Q1019 NOSIG
YBBN,2011-09-26 11:30,153.1292,-27.3917,60.80,46.40,59.01,190.00,7.00,M,30.09,M,6.21,M,M,M,M,M,M,M,M,M,M,YBBN 261130Z 19007KT CAVOK 16/08 Q1019 NOSIG
YBBN,2011-09-26 12:00,153.1292,-27.3917,59.00,48.20,67.33,210.00,6.00,M,30.09,M,6.21,M,M,M,M,M,M,M,M,M,M,YBBN 261200Z 21006KT CAVOK 15/09 Q1019 NOSIG
YBBN,2011-09-26 12:30,153.1292,-27.3917,59.00,48.20,67.33,220.00,8.00,M,30.09,M,6.21,M,M,M,M,M,M,M,M,M,M,YBBN 261230Z 22008KT CAVOK 15/09 Q1019 NOSIG
YBBN,2011-09-26 13:00,153.1292,-27.3917,59.00,48.20,67.33,210.00,9.00,M,30.09,M,6.21,M,M,M,M,M,M,M,M,M,M,YBBN 261300Z 21009KT CAVOK 15/09 Q1019 NOSIG
YBBN,2011-09-26 13:30,153.1292,-27.3917,55.40,48.20,76.66,210.00,8.00,M,30.09,M,6.21,M,M,M,M,M,M,M,M,M,M,YBBN 261330Z 21008KT CAVOK 13/09 Q1019 NOSIG
YBBN,2011-09-26 14:00,153.1292,-27.3917,57.20,48.20,71.83,210.00,9.00,M,30.09,M,6.21,M,M,M,M,M,M,M,M,M,M,YBBN 261400Z 21009KT CAVOK 14/09 Q1019 NOSIG
YBBN,2011-09-26 14:30,153.1292,-27.3917,57.20,48.20,71.83,210.00,8.00,M,30.09,M,6.21,M,M,M,M,M,M,M,M,M,M,YBBN 261430Z 21008KT CAVOK 14/09 Q1019 NOSIG
YBBN,2011-09-26 15:00,153.1292,-27.3917,55.40,48.20,76.66,200.00,7.00,M,30.09,M,6.21,M,M,M,M,M,M,M,M,M,M,YBBN 261500Z 20007KT CAVOK 13/09 Q1019 NOSIG
YBBN,2011-09-26 15:30,153.1292,-27.3917,55.40,50.00,81.99,210.00,7.00,M,30.09,M,6.21,M,M,M,M,M,M,M,M,M,M,YBBN 261530Z 21007KT CAVOK 13/10 Q1019 NOSIG
YBBN,2011-09-26 16:00,153.1292,-27.3917,53.60,48.20,81.87,230.00,6.00,M,30.06,M,6.21,M,FEW,M,M,M,2800.00,M,M,M,M,YBBN 261600Z 23006KT 9999 FEW028 12/09 Q1018 NOSIG
YBBN,2011-09-26 16:30,153.1292,-27.3917,57.20,50.00,76.82,200.00,8.00,M,30.06,M,6.21,M,FEW,M,M,M,2800.00,M,M,M,M,YBBN 261630Z 20008KT 9999 FEW028 14/10 Q1018 NOSIG
YBBN,2011-09-26 17:00,153.1292,-27.3917,57.20,50.00,76.82,220.00,6.00,M,30.06,M,6.21,M,FEW,M,M,M,2800.00,M,M,M,M,YBBN 261700Z 22006KT 9999 FEW028 14/10 Q1018 NOSIG
YBBN,2011-09-26 17:30,153.1292,-27.3917,53.60,50.00,87.56,210.00,5.00,M,30.06,M,6.21,M,FEW,M,M,M,4000.00,M,M,M,M,YBBN 261730Z 21005KT 9999 FEW040 12/10 Q1018 NOSIG
YBBN,2011-09-26 18:00,153.1292,-27.3917,55.40,51.80,87.65,200.00,6.00,M,30.06,M,6.21,M,BKN,M,M,M,2700.00,M,M,M,M,YBBN 261800Z 20006KT 9999 BKN027 13/11 Q1018 NOSIG
YBBN,2011-09-26 18:30,153.1292,-27.3917,55.40,50.00,81.99,230.00,7.00,M,30.09,M,6.21,M,FEW,M,M,M,4000.00,M,M,M,M,YBBN 261830Z 23007KT 9999 FEW040 13/10 Q1019 NOSIG
YBBN,2011-09-26 19:00,153.1292,-27.3917,55.40,50.00,81.99,210.00,6.00,M,30.09,M,6.21,M,FEW,M,M,M,4000.00,M,M,M,M,YBBN 261900Z 21006KT 9999 FEW040 13/10 Q1019 NOSIG
YBBN,2011-09-26 19:30,153.1292,-27.3917,55.40,50.00,81.99,210.00,6.00,M,30.09,M,6.21,M,FEW,M,M,M,2000.00,M,M,M,M,YBBN 261930Z 21006KT 9999 FEW020 13/10 Q1019 NOSIG
YBBN,2011-09-26 20:00,153.1292,-27.3917,53.60,50.00,87.56,230.00,6.00,M,30.12,M,6.21,M,FEW,M,M,M,2000.00,M,M,M,M,YBBN 262000Z 23006KT 9999 FEW020 12/10 Q1020 NOSIG
YBBN,2011-09-26 20:30,153.1292,-27.3917,57.20,51.80,82.12,210.00,7.00,M,30.12,M,6.21,M,FEW,M,M,M,2000.00,M,M,M,M,YBBN 262030Z 21007KT 9999 FEW020 14/11 Q1020 NOSIG
YBBN,2011-09-26 21:00,153.1292,-27.3917,59.00,50.00,72.01,230.00,8.00,M,30.12,M,6.21,M,FEW,M,M,M,2000.00,M,M,M,M,YBBN 262100Z 23008KT 9999 FEW020 15/10 Q1020 NOSIG
YBBN,2011-09-26 21:30,153.1292,-27.3917,60.80,50.00,67.54,230.00,8.00,M,30.15,M,6.21,M,FEW,M,M,M,2500.00,M,M,M,M,YBBN 262130Z 23008KT 9999 FEW025 16/10 Q1021 NOSIG
YBBN,2011-09-26 22:00,153.1292,-27.3917,64.40,50.00,59.50,230.00,8.00,M,30.15,M,6.21,M,FEW,M,M,M,2500.00,M,M,M,M,YBBN 262200Z 23008KT 9999 FEW025 18/10 Q1021 NOSIG
YBBN,2011-09-26 22:30,153.1292,-27.3917,66.20,50.00,55.88,190.00,7.00,M,30.15,M,6.21,M,FEW,M,M,M,2500.00,M,M,M,M,YBBN 262230Z 19007KT 9999 FEW025 19/10 Q1021 NOSIG
YBBN,2011-09-26 23:00,153.1292,-27.3917,66.20,50.00,55.88,170.00,7.00,M,30.15,M,6.21,M,FEW,M,M,M,2500.00,M,M,M,M,YBBN 262300Z 17007KT 9999 FEW025 19/10 Q1021 NOSIG
YBBN,2011-09-26 23:30,153.1292,-27.3917,71.60,51.80,49.64,120.00,9.00,M,30.15,M,6.21,M,SCT,M,M,M,3000.00,M,M,M,M,YBBN 262330Z 12009KT 9999 SCT030 22/11 Q1021 NOSIG
