#DEBUG: Format Typ    -> comma
#DEBUG: Time Period   -> 2011-04-20 00:00:00+00:00 2011-04-21 00:00:00+00:00
#DEBUG: Time Zone     -> Etc/UTC
#DEBUG: Data Contact   -> daryl herzmann akrherz@iastate.edu 515-294-5978
#DEBUG: Entries Found -> -1
station,valid,lon,lat,tmpf, dwpf, relh, drct, sknt, p01i, alti, mslp, vsby, gust, skyc1, skyc2, skyc3, skyc4, skyl1, skyl2, skyl3, skyl4, presentwx, metar
YBBN,2011-04-20 00:00,153.1292,-27.3917,77.00,64.40,65.12,150.00,7.00,M,30.09,M,6.21,M,FEW,M,M,M,2200.00,M,M,M,M,YBBN 200000Z 15007KT 9999 FEW022 25/18 Q1019 NOSIG
YBBN,2011-04-20 00:30,153.1292,-27.3917,77.00,62.60,61.13,130.00,8.00,M,30.06,M,6.21,M,FEW,SCT,M,M,2200.00,2400.00,M,M,M,YBBN 200030Z 13008KT 9999 FEW022 SCT024 25/17 Q1018 NOSIG
YBBN,2011-04-20 01:00,153.1292,-27.3917,77.00,64.40,65.12,130.00,9.00,M,30.06,M,6.21,M,FEW,SCT,M,M,2400.00,2600.00,M,M,M,YBBN 200100Z 13009KT 9999 FEW024 SCT026 25/18 Q1018 NOSIG
YBBN,2011-04-20 01:30,153.1292,-27.3917,77.00,62.60,61.13,110.00,9.00,M,30.06,M,6.21,M,SCT,SCT,M,M,2600.00,6000.00,M,M,M,YBBN 200130Z 11009KT 9999 SCT026 SCT060 25/17 Q1018 NOSIG
YBBN,2011-04-20 02:00,153.1292,-27.3917,75.20,64.40,69.14,120.00,10.00,M,30.03,M,6.21,M,FEW,BKN,M,M,2000.00,6000.00,M,M,VCSH,YBBN 200200Z 12010KT 9999 VCSH FEW020 BKN060 24/18 Q1017 NOSIG
YBBN,2011-04-20 02:30,153.1292,-27.3917,75.20,64.40,69.14,100.00,7.00,M,30.03,M,6.21,M,FEW,BKN,M,M,2000.00,6400.00,M,M,M,YBBN 200230Z 10007KT 9999 FEW020 BKN064 24/18 Q1017 NOSIG
YBBN,2011-04-20 03:00,153.1292,-27.3917,77.00,66.20,69.33,80.00,8.00,M,30.00,M,6.21,M,FEW,SCT,M,M,2400.00,6400.00,M,M,M,YBBN 200300Z 08008KT 9999 FEW024 SCT064 25/19 Q1016 NOSIG
YBBN,2011-04-20 03:30,153.1292,-27.3917,77.00,66.20,69.33,70.00,9.00,M,30.00,M,6.21,M,FEW,SCT,M,M,2400.00,6400.00,M,M,M,YBBN 200330Z 07009KT 9999 FEW024 SCT064 25/19 Q1016 NOSIG
YBBN,2011-04-20 04:00,153.1292,-27.3917,77.00,64.40,65.12,70.00,7.00,M,30.00,M,6.21,M,FEW,M,M,M,2400.00,M,M,M,M,YBBN 200400Z 07007KT 9999 FEW024 25/18 Q1016 NOSIG
YBBN,2011-04-20 04:30,153.1292,-27.3917,77.00,64.40,65.12,70.00,7.00,M,30.00,M,6.21,M,FEW,M,M,M,2200.00,M,M,M,M,YBBN 200430Z 07007KT 9999 FEW022 25/18 Q1016 NOSIG
YBBN,2011-04-20 05:00,153.1292,-27.3917,77.00,66.20,69.33,100.00,6.00,M,30.00,M,6.21,M,FEW,M,M,M,2200.00,M,M,M,M,YBBN 200500Z 10006KT 9999 FEW022 25/19 Q1016 NOSIG
YBBN,2011-04-20 05:30,153.1292,-27.3917,77.00,64.40,65.12,100.00,7.00,M,30.00,M,6.21,M,FEW,M,M,M,2200.00,M,M,M,M,YBBN 200530Z 10007KT 9999 FEW022 25/18 Q1016 NOSIG
YBBN,2011-04-20 06:00,153.1292,-27.3917,75.20,62.60,64.91,100.00,7.00,M,29.97,M,6.21,M,FEW,M,M,M,2400.00,M,M,M,M,YBBN 200600Z 10007KT 9999 FEW024 24/17 Q1015 NOSIG
YBBN,2011-04-20 06:30,153.1292,-27.3917,75.20,64.40,69.14,100.00,7.00,M,29.97,M,6.21,M,FEW,M,M,M,2200.00,M,M,M,M,YBBN 200630Z 10007KT 9999 FEW022 24/18 Q1015 NOSIG
YBBN,2011-04-20 07:00,153.1292,-27.3917,73.40,64.40,73.44,110.00,6.00,M,29.97,M,6.21,M,FEW,M,M,M,2000.00,M,M,M,M,YBBN 200700Z 11006KT 9999 FEW020 23/18 Q1015 NOSIG
YBBN,2011-04-20 07:30,153.1292,-27.3917,73.40,64.40,73.44,110.00,6.00,M,30.00,M,6.21,M,FEW,M,M,M,1600.00,M,M,M,M,YBBN 200730Z 11006KT 9999 FEW016 23/18 Q1016 NOSIG
YBBN,2011-04-20 08:00,153.1292,-27.3917,71.60,64.40,78.04,110.00,6.00,M,30.00,M,6.21,M,FEW,M,M,M,1600.00,M,M,M,M,YBBN 200800Z 11006KT 9999 FEW016 22/18 Q1016 NOSIG
YBBN,2011-04-20 08:30,153.1292,-27.3917,71.60,64.40,78.04,120.00,4.00,M,30.00,M,6.21,M,FEW,M,M,M,1600.00,M,M,M,M,YBBN 200830Z 12004KT 9999 FEW016 22/18 Q1016 NOSIG
YBBN,2011-04-20 09:00,153.1292,-27.3917,71.60,64.40,78.04,120.00,4.00,M,30.00,M,6.21,M,FEW,M,M,M,1600.00,M,M,M,M,YBBN 200900Z 12004KT 9999 FEW016 22/18 Q1016 NOSIG
YBBN,2011-04-20 09:30,153.1292,-27.3917,69.80,64.40,82.98,110.00,3.00,M,30.00,M,6.21,M,FEW,M,M,M,4000.00,M,M,M,M,YBBN 200930Z 11003KT 9999 FEW040 21/18 Q1016 NOSIG
YBBN,2011-04-20 10:00,153.1292,-27.3917,71.60,64.40,78.04,140.00,3.00,M,30.03,M,6.21,M,FEW,M,M,M,2000.00,M,M,M,M,YBBN 201000Z 14003KT 9999 FEW020 22/18 Q1017 NOSIG
YBBN,2011-04-20 10:30,153.1292,-27.3917,69.80,64.40,82.98,170.00,4.00,M,30.03,M,6.21,M,FEW,M,M,M,2500.00,M,M,M,M,YBBN 201030Z 17004KT 9999 FEW025 21/18 Q1017 NOSIG
YBBN,2011-04-20 11:00,153.1292,-27.3917,69.80,64.40,82.98,180.00,4.00,M,30.03,M,6.21,M,FEW,M,M,M,2500.00,M,M,M,M,YBBN 201100Z 18004KT 9999 FEW025 21/18 Q1017 NOSIG
YBBN,2011-04-20 11:30,153.1292,-27.3917,69.80,64.40,82.98,180.00,5.00,M,30.03,M,6.21,M,FEW,SCT,M,M,2500.00,15000.00,M,M,M,YBBN 201130Z 18005KT 9999 FEW025 SCT150 21/18 Q1017 NOSIG
YBBN,2011-04-20 12:00,153.1292,-27.3917,69.80,64.40,82.98,210.00,5.00,M,30.03,M,6.21,M,FEW,BKN,M,M,2500.00,15000.00,M,M,M,YBBN 201200Z 21005KT 9999 FEW025 BKN150 21/18 Q1017 NOSIG
YBBN,2011-04-20 12:30,153.1292,-27.3917,68.00,64.40,88.26,0.00,0.00,M,30.00,M,6.21,M,M,M,M,M,M,M,M,M,M,YBBN 201230Z 00000KT CAVOK 20/18 Q1016 RMK 7AC140 NOSIG
YBBN,2011-04-20 13:00,153.1292,-27.3917,68.00,64.40,88.26,220.00,4.00,M,30.00,M,6.21,M,FEW,BKN,M,M,2500.00,14000.00,M,M,M,YBBN 201300Z 22004KT 9999 FEW025 BKN140 20/18 Q1016 NOSIG
YBBN,2011-04-20 13:30,153.1292,-27.3917,68.00,64.40,88.26,210.00,5.00,M,30.00,M,6.21,M,FEW,BKN,M,M,2000.00,15000.00,M,M,M,YBBN 201330Z 21005KT 9999 FEW020 BKN150 20/18 Q1016 NOSIG
YBBN,2011-04-20 14:00,153.1292,-27.3917,68.00,64.40,88.26,190.00,3.00,M,30.00,M,6.21,M,FEW,BKN,M,M,2000.00,15000.00,M,M,M,YBBN 201400Z 19003KT 9999 FEW020 BKN150 20/18 Q1016 NOSIG
YBBN,2011-04-20 14:30,153.1292,-27.3917,68.00,64.40,88.26,210.00,6.00,M,30.00,M,6.21,M,FEW,SCT,BKN,M,2000.00,11000.00,15000.00,M,M,YBBN 201430Z 21006KT 9999 FEW020 SCT110 BKN150 20/18 Q1016 NOSIG
YBBN,2011-04-20 15:00,153.1292,-27.3917,69.80,64.40,82.98,200.00,4.00,M,30.00,M,6.21,M,FEW,SCT,BKN,M,2500.00,3500.00,14000.00,M,M,YBBN 201500Z 20004KT 9999 FEW025 SCT035 BKN140 21/18 Q1016 NOSIG
YBBN,2011-04-20 15:30,153.1292,-27.3917,68.00,64.40,88.26,220.00,5.00,M,29.97,M,6.21,M,SCT,BKN,M,M,3500.00,12000.00,M,M,M,YBBN 201530Z 22005KT 9999 SCT035 BKN120 20/18 Q1015 NOSIG
YBBN,2011-04-20 16:00,153.1292,-27.3917,68.00,64.40,88.26,220.00,6.00,M,29.97,M,6.21,M,FEW,BKN,M,M,3500.00,11500.00,M,M,M,YBBN 201600Z 22006KT 9999 FEW035 BKN115 20/18 Q1015 NOSIG
YBBN,2011-04-20 16:30,153.1292,-27.3917,68.00,64.40,88.26,220.00,7.00,M,29.97,M,6.21,M,FEW,SCT,BKN,M,3500.00,10500.00,15000.00,M,M,YBBN 201630Z 22007KT 9999 FEW035 SCT105 BKN150 20/18 Q1015 NOSIG
YBBN,2011-04-20 17:00,153.1292,-27.3917,66.20,64.40,93.92,230.00,7.00,M,29.97,M,6.21,M,FEW,BKN,M,M,3500.00,12000.00,M,M,M,YBBN 201700Z 23007KT 9999 FEW035 BKN120 19/18 Q1015 NOSIG
YBBN,2011-04-20 17:30,153.1292,-27.3917,66.20,64.40,93.92,210.00,6.00,M,29.94,M,6.21,M,FEW,BKN,M,M,3000.00,12000.00,M,M,-SHRA,YBBN 201730Z 21006KT 9999 -SHRA FEW030 BKN120 19/18 Q1014 NOSIG
YBBN,2011-04-20 18:00,153.1292,-27.3917,68.00,64.40,88.26,210.00,7.00,M,29.94,M,6.21,M,FEW,BKN,M,M,3000.00,11500.00,M,M,-SHRA,YBBN 201800Z 21007KT 9999 -SHRA FEW030 BKN115 20/18 Q1014 NOSIG
YBBN,2011-04-20 18:30,153.1292,-27.3917,66.20,64.40,93.92,210.00,7.00,M,29.94,M,6.21,M,FEW,BKN,M,M,2500.00,11500.00,M,M,M,YBBN 201830Z 21007KT 9999 FEW025 BKN115 19/18 Q1014 NOSIG
YBBN,2011-04-20 19:00,153.1292,-27.3917,68.00,64.40,88.26,210.00,6.00,M,29.94,M,6.21,M,FEW,BKN,M,M,2500.00,15000.00,M,M,M,YBBN 201900Z 21006KT 9999 FEW025 BKN150 20/18 Q1014 NOSIG
YBBN,2011-04-20 19:30,153.1292,-27.3917,66.20,64.40,93.92,220.00,7.00,M,29.94,M,6.21,M,FEW,BKN,M,M,2500.00,12000.00,M,M,M,YBBN 201930Z 22007KT 9999 FEW025 BKN120 19/18 Q1014 NOSIG
YBBN,2011-04-20 20:00,153.1292,-27.3917,66.20,64.40,93.92,220.00,6.00,M,29.94,M,6.21,M,FEW,BKN,M,M,1800.00,12000.00,M,M,M,YBBN 202000Z 22006KT 9999 FEW018 BKN120 19/18 Q1014 NOSIG
YBBN,2011-04-20 20:30,153.1292,-27.3917,66.20,64.40,93.92,220.00,8.00,M,29.97,M,6.21,M,FEW,M,M,M,1800.00,M,M,M,M,YBBN 202030Z 22008KT 9999 FEW018 19/18 Q1015 NOSIG
YBBN,2011-04-20 21:00,153.1292,-27.3917,68.00,64.40,88.26,210.00,8.00,M,29.97,M,6.21,M,FEW,M,M,M,2200.00,M,M,M,M,YBBN 202100Z 21008KT 9999 FEW022 20/18 Q1015 NOSIG
YBBN,2011-04-20 21:30,153.1292,-27.3917,69.80,64.40,82.98,210.00,6.00,M,29.97,M,6.21,M,FEW,M,M,M,2200.00,M,M,M,M,YBBN 202130Z 21006KT 9999 FEW022 21/18 Q1015 NOSIG
YBBN,2011-04-20 22:00,153.1292,-27.3917,71.60,64.40,78.04,210.00,9.00,M,29.97,M,6.21,M,FEW,M,M,M,2200.00,M,M,M,M,YBBN 202200Z 21009KT 9999 FEW022 22/18 Q1015 NOSIG
YBBN,2011-04-20 22:30,153.1292,-27.3917,73.40,64.40,73.44,210.00,7.00,M,29.97,M,6.21,M,FEW,M,M,M,2200.00,M,M,M,M,YBBN 202230Z 21007KT 9999 FEW022 23/18 Q1015 NOSIG
YBBN,2011-04-20 23:00,153.1292,-27.3917,75.20,66.20,73.61,210.00,5.00,M,29.97,M,6.21,M,FEW,M,M,M,2200.00,M,M,M,M,YBBN 202300Z 21005KT 9999 FEW022 24/19 Q1015 NOSIG
YBBN,2011-04-20 23:30,153.1292,-27.3917,77.00,66.20,69.33,120.00,4.00,M,29.97,M,6.21,M,FEW,M,M,M,2500.00,M,M,M,M,YBBN 202330Z 12004KT 9999 FEW025 25/19 Q1015 NOSIG
