#DEBUG: Format Typ    -> comma
#DEBUG: Time Period   -> 2013-12-29 00:00:00+00:00 2013-12-30 00:00:00+00:00
#DEBUG: Time Zone     -> Etc/UTC
#DEBUG: Data Contact   -> daryl herzmann akrherz@iastate.edu 515-294-5978
#DEBUG: Entries Found -> -1
station,valid,lon,lat,tmpf, dwpf, relh, drct, sknt, p01i, alti, mslp, vsby, gust, skyc1, skyc2, skyc3, skyc4, skyl1, skyl2, skyl3, skyl4, presentwx, metar
YBBN,2013-12-29 00:00,153.1292,-27.3917,86.00,69.80,58.55,20.00,13.00,0.00,29.77,M,6.21,M,FEW,M,M,M,2100.00,M,M,M,M,YBBN 290000Z 02013KT 9999 FEW021 30/21 Q1008 NOSIG
YBBN,2013-12-29 00:30,153.1292,-27.3917,84.20,69.80,62.03,20.00,13.00,0.00,29.77,M,6.21,M,M,M,M,M,M,M,M,M,M,YBBN 290030Z 02013KT CAVOK 29/21 Q1008
YBBN,2013-12-29 01:00,153.1292,-27.3917,86.00,73.40,66.15,10.00,15.00,0.00,29.77,M,6.21,M,FEW,M,M,M,3000.00,M,M,M,M,YBBN 290100Z 01015KT 9999 FEW030 30/23 Q1008 NOSIG
YBBN,2013-12-29 01:30,153.1292,-27.3917,86.00,71.60,62.25,30.00,17.00,0.00,29.74,M,6.21,M,FEW,M,M,M,3000.00,M,M,M,M,YBBN 290130Z 03017KT 9999 FEW030 30/22 Q1007
YBBN,2013-12-29 02:00,153.1292,-27.3917,86.00,73.40,66.15,30.00,18.00,0.00,29.74,M,6.21,M,FEW,M,M,M,2300.00,M,M,M,M,YBBN 290200Z 03018KT 9999 FEW023 30/23 Q1007 NOSIG
YBBN,2013-12-29 02:30,153.1292,-27.3917,86.00,73.40,66.15,30.00,18.00,0.00,29.74,M,6.21,M,FEW,M,M,M,2300.00,M,M,M,M,YBBN 290230Z 03018KT 9999 FEW023 30/23 Q1007
YBBN,2013-12-29 03:00,153.1292,-27.3917,84.20,71.60,65.95,30.00,18.00,0.00,29.71,M,6.21,M,FEW,M,M,M,2500.00,M,M,M,M,YBBN 290300Z 03018KT 9999 FEW025 29/22 Q1006 RMK TCU TOP S
YBBN,2013-12-29 03:30,153.1292,-27.3917,86.00,71.60,62.25,20.00,17.00,0.00,29.71,M,6.21,M,FEW,M,M,M,2500.00,M,M,M,M,YBBN 290330Z 02017KT 9999 FEW025 30/22 Q1006 RMK CB TOP S
YBBN,2013-12-29 04:00,153.1292,-27.3917,86.00,73.40,66.15,10.00,19.00,0.00,29.68,M,6.21,M,FEW,M,M,M,3000.00,M,M,M,M,YBBN 290400Z 01019KT 9999 FEW030 30/23 Q1005 RMK CB TOP S
YBBN,2013-12-29 04:30,153.1292,-27.3917,84.20,71.60,65.95,20.00,18.00,0.00,29.68,M,6.21,M,FEW,M,M,M,3000.00,M,M,M,M,YBBN 290430Z 02018KT 9999 FEW030 29/22 Q1005 RMK CB TOPS S
YBBN,2013-12-29 05:00,153.1292,-27.3917,84.20,73.40,70.08,20.00,18.00,0.00,29.65,M,6.21,M,FEW,M,M,M,3000.00,M,M,M,M,YBBN 290500Z 02018KT 9999 FEW030 29/23 Q1004 NOSIG
YBBN,2013-12-29 05:30,153.1292,-27.3917,86.00,73.40,66.15,10.00,18.00,0.00,29.65,M,6.21,M,FEW,M,M,M,3300.00,M,M,M,M,YBBN 290530Z 01018KT 9999 FEW033 30/23 Q1004 RMK CB TOPS S W
YBBN,2013-12-29 06:00,153.1292,-27.3917,86.00,73.40,66.15,10.00,18.00,0.00,29.62,M,6.21,M,FEW,M,M,M,3300.00,M,M,M,M,YBBN 290600Z 01018KT 9999 FEW033 30/23 Q1003 NOSIG
YBBN,2013-12-29 06:30,153.1292,-27.3917,84.20,73.40,70.08,10.00,18.00,0.00,29.62,M,6.21,M,FEW,SCT,M,M,3300.00,25000.00,M,M,M,YBBN 290630Z 01018KT 9999 FEW033 SCT250 29/23 Q1003 RMK HAZE  CB TOP S SW
YBBN,2013-12-29 07:00,153.1292,-27.3917,80.60,73.40,78.76,10.00,17.00,0.00,29.65,M,6.21,M,FEW,SCT,BKN,FEW,2500.00,12000.00,25000.00,3000.00,M,YBBN 290700Z 01017KT 9999 FEW025 SCT120 BKN250 FEW030CB 27/23 Q1004
YBBN,2013-12-29 07:11,153.1292,-27.3917,80.60,73.40,78.76,10.00,15.00,0.00,29.65,M,6.21,M,FEW,SCT,BKN,FEW,2500.00,12000.00,25000.00,3000.00,VCTS,YBBN 290711Z 01015KT 9999 VCTS FEW025 SCT120 BKN250 FEW030CB 27/23 Q1004
YBBN,2013-12-29 07:27,153.1292,-27.3917,80.60,73.40,78.76,30.00,10.00,0.00,29.71,M,5.59,M,FEW,BKN,BKN,FEW,2200.00,16000.00,25000.00,3000.00,VCTS VCSH,YBBN 290727Z 03010KT 9000 VCTS VCSH FEW022 BKN160 BKN250 FEW030CB 27/23 Q1006
YBBN,2013-12-29 07:30,153.1292,-27.3917,80.60,73.40,78.76,150.00,7.00,0.00,29.74,M,5.59,M,FEW,BKN,BKN,FEW,2200.00,16000.00,25000.00,3000.00,-TSRA,YBBN 290730Z 15007KT 9000 -TSRA FEW022 BKN160 BKN250 FEW030CB 27/23 Q1007
YBBN,2013-12-29 07:51,153.1292,-27.3917,80.60,73.40,78.76,30.00,12.00,0.00,29.68,M,6.21,M,FEW,SCT,BKN,FEW,2000.00,12000.00,16000.00,3300.00,VCTS -SHRA,YBBN 290751Z 03012KT 9999 VCTS -SHRA FEW020 SCT120 BKN160 FEW033CB 27/23 Q1005 RETS
YBBN,2013-12-29 08:00,153.1292,-27.3917,80.60,73.40,78.76,20.00,15.00,0.00,29.65,M,6.21,M,FEW,SCT,BKN,FEW,1800.00,12000.00,16000.00,3500.00,VCTS -RA,YBBN 290800Z 02015KT 9999 VCTS -RA FEW018 SCT120 BKN160 FEW035CB 27/23 Q1004
YBBN,2013-12-29 08:20,153.1292,-27.3917,80.60,73.40,78.76,350.00,9.00,0.00,29.71,M,6.21,M,FEW,SCT,BKN,FEW,1500.00,12000.00,16000.00,5000.00,VCTS VCSH,YBBN 290820Z 35009KT 9999 VCTS VCSH FEW015 SCT120 BKN160 FEW050CB 27/23 Q1006 RETS
YBBN,2013-12-29 08:30,153.1292,-27.3917,82.40,71.60,69.90,120.00,12.00,0.00,29.74,M,6.21,M,FEW,SCT,BKN,SCT,1000.00,11000.00,14000.00,5000.00,-TSRA,YBBN 290830Z 12012KT 9999 -TSRA FEW010 SCT110 BKN140 SCT050CB 28/22 Q1007
YBBN,2013-12-29 09:00,153.1292,-27.3917,80.60,73.40,78.76,80.00,7.00,0.00,29.74,M,6.21,M,FEW,SCT,BKN,FEW,1000.00,12000.00,14000.00,5000.00,VCTS -RA,YBBN 290900Z 08007KT 9999 VCTS -RA FEW010 SCT120 BKN140 FEW050CB 27/23 Q1007
YBBN,2013-12-29 09:19,153.1292,-27.3917,82.40,69.80,65.74,200.00,7.00,0.00,29.80,M,6.21,M,FEW,SCT,BKN,FEW,1000.00,12000.00,16000.00,5000.00,-TSRA -RA,YBBN 290919Z 20007KT 9999 -TSRA -RA FEW010 SCT120 BKN160 FEW050CB 28/21 Q1009
YBBN,2013-12-29 09:28,153.1292,-27.3917,80.60,73.40,78.76,250.00,15.00,0.00,29.85,M,6.21,M,FEW,SCT,BKN,FEW,1000.00,12000.00,16000.00,5000.00,-TSRA,YBBN 290928Z 25015KT 9999 -TSRA FEW010 SCT120 BKN160 FEW050CB 27/23 Q1011
YBBN,2013-12-29 09:30,153.1292,-27.3917,80.60,73.40,78.76,250.00,15.00,0.00,29.85,M,6.21,M,FEW,SCT,BKN,FEW,1000.00,12000.00,16000.00,5000.00,-TSRA,YBBN 290930Z 25015KT 9999 -TSRA FEW010 SCT120 BKN160 FEW050CB 27/23 Q1011
YBBN,2013-12-29 09:47,153.1292,-27.3917,80.60,69.80,69.71,130.00,10.00,0.00,29.80,M,6.21,M,FEW,SCT,BKN,M,1500.00,7000.00,16000.00,M,-TSRA,YBBN 290947Z 13010KT 9999 -TSRA FEW015 SCT070CB BKN160 27/21 Q1009
YBBN,2013-12-29 10:00,153.1292,-27.3917,80.60,71.60,74.11,90.00,9.00,0.00,29.80,M,6.21,M,FEW,SCT,BKN,M,1500.00,7000.00,11500.00,M,-TSRA,YBBN 291000Z 09009KT 9999 -TSRA FEW015 SCT070CB BKN115 27/22 Q1009
YBBN,2013-12-29 10:13,153.1292,-27.3917,80.60,71.60,74.11,140.00,7.00,0.00,29.85,M,6.21,M,FEW,SCT,BKN,M,1800.00,8000.00,14000.00,M,-TSRA,YBBN 291013Z 14007KT 9999 -TSRA FEW018 SCT080CB BKN140 27/22 Q1011
YBBN,2013-12-29 10:17,153.1292,-27.3917,78.80,71.60,78.62,210.00,18.00,0.00,29.88,M,6.21,29.00,FEW,SCT,BKN,M,1800.00,7000.00,11500.00,M,-TSRA,YBBN 291017Z 21018G29KT 9999 -TSRA FEW018 SCT070CB BKN115 26/22 Q1012
YBBN,2013-12-29 10:26,153.1292,-27.3917,78.80,69.80,73.95,90.00,10.00,0.00,29.83,M,6.21,M,FEW,SCT,BKN,FEW,1800.00,9000.00,11500.00,7000.00,-TSRA,YBBN 291026Z 09010KT 9999 -TSRA FEW018 SCT090 BKN115 FEW070CB 26/21 Q1010
YBBN,2013-12-29 10:30,153.1292,-27.3917,78.80,71.60,78.62,90.00,11.00,0.00,29.80,M,6.21,M,FEW,SCT,BKN,FEW,5000.00,9000.00,11500.00,7000.00,VCTS -RA,YBBN 291030Z 09011KT 9999 VCTS -RA FEW050 SCT090 BKN115 FEW070CB 26/22 Q1009
YBBN,2013-12-29 11:00,153.1292,-27.3917,78.80,71.60,78.62,30.00,14.00,0.00,29.77,M,6.21,M,FEW,SCT,BKN,M,5000.00,12000.00,16000.00,M,VCSH,YBBN 291100Z 03014KT 9999 VCSH FEW050 SCT120 BKN160 26/22 Q1008
YBBN,2013-12-29 11:30,153.1292,-27.3917,80.60,71.60,74.11,70.00,9.00,0.00,29.80,M,6.21,M,FEW,OVC,M,M,2500.00,26000.00,M,M,M,YBBN 291130Z 07009KT 9999 FEW025 OVC260 27/22 Q1009
YBBN,2013-12-29 12:00,153.1292,-27.3917,80.60,71.60,74.11,120.00,13.00,0.00,29.83,M,6.21,23.00,M,M,M,M,M,M,M,M,M,YBBN 291200Z 12013G23KT CAVOK 27/22 Q1010 NOSIG
YBBN,2013-12-29 12:30,153.1292,-27.3917,77.00,69.80,78.48,130.00,11.00,0.00,29.83,M,6.21,M,FEW,SCT,BKN,M,1500.00,5000.00,28000.00,M,M,YBBN 291230Z 13011KT 9999 FEW015 SCT050 BKN280 25/21 Q1010
YBBN,2013-12-29 13:00,153.1292,-27.3917,75.20,66.20,73.61,130.00,14.00,0.00,29.83,M,6.21,26.00,FEW,BKN,M,M,1800.00,28000.00,M,M,M,YBBN 291300Z 13014G26KT 9999 FEW018 BKN280 24/19 Q1010
YBBN,2013-12-29 13:30,153.1292,-27.3917,75.20,66.20,73.61,130.00,14.00,0.00,29.83,M,6.21,M,M,M,M,M,M,M,M,M,M,YBBN 291330Z 13014KT CAVOK 24/19 Q1010 RMK FU
YBBN,2013-12-29 14:00,153.1292,-27.3917,75.20,64.40,69.14,140.00,11.00,0.00,29.85,M,6.21,M,FEW,M,M,M,2200.00,M,M,M,M,YBBN 291400Z 14011KT 9999 FEW022 24/18 Q1011
YBBN,2013-12-29 14:30,153.1292,-27.3917,75.20,64.40,69.14,140.00,10.00,0.00,29.85,M,6.21,M,FEW,SCT,M,M,1800.00,19000.00,M,M,M,YBBN 291430Z 14010KT 9999 FEW018 SCT190 24/18 Q1011 RMK FU
YBBN,2013-12-29 15:00,153.1292,-27.3917,73.40,64.40,73.44,140.00,9.00,0.00,29.85,M,6.21,M,FEW,SCT,M,M,1800.00,18000.00,M,M,M,YBBN 291500Z 14009KT 9999 FEW018 SCT180 23/18 Q1011
YBBN,2013-12-29 15:30,153.1292,-27.3917,73.40,64.40,73.44,130.00,9.00,0.00,29.85,M,6.21,M,M,M,M,M,M,M,M,M,M,YBBN 291530Z 13009KT CAVOK 23/18 Q1011 RMK FU
YBBN,2013-12-29 16:00,153.1292,-27.3917,73.40,62.60,68.94,140.00,9.00,0.00,29.83,M,6.21,M,M,M,M,M,M,M,M,M,M,YBBN 291600Z 14009KT CAVOK 23/17 Q1010
YBBN,2013-12-29 16:30,153.1292,-27.3917,73.40,62.60,68.94,150.00,9.00,0.00,29.85,M,6.21,M,M,M,M,M,M,M,M,M,M,YBBN 291630Z 15009KT CAVOK 23/17 Q1011 RMK FU
YBBN,2013-12-29 17:00,153.1292,-27.3917,73.40,62.60,68.94,140.00,8.00,0.00,29.85,M,6.21,M,M,M,M,M,M,M,M,M,M,YBBN 291700Z 14008KT CAVOK 23/17 Q1011
YBBN,2013-12-29 17:30,153.1292,-27.3917,73.40,62.60,68.94,150.00,9.00,0.00,29.85,M,6.21,M,M,M,M,M,M,M,M,M,M,YBBN 291730Z 15009KT CAVOK 23/17 Q1011
YBBN,2013-12-29 18:00,153.1292,-27.3917,71.60,62.60,73.27,150.00,7.00,0.00,29.85,M,6.21,M,M,M,M,M,M,M,M,M,M,YBBN 291800Z 15007KT CAVOK 22/17 Q1011 NOSIG
YBBN,2013-12-29 18:30,153.1292,-27.3917,71.60,62.60,73.27,150.00,8.00,0.00,29.85,M,6.21,M,M,M,M,M,M,M,M,M,M,YBBN 291830Z 15008KT CAVOK 22/17 Q1011 RMK FU
YBBN,2013-12-29 19:00,153.1292,-27.3917,71.60,60.80,68.75,150.00,10.00,0.00,29.85,M,6.21,M,M,M,M,M,M,M,M,M,M,YBBN 291900Z 15010KT CAVOK 22/16 Q1011
YBBN,2013-12-29 19:30,153.1292,-27.3917,71.60,60.80,68.75,170.00,9.00,0.00,29.85,M,6.21,M,M,M,M,M,M,M,M,M,M,YBBN 291930Z 17009KT CAVOK 22/16 Q1011 RMK FU
YBBN,2013-12-29 20:00,153.1292,-27.3917,73.40,60.80,64.69,160.00,9.00,0.00,29.88,M,6.21,M,FEW,M,M,M,4000.00,M,M,M,M,YBBN 292000Z 16009KT 9999 FEW040 23/16 Q1012
YBBN,2013-12-29 20:30,153.1292,-27.3917,73.40,62.60,68.94,160.00,8.00,0.00,29.88,M,6.21,M,FEW,M,M,M,4000.00,M,M,M,M,YBBN 292030Z 16008KT 9999 FEW040 23/17 Q1012 RMK FU
YBBN,2013-12-29 21:00,153.1292,-27.3917,75.20,62.60,64.91,150.00,7.00,0.00,29.88,M,6.21,M,SCT,M,M,M,4400.00,M,M,M,M,YBBN 292100Z 15007KT 9999 SCT044 24/17 Q1012 NOSIG
YBBN,2013-12-29 21:30,153.1292,-27.3917,77.00,62.60,61.13,140.00,8.00,0.00,29.88,M,6.21,M,BKN,M,M,M,4400.00,M,M,M,M,YBBN 292130Z 14008KT 9999 BKN044 25/17 Q1012 RMK FU
YBBN,2013-12-29 22:00,153.1292,-27.3917,77.00,62.60,61.13,130.00,9.00,0.00,29.88,M,6.21,M,FEW,BKN,M,M,3500.00,4400.00,M,M,M,YBBN 292200Z 13009KT 9999 FEW035 BKN044 25/17 Q1012 NOSIG
YBBN,2013-12-29 22:30,153.1292,-27.3917,78.80,62.60,57.60,130.00,7.00,0.00,29.88,M,6.21,M,FEW,BKN,M,M,3800.00,4300.00,M,M,M,YBBN 292230Z 13007KT 9999 FEW038 BKN043 26/17 Q1012 RMK FU
YBBN,2013-12-29 23:00,153.1292,-27.3917,78.80,62.60,57.60,120.00,8.00,0.00,29.88,M,6.21,M,FEW,BKN,M,M,3800.00,4300.00,M,M,M,YBBN 292300Z 12008KT 9999 FEW038 BKN043 26/17 Q1012 NOSIG
YBBN,2013-12-29 23:30,153.1292,-27.3917,78.80,64.40,61.36,110.00,9.00,0.00,29.88,M,6.21,M,FEW,BKN,M,M,3800.00,4400.00,M,M,M,YBBN 292330Z 11009KT 9999 FEW038 BKN044 26/18 Q1012
