#DEBUG: Format Typ    -> comma
#DEBUG: Time Period   -> 2013-01-27 00:00:00+00:00 2013-01-28 00:00:00+00:00
#DEBUG: Time Zone     -> Etc/UTC
#DEBUG: Data Contact   -> daryl herzmann akrherz@iastate.edu 515-294-5978
#DEBUG: Entries Found -> -1
station,valid,lon,lat,tmpf, dwpf, relh, drct, sknt, p01i, alti, mslp, vsby, gust, skyc1, skyc2, skyc3, skyc4, skyl1, skyl2, skyl3, skyl4, presentwx, metar
YBBN,2013-01-27 00:00,153.1292,-27.3917,77.00,73.40,88.67,80.00,21.00,0.00,29.59,M,2.49,31.00,SCT,SCT,BKN,M,800.00,1200.00,2600.00,M,RA,YBBN 270000Z 08021G31KT 4000 RA SCT008 SCT012 BKN026 25/23 Q1002
YBBN,2013-01-27 00:23,153.1292,-27.3917,77.00,73.40,88.67,70.00,22.00,0.00,29.59,M,2.49,41.00,SCT,SCT,BKN,M,800.00,1200.00,2600.00,M,RA,YBBN 270023Z 07022G41KT 4000 RA SCT008 SCT012 BKN026 25/23 Q1002
YBBN,2013-01-27 00:30,153.1292,-27.3917,77.00,73.40,88.67,70.00,23.00,0.00,29.59,M,2.49,38.00,SCT,SCT,BKN,M,900.00,1200.00,1500.00,M,RA,YBBN 270030Z 07023G38KT 4000 RA SCT009 SCT012 BKN015 25/23 Q1002
YBBN,2013-01-27 00:49,153.1292,-27.3917,77.00,73.40,88.67,70.00,21.00,0.00,29.59,M,1.86,31.00,SCT,SCT,BKN,M,900.00,1200.00,1400.00,M,RA,YBBN 270049Z 07021G31KT 3000 RA SCT009 SCT012 BKN014 25/23 Q1002
YBBN,2013-01-27 01:00,153.1292,-27.3917,77.00,73.40,88.67,70.00,22.00,0.00,29.59,M,2.49,35.00,FEW,SCT,BKN,M,900.00,1200.00,2800.00,M,RA,YBBN 270100Z 07022G35KT 4000 RA FEW009 SCT012 BKN028 25/23 Q1002
YBBN,2013-01-27 01:16,153.1292,-27.3917,77.00,73.40,88.67,70.00,22.00,0.00,29.56,M,1.55,35.00,FEW,SCT,BKN,M,900.00,1300.00,3000.00,M,RA,YBBN 270116Z 07022G35KT 2500 RA FEW009 SCT013 BKN030 25/23 Q1001
YBBN,2013-01-27 01:30,153.1292,-27.3917,75.20,73.40,94.14,70.00,23.00,0.00,29.56,M,1.24,40.00,SCT,SCT,BKN,M,900.00,1200.00,3000.00,M,+RA,YBBN 270130Z 07023G40KT 2000 +RA SCT009 SCT012 BKN030 24/23 Q1001
YBBN,2013-01-27 02:00,153.1292,-27.3917,75.20,73.40,94.14,70.00,20.00,0.00,29.56,M,0.93,33.00,SCT,SCT,BKN,M,900.00,1200.00,3000.00,M,+RA,YBBN 270200Z 07020G33KT 1500 +RA SCT009 SCT012 BKN030 24/23 Q1001
YBBN,2013-01-27 02:30,153.1292,-27.3917,75.20,73.40,94.14,70.00,22.00,0.00,29.56,M,0.93,40.00,SCT,SCT,BKN,M,700.00,900.00,2300.00,M,+RA,YBBN 270230Z 07022G40KT 1500 +RA SCT007 SCT009 BKN023 24/23 Q1001
YBBN,2013-01-27 02:47,153.1292,-27.3917,75.20,71.60,88.59,60.00,23.00,0.00,29.56,M,0.93,33.00,SCT,SCT,BKN,M,700.00,1000.00,2600.00,M,+RA,YBBN 270247Z 06023G33KT 1500 +RA SCT007 SCT010 BKN026 24/22 Q1001 WS RWY01 RMK SEV U/SHOOT WS RWY01 50FT ON FINAL
YBBN,2013-01-27 03:00,153.1292,-27.3917,75.20,71.60,88.59,70.00,20.00,0.00,29.53,M,1.24,M,SCT,SCT,BKN,M,700.00,1100.00,2700.00,M,+RA,YBBN 270300Z 07020KT 2000 +RA SCT007 SCT011 BKN027 24/22 Q1000 WS RWY01
YBBN,2013-01-27 03:16,153.1292,-27.3917,75.20,73.40,94.14,80.00,20.00,0.00,29.53,M,0.93,31.00,FEW,SCT,BKN,M,700.00,900.00,2400.00,M,+RA,YBBN 270316Z 08020G31KT 1500 +RA FEW007 SCT009 BKN024 24/23 Q1000 WS RWY01
YBBN,2013-01-27 03:30,153.1292,-27.3917,75.20,73.40,94.14,80.00,19.00,0.00,29.53,M,0.50,31.00,SCT,SCT,BKN,M,700.00,1000.00,2000.00,M,+RA,YBBN 270330Z 08019G31KT 0800 +RA SCT007 SCT010 BKN020 24/23 Q1000
YBBN,2013-01-27 03:43,153.1292,-27.3917,75.20,73.40,94.14,80.00,19.00,0.00,29.50,M,0.93,33.00,FEW,SCT,BKN,M,500.00,700.00,1200.00,M,+RA,YBBN 270343Z 08019G33KT 1500 +RA FEW005 SCT007 BKN012 24/23 Q0999
YBBN,2013-01-27 04:00,153.1292,-27.3917,75.20,73.40,94.14,70.00,25.00,0.00,29.50,M,0.81,40.00,FEW,SCT,BKN,M,500.00,700.00,1200.00,M,+RA,YBBN 270400Z 07025G40KT 1300 +RA FEW005 SCT007 BKN012 24/23 Q0999
YBBN,2013-01-27 04:30,153.1292,-27.3917,75.20,73.40,94.14,60.00,25.00,0.00,29.50,M,0.93,39.00,FEW,SCT,BKN,M,400.00,900.00,1200.00,M,+RA,YBBN 270430Z 06025G39KT 1500 +RA FEW004 SCT009 BKN012 24/23 Q0999 WS RWY01
YBBN,2013-01-27 05:00,153.1292,-27.3917,75.20,73.40,94.14,60.00,22.00,0.00,29.47,M,0.62,33.00,FEW,SCT,BKN,M,500.00,800.00,1200.00,M,+RA,YBBN 270500Z 06022G33KT 1000 +RA FEW005 SCT008 BKN012 24/23 Q0998 WS RWY01
YBBN,2013-01-27 05:07,153.1292,-27.3917,75.20,73.40,94.14,60.00,25.00,0.00,29.47,M,0.62,43.00,FEW,SCT,BKN,M,500.00,800.00,1200.00,M,+RA,YBBN 270507Z 06025G43KT 1000 +RA FEW005 SCT008 BKN012 24/23 Q0998 WS RWY01
YBBN,2013-01-27 05:30,153.1292,-27.3917,75.20,73.40,94.14,70.00,25.00,0.00,29.47,M,0.50,38.00,SCT,SCT,BKN,M,500.00,800.00,1200.00,M,+RA,YBBN 270530Z 07025G38KT 0800 +RA SCT005 SCT008 BKN012 24/23 Q0998 WS RWY01
YBBN,2013-01-27 05:48,153.1292,-27.3917,75.20,73.40,94.14,50.00,25.00,0.00,29.47,M,0.31,43.00,SCT,SCT,BKN,M,500.00,700.00,1200.00,M,+RA,YBBN 270548Z 05025G43KT 0500 +RA SCT005 SCT007 BKN012 24/23 Q0998 WS RWY01 RMK MOD U/SHOOT WS 500FT ON DEPT
YBBN,2013-01-27 05:52,153.1292,-27.3917,75.20,73.40,94.14,50.00,35.00,0.00,29.47,M,0.31,M,SCT,SCT,BKN,M,500.00,800.00,1100.00,M,+RA,YBBN 270552Z 05035KT 0500 +RA SCT005 SCT008 BKN011 24/23 Q0998 WS RWY01
YBBN,2013-01-27 06:00,153.1292,-27.3917,73.40,73.40,100.00,50.00,30.00,0.00,29.47,M,0.50,42.00,FEW,SCT,BKN,M,500.00,800.00,1000.00,M,+RA,YBBN 270600Z 05030G42KT 0800 +RA FEW005 SCT008 BKN010 23/23 Q0998 WS RWY01
YBBN,2013-01-27 06:30,153.1292,-27.3917,73.40,73.40,100.00,50.00,31.00,0.00,29.47,M,0.93,43.00,FEW,SCT,BKN,M,500.00,800.00,1000.00,M,+RA,YBBN 270630Z 05031G43KT 1500 +RA FEW005 SCT008 BKN010 23/23 Q0998 WS RWY01
YBBN,2013-01-27 06:46,153.1292,-27.3917,75.20,73.40,94.14,50.00,19.00,0.00,29.47,M,1.55,M,FEW,SCT,BKN,M,400.00,900.00,2000.00,M,+RA,YBBN 270646Z 05019KT 2500 +RA FEW004 SCT009 BKN020 24/23 Q0998 WS RWY01 RMK MOD U/SHOOT WS 500FT ON DEPT
YBBN,2013-01-27 07:00,153.1292,-27.3917,75.20,73.40,94.14,50.00,22.00,0.00,29.47,M,0.93,36.00,FEW,SCT,BKN,M,500.00,800.00,2000.00,M,+RA,YBBN 270700Z 05022G36KT 1500 +RA FEW005 SCT008 BKN020 24/23 Q0998 WS RWY01
YBBN,2013-01-27 07:20,153.1292,-27.3917,75.20,73.40,94.14,60.00,23.00,0.00,29.44,M,1.86,34.00,FEW,SCT,BKN,M,600.00,1000.00,2000.00,M,+RA,YBBN 270720Z 06023G34KT 3000 +RA FEW006 SCT010 BKN020 24/23 Q0997 WS RWY01
YBBN,2013-01-27 07:30,153.1292,-27.3917,75.20,73.40,94.14,50.00,28.00,0.00,29.44,M,3.11,42.00,FEW,SCT,BKN,M,500.00,800.00,1100.00,M,RA,YBBN 270730Z 05028G42KT 5000 RA FEW005 SCT008 BKN011 24/23 Q0997 RERA WS RWY01
YBBN,2013-01-27 08:00,153.1292,-27.3917,75.20,73.40,94.14,60.00,28.00,0.00,29.44,M,2.49,40.00,FEW,SCT,BKN,M,400.00,600.00,1000.00,M,RA,YBBN 270800Z 06028G40KT 4000 RA FEW004 SCT006 BKN010 24/23 Q0997 WS RWY01
YBBN,2013-01-27 08:30,153.1292,-27.3917,77.00,71.60,83.44,60.00,31.00,0.00,29.44,M,3.73,46.00,FEW,SCT,BKN,M,400.00,600.00,1000.00,M,RA,YBBN 270830Z 06031G46KT 6000 RA FEW004 SCT006 BKN010 25/22 Q0997 WS RWY01
YBBN,2013-01-27 09:00,153.1292,-27.3917,75.20,73.40,94.14,60.00,28.00,0.00,29.47,M,3.11,40.00,FEW,BKN,OVC,M,900.00,1400.00,2700.00,M,RA,YBBN 270900Z 06028G40KT 5000 RA FEW009 BKN014 OVC027 24/23 Q0998 RERA WS RWY01
YBBN,2013-01-27 09:30,153.1292,-27.3917,77.00,71.60,83.44,50.00,30.00,0.00,29.47,M,3.73,44.00,FEW,BKN,BKN,M,900.00,1400.00,2300.00,M,-RA,YBBN 270930Z 05030G44KT 6000 -RA FEW009 BKN014 BKN023 25/22 Q0998 RERA
YBBN,2013-01-27 10:00,153.1292,-27.3917,77.00,71.60,83.44,50.00,28.00,0.00,29.47,M,4.97,39.00,FEW,BKN,BKN,M,900.00,1600.00,2400.00,M,-RA,YBBN 271000Z 05028G39KT 8000 -RA FEW009 BKN016 BKN024 25/22 Q0998 WS RWY01
YBBN,2013-01-27 10:13,153.1292,-27.3917,77.00,73.40,88.67,50.00,31.00,0.00,29.47,M,4.97,50.00,FEW,SCT,BKN,M,900.00,1600.00,2300.00,M,-RA,YBBN 271013Z 05031G50KT 8000 -RA FEW009 SCT016 BKN023 25/23 Q0998 WS RWY01
YBBN,2013-01-27 10:30,153.1292,-27.3917,77.00,71.60,83.44,50.00,32.00,0.00,29.50,M,4.97,43.00,FEW,SCT,BKN,M,900.00,1400.00,1800.00,M,-RA,YBBN 271030Z 05032G43KT 8000 -RA FEW009 SCT014 BKN018 25/22 Q0999 WS RWY01
YBBN,2013-01-27 11:00,153.1292,-27.3917,77.00,71.60,83.44,50.00,26.00,0.00,29.50,M,4.97,38.00,FEW,SCT,BKN,M,900.00,1800.00,2600.00,M,-RA,YBBN 271100Z 05026G38KT 8000 -RA FEW009 SCT018 BKN026 25/22 Q0999 WS RWY01
YBBN,2013-01-27 11:30,153.1292,-27.3917,77.00,71.60,83.44,50.00,30.00,0.00,29.50,M,6.21,44.00,FEW,SCT,BKN,M,900.00,1800.00,2300.00,M,-DZ,YBBN 271130Z 05030G44KT 9999 -DZ FEW009 SCT018 BKN023 25/22 Q0999
YBBN,2013-01-27 12:00,153.1292,-27.3917,77.00,73.40,88.67,60.00,28.00,0.00,29.50,M,4.97,43.00,FEW,BKN,BKN,M,900.00,1600.00,2100.00,M,-RA,YBBN 271200Z 06028G43KT 8000 -RA FEW009 BKN016 BKN021 25/23 Q0999 WS RWY01
YBBN,2013-01-27 12:16,153.1292,-27.3917,77.00,73.40,88.67,50.00,28.00,0.00,29.50,M,4.97,40.00,FEW,BKN,BKN,M,800.00,1400.00,1800.00,M,-RA,YBBN 271216Z 05028G40KT 8000 -RA FEW008 BKN014 BKN018 25/23 Q0999
YBBN,2013-01-27 12:30,153.1292,-27.3917,77.00,71.60,83.44,60.00,31.00,0.00,29.50,M,6.21,44.00,FEW,BKN,BKN,M,900.00,1400.00,2100.00,M,-DZ,YBBN 271230Z 06031G44KT 9999 -DZ FEW009 BKN014 BKN021 25/22 Q0999
YBBN,2013-01-27 13:00,153.1292,-27.3917,77.00,71.60,83.44,60.00,29.00,0.00,29.50,M,3.73,42.00,BKN,BKN,M,M,1400.00,1800.00,M,M,DZ,YBBN 271300Z 06029G42KT 6000 DZ BKN014 BKN018 25/22 Q0999 WS RWY01
YBBN,2013-01-27 13:30,153.1292,-27.3917,77.00,73.40,88.67,50.00,26.00,0.00,29.50,M,1.86,36.00,BKN,BKN,M,M,1200.00,2100.00,M,M,RA,YBBN 271330Z 05026G36KT 3000 RA BKN012 BKN021 25/23 Q0999
YBBN,2013-01-27 14:00,153.1292,-27.3917,77.00,73.40,88.67,50.00,30.00,0.00,29.47,M,6.21,42.00,BKN,BKN,M,M,1400.00,2100.00,M,M,M,YBBN 271400Z 05030G42KT 9999 BKN014 BKN021 25/23 Q0998 WS RWY01
YBBN,2013-01-27 14:15,153.1292,-27.3917,77.00,73.40,88.67,50.00,31.00,0.00,29.47,M,4.97,44.00,BKN,BKN,M,M,1600.00,2100.00,M,M,-SHRA,YBBN 271415Z 05031G44KT 8000 -SHRA BKN016 BKN021 25/23 Q0998 WS RWY01
YBBN,2013-01-27 14:30,153.1292,-27.3917,77.00,73.40,88.67,50.00,29.00,0.00,29.47,M,4.97,41.00,BKN,BKN,M,M,1600.00,2100.00,M,M,-SHRA,YBBN 271430Z 05029G41KT 8000 -SHRA BKN016 BKN021 25/23 Q0998 WS RWY01
YBBN,2013-01-27 15:00,153.1292,-27.3917,77.00,71.60,83.44,50.00,34.00,0.00,29.47,M,6.21,45.00,SCT,BKN,M,M,1600.00,2300.00,M,M,M,YBBN 271500Z 05034G45KT 9999 SCT016 BKN023 25/22 Q0998 WS RWY01
YBBN,2013-01-27 15:30,153.1292,-27.3917,77.00,73.40,88.67,50.00,30.00,0.00,29.47,M,4.35,42.00,BKN,BKN,M,M,1600.00,2000.00,M,M,-SHRA,YBBN 271530Z 05030G42KT 7000 -SHRA BKN016 BKN020 25/23 Q0998 WS RWY01
YBBN,2013-01-27 15:38,153.1292,-27.3917,77.00,73.40,88.67,50.00,31.00,0.00,29.44,M,4.35,42.00,BKN,BKN,M,M,1400.00,1900.00,M,M,-SHRA,YBBN 271538Z 05031G42KT 7000 -SHRA BKN014 BKN019 25/23 Q0997 WS RWY01
YBBN,2013-01-27 16:00,153.1292,-27.3917,75.20,73.40,94.14,50.00,28.00,0.00,29.44,M,4.97,42.00,BKN,BKN,M,M,1200.00,1800.00,M,M,-SHRA,YBBN 271600Z 05028G42KT 8000 -SHRA BKN012 BKN018 24/23 Q0997 WS RWY01
YBBN,2013-01-27 16:30,153.1292,-27.3917,77.00,71.60,83.44,50.00,29.00,0.00,29.44,M,4.97,40.00,SCT,BKN,M,M,1400.00,1900.00,M,M,-DZ,YBBN 271630Z 05029G40KT 8000 -DZ SCT014 BKN019 25/22 Q0997 WS RWY01
YBBN,2013-01-27 17:00,153.1292,-27.3917,77.00,73.40,88.67,50.00,26.00,0.00,29.44,M,3.73,36.00,SCT,BKN,BKN,M,1400.00,2000.00,2600.00,M,SHRA,YBBN 271700Z 05026G36KT 6000 SHRA SCT014 BKN020 BKN026 25/23 Q0997 WS RWY01
YBBN,2013-01-27 17:30,153.1292,-27.3917,77.00,73.40,88.67,50.00,27.00,0.00,29.44,M,4.97,M,SCT,BKN,M,M,1400.00,2000.00,M,M,-SHRA,YBBN 271730Z 05027KT 8000 -SHRA SCT014 BKN020 25/23 Q0997 RESHRA
YBBN,2013-01-27 17:34,153.1292,-27.3917,77.00,71.60,83.44,50.00,29.00,0.00,29.44,M,4.97,43.00,SCT,BKN,M,M,1400.00,2000.00,M,M,-SHRA,YBBN 271734Z 05029G43KT 8000 -SHRA SCT014 BKN020 25/22 Q0997 RESHRA
YBBN,2013-01-27 18:00,153.1292,-27.3917,77.00,71.60,83.44,50.00,30.00,0.00,29.44,M,3.73,41.00,SCT,BKN,M,M,1700.00,2300.00,M,M,-SHRA,YBBN 271800Z 05030G41KT 6000 -SHRA SCT017 BKN023 25/22 Q0997
YBBN,2013-01-27 18:30,153.1292,-27.3917,75.20,71.60,88.59,50.00,28.00,0.00,29.44,M,3.11,40.00,FEW,SCT,BKN,M,900.00,1300.00,1900.00,M,SHRA,YBBN 271830Z 05028G40KT 5000 SHRA FEW009 SCT013 BKN019 24/22 Q0997
YBBN,2013-01-27 19:00,153.1292,-27.3917,75.20,73.40,94.14,60.00,27.00,0.00,29.44,M,3.73,38.00,SCT,BKN,M,M,1100.00,1500.00,M,M,-SHRA,YBBN 271900Z 06027G38KT 6000 -SHRA SCT011 BKN015 24/23 Q0997 RESHRA
YBBN,2013-01-27 19:19,153.1292,-27.3917,77.00,73.40,88.67,60.00,25.00,0.00,29.47,M,2.49,38.00,BKN,BKN,M,M,1100.00,2100.00,M,M,-SHRA,YBBN 271919Z 06025G38KT 4000 -SHRA BKN011 BKN021 25/23 Q0998
YBBN,2013-01-27 19:30,153.1292,-27.3917,75.20,73.40,94.14,50.00,25.00,0.00,29.47,M,2.49,36.00,SCT,BKN,M,M,900.00,1500.00,M,M,-RA,YBBN 271930Z 05025G36KT 4000 -RA SCT009 BKN015 24/23 Q0998
YBBN,2013-01-27 19:45,153.1292,-27.3917,75.20,73.40,94.14,60.00,26.00,0.00,29.44,M,1.24,39.00,FEW,BKN,BKN,M,900.00,1300.00,2900.00,M,+SHRA,YBBN 271945Z 06026G39KT 2000 +SHRA FEW009 BKN013 BKN029 24/23 Q0997
YBBN,2013-01-27 20:00,153.1292,-27.3917,75.20,73.40,94.14,60.00,25.00,0.00,29.47,M,0.62,37.00,SCT,BKN,M,M,900.00,1300.00,M,M,+SHRA,YBBN 272000Z 06025G37KT 1000 +SHRA SCT009 BKN013 24/23 Q0998
YBBN,2013-01-27 20:30,153.1292,-27.3917,75.20,73.40,94.14,60.00,28.00,0.00,29.44,M,1.12,39.00,BKN,BKN,M,M,900.00,1300.00,M,M,SHRA,YBBN 272030Z 06028G39KT 1800 SHRA BKN009 BKN013 24/23 Q0997 RESHRA
YBBN,2013-01-27 21:00,153.1292,-27.3917,75.20,73.40,94.14,50.00,25.00,0.00,29.47,M,1.12,35.00,BKN,BKN,M,M,1100.00,1700.00,M,M,SHRA,YBBN 272100Z 05025G35KT 1800 SHRA BKN011 BKN017 24/23 Q0998 RESHRA
YBBN,2013-01-27 21:08,153.1292,-27.3917,75.20,73.40,94.14,50.00,26.00,0.00,29.47,M,1.24,46.00,SCT,BKN,M,M,1100.00,1500.00,M,M,-SHRA,YBBN 272108Z 05026G46KT 2000 -SHRA SCT011 BKN015 24/23 Q0998 RESHRA
YBBN,2013-01-27 21:30,153.1292,-27.3917,75.20,73.40,94.14,50.00,27.00,0.00,29.47,M,1.24,M,SCT,BKN,M,M,900.00,1400.00,M,M,SHRA,YBBN 272130Z 05027KT 2000 SHRA SCT009 BKN014 24/23 Q0998 RESHRA
YBBN,2013-01-27 21:44,153.1292,-27.3917,77.00,73.40,88.67,50.00,29.00,0.00,29.47,M,1.55,41.00,SCT,BKN,M,M,900.00,1400.00,M,M,-SHRA,YBBN 272144Z 05029G41KT 2500 -SHRA SCT009 BKN014 25/23 Q0998
YBBN,2013-01-27 22:00,153.1292,-27.3917,77.00,73.40,88.67,50.00,28.00,0.00,29.47,M,1.12,42.00,SCT,BKN,M,M,1100.00,1800.00,M,M,-SHRA,YBBN 272200Z 05028G42KT 1800 -SHRA SCT011 BKN018 25/23 Q0998
YBBN,2013-01-27 22:30,153.1292,-27.3917,77.00,73.40,88.67,50.00,28.00,0.00,29.47,M,1.55,45.00,SCT,BKN,BKN,M,900.00,1300.00,1900.00,M,-SHRA,YBBN 272230Z 05028G45KT 2500 -SHRA SCT009 BKN013 BKN019 25/23 Q0998
YBBN,2013-01-27 22:43,153.1292,-27.3917,78.80,73.40,83.55,50.00,39.00,0.00,29.47,M,3.11,50.00,BKN,BKN,M,M,1300.00,2100.00,M,M,-SHRA,YBBN 272243Z 05039G50KT 5000 -SHRA BKN013 BKN021 26/23 Q0998
YBBN,2013-01-27 23:00,153.1292,-27.3917,78.80,73.40,83.55,40.00,25.00,0.00,29.50,M,6.21,M,BKN,BKN,M,M,1300.00,2100.00,M,M,-SHRA,YBBN 272300Z 04025KT 9999 -SHRA BKN013 BKN021 26/23 Q0999
YBBN,2013-01-27 23:30,153.1292,-27.3917,78.80,75.20,88.75,50.00,19.00,0.00,29.50,M,4.97,M,BKN,BKN,M,M,1300.00,3200.00,M,M,-SHRA,YBBN 272330Z 05019KT 8000 -SHRA BKN013 BKN032 26/24 Q0999
YBBN,2013-01-27 23:48,153.1292,-27.3917,78.80,75.20,88.75,40.00,19.00,0.00,29.50,M,5.59,29.00,SCT,BKN,OVC,M,1300.00,3900.00,4500.00,M,-SHRA,YBBN 272348Z 04019G29KT 9000 -SHRA SCT013 BKN039 OVC045 26/24 Q0999
