#DEBUG: Format Typ    -> comma
#DEBUG: Time Period   -> 2013-12-21 00:00:00+00:00 2013-12-22 00:00:00+00:00
#DEBUG: Time Zone     -> Etc/UTC
#DEBUG: Data Contact   -> daryl herzmann akrherz@iastate.edu 515-294-5978
#DEBUG: Entries Found -> -1
station,valid,lon,lat,tmpf, dwpf, relh, drct, sknt, p01i, alti, mslp, vsby, gust, skyc1, skyc2, skyc3, skyc4, skyl1, skyl2, skyl3, skyl4, presentwx, metar
YBBN,2013-12-21 00:00,153.1292,-27.3917,80.60,60.80,50.95,10.00,11.00,0.00,30.03,M,6.21,M,FEW,M,M,M,3500.00,M,M,M,M,YBBN 210000Z 01011KT 9999 FEW035 27/16 Q1017 NOSIG
YBBN,2013-12-21 00:30,153.1292,-27.3917,82.40,59.00,45.07,30.00,11.00,0.00,30.00,M,6.21,M,FEW,M,M,M,3500.00,M,M,M,M,YBBN 210030Z 03011KT 9999 FEW035 28/15 Q1016
YBBN,2013-12-21 01:00,153.1292,-27.3917,80.60,59.00,47.79,20.00,13.00,0.00,30.00,M,6.21,M,FEW,M,M,M,3500.00,M,M,M,M,YBBN 210100Z 02013KT 9999 FEW035 27/15 Q1016 NOSIG
YBBN,2013-12-21 01:30,153.1292,-27.3917,80.60,57.20,44.80,30.00,12.00,0.00,30.00,M,6.21,M,FEW,M,M,M,3500.00,M,M,M,M,YBBN 210130Z 03012KT 9999 FEW035 27/14 Q1016
YBBN,2013-12-21 02:00,153.1292,-27.3917,82.40,60.80,48.05,40.00,13.00,0.00,29.97,M,6.21,M,FEW,M,M,M,3500.00,M,M,M,M,YBBN 210200Z 04013KT 9999 FEW035 28/16 Q1015
YBBN,2013-12-21 02:30,153.1292,-27.3917,82.40,59.00,45.07,50.00,12.00,0.00,29.97,M,6.21,M,FEW,M,M,M,3500.00,M,M,M,M,YBBN 210230Z 05012KT 9999 FEW035 28/15 Q1015
YBBN,2013-12-21 03:00,153.1292,-27.3917,82.40,53.60,37.07,30.00,15.00,0.00,29.97,M,6.21,M,FEW,M,M,M,3500.00,M,M,M,M,YBBN 210300Z 03015KT 9999 FEW035 28/12 Q1015 NOSIG
YBBN,2013-12-21 03:30,153.1292,-27.3917,82.40,57.20,42.25,30.00,16.00,0.00,29.94,M,6.21,M,FEW,M,M,M,3500.00,M,M,M,M,YBBN 210330Z 03016KT 9999 FEW035 28/14 Q1014
YBBN,2013-12-21 04:00,153.1292,-27.3917,80.60,59.00,47.79,30.00,15.00,0.00,29.94,M,6.21,M,FEW,M,M,M,3500.00,M,M,M,M,YBBN 210400Z 03015KT 9999 FEW035 27/15 Q1014 NOSIG
YBBN,2013-12-21 04:30,153.1292,-27.3917,82.40,60.80,48.05,10.00,17.00,0.00,29.94,M,6.21,M,FEW,M,M,M,3500.00,M,M,M,M,YBBN 210430Z 01017KT 9999 FEW035 28/16 Q1014
YBBN,2013-12-21 05:00,153.1292,-27.3917,80.60,62.60,54.30,10.00,16.00,0.00,29.94,M,6.21,M,FEW,M,M,M,3500.00,M,M,M,M,YBBN 210500Z 01016KT 9999 FEW035 27/17 Q1014 NOSIG
YBBN,2013-12-21 05:30,153.1292,-27.3917,78.80,62.60,57.60,10.00,16.00,0.00,29.94,M,6.21,M,FEW,M,M,M,3500.00,M,M,M,M,YBBN 210530Z 01016KT 9999 FEW035 26/17 Q1014
YBBN,2013-12-21 06:00,153.1292,-27.3917,80.60,62.60,54.30,10.00,15.00,0.00,29.94,M,6.21,M,FEW,M,M,M,3500.00,M,M,M,M,YBBN 210600Z 01015KT 9999 FEW035 27/17 Q1014 NOSIG
YBBN,2013-12-21 06:30,153.1292,-27.3917,78.80,62.60,57.60,10.00,16.00,0.00,29.94,M,6.21,M,M,M,M,M,M,M,M,M,M,YBBN 210630Z 01016KT CAVOK 26/17 Q1014
YBBN,2013-12-21 07:00,153.1292,-27.3917,77.00,62.60,61.13,10.00,16.00,0.00,29.94,M,6.21,M,M,M,M,M,M,M,M,M,M,YBBN 210700Z 01016KT CAVOK 25/17 Q1014
YBBN,2013-12-21 07:30,153.1292,-27.3917,77.00,62.60,61.13,10.00,16.00,0.00,29.94,M,6.21,M,M,M,M,M,M,M,M,M,M,YBBN 210730Z 01016KT CAVOK 25/17 Q1014
YBBN,2013-12-21 08:00,153.1292,-27.3917,77.00,64.40,65.12,10.00,15.00,0.00,29.94,M,6.21,M,M,M,M,M,M,M,M,M,M,YBBN 210800Z 01015KT CAVOK 25/18 Q1014 NOSIG
YBBN,2013-12-21 08:30,153.1292,-27.3917,75.20,64.40,69.14,10.00,13.00,0.00,29.97,M,6.21,M,M,M,M,M,M,M,M,M,M,YBBN 210830Z 01013KT CAVOK 24/18 Q1015
YBBN,2013-12-21 09:00,153.1292,-27.3917,73.40,64.40,73.44,10.00,13.00,0.00,29.97,M,6.21,M,M,M,M,M,M,M,M,M,M,YBBN 210900Z 01013KT CAVOK 23/18 Q1015 NOSIG
YBBN,2013-12-21 09:30,153.1292,-27.3917,73.40,64.40,73.44,10.00,12.00,0.00,29.97,M,6.21,M,M,M,M,M,M,M,M,M,M,YBBN 210930Z 01012KT CAVOK 23/18 Q1015
YBBN,2013-12-21 10:00,153.1292,-27.3917,73.40,62.60,68.94,10.00,14.00,0.00,30.00,M,6.21,M,FEW,M,M,M,1800.00,M,M,M,M,YBBN 211000Z 01014KT 9999 FEW018 23/17 Q1016
YBBN,2013-12-21 10:30,153.1292,-27.3917,73.40,64.40,73.44,10.00,12.00,0.00,30.00,M,6.21,M,FEW,M,M,M,2600.00,M,M,M,M,YBBN 211030Z 01012KT 9999 FEW026 23/18 Q1016
YBBN,2013-12-21 11:00,153.1292,-27.3917,73.40,62.60,68.94,360.00,13.00,0.00,30.00,M,6.21,M,FEW,M,M,M,2500.00,M,M,M,M,YBBN 211100Z 36013KT 9999 FEW025 23/17 Q1016 NOSIG
YBBN,2013-12-21 11:30,153.1292,-27.3917,73.40,64.40,73.44,10.00,12.00,0.00,30.00,M,6.21,M,FEW,M,M,M,2500.00,M,M,M,M,YBBN 211130Z 01012KT 9999 FEW025 23/18 Q1016
YBBN,2013-12-21 12:00,153.1292,-27.3917,73.40,64.40,73.44,20.00,12.00,0.00,30.00,M,6.21,M,FEW,M,M,M,2700.00,M,M,M,M,YBBN 211200Z 02012KT 9999 FEW027 23/18 Q1016 NOSIG
YBBN,2013-12-21 12:30,153.1292,-27.3917,73.40,62.60,68.94,10.00,11.00,0.00,30.03,M,6.21,M,FEW,M,M,M,2700.00,M,M,M,M,YBBN 211230Z 01011KT 9999 FEW027 23/17 Q1017
YBBN,2013-12-21 13:00,153.1292,-27.3917,73.40,62.60,68.94,30.00,11.00,0.00,30.03,M,6.21,M,FEW,M,M,M,2700.00,M,M,M,M,YBBN 211300Z 03011KT 9999 FEW027 23/17 Q1017
YBBN,2013-12-21 13:30,153.1292,-27.3917,73.40,62.60,68.94,20.00,10.00,0.00,30.03,M,6.21,M,SCT,M,M,M,2700.00,M,M,M,M,YBBN 211330Z 02010KT 9999 SCT027 23/17 Q1017
YBBN,2013-12-21 14:00,153.1292,-27.3917,73.40,62.60,68.94,20.00,11.00,0.00,30.03,M,6.21,M,SCT,M,M,M,3000.00,M,M,M,M,YBBN 211400Z 02011KT 9999 SCT030 23/17 Q1017 NOSIG
YBBN,2013-12-21 14:30,153.1292,-27.3917,73.40,62.60,68.94,20.00,9.00,0.00,30.03,M,6.21,M,FEW,M,M,M,3000.00,M,M,M,M,YBBN 211430Z 02009KT 9999 FEW030 23/17 Q1017
YBBN,2013-12-21 15:00,153.1292,-27.3917,71.60,60.80,68.75,20.00,9.00,0.00,30.00,M,6.21,M,FEW,M,M,M,3000.00,M,M,M,M,YBBN 211500Z 02009KT 9999 FEW030 22/16 Q1016 NOSIG
YBBN,2013-12-21 15:30,153.1292,-27.3917,71.60,62.60,73.27,10.00,8.00,0.00,30.00,M,6.21,M,FEW,M,M,M,3500.00,M,M,M,M,YBBN 211530Z 01008KT 9999 FEW035 22/17 Q1016
YBBN,2013-12-21 16:00,153.1292,-27.3917,71.60,64.40,78.04,290.00,5.00,0.00,30.00,M,6.21,M,FEW,M,M,M,3500.00,M,M,M,M,YBBN 211600Z 29005KT 9999 FEW035 22/18 Q1016 NOSIG
YBBN,2013-12-21 16:30,153.1292,-27.3917,69.80,64.40,82.98,260.00,3.00,0.00,30.00,M,6.21,M,FEW,M,M,M,3300.00,M,M,M,M,YBBN 211630Z 26003KT 9999 FEW033 21/18 Q1016
YBBN,2013-12-21 17:00,153.1292,-27.3917,69.80,62.60,77.90,270.00,2.00,0.00,30.00,M,6.21,M,FEW,M,M,M,3300.00,M,M,M,M,YBBN 211700Z 27002KT 9999 FEW033 21/17 Q1016
YBBN,2013-12-21 17:30,153.1292,-27.3917,68.00,62.60,82.86,250.00,3.00,0.00,30.00,M,6.21,M,FEW,M,M,M,3800.00,M,M,M,M,YBBN 211730Z 25003KT 9999 FEW038 20/17 Q1016
YBBN,2013-12-21 18:00,153.1292,-27.3917,68.00,64.40,88.26,250.00,3.00,0.00,30.00,M,6.21,M,FEW,M,M,M,3100.00,M,M,M,M,YBBN 211800Z 25003KT 9999 FEW031 20/18 Q1016
YBBN,2013-12-21 18:30,153.1292,-27.3917,68.00,62.60,82.86,250.00,4.00,0.00,30.00,M,6.21,M,FEW,M,M,M,2000.00,M,M,M,M,YBBN 211830Z 25004KT 9999 FEW020 20/17 Q1016
YBBN,2013-12-21 19:00,153.1292,-27.3917,66.20,62.60,88.18,240.00,4.00,0.00,30.00,M,6.21,M,FEW,M,M,M,2000.00,M,M,M,M,YBBN 211900Z 24004KT 9999 FEW020 19/17 Q1016 NOSIG
YBBN,2013-12-21 19:30,153.1292,-27.3917,68.00,62.60,82.86,200.00,4.00,0.00,30.03,M,6.21,M,FEW,M,M,M,2200.00,M,M,M,M,YBBN 211930Z 20004KT 9999 FEW022 20/17 Q1017
YBBN,2013-12-21 20:00,153.1292,-27.3917,69.80,64.40,82.98,210.00,5.00,0.00,30.03,M,6.21,M,FEW,M,M,M,2200.00,M,M,M,M,YBBN 212000Z 21005KT 9999 FEW022 21/18 Q1017 NOSIG
YBBN,2013-12-21 20:30,153.1292,-27.3917,73.40,64.40,73.44,210.00,4.00,0.00,30.03,M,6.21,M,FEW,M,M,M,2200.00,M,M,M,M,YBBN 212030Z 21004KT 9999 FEW022 23/18 Q1017
YBBN,2013-12-21 21:00,153.1292,-27.3917,75.20,64.40,69.14,210.00,4.00,0.00,30.03,M,6.21,M,FEW,M,M,M,2500.00,M,M,M,M,YBBN 212100Z 21004KT 9999 FEW025 24/18 Q1017
YBBN,2013-12-21 21:30,153.1292,-27.3917,78.80,62.60,57.60,320.00,5.00,0.00,30.06,M,6.21,M,FEW,M,M,M,2500.00,M,M,M,M,YBBN 212130Z 32005KT 9999 FEW025 26/17 Q1018
YBBN,2013-12-21 22:00,153.1292,-27.3917,78.80,60.80,54.05,330.00,6.00,0.00,30.06,M,6.21,M,SCT,M,M,M,2800.00,M,M,M,M,YBBN 212200Z 33006KT 9999 SCT028 26/16 Q1018 NOSIG
YBBN,2013-12-21 22:30,153.1292,-27.3917,78.80,59.00,50.69,360.00,6.00,0.00,30.06,M,6.21,M,FEW,M,M,M,2800.00,M,M,M,M,YBBN 212230Z 36006KT 9999 FEW028 26/15 Q1018
YBBN,2013-12-21 23:00,153.1292,-27.3917,78.80,60.80,54.05,10.00,6.00,0.00,30.03,M,6.21,M,FEW,M,M,M,3000.00,M,M,M,M,YBBN 212300Z 01006KT 9999 FEW030 26/16 Q1017
YBBN,2013-12-21 23:30,153.1292,-27.3917,78.80,62.60,57.60,360.00,7.00,0.00,30.03,M,6.21,M,FEW,M,M,M,3000.00,M,M,M,M,YBBN 212330Z 36007KT 9999 FEW030 26/17 Q1017
