#DEBUG: Format Typ    -> comma
#DEBUG: Time Period   -> 2012-04-15 00:00:00+00:00 2012-04-16 00:00:00+00:00
#DEBUG: Time Zone     -> Etc/UTC
#DEBUG: Data Contact   -> daryl herzmann akrherz@iastate.edu 515-294-5978
#DEBUG: Entries Found -> -1
station,valid,lon,lat,tmpf, dwpf, relh, drct, sknt, p01i, alti, mslp, vsby, gust, skyc1, skyc2, skyc3, skyc4, skyl1, skyl2, skyl3, skyl4, presentwx, metar
YBBN,2012-04-15 00:00,153.1292,-27.3917,71.60,66.20,83.09,190.00,5.00,0.00,30.21,M,4.35,M,FEW,SCT,BKN,M,500.00,1200.00,8000.00,M,VCSH,YBBN 150000Z 19005KT 7000 VCSH FEW005 SCT012 BKN080 22/19 Q1023
YBBN,2012-04-15 00:05,153.1292,-27.3917,71.60,66.20,83.09,190.00,3.00,0.00,30.21,M,6.21,M,FEW,SCT,BKN,M,500.00,1200.00,8000.00,M,-SHRA,YBBN 150005Z 19003KT 9999 4000N -SHRA FEW005 SCT012 BKN080 22/19 Q1023
YBBN,2012-04-15 00:13,153.1292,-27.3917,71.60,66.20,83.09,110.00,3.00,0.00,30.21,M,6.21,M,FEW,BKN,M,M,500.00,1200.00,M,M,-SHRA,YBBN 150013Z 11003KT 9999 2000N -SHRA FEW005 BKN012 22/19 Q1023
YBBN,2012-04-15 00:21,153.1292,-27.3917,69.80,68.00,94.01,110.00,7.00,0.00,30.21,M,3.11,M,FEW,BKN,M,M,500.00,1300.00,M,M,SHRA,YBBN 150021Z 11007KT 5000 1500S SHRA FEW005 BKN013 21/20 Q1023
YBBN,2012-04-15 00:30,153.1292,-27.3917,69.80,68.00,94.01,130.00,6.00,0.00,30.21,M,4.35,M,FEW,SCT,BKN,M,500.00,1300.00,2900.00,M,-SHRA,YBBN 150030Z 13006KT 7000 3000S -SHRA FEW005 SCT013 BKN029 21/20 Q1023 RESHRA
YBBN,2012-04-15 00:38,153.1292,-27.3917,71.60,68.00,88.43,130.00,6.00,0.00,30.21,M,3.73,M,FEW,SCT,M,M,800.00,4700.00,M,M,-SHRA,YBBN 150038Z 13006KT 6000 -SHRA FEW008 SCT047 22/20 Q1023 RESHRA
YBBN,2012-04-15 00:55,153.1292,-27.3917,73.40,68.00,83.21,120.00,5.00,0.00,30.21,M,6.21,M,FEW,SCT,BKN,M,800.00,4800.00,8000.00,M,VCSH,YBBN 150055Z 12005KT 9999 VCSH FEW008 SCT048 BKN080 23/20 Q1023
YBBN,2012-04-15 01:00,153.1292,-27.3917,71.60,68.00,88.43,120.00,6.00,0.00,30.21,M,6.21,M,FEW,SCT,BKN,M,800.00,2800.00,5000.00,M,VCSH,YBBN 150100Z 12006KT 9999 VCSH FEW008 SCT028 BKN050 22/20 Q1023 RESHRA
YBBN,2012-04-15 01:30,153.1292,-27.3917,73.40,66.20,78.19,130.00,7.00,0.00,30.18,M,5.59,M,FEW,SCT,BKN,M,800.00,2500.00,10000.00,M,VCSH,YBBN 150130Z 13007KT 9000 VCSH FEW008 SCT025 BKN100 23/19 Q1022
YBBN,2012-04-15 02:00,153.1292,-27.3917,75.20,64.40,69.14,140.00,6.00,0.00,30.18,M,6.21,M,FEW,SCT,BKN,M,800.00,4000.00,7000.00,M,VCSH,YBBN 150200Z 14006KT 9999 VCSH FEW008 SCT040 BKN070 24/18 Q1022
YBBN,2012-04-15 02:30,153.1292,-27.3917,75.20,64.40,69.14,130.00,7.00,0.00,30.15,M,6.21,M,FEW,SCT,M,M,800.00,4500.00,M,M,VCSH,YBBN 150230Z 13007KT 9999 VCSH FEW008 SCT045 24/18 Q1021
YBBN,2012-04-15 03:00,153.1292,-27.3917,75.20,64.40,69.14,130.00,7.00,0.00,30.15,M,6.21,M,FEW,SCT,M,M,800.00,6000.00,M,M,VCSH,YBBN 150300Z 13007KT 9999 VCSH FEW008 SCT060 24/18 Q1021 INTER 0300/0600 3000 SHRA BKN012
YBBN,2012-04-15 03:30,153.1292,-27.3917,75.20,68.00,78.34,110.00,9.00,0.00,30.12,M,6.21,M,FEW,SCT,BKN,M,800.00,4600.00,6800.00,M,VCSH,YBBN 150330Z 11009KT 9999 VCSH FEW008 SCT046 BKN068 24/20 Q1020
YBBN,2012-04-15 04:00,153.1292,-27.3917,75.20,64.40,69.14,120.00,8.00,0.00,30.12,M,6.21,M,FEW,SCT,BKN,M,1000.00,5000.00,8000.00,M,VCSH,YBBN 150400Z 12008KT 9999 VCSH FEW010 SCT050 BKN080 24/18 Q1020 INTER 0400/0700 3000 SHRA BKN012
YBBN,2012-04-15 04:30,153.1292,-27.3917,73.40,66.20,78.19,120.00,7.00,0.00,30.12,M,6.21,M,FEW,SCT,BKN,M,1000.00,4800.00,8000.00,M,VCSH,YBBN 150430Z 12007KT 9999 VCSH FEW010 SCT048 BKN080 23/19 Q1020
YBBN,2012-04-15 05:00,153.1292,-27.3917,73.40,64.40,73.44,120.00,7.00,0.00,30.12,M,6.21,M,FEW,BKN,M,M,1000.00,5200.00,M,M,VCSH,YBBN 150500Z 12007KT 9999 VCSH FEW010 BKN052 23/18 Q1020 INTER 0500/0800 3000 SHRA BKN012
YBBN,2012-04-15 05:30,153.1292,-27.3917,73.40,66.20,78.19,130.00,7.00,0.00,30.12,M,6.21,M,FEW,BKN,M,M,1000.00,5000.00,M,M,VCSH,YBBN 150530Z 13007KT 9999 VCSH FEW010 BKN050 23/19 Q1020
YBBN,2012-04-15 06:00,153.1292,-27.3917,71.60,66.20,83.09,130.00,8.00,0.00,30.12,M,6.21,M,FEW,BKN,M,M,1000.00,6800.00,M,M,-SHRA,YBBN 150600Z 13008KT 9999 -SHRA FEW010 BKN068 22/19 Q1020
YBBN,2012-04-15 06:30,153.1292,-27.3917,71.60,64.40,78.04,130.00,6.00,0.00,30.12,M,6.21,M,FEW,SCT,BKN,M,1000.00,6600.00,8000.00,M,M,YBBN 150630Z 13006KT 9999 FEW010 SCT066 BKN080 22/18 Q1020
YBBN,2012-04-15 07:00,153.1292,-27.3917,71.60,64.40,78.04,140.00,5.00,0.00,30.12,M,6.21,M,FEW,BKN,M,M,1000.00,7000.00,M,M,M,YBBN 150700Z 14005KT 9999 FEW010 BKN070 22/18 Q1020 INTER 0700/1000 3000 SHRA BKN012
YBBN,2012-04-15 07:30,153.1292,-27.3917,71.60,66.20,83.09,150.00,4.00,0.00,30.15,M,6.21,M,FEW,SCT,BKN,M,1000.00,5000.00,7000.00,M,M,YBBN 150730Z 15004KT 9999 FEW010 SCT050 BKN070 22/19 Q1021
YBBN,2012-04-15 08:00,153.1292,-27.3917,71.60,66.20,83.09,180.00,5.00,0.00,30.15,M,6.21,M,FEW,SCT,BKN,M,1000.00,5000.00,8000.00,M,VCSH,YBBN 150800Z 18005KT 9999 VCSH FEW010 SCT050 BKN080 22/19 Q1021
YBBN,2012-04-15 08:30,153.1292,-27.3917,69.80,66.20,88.34,170.00,6.00,0.00,30.15,M,4.97,M,FEW,SCT,BKN,M,1000.00,5000.00,8000.00,M,VCSH,YBBN 150830Z 17006KT 8000 VCSH FEW010 SCT050 BKN080 21/19 Q1021
YBBN,2012-04-15 09:00,153.1292,-27.3917,69.80,66.20,88.34,170.00,4.00,0.00,30.15,M,6.21,M,FEW,BKN,M,M,1500.00,8000.00,M,M,VCSH,YBBN 150900Z 17004KT 9999 VCSH FEW015 BKN080 21/19 Q1021 INTER 0900/1200 3000 SHRA BKN012
YBBN,2012-04-15 09:30,153.1292,-27.3917,69.80,66.20,88.34,170.00,6.00,0.00,30.15,M,4.97,M,FEW,BKN,M,M,1500.00,8000.00,M,M,VCSH,YBBN 150930Z 17006KT 8000 VCSH FEW015 BKN080 21/19 Q1021
YBBN,2012-04-15 10:00,153.1292,-27.3917,69.80,66.20,88.34,160.00,6.00,0.00,30.18,M,4.97,M,FEW,BKN,M,M,1500.00,8000.00,M,M,VCSH,YBBN 151000Z 16006KT 8000 VCSH FEW015 BKN080 21/19 Q1022 INTER 1000/1300 3000 SHRA BKN012
YBBN,2012-04-15 10:30,153.1292,-27.3917,69.80,66.20,88.34,190.00,3.00,0.00,30.18,M,4.97,M,FEW,SCT,BKN,M,1500.00,3000.00,8000.00,M,VCSH,YBBN 151030Z 19003KT 8000 VCSH FEW015 SCT030 BKN080 21/19 Q1022
YBBN,2012-04-15 11:00,153.1292,-27.3917,68.00,66.20,93.97,190.00,6.00,0.00,30.18,M,4.97,M,FEW,BKN,M,M,2500.00,8000.00,M,M,VCSH,YBBN 151100Z 19006KT 8000 VCSH FEW025 BKN080 20/19 Q1022 FM1100 20006KT 9999 -SHRA SCT020 BKN060 INTER 1100/1400 3000 SHRA BKN012
YBBN,2012-04-15 11:30,153.1292,-27.3917,68.00,66.20,93.97,200.00,7.00,0.00,30.18,M,6.21,M,FEW,SCT,M,M,2500.00,8000.00,M,M,VCSH,YBBN 151130Z 20007KT 9999 VCSH FEW025 SCT080 20/19 Q1022
YBBN,2012-04-15 12:00,153.1292,-27.3917,66.20,66.20,100.00,210.00,6.00,0.00,30.18,M,6.21,M,FEW,SCT,M,M,2500.00,8000.00,M,M,VCSH,YBBN 151200Z 21006KT 9999 VCSH FEW025 SCT080 19/19 Q1022 INTER 1200/1500 3000 SHRA BKN012
YBBN,2012-04-15 12:30,153.1292,-27.3917,68.00,66.20,93.97,200.00,6.00,0.00,30.15,M,6.21,M,FEW,SCT,M,M,2500.00,8000.00,M,M,M,YBBN 151230Z 20006KT 9999 FEW025 SCT080 20/19 Q1021
YBBN,2012-04-15 13:00,153.1292,-27.3917,68.00,66.20,93.97,190.00,6.00,0.00,30.15,M,6.21,M,FEW,SCT,M,M,1500.00,8000.00,M,M,VCSH,YBBN 151300Z 19006KT 9999 VCSH FEW015 SCT080 20/19 Q1021 INTER 1300/1600 3000 SHRA BKN012
YBBN,2012-04-15 13:30,153.1292,-27.3917,68.00,66.20,93.97,200.00,6.00,0.00,30.15,M,6.21,M,FEW,SCT,BKN,M,1000.00,2000.00,8000.00,M,VCSH,YBBN 151330Z 20006KT 9999 VCSH FEW010 SCT020 BKN080 20/19 Q1021
YBBN,2012-04-15 14:00,153.1292,-27.3917,66.20,66.20,100.00,210.00,7.00,0.00,30.15,M,4.97,M,FEW,SCT,M,M,1000.00,8000.00,M,M,VCSH,YBBN 151400Z 21007KT 8000 VCSH FEW010 SCT080 19/19 Q1021
YBBN,2012-04-15 14:30,153.1292,-27.3917,66.20,66.20,100.00,210.00,4.00,0.00,30.15,M,4.97,M,SCT,SCT,M,M,2300.00,8000.00,M,M,VCSH,YBBN 151430Z 21004KT 8000 VCSH SCT023 SCT080 19/19 Q1021
YBBN,2012-04-15 14:46,153.1292,-27.3917,66.20,66.20,100.00,140.00,4.00,0.00,30.15,M,2.49,M,FEW,SCT,BKN,M,1000.00,2000.00,8000.00,M,SHRA,YBBN 151446Z 14004KT 4000 SHRA FEW010 SCT020 BKN080 19/19 Q1021
YBBN,2012-04-15 15:00,153.1292,-27.3917,66.20,66.20,100.00,210.00,7.00,0.00,30.12,M,3.73,M,FEW,SCT,BKN,M,1000.00,2000.00,8000.00,M,-SHRA,YBBN 151500Z 21007KT 6000 -SHRA FEW010 SCT020 BKN080 19/19 Q1020
YBBN,2012-04-15 15:11,153.1292,-27.3917,66.20,66.20,100.00,190.00,6.00,0.00,30.12,M,4.97,M,FEW,SCT,M,M,1000.00,4000.00,M,M,VCSH,YBBN 151511Z 19006KT 8000 VCSH FEW010 SCT040 19/19 Q1020
YBBN,2012-04-15 15:30,153.1292,-27.3917,66.20,66.20,100.00,190.00,6.00,0.00,30.12,M,6.21,M,FEW,SCT,M,M,1000.00,3300.00,M,M,VCSH,YBBN 151530Z 19006KT 9999 VCSH FEW010 SCT033 19/19 Q1020
YBBN,2012-04-15 16:00,153.1292,-27.3917,66.20,66.20,100.00,170.00,7.00,0.00,30.12,M,5.59,M,FEW,SCT,M,M,700.00,4000.00,M,M,VCSH,YBBN 151600Z 17007KT 9000 VCSH FEW007 SCT040 19/19 Q1020
YBBN,2012-04-15 16:30,153.1292,-27.3917,66.20,64.40,93.92,170.00,7.00,0.00,30.09,M,6.21,M,FEW,SCT,M,M,1000.00,4000.00,M,M,M,YBBN 151630Z 17007KT 9999 FEW010 SCT040 19/18 Q1019
YBBN,2012-04-15 17:00,153.1292,-27.3917,66.20,64.40,93.92,190.00,7.00,0.00,30.09,M,6.21,M,FEW,SCT,M,M,1000.00,5000.00,M,M,M,YBBN 151700Z 19007KT 9999 FEW010 SCT050 19/18 Q1019
YBBN,2012-04-15 17:30,153.1292,-27.3917,66.20,64.40,93.92,200.00,7.00,0.00,30.09,M,6.21,M,FEW,SCT,M,M,4000.00,6500.00,M,M,M,YBBN 151730Z 20007KT 9999 FEW040 SCT065 19/18 Q1019
YBBN,2012-04-15 18:00,153.1292,-27.3917,66.20,64.40,93.92,200.00,6.00,0.00,30.09,M,6.21,M,FEW,SCT,M,M,2000.00,7000.00,M,M,M,YBBN 151800Z 20006KT 9999 FEW020 SCT070 19/18 Q1019
YBBN,2012-04-15 19:00,153.1292,-27.3917,64.40,64.40,100.00,210.00,6.00,0.00,30.09,M,6.21,M,FEW,BKN,M,M,2000.00,7000.00,M,M,M,YBBN 151900Z 21006KT 9999 FEW020 BKN070 18/18 Q1019
YBBN,2012-04-15 19:30,153.1292,-27.3917,64.40,64.40,100.00,210.00,7.00,0.00,30.09,M,6.21,M,FEW,BKN,M,M,1500.00,7000.00,M,M,M,YBBN 151930Z 21007KT 9999 FEW015 BKN070 18/18 Q1019
YBBN,2012-04-15 20:00,153.1292,-27.3917,64.40,64.40,100.00,210.00,7.00,0.00,30.12,M,6.21,M,FEW,BKN,M,M,2000.00,16000.00,M,M,M,YBBN 152000Z 21007KT 9999 FEW020 BKN160 18/18 Q1020
YBBN,2012-04-15 20:30,153.1292,-27.3917,64.40,64.40,100.00,210.00,8.00,0.00,30.12,M,6.21,M,FEW,BKN,M,M,2000.00,16000.00,M,M,M,YBBN 152030Z 21008KT 9999 FEW020 BKN160 18/18 Q1020
YBBN,2012-04-15 21:00,153.1292,-27.3917,66.20,64.40,93.92,210.00,8.00,0.00,30.12,M,6.21,M,FEW,BKN,M,M,2000.00,16000.00,M,M,M,YBBN 152100Z 21008KT 9999 FEW020 BKN160 19/18 Q1020 RMK HAZE
YBBN,2012-04-15 21:30,153.1292,-27.3917,66.20,66.20,100.00,210.00,9.00,0.00,30.12,M,6.21,M,FEW,BKN,M,M,2000.00,24000.00,M,M,M,YBBN 152130Z 21009KT 9999 FEW020 BKN240 19/19 Q1020 RMK HAZE
YBBN,2012-04-15 22:00,153.1292,-27.3917,68.00,66.20,93.97,210.00,9.00,0.00,30.12,M,6.21,M,FEW,BKN,M,M,2000.00,24000.00,M,M,M,YBBN 152200Z 21009KT 9999 FEW020 BKN240 20/19 Q1020 RMK HAZE
YBBN,2012-04-15 22:30,153.1292,-27.3917,68.00,66.20,93.97,210.00,9.00,0.00,30.12,M,6.21,M,FEW,BKN,M,M,2000.00,24000.00,M,M,M,YBBN 152230Z 21009KT 9999 FEW020 BKN240 20/19 Q1020 RMK SHOWERS TO E
YBBN,2012-04-15 23:00,153.1292,-27.3917,69.80,66.20,88.34,210.00,8.00,0.00,30.15,M,6.21,M,FEW,BKN,M,M,2000.00,24000.00,M,M,M,YBBN 152300Z 21008KT 9999 FEW020 BKN240 21/19 Q1021 RMK SH TO SE
YBBN,2012-04-15 23:30,153.1292,-27.3917,71.60,66.20,83.09,200.00,7.00,0.00,30.12,M,6.21,M,FEW,BKN,M,M,2200.00,25000.00,M,M,M,YBBN 152330Z 20007KT 9999 FEW022 BKN250 22/19 Q1020 RMK SHRA TO SE
