#DEBUG: Format Typ    -> comma
#DEBUG: Time Period   -> 2013-12-11 00:00:00+00:00 2013-12-12 00:00:00+00:00
#DEBUG: Time Zone     -> Etc/UTC
#DEBUG: Data Contact   -> daryl herzmann akrherz@iastate.edu 515-294-5978
#DEBUG: Entries Found -> -1
station,valid,lon,lat,tmpf, dwpf, relh, drct, sknt, p01i, alti, mslp, vsby, gust, skyc1, skyc2, skyc3, skyc4, skyl1, skyl2, skyl3, skyl4, presentwx, metar
YBBN,2013-12-11 00:00,153.1292,-27.3917,78.80,68.00,69.52,10.00,11.00,0.00,29.80,M,6.21,M,FEW,BKN,M,M,6000.00,10000.00,M,M,-RA,YBBN 110000Z 01011KT 9999 -RA FEW060 BKN100 26/20 Q1009
YBBN,2013-12-11 00:30,153.1292,-27.3917,80.60,68.00,65.54,20.00,11.00,0.00,29.80,M,6.21,M,M,M,M,M,M,M,M,M,M,YBBN 110030Z 02011KT CAVOK 27/20 Q1009 RMK 7AC180
YBBN,2013-12-11 01:00,153.1292,-27.3917,77.00,69.80,78.48,20.00,14.00,0.00,29.80,M,6.21,M,M,M,M,M,M,M,M,M,M,YBBN 110100Z 02014KT CAVOK 25/21 Q1009 NOSIG
YBBN,2013-12-11 01:30,153.1292,-27.3917,78.80,69.80,73.95,20.00,16.00,0.00,29.77,M,6.21,M,M,M,M,M,M,M,M,M,M,YBBN 110130Z 02016KT CAVOK 26/21 Q1008
YBBN,2013-12-11 02:00,153.1292,-27.3917,78.80,69.80,73.95,10.00,16.00,0.00,29.77,M,6.21,M,FEW,SCT,BKN,M,4500.00,14000.00,18000.00,M,M,YBBN 110200Z 01016KT 9999 FEW045 SCT140 BKN180 26/21 Q1008
YBBN,2013-12-11 02:30,153.1292,-27.3917,77.00,69.80,78.48,10.00,13.00,0.00,29.77,M,6.21,M,M,M,M,M,M,M,M,M,M,YBBN 110230Z 01013KT CAVOK 25/21 Q1008 RMK 5AC130
YBBN,2013-12-11 03:00,153.1292,-27.3917,78.80,71.60,78.62,10.00,14.00,0.00,29.74,M,6.21,M,FEW,SCT,BKN,M,3500.00,12000.00,18000.00,M,-RA,YBBN 110300Z 01014KT 9999 -RA FEW035 SCT120 BKN180 26/22 Q1007
YBBN,2013-12-11 03:30,153.1292,-27.3917,78.80,69.80,73.95,20.00,16.00,0.00,29.71,M,6.21,M,FEW,SCT,BKN,M,3500.00,12000.00,18000.00,M,M,YBBN 110330Z 02016KT 9999 FEW035 SCT120 BKN180 26/21 Q1006
YBBN,2013-12-11 04:00,153.1292,-27.3917,80.60,69.80,69.71,10.00,19.00,0.00,29.71,M,6.21,M,M,M,M,M,M,M,M,M,M,YBBN 110400Z 01019KT CAVOK 27/21 Q1006 TEMPO 0500/0700 2000 TSRA BKN015 SCT050CB
YBBN,2013-12-11 04:30,153.1292,-27.3917,80.60,69.80,69.71,10.00,18.00,0.00,29.71,M,6.21,M,M,M,M,M,M,M,M,M,M,YBBN 110430Z 01018KT CAVOK 27/21 Q1006
YBBN,2013-12-11 05:00,153.1292,-27.3917,78.80,71.60,78.62,10.00,16.00,0.00,29.71,M,6.21,M,M,M,M,M,M,M,M,M,M,YBBN 110500Z 01016KT CAVOK 26/22 Q1006
YBBN,2013-12-11 05:30,153.1292,-27.3917,78.80,71.60,78.62,10.00,17.00,0.00,29.71,M,6.21,M,M,M,M,M,M,M,M,M,M,YBBN 110530Z 01017KT CAVOK 26/22 Q1006 RMK 5AC180
YBBN,2013-12-11 06:00,153.1292,-27.3917,78.80,69.80,73.95,10.00,15.00,0.00,29.68,M,6.21,M,M,M,M,M,M,M,M,M,M,YBBN 110600Z 01015KT CAVOK 26/21 Q1005
YBBN,2013-12-11 06:30,153.1292,-27.3917,77.00,71.60,83.44,10.00,17.00,0.00,29.68,M,6.21,M,M,M,M,M,M,M,M,M,M,YBBN 110630Z 01017KT CAVOK 25/22 Q1005 RMK 5AC180
YBBN,2013-12-11 07:00,153.1292,-27.3917,77.00,71.60,83.44,10.00,14.00,0.00,29.71,M,6.21,M,M,M,M,M,M,M,M,M,M,YBBN 110700Z 01014KT CAVOK 25/22 Q1006 TEMPO 0800/1000 2000 TSRA BKN015 SCT050CB
YBBN,2013-12-11 07:30,153.1292,-27.3917,77.00,71.60,83.44,20.00,10.00,0.00,29.71,M,6.21,M,FEW,BKN,M,M,2000.00,14000.00,M,M,VCSH,YBBN 110730Z 02010KT 9999 VCSH FEW020 BKN140 25/22 Q1006
YBBN,2013-12-11 08:00,153.1292,-27.3917,77.00,71.60,83.44,70.00,3.00,0.00,29.74,M,6.21,M,FEW,BKN,M,M,1000.00,14000.00,M,M,-RA,YBBN 110800Z 07003KT 9999 -RA FEW010 BKN140 25/22 Q1007
YBBN,2013-12-11 08:30,153.1292,-27.3917,77.00,71.60,83.44,40.00,5.00,0.00,29.77,M,6.21,M,FEW,BKN,M,M,1000.00,13000.00,M,M,-RA,YBBN 110830Z 04005KT 9999 -RA FEW010 BKN130 25/22 Q1008
YBBN,2013-12-11 09:00,153.1292,-27.3917,75.20,71.60,88.59,130.00,4.00,0.00,29.80,M,6.21,M,FEW,BKN,FEW,M,1000.00,12000.00,3000.00,M,RA VCTS,YBBN 110900Z 13004KT 9999 RA VCTS FEW010 BKN120 FEW030CB 24/22 Q1009
YBBN,2013-12-11 09:30,153.1292,-27.3917,75.20,73.40,94.14,170.00,4.00,0.00,29.80,M,5.59,M,FEW,BKN,FEW,M,1000.00,11000.00,3000.00,M,RA,YBBN 110930Z 17004KT 9000 RA FEW010 BKN110 FEW030CB 24/23 Q1009 RMK LIGHTNING TO NW
YBBN,2013-12-11 10:00,153.1292,-27.3917,73.40,71.60,94.10,190.00,5.00,0.00,29.80,M,6.21,M,FEW,SCT,BKN,M,1000.00,5000.00,11000.00,M,RA,YBBN 111000Z 19005KT 9999 RA FEW010 SCT050 BKN110 23/22 Q1009 NOSIG
YBBN,2013-12-11 10:30,153.1292,-27.3917,73.40,71.60,94.10,190.00,5.00,0.00,29.80,M,6.21,M,FEW,SCT,BKN,M,2000.00,4500.00,12000.00,M,RA,YBBN 111030Z 19005KT 9999 RA FEW020 SCT045 BKN120 23/22 Q1009
YBBN,2013-12-11 11:00,153.1292,-27.3917,73.40,71.60,94.10,360.00,6.00,0.00,29.80,M,5.59,M,FEW,SCT,BKN,M,2000.00,4000.00,12000.00,M,RA,YBBN 111100Z 36006KT 9000 RA FEW020 SCT040 BKN120 23/22 Q1009 INTER 1200/1400 6000 RA BKN014
YBBN,2013-12-11 11:30,153.1292,-27.3917,73.40,71.60,94.10,40.00,8.00,0.00,29.80,M,5.59,M,FEW,SCT,BKN,M,800.00,5000.00,12000.00,M,RA,YBBN 111130Z 04008KT 9000 RA FEW008 SCT050 BKN120 23/22 Q1009
YBBN,2013-12-11 12:00,153.1292,-27.3917,71.60,71.60,100.00,30.00,7.00,0.00,29.80,M,6.21,M,FEW,SCT,BKN,M,800.00,4500.00,13500.00,M,-RA,YBBN 111200Z 03007KT 9999 -RA FEW008 SCT045 BKN135 22/22 Q1009 INTER 1200/1500 6000 RA BKN012
YBBN,2013-12-11 12:30,153.1292,-27.3917,71.60,71.60,100.00,10.00,7.00,0.00,29.80,M,6.21,M,FEW,BKN,M,M,800.00,13500.00,M,M,-RA,YBBN 111230Z 01007KT 9999 -RA FEW008 BKN135 22/22 Q1009
YBBN,2013-12-11 13:00,153.1292,-27.3917,71.60,69.80,94.06,10.00,5.00,0.00,29.80,M,6.21,M,FEW,BKN,M,M,1800.00,14500.00,M,M,-RA,YBBN 111300Z 01005KT 9999 -RA FEW018 BKN145 22/21 Q1009
YBBN,2013-12-11 13:30,153.1292,-27.3917,71.60,69.80,94.06,340.00,5.00,0.00,29.80,M,6.21,M,FEW,BKN,M,M,600.00,14000.00,M,M,M,YBBN 111330Z 34005KT 9999 FEW006 BKN140 22/21 Q1009
YBBN,2013-12-11 14:00,153.1292,-27.3917,71.60,69.80,94.06,270.00,5.00,0.00,29.77,M,6.21,M,FEW,BKN,M,M,1200.00,13500.00,M,M,-RA,YBBN 111400Z 27005KT 9999 -RA FEW012 BKN135 22/21 Q1008 INTER 1400/1700 6000 RA BKN012
YBBN,2013-12-11 14:30,153.1292,-27.3917,71.60,69.80,94.06,290.00,5.00,0.00,29.77,M,6.21,M,FEW,BKN,M,M,1200.00,13000.00,M,M,-RA,YBBN 111430Z 29005KT 9999 -RA FEW012 BKN130 22/21 Q1008
YBBN,2013-12-11 15:00,153.1292,-27.3917,71.60,69.80,94.06,310.00,5.00,0.00,29.74,M,6.21,M,FEW,BKN,M,M,1000.00,13000.00,M,M,-RA,YBBN 111500Z 31005KT 9999 -RA FEW010 BKN130 22/21 Q1007 INTER 1500/1800 6000 RA BKN012
YBBN,2013-12-11 15:30,153.1292,-27.3917,71.60,69.80,94.06,300.00,7.00,0.00,29.74,M,6.21,M,FEW,BKN,M,M,1000.00,13000.00,M,M,M,YBBN 111530Z 30007KT 9999 FEW010 BKN130 22/21 Q1007
YBBN,2013-12-11 16:00,153.1292,-27.3917,71.60,69.80,94.06,260.00,4.00,0.00,29.74,M,6.21,M,M,M,M,M,M,M,M,M,M,YBBN 111600Z 26004KT CAVOK 22/21 Q1007 INTER 1700/1900 6000 SHRA BKN012
YBBN,2013-12-11 16:30,153.1292,-27.3917,69.80,69.80,100.00,270.00,4.00,0.00,29.74,M,6.21,M,FEW,SCT,M,M,1200.00,17000.00,M,M,M,YBBN 111630Z 27004KT 9999 FEW012 SCT170 21/21 Q1007
YBBN,2013-12-11 17:00,153.1292,-27.3917,69.80,68.00,94.01,300.00,3.00,0.00,29.74,M,6.21,M,FEW,BKN,M,M,1200.00,15000.00,M,M,M,YBBN 111700Z 30003KT 9999 FEW012 BKN150 21/20 Q1007 INTER 1700/2000 6000 SHRA BKN012
YBBN,2013-12-11 17:30,153.1292,-27.3917,69.80,69.80,100.00,260.00,4.00,0.00,29.74,M,6.21,M,FEW,BKN,M,M,1200.00,15000.00,M,M,M,YBBN 111730Z 26004KT 9999 FEW012 BKN150 21/21 Q1007
YBBN,2013-12-11 18:00,153.1292,-27.3917,71.60,69.80,94.06,280.00,3.00,0.00,29.74,M,6.21,M,FEW,BKN,M,M,800.00,16000.00,M,M,M,YBBN 111800Z 28003KT 9999 FEW008 BKN160 22/21 Q1007 INTER 1800/2100 6000 SHRA BKN012
YBBN,2013-12-11 18:30,153.1292,-27.3917,69.80,68.00,94.01,310.00,3.00,0.00,29.74,M,6.21,M,M,M,M,M,M,M,M,M,M,YBBN 111830Z 31003KT CAVOK 21/20 Q1007
YBBN,2013-12-11 19:00,153.1292,-27.3917,69.80,68.00,94.01,0.00,0.00,0.00,29.74,M,6.21,M,FEW,SCT,BKN,M,1500.00,16000.00,24000.00,M,M,YBBN 111900Z 00000KT 9999 FEW015 SCT160 BKN240 21/20 Q1007 INTER 1900/2200 6000 SHRA BKN012
YBBN,2013-12-11 19:30,153.1292,-27.3917,69.80,69.80,100.00,270.00,4.00,0.00,29.77,M,6.21,M,FEW,BKN,M,M,1800.00,16000.00,M,M,M,YBBN 111930Z 27004KT 9999 FEW018 BKN160 21/21 Q1008
YBBN,2013-12-11 20:00,153.1292,-27.3917,71.60,69.80,94.06,200.00,5.00,0.00,29.80,M,6.21,M,FEW,BKN,M,M,2500.00,16000.00,M,M,M,YBBN 112000Z 20005KT 9999 FEW025 BKN160 22/21 Q1009 NOSIG
YBBN,2013-12-11 20:30,153.1292,-27.3917,71.60,69.80,94.06,190.00,4.00,0.00,29.80,M,6.21,M,FEW,SCT,BKN,M,800.00,14000.00,16000.00,M,M,YBBN 112030Z 19004KT 9999 FEW008 SCT140 BKN160 22/21 Q1009 RMK VIRGA
YBBN,2013-12-11 21:00,153.1292,-27.3917,71.60,69.80,94.06,110.00,2.00,0.00,29.80,M,6.21,M,FEW,SCT,BKN,M,1800.00,13800.00,16000.00,M,M,YBBN 112100Z 11002KT 9999 FEW018 SCT138 BKN160 22/21 Q1009 NOSIG
YBBN,2013-12-11 21:30,153.1292,-27.3917,71.60,69.80,94.06,230.00,5.00,0.00,29.80,M,6.21,M,FEW,SCT,BKN,M,2000.00,12500.00,15700.00,M,M,YBBN 112130Z 23005KT 9999 FEW020 SCT125 BKN157 22/21 Q1009 RMK VIRGA/ LENTICULAR CLOUD A088
YBBN,2013-12-11 22:00,153.1292,-27.3917,73.40,69.80,88.51,270.00,3.00,0.00,29.80,M,6.21,M,FEW,SCT,BKN,M,800.00,11800.00,13000.00,M,M,YBBN 112200Z 27003KT 9999 FEW008 SCT118 BKN130 23/21 Q1009 NOSIG
YBBN,2013-12-11 22:30,153.1292,-27.3917,75.20,69.80,83.32,10.00,5.00,0.00,29.80,M,6.21,M,FEW,SCT,BKN,M,1400.00,12000.00,19000.00,M,M,YBBN 112230Z 01005KT 9999 FEW014 SCT120 BKN190 24/21 Q1009 RMK VIRGA/HZ
YBBN,2013-12-11 23:00,153.1292,-27.3917,75.20,69.80,83.32,300.00,5.00,0.00,29.80,M,6.21,M,FEW,SCT,BKN,M,1400.00,12000.00,19000.00,M,M,YBBN 112300Z 30005KT 9999 FEW014 SCT120 BKN190 24/21 Q1009 NOSIG
YBBN,2013-12-11 23:30,153.1292,-27.3917,77.00,69.80,78.48,270.00,5.00,0.00,29.80,M,6.21,M,FEW,SCT,BKN,M,1500.00,11000.00,18000.00,M,-SHRA,YBBN 112330Z 27005KT 9999 -SHRA FEW015 SCT110 BKN180 25/21 Q1009 RMK VIRGA/HZ
