#DEBUG: Format Typ    -> comma
#DEBUG: Time Period   -> 2015-01-30 00:00:00+00:00 2015-01-31 00:00:00+00:00
#DEBUG: Time Zone     -> Etc/UTC
#DEBUG: Data Contact   -> daryl herzmann akrherz@iastate.edu 515-294-5978
#DEBUG: Entries Found -> -1
station,valid,lon,lat,tmpf, dwpf, relh, drct, sknt, p01i, alti, mslp, vsby, gust, skyc1, skyc2, skyc3, skyc4, skyl1, skyl2, skyl3, skyl4, presentwx, metar
YBBN,2015-01-30 00:00,153.1292,-27.3917,77.00,64.40,65.12,20.00,7.00,0.00,29.80,M,6.21,M,FEW,BKN,M,M,2300.00,3000.00,M,M,M,YBBN 300000Z 02007KT 9999 FEW023 BKN030 25/18 Q1009
YBBN,2015-01-30 00:30,153.1292,-27.3917,78.80,64.40,61.36,40.00,6.00,0.00,29.80,M,6.21,M,FEW,SCT,M,M,2400.00,3200.00,M,M,M,YBBN 300030Z 04006KT 9999 FEW024 SCT032 26/18 Q1009
YBBN,2015-01-30 01:00,153.1292,-27.3917,80.60,68.00,65.54,20.00,8.00,0.00,29.80,M,6.21,M,FEW,SCT,M,M,2400.00,3300.00,M,M,M,YBBN 300100Z 02008KT 9999 FEW024 SCT033 27/20 Q1009 NOSIG
YBBN,2015-01-30 01:30,153.1292,-27.3917,80.60,66.20,61.58,10.00,9.00,0.00,29.80,M,6.21,M,FEW,SCT,M,M,2400.00,3300.00,M,M,M,YBBN 300130Z 01009KT 9999 FEW024 SCT033 27/19 Q1009
YBBN,2015-01-30 02:00,153.1292,-27.3917,78.80,66.20,65.33,10.00,11.00,0.00,29.77,M,6.21,M,FEW,SCT,M,M,2400.00,3400.00,M,M,M,YBBN 300200Z 01011KT 9999 FEW024 SCT034 26/19 Q1008
YBBN,2015-01-30 02:30,153.1292,-27.3917,78.80,68.00,69.52,20.00,13.00,0.00,29.77,M,6.21,M,FEW,SCT,M,M,2300.00,3400.00,M,M,M,YBBN 300230Z 02013KT 9999 FEW023 SCT034 26/20 Q1008
YBBN,2015-01-30 03:00,153.1292,-27.3917,78.80,66.20,65.33,10.00,12.00,0.00,29.77,M,6.21,M,FEW,M,M,M,2200.00,M,M,M,M,YBBN 300300Z 01012KT 9999 FEW022 26/19 Q1008
YBBN,2015-01-30 03:30,153.1292,-27.3917,80.60,68.00,65.54,10.00,13.00,0.00,29.74,M,6.21,M,FEW,M,M,M,2400.00,M,M,M,M,YBBN 300330Z 01013KT 9999 FEW024 27/20 Q1007
YBBN,2015-01-30 04:00,153.1292,-27.3917,80.60,68.00,65.54,10.00,13.00,0.00,29.74,M,6.21,M,FEW,M,M,M,2400.00,M,M,M,M,YBBN 300400Z 01013KT 9999 FEW024 27/20 Q1007 NOSIG
YBBN,2015-01-30 04:30,153.1292,-27.3917,78.80,68.00,69.52,10.00,13.00,0.00,29.71,M,6.21,M,FEW,M,M,M,2500.00,M,M,M,M,YBBN 300430Z 01013KT 9999 FEW025 26/20 Q1006
YBBN,2015-01-30 05:00,153.1292,-27.3917,78.80,66.20,65.33,20.00,14.00,0.00,29.71,M,6.21,M,FEW,M,M,M,2500.00,M,M,M,M,YBBN 300500Z 02014KT 9999 FEW025 26/19 Q1006
YBBN,2015-01-30 05:30,153.1292,-27.3917,78.80,66.20,65.33,10.00,14.00,0.00,29.71,M,6.21,M,FEW,M,M,M,2800.00,M,M,M,M,YBBN 300530Z 01014KT 9999 FEW028 26/19 Q1006
YBBN,2015-01-30 06:00,153.1292,-27.3917,78.80,66.20,65.33,10.00,15.00,0.00,29.71,M,6.21,M,FEW,M,M,M,2700.00,M,M,M,M,YBBN 300600Z 01015KT 9999 FEW027 26/19 Q1006 NOSIG
YBBN,2015-01-30 06:30,153.1292,-27.3917,78.80,68.00,69.52,10.00,15.00,0.00,29.71,M,6.21,M,FEW,M,M,M,2600.00,M,M,M,M,YBBN 300630Z 01015KT 9999 FEW026 26/20 Q1006
YBBN,2015-01-30 07:00,153.1292,-27.3917,77.00,66.20,69.33,360.00,16.00,0.00,29.71,M,6.21,M,FEW,M,M,M,2600.00,M,M,M,M,YBBN 300700Z 36016KT 9999 FEW026 25/19 Q1006
YBBN,2015-01-30 07:30,153.1292,-27.3917,77.00,66.20,69.33,360.00,15.00,0.00,29.71,M,6.21,M,FEW,M,M,M,2600.00,M,M,M,M,YBBN 300730Z 36015KT 9999 FEW026 25/19 Q1006
YBBN,2015-01-30 08:00,153.1292,-27.3917,77.00,66.20,69.33,10.00,14.00,0.00,29.71,M,6.21,M,FEW,M,M,M,2600.00,M,M,M,M,YBBN 300800Z 01014KT 9999 FEW026 25/19 Q1006 NOSIG
YBBN,2015-01-30 08:30,153.1292,-27.3917,75.20,66.20,73.61,360.00,12.00,0.00,29.71,M,6.21,M,FEW,M,M,M,2600.00,M,M,M,M,YBBN 300830Z 36012KT 9999 FEW026 24/19 Q1006
YBBN,2015-01-30 09:00,153.1292,-27.3917,77.00,64.40,65.12,360.00,10.00,0.00,29.74,M,6.21,M,FEW,M,M,M,2600.00,M,M,M,M,YBBN 300900Z 36010KT 9999 FEW026 25/18 Q1007 NOSIG
YBBN,2015-01-30 09:30,153.1292,-27.3917,77.00,66.20,69.33,360.00,14.00,0.00,29.74,M,6.21,M,FEW,M,M,M,2500.00,M,M,M,M,YBBN 300930Z 36014KT 9999 FEW025 25/19 Q1007
YBBN,2015-01-30 10:00,153.1292,-27.3917,75.20,64.40,69.14,360.00,14.00,0.00,29.74,M,6.21,M,FEW,M,M,M,2500.00,M,M,M,M,YBBN 301000Z 36014KT 9999 FEW025 24/18 Q1007 NOSIG
YBBN,2015-01-30 10:30,153.1292,-27.3917,75.20,66.20,73.61,350.00,11.00,0.00,29.74,M,6.21,M,M,M,M,M,M,M,M,M,M,YBBN 301030Z 35011KT CAVOK 24/19 Q1007
YBBN,2015-01-30 11:00,153.1292,-27.3917,75.20,66.20,73.61,350.00,13.00,0.00,29.74,M,6.21,M,M,M,M,M,M,M,M,M,M,YBBN 301100Z 35013KT CAVOK 24/19 Q1007 NOSIG
YBBN,2015-01-30 11:30,153.1292,-27.3917,75.20,66.20,73.61,340.00,11.00,0.00,29.77,M,6.21,M,M,M,M,M,M,M,M,M,M,YBBN 301130Z 34011KT CAVOK 24/19 Q1008
YBBN,2015-01-30 12:00,153.1292,-27.3917,75.20,66.20,73.61,350.00,11.00,0.00,29.77,M,6.21,M,M,M,M,M,M,M,M,M,M,YBBN 301200Z 35011KT CAVOK 24/19 Q1008 NOSIG
YBBN,2015-01-30 12:30,153.1292,-27.3917,75.20,66.20,73.61,340.00,12.00,0.00,29.77,M,6.21,M,M,M,M,M,M,M,M,M,M,YBBN 301230Z 34012KT CAVOK 24/19 Q1008
YBBN,2015-01-30 13:00,153.1292,-27.3917,73.40,66.20,78.19,350.00,12.00,0.00,29.77,M,6.21,M,M,M,M,M,M,M,M,M,M,YBBN 301300Z 35012KT CAVOK 23/19 Q1008
YBBN,2015-01-30 13:30,153.1292,-27.3917,73.40,68.00,83.21,350.00,11.00,0.00,29.74,M,6.21,M,M,M,M,M,M,M,M,M,M,YBBN 301330Z 35011KT CAVOK 23/20 Q1007
YBBN,2015-01-30 14:00,153.1292,-27.3917,73.40,68.00,83.21,350.00,14.00,0.00,29.74,M,6.21,M,M,M,M,M,M,M,M,M,M,YBBN 301400Z 35014KT CAVOK 23/20 Q1007 NOSIG
YBBN,2015-01-30 14:30,153.1292,-27.3917,73.40,66.20,78.19,340.00,12.00,0.00,29.74,M,6.21,M,M,M,M,M,M,M,M,M,M,YBBN 301430Z 34012KT CAVOK 23/19 Q1007
YBBN,2015-01-30 15:00,153.1292,-27.3917,71.60,66.20,83.09,300.00,6.00,0.00,29.71,M,6.21,M,M,M,M,M,M,M,M,M,M,YBBN 301500Z 30006KT CAVOK 22/19 Q1006 NOSIG
YBBN,2015-01-30 15:30,153.1292,-27.3917,69.80,66.20,88.34,300.00,5.00,0.00,29.71,M,6.21,M,M,M,M,M,M,M,M,M,M,YBBN 301530Z 30005KT CAVOK 21/19 Q1006
YBBN,2015-01-30 16:00,153.1292,-27.3917,69.80,66.20,88.34,310.00,5.00,0.00,29.71,M,6.21,M,M,M,M,M,M,M,M,M,M,YBBN 301600Z 31005KT CAVOK 21/19 Q1006 NOSIG
YBBN,2015-01-30 16:30,153.1292,-27.3917,69.80,66.20,88.34,310.00,5.00,0.00,29.71,M,6.21,M,M,M,M,M,M,M,M,M,M,YBBN 301630Z 31005KT CAVOK 21/19 Q1006
YBBN,2015-01-30 17:00,153.1292,-27.3917,69.80,66.20,88.34,290.00,4.00,0.00,29.71,M,6.21,M,M,M,M,M,M,M,M,M,M,YBBN 301700Z 29004KT CAVOK 21/19 Q1006 NOSIG
YBBN,2015-01-30 17:30,153.1292,-27.3917,68.00,64.40,88.26,0.00,0.00,0.00,29.71,M,6.21,M,M,M,M,M,M,M,M,M,M,YBBN 301730Z 00000KT CAVOK 20/18 Q1006
YBBN,2015-01-30 18:00,153.1292,-27.3917,69.80,64.40,82.98,280.00,1.00,0.00,29.71,M,6.21,M,M,M,M,M,M,M,M,M,M,YBBN 301800Z 28001KT CAVOK 21/18 Q1006 NOSIG
YBBN,2015-01-30 18:30,153.1292,-27.3917,68.00,64.40,88.26,270.00,4.00,0.00,29.71,M,6.21,M,M,M,M,M,M,M,M,M,M,YBBN 301830Z 27004KT CAVOK 20/18 Q1006
YBBN,2015-01-30 19:00,153.1292,-27.3917,68.00,64.40,88.26,0.00,0.00,0.00,29.74,M,6.21,M,FEW,M,M,M,2000.00,M,M,M,M,YBBN 301900Z 00000KT 9999 FEW020 20/18 Q1007 NOSIG
YBBN,2015-01-30 19:30,153.1292,-27.3917,66.20,64.40,93.92,0.00,0.00,0.00,29.74,M,6.21,M,FEW,M,M,M,2000.00,M,M,M,M,YBBN 301930Z 00000KT 9999 FEW020 19/18 Q1007
YBBN,2015-01-30 20:00,153.1292,-27.3917,68.00,66.20,93.97,290.00,1.00,0.00,29.74,M,6.21,M,FEW,M,M,M,2000.00,M,M,M,M,YBBN 302000Z 29001KT 9999 FEW020 20/19 Q1007
YBBN,2015-01-30 20:30,153.1292,-27.3917,71.60,66.20,83.09,0.00,0.00,0.00,29.77,M,6.21,M,FEW,M,M,M,1700.00,M,M,M,M,YBBN 302030Z 00000KT 9999 FEW017 22/19 Q1008
YBBN,2015-01-30 21:00,153.1292,-27.3917,73.40,68.00,83.21,0.00,0.00,0.00,29.77,M,6.21,M,FEW,M,M,M,2200.00,M,M,M,M,YBBN 302100Z 00000KT 9999 FEW022 23/20 Q1008 NOSIG
YBBN,2015-01-30 21:30,153.1292,-27.3917,77.00,66.20,69.33,260.00,2.00,0.00,29.77,M,6.21,M,FEW,M,M,M,2300.00,M,M,M,M,YBBN 302130Z 26002KT 9999 FEW023 25/19 Q1008 RMK SMOKE S/SE
YBBN,2015-01-30 22:00,153.1292,-27.3917,77.00,68.00,73.78,360.00,5.00,0.00,29.77,M,6.21,M,FEW,M,M,M,2400.00,M,M,M,M,YBBN 302200Z 36005KT 9999 FEW024 25/20 Q1008 NOSIG
YBBN,2015-01-30 22:30,153.1292,-27.3917,78.80,66.20,65.33,360.00,6.00,0.00,29.77,M,6.21,M,FEW,M,M,M,2500.00,M,M,M,M,YBBN 302230Z 36006KT 9999 FEW025 26/19 Q1008
YBBN,2015-01-30 23:00,153.1292,-27.3917,78.80,68.00,69.52,360.00,7.00,0.00,29.77,M,6.21,M,FEW,M,M,M,2600.00,M,M,M,M,YBBN 302300Z 36007KT 9999 FEW026 26/20 Q1008
YBBN,2015-01-30 23:30,153.1292,-27.3917,78.80,66.20,65.33,10.00,8.00,0.00,29.77,M,6.21,M,FEW,M,M,M,2700.00,M,M,M,M,YBBN 302330Z 01008KT 9999 FEW027 26/19 Q1008
