#DEBUG: Format Typ    -> comma
#DEBUG: Time Period   -> 2013-10-04 00:00:00+00:00 2013-10-05 00:00:00+00:00
#DEBUG: Time Zone     -> Etc/UTC
#DEBUG: Data Contact   -> daryl herzmann akrherz@iastate.edu 515-294-5978
#DEBUG: Entries Found -> -1
station,valid,lon,lat,tmpf, dwpf, relh, drct, sknt, p01i, alti, mslp, vsby, gust, skyc1, skyc2, skyc3, skyc4, skyl1, skyl2, skyl3, skyl4, presentwx, metar
YBBN,2013-10-04 00:00,153.1292,-27.3917,68.00,37.40,32.43,200.00,8.00,0.00,30.09,M,6.21,M,M,M,M,M,M,M,M,M,M,YBBN 040000Z 20008KT CAVOK 20/03 Q1019 NOSIG
YBBN,2013-10-04 00:30,153.1292,-27.3917,71.60,37.40,28.68,180.00,7.00,0.00,30.09,M,6.21,M,FEW,M,M,M,4000.00,M,M,M,M,YBBN 040030Z 18007KT 9999 FEW040 22/03 Q1019
YBBN,2013-10-04 01:00,153.1292,-27.3917,71.60,35.60,26.71,150.00,6.00,0.00,30.09,M,6.21,M,FEW,M,M,M,4000.00,M,M,M,M,YBBN 040100Z 15006KT 9999 FEW040 22/02 Q1019 NOSIG
YBBN,2013-10-04 01:30,153.1292,-27.3917,71.60,41.00,33.00,80.00,9.00,0.00,30.06,M,6.21,M,FEW,M,M,M,3700.00,M,M,M,M,YBBN 040130Z 08009KT 9999 FEW037 22/05 Q1018
YBBN,2013-10-04 02:00,153.1292,-27.3917,69.80,41.00,35.09,80.00,10.00,0.00,30.06,M,6.21,M,FEW,M,M,M,3500.00,M,M,M,M,YBBN 040200Z 08010KT 9999 FEW035 21/05 Q1018 NOSIG
YBBN,2013-10-04 02:30,153.1292,-27.3917,71.60,41.00,33.00,80.00,11.00,0.00,30.03,M,6.21,M,FEW,M,M,M,3500.00,M,M,M,M,YBBN 040230Z 08011KT 9999 FEW035 22/05 Q1017
YBBN,2013-10-04 03:00,153.1292,-27.3917,71.60,41.00,33.00,80.00,9.00,0.00,30.03,M,6.21,M,FEW,M,M,M,3500.00,M,M,M,M,YBBN 040300Z 08009KT 9999 FEW035 22/05 Q1017
YBBN,2013-10-04 03:30,153.1292,-27.3917,71.60,39.20,30.77,80.00,9.00,0.00,30.03,M,6.21,M,FEW,M,M,M,4000.00,M,M,M,M,YBBN 040330Z 08009KT 9999 FEW040 22/04 Q1017
YBBN,2013-10-04 04:00,153.1292,-27.3917,71.60,41.00,33.00,110.00,10.00,0.00,30.03,M,6.21,M,FEW,M,M,M,4000.00,M,M,M,M,YBBN 040400Z 11010KT 9999 FEW040 22/05 Q1017 NOSIG
YBBN,2013-10-04 04:30,153.1292,-27.3917,71.60,41.00,33.00,90.00,9.00,0.00,30.03,M,6.21,M,M,M,M,M,M,M,M,M,M,YBBN 040430Z 09009KT CAVOK 22/05 Q1017
YBBN,2013-10-04 05:00,153.1292,-27.3917,69.80,39.20,32.72,120.00,8.00,0.00,30.03,M,6.21,M,FEW,M,M,M,4500.00,M,M,M,M,YBBN 040500Z 12008KT 9999 FEW045 21/04 Q1017 NOSIG
YBBN,2013-10-04 05:30,153.1292,-27.3917,71.60,44.60,37.89,110.00,9.00,0.00,30.03,M,6.21,M,FEW,M,M,M,4500.00,M,M,M,M,YBBN 040530Z 11009KT 9999 FEW045 22/07 Q1017
YBBN,2013-10-04 06:00,153.1292,-27.3917,69.80,44.60,40.29,110.00,11.00,0.00,30.03,M,6.21,M,M,M,M,M,M,M,M,M,M,YBBN 040600Z 11011KT CAVOK 21/07 Q1017
YBBN,2013-10-04 06:30,153.1292,-27.3917,68.00,46.40,45.88,100.00,10.00,0.00,30.03,M,6.21,M,M,M,M,M,M,M,M,M,M,YBBN 040630Z 10010KT CAVOK 20/08 Q1017
YBBN,2013-10-04 07:00,153.1292,-27.3917,68.00,46.40,45.88,120.00,8.00,0.00,30.03,M,6.21,M,M,M,M,M,M,M,M,M,M,YBBN 040700Z 12008KT CAVOK 20/08 Q1017
YBBN,2013-10-04 07:30,153.1292,-27.3917,66.20,48.20,52.25,110.00,7.00,0.00,30.03,M,6.21,M,M,M,M,M,M,M,M,M,M,YBBN 040730Z 11007KT CAVOK 19/09 Q1017
YBBN,2013-10-04 08:00,153.1292,-27.3917,66.20,48.20,52.25,120.00,9.00,0.00,30.03,M,6.21,M,M,M,M,M,M,M,M,M,M,YBBN 040800Z 12009KT CAVOK 19/09 Q1017 NOSIG
YBBN,2013-10-04 08:30,153.1292,-27.3917,66.20,50.00,55.88,120.00,9.00,0.00,30.06,M,6.21,M,M,M,M,M,M,M,M,M,M,YBBN 040830Z 12009KT CAVOK 19/10 Q1018
YBBN,2013-10-04 09:00,153.1292,-27.3917,66.20,48.20,52.25,140.00,8.00,0.00,30.06,M,6.21,M,M,M,M,M,M,M,M,M,M,YBBN 040900Z 14008KT CAVOK 19/09 Q1018
YBBN,2013-10-04 09:30,153.1292,-27.3917,66.20,50.00,55.88,140.00,7.00,0.00,30.06,M,6.21,M,M,M,M,M,M,M,M,M,M,YBBN 040930Z 14007KT CAVOK 19/10 Q1018
YBBN,2013-10-04 10:00,153.1292,-27.3917,64.40,50.00,59.50,140.00,8.00,0.00,30.06,M,6.21,M,M,M,M,M,M,M,M,M,M,YBBN 041000Z 14008KT CAVOK 18/10 Q1018 FM1200 22005KT CAVOK
YBBN,2013-10-04 10:30,153.1292,-27.3917,64.40,50.00,59.50,140.00,6.00,0.00,30.09,M,6.21,M,M,M,M,M,M,M,M,M,M,YBBN 041030Z 14006KT CAVOK 18/10 Q1019
YBBN,2013-10-04 11:00,153.1292,-27.3917,64.40,50.00,59.50,150.00,5.00,0.00,30.09,M,6.21,M,M,M,M,M,M,M,M,M,M,YBBN 041100Z 15005KT CAVOK 18/10 Q1019 FM1200 22005KT CAVOK
YBBN,2013-10-04 11:30,153.1292,-27.3917,59.00,51.80,76.98,170.00,5.00,0.00,30.09,M,6.21,M,M,M,M,M,M,M,M,M,M,YBBN 041130Z 17005KT CAVOK 15/11 Q1019
YBBN,2013-10-04 12:00,153.1292,-27.3917,62.60,50.00,63.38,160.00,5.00,0.00,30.09,M,6.21,M,M,M,M,M,M,M,M,M,M,YBBN 041200Z 16005KT CAVOK 17/10 Q1019
YBBN,2013-10-04 12:30,153.1292,-27.3917,62.60,50.00,63.38,170.00,5.00,0.00,30.09,M,6.21,M,M,M,M,M,M,M,M,M,M,YBBN 041230Z 17005KT CAVOK 17/10 Q1019
YBBN,2013-10-04 13:00,153.1292,-27.3917,60.80,48.20,63.15,150.00,4.00,0.00,30.09,M,6.21,M,M,M,M,M,M,M,M,M,M,YBBN 041300Z 15004KT CAVOK 16/09 Q1019
YBBN,2013-10-04 13:30,153.1292,-27.3917,60.80,48.20,63.15,180.00,5.00,0.00,30.09,M,6.21,M,M,M,M,M,M,M,M,M,M,YBBN 041330Z 18005KT CAVOK 16/09 Q1019
YBBN,2013-10-04 14:00,153.1292,-27.3917,57.20,48.20,71.83,200.00,6.00,0.00,30.09,M,6.21,M,M,M,M,M,M,M,M,M,M,YBBN 041400Z 20006KT CAVOK 14/09 Q1019 NOSIG
YBBN,2013-10-04 14:30,153.1292,-27.3917,57.20,48.20,71.83,210.00,6.00,0.00,30.09,M,6.21,M,M,M,M,M,M,M,M,M,M,YBBN 041430Z 21006KT CAVOK 14/09 Q1019
YBBN,2013-10-04 15:00,153.1292,-27.3917,57.20,48.20,71.83,220.00,6.00,0.00,30.06,M,6.21,M,M,M,M,M,M,M,M,M,M,YBBN 041500Z 22006KT CAVOK 14/09 Q1018 NOSIG
YBBN,2013-10-04 15:30,153.1292,-27.3917,57.20,48.20,71.83,220.00,6.00,0.00,30.06,M,6.21,M,M,M,M,M,M,M,M,M,M,YBBN 041530Z 22006KT CAVOK 14/09 Q1018
YBBN,2013-10-04 16:00,153.1292,-27.3917,57.20,48.20,71.83,210.00,6.00,0.00,30.06,M,6.21,M,M,M,M,M,M,M,M,M,M,YBBN 041600Z 21006KT CAVOK 14/09 Q1018 NOSIG
YBBN,2013-10-04 16:30,153.1292,-27.3917,57.20,48.20,71.83,210.00,5.00,0.00,30.06,M,6.21,M,M,M,M,M,M,M,M,M,M,YBBN 041630Z 21005KT CAVOK 14/09 Q1018
YBBN,2013-10-04 17:00,153.1292,-27.3917,57.20,50.00,76.82,210.00,6.00,0.00,30.06,M,6.21,M,M,M,M,M,M,M,M,M,M,YBBN 041700Z 21006KT CAVOK 14/10 Q1018
YBBN,2013-10-04 17:30,153.1292,-27.3917,55.40,50.00,81.99,210.00,7.00,0.00,30.06,M,6.21,M,M,M,M,M,M,M,M,M,M,YBBN 041730Z 21007KT CAVOK 13/10 Q1018
YBBN,2013-10-04 18:00,153.1292,-27.3917,55.40,50.00,81.99,210.00,7.00,0.00,30.06,M,6.21,M,M,M,M,M,M,M,M,M,M,YBBN 041800Z 21007KT CAVOK 13/10 Q1018 NOSIG
YBBN,2013-10-04 18:30,153.1292,-27.3917,55.40,48.20,76.66,210.00,6.00,0.00,30.06,M,6.21,M,M,M,M,M,M,M,M,M,M,YBBN 041830Z 21006KT CAVOK 13/09 Q1018
YBBN,2013-10-04 19:00,153.1292,-27.3917,55.40,50.00,81.99,210.00,7.00,0.00,30.06,M,6.21,M,M,M,M,M,M,M,M,M,M,YBBN 041900Z 21007KT CAVOK 13/10 Q1018 NOSIG
YBBN,2013-10-04 19:30,153.1292,-27.3917,55.40,48.20,76.66,210.00,6.00,0.00,30.06,M,6.21,M,M,M,M,M,M,M,M,M,M,YBBN 041930Z 21006KT CAVOK 13/09 Q1018
YBBN,2013-10-04 20:00,153.1292,-27.3917,55.40,50.00,81.99,250.00,6.00,0.00,30.09,M,6.21,M,M,M,M,M,M,M,M,M,M,YBBN 042000Z 25006KT CAVOK 13/10 Q1019 NOSIG
YBBN,2013-10-04 20:30,153.1292,-27.3917,59.00,50.00,72.01,250.00,7.00,0.00,30.09,M,6.21,M,M,M,M,M,M,M,M,M,M,YBBN 042030Z 25007KT CAVOK 15/10 Q1019
YBBN,2013-10-04 21:00,153.1292,-27.3917,62.60,50.00,63.38,230.00,8.00,0.00,30.09,M,6.21,M,M,M,M,M,M,M,M,M,M,YBBN 042100Z 23008KT CAVOK 17/10 Q1019 NOSIG
YBBN,2013-10-04 21:30,153.1292,-27.3917,64.40,50.00,59.50,220.00,8.00,0.00,30.09,M,6.21,M,M,M,M,M,M,M,M,M,M,YBBN 042130Z 22008KT CAVOK 18/10 Q1019
YBBN,2013-10-04 22:00,153.1292,-27.3917,66.20,50.00,55.88,210.00,9.00,0.00,30.09,M,6.21,M,M,M,M,M,M,M,M,M,M,YBBN 042200Z 21009KT CAVOK 19/10 Q1019
YBBN,2013-10-04 22:30,153.1292,-27.3917,68.00,48.20,49.10,210.00,8.00,0.00,30.09,M,6.21,M,M,M,M,M,M,M,M,M,M,YBBN 042230Z 21008KT CAVOK 20/09 Q1019
YBBN,2013-10-04 23:00,153.1292,-27.3917,69.80,48.20,46.16,260.00,4.00,0.00,30.09,M,6.21,M,M,M,M,M,M,M,M,M,M,YBBN 042300Z 26004KT CAVOK 21/09 Q1019 NOSIG
YBBN,2013-10-04 23:30,153.1292,-27.3917,71.60,46.40,40.57,180.00,4.00,0.00,30.06,M,6.21,M,M,M,M,M,M,M,M,M,M,YBBN 042330Z 18004KT CAVOK 22/08 Q1018
