#DEBUG: Format Typ    -> comma
#DEBUG: Time Period   -> 2015-12-06 00:00:00+00:00 2015-12-07 00:00:00+00:00
#DEBUG: Time Zone     -> Etc/UTC
#DEBUG: Data Contact   -> daryl herzmann akrherz@iastate.edu 515-294-5978
#DEBUG: Entries Found -> -1
station,valid,lon,lat,tmpf, dwpf, relh, drct, sknt, p01i, alti, mslp, vsby, gust, skyc1, skyc2, skyc3, skyc4, skyl1, skyl2, skyl3, skyl4, presentwx, metar
YBBN,2015-12-06 00:00,153.1292,-27.3917,78.80,59.00,50.69,110.00,10.00,0.00,30.06,M,6.21,M,FEW,M,M,M,4000.00,M,M,M,M,YBBN 060000Z 11010KT 9999 FEW040 26/15 Q1018 NOSIG
YBBN,2015-12-06 00:30,153.1292,-27.3917,78.80,57.20,47.52,100.00,10.00,0.00,30.06,M,6.21,M,FEW,M,M,M,4000.00,M,M,M,M,YBBN 060030Z 10010KT 9999 FEW040 26/14 Q1018 NOSIG
YBBN,2015-12-06 01:00,153.1292,-27.3917,78.80,59.00,50.69,110.00,11.00,0.00,30.06,M,6.21,M,FEW,M,M,M,4200.00,M,M,M,M,YBBN 060100Z 11011KT 9999 FEW042 26/15 Q1018
YBBN,2015-12-06 01:30,153.1292,-27.3917,78.80,57.20,47.52,110.00,11.00,0.00,30.03,M,6.21,M,FEW,M,M,M,4300.00,M,M,M,M,YBBN 060130Z 11011KT 9999 FEW043 26/14 Q1017 NOSIG
YBBN,2015-12-06 02:00,153.1292,-27.3917,78.80,55.40,44.52,110.00,12.00,0.00,30.03,M,6.21,M,FEW,M,M,M,4500.00,M,M,M,M,YBBN 060200Z 11012KT 9999 FEW045 26/13 Q1017
YBBN,2015-12-06 02:30,153.1292,-27.3917,80.60,57.20,44.80,110.00,12.00,0.00,30.03,M,6.21,M,FEW,M,M,M,4700.00,M,M,M,M,YBBN 060230Z 11012KT 9999 FEW047 27/14 Q1017
YBBN,2015-12-06 03:00,153.1292,-27.3917,78.80,55.40,44.52,120.00,11.00,0.00,30.03,M,6.21,M,FEW,M,M,M,4500.00,M,M,M,M,YBBN 060300Z 12011KT 9999 FEW045 26/13 Q1017 NOSIG
YBBN,2015-12-06 03:30,153.1292,-27.3917,78.80,55.40,44.52,80.00,13.00,0.00,30.00,M,6.21,M,FEW,M,M,M,4500.00,M,M,M,M,YBBN 060330Z 08013KT 9999 FEW045 26/13 Q1016 NOSIG
YBBN,2015-12-06 04:00,153.1292,-27.3917,80.60,55.40,41.97,100.00,10.00,0.00,30.00,M,6.21,M,FEW,M,M,M,4500.00,M,M,M,M,YBBN 060400Z 10010KT 9999 FEW045 27/13 Q1016
YBBN,2015-12-06 04:30,153.1292,-27.3917,78.80,55.40,44.52,110.00,12.00,0.00,30.00,M,6.21,M,FEW,M,M,M,4800.00,M,M,M,M,YBBN 060430Z 11012KT 9999 FEW048 26/13 Q1016 NOSIG
YBBN,2015-12-06 05:00,153.1292,-27.3917,78.80,55.40,44.52,100.00,11.00,0.00,30.00,M,6.21,M,M,M,M,M,M,M,M,M,M,YBBN 060500Z 10011KT CAVOK 26/13 Q1016 NOSIG
YBBN,2015-12-06 05:30,153.1292,-27.3917,78.80,57.20,47.52,90.00,10.00,0.00,30.00,M,6.21,M,FEW,M,M,M,4800.00,M,M,M,M,YBBN 060530Z 09010KT 9999 FEW048 26/14 Q1016 NOSIG
YBBN,2015-12-06 06:00,153.1292,-27.3917,77.00,57.20,50.43,120.00,10.00,0.00,30.00,M,6.21,M,FEW,M,M,M,4500.00,M,M,M,M,YBBN 060600Z 12010KT 9999 FEW045 25/14 Q1016 NOSIG
YBBN,2015-12-06 06:30,153.1292,-27.3917,77.00,59.00,53.80,120.00,10.00,0.00,30.00,M,6.21,M,FEW,M,M,M,4200.00,M,M,M,M,YBBN 060630Z 12010KT 9999 FEW042 25/15 Q1016 NOSIG
YBBN,2015-12-06 07:00,153.1292,-27.3917,75.20,59.00,57.12,130.00,11.00,0.00,30.03,M,6.21,M,FEW,M,M,M,3500.00,M,M,M,M,YBBN 060700Z 13011KT 9999 FEW035 24/15 Q1017 NOSIG
YBBN,2015-12-06 07:30,153.1292,-27.3917,75.20,60.80,60.90,120.00,9.00,0.00,30.03,M,6.21,M,FEW,M,M,M,3200.00,M,M,M,M,YBBN 060730Z 12009KT 9999 FEW032 24/16 Q1017 NOSIG
YBBN,2015-12-06 08:00,153.1292,-27.3917,75.20,60.80,60.90,120.00,9.00,0.00,30.03,M,6.21,M,FEW,M,M,M,2800.00,M,M,M,M,YBBN 060800Z 12009KT 9999 FEW028 24/16 Q1017
YBBN,2015-12-06 08:30,153.1292,-27.3917,75.20,60.80,60.90,120.00,8.00,0.00,30.06,M,6.21,M,FEW,M,M,M,2800.00,M,M,M,M,YBBN 060830Z 12008KT 9999 FEW028 24/16 Q1018 NOSIG
YBBN,2015-12-06 09:00,153.1292,-27.3917,73.40,62.60,68.94,130.00,8.00,0.00,30.06,M,6.21,M,FEW,M,M,M,2700.00,M,M,M,M,YBBN 060900Z 13008KT 9999 FEW027 23/17 Q1018 NOSIG
YBBN,2015-12-06 09:30,153.1292,-27.3917,73.40,62.60,68.94,100.00,7.00,0.00,30.06,M,6.21,M,FEW,M,M,M,2600.00,M,M,M,M,YBBN 060930Z 10007KT 9999 FEW026 23/17 Q1018 NOSIG
YBBN,2015-12-06 10:00,153.1292,-27.3917,73.40,62.60,68.94,100.00,7.00,0.00,30.06,M,6.21,M,FEW,M,M,M,2200.00,M,M,M,M,YBBN 061000Z 10007KT 9999 FEW022 23/17 Q1018
YBBN,2015-12-06 13:00,153.1292,-27.3917,73.40,60.80,64.69,110.00,6.00,0.00,30.09,M,6.21,M,FEW,M,M,M,2500.00,M,M,M,M,YBBN 061300Z 11006KT 9999 FEW025 23/16 Q1019
YBBN,2015-12-06 14:00,153.1292,-27.3917,68.00,62.60,82.86,200.00,5.00,0.00,30.06,M,6.21,M,FEW,M,M,M,2500.00,M,M,M,M,YBBN 061400Z 20005KT 9999 FEW025 20/17 Q1018 NOSIG
YBBN,2015-12-06 14:30,153.1292,-27.3917,68.00,60.80,77.75,200.00,4.00,0.00,30.06,M,6.21,M,FEW,M,M,M,2500.00,M,M,M,M,YBBN 061430Z 20004KT 9999 FEW025 20/16 Q1018 NOSIG
YBBN,2015-12-06 15:00,153.1292,-27.3917,68.00,60.80,77.75,200.00,5.00,0.00,30.06,M,6.21,M,FEW,M,M,M,3200.00,M,M,M,M,YBBN 061500Z 20005KT 9999 FEW032 20/16 Q1018 NOSIG
YBBN,2015-12-06 15:30,153.1292,-27.3917,68.00,60.80,77.75,190.00,6.00,0.00,30.06,M,6.21,M,FEW,M,M,M,3200.00,M,M,M,M,YBBN 061530Z 19006KT 9999 FEW032 20/16 Q1018
YBBN,2015-12-06 16:00,153.1292,-27.3917,66.20,60.80,82.74,190.00,5.00,0.00,30.03,M,6.21,M,FEW,M,M,M,2600.00,M,M,M,M,YBBN 061600Z 19005KT 9999 FEW026 19/16 Q1017 NOSIG
YBBN,2015-12-06 16:30,153.1292,-27.3917,66.20,60.80,82.74,200.00,5.00,0.00,30.03,M,6.21,M,FEW,M,M,M,2600.00,M,M,M,M,YBBN 061630Z 20005KT 9999 FEW026 19/16 Q1017 NOSIG
YBBN,2015-12-06 17:00,153.1292,-27.3917,64.40,60.80,88.09,210.00,4.00,0.00,30.03,M,6.21,M,FEW,M,M,M,2600.00,M,M,M,M,YBBN 061700Z 21004KT 9999 FEW026 18/16 Q1017 NOSIG
YBBN,2015-12-06 17:30,153.1292,-27.3917,64.40,60.80,88.09,200.00,7.00,0.00,30.03,M,6.21,M,FEW,M,M,M,2600.00,M,M,M,M,YBBN 061730Z 20007KT 9999 FEW026 18/16 Q1017 NOSIG
YBBN,2015-12-06 18:00,153.1292,-27.3917,66.20,60.80,82.74,190.00,6.00,0.00,30.03,M,6.21,M,FEW,M,M,M,2500.00,M,M,M,M,YBBN 061800Z 19006KT 9999 FEW025 19/16 Q1017 NOSIG
YBBN,2015-12-06 18:30,153.1292,-27.3917,64.40,60.80,88.09,210.00,7.00,0.00,30.06,M,6.21,M,FEW,M,M,M,2500.00,M,M,M,M,YBBN 061830Z 21007KT 9999 FEW025 18/16 Q1018 NOSIG
YBBN,2015-12-06 19:00,153.1292,-27.3917,62.60,59.00,88.00,210.00,6.00,0.00,30.06,M,6.21,M,FEW,M,M,M,2500.00,M,M,M,M,YBBN 061900Z 21006KT 9999 FEW025 17/15 Q1018 NOSIG
YBBN,2015-12-06 19:30,153.1292,-27.3917,64.40,60.80,88.09,200.00,7.00,0.00,30.06,M,6.21,M,FEW,M,M,M,2700.00,M,M,M,M,YBBN 061930Z 20007KT 9999 FEW027 18/16 Q1018 NOSIG
YBBN,2015-12-06 20:00,153.1292,-27.3917,66.20,60.80,82.74,210.00,7.00,0.00,30.09,M,6.21,M,FEW,M,M,M,2700.00,M,M,M,M,YBBN 062000Z 21007KT 9999 FEW027 19/16 Q1019 NOSIG
YBBN,2015-12-06 20:30,153.1292,-27.3917,69.80,59.00,68.55,200.00,7.00,0.00,30.09,M,6.21,M,FEW,M,M,M,2700.00,M,M,M,M,YBBN 062030Z 20007KT 9999 FEW027 21/15 Q1019 NOSIG
YBBN,2015-12-06 21:00,153.1292,-27.3917,73.40,59.00,60.67,190.00,8.00,0.00,30.12,M,6.21,M,FEW,M,M,M,2700.00,M,M,M,M,YBBN 062100Z 19008KT 9999 FEW027 23/15 Q1020 NOSIG
YBBN,2015-12-06 22:30,153.1292,-27.3917,77.00,62.60,61.13,120.00,7.00,0.00,30.12,M,6.21,M,FEW,M,M,M,2800.00,M,M,M,M,YBBN 062230Z 12007KT 9999 FEW028 25/17 Q1020 NOSIG
YBBN,2015-12-06 23:00,153.1292,-27.3917,78.80,62.60,57.60,130.00,8.00,0.00,30.12,M,6.21,M,FEW,M,M,M,3000.00,M,M,M,M,YBBN 062300Z 13008KT 9999 FEW030 26/17 Q1020
