#DEBUG: Format Typ    -> comma
#DEBUG: Time Period   -> 2014-05-23 00:00:00+00:00 2014-05-24 00:00:00+00:00
#DEBUG: Time Zone     -> Etc/UTC
#DEBUG: Data Contact   -> daryl herzmann akrherz@iastate.edu 515-294-5978
#DEBUG: Entries Found -> -1
station,valid,lon,lat,tmpf, dwpf, relh, drct, sknt, p01i, alti, mslp, vsby, gust, skyc1, skyc2, skyc3, skyc4, skyl1, skyl2, skyl3, skyl4, presentwx, metar
YBBN,2014-05-23 00:00,153.1292,-27.3917,75.20,62.60,64.91,10.00,5.00,0.00,30.15,M,6.21,M,FEW,M,M,M,3000.00,M,M,M,M,YBBN 230000Z 01005KT 9999 FEW030 24/17 Q1021
YBBN,2014-05-23 00:30,153.1292,-27.3917,75.20,60.80,60.90,20.00,6.00,0.00,30.15,M,6.21,M,FEW,M,M,M,3000.00,M,M,M,M,YBBN 230030Z 02006KT 9999 FEW030 24/16 Q1021
YBBN,2014-05-23 01:00,153.1292,-27.3917,77.00,62.60,61.13,10.00,6.00,0.00,30.12,M,6.21,M,SCT,M,M,M,3000.00,M,M,M,M,YBBN 230100Z 01006KT 9999 SCT030 25/17 Q1020 NOSIG
YBBN,2014-05-23 01:30,153.1292,-27.3917,77.00,62.60,61.13,30.00,7.00,0.00,30.09,M,6.21,M,FEW,M,M,M,2800.00,M,M,M,M,YBBN 230130Z 03007KT 9999 FEW028 25/17 Q1019
YBBN,2014-05-23 02:00,153.1292,-27.3917,75.20,60.80,60.90,40.00,7.00,0.00,30.09,M,6.21,M,FEW,M,M,M,2800.00,M,M,M,M,YBBN 230200Z 04007KT 9999 FEW028 24/16 Q1019
YBBN,2014-05-23 02:30,153.1292,-27.3917,77.00,60.80,57.36,30.00,7.00,0.00,30.06,M,6.21,M,FEW,M,M,M,2000.00,M,M,M,M,YBBN 230230Z 03007KT 9999 FEW020 25/16 Q1018 RMK SHOWERS APPROACHING FROM NE
YBBN,2014-05-23 03:00,153.1292,-27.3917,75.20,60.80,60.90,20.00,6.00,0.00,30.06,M,6.21,M,FEW,BKN,M,M,1800.00,5500.00,M,M,VCSH,YBBN 230300Z 02006KT 9999 VCSH FEW018 BKN055 24/16 Q1018
YBBN,2014-05-23 03:30,153.1292,-27.3917,73.40,62.60,68.94,20.00,16.00,0.00,30.03,M,6.21,M,FEW,SCT,M,M,1600.00,2800.00,M,M,-SHRA,YBBN 230330Z 02016KT 9999 -SHRA FEW016 SCT028 23/17 Q1017
YBBN,2014-05-23 04:00,153.1292,-27.3917,71.60,60.80,68.75,50.00,8.00,0.00,30.03,M,6.21,M,FEW,SCT,M,M,2800.00,6000.00,M,M,VCSH,YBBN 230400Z 05008KT 9999 VCSH FEW028 SCT060 22/16 Q1017 NOSIG
YBBN,2014-05-23 04:30,153.1292,-27.3917,73.40,59.00,60.67,50.00,8.00,0.00,30.03,M,6.21,M,FEW,SCT,M,M,2800.00,6000.00,M,M,M,YBBN 230430Z 05008KT 9999 FEW028 SCT060 23/15 Q1017
YBBN,2014-05-23 05:00,153.1292,-27.3917,73.40,60.80,64.69,40.00,8.00,0.00,30.00,M,6.21,M,FEW,SCT,M,M,2800.00,6000.00,M,M,M,YBBN 230500Z 04008KT 9999 FEW028 SCT060 23/16 Q1016 NOSIG
YBBN,2014-05-23 05:30,153.1292,-27.3917,71.60,62.60,73.27,30.00,7.00,0.00,30.00,M,6.21,M,FEW,M,M,M,2800.00,M,M,M,M,YBBN 230530Z 03007KT 9999 FEW028 22/17 Q1016
YBBN,2014-05-23 06:00,153.1292,-27.3917,71.60,62.60,73.27,40.00,6.00,0.00,30.00,M,6.21,M,FEW,M,M,M,2800.00,M,M,M,M,YBBN 230600Z 04006KT 9999 FEW028 22/17 Q1016 NOSIG
YBBN,2014-05-23 06:30,153.1292,-27.3917,69.80,62.60,77.90,50.00,6.00,0.00,30.00,M,6.21,M,FEW,SCT,M,M,2800.00,14000.00,M,M,M,YBBN 230630Z 05006KT 9999 FEW028 SCT140 21/17 Q1016
YBBN,2014-05-23 07:00,153.1292,-27.3917,69.80,62.60,77.90,80.00,2.00,0.00,30.00,M,6.21,M,FEW,SCT,M,M,2800.00,14000.00,M,M,M,YBBN 230700Z 08002KT 9999 FEW028 SCT140 21/17 Q1016
YBBN,2014-05-23 07:30,153.1292,-27.3917,68.00,64.40,88.26,90.00,4.00,0.00,30.00,M,6.21,M,FEW,SCT,M,M,2800.00,13000.00,M,M,M,YBBN 230730Z 09004KT 9999 FEW028 SCT130 20/18 Q1016
YBBN,2014-05-23 08:00,153.1292,-27.3917,68.00,62.60,82.86,90.00,5.00,0.00,30.00,M,6.21,M,FEW,SCT,M,M,2800.00,12000.00,M,M,M,YBBN 230800Z 09005KT 9999 FEW028 SCT120 20/17 Q1016
YBBN,2014-05-23 08:30,153.1292,-27.3917,68.00,64.40,88.26,80.00,4.00,0.00,30.03,M,6.21,M,M,M,M,M,M,M,M,M,M,YBBN 230830Z 08004KT CAVOK 20/18 Q1017 RMK 5AC120
YBBN,2014-05-23 09:00,153.1292,-27.3917,69.80,64.40,82.98,60.00,4.00,0.00,30.03,M,6.21,M,M,M,M,M,M,M,M,M,M,YBBN 230900Z 06004KT CAVOK 21/18 Q1017
YBBN,2014-05-23 09:30,153.1292,-27.3917,68.00,64.40,88.26,40.00,4.00,0.00,30.03,M,6.21,M,M,M,M,M,M,M,M,M,M,YBBN 230930Z 04004KT CAVOK 20/18 Q1017
YBBN,2014-05-23 10:00,153.1292,-27.3917,66.20,62.60,88.18,30.00,5.00,0.00,30.03,M,6.21,M,M,M,M,M,M,M,M,M,M,YBBN 231000Z 03005KT CAVOK 19/17 Q1017 INTER 1200/1300 3000 SHRA BKN012
YBBN,2014-05-23 10:30,153.1292,-27.3917,66.20,64.40,93.92,20.00,1.00,0.00,30.03,M,6.21,M,M,M,M,M,M,M,M,M,M,YBBN 231030Z 02001KT CAVOK 19/18 Q1017
YBBN,2014-05-23 11:00,153.1292,-27.3917,66.20,64.40,93.92,330.00,4.00,0.00,30.06,M,6.21,M,FEW,M,M,M,2500.00,M,M,M,M,YBBN 231100Z 33004KT 9999 FEW025 19/18 Q1018
YBBN,2014-05-23 11:30,153.1292,-27.3917,66.20,64.40,93.92,280.00,2.00,0.00,30.06,M,6.21,M,M,M,M,M,M,M,M,M,M,YBBN 231130Z 28002KT CAVOK 19/18 Q1018
YBBN,2014-05-23 12:00,153.1292,-27.3917,64.40,64.40,100.00,0.00,0.00,0.00,30.06,M,6.21,M,FEW,M,M,M,2500.00,M,M,M,M,YBBN 231200Z 00000KT 9999 FEW025 18/18 Q1018 INTER 1300/1500 3000 SHRA BKN012
YBBN,2014-05-23 12:30,153.1292,-27.3917,64.40,62.60,93.88,230.00,3.00,0.00,30.06,M,6.21,M,FEW,SCT,M,M,2500.00,12000.00,M,M,M,YBBN 231230Z 23003KT 9999 FEW025 SCT120 18/17 Q1018
YBBN,2014-05-23 13:00,153.1292,-27.3917,64.40,64.40,100.00,0.00,0.00,0.00,30.03,M,6.21,M,FEW,BKN,M,M,2500.00,12000.00,M,M,M,YBBN 231300Z 00000KT 9999 FEW025 BKN120 18/18 Q1017
YBBN,2014-05-23 13:30,153.1292,-27.3917,66.20,64.40,93.92,0.00,0.00,0.00,30.03,M,6.21,M,M,M,M,M,M,M,M,M,M,YBBN 231330Z 00000KT CAVOK 19/18 Q1017 RMK 6AC120
YBBN,2014-05-23 14:00,153.1292,-27.3917,66.20,64.40,93.92,280.00,4.00,0.00,30.03,M,6.21,M,M,M,M,M,M,M,M,M,M,YBBN 231400Z 28004KT CAVOK 19/18 Q1017
YBBN,2014-05-23 14:30,153.1292,-27.3917,64.40,62.60,93.88,210.00,3.00,0.00,30.03,M,6.21,M,M,M,M,M,M,M,M,M,M,YBBN 231430Z 21003KT CAVOK 18/17 Q1017 RMK 5AC120
YBBN,2014-05-23 15:00,153.1292,-27.3917,64.40,64.40,100.00,0.00,0.00,0.00,30.03,M,6.21,M,FEW,SCT,BKN,M,4500.00,9400.00,12000.00,M,VCSH,YBBN 231500Z 00000KT 9999 VCSH FEW045 SCT094 BKN120 18/18 Q1017
YBBN,2014-05-23 15:30,153.1292,-27.3917,66.20,64.40,93.92,240.00,3.00,0.00,30.00,M,6.21,M,FEW,SCT,M,M,4000.00,4500.00,M,M,VCSH,YBBN 231530Z 24003KT 9999 VCSH FEW040 SCT045 19/18 Q1016
YBBN,2014-05-23 16:00,153.1292,-27.3917,66.20,62.60,88.18,0.00,0.00,0.00,30.00,M,6.21,M,FEW,BKN,M,M,4000.00,21000.00,M,M,M,YBBN 231600Z 00000KT 9999 FEW040 BKN210 19/17 Q1016
YBBN,2014-05-23 16:30,153.1292,-27.3917,64.40,62.60,93.88,0.00,0.00,0.00,30.00,M,6.21,M,M,M,M,M,M,M,M,M,M,YBBN 231630Z 00000KT CAVOK 18/17 Q1016
YBBN,2014-05-23 17:00,153.1292,-27.3917,64.40,62.60,93.88,0.00,0.00,0.00,30.00,M,6.21,M,M,M,M,M,M,M,M,M,M,YBBN 231700Z 00000KT CAVOK 18/17 Q1016
YBBN,2014-05-23 17:30,153.1292,-27.3917,62.60,62.60,100.00,0.00,0.00,0.00,30.00,M,6.21,M,FEW,SCT,M,M,4000.00,24000.00,M,M,M,YBBN 231730Z 00000KT 9999 FEW040 SCT240 17/17 Q1016 RMK HZ
YBBN,2014-05-23 18:00,153.1292,-27.3917,62.60,62.60,100.00,200.00,4.00,0.00,29.97,M,6.21,M,FEW,M,M,M,4000.00,M,M,M,MIFG,YBBN 231800Z 20004KT 9999 MIFG FEW040 17/17 Q1015
YBBN,2014-05-23 18:30,153.1292,-27.3917,62.60,62.60,100.00,200.00,5.00,0.00,29.97,M,6.21,M,FEW,M,M,M,4000.00,M,M,M,MIFG,YBBN 231830Z 20005KT 9999 MIFG FEW040 17/17 Q1015
YBBN,2014-05-23 19:00,153.1292,-27.3917,64.40,62.60,93.88,200.00,4.00,0.00,29.97,M,6.21,M,M,M,M,M,M,M,M,M,M,YBBN 231900Z 20004KT CAVOK 18/17 Q1015
YBBN,2014-05-23 19:30,153.1292,-27.3917,62.60,60.80,93.83,200.00,4.00,0.00,30.00,M,6.21,M,FEW,M,M,M,5000.00,M,M,M,MIFG,YBBN 231930Z 20004KT 9999 MIFG FEW050 17/16 Q1016
YBBN,2014-05-23 20:00,153.1292,-27.3917,62.60,62.60,100.00,0.00,0.00,0.00,30.00,M,6.21,M,FEW,M,M,M,5000.00,M,M,M,MIFG,YBBN 232000Z 00000KT 9999 MIFG FEW050 17/17 Q1016
YBBN,2014-05-23 20:30,153.1292,-27.3917,62.60,60.80,93.83,250.00,1.00,0.00,30.00,M,6.21,M,FEW,M,M,M,3800.00,M,M,M,MIFG,YBBN 232030Z 25001KT 9999 MIFG FEW038 17/16 Q1016
YBBN,2014-05-23 21:00,153.1292,-27.3917,62.60,62.60,100.00,0.00,0.00,0.00,30.03,M,6.21,M,FEW,M,M,M,3800.00,M,M,M,MIFG,YBBN 232100Z 00000KT 9999 MIFG FEW038 17/17 Q1017
YBBN,2014-05-23 21:30,153.1292,-27.3917,62.60,62.60,100.00,230.00,2.00,0.00,30.03,M,6.21,M,FEW,SCT,M,M,3800.00,8500.00,M,M,M,YBBN 232130Z 23002KT 9999 FEW038 SCT085 17/17 Q1017
YBBN,2014-05-23 22:00,153.1292,-27.3917,66.20,64.40,93.92,220.00,4.00,0.00,30.03,M,6.21,M,FEW,SCT,M,M,4000.00,8500.00,M,M,M,YBBN 232200Z 22004KT 9999 FEW040 SCT085 19/18 Q1017
YBBN,2014-05-23 22:30,153.1292,-27.3917,68.00,64.40,88.26,0.00,0.00,0.00,30.03,M,6.21,M,FEW,M,M,M,2000.00,M,M,M,M,YBBN 232230Z 00000KT 9999 FEW020 20/18 Q1017
YBBN,2014-05-23 23:00,153.1292,-27.3917,71.60,62.60,73.27,280.00,3.00,0.00,30.03,M,6.21,M,FEW,M,M,M,2000.00,M,M,M,M,YBBN 232300Z 28003KT 9999 FEW020 22/17 Q1017 NOSIG
YBBN,2014-05-23 23:30,153.1292,-27.3917,73.40,62.60,68.94,220.00,8.00,0.00,30.03,M,6.21,M,FEW,M,M,M,2500.00,M,M,M,M,YBBN 232330Z 22008KT 9999 FEW025 23/17 Q1017
