#DEBUG: Format Typ    -> comma
#DEBUG: Time Period   -> 2014-04-02 00:00:00+00:00 2014-04-03 00:00:00+00:00
#DEBUG: Time Zone     -> Etc/UTC
#DEBUG: Data Contact   -> daryl herzmann akrherz@iastate.edu 515-294-5978
#DEBUG: Entries Found -> -1
station,valid,lon,lat,tmpf, dwpf, relh, drct, sknt, p01i, alti, mslp, vsby, gust, skyc1, skyc2, skyc3, skyc4, skyl1, skyl2, skyl3, skyl4, presentwx, metar
YBBN,2014-04-02 00:00,153.1292,-27.3917,78.80,64.40,61.36,90.00,7.00,0.00,30.03,M,6.21,M,SCT,M,M,M,2800.00,M,M,M,M,YBBN 020000Z 09007KT 9999 SCT028 26/18 Q1017 NOSIG
YBBN,2014-04-02 00:30,153.1292,-27.3917,78.80,64.40,61.36,100.00,7.00,0.00,30.03,M,6.21,M,SCT,M,M,M,3000.00,M,M,M,M,YBBN 020030Z 10007KT 9999 SCT030 26/18 Q1017
YBBN,2014-04-02 01:00,153.1292,-27.3917,80.60,64.40,57.84,110.00,7.00,0.00,30.03,M,6.21,M,SCT,M,M,M,3000.00,M,M,M,M,YBBN 020100Z 11007KT 9999 SCT030 27/18 Q1017 NOSIG
YBBN,2014-04-02 01:30,153.1292,-27.3917,80.60,62.60,54.30,70.00,9.00,0.00,30.00,M,6.21,M,SCT,M,M,M,3200.00,M,M,M,M,YBBN 020130Z 07009KT 9999 SCT032 27/17 Q1016
YBBN,2014-04-02 02:00,153.1292,-27.3917,80.60,62.60,54.30,70.00,8.00,0.00,30.00,M,6.21,M,SCT,M,M,M,3300.00,M,M,M,M,YBBN 020200Z 07008KT 9999 SCT033 27/17 Q1016 NOSIG
YBBN,2014-04-02 02:30,153.1292,-27.3917,80.60,62.60,54.30,70.00,9.00,0.00,29.97,M,6.21,M,SCT,M,M,M,3500.00,M,M,M,M,YBBN 020230Z 07009KT 9999 SCT035 27/17 Q1015
YBBN,2014-04-02 03:00,153.1292,-27.3917,80.60,60.80,50.95,80.00,9.00,0.00,29.97,M,6.21,M,SCT,M,M,M,3500.00,M,M,M,M,YBBN 020300Z 08009KT 9999 SCT035 27/16 Q1015 NOSIG
YBBN,2014-04-02 03:30,153.1292,-27.3917,80.60,62.60,54.30,90.00,8.00,0.00,29.97,M,6.21,M,SCT,M,M,M,3500.00,M,M,M,M,YBBN 020330Z 09008KT 9999 SCT035 27/17 Q1015
YBBN,2014-04-02 04:00,153.1292,-27.3917,80.60,62.60,54.30,80.00,8.00,0.00,29.97,M,6.21,M,FEW,M,M,M,3500.00,M,M,M,M,YBBN 020400Z 08008KT 9999 FEW035 27/17 Q1015 NOSIG
YBBN,2014-04-02 04:30,153.1292,-27.3917,80.60,62.60,54.30,70.00,9.00,0.00,29.97,M,6.21,M,FEW,M,M,M,3500.00,M,M,M,M,YBBN 020430Z 07009KT 9999 FEW035 27/17 Q1015
YBBN,2014-04-02 05:00,153.1292,-27.3917,80.60,62.60,54.30,90.00,8.00,0.00,29.94,M,6.21,M,FEW,M,M,M,3500.00,M,M,M,M,YBBN 020500Z 09008KT 9999 FEW035 27/17 Q1014
YBBN,2014-04-02 05:30,153.1292,-27.3917,78.80,62.60,57.60,80.00,9.00,0.00,29.94,M,6.21,M,FEW,M,M,M,3500.00,M,M,M,M,YBBN 020530Z 08009KT 9999 FEW035 26/17 Q1014
YBBN,2014-04-02 06:00,153.1292,-27.3917,78.80,64.40,61.36,60.00,10.00,0.00,29.94,M,6.21,M,FEW,M,M,M,3500.00,M,M,M,M,YBBN 020600Z 06010KT 9999 FEW035 26/18 Q1014
YBBN,2014-04-02 06:30,153.1292,-27.3917,78.80,64.40,61.36,60.00,10.00,0.00,29.94,M,6.21,M,FEW,M,M,M,3000.00,M,M,M,M,YBBN 020630Z 06010KT 9999 FEW030 26/18 Q1014
YBBN,2014-04-02 07:00,153.1292,-27.3917,77.00,64.40,65.12,60.00,10.00,0.00,29.94,M,6.21,M,FEW,M,M,M,3000.00,M,M,M,M,YBBN 020700Z 06010KT 9999 FEW030 25/18 Q1014
YBBN,2014-04-02 07:30,153.1292,-27.3917,75.20,64.40,69.14,70.00,9.00,0.00,29.94,M,6.21,M,FEW,M,M,M,3000.00,M,M,M,M,YBBN 020730Z 07009KT 9999 FEW030 24/18 Q1014
YBBN,2014-04-02 08:00,153.1292,-27.3917,75.20,64.40,69.14,70.00,6.00,0.00,29.97,M,6.21,M,FEW,M,M,M,3000.00,M,M,M,M,YBBN 020800Z 07006KT 9999 FEW030 24/18 Q1015 NOSIG
YBBN,2014-04-02 08:30,153.1292,-27.3917,75.20,64.40,69.14,90.00,5.00,0.00,29.97,M,6.21,M,FEW,M,M,M,2800.00,M,M,M,M,YBBN 020830Z 09005KT 9999 FEW028 24/18 Q1015
YBBN,2014-04-02 09:00,153.1292,-27.3917,75.20,64.40,69.14,80.00,5.00,0.00,30.00,M,6.21,M,FEW,M,M,M,2800.00,M,M,M,M,YBBN 020900Z 08005KT 9999 FEW028 24/18 Q1016 NOSIG
YBBN,2014-04-02 09:30,153.1292,-27.3917,73.40,64.40,73.44,90.00,4.00,0.00,30.00,M,6.21,M,FEW,M,M,M,2800.00,M,M,M,M,YBBN 020930Z 09004KT 9999 FEW028 23/18 Q1016
YBBN,2014-04-02 10:00,153.1292,-27.3917,73.40,64.40,73.44,100.00,5.00,0.00,30.00,M,6.21,M,FEW,M,M,M,2800.00,M,M,M,M,YBBN 021000Z 10005KT 9999 FEW028 23/18 Q1016 NOSIG
YBBN,2014-04-02 10:30,153.1292,-27.3917,73.40,64.40,73.44,90.00,5.00,0.00,30.03,M,6.21,M,FEW,M,M,M,2600.00,M,M,M,M,YBBN 021030Z 09005KT 9999 FEW026 23/18 Q1017
YBBN,2014-04-02 11:00,153.1292,-27.3917,73.40,64.40,73.44,90.00,5.00,0.00,30.03,M,6.21,M,FEW,M,M,M,3000.00,M,M,M,M,YBBN 021100Z 09005KT 9999 FEW030 23/18 Q1017
YBBN,2014-04-02 11:30,153.1292,-27.3917,73.40,64.40,73.44,100.00,4.00,0.00,30.03,M,6.21,M,FEW,M,M,M,3000.00,M,M,M,M,YBBN 021130Z 10004KT 9999 FEW030 23/18 Q1017
YBBN,2014-04-02 12:00,153.1292,-27.3917,73.40,64.40,73.44,110.00,4.00,0.00,30.03,M,6.21,M,FEW,M,M,M,2600.00,M,M,M,M,YBBN 021200Z 11004KT 9999 FEW026 23/18 Q1017
YBBN,2014-04-02 12:30,153.1292,-27.3917,73.40,64.40,73.44,90.00,4.00,0.00,30.03,M,6.21,M,FEW,M,M,M,2600.00,M,M,M,M,YBBN 021230Z 09004KT 9999 FEW026 23/18 Q1017
YBBN,2014-04-02 13:00,153.1292,-27.3917,73.40,64.40,73.44,90.00,4.00,0.00,30.03,M,6.21,M,FEW,M,M,M,2600.00,M,M,M,M,YBBN 021300Z 09004KT 9999 FEW026 23/18 Q1017
YBBN,2014-04-02 13:30,153.1292,-27.3917,73.40,64.40,73.44,90.00,4.00,0.00,30.03,M,6.21,M,FEW,M,M,M,2600.00,M,M,M,M,YBBN 021330Z 09004KT 9999 FEW026 23/18 Q1017
YBBN,2014-04-02 14:00,153.1292,-27.3917,71.60,64.40,78.04,100.00,4.00,0.00,30.03,M,6.21,M,FEW,M,M,M,2500.00,M,M,M,M,YBBN 021400Z 10004KT 9999 FEW025 22/18 Q1017
YBBN,2014-04-02 14:30,153.1292,-27.3917,69.80,64.40,82.98,130.00,3.00,0.00,30.00,M,6.21,M,FEW,M,M,M,2500.00,M,M,M,M,YBBN 021430Z 13003KT 9999 FEW025 21/18 Q1016
YBBN,2014-04-02 15:00,153.1292,-27.3917,69.80,64.40,82.98,200.00,5.00,0.00,30.00,M,6.21,M,FEW,M,M,M,2500.00,M,M,M,M,YBBN 021500Z 20005KT 9999 FEW025 21/18 Q1016
YBBN,2014-04-02 15:30,153.1292,-27.3917,68.00,64.40,88.26,210.00,1.00,0.00,30.00,M,6.21,M,FEW,M,M,M,2000.00,M,M,M,M,YBBN 021530Z 21001KT 9999 FEW020 20/18 Q1016 RMK LIGHT MIST LAYER 50M AGL
YBBN,2014-04-02 16:00,153.1292,-27.3917,68.00,64.40,88.26,200.00,4.00,0.00,30.00,M,6.21,M,FEW,M,M,M,1500.00,M,M,M,M,YBBN 021600Z 20004KT 9999 FEW015 20/18 Q1016 NOSIG
YBBN,2014-04-02 16:30,153.1292,-27.3917,68.00,64.40,88.26,200.00,5.00,0.00,30.00,M,6.21,M,FEW,M,M,M,1800.00,M,M,M,M,YBBN 021630Z 20005KT 9999 FEW018 20/18 Q1016
YBBN,2014-04-02 17:00,153.1292,-27.3917,68.00,64.40,88.26,190.00,4.00,0.00,29.97,M,6.21,M,FEW,M,M,M,2500.00,M,M,M,M,YBBN 021700Z 19004KT 9999 FEW025 20/18 Q1015 NOSIG
YBBN,2014-04-02 17:30,153.1292,-27.3917,66.20,64.40,93.92,200.00,5.00,0.00,29.97,M,6.21,M,FEW,M,M,M,2500.00,M,M,M,M,YBBN 021730Z 20005KT 9999 FEW025 19/18 Q1015
YBBN,2014-04-02 18:00,153.1292,-27.3917,66.20,64.40,93.92,200.00,6.00,0.00,29.97,M,6.21,M,FEW,M,M,M,2500.00,M,M,M,M,YBBN 021800Z 20006KT 9999 FEW025 19/18 Q1015 NOSIG
YBBN,2014-04-02 18:30,153.1292,-27.3917,66.20,64.40,93.92,200.00,7.00,0.00,30.00,M,6.21,M,FEW,M,M,M,2500.00,M,M,M,M,YBBN 021830Z 20007KT 9999 FEW025 19/18 Q1016
YBBN,2014-04-02 19:00,153.1292,-27.3917,64.40,62.60,93.88,210.00,7.00,0.00,30.00,M,6.21,M,FEW,M,M,M,2500.00,M,M,M,M,YBBN 021900Z 21007KT 9999 FEW025 18/17 Q1016 NOSIG
YBBN,2014-04-02 19:30,153.1292,-27.3917,66.20,64.40,93.92,210.00,7.00,0.00,30.00,M,6.21,M,FEW,M,M,M,2500.00,M,M,M,M,YBBN 021930Z 21007KT 9999 FEW025 19/18 Q1016
YBBN,2014-04-02 20:00,153.1292,-27.3917,66.20,64.40,93.92,200.00,7.00,0.00,30.00,M,6.21,M,FEW,M,M,M,2500.00,M,M,M,M,YBBN 022000Z 20007KT 9999 FEW025 19/18 Q1016
YBBN,2014-04-02 20:30,153.1292,-27.3917,66.20,64.40,93.92,200.00,5.00,0.00,30.03,M,6.21,M,FEW,M,M,M,2500.00,M,M,M,M,YBBN 022030Z 20005KT 9999 FEW025 19/18 Q1017
YBBN,2014-04-02 21:00,153.1292,-27.3917,69.80,66.20,88.34,210.00,6.00,0.00,30.03,M,6.21,M,FEW,M,M,M,2500.00,M,M,M,M,YBBN 022100Z 21006KT 9999 FEW025 21/19 Q1017 NOSIG
YBBN,2014-04-02 21:30,153.1292,-27.3917,71.60,66.20,83.09,210.00,6.00,0.00,30.03,M,6.21,M,FEW,M,M,M,2500.00,M,M,M,M,YBBN 022130Z 21006KT 9999 FEW025 22/19 Q1017
YBBN,2014-04-02 22:00,153.1292,-27.3917,73.40,66.20,78.19,200.00,7.00,0.00,30.06,M,6.21,M,FEW,M,M,M,2500.00,M,M,M,M,YBBN 022200Z 20007KT 9999 FEW025 23/19 Q1018
YBBN,2014-04-02 22:30,153.1292,-27.3917,75.20,66.20,73.61,200.00,7.00,0.00,30.06,M,6.21,M,FEW,M,M,M,2800.00,M,M,M,M,YBBN 022230Z 20007KT 9999 FEW028 24/19 Q1018
YBBN,2014-04-02 23:00,153.1292,-27.3917,77.00,64.40,65.12,170.00,5.00,0.00,30.06,M,6.21,M,FEW,M,M,M,2800.00,M,M,M,M,YBBN 022300Z 17005KT 9999 FEW028 25/18 Q1018 FM2330 12007KT 9999 FEW030
YBBN,2014-04-02 23:30,153.1292,-27.3917,78.80,62.60,57.60,120.00,6.00,0.00,30.06,M,6.21,M,FEW,M,M,M,3000.00,M,M,M,M,YBBN 022330Z 12006KT 9999 FEW030 26/17 Q1018
