#DEBUG: Format Typ    -> comma
#DEBUG: Time Period   -> 2015-10-16 00:00:00+00:00 2015-10-17 00:00:00+00:00
#DEBUG: Time Zone     -> Etc/UTC
#DEBUG: Data Contact   -> daryl herzmann akrherz@iastate.edu 515-294-5978
#DEBUG: Entries Found -> -1
station,valid,lon,lat,tmpf, dwpf, relh, drct, sknt, p01i, alti, mslp, vsby, gust, skyc1, skyc2, skyc3, skyc4, skyl1, skyl2, skyl3, skyl4, presentwx, metar
YBBN,2015-10-16 00:00,153.1292,-27.3917,75.20,57.20,53.55,110.00,8.00,0.00,30.24,M,6.21,M,SCT,M,M,M,3300.00,M,M,M,M,YBBN 160000Z 11008KT 9999 SCT033 24/14 Q1024
YBBN,2015-10-16 00:30,153.1292,-27.3917,75.20,55.40,50.17,100.00,8.00,0.00,30.24,M,6.21,M,SCT,M,M,M,3800.00,M,M,M,M,YBBN 160030Z 10008KT 9999 SCT038 24/13 Q1024
YBBN,2015-10-16 01:00,153.1292,-27.3917,75.20,55.40,50.17,90.00,9.00,0.00,30.24,M,6.21,M,SCT,M,M,M,4000.00,M,M,M,M,YBBN 160100Z 09009KT 9999 SCT040 24/13 Q1024 NOSIG
YBBN,2015-10-16 01:30,153.1292,-27.3917,75.20,53.60,46.98,100.00,9.00,0.00,30.24,M,6.21,M,SCT,M,M,M,4000.00,M,M,M,M,YBBN 160130Z 10009KT 9999 SCT040 24/12 Q1024
YBBN,2015-10-16 02:00,153.1292,-27.3917,77.00,55.40,47.25,100.00,9.00,0.00,30.21,M,6.21,M,FEW,M,M,M,4000.00,M,M,M,M,YBBN 160200Z 10009KT 9999 FEW040 25/13 Q1023
YBBN,2015-10-16 02:30,153.1292,-27.3917,77.00,55.40,47.25,110.00,9.00,0.00,30.21,M,6.21,M,SCT,SCT,M,M,4000.00,8000.00,M,M,M,YBBN 160230Z 11009KT 9999 SCT040 SCT080 25/13 Q1023
YBBN,2015-10-16 03:00,153.1292,-27.3917,75.20,53.60,46.98,120.00,9.00,0.00,30.21,M,6.21,M,FEW,SCT,M,M,4000.00,7000.00,M,M,M,YBBN 160300Z 12009KT 9999 FEW040 SCT070 24/12 Q1023 NOSIG
YBBN,2015-10-16 03:30,153.1292,-27.3917,75.20,55.40,50.17,70.00,10.00,0.00,30.21,M,6.21,M,FEW,SCT,M,M,4000.00,6000.00,M,M,M,YBBN 160330Z 07010KT 9999 FEW040 SCT060 24/13 Q1023
YBBN,2015-10-16 04:00,153.1292,-27.3917,75.20,60.80,60.90,60.00,12.00,0.00,30.18,M,6.21,M,SCT,M,M,M,4000.00,M,M,M,M,YBBN 160400Z 06012KT 9999 SCT040 24/16 Q1022 NOSIG
YBBN,2015-10-16 04:30,153.1292,-27.3917,75.20,59.00,57.12,50.00,11.00,0.00,30.18,M,6.21,M,SCT,M,M,M,4000.00,M,M,M,M,YBBN 160430Z 05011KT 9999 SCT040 24/15 Q1022
YBBN,2015-10-16 05:00,153.1292,-27.3917,75.20,59.00,57.12,60.00,11.00,0.00,30.18,M,6.21,M,SCT,M,M,M,4000.00,M,M,M,M,YBBN 160500Z 06011KT 9999 SCT040 24/15 Q1022 NOSIG
YBBN,2015-10-16 05:30,153.1292,-27.3917,75.20,60.80,60.90,60.00,10.00,0.00,30.18,M,6.21,M,FEW,M,M,M,3000.00,M,M,M,M,YBBN 160530Z 06010KT 9999 FEW030 24/16 Q1022
YBBN,2015-10-16 06:00,153.1292,-27.3917,73.40,59.00,60.67,70.00,10.00,0.00,30.18,M,6.21,M,FEW,M,M,M,2800.00,M,M,M,M,YBBN 160600Z 07010KT 9999 FEW028 23/15 Q1022
YBBN,2015-10-16 06:30,153.1292,-27.3917,73.40,59.00,60.67,60.00,10.00,0.00,30.18,M,6.21,M,FEW,M,M,M,2600.00,M,M,M,M,YBBN 160630Z 06010KT 9999 FEW026 23/15 Q1022
YBBN,2015-10-16 07:00,153.1292,-27.3917,73.40,59.00,60.67,70.00,8.00,0.00,30.18,M,6.21,M,FEW,M,M,M,2600.00,M,M,M,M,YBBN 160700Z 07008KT 9999 FEW026 23/15 Q1022 NOSIG
YBBN,2015-10-16 07:30,153.1292,-27.3917,71.60,59.00,64.48,70.00,9.00,0.00,30.18,M,6.21,M,FEW,M,M,M,2500.00,M,M,M,M,YBBN 160730Z 07009KT 9999 FEW025 22/15 Q1022
YBBN,2015-10-16 08:00,153.1292,-27.3917,71.60,59.00,64.48,70.00,8.00,0.00,30.18,M,6.21,M,FEW,M,M,M,2500.00,M,M,M,M,YBBN 160800Z 07008KT 9999 FEW025 22/15 Q1022 NOSIG
YBBN,2015-10-16 08:30,153.1292,-27.3917,69.80,59.00,68.55,70.00,6.00,0.00,30.21,M,6.21,M,FEW,M,M,M,2500.00,M,M,M,M,YBBN 160830Z 07006KT 9999 FEW025 21/15 Q1023
YBBN,2015-10-16 09:00,153.1292,-27.3917,69.80,60.80,73.09,60.00,6.00,0.00,30.21,M,6.21,M,FEW,M,M,M,2500.00,M,M,M,M,YBBN 160900Z 06006KT 9999 FEW025 21/16 Q1023 NOSIG
YBBN,2015-10-16 09:30,153.1292,-27.3917,69.80,60.80,73.09,70.00,6.00,0.00,30.21,M,6.21,M,FEW,M,M,M,2500.00,M,M,M,M,YBBN 160930Z 07006KT 9999 FEW025 21/16 Q1023
YBBN,2015-10-16 10:00,153.1292,-27.3917,69.80,60.80,73.09,60.00,7.00,0.00,30.21,M,6.21,M,FEW,M,M,M,2000.00,M,M,M,M,YBBN 161000Z 06007KT 9999 FEW020 21/16 Q1023
YBBN,2015-10-16 10:30,153.1292,-27.3917,69.80,60.80,73.09,60.00,5.00,0.00,30.21,M,6.21,M,FEW,M,M,M,2500.00,M,M,M,M,YBBN 161030Z 06005KT 9999 FEW025 21/16 Q1023
YBBN,2015-10-16 11:00,153.1292,-27.3917,69.80,60.80,73.09,50.00,5.00,0.00,30.21,M,6.21,M,FEW,M,M,M,2500.00,M,M,M,M,YBBN 161100Z 05005KT 9999 FEW025 21/16 Q1023
YBBN,2015-10-16 11:30,153.1292,-27.3917,69.80,60.80,73.09,50.00,4.00,0.00,30.24,M,6.21,M,FEW,M,M,M,2500.00,M,M,M,M,YBBN 161130Z 05004KT 9999 FEW025 21/16 Q1024
YBBN,2015-10-16 12:00,153.1292,-27.3917,66.20,60.80,82.74,50.00,5.00,0.00,30.24,M,6.21,M,SCT,M,M,M,2500.00,M,M,M,M,YBBN 161200Z 05005KT 9999 SCT025 19/16 Q1024
YBBN,2015-10-16 12:30,153.1292,-27.3917,69.80,60.80,73.09,70.00,5.00,0.00,30.24,M,6.21,M,FEW,M,M,M,2700.00,M,M,M,M,YBBN 161230Z 07005KT 9999 FEW027 21/16 Q1024
YBBN,2015-10-16 13:00,153.1292,-27.3917,69.80,60.80,73.09,60.00,5.00,0.00,30.24,M,6.21,M,FEW,M,M,M,2700.00,M,M,M,M,YBBN 161300Z 06005KT 9999 FEW027 21/16 Q1024
YBBN,2015-10-16 13:30,153.1292,-27.3917,68.00,60.80,77.75,60.00,5.00,0.00,30.21,M,6.21,M,FEW,M,M,M,2500.00,M,M,M,M,YBBN 161330Z 06005KT 9999 FEW025 20/16 Q1023
YBBN,2015-10-16 14:00,153.1292,-27.3917,66.20,60.80,82.74,50.00,5.00,0.00,30.21,M,6.21,M,FEW,M,M,M,2500.00,M,M,M,M,YBBN 161400Z 05005KT 9999 FEW025 19/16 Q1023
YBBN,2015-10-16 14:30,153.1292,-27.3917,66.20,60.80,82.74,50.00,4.00,0.00,30.21,M,6.21,M,FEW,M,M,M,2500.00,M,M,M,M,YBBN 161430Z 05004KT 9999 FEW025 19/16 Q1023
YBBN,2015-10-16 15:00,153.1292,-27.3917,66.20,60.80,82.74,50.00,1.00,0.00,30.21,M,6.21,M,FEW,M,M,M,2200.00,M,M,M,M,YBBN 161500Z 05001KT 9999 FEW022 19/16 Q1023
YBBN,2015-10-16 15:30,153.1292,-27.3917,64.40,60.80,88.09,0.00,0.00,0.00,30.21,M,6.21,M,FEW,M,M,M,2200.00,M,M,M,M,YBBN 161530Z 00000KT 9999 FEW022 18/16 Q1023
YBBN,2015-10-16 16:00,153.1292,-27.3917,64.40,60.80,88.09,200.00,5.00,0.00,30.18,M,6.21,M,FEW,M,M,M,2500.00,M,M,M,M,YBBN 161600Z 20005KT 9999 FEW025 18/16 Q1022
YBBN,2015-10-16 16:30,153.1292,-27.3917,62.60,60.80,93.83,210.00,5.00,0.00,30.18,M,6.21,M,FEW,M,M,M,2500.00,M,M,M,M,YBBN 161630Z 21005KT 9999 FEW025 17/16 Q1022
YBBN,2015-10-16 17:00,153.1292,-27.3917,62.60,60.80,93.83,200.00,5.00,0.00,30.18,M,6.21,M,FEW,M,M,M,2500.00,M,M,M,M,YBBN 161700Z 20005KT 9999 FEW025 17/16 Q1022
YBBN,2015-10-16 17:30,153.1292,-27.3917,62.60,59.00,88.00,200.00,5.00,0.00,30.18,M,6.21,M,FEW,M,M,M,2500.00,M,M,M,M,YBBN 161730Z 20005KT 9999 FEW025 17/15 Q1022
YBBN,2015-10-16 18:00,153.1292,-27.3917,62.60,59.00,88.00,200.00,7.00,0.00,30.18,M,6.21,M,FEW,M,M,M,2700.00,M,M,M,M,YBBN 161800Z 20007KT 9999 FEW027 17/15 Q1022
YBBN,2015-10-16 18:30,153.1292,-27.3917,60.80,59.00,93.79,200.00,7.00,0.00,30.18,M,6.21,M,FEW,M,M,M,2700.00,M,M,M,M,YBBN 161830Z 20007KT 9999 FEW027 16/15 Q1022
YBBN,2015-10-16 19:00,153.1292,-27.3917,60.80,59.00,93.79,200.00,7.00,0.00,30.21,M,6.21,M,FEW,M,M,M,2700.00,M,M,M,M,YBBN 161900Z 20007KT 9999 FEW027 16/15 Q1023
YBBN,2015-10-16 19:30,153.1292,-27.3917,60.80,59.00,93.79,200.00,6.00,0.00,30.21,M,6.21,M,FEW,M,M,M,2500.00,M,M,M,M,YBBN 161930Z 20006KT 9999 FEW025 16/15 Q1023
YBBN,2015-10-16 20:00,153.1292,-27.3917,62.60,59.00,88.00,200.00,7.00,0.00,30.21,M,6.21,M,FEW,M,M,M,2500.00,M,M,M,M,YBBN 162000Z 20007KT 9999 FEW025 17/15 Q1023
YBBN,2015-10-16 20:30,153.1292,-27.3917,62.60,60.80,93.83,200.00,7.00,0.00,30.24,M,6.21,M,FEW,M,M,M,2500.00,M,M,M,M,YBBN 162030Z 20007KT 9999 FEW025 17/16 Q1024
YBBN,2015-10-16 21:00,153.1292,-27.3917,64.40,60.80,88.09,200.00,8.00,0.00,30.24,M,6.21,M,FEW,M,M,M,2500.00,M,M,M,M,YBBN 162100Z 20008KT 9999 FEW025 18/16 Q1024
YBBN,2015-10-16 21:30,153.1292,-27.3917,69.80,60.80,73.09,200.00,6.00,0.00,30.24,M,6.21,M,FEW,M,M,M,2500.00,M,M,M,M,YBBN 162130Z 20006KT 9999 FEW025 21/16 Q1024
YBBN,2015-10-16 22:00,153.1292,-27.3917,71.60,60.80,68.75,210.00,6.00,0.00,30.24,M,6.21,M,FEW,M,M,M,2500.00,M,M,M,M,YBBN 162200Z 21006KT 9999 FEW025 22/16 Q1024
YBBN,2015-10-16 22:30,153.1292,-27.3917,73.40,60.80,64.69,140.00,4.00,0.00,30.24,M,6.21,M,SCT,M,M,M,2500.00,M,M,M,M,YBBN 162230Z 14004KT 090V200 9999 SCT025 23/16 Q1024
YBBN,2015-10-16 23:00,153.1292,-27.3917,75.20,59.00,57.12,30.00,5.00,0.00,30.24,M,6.21,M,SCT,M,M,M,2800.00,M,M,M,M,YBBN 162300Z 03005KT 360V090 9999 SCT028 24/15 Q1024
YBBN,2015-10-16 23:30,153.1292,-27.3917,75.20,60.80,60.90,360.00,2.00,0.00,30.24,M,6.21,M,SCT,M,M,M,3000.00,M,M,M,M,YBBN 162330Z 36002KT 9999 SCT030 24/16 Q1024
