#DEBUG: Format Typ    -> comma
#DEBUG: Time Period   -> 2012-02-05 00:00:00+00:00 2012-02-06 00:00:00+00:00
#DEBUG: Time Zone     -> Etc/UTC
#DEBUG: Data Contact   -> daryl herzmann akrherz@iastate.edu 515-294-5978
#DEBUG: Entries Found -> -1
station,valid,lon,lat,tmpf, dwpf, relh, drct, sknt, p01i, alti, mslp, vsby, gust, skyc1, skyc2, skyc3, skyc4, skyl1, skyl2, skyl3, skyl4, presentwx, metar
YBBN,2012-02-05 00:00,153.1292,-27.3917,77.00,66.20,69.33,10.00,5.00,0.00,29.62,M,6.21,M,SCT,SCT,M,M,2800.00,4000.00,M,M,M,YBBN 050000Z 01005KT 9999 SCT028 SCT040 25/19 Q1003 NOSIG
YBBN,2012-02-05 00:30,153.1292,-27.3917,78.80,68.00,69.52,20.00,8.00,0.00,29.62,M,6.21,M,SCT,SCT,M,M,2600.00,4000.00,M,M,M,YBBN 050030Z 02008KT 9999 SCT026 SCT040 26/20 Q1003
YBBN,2012-02-05 01:00,153.1292,-27.3917,80.60,68.00,65.54,10.00,6.00,0.00,29.62,M,6.21,M,FEW,BKN,M,M,2800.00,4500.00,M,M,M,YBBN 050100Z 01006KT 9999 FEW028 BKN045 27/20 Q1003
YBBN,2012-02-05 01:30,153.1292,-27.3917,80.60,66.20,61.58,40.00,7.00,0.00,29.59,M,6.21,M,SCT,SCT,M,M,3000.00,4500.00,M,M,M,YBBN 050130Z 04007KT 9999 SCT030 SCT045 27/19 Q1002
YBBN,2012-02-05 02:00,153.1292,-27.3917,80.60,66.20,61.58,20.00,7.00,0.00,29.59,M,6.21,M,FEW,SCT,M,M,3000.00,4500.00,M,M,M,YBBN 050200Z 02007KT 9999 FEW030 SCT045 27/19 Q1002
YBBN,2012-02-05 02:30,153.1292,-27.3917,82.40,66.20,58.08,30.00,7.00,0.00,29.56,M,6.21,M,SCT,M,M,M,3500.00,M,M,M,M,YBBN 050230Z 03007KT 9999 SCT035 28/19 Q1001
YBBN,2012-02-05 03:00,153.1292,-27.3917,82.40,68.00,61.81,10.00,9.00,0.00,29.56,M,6.21,M,SCT,M,M,M,3300.00,M,M,M,M,YBBN 050300Z 01009KT 9999 SCT033 28/20 Q1001
YBBN,2012-02-05 03:30,153.1292,-27.3917,82.40,66.20,58.08,40.00,7.00,0.00,29.53,M,6.21,M,SCT,M,M,M,3600.00,M,M,M,M,YBBN 050330Z 04007KT 9999 SCT036 28/19 Q1000
YBBN,2012-02-05 04:00,153.1292,-27.3917,82.40,68.00,61.81,40.00,10.00,0.00,29.53,M,6.21,M,FEW,M,M,M,3600.00,M,M,M,M,YBBN 050400Z 04010KT 9999 FEW036 28/20 Q1000
YBBN,2012-02-05 04:30,153.1292,-27.3917,84.20,68.00,58.32,40.00,10.00,0.00,29.53,M,6.21,M,FEW,M,M,M,3600.00,M,M,M,M,YBBN 050430Z 04010KT 9999 FEW036 29/20 Q1000
YBBN,2012-02-05 05:00,153.1292,-27.3917,82.40,66.20,58.08,50.00,11.00,0.00,29.50,M,6.21,M,FEW,M,M,M,3600.00,M,M,M,M,YBBN 050500Z 05011KT 9999 FEW036 28/19 Q0999
YBBN,2012-02-05 05:30,153.1292,-27.3917,82.40,68.00,61.81,60.00,11.00,0.00,29.50,M,6.21,M,FEW,M,M,M,3200.00,M,M,M,M,YBBN 050530Z 06011KT 9999 FEW032 28/20 Q0999
YBBN,2012-02-05 06:00,153.1292,-27.3917,82.40,68.00,61.81,70.00,10.00,0.00,29.50,M,6.21,M,FEW,M,M,M,3000.00,M,M,M,M,YBBN 050600Z 07010KT 9999 FEW030 28/20 Q0999 NOSIG
YBBN,2012-02-05 06:30,153.1292,-27.3917,80.60,68.00,65.54,70.00,11.00,0.00,29.50,M,6.21,M,FEW,M,M,M,3000.00,M,M,M,M,YBBN 050630Z 07011KT 9999 FEW030 27/20 Q0999
YBBN,2012-02-05 07:00,153.1292,-27.3917,78.80,68.00,69.52,80.00,9.00,0.00,29.50,M,6.21,M,FEW,M,M,M,3000.00,M,M,M,M,YBBN 050700Z 08009KT 9999 FEW030 26/20 Q0999 NOSIG
YBBN,2012-02-05 07:30,153.1292,-27.3917,78.80,68.00,69.52,80.00,9.00,0.00,29.50,M,6.21,M,FEW,M,M,M,2500.00,M,M,M,M,YBBN 050730Z 08009KT 9999 FEW025 26/20 Q0999
YBBN,2012-02-05 08:00,153.1292,-27.3917,78.80,68.00,69.52,70.00,8.00,0.00,29.53,M,6.21,M,FEW,M,M,M,2500.00,M,M,M,M,YBBN 050800Z 07008KT 9999 FEW025 26/20 Q1000 NOSIG
YBBN,2012-02-05 08:30,153.1292,-27.3917,77.00,69.80,78.48,70.00,8.00,0.00,29.53,M,6.21,M,FEW,M,M,M,3000.00,M,M,M,M,YBBN 050830Z 07008KT 9999 FEW030 25/21 Q1000
YBBN,2012-02-05 09:00,153.1292,-27.3917,77.00,69.80,78.48,70.00,7.00,0.00,29.53,M,6.21,M,FEW,M,M,M,2200.00,M,M,M,M,YBBN 050900Z 07007KT 9999 FEW022 25/21 Q1000
YBBN,2012-02-05 09:30,153.1292,-27.3917,77.00,69.80,78.48,90.00,6.00,0.00,29.56,M,6.21,M,FEW,M,M,M,2200.00,M,M,M,M,YBBN 050930Z 09006KT 9999 FEW022 25/21 Q1001
YBBN,2012-02-05 10:00,153.1292,-27.3917,77.00,69.80,78.48,90.00,5.00,0.00,29.56,M,6.21,M,FEW,M,M,M,2200.00,M,M,M,M,YBBN 051000Z 09005KT 9999 FEW022 25/21 Q1001
YBBN,2012-02-05 10:30,153.1292,-27.3917,75.20,69.80,83.32,80.00,6.00,0.00,29.56,M,6.21,M,FEW,M,M,M,2500.00,M,M,M,M,YBBN 051030Z 08006KT 9999 FEW025 24/21 Q1001
YBBN,2012-02-05 11:00,153.1292,-27.3917,75.20,69.80,83.32,90.00,4.00,0.00,29.59,M,6.21,M,FEW,BKN,M,M,1900.00,3400.00,M,M,M,YBBN 051100Z 09004KT 9999 FEW019 BKN034 24/21 Q1002 NOSIG
YBBN,2012-02-05 11:30,153.1292,-27.3917,75.20,68.00,78.34,80.00,4.00,0.00,29.59,M,6.21,M,FEW,BKN,M,M,1900.00,3400.00,M,M,M,YBBN 051130Z 08004KT 9999 FEW019 BKN034 24/20 Q1002
YBBN,2012-02-05 12:00,153.1292,-27.3917,75.20,68.00,78.34,70.00,4.00,0.00,29.59,M,6.21,M,FEW,BKN,M,M,1900.00,3400.00,M,M,M,YBBN 051200Z 07004KT 9999 FEW019 BKN034 24/20 Q1002
YBBN,2012-02-05 12:30,153.1292,-27.3917,75.20,68.00,78.34,90.00,4.00,0.00,29.59,M,6.21,M,FEW,BKN,M,M,1900.00,3400.00,M,M,M,YBBN 051230Z 09004KT 9999 FEW019 BKN034 24/20 Q1002
YBBN,2012-02-05 13:00,153.1292,-27.3917,75.20,68.00,78.34,90.00,4.00,0.00,29.56,M,6.21,M,FEW,SCT,M,M,1800.00,3400.00,M,M,M,YBBN 051300Z 09004KT 9999 FEW018 SCT034 24/20 Q1001 NOSIG
YBBN,2012-02-05 13:30,153.1292,-27.3917,75.20,68.00,78.34,90.00,1.00,0.00,29.56,M,6.21,M,FEW,SCT,M,M,1800.00,3400.00,M,M,M,YBBN 051330Z 09001KT 9999 FEW018 SCT034 24/20 Q1001
YBBN,2012-02-05 14:00,153.1292,-27.3917,75.20,68.00,78.34,90.00,4.00,0.00,29.56,M,6.21,M,FEW,SCT,M,M,1800.00,3400.00,M,M,M,YBBN 051400Z 09004KT 9999 FEW018 SCT034 24/20 Q1001 NOSIG
YBBN,2012-02-05 14:30,153.1292,-27.3917,73.40,68.00,83.21,100.00,2.00,0.00,29.56,M,6.21,M,BKN,M,M,M,3000.00,M,M,M,M,YBBN 051430Z 10002KT 9999 BKN030 23/20 Q1001
YBBN,2012-02-05 15:00,153.1292,-27.3917,73.40,69.80,88.51,230.00,3.00,0.00,29.56,M,6.21,M,BKN,M,M,M,3000.00,M,M,M,M,YBBN 051500Z 23003KT 9999 BKN030 23/21 Q1001
YBBN,2012-02-05 15:30,153.1292,-27.3917,73.40,69.80,88.51,210.00,5.00,0.00,29.53,M,6.21,M,BKN,M,M,M,3000.00,M,M,M,M,YBBN 051530Z 21005KT 9999 BKN030 23/21 Q1000
YBBN,2012-02-05 16:00,153.1292,-27.3917,73.40,69.80,88.51,170.00,3.00,0.00,29.53,M,6.21,M,BKN,M,M,M,3000.00,M,M,M,M,YBBN 051600Z 17003KT 9999 BKN030 23/21 Q1000 NOSIG
YBBN,2012-02-05 16:30,153.1292,-27.3917,73.40,69.80,88.51,210.00,3.00,0.00,29.53,M,6.21,M,BKN,M,M,M,2800.00,M,M,M,M,YBBN 051630Z 21003KT 9999 BKN028 23/21 Q1000
YBBN,2012-02-05 17:00,153.1292,-27.3917,73.40,68.00,83.21,210.00,3.00,0.00,29.53,M,6.21,M,SCT,M,M,M,2800.00,M,M,M,M,YBBN 051700Z 21003KT 9999 SCT028 23/20 Q1000 NOSIG
YBBN,2012-02-05 17:30,153.1292,-27.3917,73.40,68.00,83.21,210.00,2.00,0.00,29.53,M,6.21,M,FEW,SCT,M,M,2800.00,10000.00,M,M,M,YBBN 051730Z 21002KT 9999 FEW028 SCT100 23/20 Q1000
YBBN,2012-02-05 18:00,153.1292,-27.3917,71.60,68.00,88.43,0.00,0.00,0.00,29.53,M,6.21,M,M,M,M,M,M,M,M,M,M,YBBN 051800Z 00000KT CAVOK 22/20 Q1000 NOSIG
YBBN,2012-02-05 18:30,153.1292,-27.3917,71.60,68.00,88.43,0.00,0.00,0.00,29.53,M,6.21,M,BKN,M,M,M,2800.00,M,M,M,M,YBBN 051830Z 00000KT 9999 BKN028 22/20 Q1000
YBBN,2012-02-05 19:00,153.1292,-27.3917,71.60,68.00,88.43,0.00,0.00,0.00,29.53,M,6.21,M,BKN,M,M,M,2800.00,M,M,M,M,YBBN 051900Z 00000KT 9999 BKN028 22/20 Q1000
YBBN,2012-02-05 19:30,153.1292,-27.3917,73.40,69.80,88.51,0.00,0.00,0.00,29.53,M,6.21,M,BKN,M,M,M,2800.00,M,M,M,M,YBBN 051930Z 00000KT 9999 BKN028 23/21 Q1000
YBBN,2012-02-05 20:00,153.1292,-27.3917,73.40,69.80,88.51,0.00,0.00,0.00,29.56,M,6.21,M,BKN,M,M,M,2600.00,M,M,M,M,YBBN 052000Z 00000KT 9999 BKN026 23/21 Q1001
YBBN,2012-02-05 20:30,153.1292,-27.3917,75.20,69.80,83.32,260.00,3.00,0.00,29.56,M,6.21,M,FEW,BKN,M,M,2000.00,2600.00,M,M,M,YBBN 052030Z 26003KT 9999 FEW020 BKN026 24/21 Q1001
YBBN,2012-02-05 21:00,153.1292,-27.3917,75.20,69.80,83.32,320.00,4.00,0.00,29.56,M,6.21,M,BKN,M,M,M,2600.00,M,M,M,M,YBBN 052100Z 32004KT 9999 BKN026 24/21 Q1001
YBBN,2012-02-05 21:30,153.1292,-27.3917,77.00,68.00,73.78,280.00,5.00,0.00,29.56,M,6.21,M,BKN,M,M,M,2700.00,M,M,M,M,YBBN 052130Z 28005KT 9999 BKN027 25/20 Q1001
YBBN,2012-02-05 22:00,153.1292,-27.3917,78.80,68.00,69.52,330.00,7.00,0.00,29.56,M,6.21,M,FEW,M,M,M,2200.00,M,M,M,M,YBBN 052200Z 33007KT 9999 FEW022 26/20 Q1001 NOSIG
YBBN,2012-02-05 22:30,153.1292,-27.3917,80.60,68.00,65.54,250.00,4.00,0.00,29.56,M,6.21,M,FEW,M,M,M,2200.00,M,M,M,M,YBBN 052230Z 25004KT 9999 FEW022 27/20 Q1001
YBBN,2012-02-05 23:00,153.1292,-27.3917,80.60,68.00,65.54,290.00,5.00,0.00,29.56,M,6.21,M,FEW,M,M,M,2500.00,M,M,M,M,YBBN 052300Z 29005KT 9999 FEW025 27/20 Q1001 NOSIG
YBBN,2012-02-05 23:30,153.1292,-27.3917,82.40,68.00,61.81,350.00,5.00,0.00,29.56,M,6.21,M,FEW,M,M,M,2500.00,M,M,M,M,YBBN 052330Z 35005KT 9999 FEW025 28/20 Q1001
