#DEBUG: Format Typ    -> comma
#DEBUG: Time Period   -> 2014-03-01 00:00:00+00:00 2014-03-02 00:00:00+00:00
#DEBUG: Time Zone     -> Etc/UTC
#DEBUG: Data Contact   -> daryl herzmann akrherz@iastate.edu 515-294-5978
#DEBUG: Entries Found -> -1
station,valid,lon,lat,tmpf, dwpf, relh, drct, sknt, p01i, alti, mslp, vsby, gust, skyc1, skyc2, skyc3, skyc4, skyl1, skyl2, skyl3, skyl4, presentwx, metar
YBBN,2014-03-01 00:00,153.1292,-27.3917,80.60,60.80,50.95,120.00,9.00,0.00,30.00,M,6.21,M,SCT,M,M,M,3500.00,M,M,M,M,YBBN 010000Z 12009KT 9999 SCT035 27/16 Q1016 NOSIG
YBBN,2014-03-01 00:30,153.1292,-27.3917,80.60,60.80,50.95,100.00,10.00,0.00,30.00,M,6.21,M,SCT,M,M,M,3500.00,M,M,M,M,YBBN 010030Z 10010KT 9999 SCT035 27/16 Q1016
YBBN,2014-03-01 01:00,153.1292,-27.3917,80.60,60.80,50.95,110.00,10.00,0.00,29.97,M,6.21,M,SCT,M,M,M,3600.00,M,M,M,M,YBBN 010100Z 11010KT 9999 SCT036 27/16 Q1015 NOSIG
YBBN,2014-03-01 01:30,153.1292,-27.3917,82.40,60.80,48.05,90.00,9.00,0.00,29.97,M,6.21,M,FEW,M,M,M,3600.00,M,M,M,M,YBBN 010130Z 09009KT 9999 FEW036 28/16 Q1015
YBBN,2014-03-01 02:00,153.1292,-27.3917,82.40,59.00,45.07,80.00,9.00,0.00,29.97,M,6.21,M,FEW,M,M,M,3800.00,M,M,M,M,YBBN 010200Z 08009KT 9999 FEW038 28/15 Q1015
YBBN,2014-03-01 02:30,153.1292,-27.3917,82.40,59.00,45.07,90.00,9.00,0.00,29.94,M,6.21,M,FEW,M,M,M,3800.00,M,M,M,M,YBBN 010230Z 09009KT 9999 FEW038 28/15 Q1014
YBBN,2014-03-01 03:00,153.1292,-27.3917,82.40,60.80,48.05,70.00,10.00,0.00,29.94,M,6.21,M,FEW,M,M,M,3800.00,M,M,M,M,YBBN 010300Z 07010KT 9999 FEW038 28/16 Q1014 NOSIG
YBBN,2014-03-01 03:30,153.1292,-27.3917,80.60,62.60,54.30,70.00,10.00,0.00,29.94,M,6.21,M,FEW,M,M,M,4000.00,M,M,M,M,YBBN 010330Z 07010KT 9999 FEW040 27/17 Q1014
YBBN,2014-03-01 04:00,153.1292,-27.3917,82.40,64.40,54.55,80.00,9.00,0.00,29.91,M,6.21,M,FEW,M,M,M,4000.00,M,M,M,M,YBBN 010400Z 08009KT 9999 FEW040 28/18 Q1013 NOSIG
YBBN,2014-03-01 04:30,153.1292,-27.3917,82.40,62.60,51.21,70.00,11.00,0.00,29.91,M,6.21,M,FEW,M,M,M,4000.00,M,M,M,M,YBBN 010430Z 07011KT 9999 FEW040 28/17 Q1013
YBBN,2014-03-01 05:00,153.1292,-27.3917,80.60,64.40,57.84,70.00,13.00,0.00,29.91,M,6.21,M,FEW,M,M,M,4000.00,M,M,M,M,YBBN 010500Z 07013KT 9999 FEW040 27/18 Q1013
YBBN,2014-03-01 05:30,153.1292,-27.3917,78.80,64.40,61.36,70.00,11.00,0.00,29.91,M,6.21,M,FEW,SCT,M,M,2800.00,3500.00,M,M,M,YBBN 010530Z 07011KT 9999 FEW028 SCT035 26/18 Q1013
YBBN,2014-03-01 06:00,153.1292,-27.3917,80.60,66.20,61.58,70.00,11.00,0.00,29.91,M,6.21,M,SCT,M,M,M,3500.00,M,M,M,M,YBBN 010600Z 07011KT 9999 SCT035 27/19 Q1013 NOSIG
YBBN,2014-03-01 06:30,153.1292,-27.3917,78.80,62.60,57.60,80.00,10.00,0.00,29.91,M,6.21,M,SCT,M,M,M,3500.00,M,M,M,M,YBBN 010630Z 08010KT 9999 SCT035 26/17 Q1013
YBBN,2014-03-01 07:00,153.1292,-27.3917,78.80,64.40,61.36,70.00,10.00,0.00,29.91,M,6.21,M,SCT,M,M,M,3200.00,M,M,M,M,YBBN 010700Z 07010KT 9999 SCT032 26/18 Q1013 NOSIG
YBBN,2014-03-01 07:30,153.1292,-27.3917,77.00,62.60,61.13,100.00,8.00,0.00,29.94,M,6.21,M,FEW,M,M,M,3200.00,M,M,M,M,YBBN 010730Z 10008KT 9999 FEW032 25/17 Q1014
YBBN,2014-03-01 08:00,153.1292,-27.3917,77.00,62.60,61.13,90.00,9.00,0.00,29.94,M,6.21,M,SCT,M,M,M,3000.00,M,M,M,M,YBBN 010800Z 09009KT 9999 SCT030 25/17 Q1014 NOSIG
YBBN,2014-03-01 08:30,153.1292,-27.3917,77.00,64.40,65.12,100.00,7.00,0.00,29.94,M,6.21,M,FEW,M,M,M,3400.00,M,M,M,M,YBBN 010830Z 10007KT 9999 FEW034 25/18 Q1014
YBBN,2014-03-01 09:00,153.1292,-27.3917,77.00,62.60,61.13,100.00,8.00,0.00,29.97,M,6.21,M,FEW,M,M,M,3400.00,M,M,M,M,YBBN 010900Z 10008KT 9999 FEW034 25/17 Q1015
YBBN,2014-03-01 09:30,153.1292,-27.3917,75.20,62.60,64.91,90.00,8.00,0.00,29.97,M,6.21,M,FEW,M,M,M,3400.00,M,M,M,M,YBBN 010930Z 09008KT 9999 FEW034 24/17 Q1015
YBBN,2014-03-01 10:00,153.1292,-27.3917,75.20,62.60,64.91,100.00,7.00,0.00,29.97,M,6.21,M,FEW,M,M,M,3400.00,M,M,M,M,YBBN 011000Z 10007KT 9999 FEW034 24/17 Q1015
YBBN,2014-03-01 10:30,153.1292,-27.3917,75.20,62.60,64.91,100.00,7.00,0.00,29.97,M,6.21,M,FEW,M,M,M,3400.00,M,M,M,M,YBBN 011030Z 10007KT 9999 FEW034 24/17 Q1015
YBBN,2014-03-01 11:00,153.1292,-27.3917,75.20,62.60,64.91,110.00,7.00,0.00,30.00,M,6.21,M,FEW,M,M,M,4000.00,M,M,M,M,YBBN 011100Z 11007KT 9999 FEW040 24/17 Q1016
YBBN,2014-03-01 11:30,153.1292,-27.3917,75.20,62.60,64.91,110.00,7.00,0.00,30.00,M,6.21,M,FEW,M,M,M,3000.00,M,M,M,M,YBBN 011130Z 11007KT 9999 FEW030 24/17 Q1016
YBBN,2014-03-01 12:00,153.1292,-27.3917,75.20,64.40,69.14,110.00,7.00,0.00,29.97,M,6.21,M,FEW,M,M,M,3000.00,M,M,M,M,YBBN 011200Z 11007KT 9999 FEW030 24/18 Q1015 NOSIG
YBBN,2014-03-01 12:30,153.1292,-27.3917,75.20,62.60,64.91,110.00,7.00,0.00,30.00,M,6.21,M,FEW,M,M,M,2900.00,M,M,M,M,YBBN 011230Z 11007KT 9999 FEW029 24/17 Q1016
YBBN,2014-03-01 13:00,153.1292,-27.3917,75.20,64.40,69.14,120.00,7.00,0.00,29.97,M,6.21,M,FEW,M,M,M,2900.00,M,M,M,M,YBBN 011300Z 12007KT 9999 FEW029 24/18 Q1015 NOSIG
YBBN,2014-03-01 13:30,153.1292,-27.3917,75.20,64.40,69.14,100.00,7.00,0.00,29.97,M,6.21,M,SCT,M,M,M,3000.00,M,M,M,M,YBBN 011330Z 10007KT 9999 SCT030 24/18 Q1015
YBBN,2014-03-01 14:00,153.1292,-27.3917,75.20,64.40,69.14,80.00,7.00,0.00,29.97,M,6.21,M,SCT,M,M,M,2900.00,M,M,M,M,YBBN 011400Z 08007KT 9999 SCT029 24/18 Q1015
YBBN,2014-03-01 14:30,153.1292,-27.3917,75.20,62.60,64.91,90.00,6.00,0.00,29.97,M,6.21,M,FEW,M,M,M,3200.00,M,M,M,M,YBBN 011430Z 09006KT 9999 FEW032 24/17 Q1015
YBBN,2014-03-01 15:00,153.1292,-27.3917,75.20,62.60,64.91,90.00,6.00,0.00,29.94,M,6.21,M,FEW,M,M,M,3100.00,M,M,M,M,YBBN 011500Z 09006KT 9999 FEW031 24/17 Q1014
YBBN,2014-03-01 15:30,153.1292,-27.3917,75.20,62.60,64.91,90.00,6.00,0.00,29.94,M,6.21,M,FEW,M,M,M,3200.00,M,M,M,M,YBBN 011530Z 09006KT 9999 FEW032 24/17 Q1014
YBBN,2014-03-01 16:00,153.1292,-27.3917,75.20,62.60,64.91,100.00,5.00,0.00,29.94,M,6.21,M,FEW,M,M,M,3200.00,M,M,M,M,YBBN 011600Z 10005KT 9999 FEW032 24/17 Q1014 NOSIG
YBBN,2014-03-01 16:30,153.1292,-27.3917,71.60,62.60,73.27,110.00,5.00,0.00,29.94,M,6.21,M,FEW,M,M,M,3200.00,M,M,M,M,YBBN 011630Z 11005KT 9999 FEW032 22/17 Q1014
YBBN,2014-03-01 17:00,153.1292,-27.3917,71.60,62.60,73.27,110.00,4.00,0.00,29.94,M,6.21,M,FEW,M,M,M,3200.00,M,M,M,M,YBBN 011700Z 11004KT 9999 FEW032 22/17 Q1014
YBBN,2014-03-01 17:30,153.1292,-27.3917,71.60,62.60,73.27,200.00,4.00,0.00,29.94,M,6.21,M,FEW,M,M,M,3200.00,M,M,M,M,YBBN 011730Z 20004KT 9999 FEW032 22/17 Q1014
YBBN,2014-03-01 18:00,153.1292,-27.3917,69.80,62.60,77.90,200.00,6.00,0.00,29.94,M,6.21,M,FEW,M,M,M,3200.00,M,M,M,M,YBBN 011800Z 20006KT 9999 FEW032 21/17 Q1014 NOSIG
YBBN,2014-03-01 18:30,153.1292,-27.3917,68.00,62.60,82.86,200.00,5.00,0.00,29.94,M,6.21,M,FEW,M,M,M,3200.00,M,M,M,M,YBBN 011830Z 20005KT 9999 FEW032 20/17 Q1014
YBBN,2014-03-01 19:00,153.1292,-27.3917,69.80,62.60,77.90,190.00,6.00,0.00,29.94,M,6.21,M,FEW,M,M,M,3200.00,M,M,M,M,YBBN 011900Z 19006KT 9999 FEW032 21/17 Q1014
YBBN,2014-03-01 19:30,153.1292,-27.3917,68.00,62.60,82.86,200.00,5.00,0.00,29.94,M,6.21,M,FEW,M,M,M,3000.00,M,M,M,M,YBBN 011930Z 20005KT 9999 FEW030 20/17 Q1014
YBBN,2014-03-01 20:00,153.1292,-27.3917,68.00,62.60,82.86,190.00,5.00,0.00,29.94,M,6.21,M,FEW,M,M,M,3000.00,M,M,M,M,YBBN 012000Z 19005KT 9999 FEW030 20/17 Q1014 NOSIG
YBBN,2014-03-01 20:30,153.1292,-27.3917,69.80,64.40,82.98,200.00,5.00,0.00,29.97,M,6.21,M,FEW,M,M,M,3000.00,M,M,M,M,YBBN 012030Z 20005KT 9999 FEW030 21/18 Q1015
YBBN,2014-03-01 21:00,153.1292,-27.3917,73.40,62.60,68.94,200.00,5.00,0.00,29.97,M,6.21,M,FEW,M,M,M,3200.00,M,M,M,M,YBBN 012100Z 20005KT 9999 FEW032 23/17 Q1015 NOSIG
YBBN,2014-03-01 21:30,153.1292,-27.3917,75.20,64.40,69.14,170.00,5.00,0.00,29.97,M,6.21,M,FEW,M,M,M,3200.00,M,M,M,M,YBBN 012130Z 17005KT 9999 FEW032 24/18 Q1015
YBBN,2014-03-01 22:00,153.1292,-27.3917,78.80,62.60,57.60,150.00,6.00,0.00,29.97,M,6.21,M,FEW,M,M,M,3200.00,M,M,M,M,YBBN 012200Z 15006KT 9999 FEW032 26/17 Q1015 FM2300 10012KT 9999 FEW035
YBBN,2014-03-01 22:30,153.1292,-27.3917,78.80,62.60,57.60,130.00,8.00,0.00,30.00,M,6.21,M,FEW,M,M,M,3500.00,M,M,M,M,YBBN 012230Z 13008KT 9999 FEW035 26/17 Q1016
YBBN,2014-03-01 23:00,153.1292,-27.3917,80.60,62.60,54.30,120.00,8.00,0.00,30.00,M,6.21,M,FEW,M,M,M,3500.00,M,M,M,M,YBBN 012300Z 12008KT 9999 FEW035 27/17 Q1016 FM2300 10012KT 9999 FEW035
YBBN,2014-03-01 23:30,153.1292,-27.3917,80.60,62.60,54.30,130.00,8.00,0.00,30.00,M,6.21,M,SCT,M,M,M,3500.00,M,M,M,M,YBBN 012330Z 13008KT 9999 SCT035 27/17 Q1016
