#DEBUG: Format Typ    -> comma
#DEBUG: Time Period   -> 2013-03-01 00:00:00+00:00 2013-03-02 00:00:00+00:00
#DEBUG: Time Zone     -> Etc/UTC
#DEBUG: Data Contact   -> daryl herzmann akrherz@iastate.edu 515-294-5978
#DEBUG: Entries Found -> -1
station,valid,lon,lat,tmpf, dwpf, relh, drct, sknt, p01i, alti, mslp, vsby, gust, skyc1, skyc2, skyc3, skyc4, skyl1, skyl2, skyl3, skyl4, presentwx, metar
YBBN,2013-03-01 00:00,153.1292,-27.3917,77.00,69.80,78.48,320.00,5.00,0.00,29.83,M,6.21,M,FEW,BKN,OVC,M,900.00,14000.00,20000.00,M,-RA,YBBN 010000Z 32005KT 9999 -RA FEW009 BKN140 OVC200 25/21 Q1010 RMK HZ
YBBN,2013-03-01 00:30,153.1292,-27.3917,77.00,69.80,78.48,310.00,5.00,0.00,29.83,M,4.97,M,FEW,BKN,OVC,M,1200.00,12000.00,20000.00,M,-RA,YBBN 010030Z 31005KT 8000 -RA FEW012 BKN120 OVC200 25/21 Q1010 RMK HZ
YBBN,2013-03-01 01:00,153.1292,-27.3917,77.00,69.80,78.48,350.00,4.00,0.00,29.80,M,6.21,M,FEW,BKN,OVC,M,800.00,12000.00,20000.00,M,-RA,YBBN 010100Z 35004KT 9999 -RA FEW008 BKN120 OVC200 25/21 Q1009
YBBN,2013-03-01 01:30,153.1292,-27.3917,77.00,69.80,78.48,360.00,5.00,0.00,29.80,M,5.59,M,FEW,BKN,OVC,M,1300.00,11000.00,22000.00,M,-SHRA,YBBN 010130Z 36005KT 9000 -SHRA FEW013 BKN110 OVC220 25/21 Q1009
YBBN,2013-03-01 02:00,153.1292,-27.3917,77.00,71.60,83.44,360.00,5.00,0.00,29.80,M,6.21,M,FEW,SCT,OVC,M,2000.00,12000.00,22000.00,M,-RA,YBBN 010200Z 36005KT 9999 -RA FEW020 SCT120 OVC220 25/22 Q1009
YBBN,2013-03-01 02:30,153.1292,-27.3917,77.00,71.60,83.44,10.00,5.00,0.00,29.80,M,5.59,M,FEW,SCT,OVC,M,2200.00,13500.00,22000.00,M,VCSH,YBBN 010230Z 01005KT 9000 VCSH FEW022 SCT135 OVC220 25/22 Q1009
YBBN,2013-03-01 03:00,153.1292,-27.3917,77.00,71.60,83.44,10.00,5.00,0.00,29.80,M,4.97,M,FEW,SCT,OVC,M,1500.00,2500.00,22000.00,M,-RA,YBBN 010300Z 01005KT 8000 -RA FEW015 SCT025 OVC220 25/22 Q1009
YBBN,2013-03-01 03:30,153.1292,-27.3917,77.00,71.60,83.44,10.00,3.00,0.00,29.77,M,4.97,M,FEW,SCT,OVC,M,2500.00,11000.00,24000.00,M,-RA,YBBN 010330Z 01003KT 8000 -RA FEW025 SCT110 OVC240 25/22 Q1008
YBBN,2013-03-01 04:00,153.1292,-27.3917,77.00,71.60,83.44,10.00,4.00,0.00,29.77,M,4.97,M,FEW,SCT,OVC,M,1500.00,11000.00,25000.00,M,-RA,YBBN 010400Z 01004KT 8000 -RA FEW015 SCT110 OVC250 25/22 Q1008
YBBN,2013-03-01 04:30,153.1292,-27.3917,77.00,71.60,83.44,40.00,4.00,0.00,29.77,M,3.73,M,FEW,SCT,OVC,M,1500.00,2500.00,25000.00,M,-RA,YBBN 010430Z 04004KT 6000 -RA FEW015 SCT025 OVC250 25/22 Q1008
YBBN,2013-03-01 05:00,153.1292,-27.3917,75.20,71.60,88.59,70.00,5.00,0.00,29.77,M,3.73,M,FEW,SCT,BKN,M,1500.00,2200.00,8500.00,M,-RA,YBBN 010500Z 07005KT 6000 -RA FEW015 SCT022 BKN085 24/22 Q1008
YBBN,2013-03-01 05:30,153.1292,-27.3917,75.20,71.60,88.59,60.00,6.00,0.00,29.74,M,3.73,M,SCT,BKN,M,M,3000.00,7500.00,M,M,-RA,YBBN 010530Z 06006KT 6000 -RA SCT030 BKN075 24/22 Q1007
YBBN,2013-03-01 06:00,153.1292,-27.3917,75.20,73.40,94.14,50.00,6.00,0.00,29.74,M,3.11,M,SCT,BKN,M,M,2500.00,6500.00,M,M,-RA,YBBN 010600Z 05006KT 5000 -RA SCT025 BKN065 24/23 Q1007
YBBN,2013-03-01 06:30,153.1292,-27.3917,75.20,73.40,94.14,60.00,9.00,0.00,29.74,M,3.73,M,FEW,SCT,BKN,M,1200.00,2500.00,6500.00,M,RA,YBBN 010630Z 06009KT 6000 RA FEW012 SCT025 BKN065 24/23 Q1007
YBBN,2013-03-01 06:51,153.1292,-27.3917,75.20,71.60,88.59,30.00,9.00,0.00,29.74,M,4.97,M,FEW,SCT,BKN,M,2000.00,2500.00,6000.00,M,-RA,YBBN 010651Z 03009KT 8000 -RA FEW020 SCT025 BKN060 24/22 Q1007
YBBN,2013-03-01 07:00,153.1292,-27.3917,75.20,71.60,88.59,20.00,9.00,0.00,29.74,M,4.97,M,FEW,SCT,BKN,M,2000.00,2500.00,4500.00,M,-RA,YBBN 010700Z 02009KT 8000 -RA FEW020 SCT025 BKN045 24/22 Q1007
YBBN,2013-03-01 07:30,153.1292,-27.3917,75.20,69.80,83.32,20.00,11.00,0.00,29.74,M,5.59,M,FEW,SCT,BKN,M,1300.00,2500.00,15500.00,M,VCSH,YBBN 010730Z 02011KT 9000 VCSH FEW013 SCT025 BKN155 24/21 Q1007
YBBN,2013-03-01 08:00,153.1292,-27.3917,75.20,71.60,88.59,20.00,9.00,0.00,29.74,M,5.59,M,FEW,SCT,BKN,M,1000.00,2200.00,9500.00,M,VCSH,YBBN 010800Z 02009KT 9000 VCSH FEW010 SCT022 BKN095 24/22 Q1007 INTER 0800/1100 3000 SHRA BKN008
YBBN,2013-03-01 08:30,153.1292,-27.3917,73.40,69.80,88.51,360.00,8.00,0.00,29.74,M,6.21,M,FEW,BKN,BKN,M,2000.00,5000.00,9500.00,M,VCSH,YBBN 010830Z 36008KT 9999 VCSH FEW020 BKN050 BKN095 23/21 Q1007
YBBN,2013-03-01 09:00,153.1292,-27.3917,73.40,68.00,83.21,10.00,7.00,0.00,29.74,M,6.21,M,FEW,BKN,M,M,2000.00,11000.00,M,M,M,YBBN 010900Z 01007KT 9999 FEW020 BKN110 23/20 Q1007 INTER 0900/1200 3000 SHRA BKN008
YBBN,2013-03-01 09:30,153.1292,-27.3917,73.40,69.80,88.51,350.00,6.00,0.00,29.77,M,6.21,M,FEW,SCT,BKN,M,2000.00,6000.00,12000.00,M,M,YBBN 010930Z 35006KT 9999 FEW020 SCT060 BKN120 23/21 Q1008
YBBN,2013-03-01 10:00,153.1292,-27.3917,73.40,69.80,88.51,30.00,5.00,0.00,29.77,M,6.21,M,FEW,BKN,M,M,2200.00,12000.00,M,M,M,YBBN 011000Z 03005KT 9999 FEW022 BKN120 23/21 Q1008
YBBN,2013-03-01 10:30,153.1292,-27.3917,73.40,69.80,88.51,290.00,5.00,0.00,29.80,M,6.21,M,FEW,SCT,BKN,M,1800.00,2200.00,3200.00,M,M,YBBN 011030Z 29005KT 9999 FEW018 SCT022 BKN032 23/21 Q1009
YBBN,2013-03-01 11:00,153.1292,-27.3917,73.40,68.00,83.21,310.00,5.00,0.00,29.80,M,6.21,M,FEW,SCT,BKN,M,1400.00,2200.00,7200.00,M,VCSH,YBBN 011100Z 31005KT 9999 VCSH FEW014 SCT022 BKN072 23/20 Q1009 INTER 1100/1400 3000 SHRA BKN008
YBBN,2013-03-01 11:30,153.1292,-27.3917,73.40,69.80,88.51,330.00,4.00,0.00,29.80,M,6.21,M,FEW,SCT,BKN,M,2200.00,5000.00,7400.00,M,VCSH,YBBN 011130Z 33004KT 9999 VCSH FEW022 SCT050 BKN074 23/21 Q1009
YBBN,2013-03-01 12:00,153.1292,-27.3917,73.40,69.80,88.51,240.00,3.00,0.00,29.77,M,6.21,M,FEW,SCT,BKN,M,2200.00,5000.00,14000.00,M,M,YBBN 011200Z 24003KT 9999 FEW022 SCT050 BKN140 23/21 Q1008
YBBN,2013-03-01 12:30,153.1292,-27.3917,73.40,69.80,88.51,190.00,4.00,0.00,29.77,M,6.21,M,FEW,BKN,M,M,2000.00,5100.00,M,M,VCSH,YBBN 011230Z 19004KT 9999 VCSH FEW020 BKN051 23/21 Q1008
YBBN,2013-03-01 13:00,153.1292,-27.3917,73.40,69.80,88.51,0.00,0.00,0.00,29.80,M,4.97,M,FEW,SCT,BKN,M,1300.00,2100.00,5500.00,M,VCSH,YBBN 011300Z 00000KT 8000 VCSH FEW013 SCT021 BKN055 23/21 Q1009 INTER 1300/1600 3000 SHRA BKN008
YBBN,2013-03-01 13:15,153.1292,-27.3917,73.40,69.80,88.51,140.00,5.00,0.00,29.80,M,6.21,M,FEW,SCT,BKN,M,2000.00,3100.00,4400.00,M,-SHRA VCSH,YBBN 011315Z 14005KT 9999 5000NE -SHRA VCSH FEW020 SCT031 BKN044 23/21 Q1009
YBBN,2013-03-01 13:30,153.1292,-27.3917,73.40,69.80,88.51,150.00,3.00,0.00,29.77,M,2.49,M,FEW,SCT,BKN,M,2000.00,3200.00,5100.00,M,DZ VCSH,YBBN 011330Z 15003KT 4000 DZ VCSH FEW020 SCT032 BKN051 23/21 Q1008
YBBN,2013-03-01 14:00,153.1292,-27.3917,71.60,69.80,94.06,0.00,0.00,0.00,29.77,M,6.21,M,SCT,BKN,M,M,2000.00,7100.00,M,M,VCSH,YBBN 011400Z 00000KT 9999 VCSH SCT020 BKN071 22/21 Q1008
YBBN,2013-03-01 14:30,153.1292,-27.3917,71.60,69.80,94.06,0.00,0.00,0.00,29.77,M,6.21,M,FEW,SCT,BKN,M,2200.00,4800.00,5700.00,M,VCSH,YBBN 011430Z 00000KT 9999 VCSH FEW022 SCT048 BKN057 22/21 Q1008
YBBN,2013-03-01 15:00,153.1292,-27.3917,71.60,69.80,94.06,0.00,0.00,0.00,29.77,M,6.21,M,FEW,SCT,BKN,M,2000.00,5400.00,6900.00,M,VCSH,YBBN 011500Z 00000KT 9999 VCSH FEW020 SCT054 BKN069 22/21 Q1008
YBBN,2013-03-01 15:30,153.1292,-27.3917,71.60,69.80,94.06,0.00,0.00,0.00,29.77,M,4.97,M,SCT,BKN,M,M,2100.00,5500.00,M,M,-SHRA,YBBN 011530Z 00000KT 8000 -SHRA SCT021 BKN055 22/21 Q1008
YBBN,2013-03-01 16:00,153.1292,-27.3917,71.60,69.80,94.06,180.00,5.00,0.00,29.77,M,6.21,M,SCT,BKN,M,M,2100.00,9200.00,M,M,VCSH,YBBN 011600Z 18005KT 9999 VCSH SCT021 BKN092 22/21 Q1008
YBBN,2013-03-01 16:30,153.1292,-27.3917,71.60,69.80,94.06,190.00,4.00,0.00,29.74,M,3.11,M,SCT,BKN,M,M,2100.00,9200.00,M,M,-SHRA VCSH,YBBN 011630Z 19004KT 5000 -SHRA VCSH SCT021 BKN092 22/21 Q1007
YBBN,2013-03-01 17:00,153.1292,-27.3917,68.00,66.20,93.97,160.00,5.00,0.00,29.74,M,4.97,M,FEW,SCT,BKN,M,1300.00,2000.00,5400.00,M,-SHRA,YBBN 011700Z 16005KT 8000 -SHRA FEW013 SCT020 BKN054 20/19 Q1007
YBBN,2013-03-01 17:30,153.1292,-27.3917,68.00,66.20,93.97,190.00,4.00,0.00,29.74,M,6.21,M,FEW,BKN,M,M,2000.00,6600.00,M,M,M,YBBN 011730Z 19004KT 9999 FEW020 BKN066 20/19 Q1007
YBBN,2013-03-01 18:00,153.1292,-27.3917,68.00,68.00,100.00,210.00,5.00,0.00,29.74,M,6.21,M,FEW,SCT,BKN,M,2200.00,3500.00,10000.00,M,M,YBBN 011800Z 21005KT 9999 FEW022 SCT035 BKN100 20/20 Q1007 INTER 1800/2100 3000 SHRA BKN008
YBBN,2013-03-01 18:30,153.1292,-27.3917,68.00,68.00,100.00,190.00,4.00,0.00,29.74,M,6.21,M,FEW,BKN,M,M,2100.00,7400.00,M,M,M,YBBN 011830Z 19004KT 9999 FEW021 BKN074 20/20 Q1007
YBBN,2013-03-01 19:00,153.1292,-27.3917,69.80,68.00,94.01,170.00,4.00,0.00,29.77,M,6.21,M,FEW,BKN,M,M,2100.00,5500.00,M,M,M,YBBN 011900Z 17004KT 9999 FEW021 BKN055 21/20 Q1008 INTER 1900/2200 3000 SHRA BKN008
YBBN,2013-03-01 19:38,153.1292,-27.3917,69.80,68.00,94.01,210.00,3.00,0.00,29.77,M,1.24,M,FEW,SCT,BKN,M,600.00,2100.00,6600.00,M,SHRA,YBBN 011938Z 21003KT 2000 SHRA FEW006 SCT021 BKN066 21/20 Q1008
YBBN,2013-03-01 19:52,153.1292,-27.3917,69.80,69.80,100.00,220.00,6.00,0.00,29.77,M,0.62,M,FEW,SCT,BKN,M,1000.00,2200.00,4500.00,M,+SHRA,YBBN 011952Z 22006KT 1000 +SHRA FEW010 SCT022 BKN045 21/21 Q1008
YBBN,2013-03-01 20:00,153.1292,-27.3917,69.80,69.80,100.00,200.00,6.00,0.00,29.77,M,0.93,M,FEW,SCT,BKN,M,900.00,2200.00,3200.00,M,+SHRA,YBBN 012000Z 20006KT 1500 +SHRA FEW009 SCT022 BKN032 21/21 Q1008 RESHRA
YBBN,2013-03-01 20:30,153.1292,-27.3917,69.80,69.80,100.00,190.00,7.00,0.00,29.77,M,1.86,M,FEW,SCT,BKN,M,900.00,2200.00,3200.00,M,+SHRA,YBBN 012030Z 19007KT 3000 +SHRA FEW009 SCT022 BKN032 21/21 Q1008
YBBN,2013-03-01 20:45,153.1292,-27.3917,69.80,69.80,100.00,190.00,6.00,0.00,29.77,M,3.11,M,FEW,SCT,BKN,M,1200.00,2300.00,3100.00,M,-SHRA,YBBN 012045Z 19006KT 5000 -SHRA FEW012 SCT023 BKN031 21/21 Q1008
YBBN,2013-03-01 21:00,153.1292,-27.3917,71.60,69.80,94.06,170.00,5.00,0.00,29.80,M,3.73,M,FEW,SCT,BKN,M,1500.00,2300.00,4000.00,M,-SHRA,YBBN 012100Z 17005KT 6000 -SHRA FEW015 SCT023 BKN040 22/21 Q1009
YBBN,2013-03-01 21:30,153.1292,-27.3917,71.60,69.80,94.06,210.00,6.00,0.00,29.80,M,3.11,M,FEW,SCT,BKN,M,900.00,2500.00,3500.00,M,-SHRA,YBBN 012130Z 21006KT 5000 -SHRA FEW009 SCT025 BKN035 22/21 Q1009
YBBN,2013-03-01 22:00,153.1292,-27.3917,71.60,69.80,94.06,210.00,9.00,0.00,29.80,M,3.73,M,FEW,SCT,BKN,M,1200.00,2500.00,4500.00,M,-SHRA,YBBN 012200Z 21009KT 6000 -SHRA FEW012 SCT025 BKN045 22/21 Q1009
YBBN,2013-03-01 22:30,153.1292,-27.3917,73.40,71.60,94.10,200.00,10.00,0.00,29.80,M,3.73,M,FEW,SCT,BKN,M,700.00,2500.00,5500.00,M,-SHRA,YBBN 012230Z 20010KT 6000 -SHRA FEW007 SCT025 BKN055 23/22 Q1009
YBBN,2013-03-01 23:00,153.1292,-27.3917,75.20,71.60,88.59,200.00,10.00,0.00,29.80,M,4.35,M,FEW,SCT,BKN,M,700.00,2400.00,5500.00,M,-SHRA,YBBN 012300Z 20010KT 7000 -SHRA FEW007 SCT024 BKN055 24/22 Q1009
YBBN,2013-03-01 23:28,153.1292,-27.3917,73.40,69.80,88.51,210.00,9.00,0.00,29.80,M,1.24,M,FEW,SCT,BKN,M,700.00,1100.00,3500.00,M,+SHRA,YBBN 012328Z 21009KT 2000 +SHRA FEW007 SCT011 BKN035 23/21 Q1009
YBBN,2013-03-01 23:30,153.1292,-27.3917,73.40,69.80,88.51,200.00,7.00,0.00,29.80,M,1.24,M,FEW,SCT,BKN,M,700.00,1100.00,3500.00,M,+SHRA,YBBN 012330Z 20007KT 2000 +SHRA FEW007 SCT011 BKN035 23/21 Q1009
YBBN,2013-03-01 23:38,153.1292,-27.3917,71.60,71.60,100.00,150.00,5.00,0.00,29.80,M,0.93,M,FEW,SCT,BKN,M,400.00,700.00,3000.00,M,+SHRA,YBBN 012338Z 15005KT 1500 1000N +SHRA FEW004 SCT007 BKN030 22/22 Q1009
