#DEBUG: Format Typ    -> comma
#DEBUG: Time Period   -> 2016-11-27 00:00:00+00:00 2016-11-28 00:00:00+00:00
#DEBUG: Time Zone     -> Etc/UTC
#DEBUG: Data Contact   -> daryl herzmann akrherz@iastate.edu 515-294-5978
#DEBUG: Entries Found -> -1
station,valid,lon,lat,tmpf, dwpf, relh, drct, sknt, p01i, alti, mslp, vsby, gust, skyc1, skyc2, skyc3, skyc4, skyl1, skyl2, skyl3, skyl4, presentwx, metar
YBBN,2016-11-27 00:00,153.1292,-27.3917,77.00,62.60,61.13,350.00,6.00,0.00,30.00,M,6.21,M,SCT,FEW,M,M,2500.00,2700.00,M,M,M,YBBN 270000Z 35006KT 9999 SCT025 FEW027TCU 25/17 Q1016
YBBN,2016-11-27 00:30,153.1292,-27.3917,78.80,60.80,54.05,10.00,7.00,0.00,30.00,M,6.21,M,SCT,M,M,M,3000.00,M,M,M,M,YBBN 270030Z 01007KT 9999 SCT030 26/16 Q1016 NOSIG
YBBN,2016-11-27 01:00,153.1292,-27.3917,77.00,60.80,57.36,360.00,7.00,0.00,30.00,M,6.21,M,SCT,FEW,M,M,3000.00,3200.00,M,M,M,YBBN 270100Z 36007KT 9999 SCT030 FEW032CB 25/16 Q1016
YBBN,2016-11-27 01:30,153.1292,-27.3917,80.60,62.60,54.30,20.00,9.00,0.00,29.97,M,6.21,M,FEW,M,M,M,3000.00,M,M,M,M,YBBN 270130Z 02009KT 9999 FEW030 27/17 Q1015 NOSIG
YBBN,2016-11-27 02:00,153.1292,-27.3917,80.60,62.60,54.30,20.00,10.00,0.00,29.97,M,6.21,M,FEW,M,M,M,3000.00,M,M,M,M,YBBN 270200Z 02010KT 9999 FEW030 27/17 Q1015
YBBN,2016-11-27 02:30,153.1292,-27.3917,78.80,62.60,57.60,20.00,11.00,0.00,29.97,M,6.21,M,FEW,FEW,M,M,3000.00,3200.00,M,M,M,YBBN 270230Z 02011KT 9999 FEW030 FEW032CB 26/17 Q1015 NOSIG
YBBN,2016-11-27 03:00,153.1292,-27.3917,80.60,64.40,57.84,10.00,13.00,0.00,29.94,M,6.21,M,FEW,FEW,M,M,3000.00,3200.00,M,M,M,YBBN 270300Z 01013KT 9999 FEW030 FEW032CB 27/18 Q1014
YBBN,2016-11-27 03:30,153.1292,-27.3917,78.80,64.40,61.36,30.00,13.00,0.00,29.94,M,6.21,M,FEW,FEW,M,M,3000.00,3200.00,M,M,M,YBBN 270330Z 03013KT 9999 FEW030 FEW032CB 26/18 Q1014 NOSIG
YBBN,2016-11-27 04:00,153.1292,-27.3917,78.80,64.40,61.36,40.00,13.00,0.00,29.94,M,6.21,M,FEW,FEW,M,M,3000.00,3200.00,M,M,M,YBBN 270400Z 04013KT 9999 FEW030 FEW032CB 26/18 Q1014 NOSIG
YBBN,2016-11-27 04:30,153.1292,-27.3917,78.80,66.20,65.33,30.00,14.00,0.00,29.94,M,6.21,M,FEW,M,M,M,3000.00,M,M,M,M,YBBN 270430Z 03014KT 9999 FEW030 26/19 Q1014 NOSIG
YBBN,2016-11-27 05:00,153.1292,-27.3917,78.80,64.40,61.36,30.00,15.00,0.00,29.91,M,6.21,M,FEW,FEW,M,M,3000.00,3200.00,M,M,M,YBBN 270500Z 03015KT 9999 FEW030 FEW032CB 26/18 Q1013
YBBN,2016-11-27 05:30,153.1292,-27.3917,78.80,64.40,61.36,20.00,14.00,0.00,29.91,M,6.21,M,FEW,M,M,M,3000.00,M,M,M,M,YBBN 270530Z 02014KT 9999 FEW030CB 26/18 Q1013 NOSIG
YBBN,2016-11-27 06:00,153.1292,-27.3917,78.80,62.60,57.60,20.00,14.00,0.00,29.91,M,6.21,M,FEW,M,M,M,3000.00,M,M,M,M,YBBN 270600Z 02014KT 9999 FEW030CB 26/17 Q1013
YBBN,2016-11-27 07:00,153.1292,-27.3917,77.00,60.80,57.36,50.00,12.00,0.00,29.94,M,6.21,M,FEW,M,M,M,3500.00,M,M,M,M,YBBN 270700Z 05012KT 9999 FEW035 25/16 Q1014
YBBN,2016-11-27 08:30,153.1292,-27.3917,73.40,62.60,68.94,30.00,10.00,0.00,29.97,M,6.21,M,FEW,M,M,M,2000.00,M,M,M,M,YBBN 270830Z 03010KT 9999 FEW020 23/17 Q1015 NOSIG
YBBN,2016-11-27 09:00,153.1292,-27.3917,73.40,62.60,68.94,40.00,8.00,0.00,30.00,M,6.21,M,FEW,SCT,M,M,2000.00,25000.00,M,M,M,YBBN 270900Z 04008KT 9999 FEW020 SCT250 23/17 Q1016
YBBN,2016-11-27 09:30,153.1292,-27.3917,71.60,62.60,73.27,40.00,6.00,0.00,30.00,M,6.21,M,FEW,SCT,M,M,2000.00,13000.00,M,M,M,YBBN 270930Z 04006KT 9999 FEW020 SCT130 22/17 Q1016 NOSIG
YBBN,2016-11-27 10:00,153.1292,-27.3917,71.60,64.40,78.04,40.00,6.00,0.00,30.00,M,6.21,M,FEW,M,M,M,2000.00,M,M,M,M,YBBN 271000Z 04006KT 9999 FEW020 22/18 Q1016 NOSIG
YBBN,2016-11-27 10:30,153.1292,-27.3917,73.40,64.40,73.44,40.00,9.00,0.00,30.03,M,6.21,M,SCT,BKN,M,M,2500.00,24500.00,M,M,M,YBBN 271030Z 04009KT 9999 SCT025 BKN245 23/18 Q1017 NOSIG
YBBN,2016-11-27 11:00,153.1292,-27.3917,73.40,64.40,73.44,40.00,9.00,0.00,30.03,M,6.21,M,SCT,BKN,M,M,2500.00,12500.00,M,M,M,YBBN 271100Z 04009KT 9999 SCT025 BKN125 23/18 Q1017
YBBN,2016-11-27 11:30,153.1292,-27.3917,71.60,62.60,73.27,30.00,8.00,0.00,30.00,M,6.21,M,FEW,BKN,M,M,2500.00,24000.00,M,M,M,YBBN 271130Z 03008KT 9999 FEW025 BKN240 22/17 Q1016
YBBN,2016-11-27 12:00,153.1292,-27.3917,73.40,62.60,68.94,20.00,9.00,0.00,30.00,M,6.21,M,SCT,BKN,M,M,2500.00,24000.00,M,M,M,YBBN 271200Z 02009KT 9999 SCT025 BKN240 23/17 Q1016 NOSIG
YBBN,2016-11-27 12:30,153.1292,-27.3917,71.60,64.40,78.04,20.00,8.00,0.00,30.03,M,6.21,M,SCT,BKN,M,M,2500.00,21000.00,M,M,M,YBBN 271230Z 02008KT 9999 SCT025 BKN210 22/18 Q1017 NOSIG
YBBN,2016-11-27 13:00,153.1292,-27.3917,71.60,62.60,73.27,20.00,8.00,0.00,30.03,M,6.21,M,SCT,BKN,M,M,2500.00,23500.00,M,M,M,YBBN 271300Z 02008KT 9999 SCT025 BKN235 22/17 Q1017
YBBN,2016-11-27 13:30,153.1292,-27.3917,71.60,62.60,73.27,30.00,8.00,0.00,30.00,M,6.21,M,SCT,BKN,M,M,2500.00,24000.00,M,M,M,YBBN 271330Z 03008KT 9999 SCT025 BKN240 22/17 Q1016
YBBN,2016-11-27 14:00,153.1292,-27.3917,71.60,62.60,73.27,20.00,7.00,0.00,30.00,M,6.21,M,FEW,BKN,M,M,2500.00,22500.00,M,M,M,YBBN 271400Z 02007KT 9999 FEW025 BKN225 22/17 Q1016 NOSIG
YBBN,2016-11-27 14:30,153.1292,-27.3917,71.60,62.60,73.27,40.00,9.00,0.00,30.00,M,6.21,M,SCT,BKN,M,M,2500.00,22500.00,M,M,M,YBBN 271430Z 04009KT 9999 SCT025 BKN225 22/17 Q1016 NOSIG
YBBN,2016-11-27 15:00,153.1292,-27.3917,71.60,62.60,73.27,30.00,8.00,0.00,29.97,M,6.21,M,SCT,BKN,M,M,2500.00,22500.00,M,M,M,YBBN 271500Z 03008KT 9999 SCT025 BKN225 22/17 Q1015
YBBN,2016-11-27 16:00,153.1292,-27.3917,71.60,62.60,73.27,40.00,7.00,0.00,29.97,M,6.21,M,FEW,BKN,M,M,2500.00,24000.00,M,M,M,YBBN 271600Z 04007KT 9999 FEW025 BKN240 22/17 Q1015
YBBN,2016-11-27 17:30,153.1292,-27.3917,69.80,64.40,82.98,250.00,5.00,0.00,29.97,M,6.21,M,FEW,M,M,M,2500.00,M,M,M,M,YBBN 271730Z 25005KT 9999 FEW025 21/18 Q1015 NOSIG
YBBN,2016-11-27 18:00,153.1292,-27.3917,68.00,64.40,88.26,200.00,4.00,0.00,29.97,M,6.21,M,SCT,M,M,M,2500.00,M,M,M,M,YBBN 271800Z 20004KT 9999 SCT025 20/18 Q1015
YBBN,2016-11-27 18:30,153.1292,-27.3917,68.00,62.60,82.86,210.00,4.00,0.00,29.97,M,6.21,M,FEW,SCT,M,M,1700.00,2000.00,M,M,M,YBBN 271830Z 21004KT 9999 FEW017 SCT020 20/17 Q1015 NOSIG
YBBN,2016-11-27 19:00,153.1292,-27.3917,68.00,62.60,82.86,200.00,4.00,0.00,29.97,M,6.21,M,FEW,M,M,M,1700.00,M,M,M,M,YBBN 271900Z 20004KT 9999 FEW017 20/17 Q1015 NOSIG
YBBN,2016-11-27 19:30,153.1292,-27.3917,68.00,62.60,82.86,200.00,4.00,0.00,30.00,M,6.21,M,FEW,SCT,M,M,1700.00,2000.00,M,M,M,YBBN 271930Z 20004KT 9999 FEW017 SCT020 20/17 Q1016 NOSIG
YBBN,2016-11-27 20:00,153.1292,-27.3917,69.80,64.40,82.98,210.00,5.00,0.00,30.00,M,6.21,M,FEW,M,M,M,1700.00,M,M,M,M,YBBN 272000Z 21005KT 9999 FEW017 21/18 Q1016 NOSIG
YBBN,2016-11-27 20:30,153.1292,-27.3917,73.40,62.60,68.94,190.00,5.00,0.00,30.00,M,6.21,M,FEW,SCT,M,M,1800.00,5000.00,M,M,M,YBBN 272030Z 19005KT 9999 FEW018 SCT050 23/17 Q1016 NOSIG
YBBN,2016-11-27 22:30,153.1292,-27.3917,75.20,64.40,69.14,20.00,7.00,0.00,30.03,M,6.21,M,SCT,M,M,M,2500.00,M,M,M,M,YBBN 272230Z 02007KT 9999 SCT025 24/18 Q1017 NOSIG
YBBN,2016-11-27 23:00,153.1292,-27.3917,77.00,62.60,61.13,360.00,7.00,0.00,30.03,M,6.21,M,SCT,M,M,M,2500.00,M,M,M,M,YBBN 272300Z 36007KT 350V050 9999 SCT025 25/17 Q1017
YBBN,2016-11-27 23:30,153.1292,-27.3917,77.00,62.60,61.13,360.00,7.00,0.00,30.03,M,6.21,M,SCT,M,M,M,2800.00,M,M,M,M,YBBN 272330Z 36007KT 9999 SCT028 25/17 Q1017 NOSIG
