#DEBUG: Format Typ    -> comma
#DEBUG: Time Period   -> 2010-12-05 00:00:00+00:00 2010-12-06 00:00:00+00:00
#DEBUG: Time Zone     -> Etc/UTC
#DEBUG: Data Contact   -> daryl herzmann akrherz@iastate.edu 515-294-5978
#DEBUG: Entries Found -> -1
station,valid,lon,lat,tmpf, dwpf, relh, drct, sknt, p01i, alti, mslp, vsby, gust, skyc1, skyc2, skyc3, skyc4, skyl1, skyl2, skyl3, skyl4, presentwx, metar
YBBN,2010-12-05 06:30,153.1292,-27.3917,73.40,68.00,83.21,80.00,11.00,M,29.77,M,6.21,M,FEW,SCT,BKN,FEW,1000.00,1900.00,5300.00,2000.00,VCSH,YBBN 050630Z 08011KT 9999 VCSH FEW010 SCT019 BKN053 FEW020TCU 23/20 Q1008 RMK HEAVY SH SW INTER 0630/0930 3000 SHRA BKN010
YBBN,2010-12-05 07:00,153.1292,-27.3917,73.40,68.00,83.21,90.00,9.00,M,29.77,M,6.21,M,FEW,SCT,BKN,FEW,1000.00,1900.00,4600.00,2000.00,VCSH,YBBN 050700Z 09009KT 9999 VCSH FEW010 SCT019 BKN046 FEW020TCU 23/20 Q1008 RMK DISTANT SH SW INTER 0700/1000 3000 SHRA BKN010
YBBN,2010-12-05 07:30,153.1292,-27.3917,73.40,68.00,83.21,90.00,8.00,M,29.77,M,6.21,M,FEW,SCT,BKN,M,1000.00,1500.00,4300.00,M,VCSH,YBBN 050730Z 09008KT 9999 VCSH FEW010 SCT015 BKN043 23/20 Q1008 RMK SH TO WEST INTER 0730/1030 3000 SHRA BKN010
