#DEBUG: Format Typ    -> comma
#DEBUG: Time Period   -> 2011-02-03 00:00:00+00:00 2011-02-04 00:00:00+00:00
#DEBUG: Time Zone     -> Etc/UTC
#DEBUG: Data Contact   -> daryl herzmann akrherz@iastate.edu 515-294-5978
#DEBUG: Entries Found -> -1
station,valid,lon,lat,tmpf, dwpf, relh, drct, sknt, p01i, alti, mslp, vsby, gust, skyc1, skyc2, skyc3, skyc4, skyl1, skyl2, skyl3, skyl4, presentwx, metar
YBBN,2011-02-03 01:00,153.1292,-27.3917,82.40,75.20,78.90,50.00,8.00,M,30.03,M,6.21,M,FEW,BKN,M,M,1500.00,5700.00,M,M,M,YBBN 030100Z 05008KT 9999 FEW015 BKN057 28/24 Q1017 NOSIG
YBBN,2011-02-03 01:30,153.1292,-27.3917,84.20,75.20,74.44,50.00,9.00,M,30.03,M,6.21,M,FEW,BKN,M,M,2400.00,5500.00,M,M,M,YBBN 030130Z 05009KT 9999 FEW024 BKN055 29/24 Q1017 NOSIG
YBBN,2011-02-03 02:00,153.1292,-27.3917,84.20,73.40,70.08,40.00,11.00,M,30.03,M,6.21,M,FEW,SCT,BKN,M,1800.00,2400.00,26000.00,M,M,YBBN 030200Z 04011KT 9999 FEW018 SCT024 BKN260 29/23 Q1017 NOSIG
YBBN,2011-02-03 02:30,153.1292,-27.3917,84.20,73.40,70.08,40.00,11.00,M,30.03,M,6.21,M,FEW,BKN,M,M,2500.00,26000.00,M,M,M,YBBN 030230Z 04011KT 9999 FEW025 BKN260 29/23 Q1017 NOSIG
YBBN,2011-02-03 03:00,153.1292,-27.3917,86.00,75.20,70.27,40.00,12.00,M,30.00,M,6.21,M,FEW,SCT,BKN,M,1700.00,6300.00,26000.00,M,M,YBBN 030300Z 04012KT 9999 FEW017 SCT063 BKN260 30/24 Q1016 NOSIG
YBBN,2011-02-03 03:30,153.1292,-27.3917,84.20,73.40,70.08,50.00,11.00,M,30.00,M,6.21,M,FEW,SCT,BKN,M,1700.00,6300.00,26000.00,M,M,YBBN 030330Z 05011KT 9999 FEW017 SCT063 BKN260 29/23 Q1016 NOSIG
YBBN,2011-02-03 04:00,153.1292,-27.3917,84.20,73.40,70.08,30.00,12.00,M,30.00,M,6.21,M,FEW,SCT,BKN,M,1700.00,6300.00,26000.00,M,M,YBBN 030400Z 03012KT 9999 FEW017 SCT063 BKN260 29/23 Q1016 NOSIG
YBBN,2011-02-03 04:30,153.1292,-27.3917,84.20,73.40,70.08,30.00,12.00,M,29.97,M,6.21,M,FEW,BKN,M,M,1900.00,26000.00,M,M,M,YBBN 030430Z 03012KT 9999 FEW019 BKN260 29/23 Q1015 NOSIG
YBBN,2011-02-03 05:00,153.1292,-27.3917,84.20,73.40,70.08,20.00,12.00,M,29.97,M,6.21,M,FEW,BKN,M,M,2000.00,26000.00,M,M,M,YBBN 030500Z 02012KT 9999 FEW020 BKN260 29/23 Q1015 NOSIG
YBBN,2011-02-03 05:30,153.1292,-27.3917,84.20,73.40,70.08,30.00,13.00,M,29.97,M,6.21,M,FEW,SCT,M,M,2200.00,26000.00,M,M,M,YBBN 030530Z 03013KT 9999 FEW022 SCT260 29/23 Q1015 NOSIG
YBBN,2011-02-03 06:00,153.1292,-27.3917,84.20,73.40,70.08,20.00,13.00,M,29.97,M,6.21,M,FEW,SCT,M,M,2400.00,26000.00,M,M,M,YBBN 030600Z 02013KT 9999 FEW024 SCT260 29/23 Q1015 NOSIG
YBBN,2011-02-03 06:30,153.1292,-27.3917,84.20,73.40,70.08,10.00,13.00,M,29.97,M,6.21,M,FEW,SCT,M,M,2500.00,26000.00,M,M,M,YBBN 030630Z 01013KT 9999 FEW025 SCT260 29/23 Q1015 NOSIG
YBBN,2011-02-03 07:00,153.1292,-27.3917,82.40,73.40,74.28,10.00,14.00,M,29.97,M,6.21,M,FEW,SCT,M,M,2500.00,30000.00,M,M,M,YBBN 030700Z 01014KT 9999 FEW025 SCT300 28/23 Q1015 NOSIG
YBBN,2011-02-03 07:30,153.1292,-27.3917,82.40,73.40,74.28,10.00,11.00,M,29.97,M,6.21,M,FEW,M,M,M,2100.00,M,M,M,M,YBBN 030730Z 01011KT 9999 FEW021 28/23 Q1015 NOSIG
YBBN,2011-02-03 08:00,153.1292,-27.3917,80.60,73.40,78.76,10.00,12.00,M,29.97,M,6.21,M,FEW,M,M,M,2000.00,M,M,M,M,YBBN 030800Z 01012KT 9999 FEW020 27/23 Q1015 NOSIG
YBBN,2011-02-03 08:30,153.1292,-27.3917,80.60,73.40,78.76,20.00,11.00,M,29.97,M,6.21,M,FEW,M,M,M,2000.00,M,M,M,M,YBBN 030830Z 02011KT 9999 FEW020 27/23 Q1015 NOSIG
YBBN,2011-02-03 09:00,153.1292,-27.3917,78.80,73.40,83.55,20.00,12.00,M,29.97,M,6.21,M,FEW,M,M,M,2000.00,M,M,M,M,YBBN 030900Z 02012KT 9999 FEW020 26/23 Q1015 NOSIG
YBBN,2011-02-03 09:30,153.1292,-27.3917,78.80,73.40,83.55,20.00,11.00,M,29.97,M,6.21,M,FEW,M,M,M,1800.00,M,M,M,M,YBBN 030930Z 02011KT 9999 FEW018 26/23 Q1015 NOSIG
YBBN,2011-02-03 10:00,153.1292,-27.3917,78.80,73.40,83.55,20.00,13.00,M,29.97,M,6.21,M,FEW,M,M,M,1800.00,M,M,M,M,YBBN 031000Z 02013KT 9999 FEW018 26/23 Q1015 NOSIG
YBBN,2011-02-03 10:30,153.1292,-27.3917,80.60,73.40,78.76,10.00,12.00,M,30.00,M,6.21,M,FEW,M,M,M,1800.00,M,M,M,M,YBBN 031030Z 01012KT 9999 FEW018 27/23 Q1016 NOSIG
YBBN,2011-02-03 11:00,153.1292,-27.3917,80.60,73.40,78.76,10.00,11.00,M,30.00,M,6.21,M,SCT,M,M,M,1800.00,M,M,M,M,YBBN 031100Z 01011KT 9999 SCT018 27/23 Q1016 NOSIG
YBBN,2011-02-03 11:30,153.1292,-27.3917,80.60,73.40,78.76,20.00,12.00,M,30.00,M,6.21,M,SCT,M,M,M,1800.00,M,M,M,M,YBBN 031130Z 02012KT 9999 SCT018 27/23 Q1016 NOSIG
YBBN,2011-02-03 19:30,153.1292,-27.3917,75.20,73.40,94.14,310.00,3.00,M,30.00,M,6.21,M,FEW,M,M,M,1800.00,M,M,M,M,YBBN 031930Z 31003KT 9999 FEW018 24/23 Q1016 NOSIG
YBBN,2011-02-03 20:00,153.1292,-27.3917,75.20,73.40,94.14,270.00,2.00,M,30.00,M,6.21,M,FEW,M,M,M,1800.00,M,M,M,M,YBBN 032000Z 27002KT 9999 FEW018 24/23 Q1016 NOSIG
YBBN,2011-02-03 20:30,153.1292,-27.3917,78.80,75.20,88.75,300.00,4.00,M,30.00,M,6.21,M,FEW,M,M,M,1800.00,M,M,M,M,YBBN 032030Z 30004KT 9999 FEW018 26/24 Q1016 NOSIG
YBBN,2011-02-03 21:00,153.1292,-27.3917,78.80,73.40,83.55,310.00,5.00,M,30.03,M,6.21,M,FEW,M,M,M,1800.00,M,M,M,M,YBBN 032100Z 31005KT 9999 FEW018 26/23 Q1017 NOSIG
YBBN,2011-02-03 21:30,153.1292,-27.3917,80.60,73.40,78.76,310.00,5.00,M,30.03,M,6.21,M,FEW,M,M,M,1800.00,M,M,M,M,YBBN 032130Z 31005KT 9999 FEW018 27/23 Q1017 NOSIG
YBBN,2011-02-03 22:00,153.1292,-27.3917,80.60,73.40,78.76,350.00,5.00,M,30.03,M,6.21,M,FEW,M,M,M,2000.00,M,M,M,M,YBBN 032200Z 35005KT 9999 FEW020 27/23 Q1017 NOSIG
YBBN,2011-02-03 22:30,153.1292,-27.3917,82.40,73.40,74.28,10.00,7.00,M,30.03,M,6.21,M,FEW,M,M,M,2000.00,M,M,M,M,YBBN 032230Z 01007KT 9999 FEW020 28/23 Q1017 NOSIG
YBBN,2011-02-03 23:00,153.1292,-27.3917,84.20,75.20,74.44,360.00,7.00,M,30.03,M,6.21,M,SCT,M,M,M,2000.00,M,M,M,M,YBBN 032300Z 36007KT 9999 SCT020 29/24 Q1017 NOSIG
YBBN,2011-02-03 23:30,153.1292,-27.3917,82.40,73.40,74.28,10.00,8.00,M,30.03,M,6.21,M,SCT,M,M,M,2000.00,M,M,M,M,YBBN 032330Z 01008KT 9999 SCT020 28/23 Q1017 NOSIG
