#DEBUG: Format Typ    -> comma
#DEBUG: Time Period   -> 2014-12-14 00:00:00+00:00 2014-12-15 00:00:00+00:00
#DEBUG: Time Zone     -> Etc/UTC
#DEBUG: Data Contact   -> daryl herzmann akrherz@iastate.edu 515-294-5978
#DEBUG: Entries Found -> -1
station,valid,lon,lat,tmpf, dwpf, relh, drct, sknt, p01i, alti, mslp, vsby, gust, skyc1, skyc2, skyc3, skyc4, skyl1, skyl2, skyl3, skyl4, presentwx, metar
YBBN,2014-12-14 00:00,153.1292,-27.3917,77.00,59.00,53.80,120.00,11.00,0.00,29.80,M,6.21,M,FEW,SCT,BKN,M,2500.00,3200.00,4200.00,M,M,YBBN 140000Z 12011KT 9999 FEW025 SCT032 BKN042 25/15 Q1009
YBBN,2014-12-14 00:30,153.1292,-27.3917,77.00,59.00,53.80,140.00,10.00,0.00,29.80,M,6.21,M,FEW,SCT,BKN,M,2300.00,3500.00,6300.00,M,M,YBBN 140030Z 14010KT 9999 FEW023 SCT035 BKN063 25/15 Q1009
YBBN,2014-12-14 01:00,153.1292,-27.3917,77.00,59.00,53.80,110.00,11.00,0.00,29.80,M,6.21,M,FEW,SCT,BKN,M,2400.00,3600.00,6200.00,M,VCSH,YBBN 140100Z 11011KT 9999 VCSH FEW024 SCT036 BKN062 25/15 Q1009
YBBN,2014-12-14 01:30,153.1292,-27.3917,77.00,60.80,57.36,120.00,13.00,0.00,29.80,M,6.21,M,FEW,SCT,BKN,M,2500.00,3600.00,5800.00,M,M,YBBN 140130Z 12013KT 9999 FEW025 SCT036 BKN058 25/16 Q1009 RMK DIST -SHRA NE/NW
YBBN,2014-12-14 02:00,153.1292,-27.3917,75.20,60.80,60.90,110.00,12.00,0.00,29.80,M,6.21,M,FEW,SCT,BKN,M,2500.00,3600.00,5300.00,M,M,YBBN 140200Z 11012KT 9999 FEW025 SCT036 BKN053 24/16 Q1009
YBBN,2014-12-14 02:30,153.1292,-27.3917,75.20,60.80,60.90,120.00,13.00,0.00,29.80,M,6.21,M,FEW,SCT,BKN,M,2600.00,3700.00,5700.00,M,VCSH,YBBN 140230Z 12013KT 9999 VCSH FEW026 SCT037 BKN057 24/16 Q1009 RMK -SHRA W/NW
YBBN,2014-12-14 03:00,153.1292,-27.3917,77.00,60.80,57.36,120.00,13.00,0.00,29.80,M,6.21,M,FEW,SCT,BKN,M,2600.00,3700.00,6000.00,M,VCSH,YBBN 140300Z 12013KT 9999 VCSH FEW026 SCT037 BKN060 25/16 Q1009 NOSIG
YBBN,2014-12-14 03:30,153.1292,-27.3917,77.00,62.60,61.13,120.00,12.00,0.00,29.77,M,6.21,M,FEW,SCT,BKN,M,2600.00,3800.00,6200.00,M,VCSH,YBBN 140330Z 12012KT 9999 VCSH FEW026 SCT038 BKN062 25/17 Q1008
YBBN,2014-12-14 04:00,153.1292,-27.3917,77.00,60.80,57.36,130.00,13.00,0.00,29.77,M,6.21,M,FEW,SCT,BKN,M,2600.00,3800.00,6500.00,M,VCSH,YBBN 140400Z 13013KT 9999 VCSH FEW026 SCT038 BKN065 25/16 Q1008
YBBN,2014-12-14 04:30,153.1292,-27.3917,77.00,60.80,57.36,120.00,13.00,0.00,29.77,M,6.21,M,FEW,SCT,BKN,M,2600.00,3800.00,6800.00,M,-SHRA,YBBN 140430Z 12013KT 9999 -SHRA FEW026 SCT038 BKN068 25/16 Q1008 RMK -SHRA W/NW
YBBN,2014-12-14 05:00,153.1292,-27.3917,75.20,59.00,57.12,120.00,13.00,0.00,29.77,M,6.21,M,FEW,SCT,BKN,M,2500.00,3800.00,10000.00,M,VCSH,YBBN 140500Z 12013KT 9999 VCSH FEW025 SCT038 BKN100 24/15 Q1008
YBBN,2014-12-14 05:30,153.1292,-27.3917,75.20,60.80,60.90,120.00,11.00,0.00,29.77,M,6.21,M,FEW,SCT,BKN,M,2400.00,3700.00,7800.00,M,M,YBBN 140530Z 12011KT 9999 FEW024 SCT037 BKN078 24/16 Q1008 RMK DIST -SHRA W/NW
YBBN,2014-12-14 06:00,153.1292,-27.3917,75.20,59.00,57.12,120.00,13.00,0.00,29.77,M,6.21,M,FEW,SCT,BKN,M,2400.00,3600.00,8200.00,M,M,YBBN 140600Z 12013KT 9999 FEW024 SCT036 BKN082 24/15 Q1008 NOSIG
YBBN,2014-12-14 06:30,153.1292,-27.3917,75.20,59.00,57.12,130.00,12.00,0.00,29.77,M,6.21,M,FEW,SCT,BKN,M,2300.00,4300.00,10000.00,M,VCSH,YBBN 140630Z 13012KT 9999 VCSH FEW023 SCT043 BKN100 24/15 Q1008 RMK -SHRA W/NW
YBBN,2014-12-14 07:00,153.1292,-27.3917,75.20,59.00,57.12,120.00,11.00,0.00,29.77,M,6.21,M,FEW,SCT,M,M,2300.00,9800.00,M,M,M,YBBN 140700Z 12011KT 9999 FEW023 SCT098 24/15 Q1008 NOSIG
YBBN,2014-12-14 07:30,153.1292,-27.3917,75.20,59.00,57.12,130.00,12.00,0.00,29.80,M,6.21,M,FEW,SCT,BKN,M,2300.00,5300.00,9800.00,M,M,YBBN 140730Z 13012KT 9999 FEW023 SCT053 BKN098 24/15 Q1009
YBBN,2014-12-14 08:00,153.1292,-27.3917,73.40,59.00,60.67,140.00,10.00,0.00,29.80,M,6.21,M,FEW,SCT,BKN,M,2200.00,5500.00,10500.00,M,M,YBBN 140800Z 14010KT 9999 FEW022 SCT055 BKN105 23/15 Q1009
YBBN,2014-12-14 08:30,153.1292,-27.3917,73.40,59.00,60.67,140.00,11.00,0.00,29.80,M,6.21,M,FEW,SCT,BKN,M,2200.00,5500.00,10000.00,M,M,YBBN 140830Z 14011KT 9999 FEW022 SCT055 BKN100 23/15 Q1009
YBBN,2014-12-14 09:00,153.1292,-27.3917,73.40,59.00,60.67,140.00,8.00,0.00,29.83,M,6.21,M,M,M,M,M,M,M,M,M,M,YBBN 140900Z 14008KT CAVOK 23/15 Q1010
YBBN,2014-12-14 09:30,153.1292,-27.3917,71.60,57.20,60.44,140.00,9.00,0.00,29.83,M,6.21,M,M,M,M,M,M,M,M,M,M,YBBN 140930Z 14009KT CAVOK 22/14 Q1010
YBBN,2014-12-14 10:00,153.1292,-27.3917,71.60,57.20,60.44,150.00,7.00,0.00,29.83,M,6.21,M,M,M,M,M,M,M,M,M,M,YBBN 141000Z 15007KT CAVOK 22/14 Q1010
YBBN,2014-12-14 10:30,153.1292,-27.3917,71.60,57.20,60.44,140.00,9.00,0.00,29.83,M,6.21,M,M,M,M,M,M,M,M,M,M,YBBN 141030Z 14009KT CAVOK 22/14 Q1010 RMK 5SC062
YBBN,2014-12-14 11:00,153.1292,-27.3917,69.80,57.20,64.26,160.00,7.00,0.00,29.85,M,6.21,M,M,M,M,M,M,M,M,M,M,YBBN 141100Z 16007KT CAVOK 21/14 Q1011 NOSIG
YBBN,2014-12-14 11:30,153.1292,-27.3917,69.80,57.20,64.26,170.00,7.00,0.00,29.85,M,6.21,M,M,M,M,M,M,M,M,M,M,YBBN 141130Z 17007KT CAVOK 21/14 Q1011 RMK 6SC084
YBBN,2014-12-14 12:00,153.1292,-27.3917,69.80,57.20,64.26,160.00,7.00,0.00,29.85,M,6.21,M,M,M,M,M,M,M,M,M,M,YBBN 141200Z 16007KT CAVOK 21/14 Q1011
YBBN,2014-12-14 12:30,153.1292,-27.3917,69.80,57.20,64.26,170.00,6.00,0.00,29.83,M,6.21,M,M,M,M,M,M,M,M,M,M,YBBN 141230Z 17006KT CAVOK 21/14 Q1010
YBBN,2014-12-14 13:00,153.1292,-27.3917,68.00,57.20,68.35,180.00,7.00,0.00,29.83,M,6.21,M,M,M,M,M,M,M,M,M,M,YBBN 141300Z 18007KT CAVOK 20/14 Q1010
YBBN,2014-12-14 13:30,153.1292,-27.3917,68.00,57.20,68.35,180.00,6.00,0.00,29.83,M,6.21,M,M,M,M,M,M,M,M,M,M,YBBN 141330Z 18006KT CAVOK 20/14 Q1010
YBBN,2014-12-14 14:00,153.1292,-27.3917,66.20,57.20,72.74,180.00,6.00,0.00,29.83,M,6.21,M,M,M,M,M,M,M,M,M,M,YBBN 141400Z 18006KT CAVOK 19/14 Q1010
YBBN,2014-12-14 14:30,153.1292,-27.3917,66.20,57.20,72.74,190.00,6.00,0.00,29.83,M,6.21,M,M,M,M,M,M,M,M,M,M,YBBN 141430Z 19006KT CAVOK 19/14 Q1010
YBBN,2014-12-14 15:00,153.1292,-27.3917,64.40,57.20,77.45,200.00,6.00,0.00,29.83,M,6.21,M,M,M,M,M,M,M,M,M,M,YBBN 141500Z 20006KT CAVOK 18/14 Q1010 NOSIG
YBBN,2014-12-14 15:30,153.1292,-27.3917,62.60,57.20,82.50,200.00,6.00,0.00,29.83,M,6.21,M,M,M,M,M,M,M,M,M,M,YBBN 141530Z 20006KT CAVOK 17/14 Q1010
YBBN,2014-12-14 16:00,153.1292,-27.3917,64.40,57.20,77.45,210.00,8.00,0.00,29.80,M,6.21,M,M,M,M,M,M,M,M,M,M,YBBN 141600Z 21008KT CAVOK 18/14 Q1009
YBBN,2014-12-14 16:30,153.1292,-27.3917,66.20,57.20,72.74,200.00,6.00,0.00,29.80,M,6.21,M,M,M,M,M,M,M,M,M,M,YBBN 141630Z 20006KT CAVOK 19/14 Q1009
YBBN,2014-12-14 17:00,153.1292,-27.3917,64.40,57.20,77.45,200.00,8.00,0.00,29.80,M,6.21,M,M,M,M,M,M,M,M,M,M,YBBN 141700Z 20008KT CAVOK 18/14 Q1009
YBBN,2014-12-14 17:30,153.1292,-27.3917,64.40,57.20,77.45,200.00,7.00,0.00,29.80,M,6.21,M,M,M,M,M,M,M,M,M,M,YBBN 141730Z 20007KT CAVOK 18/14 Q1009
YBBN,2014-12-14 18:00,153.1292,-27.3917,64.40,57.20,77.45,200.00,7.00,0.00,29.80,M,6.21,M,M,M,M,M,M,M,M,M,M,YBBN 141800Z 20007KT CAVOK 18/14 Q1009 NOSIG
YBBN,2014-12-14 18:30,153.1292,-27.3917,64.40,57.20,77.45,200.00,7.00,0.00,29.80,M,6.21,M,M,M,M,M,M,M,M,M,M,YBBN 141830Z 20007KT CAVOK 18/14 Q1009
YBBN,2014-12-14 19:00,153.1292,-27.3917,64.40,57.20,77.45,200.00,6.00,0.00,29.83,M,6.21,M,M,M,M,M,M,M,M,M,M,YBBN 141900Z 20006KT CAVOK 18/14 Q1010 NOSIG
YBBN,2014-12-14 19:30,153.1292,-27.3917,66.20,57.20,72.74,190.00,6.00,0.00,29.83,M,6.21,M,FEW,M,M,M,3000.00,M,M,M,M,YBBN 141930Z 19006KT 9999 FEW030 19/14 Q1010
YBBN,2014-12-14 20:00,153.1292,-27.3917,66.20,59.00,77.60,210.00,7.00,0.00,29.83,M,6.21,M,FEW,M,M,M,3000.00,M,M,M,M,YBBN 142000Z 21007KT 9999 FEW030 19/15 Q1010 NOSIG
YBBN,2014-12-14 20:30,153.1292,-27.3917,68.00,57.20,68.35,210.00,9.00,0.00,29.83,M,6.21,M,FEW,M,M,M,2800.00,M,M,M,M,YBBN 142030Z 21009KT 9999 FEW028 20/14 Q1010
YBBN,2014-12-14 21:00,153.1292,-27.3917,69.80,57.20,64.26,200.00,9.00,0.00,29.85,M,6.21,M,FEW,M,M,M,2800.00,M,M,M,M,YBBN 142100Z 20009KT 9999 FEW028 21/14 Q1011 NOSIG
YBBN,2014-12-14 21:30,153.1292,-27.3917,73.40,57.20,56.88,200.00,8.00,0.00,29.85,M,6.21,M,FEW,M,M,M,3000.00,M,M,M,M,YBBN 142130Z 20008KT 9999 FEW030 23/14 Q1011
YBBN,2014-12-14 22:00,153.1292,-27.3917,75.20,55.40,50.17,210.00,9.00,0.00,29.85,M,6.21,M,M,M,M,M,M,M,M,M,M,YBBN 142200Z 21009KT CAVOK 24/13 Q1011
YBBN,2014-12-14 22:30,153.1292,-27.3917,77.00,57.20,50.43,190.00,8.00,0.00,29.85,M,6.21,M,FEW,M,M,M,3200.00,M,M,M,M,YBBN 142230Z 19008KT 9999 FEW032 25/14 Q1011
YBBN,2014-12-14 23:00,153.1292,-27.3917,77.00,55.40,47.25,190.00,9.00,0.00,29.85,M,6.21,M,FEW,M,M,M,3600.00,M,M,M,M,YBBN 142300Z 19009KT 9999 FEW036 25/13 Q1011
YBBN,2014-12-14 23:30,153.1292,-27.3917,77.00,57.20,50.43,170.00,8.00,0.00,29.85,M,6.21,M,FEW,M,M,M,3500.00,M,M,M,M,YBBN 142330Z 17008KT 9999 FEW035 25/14 Q1011
