#DEBUG: Format Typ    -> comma
#DEBUG: Time Period   -> 2010-11-07 00:00:00+00:00 2010-11-08 00:00:00+00:00
#DEBUG: Time Zone     -> Etc/UTC
#DEBUG: Data Contact   -> daryl herzmann akrherz@iastate.edu 515-294-5978
#DEBUG: Entries Found -> -1
station,valid,lon,lat,tmpf, dwpf, relh, drct, sknt, p01i, alti, mslp, vsby, gust, skyc1, skyc2, skyc3, skyc4, skyl1, skyl2, skyl3, skyl4, presentwx, metar
YBBN,2010-11-07 00:00,153.1292,-27.3917,75.20,62.60,64.91,130.00,10.00,M,30.09,M,6.21,M,SCT,M,M,M,3200.00,M,M,M,M,YBBN 070000Z 13010KT 9999 SCT032 24/17 Q1019 NOSIG
YBBN,2010-11-07 00:30,153.1292,-27.3917,73.40,64.40,73.44,140.00,9.00,M,30.09,M,6.21,M,BKN,M,M,M,3500.00,M,M,M,M,YBBN 070030Z 14009KT 9999 BKN035 23/18 Q1019 NOSIG
YBBN,2010-11-07 01:00,153.1292,-27.3917,77.00,62.60,61.13,110.00,8.00,M,30.09,M,6.21,M,BKN,M,M,M,3000.00,M,M,M,M,YBBN 070100Z 11008KT 9999 BKN030 25/17 Q1019 NOSIG
YBBN,2010-11-07 01:30,153.1292,-27.3917,77.00,62.60,61.13,110.00,8.00,M,30.09,M,6.21,M,SCT,M,M,M,3000.00,M,M,M,M,YBBN 070130Z 11008KT 9999 SCT030 25/17 Q1019 NOSIG
YBBN,2010-11-07 02:00,153.1292,-27.3917,75.20,60.80,60.90,90.00,9.00,M,30.09,M,6.21,M,SCT,M,M,M,3000.00,M,M,M,M,YBBN 070200Z 09009KT 9999 SCT030 24/16 Q1019 NOSIG
YBBN,2010-11-07 02:30,153.1292,-27.3917,75.20,60.80,60.90,130.00,10.00,M,30.06,M,6.21,M,SCT,M,M,M,3000.00,M,M,M,M,YBBN 070230Z 13010KT 9999 SCT030 24/16 Q1018 NOSIG
YBBN,2010-11-07 03:00,153.1292,-27.3917,75.20,62.60,64.91,130.00,11.00,M,30.06,M,6.21,M,SCT,M,M,M,3000.00,M,M,M,M,YBBN 070300Z 13011KT 9999 SCT030 24/17 Q1018 NOSIG
YBBN,2010-11-07 03:30,153.1292,-27.3917,77.00,60.80,57.36,120.00,9.00,M,30.06,M,6.21,M,FEW,M,M,M,3000.00,M,M,M,M,YBBN 070330Z 12009KT 9999 FEW030 25/16 Q1018 NOSIG
YBBN,2010-11-07 04:00,153.1292,-27.3917,77.00,62.60,61.13,120.00,10.00,M,30.06,M,6.21,M,FEW,M,M,M,3000.00,M,M,M,M,YBBN 070400Z 12010KT 9999 FEW030 25/17 Q1018 NOSIG
YBBN,2010-11-07 04:30,153.1292,-27.3917,77.00,62.60,61.13,90.00,9.00,M,30.06,M,6.21,M,FEW,SCT,M,M,3000.00,27000.00,M,M,M,YBBN 070430Z 09009KT 9999 FEW030 SCT270 25/17 Q1018 NOSIG
YBBN,2010-11-07 05:00,153.1292,-27.3917,77.00,62.60,61.13,100.00,10.00,M,30.06,M,6.21,M,FEW,SCT,M,M,3000.00,27000.00,M,M,M,YBBN 070500Z 10010KT 9999 FEW030 SCT270 25/17 Q1018 NOSIG
YBBN,2010-11-07 05:30,153.1292,-27.3917,75.20,62.60,64.91,100.00,10.00,M,30.03,M,6.21,M,FEW,SCT,M,M,3000.00,27000.00,M,M,M,YBBN 070530Z 10010KT 9999 FEW030 SCT270 24/17 Q1017 NOSIG
YBBN,2010-11-07 06:00,153.1292,-27.3917,75.20,60.80,60.90,110.00,9.00,M,30.03,M,6.21,M,FEW,M,M,M,3000.00,M,M,M,M,YBBN 070600Z 11009KT 9999 FEW030 24/16 Q1017 NOSIG
YBBN,2010-11-07 06:30,153.1292,-27.3917,75.20,62.60,64.91,100.00,11.00,M,30.03,M,6.21,M,FEW,M,M,M,3000.00,M,M,M,M,YBBN 070630Z 10011KT 9999 FEW030 24/17 Q1017 NOSIG
YBBN,2010-11-07 07:00,153.1292,-27.3917,73.40,60.80,64.69,100.00,9.00,M,30.06,M,6.21,M,FEW,M,M,M,3000.00,M,M,M,M,YBBN 070700Z 10009KT 9999 FEW030 23/16 Q1018 NOSIG
YBBN,2010-11-07 07:30,153.1292,-27.3917,73.40,62.60,68.94,110.00,8.00,M,30.06,M,6.21,M,FEW,SCT,M,M,2500.00,27000.00,M,M,M,YBBN 070730Z 11008KT 9999 FEW025 SCT270 23/17 Q1018 NOSIG
YBBN,2010-11-07 08:00,153.1292,-27.3917,71.60,62.60,73.27,80.00,9.00,M,30.09,M,6.21,M,FEW,M,M,M,2400.00,M,M,M,M,YBBN 070800Z 08009KT 9999 FEW024 22/17 Q1019 NOSIG
YBBN,2010-11-07 08:30,153.1292,-27.3917,71.60,62.60,73.27,90.00,7.00,M,30.09,M,6.21,M,FEW,M,M,M,2400.00,M,M,M,M,YBBN 070830Z 09007KT 9999 FEW024 22/17 Q1019 NOSIG
YBBN,2010-11-07 09:00,153.1292,-27.3917,71.60,64.40,78.04,100.00,6.00,M,30.09,M,6.21,M,FEW,M,M,M,2400.00,M,M,M,M,YBBN 070900Z 10006KT 9999 FEW024 22/18 Q1019 NOSIG
YBBN,2010-11-07 09:30,153.1292,-27.3917,71.60,64.40,78.04,80.00,7.00,M,30.09,M,6.21,M,FEW,M,M,M,2400.00,M,M,M,M,YBBN 070930Z 08007KT 9999 FEW024 22/18 Q1019 NOSIG
YBBN,2010-11-07 10:00,153.1292,-27.3917,71.60,64.40,78.04,70.00,9.00,M,30.09,M,6.21,M,FEW,M,M,M,2400.00,M,M,M,M,YBBN 071000Z 07009KT 9999 FEW024 22/18 Q1019 NOSIG
YBBN,2010-11-07 10:30,153.1292,-27.3917,71.60,64.40,78.04,60.00,6.00,M,30.12,M,6.21,M,SCT,M,M,M,2400.00,M,M,M,M,YBBN 071030Z 06006KT 9999 SCT024 22/18 Q1020 NOSIG
YBBN,2010-11-07 11:00,153.1292,-27.3917,71.60,64.40,78.04,50.00,8.00,M,30.12,M,6.21,M,FEW,M,M,M,2400.00,M,M,M,VCSH,YBBN 071100Z 05008KT 9999 VCSH FEW024 22/18 Q1020 NOSIG
YBBN,2010-11-07 11:30,153.1292,-27.3917,71.60,64.40,78.04,50.00,7.00,M,30.12,M,6.21,M,FEW,M,M,M,2400.00,M,M,M,M,YBBN 071130Z 05007KT 9999 FEW024 22/18 Q1020 NOSIG
YBBN,2010-11-07 12:00,153.1292,-27.3917,71.60,64.40,78.04,50.00,7.00,M,30.12,M,6.21,M,SCT,M,M,M,2600.00,M,M,M,VCSH,YBBN 071200Z 05007KT 9999 VCSH SCT026 22/18 Q1020 NOSIG
YBBN,2010-11-07 12:30,153.1292,-27.3917,71.60,64.40,78.04,50.00,7.00,M,30.15,M,6.21,M,FEW,M,M,M,2600.00,M,M,M,M,YBBN 071230Z 05007KT 9999 FEW026 22/18 Q1021 NOSIG
YBBN,2010-11-07 13:00,153.1292,-27.3917,69.80,64.40,82.98,50.00,6.00,M,30.12,M,6.21,M,FEW,M,M,M,2600.00,M,M,M,VCSH,YBBN 071300Z 05006KT 9999 VCSH FEW026 21/18 Q1020 NOSIG
YBBN,2010-11-07 13:30,153.1292,-27.3917,69.80,64.40,82.98,40.00,6.00,M,30.12,M,6.21,M,FEW,M,M,M,2600.00,M,M,M,VCSH,YBBN 071330Z 04006KT 9999 VCSH FEW026 21/18 Q1020 NOSIG
YBBN,2010-11-07 14:00,153.1292,-27.3917,69.80,64.40,82.98,40.00,5.00,M,30.12,M,6.21,M,SCT,M,M,M,2600.00,M,M,M,-SHRA,YBBN 071400Z 04005KT 9999 -SHRA SCT026 21/18 Q1020 NOSIG
YBBN,2010-11-07 14:30,153.1292,-27.3917,69.80,66.20,88.34,60.00,5.00,M,30.09,M,6.21,M,SCT,M,M,M,2600.00,M,M,M,VCSH,YBBN 071430Z 06005KT 9999 VCSH SCT026 21/19 Q1019 NOSIG
YBBN,2010-11-07 19:30,153.1292,-27.3917,69.80,62.60,77.90,70.00,6.00,M,30.12,M,6.21,M,FEW,BKN,M,M,2600.00,23000.00,M,M,M,YBBN 071930Z 07006KT 9999 FEW026 BKN230 21/17 Q1020 NOSIG
YBBN,2010-11-07 20:00,153.1292,-27.3917,71.60,64.40,78.04,70.00,6.00,M,30.12,M,6.21,M,FEW,BKN,M,M,2600.00,25000.00,M,M,M,YBBN 072000Z 07006KT 9999 FEW026 BKN250 22/18 Q1020 NOSIG
YBBN,2010-11-07 22:00,153.1292,-27.3917,75.20,62.60,64.91,60.00,9.00,M,30.15,M,6.21,M,SCT,BKN,M,M,2700.00,25000.00,M,M,M,YBBN 072200Z 06009KT 9999 SCT027 BKN250 24/17 Q1021 NOSIG
YBBN,2010-11-07 22:30,153.1292,-27.3917,75.20,62.60,64.91,70.00,9.00,M,30.18,M,6.21,M,FEW,BKN,M,M,2900.00,27000.00,M,M,M,YBBN 072230Z 07009KT 9999 FEW029 BKN270 24/17 Q1022 NOSIG
YBBN,2010-11-07 23:00,153.1292,-27.3917,75.20,62.60,64.91,60.00,9.00,M,30.18,M,6.21,M,FEW,OVC,M,M,2900.00,27000.00,M,M,M,YBBN 072300Z 06009KT 9999 FEW029 OVC270 24/17 Q1022 NOSIG
YBBN,2010-11-07 23:30,153.1292,-27.3917,75.20,62.60,64.91,60.00,11.00,M,30.15,M,6.21,M,FEW,OVC,M,M,2900.00,27000.00,M,M,M,YBBN 072330Z 06011KT 9999 FEW029 OVC270 24/17 Q1021 NOSIG
