#DEBUG: Format Typ    -> comma
#DEBUG: Time Period   -> 2010-01-04 00:00:00+00:00 2010-01-05 00:00:00+00:00
#DEBUG: Time Zone     -> Etc/UTC
#DEBUG: Data Contact   -> daryl herzmann akrherz@iastate.edu 515-294-5978
#DEBUG: Entries Found -> -1
station,valid,lon,lat,tmpf, dwpf, relh, drct, sknt, p01i, alti, mslp, vsby, gust, skyc1, skyc2, skyc3, skyc4, skyl1, skyl2, skyl3, skyl4, presentwx, metar
YBBN,2010-01-04 00:00,153.1292,-27.3917,78.80,66.20,65.33,140.00,10.00,M,29.97,M,6.21,M,FEW,SCT,BKN,M,2800.00,5900.00,24000.00,M,M,YBBN 040000Z 14010KT 9999 FEW028 SCT059 BKN240 26/19 Q1015 NOSIG
YBBN,2010-01-04 00:30,153.1292,-27.3917,80.60,68.00,65.54,130.00,10.00,M,29.97,M,6.21,M,FEW,BKN,M,M,2800.00,24000.00,M,M,M,YBBN 040030Z 13010KT 9999 FEW028 BKN240 27/20 Q1015 NOSIG
YBBN,2010-01-04 01:00,153.1292,-27.3917,80.60,66.20,61.58,140.00,12.00,M,29.97,M,6.21,M,FEW,BKN,M,M,2800.00,24000.00,M,M,M,YBBN 040100Z 14012KT 9999 FEW028 BKN240 27/19 Q1015 NOSIG
YBBN,2010-01-04 01:30,153.1292,-27.3917,80.60,66.20,61.58,130.00,12.00,M,29.97,M,6.21,M,FEW,BKN,M,M,3000.00,24000.00,M,M,M,YBBN 040130Z 13012KT 9999 FEW030 BKN240 27/19 Q1015 NOSIG
YBBN,2010-01-04 02:00,153.1292,-27.3917,80.60,66.20,61.58,140.00,11.00,M,29.97,M,6.21,M,FEW,BKN,M,M,3000.00,24000.00,M,M,M,YBBN 040200Z 14011KT 9999 FEW030 BKN240 27/19 Q1015 NOSIG
YBBN,2010-01-04 02:30,153.1292,-27.3917,80.60,66.20,61.58,140.00,11.00,M,29.97,M,6.21,M,FEW,BKN,M,M,3000.00,24000.00,M,M,M,YBBN 040230Z 14011KT 9999 FEW030 BKN240 27/19 Q1015 NOSIG
YBBN,2010-01-04 03:00,153.1292,-27.3917,78.80,68.00,69.52,140.00,11.00,M,29.97,M,6.21,M,SCT,BKN,M,M,3000.00,24000.00,M,M,M,YBBN 040300Z 14011KT 9999 SCT030 BKN240 26/20 Q1015 NOSIG
YBBN,2010-01-04 03:30,153.1292,-27.3917,78.80,68.00,69.52,130.00,14.00,M,29.97,M,6.21,M,SCT,BKN,M,M,2400.00,24000.00,M,M,M,YBBN 040330Z 13014KT 9999 SCT024 BKN240 26/20 Q1015 NOSIG
YBBN,2010-01-04 04:00,153.1292,-27.3917,78.80,68.00,69.52,140.00,12.00,M,29.97,M,6.21,M,SCT,BKN,M,M,2500.00,23000.00,M,M,M,YBBN 040400Z 14012KT 9999 SCT025 BKN230 26/20 Q1015 NOSIG
YBBN,2010-01-04 04:30,153.1292,-27.3917,78.80,66.20,65.33,130.00,13.00,M,29.97,M,6.21,23.00,SCT,BKN,M,M,2400.00,23000.00,M,M,M,YBBN 040430Z 13013G23KT 9999 SCT024 BKN230 26/19 Q1015 NOSIG
YBBN,2010-01-04 05:00,153.1292,-27.3917,78.80,66.20,65.33,130.00,11.00,M,29.97,M,6.21,M,SCT,SCT,BKN,M,2800.00,5700.00,23000.00,M,M,YBBN 040500Z 13011KT 9999 SCT028 SCT057 BKN230 26/19 Q1015 NOSIG
YBBN,2010-01-04 05:30,153.1292,-27.3917,78.80,68.00,69.52,140.00,12.00,M,29.97,M,6.21,22.00,SCT,SCT,BKN,M,2700.00,5700.00,23000.00,M,M,YBBN 040530Z 14012G22KT 9999 SCT027 SCT057 BKN230 26/20 Q1015 NOSIG
YBBN,2010-01-04 06:00,153.1292,-27.3917,78.80,66.20,65.33,140.00,11.00,M,29.94,M,6.21,M,SCT,SCT,BKN,M,2500.00,5800.00,23000.00,M,M,YBBN 040600Z 14011KT 9999 SCT025 SCT058 BKN230 26/19 Q1014 NOSIG
YBBN,2010-01-04 06:30,153.1292,-27.3917,78.80,68.00,69.52,130.00,12.00,M,29.97,M,6.21,M,FEW,BKN,M,M,2700.00,23000.00,M,M,M,YBBN 040630Z 13012KT 9999 FEW027 BKN230 26/20 Q1015 NOSIG
YBBN,2010-01-04 07:00,153.1292,-27.3917,78.80,66.20,65.33,130.00,13.00,M,29.97,M,6.21,M,FEW,BKN,M,M,2500.00,23000.00,M,M,M,YBBN 040700Z 13013KT 9999 FEW025 BKN230 26/19 Q1015 NOSIG
YBBN,2010-01-04 07:30,153.1292,-27.3917,78.80,68.00,69.52,130.00,13.00,M,29.97,M,6.21,M,SCT,SCT,BKN,M,2700.00,5600.00,23000.00,M,M,YBBN 040730Z 13013KT 9999 SCT027 SCT056 BKN230 26/20 Q1015 NOSIG
YBBN,2010-01-04 08:00,153.1292,-27.3917,77.00,68.00,73.78,140.00,12.00,M,29.97,M,6.21,M,SCT,SCT,BKN,M,2700.00,6000.00,23000.00,M,M,YBBN 040800Z 14012KT 9999 SCT027 SCT060 BKN230 25/20 Q1015 NOSIG
YBBN,2010-01-04 08:30,153.1292,-27.3917,77.00,66.20,69.33,150.00,9.00,M,30.00,M,6.21,M,SCT,SCT,BKN,M,2700.00,5500.00,23000.00,M,VCSH,YBBN 040830Z 15009KT 9999 VCSH SCT027 SCT055 BKN230 25/19 Q1016 NOSIG
YBBN,2010-01-04 09:00,153.1292,-27.3917,77.00,62.60,61.13,160.00,11.00,M,30.00,M,6.21,M,FEW,SCT,BKN,M,2700.00,12000.00,23000.00,M,VCSH,YBBN 040900Z 16011KT 9999 VCSH FEW027 SCT120 BKN230 25/17 Q1016 NOSIG
YBBN,2010-01-04 09:30,153.1292,-27.3917,75.20,62.60,64.91,160.00,9.00,M,30.03,M,6.21,M,FEW,SCT,BKN,M,2700.00,12000.00,24000.00,M,M,YBBN 040930Z 16009KT 9999 FEW027 SCT120 BKN240 24/17 Q1017 NOSIG
YBBN,2010-01-04 10:00,153.1292,-27.3917,75.20,62.60,64.91,170.00,9.00,M,30.03,M,6.21,M,FEW,BKN,M,M,2700.00,25000.00,M,M,M,YBBN 041000Z 17009KT 9999 FEW027 BKN250 24/17 Q1017 NOSIG
YBBN,2010-01-04 10:30,153.1292,-27.3917,75.20,62.60,64.91,170.00,9.00,M,30.03,M,6.21,M,FEW,OVC,M,M,2500.00,25000.00,M,M,M,YBBN 041030Z 17009KT 9999 FEW025 OVC250 24/17 Q1017 NOSIG
YBBN,2010-01-04 11:00,153.1292,-27.3917,73.40,62.60,68.94,180.00,10.00,M,30.03,M,6.21,M,FEW,OVC,M,M,2500.00,25000.00,M,M,M,YBBN 041100Z 18010KT 9999 FEW025 OVC250 23/17 Q1017 NOSIG
YBBN,2010-01-04 11:30,153.1292,-27.3917,73.40,62.60,68.94,180.00,9.00,M,30.03,M,6.21,M,FEW,OVC,M,M,2500.00,25000.00,M,M,M,YBBN 041130Z 18009KT 9999 FEW025 OVC250 23/17 Q1017 NOSIG
YBBN,2010-01-04 12:00,153.1292,-27.3917,73.40,62.60,68.94,170.00,7.00,M,30.03,M,6.21,M,FEW,BKN,M,M,3500.00,25000.00,M,M,M,YBBN 041200Z 17007KT 9999 FEW035 BKN250 23/17 Q1017 NOSIG
YBBN,2010-01-04 12:30,153.1292,-27.3917,73.40,62.60,68.94,180.00,8.00,M,30.03,M,6.21,M,FEW,BKN,M,M,3500.00,25000.00,M,M,M,YBBN 041230Z 18008KT 9999 FEW035 BKN250 23/17 Q1017 NOSIG
YBBN,2010-01-04 13:00,153.1292,-27.3917,71.60,62.60,73.27,190.00,7.00,M,30.03,M,6.21,M,FEW,OVC,M,M,4500.00,26000.00,M,M,M,YBBN 041300Z 19007KT 9999 FEW045 OVC260 22/17 Q1017 NOSIG
YBBN,2010-01-04 13:30,153.1292,-27.3917,71.60,62.60,73.27,180.00,9.00,M,30.00,M,6.21,M,SCT,OVC,M,M,4500.00,26000.00,M,M,M,YBBN 041330Z 18009KT 9999 SCT045 OVC260 22/17 Q1016 NOSIG
YBBN,2010-01-04 14:00,153.1292,-27.3917,71.60,62.60,73.27,190.00,6.00,M,30.00,M,6.21,M,FEW,OVC,M,M,4500.00,25000.00,M,M,M,YBBN 041400Z 19006KT 9999 FEW045 OVC250 22/17 Q1016 NOSIG
YBBN,2010-01-04 14:30,153.1292,-27.3917,71.60,64.40,78.04,190.00,7.00,M,30.00,M,6.21,M,FEW,OVC,M,M,4500.00,24000.00,M,M,M,YBBN 041430Z 19007KT 9999 FEW045 OVC240 22/18 Q1016 NOSIG
YBBN,2010-01-04 15:00,153.1292,-27.3917,71.60,64.40,78.04,190.00,7.00,M,30.00,M,6.21,M,BKN,OVC,M,M,4500.00,24000.00,M,M,M,YBBN 041500Z 19007KT 9999 BKN045 OVC240 22/18 Q1016 NOSIG
YBBN,2010-01-04 15:30,153.1292,-27.3917,71.60,64.40,78.04,210.00,7.00,M,30.00,M,6.21,M,FEW,OVC,M,M,4500.00,24000.00,M,M,M,YBBN 041530Z 21007KT 9999 FEW045 OVC240 22/18 Q1016 NOSIG
YBBN,2010-01-04 16:00,153.1292,-27.3917,71.60,64.40,78.04,200.00,7.00,M,29.97,M,6.21,M,SCT,OVC,M,M,4500.00,24000.00,M,M,M,YBBN 041600Z 20007KT 9999 SCT045 OVC240 22/18 Q1015 NOSIG
YBBN,2010-01-04 16:30,153.1292,-27.3917,71.60,64.40,78.04,200.00,7.00,M,29.97,M,6.21,M,BKN,BKN,M,M,3000.00,24000.00,M,M,M,YBBN 041630Z 20007KT 9999 BKN030 BKN240 22/18 Q1015 NOSIG
YBBN,2010-01-04 17:00,153.1292,-27.3917,71.60,64.40,78.04,200.00,7.00,M,29.97,M,6.21,M,FEW,BKN,BKN,M,2500.00,5000.00,24000.00,M,M,YBBN 041700Z 20007KT 9999 FEW025 BKN050 BKN240 22/18 Q1015 NOSIG
YBBN,2010-01-04 17:30,153.1292,-27.3917,71.60,64.40,78.04,200.00,6.00,M,29.97,M,6.21,M,FEW,BKN,BKN,M,2000.00,3000.00,24000.00,M,M,YBBN 041730Z 20006KT 9999 FEW020 BKN030 BKN240 22/18 Q1015 NOSIG
YBBN,2010-01-04 18:00,153.1292,-27.3917,69.80,64.40,82.98,210.00,6.00,M,29.97,M,6.21,M,FEW,BKN,BKN,M,2000.00,2800.00,24000.00,M,M,YBBN 041800Z 21006KT 9999 FEW020 BKN028 BKN240 21/18 Q1015 NOSIG
YBBN,2010-01-04 18:30,153.1292,-27.3917,69.80,64.40,82.98,200.00,6.00,M,29.97,M,6.21,M,FEW,OVC,M,M,2500.00,24000.00,M,M,M,YBBN 041830Z 20006KT 9999 FEW025 OVC240 21/18 Q1015 NOSIG
YBBN,2010-01-04 19:00,153.1292,-27.3917,69.80,64.40,82.98,200.00,6.00,M,30.00,M,6.21,M,FEW,OVC,M,M,2500.00,24000.00,M,M,M,YBBN 041900Z 20006KT 9999 FEW025 OVC240 21/18 Q1016 NOSIG
YBBN,2010-01-04 19:30,153.1292,-27.3917,69.80,64.40,82.98,200.00,7.00,M,30.00,M,6.21,M,FEW,OVC,M,M,2500.00,24000.00,M,M,M,YBBN 041930Z 20007KT 9999 FEW025 OVC240 21/18 Q1016 NOSIG
YBBN,2010-01-04 20:00,153.1292,-27.3917,71.60,66.20,83.09,200.00,6.00,M,30.00,M,6.21,M,FEW,OVC,M,M,2800.00,25000.00,M,M,M,YBBN 042000Z 20006KT 9999 FEW028 OVC250 22/19 Q1016 NOSIG
YBBN,2010-01-04 20:30,153.1292,-27.3917,71.60,66.20,83.09,200.00,7.00,M,30.00,M,6.21,M,FEW,SCT,OVC,M,2500.00,5400.00,25000.00,M,M,YBBN 042030Z 20007KT 9999 FEW025 SCT054 OVC250 22/19 Q1016 NOSIG
YBBN,2010-01-04 21:00,153.1292,-27.3917,73.40,66.20,78.19,190.00,8.00,M,30.00,M,6.21,M,FEW,BKN,BKN,M,2400.00,5200.00,25000.00,M,M,YBBN 042100Z 19008KT 9999 FEW024 BKN052 BKN250 23/19 Q1016 NOSIG
YBBN,2010-01-04 21:30,153.1292,-27.3917,73.40,66.20,78.19,180.00,9.00,M,30.00,M,6.21,M,FEW,BKN,BKN,M,2500.00,5200.00,25000.00,M,M,YBBN 042130Z 18009KT 9999 FEW025 BKN052 BKN250 23/19 Q1016 NOSIG
YBBN,2010-01-04 22:00,153.1292,-27.3917,75.20,66.20,73.61,180.00,8.00,M,30.00,M,6.21,M,FEW,BKN,BKN,M,2500.00,4500.00,25000.00,M,M,YBBN 042200Z 18008KT 9999 FEW025 BKN045 BKN250 24/19 Q1016 NOSIG
YBBN,2010-01-04 22:30,153.1292,-27.3917,75.20,66.20,73.61,170.00,7.00,M,30.03,M,6.21,M,SCT,BKN,BKN,M,2600.00,4300.00,25000.00,M,M,YBBN 042230Z 17007KT 9999 SCT026 BKN043 BKN250 24/19 Q1017 NOSIG
YBBN,2010-01-04 23:00,153.1292,-27.3917,77.00,66.20,69.33,140.00,7.00,M,30.03,M,6.21,M,FEW,SCT,BKN,M,2300.00,2700.00,4200.00,M,M,YBBN 042300Z 14007KT 9999 FEW023 SCT027 BKN042 25/19 Q1017 NOSIG
YBBN,2010-01-04 23:30,153.1292,-27.3917,77.00,66.20,69.33,130.00,9.00,M,30.03,M,6.21,M,FEW,BKN,M,M,2600.00,3900.00,M,M,M,YBBN 042330Z 13009KT 9999 FEW026 BKN039 25/19 Q1017 NOSIG
