#DEBUG: Format Typ    -> comma
#DEBUG: Time Period   -> 2016-02-08 00:00:00+00:00 2016-02-09 00:00:00+00:00
#DEBUG: Time Zone     -> Etc/UTC
#DEBUG: Data Contact   -> daryl herzmann akrherz@iastate.edu 515-294-5978
#DEBUG: Entries Found -> -1
station,valid,lon,lat,tmpf, dwpf, relh, drct, sknt, p01i, alti, mslp, vsby, gust, skyc1, skyc2, skyc3, skyc4, skyl1, skyl2, skyl3, skyl4, presentwx, metar
YBBN,2016-02-08 00:00,153.1292,-27.3917,80.60,60.80,50.95,170.00,7.00,0.00,29.97,M,6.21,M,SCT,M,M,M,4000.00,M,M,M,M,YBBN 080000Z 17007KT 9999 SCT040 27/16 Q1015 NOSIG
YBBN,2016-02-08 00:30,153.1292,-27.3917,82.40,59.00,45.07,120.00,10.00,0.00,29.97,M,6.21,M,SCT,M,M,M,4500.00,M,M,M,M,YBBN 080030Z 12010KT 9999 SCT045 28/15 Q1015
YBBN,2016-02-08 01:00,153.1292,-27.3917,80.60,60.80,50.95,110.00,11.00,0.00,29.94,M,6.21,M,SCT,M,M,M,4800.00,M,M,M,M,YBBN 080100Z 11011KT 9999 SCT048 27/16 Q1014 NOSIG
YBBN,2016-02-08 02:00,153.1292,-27.3917,80.60,64.40,57.84,110.00,13.00,0.00,29.94,M,6.21,M,SCT,SCT,M,M,4700.00,5700.00,M,M,M,YBBN 080200Z 11013KT 9999 SCT047 SCT057 27/18 Q1014
YBBN,2016-02-08 02:30,153.1292,-27.3917,80.60,64.40,57.84,110.00,14.00,0.00,29.91,M,6.21,M,SCT,BKN,M,M,4300.00,6200.00,M,M,M,YBBN 080230Z 11014KT 9999 SCT043 BKN062 27/18 Q1013 NOSIG
YBBN,2016-02-08 03:00,153.1292,-27.3917,82.40,64.40,54.55,110.00,13.00,0.00,29.91,M,6.21,M,SCT,M,M,M,4600.00,M,M,M,M,YBBN 080300Z 11013KT 9999 SCT046 28/18 Q1013
YBBN,2016-02-08 03:30,153.1292,-27.3917,80.60,64.40,57.84,110.00,13.00,0.00,29.91,M,6.21,M,SCT,SCT,M,M,4500.00,6300.00,M,M,M,YBBN 080330Z 11013KT 9999 SCT045 SCT063 27/18 Q1013 NOSIG
YBBN,2016-02-08 04:00,153.1292,-27.3917,80.60,60.80,50.95,110.00,14.00,0.00,29.91,M,6.21,M,SCT,M,M,M,4800.00,M,M,M,M,YBBN 080400Z 11014KT 9999 SCT048 27/16 Q1013 NOSIG
YBBN,2016-02-08 04:30,153.1292,-27.3917,82.40,62.60,51.21,110.00,13.00,0.00,29.91,M,6.21,M,SCT,M,M,M,4800.00,M,M,M,M,YBBN 080430Z 11013KT 9999 SCT048 28/17 Q1013 NOSIG
YBBN,2016-02-08 05:00,153.1292,-27.3917,82.40,62.60,51.21,110.00,14.00,0.00,29.88,M,6.21,M,FEW,M,M,M,4800.00,M,M,M,M,YBBN 080500Z 11014KT 9999 FEW048 28/17 Q1012 NOSIG
YBBN,2016-02-08 05:30,153.1292,-27.3917,82.40,62.60,51.21,110.00,13.00,0.00,29.88,M,6.21,M,FEW,M,M,M,4800.00,M,M,M,M,YBBN 080530Z 11013KT 9999 FEW048 28/17 Q1012 NOSIG
YBBN,2016-02-08 06:00,153.1292,-27.3917,82.40,64.40,54.55,110.00,14.00,0.00,29.88,M,6.21,M,FEW,M,M,M,4800.00,M,M,M,M,YBBN 080600Z 11014KT 9999 FEW048 28/18 Q1012 NOSIG
YBBN,2016-02-08 06:30,153.1292,-27.3917,80.60,66.20,61.58,120.00,13.00,0.00,29.88,M,6.21,23.00,FEW,M,M,M,2500.00,M,M,M,M,YBBN 080630Z 12013G23KT 9999 FEW025 27/19 Q1012 NOSIG
YBBN,2016-02-08 07:00,153.1292,-27.3917,80.60,64.40,57.84,110.00,13.00,0.00,29.88,M,6.21,M,FEW,M,M,M,2500.00,M,M,M,M,YBBN 080700Z 11013KT 9999 FEW025 27/18 Q1012 NOSIG
YBBN,2016-02-08 07:30,153.1292,-27.3917,78.80,66.20,65.33,120.00,12.00,0.00,29.88,M,6.21,M,FEW,M,M,M,3000.00,M,M,M,M,YBBN 080730Z 12012KT 9999 FEW030 26/19 Q1012 NOSIG
YBBN,2016-02-08 08:00,153.1292,-27.3917,78.80,64.40,61.36,120.00,13.00,0.00,29.91,M,6.21,23.00,FEW,M,M,M,2800.00,M,M,M,M,YBBN 080800Z 12013G23KT 9999 FEW028 26/18 Q1013 NOSIG
YBBN,2016-02-08 08:30,153.1292,-27.3917,78.80,64.40,61.36,120.00,11.00,0.00,29.91,M,6.21,M,M,M,M,M,M,M,M,M,// //////,YBBN 080830Z 12011KT //// // ////// 26/18 Q1013 NOSIG
YBBN,2016-02-08 09:00,153.1292,-27.3917,77.00,64.40,65.12,120.00,11.00,0.00,29.94,M,6.21,M,M,M,M,M,M,M,M,M,M,YBBN 080900Z 12011KT CAVOK 25/18 Q1014 NOSIG
YBBN,2016-02-08 09:30,153.1292,-27.3917,77.00,64.40,65.12,130.00,11.00,0.00,29.94,M,6.21,M,M,M,M,M,M,M,M,M,M,YBBN 080930Z 13011KT CAVOK 25/18 Q1014 NOSIG
YBBN,2016-02-08 10:00,153.1292,-27.3917,77.00,62.60,61.13,130.00,11.00,0.00,29.94,M,6.21,M,M,M,M,M,M,M,M,M,M,YBBN 081000Z 13011KT CAVOK 25/17 Q1014 NOSIG
YBBN,2016-02-08 10:30,153.1292,-27.3917,77.00,62.60,61.13,140.00,9.00,0.00,29.97,M,6.21,M,M,M,M,M,M,M,M,M,M,YBBN 081030Z 14009KT CAVOK 25/17 Q1015 NOSIG
YBBN,2016-02-08 11:00,153.1292,-27.3917,75.20,62.60,64.91,150.00,8.00,0.00,29.97,M,6.21,M,M,M,M,M,M,M,M,M,M,YBBN 081100Z 15008KT CAVOK 24/17 Q1015 NOSIG
YBBN,2016-02-08 11:30,153.1292,-27.3917,75.20,62.60,64.91,170.00,7.00,0.00,29.97,M,6.21,M,M,M,M,M,M,M,M,M,M,YBBN 081130Z 17007KT CAVOK 24/17 Q1015 NOSIG
YBBN,2016-02-08 12:00,153.1292,-27.3917,73.40,62.60,68.94,170.00,7.00,0.00,29.97,M,6.21,M,M,M,M,M,M,M,M,M,M,YBBN 081200Z 17007KT CAVOK 23/17 Q1015 NOSIG
YBBN,2016-02-08 12:30,153.1292,-27.3917,75.20,62.60,64.91,180.00,8.00,0.00,29.97,M,6.21,M,M,M,M,M,M,M,M,M,M,YBBN 081230Z 18008KT CAVOK 24/17 Q1015 NOSIG
YBBN,2016-02-08 13:00,153.1292,-27.3917,73.40,62.60,68.94,180.00,7.00,0.00,29.97,M,6.21,M,SCT,M,M,M,3500.00,M,M,M,M,YBBN 081300Z 18007KT 9999 SCT035 23/17 Q1015
YBBN,2016-02-08 13:30,153.1292,-27.3917,73.40,62.60,68.94,180.00,7.00,0.00,29.97,M,6.21,M,M,M,M,M,M,M,M,M,M,YBBN 081330Z 18007KT CAVOK 23/17 Q1015 NOSIG
YBBN,2016-02-08 14:00,153.1292,-27.3917,73.40,62.60,68.94,180.00,7.00,0.00,29.94,M,6.21,M,M,M,M,M,M,M,M,M,M,YBBN 081400Z 18007KT CAVOK 23/17 Q1014 NOSIG
YBBN,2016-02-08 14:30,153.1292,-27.3917,73.40,62.60,68.94,180.00,7.00,0.00,29.94,M,6.21,M,M,M,M,M,M,M,M,M,M,YBBN 081430Z 18007KT CAVOK 23/17 Q1014 NOSIG
YBBN,2016-02-08 15:00,153.1292,-27.3917,71.60,62.60,73.27,180.00,7.00,0.00,29.94,M,6.21,M,M,M,M,M,M,M,M,M,M,YBBN 081500Z 18007KT CAVOK 22/17 Q1014 NOSIG
YBBN,2016-02-08 15:30,153.1292,-27.3917,71.60,62.60,73.27,190.00,6.00,0.00,29.91,M,6.21,M,M,M,M,M,M,M,M,M,M,YBBN 081530Z 19006KT CAVOK 22/17 Q1013 NOSIG
YBBN,2016-02-08 16:00,153.1292,-27.3917,71.60,60.80,68.75,190.00,6.00,0.00,29.91,M,6.21,M,M,M,M,M,M,M,M,M,M,YBBN 081600Z 19006KT CAVOK 22/16 Q1013
YBBN,2016-02-08 16:30,153.1292,-27.3917,69.80,60.80,73.09,200.00,5.00,0.00,29.91,M,6.21,M,M,M,M,M,M,M,M,M,M,YBBN 081630Z 20005KT CAVOK 21/16 Q1013 NOSIG
YBBN,2016-02-08 17:00,153.1292,-27.3917,71.60,60.80,68.75,190.00,6.00,0.00,29.91,M,6.21,M,M,M,M,M,M,M,M,M,M,YBBN 081700Z 19006KT CAVOK 22/16 Q1013 NOSIG
YBBN,2016-02-08 17:30,153.1292,-27.3917,71.60,60.80,68.75,200.00,6.00,0.00,29.91,M,6.21,M,BKN,M,M,M,4500.00,M,M,M,M,YBBN 081730Z 20006KT 9999 BKN045 22/16 Q1013 NOSIG
YBBN,2016-02-08 18:00,153.1292,-27.3917,68.00,62.60,82.86,210.00,8.00,0.00,29.91,M,6.21,M,SCT,M,M,M,4500.00,M,M,M,M,YBBN 081800Z 21008KT 9999 SCT045 20/17 Q1013 NOSIG
YBBN,2016-02-08 18:30,153.1292,-27.3917,68.00,60.80,77.75,200.00,7.00,0.00,29.91,M,6.21,M,M,M,M,M,M,M,M,M,M,YBBN 081830Z 20007KT CAVOK 20/16 Q1013 NOSIG
YBBN,2016-02-08 19:00,153.1292,-27.3917,66.20,60.80,82.74,210.00,7.00,0.00,29.94,M,6.21,M,M,M,M,M,M,M,M,M,M,YBBN 081900Z 21007KT CAVOK 19/16 Q1014 NOSIG
YBBN,2016-02-08 19:30,153.1292,-27.3917,66.20,60.80,82.74,210.00,7.00,0.00,29.94,M,6.21,M,SCT,M,M,M,4200.00,M,M,M,M,YBBN 081930Z 21007KT 9999 SCT042 19/16 Q1014 NOSIG
YBBN,2016-02-08 20:00,153.1292,-27.3917,71.60,60.80,68.75,200.00,6.00,0.00,29.94,M,6.21,M,M,M,M,M,M,M,M,M,M,YBBN 082000Z 20006KT CAVOK 22/16 Q1014 NOSIG
YBBN,2016-02-08 20:30,153.1292,-27.3917,71.60,60.80,68.75,210.00,7.00,0.00,29.97,M,6.21,M,FEW,M,M,M,2500.00,M,M,M,M,YBBN 082030Z 21007KT 9999 FEW025 22/16 Q1015 NOSIG
YBBN,2016-02-08 21:00,153.1292,-27.3917,75.20,62.60,64.91,190.00,9.00,0.00,29.97,M,6.21,M,FEW,M,M,M,3000.00,M,M,M,M,YBBN 082100Z 19009KT 9999 FEW030 24/17 Q1015 NOSIG
YBBN,2016-02-08 21:30,153.1292,-27.3917,77.00,62.60,61.13,180.00,8.00,0.00,29.97,M,6.21,M,FEW,M,M,M,3200.00,M,M,M,M,YBBN 082130Z 18008KT 9999 FEW032 25/17 Q1015 NOSIG
YBBN,2016-02-08 22:00,153.1292,-27.3917,78.80,62.60,57.60,170.00,9.00,0.00,29.97,M,6.21,M,FEW,M,M,M,3500.00,M,M,M,M,YBBN 082200Z 17009KT 9999 FEW035 26/17 Q1015 NOSIG
YBBN,2016-02-08 22:30,153.1292,-27.3917,78.80,60.80,54.05,160.00,9.00,0.00,29.97,M,6.21,M,SCT,M,M,M,3300.00,M,M,M,M,YBBN 082230Z 16009KT 9999 SCT033 26/16 Q1015 NOSIG
YBBN,2016-02-08 23:00,153.1292,-27.3917,77.00,62.60,61.13,150.00,8.00,0.00,29.97,M,6.21,M,SCT,M,M,M,4000.00,M,M,M,M,YBBN 082300Z 15008KT 9999 SCT040 25/17 Q1015 NOSIG
