#DEBUG: Format Typ    -> comma
#DEBUG: Time Period   -> 2010-01-19 00:00:00+00:00 2010-01-20 00:00:00+00:00
#DEBUG: Time Zone     -> Etc/UTC
#DEBUG: Data Contact   -> daryl herzmann akrherz@iastate.edu 515-294-5978
#DEBUG: Entries Found -> -1
station,valid,lon,lat,tmpf, dwpf, relh, drct, sknt, p01i, alti, mslp, vsby, gust, skyc1, skyc2, skyc3, skyc4, skyl1, skyl2, skyl3, skyl4, presentwx, metar
YBBN,2010-01-19 00:00,153.1292,-27.3917,82.40,55.40,39.58,230.00,7.00,M,29.74,M,6.21,M,FEW,M,M,M,3200.00,M,M,M,M,YBBN 190000Z 23007KT 9999 FEW032 28/13 Q1007 NOSIG
YBBN,2010-01-19 00:30,153.1292,-27.3917,84.20,55.40,37.35,270.00,6.00,M,29.74,M,6.21,M,FEW,M,M,M,3200.00,M,M,M,M,YBBN 190030Z 27006KT 9999 FEW032 29/13 Q1007 NOSIG
YBBN,2010-01-19 01:00,153.1292,-27.3917,86.00,51.80,30.90,230.00,8.00,M,29.74,M,6.21,M,FEW,M,M,M,3500.00,M,M,M,M,YBBN 190100Z 23008KT 9999 FEW035 30/11 Q1007 NOSIG
YBBN,2010-01-19 01:30,153.1292,-27.3917,86.00,51.80,30.90,260.00,8.00,M,29.74,M,6.21,M,FEW,M,M,M,3500.00,M,M,M,M,YBBN 190130Z 26008KT 9999 FEW035 30/11 Q1007 NOSIG
YBBN,2010-01-19 02:00,153.1292,-27.3917,86.00,48.20,27.03,230.00,8.00,M,29.74,M,6.21,M,FEW,M,M,M,3800.00,M,M,M,M,YBBN 190200Z 23008KT 9999 FEW038 30/09 Q1007 NOSIG
YBBN,2010-01-19 02:30,153.1292,-27.3917,84.20,59.00,42.52,20.00,7.00,M,29.71,M,6.21,M,FEW,M,M,M,3800.00,M,M,M,M,YBBN 190230Z 02007KT 9999 FEW038 29/15 Q1006 NOSIG
YBBN,2010-01-19 03:00,153.1292,-27.3917,84.20,60.80,45.34,70.00,10.00,M,29.71,M,6.21,M,FEW,M,M,M,4000.00,M,M,M,M,YBBN 190300Z 07010KT 9999 FEW040 29/16 Q1006 NOSIG
YBBN,2010-01-19 03:30,153.1292,-27.3917,84.20,60.80,45.34,90.00,9.00,M,29.71,M,6.21,M,FEW,M,M,M,4000.00,M,M,M,M,YBBN 190330Z 09009KT 9999 FEW040 29/16 Q1006 NOSIG
YBBN,2010-01-19 04:00,153.1292,-27.3917,82.40,62.60,51.21,100.00,9.00,M,29.71,M,6.21,M,FEW,M,M,M,4000.00,M,M,M,M,YBBN 190400Z 10009KT 9999 FEW040 28/17 Q1006 NOSIG
YBBN,2010-01-19 04:30,153.1292,-27.3917,82.40,64.40,54.55,100.00,10.00,M,29.71,M,6.21,M,FEW,M,M,M,4500.00,M,M,M,M,YBBN 190430Z 10010KT 9999 FEW045 28/18 Q1006 NOSIG
YBBN,2010-01-19 05:00,153.1292,-27.3917,82.40,64.40,54.55,120.00,10.00,M,29.71,M,6.21,M,FEW,M,M,M,2500.00,M,M,M,M,YBBN 190500Z 12010KT 9999 FEW025 28/18 Q1006 NOSIG
YBBN,2010-01-19 05:30,153.1292,-27.3917,80.60,64.40,57.84,110.00,11.00,M,29.71,M,6.21,M,FEW,M,M,M,2500.00,M,M,M,M,YBBN 190530Z 11011KT 9999 FEW025 27/18 Q1006 NOSIG
YBBN,2010-01-19 06:00,153.1292,-27.3917,80.60,66.20,61.58,110.00,11.00,M,29.71,M,6.21,M,FEW,M,M,M,2800.00,M,M,M,M,YBBN 190600Z 11011KT 9999 FEW028 27/19 Q1006 NOSIG
YBBN,2010-01-19 06:30,153.1292,-27.3917,78.80,64.40,61.36,130.00,11.00,M,29.71,M,6.21,M,FEW,M,M,M,2800.00,M,M,M,M,YBBN 190630Z 13011KT 9999 FEW028 26/18 Q1006 NOSIG
YBBN,2010-01-19 07:00,153.1292,-27.3917,80.60,64.40,57.84,120.00,11.00,M,29.71,M,6.21,M,FEW,M,M,M,3000.00,M,M,M,M,YBBN 190700Z 12011KT 9999 FEW030 27/18 Q1006 NOSIG
YBBN,2010-01-19 07:30,153.1292,-27.3917,78.80,64.40,61.36,120.00,8.00,M,29.74,M,6.21,M,FEW,M,M,M,3000.00,M,M,M,M,YBBN 190730Z 12008KT 9999 FEW030 26/18 Q1007 NOSIG
YBBN,2010-01-19 08:00,153.1292,-27.3917,78.80,62.60,57.60,110.00,8.00,M,29.77,M,6.21,M,FEW,M,M,M,2700.00,M,M,M,M,YBBN 190800Z 11008KT 9999 FEW027 26/17 Q1008 NOSIG
YBBN,2010-01-19 08:30,153.1292,-27.3917,77.00,62.60,61.13,110.00,7.00,M,29.77,M,6.21,M,FEW,M,M,M,2700.00,M,M,M,M,YBBN 190830Z 11007KT 9999 FEW027 25/17 Q1008 NOSIG
YBBN,2010-01-19 09:00,153.1292,-27.3917,77.00,62.60,61.13,120.00,8.00,M,29.80,M,6.21,M,FEW,M,M,M,2500.00,M,M,M,M,YBBN 190900Z 12008KT 9999 FEW025 25/17 Q1009 NOSIG
YBBN,2010-01-19 09:30,153.1292,-27.3917,77.00,62.60,61.13,120.00,7.00,M,29.80,M,6.21,M,FEW,M,M,M,3500.00,M,M,M,M,YBBN 190930Z 12007KT 9999 FEW035 25/17 Q1009 NOSIG
YBBN,2010-01-19 10:00,153.1292,-27.3917,77.00,62.60,61.13,110.00,7.00,M,29.83,M,6.21,M,FEW,M,M,M,4000.00,M,M,M,M,YBBN 191000Z 11007KT 9999 FEW040 25/17 Q1010 NOSIG
YBBN,2010-01-19 10:30,153.1292,-27.3917,75.20,64.40,69.14,110.00,7.00,M,29.83,M,6.21,M,FEW,M,M,M,3500.00,M,M,M,M,YBBN 191030Z 11007KT 9999 FEW035 24/18 Q1010 NOSIG
YBBN,2010-01-19 11:00,153.1292,-27.3917,75.20,64.40,69.14,130.00,7.00,M,29.83,M,6.21,M,FEW,M,M,M,3000.00,M,M,M,M,YBBN 191100Z 13007KT 9999 FEW030 24/18 Q1010 NOSIG
YBBN,2010-01-19 11:30,153.1292,-27.3917,75.20,62.60,64.91,110.00,6.00,M,29.85,M,6.21,M,FEW,M,M,M,3000.00,M,M,M,M,YBBN 191130Z 11006KT 9999 FEW030 24/17 Q1011 NOSIG
YBBN,2010-01-19 12:00,153.1292,-27.3917,75.20,62.60,64.91,130.00,6.00,M,29.85,M,6.21,M,FEW,M,M,M,3000.00,M,M,M,M,YBBN 191200Z 13006KT 9999 FEW030 24/17 Q1011 NOSIG
YBBN,2010-01-19 12:30,153.1292,-27.3917,73.40,62.60,68.94,160.00,4.00,M,29.83,M,6.21,M,FEW,M,M,M,3000.00,M,M,M,M,YBBN 191230Z 16004KT 9999 FEW030 23/17 Q1010 NOSIG
YBBN,2010-01-19 13:00,153.1292,-27.3917,73.40,62.60,68.94,120.00,4.00,M,29.83,M,6.21,M,FEW,M,M,M,3000.00,M,M,M,M,YBBN 191300Z 12004KT 9999 FEW030 23/17 Q1010 NOSIG
YBBN,2010-01-19 14:00,153.1292,-27.3917,71.60,62.60,73.27,220.00,4.00,M,29.83,M,6.21,M,FEW,SCT,M,M,3000.00,4500.00,M,M,M,YBBN 191400Z 22004KT 9999 FEW030 SCT045 22/17 Q1010 NOSIG
YBBN,2010-01-19 14:30,153.1292,-27.3917,71.60,62.60,73.27,200.00,5.00,M,29.83,M,6.21,M,FEW,M,M,M,3500.00,M,M,M,M,YBBN 191430Z 20005KT 9999 FEW035 22/17 Q1010 NOSIG
YBBN,2010-01-19 15:00,153.1292,-27.3917,69.80,62.60,77.90,210.00,5.00,M,29.83,M,6.21,M,FEW,M,M,M,3500.00,M,M,M,M,YBBN 191500Z 21005KT 9999 FEW035 21/17 Q1010 NOSIG
YBBN,2010-01-19 15:30,153.1292,-27.3917,69.80,62.60,77.90,210.00,6.00,M,29.83,M,6.21,M,FEW,M,M,M,3500.00,M,M,M,M,YBBN 191530Z 21006KT 9999 FEW035 21/17 Q1010 NOSIG
YBBN,2010-01-19 16:00,153.1292,-27.3917,68.00,60.80,77.75,210.00,5.00,M,29.83,M,6.21,M,FEW,M,M,M,3500.00,M,M,M,M,YBBN 191600Z 21005KT 9999 FEW035 20/16 Q1010 NOSIG
YBBN,2010-01-19 16:30,153.1292,-27.3917,69.80,60.80,73.09,210.00,6.00,M,29.83,M,6.21,M,FEW,M,M,M,3500.00,M,M,M,M,YBBN 191630Z 21006KT 9999 FEW035 21/16 Q1010 NOSIG
YBBN,2010-01-19 17:00,153.1292,-27.3917,68.00,60.80,77.75,210.00,6.00,M,29.83,M,6.21,M,FEW,M,M,M,3500.00,M,M,M,M,YBBN 191700Z 21006KT 9999 FEW035 20/16 Q1010 NOSIG
YBBN,2010-01-19 17:30,153.1292,-27.3917,66.20,60.80,82.74,220.00,6.00,M,29.83,M,6.21,M,SCT,M,M,M,3500.00,M,M,M,M,YBBN 191730Z 22006KT 9999 SCT035 19/16 Q1010 NOSIG
YBBN,2010-01-19 18:00,153.1292,-27.3917,66.20,60.80,82.74,210.00,6.00,M,29.83,M,6.21,M,FEW,M,M,M,3500.00,M,M,M,M,YBBN 191800Z 21006KT 9999 FEW035 19/16 Q1010 NOSIG
YBBN,2010-01-19 18:30,153.1292,-27.3917,66.20,60.80,82.74,220.00,7.00,M,29.83,M,6.21,M,FEW,M,M,M,3500.00,M,M,M,M,YBBN 191830Z 22007KT 9999 FEW035 19/16 Q1010 NOSIG
YBBN,2010-01-19 19:00,153.1292,-27.3917,66.20,60.80,82.74,210.00,7.00,M,29.83,M,6.21,M,FEW,M,M,M,3500.00,M,M,M,M,YBBN 191900Z 21007KT 9999 FEW035 19/16 Q1010 NOSIG
YBBN,2010-01-19 19:30,153.1292,-27.3917,68.00,60.80,77.75,210.00,7.00,M,29.83,M,6.21,M,FEW,M,M,M,3500.00,M,M,M,M,YBBN 191930Z 21007KT 9999 FEW035 20/16 Q1010 NOSIG
YBBN,2010-01-19 20:00,153.1292,-27.3917,69.80,60.80,73.09,210.00,8.00,M,29.85,M,6.21,M,FEW,M,M,M,3500.00,M,M,M,M,YBBN 192000Z 21008KT 9999 FEW035 21/16 Q1011 NOSIG
YBBN,2010-01-19 20:30,153.1292,-27.3917,71.60,60.80,68.75,210.00,8.00,M,29.85,M,6.21,M,FEW,M,M,M,3000.00,M,M,M,M,YBBN 192030Z 21008KT 9999 FEW030 22/16 Q1011 NOSIG
YBBN,2010-01-19 21:00,153.1292,-27.3917,73.40,60.80,64.69,210.00,7.00,M,29.85,M,6.21,M,FEW,M,M,M,3000.00,M,M,M,M,YBBN 192100Z 21007KT 9999 FEW030 23/16 Q1011 NOSIG
YBBN,2010-01-19 21:30,153.1292,-27.3917,77.00,62.60,61.13,210.00,8.00,M,29.88,M,6.21,M,FEW,M,M,M,3000.00,M,M,M,M,YBBN 192130Z 21008KT 9999 FEW030 25/17 Q1012 NOSIG
YBBN,2010-01-19 22:00,153.1292,-27.3917,78.80,60.80,54.05,230.00,8.00,M,29.88,M,6.21,M,FEW,M,M,M,3000.00,M,M,M,M,YBBN 192200Z 23008KT 9999 FEW030 26/16 Q1012 NOSIG
YBBN,2010-01-19 22:30,153.1292,-27.3917,78.80,62.60,57.60,200.00,6.00,M,29.88,M,6.21,M,FEW,M,M,M,3000.00,M,M,M,M,YBBN 192230Z 20006KT 9999 FEW030 26/17 Q1012 NOSIG
YBBN,2010-01-19 23:00,153.1292,-27.3917,80.60,62.60,54.30,270.00,3.00,M,29.88,M,6.21,M,FEW,M,M,M,3200.00,M,M,M,M,YBBN 192300Z 27003KT 9999 FEW032 27/17 Q1012 NOSIG
YBBN,2010-01-19 23:30,153.1292,-27.3917,80.60,60.80,50.95,60.00,4.00,M,29.88,M,6.21,M,FEW,M,M,M,3200.00,M,M,M,M,YBBN 192330Z 06004KT 9999 FEW032 27/16 Q1012 NOSIG
