#DEBUG: Format Typ    -> comma
#DEBUG: Time Period   -> 2012-10-29 00:00:00+00:00 2012-10-30 00:00:00+00:00
#DEBUG: Time Zone     -> Etc/UTC
#DEBUG: Data Contact   -> daryl herzmann akrherz@iastate.edu 515-294-5978
#DEBUG: Entries Found -> -1
station,valid,lon,lat,tmpf, dwpf, relh, drct, sknt, p01i, alti, mslp, vsby, gust, skyc1, skyc2, skyc3, skyc4, skyl1, skyl2, skyl3, skyl4, presentwx, metar
YBBN,2012-10-29 00:00,153.1292,-27.3917,71.60,50.00,46.43,150.00,9.00,0.00,30.15,M,6.21,M,SCT,BKN,BKN,M,4000.00,5600.00,17000.00,M,M,YBBN 290000Z 15009KT 9999 SCT040 BKN056 BKN170 22/10 Q1021
YBBN,2012-10-29 00:30,153.1292,-27.3917,71.60,50.00,46.43,130.00,8.00,0.00,30.15,M,6.21,M,SCT,SCT,BKN,M,4500.00,6000.00,16000.00,M,M,YBBN 290030Z 13008KT 9999 SCT045 SCT060 BKN160 22/10 Q1021
YBBN,2012-10-29 01:00,153.1292,-27.3917,71.60,48.20,43.42,130.00,9.00,0.00,30.15,M,6.21,M,M,M,M,M,M,M,M,M,M,YBBN 290100Z 13009KT CAVOK 22/09 Q1021 NOSIG
YBBN,2012-10-29 01:30,153.1292,-27.3917,73.40,51.80,46.71,120.00,10.00,0.00,30.15,M,6.21,M,M,M,M,M,M,M,M,M,M,YBBN 290130Z 12010KT CAVOK 23/11 Q1021 RMK 4CU060 5AC170
YBBN,2012-10-29 02:00,153.1292,-27.3917,73.40,50.00,43.69,120.00,12.00,0.00,30.12,M,6.21,M,M,M,M,M,M,M,M,M,M,YBBN 290200Z 12012KT CAVOK 23/10 Q1020 NOSIG
YBBN,2012-10-29 02:30,153.1292,-27.3917,69.80,50.00,49.37,110.00,12.00,0.00,30.12,M,6.21,M,M,M,M,M,M,M,M,M,M,YBBN 290230Z 11012KT CAVOK 21/10 Q1020 RMK 2CU050 3SC060 7AC170
YBBN,2012-10-29 03:00,153.1292,-27.3917,69.80,50.00,49.37,100.00,11.00,0.00,30.12,M,6.21,M,M,M,M,M,M,M,M,M,M,YBBN 290300Z 10011KT CAVOK 21/10 Q1020 NOSIG
YBBN,2012-10-29 03:30,153.1292,-27.3917,71.60,50.00,46.43,110.00,11.00,0.00,30.09,M,6.21,M,M,M,M,M,M,M,M,M,M,YBBN 290330Z 11011KT CAVOK 22/10 Q1019 RMK 2CU050 4SC060 6AC170
YBBN,2012-10-29 04:00,153.1292,-27.3917,71.60,50.00,46.43,110.00,10.00,0.00,30.09,M,6.21,M,M,M,M,M,M,M,M,M,M,YBBN 290400Z 11010KT CAVOK 22/10 Q1019 NOSIG
YBBN,2012-10-29 04:30,153.1292,-27.3917,71.60,51.80,49.64,110.00,10.00,0.00,30.09,M,6.21,M,M,M,M,M,M,M,M,M,M,YBBN 290430Z 11010KT CAVOK 22/11 Q1019 RMK 2CU055 5SC070 6AC180
YBBN,2012-10-29 05:00,153.1292,-27.3917,71.60,50.00,46.43,120.00,11.00,0.00,30.09,M,6.21,M,M,M,M,M,M,M,M,M,M,YBBN 290500Z 12011KT CAVOK 22/10 Q1019 NOSIG
YBBN,2012-10-29 05:30,153.1292,-27.3917,71.60,48.20,43.42,120.00,11.00,0.00,30.09,M,6.21,M,M,M,M,M,M,M,M,M,M,YBBN 290530Z 12011KT CAVOK 22/09 Q1019 RMK 1CU050 3SC070 5AC190
YBBN,2012-10-29 06:00,153.1292,-27.3917,71.60,48.20,43.42,110.00,11.00,0.00,30.09,M,6.21,M,M,M,M,M,M,M,M,M,M,YBBN 290600Z 11011KT CAVOK 22/09 Q1019
YBBN,2012-10-29 06:30,153.1292,-27.3917,69.80,48.20,46.16,110.00,10.00,0.00,30.09,M,6.21,M,FEW,SCT,M,M,4500.00,19000.00,M,M,M,YBBN 290630Z 11010KT 9999 FEW045 SCT190 21/09 Q1019
YBBN,2012-10-29 07:00,153.1292,-27.3917,69.80,50.00,49.37,110.00,9.00,0.00,30.09,M,6.21,M,FEW,SCT,M,M,4000.00,19000.00,M,M,M,YBBN 290700Z 11009KT 9999 FEW040 SCT190 21/10 Q1019
YBBN,2012-10-29 07:30,153.1292,-27.3917,69.80,48.20,46.16,110.00,11.00,0.00,30.09,M,6.21,M,FEW,M,M,M,4000.00,M,M,M,M,YBBN 290730Z 11011KT 9999 FEW040 21/09 Q1019
YBBN,2012-10-29 08:00,153.1292,-27.3917,68.00,51.80,56.13,120.00,10.00,0.00,30.09,M,6.21,M,FEW,M,M,M,3500.00,M,M,M,M,YBBN 290800Z 12010KT 9999 FEW035 20/11 Q1019
YBBN,2012-10-29 08:30,153.1292,-27.3917,68.00,51.80,56.13,120.00,8.00,0.00,30.09,M,6.21,M,FEW,M,M,M,3500.00,M,M,M,M,YBBN 290830Z 12008KT 9999 FEW035 20/11 Q1019
YBBN,2012-10-29 09:00,153.1292,-27.3917,68.00,53.60,59.97,120.00,9.00,0.00,30.12,M,6.21,M,FEW,SCT,M,M,3500.00,10000.00,M,M,M,YBBN 290900Z 12009KT 9999 FEW035 SCT100 20/12 Q1020
YBBN,2012-10-29 09:30,153.1292,-27.3917,68.00,55.40,64.04,110.00,7.00,0.00,30.12,M,6.21,M,FEW,SCT,BKN,M,3500.00,7000.00,10000.00,M,M,YBBN 290930Z 11007KT 9999 FEW035 SCT070 BKN100 20/13 Q1020
YBBN,2012-10-29 10:00,153.1292,-27.3917,68.00,53.60,59.97,120.00,7.00,0.00,30.12,M,6.21,M,FEW,BKN,M,M,3000.00,10000.00,M,M,M,YBBN 291000Z 12007KT 9999 FEW030 BKN100 20/12 Q1020
YBBN,2012-10-29 10:30,153.1292,-27.3917,66.20,55.40,68.15,110.00,6.00,0.00,30.12,M,6.21,M,FEW,SCT,M,M,2900.00,10000.00,M,M,M,YBBN 291030Z 11006KT 9999 FEW029 SCT100 19/13 Q1020
YBBN,2012-10-29 11:00,153.1292,-27.3917,66.20,55.40,68.15,150.00,7.00,0.00,30.12,M,6.21,M,FEW,M,M,M,2900.00,M,M,M,M,YBBN 291100Z 15007KT 9999 FEW029 19/13 Q1020
YBBN,2012-10-29 11:30,153.1292,-27.3917,66.20,55.40,68.15,120.00,4.00,0.00,30.12,M,6.21,M,FEW,M,M,M,2900.00,M,M,M,M,YBBN 291130Z 12004KT 9999 FEW029 19/13 Q1020
YBBN,2012-10-29 12:00,153.1292,-27.3917,62.60,57.20,82.50,160.00,5.00,0.00,30.12,M,6.21,M,FEW,SCT,M,M,2900.00,10000.00,M,M,M,YBBN 291200Z 16005KT 9999 FEW029 SCT100 17/14 Q1020
YBBN,2012-10-29 12:30,153.1292,-27.3917,62.60,57.20,82.50,190.00,5.00,0.00,30.12,M,6.21,M,FEW,SCT,M,M,3000.00,10000.00,M,M,M,YBBN 291230Z 19005KT 9999 FEW030 SCT100 17/14 Q1020
YBBN,2012-10-29 13:00,153.1292,-27.3917,62.60,55.40,77.29,200.00,5.00,0.00,30.12,M,6.21,M,FEW,SCT,M,M,3000.00,18000.00,M,M,M,YBBN 291300Z 20005KT 9999 FEW030 SCT180 17/13 Q1020
YBBN,2012-10-29 13:30,153.1292,-27.3917,60.80,55.40,82.37,200.00,5.00,0.00,30.12,M,6.21,M,FEW,SCT,M,M,3000.00,18000.00,M,M,M,YBBN 291330Z 20005KT 9999 FEW030 SCT180 16/13 Q1020
YBBN,2012-10-29 14:00,153.1292,-27.3917,62.60,55.40,77.29,180.00,5.00,0.00,30.09,M,6.21,M,FEW,M,M,M,3000.00,M,M,M,M,YBBN 291400Z 18005KT 9999 FEW030 17/13 Q1019
YBBN,2012-10-29 14:30,153.1292,-27.3917,62.60,55.40,77.29,180.00,5.00,0.00,30.09,M,6.21,M,M,M,M,M,M,M,M,M,M,YBBN 291430Z 18005KT CAVOK 17/13 Q1019
YBBN,2012-10-29 15:00,153.1292,-27.3917,62.60,55.40,77.29,170.00,4.00,0.00,30.06,M,6.21,M,M,M,M,M,M,M,M,M,M,YBBN 291500Z 17004KT CAVOK 17/13 Q1018
YBBN,2012-10-29 15:30,153.1292,-27.3917,62.60,55.40,77.29,170.00,3.00,0.00,30.06,M,6.21,M,BKN,M,M,M,3300.00,M,M,M,M,YBBN 291530Z 17003KT 9999 BKN033 17/13 Q1018
YBBN,2012-10-29 16:00,153.1292,-27.3917,62.60,55.40,77.29,200.00,5.00,0.00,30.06,M,6.21,M,BKN,M,M,M,3000.00,M,M,M,M,YBBN 291600Z 20005KT 9999 BKN030 17/13 Q1018 NOSIG
YBBN,2012-10-29 16:30,153.1292,-27.3917,62.60,55.40,77.29,190.00,5.00,0.00,30.06,M,6.21,M,BKN,M,M,M,3200.00,M,M,M,M,YBBN 291630Z 19005KT 9999 BKN032 17/13 Q1018
YBBN,2012-10-29 17:00,153.1292,-27.3917,62.60,55.40,77.29,190.00,4.00,0.00,30.06,M,6.21,M,SCT,BKN,M,M,2600.00,4000.00,M,M,M,YBBN 291700Z 19004KT 9999 SCT026 BKN040 17/13 Q1018
YBBN,2012-10-29 17:30,153.1292,-27.3917,62.60,55.40,77.29,190.00,6.00,0.00,30.06,M,6.21,M,FEW,BKN,M,M,2800.00,5500.00,M,M,M,YBBN 291730Z 19006KT 9999 FEW028 BKN055 17/13 Q1018
YBBN,2012-10-29 18:00,153.1292,-27.3917,62.60,55.40,77.29,190.00,5.00,0.00,30.06,M,6.21,M,FEW,SCT,BKN,M,1700.00,6000.00,10000.00,M,M,YBBN 291800Z 19005KT 9999 FEW017 SCT060 BKN100 17/13 Q1018 NOSIG
YBBN,2012-10-29 18:30,153.1292,-27.3917,62.60,55.40,77.29,200.00,7.00,0.00,30.06,M,6.21,M,FEW,SCT,M,M,2300.00,6500.00,M,M,M,YBBN 291830Z 20007KT 9999 FEW023 SCT065 17/13 Q1018
YBBN,2012-10-29 19:00,153.1292,-27.3917,60.80,55.40,82.37,200.00,7.00,0.00,30.06,M,6.21,M,FEW,SCT,M,M,2300.00,6000.00,M,M,M,YBBN 291900Z 20007KT 9999 FEW023 SCT060 16/13 Q1018 NOSIG
YBBN,2012-10-29 19:30,153.1292,-27.3917,60.80,55.40,82.37,210.00,5.00,0.00,30.06,M,6.21,M,FEW,SCT,M,M,2000.00,6000.00,M,M,M,YBBN 291930Z 21005KT 9999 FEW020 SCT060 16/13 Q1018
YBBN,2012-10-29 20:00,153.1292,-27.3917,60.80,55.40,82.37,200.00,5.00,0.00,30.06,M,6.21,M,FEW,BKN,M,M,2300.00,6000.00,M,M,M,YBBN 292000Z 20005KT 9999 FEW023 BKN060 16/13 Q1018
YBBN,2012-10-29 20:30,153.1292,-27.3917,62.60,53.60,72.38,200.00,7.00,0.00,30.09,M,6.21,M,FEW,BKN,M,M,2300.00,6000.00,M,M,M,YBBN 292030Z 20007KT 9999 FEW023 BKN060 17/12 Q1019
YBBN,2012-10-29 21:00,153.1292,-27.3917,66.20,55.40,68.15,200.00,6.00,0.00,30.09,M,6.21,M,FEW,SCT,BKN,M,2500.00,6000.00,9000.00,M,M,YBBN 292100Z 20006KT 9999 FEW025 SCT060 BKN090 19/13 Q1019
YBBN,2012-10-29 21:30,153.1292,-27.3917,66.20,55.40,68.15,190.00,7.00,0.00,30.09,M,6.21,M,FEW,BKN,M,M,3000.00,4800.00,M,M,M,YBBN 292130Z 19007KT 9999 FEW030 BKN048 19/13 Q1019
YBBN,2012-10-29 22:00,153.1292,-27.3917,68.00,55.40,64.04,190.00,7.00,0.00,30.09,M,6.21,M,FEW,BKN,M,M,3000.00,4400.00,M,M,M,YBBN 292200Z 19007KT 9999 FEW030 BKN044 20/13 Q1019
YBBN,2012-10-29 22:30,153.1292,-27.3917,69.80,55.40,60.21,160.00,7.00,0.00,30.09,M,6.21,M,FEW,SCT,M,M,3000.00,4400.00,M,M,M,YBBN 292230Z 16007KT 9999 FEW030 SCT044 21/13 Q1019
YBBN,2012-10-29 23:00,153.1292,-27.3917,69.80,57.20,64.26,150.00,6.00,0.00,30.09,M,6.21,M,FEW,SCT,M,M,2600.00,5000.00,M,M,M,YBBN 292300Z 15006KT 9999 FEW026 SCT050 21/14 Q1019
YBBN,2012-10-29 23:30,153.1292,-27.3917,69.80,55.40,60.21,120.00,6.00,0.00,30.09,M,6.21,M,SCT,SCT,M,M,2600.00,5000.00,M,M,M,YBBN 292330Z 12006KT 9999 SCT026 SCT050 21/13 Q1019
