#DEBUG: Format Typ    -> comma
#DEBUG: Time Period   -> 2015-07-03 00:00:00+00:00 2015-07-04 00:00:00+00:00
#DEBUG: Time Zone     -> Etc/UTC
#DEBUG: Data Contact   -> daryl herzmann akrherz@iastate.edu 515-294-5978
#DEBUG: Entries Found -> -1
station,valid,lon,lat,tmpf, dwpf, relh, drct, sknt, p01i, alti, mslp, vsby, gust, skyc1, skyc2, skyc3, skyc4, skyl1, skyl2, skyl3, skyl4, presentwx, metar
YBBN,2015-07-03 00:00,153.1292,-27.3917,59.00,35.60,41.42,210.00,13.00,0.00,30.18,M,6.21,M,M,M,M,M,M,M,M,M,M,YBBN 030000Z 21013KT CAVOK 15/02 Q1022
YBBN,2015-07-03 00:30,153.1292,-27.3917,59.00,35.60,41.42,210.00,13.00,0.00,30.18,M,6.21,M,M,M,M,M,M,M,M,M,M,YBBN 030030Z 21013KT CAVOK 15/02 Q1022
YBBN,2015-07-03 01:00,153.1292,-27.3917,60.80,37.40,41.71,200.00,12.00,0.00,30.18,M,6.21,M,M,M,M,M,M,M,M,M,M,YBBN 030100Z 20012KT CAVOK 16/03 Q1022 NOSIG
YBBN,2015-07-03 01:30,153.1292,-27.3917,62.60,39.20,42.00,220.00,12.00,0.00,30.18,M,6.21,M,M,M,M,M,M,M,M,M,M,YBBN 030130Z 22012KT CAVOK 17/04 Q1022
YBBN,2015-07-03 02:00,153.1292,-27.3917,64.40,39.20,39.43,190.00,9.00,0.00,30.15,M,6.21,M,FEW,M,M,M,4500.00,M,M,M,M,YBBN 030200Z 19009KT 9999 FEW045 18/04 Q1021 NOSIG
YBBN,2015-07-03 02:30,153.1292,-27.3917,66.20,41.00,39.72,190.00,9.00,0.00,30.15,M,6.21,M,FEW,M,M,M,4500.00,M,M,M,M,YBBN 030230Z 19009KT 9999 FEW045 19/05 Q1021
YBBN,2015-07-03 03:00,153.1292,-27.3917,66.20,42.80,42.57,180.00,8.00,0.00,30.15,M,6.21,M,FEW,M,M,M,4300.00,M,M,M,M,YBBN 030300Z 18008KT 9999 FEW043 19/06 Q1021
YBBN,2015-07-03 03:30,153.1292,-27.3917,66.20,44.60,45.60,160.00,7.00,0.00,30.12,M,6.21,M,FEW,M,M,M,4300.00,M,M,M,M,YBBN 030330Z 16007KT 9999 FEW043 19/07 Q1020
YBBN,2015-07-03 04:00,153.1292,-27.3917,66.20,46.40,48.83,120.00,8.00,0.00,30.12,M,6.21,M,FEW,M,M,M,4800.00,M,M,M,M,YBBN 030400Z 12008KT 9999 FEW048 19/08 Q1020 NOSIG
YBBN,2015-07-03 04:30,153.1292,-27.3917,68.00,44.60,42.85,150.00,7.00,0.00,30.12,M,6.21,M,FEW,M,M,M,4900.00,M,M,M,M,YBBN 030430Z 15007KT 9999 FEW049 20/07 Q1020
YBBN,2015-07-03 05:00,153.1292,-27.3917,66.20,44.60,45.60,160.00,6.00,0.00,30.12,M,6.21,M,FEW,M,M,M,4900.00,M,M,M,M,YBBN 030500Z 16006KT 9999 FEW049 19/07 Q1020 NOSIG
YBBN,2015-07-03 05:30,153.1292,-27.3917,66.20,44.60,45.60,170.00,7.00,0.00,30.12,M,6.21,M,SCT,M,M,M,4900.00,M,M,M,M,YBBN 030530Z 17007KT 9999 SCT049 19/07 Q1020
YBBN,2015-07-03 06:00,153.1292,-27.3917,64.40,44.60,48.55,170.00,7.00,0.00,30.15,M,6.21,M,FEW,M,M,M,4900.00,M,M,M,M,YBBN 030600Z 17007KT 9999 FEW049 18/07 Q1021 NOSIG
YBBN,2015-07-03 06:30,153.1292,-27.3917,64.40,44.60,48.55,160.00,5.00,0.00,30.15,M,6.21,M,FEW,M,M,M,4500.00,M,M,M,M,YBBN 030630Z 16005KT 9999 FEW045 18/07 Q1021
YBBN,2015-07-03 07:00,153.1292,-27.3917,62.60,44.60,51.72,190.00,5.00,0.00,30.15,M,6.21,M,FEW,M,M,M,4000.00,M,M,M,M,YBBN 030700Z 19005KT 9999 FEW040 17/07 Q1021
YBBN,2015-07-03 07:30,153.1292,-27.3917,60.80,44.60,55.12,160.00,5.00,0.00,30.15,M,6.21,M,FEW,M,M,M,3800.00,M,M,M,M,YBBN 030730Z 16005KT 9999 FEW038 16/07 Q1021
YBBN,2015-07-03 08:00,153.1292,-27.3917,60.80,46.40,59.01,160.00,5.00,0.00,30.18,M,6.21,M,FEW,SCT,M,M,3200.00,5000.00,M,M,M,YBBN 030800Z 16005KT 9999 FEW032 SCT050 16/08 Q1022
YBBN,2015-07-03 08:30,153.1292,-27.3917,59.00,46.40,62.92,190.00,6.00,0.00,30.18,M,6.21,M,FEW,M,M,M,3000.00,M,M,M,M,YBBN 030830Z 19006KT 9999 FEW030 15/08 Q1022
YBBN,2015-07-03 09:00,153.1292,-27.3917,59.00,44.60,58.77,190.00,6.00,0.00,30.18,M,6.21,M,M,M,M,M,M,M,M,M,M,YBBN 030900Z 19006KT CAVOK 15/07 Q1022
YBBN,2015-07-03 09:30,153.1292,-27.3917,55.40,44.60,66.91,190.00,6.00,0.00,30.18,M,6.21,M,M,M,M,M,M,M,M,M,M,YBBN 030930Z 19006KT CAVOK 13/07 Q1022
YBBN,2015-07-03 10:00,153.1292,-27.3917,55.40,44.60,66.91,200.00,7.00,0.00,30.21,M,6.21,M,M,M,M,M,M,M,M,M,M,YBBN 031000Z 20007KT CAVOK 13/07 Q1023 NOSIG
YBBN,2015-07-03 10:30,153.1292,-27.3917,55.40,44.60,66.91,200.00,7.00,0.00,30.21,M,6.21,M,M,M,M,M,M,M,M,M,M,YBBN 031030Z 20007KT CAVOK 13/07 Q1023
YBBN,2015-07-03 11:00,153.1292,-27.3917,55.40,44.60,66.91,190.00,6.00,0.00,30.21,M,6.21,M,M,M,M,M,M,M,M,M,M,YBBN 031100Z 19006KT CAVOK 13/07 Q1023
YBBN,2015-07-03 11:30,153.1292,-27.3917,53.60,44.60,71.45,200.00,8.00,0.00,30.21,M,6.21,M,FEW,BKN,M,M,4600.00,6500.00,M,M,M,YBBN 031130Z 20008KT 9999 FEW046 BKN065 12/07 Q1023
YBBN,2015-07-03 12:00,153.1292,-27.3917,53.60,44.60,71.45,200.00,6.00,0.00,30.21,M,6.21,M,M,M,M,M,M,M,M,M,M,YBBN 031200Z 20006KT CAVOK 12/07 Q1023
YBBN,2015-07-03 12:30,153.1292,-27.3917,53.60,44.60,71.45,200.00,7.00,0.00,30.21,M,6.21,M,M,M,M,M,M,M,M,M,M,YBBN 031230Z 20007KT CAVOK 12/07 Q1023
YBBN,2015-07-03 13:00,153.1292,-27.3917,51.80,44.60,76.34,210.00,7.00,0.00,30.21,M,6.21,M,M,M,M,M,M,M,M,M,M,YBBN 031300Z 21007KT CAVOK 11/07 Q1023 NOSIG
YBBN,2015-07-03 13:30,153.1292,-27.3917,53.60,44.60,71.45,190.00,7.00,0.00,30.21,M,6.21,M,BKN,M,M,M,4600.00,M,M,M,M,YBBN 031330Z 19007KT 9999 BKN046 12/07 Q1023
YBBN,2015-07-03 14:00,153.1292,-27.3917,53.60,44.60,71.45,200.00,7.00,0.00,30.18,M,6.21,M,FEW,SCT,M,M,3500.00,4600.00,M,M,M,YBBN 031400Z 20007KT 9999 FEW035 SCT046 12/07 Q1022
YBBN,2015-07-03 14:30,153.1292,-27.3917,50.00,44.60,81.61,210.00,7.00,0.00,30.18,M,6.21,M,M,M,M,M,M,M,M,M,M,YBBN 031430Z 21007KT CAVOK 10/07 Q1022
YBBN,2015-07-03 15:00,153.1292,-27.3917,51.80,44.60,76.34,210.00,6.00,0.00,30.18,M,6.21,M,FEW,SCT,M,M,4400.00,5000.00,M,M,M,YBBN 031500Z 21006KT 9999 FEW044 SCT050 11/07 Q1022 NOSIG
YBBN,2015-07-03 15:30,153.1292,-27.3917,51.80,44.60,76.34,200.00,6.00,0.00,30.18,M,6.21,M,FEW,BKN,M,M,4500.00,5200.00,M,M,M,YBBN 031530Z 20006KT 9999 FEW045 BKN052 11/07 Q1022
YBBN,2015-07-03 16:00,153.1292,-27.3917,53.60,44.60,71.45,200.00,6.00,0.00,30.18,M,6.21,M,FEW,BKN,M,M,3300.00,6000.00,M,M,M,YBBN 031600Z 20006KT 9999 FEW033 BKN060 12/07 Q1022 NOSIG
YBBN,2015-07-03 16:30,153.1292,-27.3917,53.60,44.60,71.45,200.00,7.00,0.00,30.18,M,6.21,M,SCT,BKN,M,M,3700.00,6200.00,M,M,M,YBBN 031630Z 20007KT 9999 SCT037 BKN062 12/07 Q1022
YBBN,2015-07-03 17:00,153.1292,-27.3917,53.60,44.60,71.45,200.00,8.00,0.00,30.18,M,6.21,M,FEW,SCT,BKN,M,3500.00,5500.00,6400.00,M,M,YBBN 031700Z 20008KT 9999 FEW035 SCT055 BKN064 12/07 Q1022 NOSIG
YBBN,2015-07-03 17:30,153.1292,-27.3917,53.60,44.60,71.45,200.00,8.00,0.00,30.18,M,6.21,M,FEW,M,M,M,3500.00,M,M,M,M,YBBN 031730Z 20008KT 9999 FEW035 12/07 Q1022
YBBN,2015-07-03 18:00,153.1292,-27.3917,53.60,44.60,71.45,200.00,7.00,0.00,30.18,M,6.21,M,M,M,M,M,M,M,M,M,M,YBBN 031800Z 20007KT CAVOK 12/07 Q1022 NOSIG
YBBN,2015-07-03 18:30,153.1292,-27.3917,50.00,44.60,81.61,210.00,8.00,0.00,30.18,M,6.21,M,FEW,M,M,M,4600.00,M,M,M,M,YBBN 031830Z 21008KT 9999 FEW046 10/07 Q1022
YBBN,2015-07-03 19:00,153.1292,-27.3917,51.80,44.60,76.34,210.00,8.00,0.00,30.18,M,6.21,M,SCT,BKN,M,M,3900.00,5300.00,M,M,M,YBBN 031900Z 21008KT 9999 SCT039 BKN053 11/07 Q1022
YBBN,2015-07-03 19:30,153.1292,-27.3917,50.00,44.60,81.61,210.00,8.00,0.00,30.18,M,6.21,M,FEW,BKN,M,M,3700.00,4300.00,M,M,M,YBBN 031930Z 21008KT 9999 FEW037 BKN043 10/07 Q1022
YBBN,2015-07-03 20:00,153.1292,-27.3917,48.20,44.60,87.28,210.00,8.00,0.00,30.18,M,6.21,M,FEW,SCT,M,M,3500.00,4300.00,M,M,M,YBBN 032000Z 21008KT 9999 FEW035 SCT043 09/07 Q1022
YBBN,2015-07-03 20:30,153.1292,-27.3917,51.80,44.60,76.34,210.00,9.00,0.00,30.18,M,6.21,M,FEW,SCT,M,M,3000.00,4200.00,M,M,M,YBBN 032030Z 21009KT 9999 FEW030 SCT042 11/07 Q1022
YBBN,2015-07-03 21:00,153.1292,-27.3917,51.80,44.60,76.34,200.00,7.00,0.00,30.21,M,6.21,M,FEW,SCT,M,M,3000.00,4500.00,M,M,M,YBBN 032100Z 20007KT 9999 FEW030 SCT045 11/07 Q1023 NOSIG
YBBN,2015-07-03 21:30,153.1292,-27.3917,53.60,44.60,71.45,200.00,8.00,0.00,30.21,M,6.21,M,FEW,SCT,M,M,3000.00,4200.00,M,M,M,YBBN 032130Z 20008KT 9999 FEW030 SCT042 12/07 Q1023
YBBN,2015-07-03 22:00,153.1292,-27.3917,53.60,44.60,71.45,200.00,8.00,0.00,30.21,M,6.21,M,FEW,BKN,M,M,3000.00,4200.00,M,M,M,YBBN 032200Z 20008KT 9999 FEW030 BKN042 12/07 Q1023
YBBN,2015-07-03 22:30,153.1292,-27.3917,57.20,46.40,67.12,200.00,9.00,0.00,30.24,M,6.21,M,FEW,SCT,M,M,3000.00,4200.00,M,M,M,YBBN 032230Z 20009KT 9999 FEW030 SCT042 14/08 Q1024
YBBN,2015-07-03 23:00,153.1292,-27.3917,59.00,44.60,58.77,210.00,11.00,0.00,30.24,M,6.21,M,FEW,SCT,M,M,3000.00,4200.00,M,M,M,YBBN 032300Z 21011KT 9999 FEW030 SCT042 15/07 Q1024 NOSIG
YBBN,2015-07-03 23:30,153.1292,-27.3917,60.80,44.60,55.12,210.00,12.00,0.00,30.24,M,6.21,M,FEW,SCT,M,M,3000.00,4400.00,M,M,M,YBBN 032330Z 21012KT 9999 FEW030 SCT044 16/07 Q1024
