#DEBUG: Format Typ    -> comma
#DEBUG: Time Period   -> 2014-10-11 00:00:00+00:00 2014-10-12 00:00:00+00:00
#DEBUG: Time Zone     -> Etc/UTC
#DEBUG: Data Contact   -> daryl herzmann akrherz@iastate.edu 515-294-5978
#DEBUG: Entries Found -> -1
station,valid,lon,lat,tmpf, dwpf, relh, drct, sknt, p01i, alti, mslp, vsby, gust, skyc1, skyc2, skyc3, skyc4, skyl1, skyl2, skyl3, skyl4, presentwx, metar
YBBN,2014-10-11 00:00,153.1292,-27.3917,73.40,55.40,53.29,10.00,7.00,0.00,30.09,M,6.21,M,FEW,BKN,M,M,3500.00,27000.00,M,M,M,YBBN 110000Z 01007KT 9999 FEW035 BKN270 23/13 Q1019
YBBN,2014-10-11 00:30,153.1292,-27.3917,71.60,53.60,53.03,350.00,5.00,0.00,30.06,M,6.21,M,FEW,BKN,M,M,3500.00,27000.00,M,M,M,YBBN 110030Z 35005KT 9999 FEW035 BKN270 22/12 Q1018
YBBN,2014-10-11 01:00,153.1292,-27.3917,71.60,55.40,56.63,30.00,7.00,0.00,30.06,M,6.21,M,FEW,BKN,M,M,3500.00,27000.00,M,M,M,YBBN 110100Z 03007KT 9999 FEW035 BKN270 22/13 Q1018 NOSIG
YBBN,2014-10-11 01:30,153.1292,-27.3917,75.20,53.60,46.98,40.00,7.00,0.00,30.03,M,6.21,M,FEW,M,M,M,3500.00,M,M,M,M,YBBN 110130Z 04007KT 9999 FEW035 24/12 Q1017
YBBN,2014-10-11 02:00,153.1292,-27.3917,75.20,53.60,46.98,30.00,8.00,0.00,30.03,M,6.21,M,FEW,M,M,M,3800.00,M,M,M,M,YBBN 110200Z 03008KT 9999 FEW038 24/12 Q1017 NOSIG
YBBN,2014-10-11 02:30,153.1292,-27.3917,75.20,55.40,50.17,30.00,11.00,0.00,30.03,M,6.21,M,FEW,M,M,M,3800.00,M,M,M,M,YBBN 110230Z 03011KT 9999 FEW038 24/13 Q1017
YBBN,2014-10-11 03:00,153.1292,-27.3917,75.20,55.40,50.17,50.00,10.00,0.00,30.00,M,6.21,M,FEW,M,M,M,4000.00,M,M,M,M,YBBN 110300Z 05010KT 9999 FEW040 24/13 Q1016
YBBN,2014-10-11 03:30,153.1292,-27.3917,75.20,55.40,50.17,40.00,12.00,0.00,30.00,M,6.21,M,FEW,M,M,M,4000.00,M,M,M,M,YBBN 110330Z 04012KT 9999 FEW040 24/13 Q1016
YBBN,2014-10-11 04:00,153.1292,-27.3917,75.20,55.40,50.17,50.00,12.00,0.00,29.97,M,6.21,M,FEW,M,M,M,4000.00,M,M,M,M,YBBN 110400Z 05012KT 9999 FEW040 24/13 Q1015 NOSIG
YBBN,2014-10-11 04:30,153.1292,-27.3917,75.20,55.40,50.17,50.00,14.00,0.00,29.97,M,6.21,M,FEW,M,M,M,4200.00,M,M,M,M,YBBN 110430Z 05014KT 9999 FEW042 24/13 Q1015
YBBN,2014-10-11 05:00,153.1292,-27.3917,73.40,57.20,56.88,50.00,13.00,0.00,29.97,M,6.21,M,FEW,M,M,M,4500.00,M,M,M,M,YBBN 110500Z 05013KT 9999 FEW045 23/14 Q1015 NOSIG
YBBN,2014-10-11 05:30,153.1292,-27.3917,75.20,59.00,57.12,50.00,13.00,0.00,29.97,M,6.21,M,FEW,M,M,M,4500.00,M,M,M,M,YBBN 110530Z 05013KT 9999 FEW045 24/15 Q1015
YBBN,2014-10-11 06:00,153.1292,-27.3917,73.40,57.20,56.88,50.00,12.00,0.00,29.97,M,6.21,M,FEW,M,M,M,4500.00,M,M,M,M,YBBN 110600Z 05012KT 9999 FEW045 23/14 Q1015 NOSIG
YBBN,2014-10-11 06:30,153.1292,-27.3917,73.40,59.00,60.67,40.00,12.00,0.00,29.97,M,6.21,M,FEW,M,M,M,4800.00,M,M,M,M,YBBN 110630Z 04012KT 9999 FEW048 23/15 Q1015
YBBN,2014-10-11 07:00,153.1292,-27.3917,71.60,57.20,60.44,40.00,12.00,0.00,29.97,M,6.21,M,FEW,M,M,M,4800.00,M,M,M,M,YBBN 110700Z 04012KT 9999 FEW048 22/14 Q1015 NOSIG
YBBN,2014-10-11 07:30,153.1292,-27.3917,71.60,57.20,60.44,40.00,11.00,0.00,30.00,M,6.21,M,M,M,M,M,M,M,M,M,M,YBBN 110730Z 04011KT CAVOK 22/14 Q1016
YBBN,2014-10-11 08:00,153.1292,-27.3917,69.80,57.20,64.26,40.00,8.00,0.00,30.00,M,6.21,M,M,M,M,M,M,M,M,M,M,YBBN 110800Z 04008KT CAVOK 21/14 Q1016
YBBN,2014-10-11 08:30,153.1292,-27.3917,68.00,57.20,68.35,50.00,8.00,0.00,30.03,M,6.21,M,M,M,M,M,M,M,M,M,M,YBBN 110830Z 05008KT CAVOK 20/14 Q1017
YBBN,2014-10-11 09:00,153.1292,-27.3917,68.00,59.00,72.92,30.00,7.00,0.00,30.03,M,6.21,M,M,M,M,M,M,M,M,M,M,YBBN 110900Z 03007KT CAVOK 20/15 Q1017
YBBN,2014-10-11 09:30,153.1292,-27.3917,66.20,59.00,77.60,30.00,6.00,0.00,30.03,M,6.21,M,M,M,M,M,M,M,M,M,M,YBBN 110930Z 03006KT CAVOK 19/15 Q1017
YBBN,2014-10-11 10:00,153.1292,-27.3917,66.20,59.00,77.60,30.00,7.00,0.00,30.06,M,6.21,M,M,M,M,M,M,M,M,M,M,YBBN 111000Z 03007KT CAVOK 19/15 Q1018 NOSIG
YBBN,2014-10-11 10:30,153.1292,-27.3917,66.20,59.00,77.60,10.00,7.00,0.00,30.06,M,6.21,M,M,M,M,M,M,M,M,M,M,YBBN 111030Z 01007KT CAVOK 19/15 Q1018
YBBN,2014-10-11 11:00,153.1292,-27.3917,66.20,59.00,77.60,20.00,8.00,0.00,30.06,M,6.21,M,FEW,M,M,M,4000.00,M,M,M,M,YBBN 111100Z 02008KT 9999 FEW040 19/15 Q1018
YBBN,2014-10-11 11:30,153.1292,-27.3917,66.20,59.00,77.60,20.00,8.00,0.00,30.06,M,6.21,M,FEW,M,M,M,4000.00,M,M,M,M,YBBN 111130Z 02008KT 9999 FEW040 19/15 Q1018
YBBN,2014-10-11 12:00,153.1292,-27.3917,66.20,57.20,72.74,30.00,10.00,0.00,30.06,M,6.21,M,FEW,M,M,M,4000.00,M,M,M,M,YBBN 111200Z 03010KT 9999 FEW040 19/14 Q1018 NOSIG
YBBN,2014-10-11 12:30,153.1292,-27.3917,66.20,57.20,72.74,40.00,7.00,0.00,30.06,M,6.21,M,FEW,M,M,M,4000.00,M,M,M,M,YBBN 111230Z 04007KT 9999 FEW040 19/14 Q1018
YBBN,2014-10-11 13:00,153.1292,-27.3917,68.00,59.00,72.92,40.00,8.00,0.00,30.09,M,6.21,M,FEW,M,M,M,2500.00,M,M,M,M,YBBN 111300Z 04008KT 9999 FEW025 20/15 Q1019 NOSIG
YBBN,2014-10-11 13:30,153.1292,-27.3917,68.00,59.00,72.92,30.00,9.00,0.00,30.06,M,6.21,M,FEW,SCT,M,M,2500.00,12000.00,M,M,M,YBBN 111330Z 03009KT 9999 FEW025 SCT120 20/15 Q1018
YBBN,2014-10-11 14:00,153.1292,-27.3917,68.00,59.00,72.92,30.00,9.00,0.00,30.06,M,6.21,M,FEW,SCT,M,M,2400.00,12000.00,M,M,M,YBBN 111400Z 03009KT 9999 FEW024 SCT120 20/15 Q1018 NOSIG
YBBN,2014-10-11 14:30,153.1292,-27.3917,66.20,59.00,77.60,40.00,7.00,0.00,30.06,M,6.21,M,FEW,SCT,M,M,2400.00,12000.00,M,M,M,YBBN 111430Z 04007KT 9999 FEW024 SCT120 19/15 Q1018
YBBN,2014-10-11 15:00,153.1292,-27.3917,68.00,59.00,72.92,50.00,7.00,0.00,30.06,M,6.21,M,SCT,SCT,M,M,2400.00,3800.00,M,M,M,YBBN 111500Z 05007KT 9999 SCT024 SCT038 20/15 Q1018 NOSIG
YBBN,2014-10-11 15:30,153.1292,-27.3917,68.00,59.00,72.92,50.00,7.00,0.00,30.06,M,6.21,M,SCT,SCT,M,M,2400.00,14000.00,M,M,M,YBBN 111530Z 05007KT 9999 SCT024 SCT140 20/15 Q1018
YBBN,2014-10-11 16:00,153.1292,-27.3917,68.00,60.80,77.75,50.00,7.00,0.00,30.06,M,6.21,M,FEW,SCT,M,M,2400.00,14000.00,M,M,M,YBBN 111600Z 05007KT 9999 FEW024 SCT140 20/16 Q1018 NOSIG
YBBN,2014-10-11 16:30,153.1292,-27.3917,68.00,59.00,72.92,50.00,5.00,0.00,30.06,M,6.21,M,FEW,SCT,M,M,2400.00,14000.00,M,M,M,YBBN 111630Z 05005KT 9999 FEW024 SCT140 20/15 Q1018
YBBN,2014-10-11 17:00,153.1292,-27.3917,68.00,59.00,72.92,50.00,5.00,0.00,30.06,M,6.21,M,SCT,SCT,M,M,2400.00,14000.00,M,M,M,YBBN 111700Z 05005KT 9999 SCT024 SCT140 20/15 Q1018
YBBN,2014-10-11 17:30,153.1292,-27.3917,68.00,59.00,72.92,60.00,5.00,0.00,30.03,M,6.21,M,SCT,M,M,M,2400.00,M,M,M,M,YBBN 111730Z 06005KT 9999 SCT024 20/15 Q1017
YBBN,2014-10-11 18:00,153.1292,-27.3917,68.00,59.00,72.92,50.00,6.00,0.00,30.06,M,6.21,M,SCT,M,M,M,2400.00,M,M,M,M,YBBN 111800Z 05006KT 9999 SCT024 20/15 Q1018 NOSIG
YBBN,2014-10-11 18:30,153.1292,-27.3917,68.00,59.00,72.92,50.00,1.00,0.00,30.06,M,6.21,M,SCT,SCT,M,M,2400.00,3800.00,M,M,M,YBBN 111830Z 05001KT 9999 SCT024 SCT038 20/15 Q1018
YBBN,2014-10-11 19:00,153.1292,-27.3917,66.20,60.80,82.74,50.00,1.00,0.00,30.06,M,6.21,M,BKN,SCT,M,M,2400.00,3800.00,M,M,M,YBBN 111900Z 05001KT 9999 BKN024 SCT038 19/16 Q1018
YBBN,2014-10-11 19:30,153.1292,-27.3917,66.20,60.80,82.74,260.00,5.00,0.00,30.06,M,6.21,M,FEW,BKN,M,M,1900.00,2400.00,M,M,M,YBBN 111930Z 26005KT 9999 FEW019 BKN024 19/16 Q1018
YBBN,2014-10-11 20:00,153.1292,-27.3917,66.20,60.80,82.74,290.00,3.00,0.00,30.09,M,6.21,M,FEW,BKN,M,M,1900.00,2400.00,M,M,M,YBBN 112000Z 29003KT 9999 FEW019 BKN024 19/16 Q1019 NOSIG
YBBN,2014-10-11 20:30,153.1292,-27.3917,68.00,60.80,77.75,270.00,1.00,0.00,30.09,M,6.21,M,BKN,M,M,M,2600.00,M,M,M,M,YBBN 112030Z 27001KT 9999 BKN026 20/16 Q1019
YBBN,2014-10-11 21:00,153.1292,-27.3917,69.80,60.80,73.09,310.00,1.00,0.00,30.09,M,6.21,M,BKN,M,M,M,2800.00,M,M,M,M,YBBN 112100Z 31001KT 9999 BKN028 21/16 Q1019 NOSIG
YBBN,2014-10-11 21:30,153.1292,-27.3917,69.80,60.80,73.09,40.00,6.00,0.00,30.09,M,6.21,M,SCT,M,M,M,2800.00,M,M,M,M,YBBN 112130Z 04006KT 9999 SCT028 21/16 Q1019
YBBN,2014-10-11 22:00,153.1292,-27.3917,71.60,59.00,64.48,40.00,8.00,0.00,30.09,M,6.21,M,SCT,M,M,M,2800.00,M,M,M,M,YBBN 112200Z 04008KT 9999 SCT028 22/15 Q1019 NOSIG
YBBN,2014-10-11 22:30,153.1292,-27.3917,73.40,59.00,60.67,50.00,8.00,0.00,30.09,M,6.21,M,SCT,M,M,M,2800.00,M,M,M,M,YBBN 112230Z 05008KT 9999 SCT028 23/15 Q1019
YBBN,2014-10-11 23:00,153.1292,-27.3917,71.60,59.00,64.48,40.00,7.00,0.00,30.09,M,6.21,M,SCT,M,M,M,2800.00,M,M,M,M,YBBN 112300Z 04007KT 9999 SCT028 22/15 Q1019 NOSIG
YBBN,2014-10-11 23:30,153.1292,-27.3917,73.40,59.00,60.67,20.00,10.00,0.00,30.09,M,6.21,M,BKN,M,M,M,2800.00,M,M,M,M,YBBN 112330Z 02010KT 9999 BKN028 23/15 Q1019
