#DEBUG: Format Typ    -> comma
#DEBUG: Time Period   -> 2011-06-14 00:00:00+00:00 2011-06-15 00:00:00+00:00
#DEBUG: Time Zone     -> Etc/UTC
#DEBUG: Data Contact   -> daryl herzmann akrherz@iastate.edu 515-294-5978
#DEBUG: Entries Found -> -1
station,valid,lon,lat,tmpf, dwpf, relh, drct, sknt, p01i, alti, mslp, vsby, gust, skyc1, skyc2, skyc3, skyc4, skyl1, skyl2, skyl3, skyl4, presentwx, metar
YBBN,2011-06-14 00:00,153.1292,-27.3917,62.60,50.00,63.38,300.00,9.00,M,29.85,M,6.21,M,FEW,M,M,M,3000.00,M,M,M,M,YBBN 140000Z 30009KT 9999 FEW030 17/10 Q1011 NOSIG
YBBN,2011-06-14 00:30,153.1292,-27.3917,62.60,50.00,63.38,330.00,10.00,M,29.85,M,6.21,M,FEW,M,M,M,3000.00,M,M,M,M,YBBN 140030Z 33010KT 9999 FEW030 17/10 Q1011 NOSIG
YBBN,2011-06-14 01:00,153.1292,-27.3917,64.40,50.00,59.50,330.00,11.00,M,29.85,M,6.21,M,SCT,M,M,M,3300.00,M,M,M,M,YBBN 140100Z 33011KT 9999 SCT033 18/10 Q1011 NOSIG
YBBN,2011-06-14 01:30,153.1292,-27.3917,66.20,46.40,48.83,300.00,8.00,M,29.85,M,6.21,M,FEW,M,M,M,3300.00,M,M,M,M,YBBN 140130Z 30008KT 9999 FEW033 19/08 Q1011 NOSIG
YBBN,2011-06-14 02:00,153.1292,-27.3917,66.20,48.20,52.25,320.00,9.00,M,29.83,M,6.21,M,SCT,M,M,M,3300.00,M,M,M,M,YBBN 140200Z 32009KT 9999 SCT033 19/09 Q1010 NOSIG
YBBN,2011-06-14 02:30,153.1292,-27.3917,66.20,48.20,52.25,270.00,9.00,M,29.83,M,6.21,M,SCT,M,M,M,3800.00,M,M,M,M,YBBN 140230Z 27009KT 9999 SCT038 19/09 Q1010 NOSIG
YBBN,2011-06-14 03:00,153.1292,-27.3917,68.00,48.20,49.10,290.00,10.00,M,29.80,M,6.21,M,SCT,M,M,M,4000.00,M,M,M,M,YBBN 140300Z 29010KT 9999 SCT040 20/09 Q1009 NOSIG
YBBN,2011-06-14 03:30,153.1292,-27.3917,68.00,48.20,49.10,270.00,11.00,M,29.80,M,6.21,M,SCT,M,M,M,3500.00,M,M,M,M,YBBN 140330Z 27011KT 9999 SCT035 20/09 Q1009 NOSIG
YBBN,2011-06-14 04:00,153.1292,-27.3917,68.00,48.20,49.10,270.00,10.00,M,29.80,M,6.21,M,SCT,M,M,M,4200.00,M,M,M,M,YBBN 140400Z 27010KT 9999 SCT042 20/09 Q1009 NOSIG
YBBN,2011-06-14 04:30,153.1292,-27.3917,68.00,46.40,45.88,290.00,12.00,M,29.80,M,6.21,M,SCT,M,M,M,4200.00,M,M,M,M,YBBN 140430Z 29012KT 9999 SCT042 20/08 Q1009 NOSIG
YBBN,2011-06-14 05:00,153.1292,-27.3917,68.00,46.40,45.88,280.00,12.00,M,29.80,M,6.21,M,SCT,M,M,M,4400.00,M,M,M,M,YBBN 140500Z 28012KT 9999 SCT044 20/08 Q1009 NOSIG
YBBN,2011-06-14 05:30,153.1292,-27.3917,66.20,46.40,48.83,270.00,12.00,M,29.83,M,6.21,M,SCT,M,M,M,4400.00,M,M,M,M,YBBN 140530Z 27012KT 9999 SCT044 19/08 Q1010 NOSIG
YBBN,2011-06-14 06:00,153.1292,-27.3917,66.20,46.40,48.83,300.00,12.00,M,29.83,M,6.21,M,SCT,M,M,M,4400.00,M,M,M,M,YBBN 140600Z 30012KT 9999 SCT044 19/08 Q1010 NOSIG
YBBN,2011-06-14 06:30,153.1292,-27.3917,64.40,46.40,51.98,320.00,7.00,M,29.83,M,6.21,M,FEW,M,M,M,4500.00,M,M,M,M,YBBN 140630Z 32007KT 9999 FEW045 18/08 Q1010 NOSIG
YBBN,2011-06-14 07:00,153.1292,-27.3917,62.60,48.20,59.26,320.00,5.00,M,29.83,M,6.21,M,FEW,M,M,M,4000.00,M,M,M,M,YBBN 140700Z 32005KT 9999 FEW040 17/09 Q1010 NOSIG
YBBN,2011-06-14 07:30,153.1292,-27.3917,59.00,50.00,72.01,350.00,7.00,M,29.85,M,6.21,M,FEW,M,M,M,4000.00,M,M,M,M,YBBN 140730Z 35007KT 9999 FEW040 15/10 Q1011 NOSIG
YBBN,2011-06-14 08:00,153.1292,-27.3917,59.00,50.00,72.01,330.00,6.00,M,29.85,M,6.21,M,FEW,M,M,M,3500.00,M,M,M,M,YBBN 140800Z 33006KT 9999 FEW035 15/10 Q1011 NOSIG
YBBN,2011-06-14 08:30,153.1292,-27.3917,59.00,50.00,72.01,330.00,6.00,M,29.85,M,6.21,M,FEW,M,M,M,3500.00,M,M,M,M,YBBN 140830Z 33006KT 9999 FEW035 15/10 Q1011 NOSIG
YBBN,2011-06-14 09:00,153.1292,-27.3917,57.20,50.00,76.82,340.00,6.00,M,29.88,M,6.21,M,FEW,M,M,M,4000.00,M,M,M,M,YBBN 140900Z 34006KT 9999 FEW040 14/10 Q1012 NOSIG
YBBN,2011-06-14 09:30,153.1292,-27.3917,59.00,48.20,67.33,300.00,6.00,M,29.88,M,6.21,M,FEW,M,M,M,4500.00,M,M,M,M,YBBN 140930Z 30006KT 9999 FEW045 15/09 Q1012 NOSIG
YBBN,2011-06-14 10:00,153.1292,-27.3917,57.20,48.20,71.83,320.00,8.00,M,29.88,M,6.21,M,FEW,M,M,M,4500.00,M,M,M,M,YBBN 141000Z 32008KT 9999 FEW045 14/09 Q1012 NOSIG
YBBN,2011-06-14 10:30,153.1292,-27.3917,55.40,50.00,81.99,310.00,8.00,M,29.88,M,6.21,M,M,M,M,M,M,M,M,M,M,YBBN 141030Z 31008KT CAVOK 13/10 Q1012 NOSIG
YBBN,2011-06-14 11:00,153.1292,-27.3917,57.20,48.20,71.83,310.00,5.00,M,29.91,M,6.21,M,FEW,M,M,M,4000.00,M,M,M,M,YBBN 141100Z 31005KT 9999 FEW040 14/09 Q1013 NOSIG
YBBN,2011-06-14 11:30,153.1292,-27.3917,55.40,48.20,76.66,300.00,4.00,M,29.91,M,6.21,M,FEW,M,M,M,4000.00,M,M,M,M,YBBN 141130Z 30004KT 9999 FEW040 13/09 Q1013 NOSIG
YBBN,2011-06-14 12:00,153.1292,-27.3917,55.40,48.20,76.66,310.00,7.00,M,29.91,M,6.21,M,FEW,M,M,M,4000.00,M,M,M,M,YBBN 141200Z 31007KT 9999 FEW040 13/09 Q1013 NOSIG
YBBN,2011-06-14 12:30,153.1292,-27.3917,55.40,48.20,76.66,300.00,5.00,M,29.91,M,6.21,M,FEW,M,M,M,3500.00,M,M,M,M,YBBN 141230Z 30005KT 9999 FEW035 13/09 Q1013 NOSIG
YBBN,2011-06-14 13:00,153.1292,-27.3917,51.80,48.20,87.47,310.00,5.00,M,29.91,M,6.21,M,SCT,M,M,M,3300.00,M,M,M,M,YBBN 141300Z 31005KT 9999 SCT033 11/09 Q1013 NOSIG
YBBN,2011-06-14 13:30,153.1292,-27.3917,53.60,50.00,87.56,350.00,8.00,M,29.91,M,6.21,M,FEW,M,M,M,3300.00,M,M,M,M,YBBN 141330Z 35008KT 9999 FEW033 12/10 Q1013 NOSIG
YBBN,2011-06-14 14:00,153.1292,-27.3917,53.60,48.20,81.87,310.00,6.00,M,29.91,M,6.21,M,M,M,M,M,M,M,M,M,// //////,YBBN 141400Z 31006KT //// // ////// 12/09 Q1013 NOSIG
YBBN,2011-06-14 14:30,153.1292,-27.3917,51.80,48.20,87.47,280.00,4.00,M,29.91,M,6.21,M,FEW,M,M,M,3300.00,M,M,M,M,YBBN 141430Z 28004KT 9999 FEW033 11/09 Q1013 NOSIG
YBBN,2011-06-14 15:00,153.1292,-27.3917,50.00,46.40,87.37,310.00,4.00,M,29.91,M,6.21,M,SCT,M,M,M,3000.00,M,M,M,M,YBBN 141500Z 31004KT 9999 SCT030 10/08 Q1013 NOSIG
YBBN,2011-06-14 15:30,153.1292,-27.3917,53.60,50.00,87.56,290.00,5.00,M,29.88,M,6.21,M,SCT,M,M,M,3000.00,M,M,M,M,YBBN 141530Z 29005KT 9999 SCT030 12/10 Q1012 NOSIG
YBBN,2011-06-14 16:00,153.1292,-27.3917,51.80,48.20,87.47,310.00,6.00,M,29.88,M,6.21,M,SCT,M,M,M,2800.00,M,M,M,M,YBBN 141600Z 31006KT 9999 SCT028 11/09 Q1012 NOSIG
YBBN,2011-06-14 16:30,153.1292,-27.3917,50.00,48.20,93.50,350.00,5.00,M,29.88,M,6.21,M,SCT,M,M,M,3000.00,M,M,M,M,YBBN 141630Z 35005KT 9999 SCT030 10/09 Q1012 NOSIG
YBBN,2011-06-14 17:00,153.1292,-27.3917,51.80,48.20,87.47,310.00,7.00,M,29.91,M,6.21,M,BKN,M,M,M,2500.00,M,M,M,M,YBBN 141700Z 31007KT 9999 BKN025 11/09 Q1013 NOSIG
YBBN,2011-06-14 17:30,153.1292,-27.3917,50.00,48.20,93.50,320.00,5.00,M,29.91,M,6.21,M,FEW,M,M,M,2500.00,M,M,M,M,YBBN 141730Z 32005KT 9999 FEW025 10/09 Q1013 NOSIG
YBBN,2011-06-14 18:00,153.1292,-27.3917,50.00,46.40,87.37,360.00,4.00,M,29.91,M,6.21,M,FEW,M,M,M,2500.00,M,M,M,M,YBBN 141800Z 36004KT 9999 FEW025 10/08 Q1013 NOSIG
YBBN,2011-06-14 18:30,153.1292,-27.3917,48.20,46.40,93.45,360.00,5.00,M,29.91,M,6.21,M,FEW,M,M,M,2500.00,M,M,M,M,YBBN 141830Z 36005KT 9999 FEW025 09/08 Q1013 NOSIG
YBBN,2011-06-14 19:00,153.1292,-27.3917,48.20,46.40,93.45,340.00,5.00,M,29.91,M,6.21,M,FEW,M,M,M,2500.00,M,M,M,M,YBBN 141900Z 34005KT 9999 FEW025 09/08 Q1013 NOSIG
YBBN,2011-06-14 19:30,153.1292,-27.3917,50.00,46.40,87.37,330.00,5.00,M,29.94,M,6.21,M,M,M,M,M,M,M,M,M,M,YBBN 141930Z 33005KT CAVOK 10/08 Q1014 NOSIG
YBBN,2011-06-14 20:00,153.1292,-27.3917,48.20,46.40,93.45,340.00,5.00,M,29.94,M,6.21,M,FEW,M,M,M,2500.00,M,M,M,M,YBBN 142000Z 34005KT 9999 FEW025 09/08 Q1014 NOSIG
YBBN,2011-06-14 20:30,153.1292,-27.3917,50.00,48.20,93.50,340.00,6.00,M,29.94,M,6.21,M,FEW,M,M,M,3000.00,M,M,M,M,YBBN 142030Z 34006KT 9999 FEW030 10/09 Q1014 NOSIG
YBBN,2011-06-14 21:00,153.1292,-27.3917,51.80,48.20,87.47,320.00,7.00,M,29.94,M,6.21,M,FEW,M,M,M,3000.00,M,M,M,M,YBBN 142100Z 32007KT 9999 FEW030 11/09 Q1014 NOSIG
YBBN,2011-06-14 21:30,153.1292,-27.3917,53.60,48.20,81.87,320.00,5.00,M,29.97,M,6.21,M,FEW,M,M,M,3000.00,M,M,M,M,YBBN 142130Z 32005KT 9999 FEW030 12/09 Q1015 NOSIG
YBBN,2011-06-14 22:00,153.1292,-27.3917,55.40,50.00,81.99,340.00,7.00,M,29.97,M,6.21,M,FEW,M,M,M,2500.00,M,M,M,M,YBBN 142200Z 34007KT 9999 FEW025 13/10 Q1015 NOSIG
YBBN,2011-06-14 22:30,153.1292,-27.3917,57.20,50.00,76.82,290.00,7.00,M,29.97,M,6.21,M,FEW,M,M,M,2500.00,M,M,M,M,YBBN 142230Z 29007KT 9999 FEW025 14/10 Q1015 NOSIG
YBBN,2011-06-14 23:00,153.1292,-27.3917,59.00,50.00,72.01,330.00,7.00,M,30.00,M,6.21,M,FEW,M,M,M,2500.00,M,M,M,M,YBBN 142300Z 33007KT 9999 FEW025 15/10 Q1016 NOSIG
YBBN,2011-06-14 23:30,153.1292,-27.3917,60.80,50.00,67.54,310.00,5.00,M,30.00,M,6.21,M,FEW,M,M,M,2500.00,M,M,M,M,YBBN 142330Z 31005KT 9999 FEW025 16/10 Q1016 NOSIG
