#DEBUG: Format Typ    -> comma
#DEBUG: Time Period   -> 2012-03-25 00:00:00+00:00 2012-03-26 00:00:00+00:00
#DEBUG: Time Zone     -> Etc/UTC
#DEBUG: Data Contact   -> daryl herzmann akrherz@iastate.edu 515-294-5978
#DEBUG: Entries Found -> -1
station,valid,lon,lat,tmpf, dwpf, relh, drct, sknt, p01i, alti, mslp, vsby, gust, skyc1, skyc2, skyc3, skyc4, skyl1, skyl2, skyl3, skyl4, presentwx, metar
YBBN,2012-03-25 00:00,153.1292,-27.3917,77.00,60.80,57.36,120.00,9.00,0.00,30.06,M,6.21,M,FEW,SCT,M,M,3200.00,7000.00,M,M,M,YBBN 250000Z 12009KT 9999 FEW032 SCT070 25/16 Q1018
YBBN,2012-03-25 00:30,153.1292,-27.3917,75.20,60.80,60.90,150.00,10.00,0.00,30.06,M,6.21,M,SCT,SCT,M,M,3200.00,7200.00,M,M,M,YBBN 250030Z 15010KT 9999 SCT032 SCT072 24/16 Q1018
YBBN,2012-03-25 01:00,153.1292,-27.3917,75.20,60.80,60.90,120.00,12.00,0.00,30.06,M,6.21,M,FEW,SCT,M,M,3000.00,6000.00,M,M,M,YBBN 250100Z 12012KT 9999 FEW030 SCT060 24/16 Q1018
YBBN,2012-03-25 01:30,153.1292,-27.3917,77.00,60.80,57.36,120.00,12.00,0.00,30.06,M,6.21,M,SCT,M,M,M,3800.00,M,M,M,M,YBBN 250130Z 12012KT 9999 SCT038 25/16 Q1018
YBBN,2012-03-25 02:00,153.1292,-27.3917,75.20,57.20,53.55,130.00,13.00,0.00,30.06,M,6.21,M,FEW,SCT,M,M,3300.00,7300.00,M,M,M,YBBN 250200Z 13013KT 9999 FEW033 SCT073 24/14 Q1018 NOSIG
YBBN,2012-03-25 02:30,153.1292,-27.3917,78.80,57.20,47.52,90.00,13.00,0.00,30.06,M,6.21,M,SCT,SCT,M,M,3300.00,7500.00,M,M,M,YBBN 250230Z 09013KT 9999 SCT033 SCT075 26/14 Q1018
YBBN,2012-03-25 03:00,153.1292,-27.3917,77.00,57.20,50.43,110.00,13.00,0.00,30.06,M,6.21,M,FEW,BKN,M,M,3200.00,7200.00,M,M,M,YBBN 250300Z 11013KT 9999 FEW032 BKN072 25/14 Q1018 NOSIG
YBBN,2012-03-25 03:30,153.1292,-27.3917,77.00,55.40,47.25,120.00,13.00,0.00,30.03,M,6.21,M,SCT,M,M,M,4300.00,M,M,M,M,YBBN 250330Z 12013KT 9999 SCT043 25/13 Q1017
YBBN,2012-03-25 04:00,153.1292,-27.3917,77.00,57.20,50.43,90.00,13.00,0.00,30.03,M,6.21,M,FEW,M,M,M,3800.00,M,M,M,M,YBBN 250400Z 09013KT 9999 FEW038 25/14 Q1017 NOSIG
YBBN,2012-03-25 04:30,153.1292,-27.3917,77.00,59.00,53.80,80.00,11.00,0.00,30.03,M,6.21,M,FEW,M,M,M,3800.00,M,M,M,M,YBBN 250430Z 08011KT 9999 FEW038 25/15 Q1017
YBBN,2012-03-25 05:00,153.1292,-27.3917,75.20,59.00,57.12,110.00,13.00,0.00,30.06,M,6.21,M,FEW,M,M,M,3600.00,M,M,M,M,YBBN 250500Z 11013KT 9999 FEW036 24/15 Q1018
YBBN,2012-03-25 05:30,153.1292,-27.3917,75.20,59.00,57.12,130.00,11.00,0.00,30.06,M,6.21,M,FEW,M,M,M,3500.00,M,M,M,M,YBBN 250530Z 13011KT 9999 FEW035 24/15 Q1018
YBBN,2012-03-25 06:00,153.1292,-27.3917,75.20,57.20,53.55,130.00,10.00,0.00,30.06,M,6.21,M,FEW,M,M,M,4000.00,M,M,M,M,YBBN 250600Z 13010KT 9999 FEW040 24/14 Q1018 NOSIG
YBBN,2012-03-25 06:30,153.1292,-27.3917,75.20,59.00,57.12,120.00,10.00,0.00,30.06,M,6.21,M,FEW,M,M,M,4300.00,M,M,M,M,YBBN 250630Z 12010KT 9999 FEW043 24/15 Q1018
YBBN,2012-03-25 07:00,153.1292,-27.3917,73.40,59.00,60.67,100.00,11.00,0.00,30.09,M,6.21,M,FEW,M,M,M,3700.00,M,M,M,M,YBBN 250700Z 10011KT 9999 FEW037 23/15 Q1019 NOSIG
YBBN,2012-03-25 07:30,153.1292,-27.3917,73.40,57.20,56.88,110.00,9.00,0.00,30.09,M,6.21,M,FEW,M,M,M,3700.00,M,M,M,M,YBBN 250730Z 11009KT 9999 FEW037 23/14 Q1019
YBBN,2012-03-25 08:00,153.1292,-27.3917,73.40,57.20,56.88,120.00,8.00,0.00,30.09,M,6.21,M,FEW,M,M,M,3600.00,M,M,M,M,YBBN 250800Z 12008KT 9999 FEW036 23/14 Q1019 NOSIG
YBBN,2012-03-25 08:30,153.1292,-27.3917,73.40,57.20,56.88,110.00,9.00,0.00,30.09,M,6.21,M,FEW,M,M,M,3500.00,M,M,M,M,YBBN 250830Z 11009KT 9999 FEW035 23/14 Q1019
YBBN,2012-03-25 09:00,153.1292,-27.3917,73.40,59.00,60.67,130.00,7.00,0.00,30.09,M,6.21,M,FEW,M,M,M,3500.00,M,M,M,M,YBBN 250900Z 13007KT 9999 FEW035 23/15 Q1019 NOSIG
YBBN,2012-03-25 09:30,153.1292,-27.3917,71.60,59.00,64.48,100.00,9.00,0.00,30.12,M,6.21,M,FEW,M,M,M,3000.00,M,M,M,M,YBBN 250930Z 10009KT 9999 FEW030 22/15 Q1020
YBBN,2012-03-25 10:00,153.1292,-27.3917,73.40,59.00,60.67,90.00,8.00,0.00,30.12,M,6.21,M,FEW,M,M,M,3000.00,M,M,M,M,YBBN 251000Z 09008KT 9999 FEW030 23/15 Q1020 NOSIG
YBBN,2012-03-25 10:30,153.1292,-27.3917,73.40,59.00,60.67,90.00,8.00,0.00,30.12,M,6.21,M,SCT,M,M,M,3500.00,M,M,M,M,YBBN 251030Z 09008KT 9999 SCT035 23/15 Q1020
YBBN,2012-03-25 11:00,153.1292,-27.3917,73.40,57.20,56.88,90.00,7.00,0.00,30.12,M,6.21,M,FEW,M,M,M,3500.00,M,M,M,M,YBBN 251100Z 09007KT 9999 FEW035 23/14 Q1020
YBBN,2012-03-25 11:30,153.1292,-27.3917,73.40,59.00,60.67,80.00,8.00,0.00,30.12,M,6.21,M,FEW,M,M,M,3500.00,M,M,M,M,YBBN 251130Z 08008KT 9999 FEW035 23/15 Q1020
YBBN,2012-03-25 12:00,153.1292,-27.3917,71.60,57.20,60.44,80.00,8.00,0.00,30.12,M,6.21,M,FEW,M,M,M,3500.00,M,M,M,M,YBBN 251200Z 08008KT 9999 FEW035 22/14 Q1020
YBBN,2012-03-25 12:30,153.1292,-27.3917,71.60,57.20,60.44,80.00,8.00,0.00,30.12,M,6.21,M,FEW,M,M,M,3500.00,M,M,M,M,YBBN 251230Z 08008KT 9999 FEW035 22/14 Q1020
YBBN,2012-03-25 13:00,153.1292,-27.3917,71.60,57.20,60.44,80.00,8.00,0.00,30.12,M,6.21,M,FEW,M,M,M,3500.00,M,M,M,M,YBBN 251300Z 08008KT 9999 FEW035 22/14 Q1020 NOSIG
YBBN,2012-03-25 13:30,153.1292,-27.3917,66.20,59.00,77.60,90.00,7.00,0.00,30.12,M,6.21,M,FEW,M,M,M,3000.00,M,M,M,M,YBBN 251330Z 09007KT 9999 FEW030 19/15 Q1020
YBBN,2012-03-25 14:00,153.1292,-27.3917,64.40,59.00,82.62,230.00,6.00,0.00,30.12,M,6.21,M,FEW,M,M,M,3000.00,M,M,M,M,YBBN 251400Z 23006KT 9999 FEW030 18/15 Q1020 NOSIG
YBBN,2012-03-25 14:30,153.1292,-27.3917,64.40,59.00,82.62,220.00,7.00,0.00,30.12,M,6.21,M,FEW,SCT,M,M,3000.00,5600.00,M,M,M,YBBN 251430Z 22007KT 9999 FEW030 SCT056 18/15 Q1020
YBBN,2012-03-25 15:00,153.1292,-27.3917,64.40,59.00,82.62,230.00,7.00,0.00,30.09,M,6.21,M,FEW,BKN,M,M,3000.00,6300.00,M,M,M,YBBN 251500Z 23007KT 9999 FEW030 BKN063 18/15 Q1019 NOSIG
YBBN,2012-03-25 15:30,153.1292,-27.3917,64.40,59.00,82.62,230.00,5.00,0.00,30.09,M,6.21,M,M,M,M,M,M,M,M,M,M,YBBN 251530Z 23005KT CAVOK 18/15 Q1019
YBBN,2012-03-25 16:00,153.1292,-27.3917,62.60,59.00,88.00,210.00,5.00,0.00,30.09,M,6.21,M,M,M,M,M,M,M,M,M,M,YBBN 251600Z 21005KT CAVOK 17/15 Q1019 NOSIG
YBBN,2012-03-25 16:30,153.1292,-27.3917,62.60,59.00,88.00,220.00,7.00,0.00,30.09,M,6.21,M,M,M,M,M,M,M,M,M,M,YBBN 251630Z 22007KT CAVOK 17/15 Q1019
YBBN,2012-03-25 17:00,153.1292,-27.3917,62.60,59.00,88.00,240.00,6.00,0.00,30.09,M,6.21,M,M,M,M,M,M,M,M,M,M,YBBN 251700Z 24006KT CAVOK 17/15 Q1019 NOSIG
YBBN,2012-03-25 17:30,153.1292,-27.3917,62.60,59.00,88.00,230.00,6.00,0.00,30.09,M,6.21,M,FEW,M,M,M,3000.00,M,M,M,M,YBBN 251730Z 23006KT 9999 FEW030 17/15 Q1019
YBBN,2012-03-25 18:00,153.1292,-27.3917,62.60,59.00,88.00,230.00,7.00,0.00,30.09,M,6.21,M,FEW,M,M,M,3500.00,M,M,M,M,YBBN 251800Z 23007KT 9999 FEW035 17/15 Q1019 NOSIG
YBBN,2012-03-25 18:30,153.1292,-27.3917,60.80,59.00,93.79,230.00,6.00,0.00,30.09,M,6.21,M,FEW,M,M,M,3500.00,M,M,M,M,YBBN 251830Z 23006KT 9999 FEW035 16/15 Q1019
YBBN,2012-03-25 19:00,153.1292,-27.3917,60.80,57.20,87.92,230.00,6.00,0.00,30.09,M,6.21,M,FEW,M,M,M,4000.00,M,M,M,M,YBBN 251900Z 23006KT 9999 FEW040 16/14 Q1019
YBBN,2012-03-25 19:30,153.1292,-27.3917,60.80,59.00,93.79,230.00,6.00,0.00,30.09,M,6.21,M,FEW,M,M,M,3000.00,M,M,M,M,YBBN 251930Z 23006KT 9999 FEW030 16/15 Q1019
YBBN,2012-03-25 20:00,153.1292,-27.3917,60.80,57.20,87.92,220.00,7.00,0.00,30.12,M,6.21,M,FEW,M,M,M,3000.00,M,M,M,M,YBBN 252000Z 22007KT 9999 FEW030 16/14 Q1020
YBBN,2012-03-25 20:30,153.1292,-27.3917,62.60,59.00,88.00,250.00,7.00,0.00,30.12,M,6.21,M,M,M,M,M,M,M,M,M,M,YBBN 252030Z 25007KT CAVOK 17/15 Q1020
YBBN,2012-03-25 21:00,153.1292,-27.3917,62.60,59.00,88.00,210.00,7.00,0.00,30.12,M,6.21,M,FEW,M,M,M,3500.00,M,M,M,M,YBBN 252100Z 21007KT 9999 FEW035 17/15 Q1020 NOSIG
YBBN,2012-03-25 21:30,153.1292,-27.3917,66.20,59.00,77.60,220.00,8.00,0.00,30.12,M,6.21,M,FEW,M,M,M,3500.00,M,M,M,M,YBBN 252130Z 22008KT 9999 FEW035 19/15 Q1020
YBBN,2012-03-25 22:00,153.1292,-27.3917,68.00,60.80,77.75,210.00,7.00,0.00,30.15,M,6.21,M,FEW,M,M,M,3500.00,M,M,M,M,YBBN 252200Z 21007KT 9999 FEW035 20/16 Q1021 NOSIG
YBBN,2012-03-25 22:30,153.1292,-27.3917,69.80,60.80,73.09,230.00,6.00,0.00,30.15,M,6.21,M,FEW,M,M,M,3500.00,M,M,M,M,YBBN 252230Z 23006KT 9999 FEW035 21/16 Q1021
YBBN,2012-03-25 23:00,153.1292,-27.3917,73.40,60.80,64.69,190.00,5.00,0.00,30.15,M,6.21,M,FEW,M,M,M,3500.00,M,M,M,M,YBBN 252300Z 19005KT 9999 FEW035 23/16 Q1021
YBBN,2012-03-25 23:30,153.1292,-27.3917,77.00,57.20,50.43,80.00,10.00,0.00,30.15,M,6.21,M,FEW,SCT,M,M,3500.00,5500.00,M,M,M,YBBN 252330Z 08010KT 9999 FEW035 SCT055 25/14 Q1021
