#DEBUG: Format Typ    -> comma
#DEBUG: Time Period   -> 2011-04-23 00:00:00+00:00 2011-04-24 00:00:00+00:00
#DEBUG: Time Zone     -> Etc/UTC
#DEBUG: Data Contact   -> daryl herzmann akrherz@iastate.edu 515-294-5978
#DEBUG: Entries Found -> -1
station,valid,lon,lat,tmpf, dwpf, relh, drct, sknt, p01i, alti, mslp, vsby, gust, skyc1, skyc2, skyc3, skyc4, skyl1, skyl2, skyl3, skyl4, presentwx, metar
YBBN,2011-04-23 00:00,153.1292,-27.3917,77.00,68.00,73.78,220.00,8.00,M,30.03,M,6.21,M,FEW,M,M,M,2200.00,M,M,M,M,YBBN 230000Z 22008KT 9999 FEW022 25/20 Q1017 NOSIG
YBBN,2011-04-23 00:30,153.1292,-27.3917,77.00,66.20,69.33,200.00,6.00,M,30.00,M,6.21,M,SCT,M,M,M,2500.00,M,M,M,M,YBBN 230030Z 20006KT 9999 SCT025 25/19 Q1016 NOSIG
YBBN,2011-04-23 01:00,153.1292,-27.3917,78.80,66.20,65.33,210.00,5.00,M,30.00,M,6.21,M,BKN,M,M,M,2700.00,M,M,M,M,YBBN 230100Z 21005KT 9999 BKN027 26/19 Q1016 NOSIG
YBBN,2011-04-23 01:30,153.1292,-27.3917,77.00,66.20,69.33,100.00,6.00,M,30.00,M,6.21,M,BKN,M,M,M,2800.00,M,M,M,M,YBBN 230130Z 10006KT 9999 BKN028 25/19 Q1016 NOSIG
YBBN,2011-04-23 02:00,153.1292,-27.3917,77.00,66.20,69.33,110.00,7.00,M,30.00,M,6.21,M,SCT,SCT,M,M,2700.00,6000.00,M,M,M,YBBN 230200Z 11007KT 9999 SCT027 SCT060 25/19 Q1016 NOSIG
YBBN,2011-04-23 02:30,153.1292,-27.3917,78.80,66.20,65.33,100.00,5.00,M,29.97,M,6.21,M,SCT,SCT,M,M,2700.00,6000.00,M,M,M,YBBN 230230Z 10005KT 9999 SCT027 SCT060 26/19 Q1015 NOSIG
YBBN,2011-04-23 03:00,153.1292,-27.3917,78.80,66.20,65.33,120.00,8.00,M,29.97,M,6.21,M,SCT,M,M,M,2800.00,M,M,M,M,YBBN 230300Z 12008KT 9999 SCT028 26/19 Q1015 NOSIG
YBBN,2011-04-23 03:30,153.1292,-27.3917,78.80,66.20,65.33,120.00,10.00,M,29.97,M,6.21,M,FEW,SCT,M,M,2800.00,10000.00,M,M,M,YBBN 230330Z 12010KT 9999 FEW028 SCT100 26/19 Q1015 NOSIG
YBBN,2011-04-23 04:00,153.1292,-27.3917,77.00,64.40,65.12,120.00,9.00,M,29.97,M,6.21,M,FEW,BKN,M,M,3000.00,11500.00,M,M,M,YBBN 230400Z 12009KT 9999 FEW030 BKN115 25/18 Q1015 NOSIG
YBBN,2011-04-23 04:30,153.1292,-27.3917,77.00,66.20,69.33,110.00,8.00,M,29.97,M,6.21,M,FEW,SCT,M,M,2800.00,11000.00,M,M,M,YBBN 230430Z 11008KT 9999 FEW028 SCT110 25/19 Q1015 NOSIG
YBBN,2011-04-23 05:00,153.1292,-27.3917,77.00,64.40,65.12,100.00,9.00,M,29.97,M,6.21,M,FEW,SCT,M,M,2800.00,11000.00,M,M,M,YBBN 230500Z 10009KT 9999 FEW028 SCT110 25/18 Q1015 NOSIG
YBBN,2011-04-23 05:30,153.1292,-27.3917,77.00,64.40,65.12,100.00,9.00,M,29.97,M,6.21,M,FEW,SCT,M,M,2800.00,25000.00,M,M,M,YBBN 230530Z 10009KT 9999 FEW028 SCT250 25/18 Q1015 NOSIG
YBBN,2011-04-23 06:00,153.1292,-27.3917,77.00,62.60,61.13,110.00,8.00,M,29.97,M,6.21,M,FEW,SCT,M,M,2800.00,28000.00,M,M,M,YBBN 230600Z 11008KT 9999 FEW028 SCT280 25/17 Q1015 NOSIG
YBBN,2011-04-23 06:30,153.1292,-27.3917,77.00,62.60,61.13,120.00,10.00,M,29.97,M,6.21,M,FEW,SCT,M,M,2800.00,11000.00,M,M,M,YBBN 230630Z 12010KT 9999 FEW028 SCT110 25/17 Q1015 NOSIG
YBBN,2011-04-23 07:00,153.1292,-27.3917,75.20,66.20,73.61,120.00,9.00,M,30.00,M,6.21,M,FEW,SCT,M,M,3000.00,11000.00,M,M,M,YBBN 230700Z 12009KT 9999 FEW030 SCT110 24/19 Q1016 NOSIG
YBBN,2011-04-23 07:30,153.1292,-27.3917,75.20,64.40,69.14,130.00,9.00,M,30.00,M,6.21,M,FEW,SCT,M,M,2800.00,11000.00,M,M,M,YBBN 230730Z 13009KT 9999 FEW028 SCT110 24/18 Q1016 NOSIG
YBBN,2011-04-23 08:00,153.1292,-27.3917,73.40,66.20,78.19,130.00,9.00,M,30.00,M,6.21,M,FEW,M,M,M,2800.00,M,M,M,M,YBBN 230800Z 13009KT 9999 FEW028 23/19 Q1016 NOSIG
YBBN,2011-04-23 08:30,153.1292,-27.3917,73.40,66.20,78.19,130.00,9.00,M,30.03,M,6.21,M,FEW,M,M,M,2800.00,M,M,M,M,YBBN 230830Z 13009KT 9999 FEW028 23/19 Q1017 NOSIG
YBBN,2011-04-23 09:00,153.1292,-27.3917,73.40,66.20,78.19,140.00,8.00,M,30.03,M,6.21,M,FEW,M,M,M,2800.00,M,M,M,M,YBBN 230900Z 14008KT 9999 FEW028 23/19 Q1017 NOSIG
YBBN,2011-04-23 09:30,153.1292,-27.3917,73.40,66.20,78.19,140.00,7.00,M,30.06,M,6.21,M,FEW,M,M,M,2800.00,M,M,M,M,YBBN 230930Z 14007KT 9999 FEW028 23/19 Q1018 NOSIG
YBBN,2011-04-23 10:00,153.1292,-27.3917,73.40,66.20,78.19,140.00,7.00,M,30.06,M,6.21,M,FEW,SCT,M,M,2800.00,9600.00,M,M,M,YBBN 231000Z 14007KT 9999 FEW028 SCT096 23/19 Q1018 NOSIG
YBBN,2011-04-23 10:30,153.1292,-27.3917,73.40,66.20,78.19,160.00,6.00,M,30.06,M,6.21,M,FEW,BKN,M,M,2800.00,9800.00,M,M,M,YBBN 231030Z 16006KT 9999 FEW028 BKN098 23/19 Q1018 NOSIG
YBBN,2011-04-23 11:00,153.1292,-27.3917,71.60,66.20,83.09,150.00,7.00,M,30.06,M,6.21,M,FEW,M,M,M,2800.00,M,M,M,M,YBBN 231100Z 15007KT 9999 FEW028 22/19 Q1018 NOSIG
YBBN,2011-04-23 11:30,153.1292,-27.3917,69.80,64.40,82.98,160.00,5.00,M,30.09,M,6.21,M,FEW,M,M,M,2500.00,M,M,M,M,YBBN 231130Z 16005KT 9999 FEW025 21/18 Q1019 NOSIG
YBBN,2011-04-23 14:00,153.1292,-27.3917,69.80,64.40,82.98,210.00,5.00,M,30.09,M,6.21,M,FEW,M,M,M,3000.00,M,M,M,M,YBBN 231400Z 21005KT 9999 FEW030 21/18 Q1019 NOSIG
YBBN,2011-04-23 14:30,153.1292,-27.3917,68.00,64.40,88.26,210.00,5.00,M,30.09,M,6.21,M,SCT,M,M,M,3400.00,M,M,M,M,YBBN 231430Z 21005KT 9999 SCT034 20/18 Q1019 NOSIG
YBBN,2011-04-23 15:00,153.1292,-27.3917,66.20,64.40,93.92,210.00,7.00,M,30.09,M,6.21,M,SCT,M,M,M,3400.00,M,M,M,M,YBBN 231500Z 21007KT 9999 SCT034 19/18 Q1019 NOSIG
YBBN,2011-04-23 15:30,153.1292,-27.3917,66.20,62.60,88.18,210.00,6.00,M,30.06,M,6.21,M,FEW,M,M,M,3400.00,M,M,M,M,YBBN 231530Z 21006KT 9999 FEW034 19/17 Q1018 NOSIG
YBBN,2011-04-23 16:00,153.1292,-27.3917,68.00,62.60,82.86,210.00,6.00,M,30.06,M,6.21,M,FEW,M,M,M,3000.00,M,M,M,M,YBBN 231600Z 21006KT 9999 FEW030 20/17 Q1018 NOSIG
YBBN,2011-04-23 16:30,153.1292,-27.3917,66.20,62.60,88.18,210.00,6.00,M,30.06,M,6.21,M,FEW,M,M,M,2500.00,M,M,M,M,YBBN 231630Z 21006KT 9999 FEW025 19/17 Q1018 NOSIG
YBBN,2011-04-23 17:00,153.1292,-27.3917,64.40,60.80,88.09,220.00,8.00,M,30.06,M,6.21,M,FEW,M,M,M,2500.00,M,M,M,M,YBBN 231700Z 22008KT 9999 FEW025 18/16 Q1018 NOSIG
YBBN,2011-04-23 17:30,153.1292,-27.3917,64.40,62.60,93.88,220.00,7.00,M,30.06,M,6.21,M,M,M,M,M,M,M,M,M,M,YBBN 231730Z 22007KT CAVOK 18/17 Q1018 NOSIG
YBBN,2011-04-23 18:00,153.1292,-27.3917,62.60,60.80,93.83,220.00,6.00,M,30.06,M,6.21,M,M,M,M,M,M,M,M,M,M,YBBN 231800Z 22006KT CAVOK 17/16 Q1018 NOSIG
YBBN,2011-04-23 18:30,153.1292,-27.3917,64.40,60.80,88.09,210.00,7.00,M,30.06,M,6.21,M,M,M,M,M,M,M,M,M,M,YBBN 231830Z 21007KT CAVOK 18/16 Q1018 NOSIG
YBBN,2011-04-23 19:00,153.1292,-27.3917,62.60,60.80,93.83,220.00,6.00,M,30.06,M,6.21,M,M,M,M,M,M,M,M,M,M,YBBN 231900Z 22006KT CAVOK 17/16 Q1018 NOSIG
YBBN,2011-04-23 19:30,153.1292,-27.3917,62.60,60.80,93.83,220.00,7.00,M,30.06,M,6.21,M,FEW,M,M,M,3000.00,M,M,M,M,YBBN 231930Z 22007KT 9999 FEW030 17/16 Q1018 NOSIG
YBBN,2011-04-23 20:00,153.1292,-27.3917,64.40,60.80,88.09,220.00,7.00,M,30.09,M,6.21,M,FEW,M,M,M,2800.00,M,M,M,M,YBBN 232000Z 22007KT 9999 FEW028 18/16 Q1019 NOSIG
YBBN,2011-04-23 20:30,153.1292,-27.3917,64.40,60.80,88.09,220.00,8.00,M,30.09,M,6.21,M,FEW,M,M,M,2800.00,M,M,M,M,YBBN 232030Z 22008KT 9999 FEW028 18/16 Q1019 NOSIG
YBBN,2011-04-23 21:00,153.1292,-27.3917,66.20,62.60,88.18,220.00,7.00,M,30.12,M,6.21,M,FEW,M,M,M,2800.00,M,M,M,M,YBBN 232100Z 22007KT 9999 FEW028 19/17 Q1020 NOSIG
YBBN,2011-04-23 21:30,153.1292,-27.3917,68.00,62.60,82.86,220.00,7.00,M,30.12,M,6.21,M,FEW,M,M,M,2800.00,M,M,M,M,YBBN 232130Z 22007KT 9999 FEW028 20/17 Q1020 NOSIG
YBBN,2011-04-23 22:00,153.1292,-27.3917,69.80,62.60,77.90,230.00,9.00,M,30.12,M,6.21,M,FEW,M,M,M,2800.00,M,M,M,M,YBBN 232200Z 23009KT 9999 FEW028 21/17 Q1020 NOSIG
YBBN,2011-04-23 22:30,153.1292,-27.3917,71.60,62.60,73.27,220.00,8.00,M,30.15,M,6.21,M,FEW,M,M,M,2800.00,M,M,M,M,YBBN 232230Z 22008KT 9999 FEW028 22/17 Q1021 NOSIG
YBBN,2011-04-23 23:00,153.1292,-27.3917,73.40,62.60,68.94,190.00,6.00,M,30.15,M,6.21,M,FEW,M,M,M,2800.00,M,M,M,M,YBBN 232300Z 19006KT 9999 FEW028 23/17 Q1021 RMK TCU TO THE EAST NOSIG
YBBN,2011-04-23 23:30,153.1292,-27.3917,75.20,62.60,64.91,160.00,7.00,M,30.15,M,6.21,M,FEW,M,M,M,2800.00,M,M,M,M,YBBN 232330Z 16007KT 9999 FEW028 24/17 Q1021 NOSIG
