#DEBUG: Format Typ    -> comma
#DEBUG: Time Period   -> 2014-12-06 00:00:00+00:00 2014-12-07 00:00:00+00:00
#DEBUG: Time Zone     -> Etc/UTC
#DEBUG: Data Contact   -> daryl herzmann akrherz@iastate.edu 515-294-5978
#DEBUG: Entries Found -> -1
station,valid,lon,lat,tmpf, dwpf, relh, drct, sknt, p01i, alti, mslp, vsby, gust, skyc1, skyc2, skyc3, skyc4, skyl1, skyl2, skyl3, skyl4, presentwx, metar
YBBN,2014-12-06 00:00,153.1292,-27.3917,73.40,68.00,83.21,300.00,5.00,0.00,29.77,M,6.21,M,FEW,M,M,M,500.00,M,M,M,-SHRA,YBBN 060000Z 30005KT 9999 -SHRA FEW005 23/20 Q1008
YBBN,2014-12-06 00:30,153.1292,-27.3917,73.40,69.80,88.51,320.00,7.00,0.00,29.80,M,6.21,M,FEW,SCT,BKN,M,1000.00,4500.00,12000.00,M,-RA,YBBN 060030Z 32007KT 9999 -RA FEW010 SCT045 BKN120 23/21 Q1009 RMK DIST TS TO NE
YBBN,2014-12-06 01:00,153.1292,-27.3917,77.00,69.80,78.48,10.00,8.00,0.00,29.77,M,6.21,M,FEW,SCT,BKN,M,1800.00,4500.00,25000.00,M,M,YBBN 060100Z 01008KT 9999 FEW018 SCT045 BKN250 25/21 Q1008 INTER 0200/0400 4000 SHRA BKN015
YBBN,2014-12-06 01:30,153.1292,-27.3917,78.80,69.80,73.95,10.00,13.00,0.00,29.77,M,6.21,M,FEW,SCT,BKN,M,2500.00,4500.00,25000.00,M,M,YBBN 060130Z 01013KT 9999 FEW025 SCT045 BKN250 26/21 Q1008
YBBN,2014-12-06 02:00,153.1292,-27.3917,77.00,69.80,78.48,10.00,11.00,0.00,29.77,M,6.21,M,FEW,BKN,M,M,2500.00,25000.00,M,M,M,YBBN 060200Z 01011KT 9999 FEW025 BKN250 25/21 Q1008
YBBN,2014-12-06 02:30,153.1292,-27.3917,77.00,69.80,78.48,20.00,8.00,0.00,29.74,M,6.21,M,FEW,SCT,BKN,M,2500.00,12000.00,25000.00,M,M,YBBN 060230Z 02008KT 9999 FEW025 SCT120 BKN250 25/21 Q1007
YBBN,2014-12-06 03:00,153.1292,-27.3917,78.80,71.60,78.62,30.00,14.00,0.00,29.74,M,6.21,M,FEW,SCT,BKN,M,2500.00,12000.00,25000.00,M,M,YBBN 060300Z 03014KT 9999 FEW025 SCT120 BKN250 26/22 Q1007
YBBN,2014-12-06 03:30,153.1292,-27.3917,78.80,71.60,78.62,30.00,12.00,0.00,29.74,M,6.21,M,FEW,SCT,BKN,M,2500.00,15000.00,25000.00,M,M,YBBN 060330Z 03012KT 9999 FEW025 SCT150 BKN250 26/22 Q1007
YBBN,2014-12-06 04:00,153.1292,-27.3917,78.80,69.80,73.95,10.00,14.00,0.00,29.74,M,6.21,M,FEW,SCT,BKN,M,2500.00,15000.00,25000.00,M,M,YBBN 060400Z 01014KT 9999 FEW025 SCT150 BKN250 26/21 Q1007
YBBN,2014-12-06 04:30,153.1292,-27.3917,80.60,68.00,65.54,30.00,13.00,0.00,29.71,M,6.21,M,FEW,SCT,BKN,M,2800.00,4500.00,25000.00,M,M,YBBN 060430Z 03013KT 9999 FEW028 SCT045 BKN250 27/20 Q1006
YBBN,2014-12-06 05:00,153.1292,-27.3917,80.60,68.00,65.54,20.00,15.00,0.00,29.71,M,6.21,M,FEW,SCT,BKN,M,2800.00,4000.00,15000.00,M,-SHRA,YBBN 060500Z 02015KT 9999 -SHRA FEW028 SCT040 BKN150 27/20 Q1006 INTER 0500/0800 4000 SHRA BKN015
YBBN,2014-12-06 05:30,153.1292,-27.3917,77.00,69.80,78.48,30.00,17.00,0.00,29.71,M,6.21,M,FEW,SCT,BKN,M,2500.00,4000.00,25000.00,M,VCSH,YBBN 060530Z 03017KT 9999 VCSH FEW025 SCT040 BKN250 25/21 Q1006
YBBN,2014-12-06 06:00,153.1292,-27.3917,75.20,69.80,83.32,40.00,15.00,0.00,29.71,M,6.21,M,FEW,SCT,BKN,M,1500.00,4000.00,13500.00,M,M,YBBN 060600Z 04015KT 9999 FEW015 SCT040 BKN135 24/21 Q1006
YBBN,2014-12-06 06:30,153.1292,-27.3917,73.40,68.00,83.21,30.00,13.00,0.00,29.71,M,6.21,M,FEW,SCT,BKN,M,2000.00,10000.00,12000.00,M,-RA,YBBN 060630Z 03013KT 9999 -RA FEW020 SCT100 BKN120 23/20 Q1006
YBBN,2014-12-06 07:00,153.1292,-27.3917,75.20,69.80,83.32,20.00,13.00,0.00,29.71,M,6.21,M,FEW,SCT,BKN,M,2000.00,10000.00,12000.00,M,-RA,YBBN 060700Z 02013KT 9999 -RA FEW020 SCT100 BKN120 24/21 Q1006
YBBN,2014-12-06 07:30,153.1292,-27.3917,75.20,71.60,88.59,20.00,13.00,0.00,29.71,M,6.21,M,FEW,BKN,OVC,M,1300.00,9000.00,11000.00,M,-RA,YBBN 060730Z 02013KT 9999 -RA FEW013 BKN090 OVC110 24/22 Q1006
YBBN,2014-12-06 08:00,153.1292,-27.3917,75.20,68.00,78.34,20.00,14.00,0.00,29.74,M,6.21,M,FEW,BKN,OVC,M,1300.00,11000.00,13000.00,M,VCSH,YBBN 060800Z 02014KT 9999 VCSH FEW013 BKN110 OVC130 24/20 Q1007
YBBN,2014-12-06 08:30,153.1292,-27.3917,73.40,66.20,78.19,30.00,13.00,0.00,29.74,M,6.21,M,FEW,SCT,BKN,M,1300.00,11000.00,13000.00,M,M,YBBN 060830Z 03013KT 9999 FEW013 SCT110 BKN130 23/19 Q1007
YBBN,2014-12-06 09:00,153.1292,-27.3917,73.40,66.20,78.19,30.00,10.00,0.00,29.74,M,6.21,M,FEW,BKN,M,M,1400.00,12000.00,M,M,M,YBBN 060900Z 03010KT 9999 FEW014 BKN120 23/19 Q1007 NOSIG
YBBN,2014-12-06 09:30,153.1292,-27.3917,73.40,68.00,83.21,30.00,9.00,0.00,29.74,M,6.21,M,FEW,BKN,M,M,1400.00,12000.00,M,M,M,YBBN 060930Z 03009KT 9999 FEW014 BKN120 23/20 Q1007
YBBN,2014-12-06 10:00,153.1292,-27.3917,73.40,69.80,88.51,40.00,5.00,0.00,29.74,M,6.21,M,BKN,M,M,M,1500.00,M,M,M,M,YBBN 061000Z 04005KT 9999 BKN015 23/21 Q1007
YBBN,2014-12-06 10:30,153.1292,-27.3917,73.40,69.80,88.51,30.00,6.00,0.00,29.74,M,6.21,M,FEW,BKN,M,M,1500.00,11000.00,M,M,-SHRA,YBBN 061030Z 03006KT 9999 -SHRA FEW015 BKN110 23/21 Q1007
YBBN,2014-12-06 11:00,153.1292,-27.3917,71.60,69.80,94.06,30.00,6.00,0.00,29.77,M,6.21,M,SCT,BKN,M,M,1500.00,11000.00,M,M,M,YBBN 061100Z 03006KT 9999 SCT015 BKN110 22/21 Q1008
YBBN,2014-12-06 11:30,153.1292,-27.3917,73.40,68.00,83.21,20.00,13.00,0.00,29.77,M,6.21,M,SCT,BKN,M,M,1400.00,11000.00,M,M,M,YBBN 061130Z 02013KT 9999 SCT014 BKN110 23/20 Q1008
YBBN,2014-12-06 12:00,153.1292,-27.3917,73.40,68.00,83.21,20.00,11.00,0.00,29.77,M,6.21,M,SCT,M,M,M,1600.00,M,M,M,M,YBBN 061200Z 02011KT 9999 SCT016 23/20 Q1008
YBBN,2014-12-06 12:30,153.1292,-27.3917,73.40,68.00,83.21,20.00,10.00,0.00,29.77,M,6.21,M,BKN,M,M,M,1500.00,M,M,M,M,YBBN 061230Z 02010KT 9999 BKN015 23/20 Q1008
YBBN,2014-12-06 13:00,153.1292,-27.3917,73.40,68.00,83.21,20.00,9.00,0.00,29.77,M,6.21,M,FEW,BKN,M,M,1500.00,14000.00,M,M,M,YBBN 061300Z 02009KT 9999 FEW015 BKN140 23/20 Q1008
YBBN,2014-12-06 13:30,153.1292,-27.3917,73.40,68.00,83.21,20.00,7.00,0.00,29.74,M,6.21,M,SCT,BKN,M,M,1500.00,11000.00,M,M,-RA,YBBN 061330Z 02007KT 9999 -RA SCT015 BKN110 23/20 Q1007
YBBN,2014-12-06 14:00,153.1292,-27.3917,73.40,69.80,88.51,10.00,7.00,0.00,29.74,M,6.21,M,BKN,M,M,M,1600.00,M,M,M,VCSH,YBBN 061400Z 01007KT 9999 VCSH BKN016 23/21 Q1007
YBBN,2014-12-06 14:30,153.1292,-27.3917,73.40,69.80,88.51,30.00,8.00,0.00,29.74,M,6.21,M,BKN,M,M,M,1500.00,M,M,M,M,YBBN 061430Z 03008KT 9999 BKN015 23/21 Q1007
YBBN,2014-12-06 15:00,153.1292,-27.3917,71.60,69.80,94.06,20.00,6.00,0.00,29.74,M,6.21,M,SCT,BKN,M,M,1500.00,11000.00,M,M,-SHRA,YBBN 061500Z 02006KT 9999 -SHRA SCT015 BKN110 22/21 Q1007
YBBN,2014-12-06 15:30,153.1292,-27.3917,71.60,69.80,94.06,250.00,5.00,0.00,29.71,M,4.97,M,BKN,M,M,M,1100.00,M,M,M,-SHRA,YBBN 061530Z 25005KT 8000 -SHRA BKN011 22/21 Q1006
YBBN,2014-12-06 16:00,153.1292,-27.3917,71.60,69.80,94.06,230.00,1.00,0.00,29.71,M,5.59,M,BKN,M,M,M,1300.00,M,M,M,-SHRA,YBBN 061600Z 23001KT 9000 -SHRA BKN013 22/21 Q1006 RESHRA
YBBN,2014-12-06 16:30,153.1292,-27.3917,71.60,69.80,94.06,0.00,0.00,0.00,29.71,M,4.97,M,FEW,SCT,M,M,1300.00,1800.00,M,M,-SHRA,YBBN 061630Z 00000KT 8000 -SHRA FEW013 SCT018 22/21 Q1006
YBBN,2014-12-06 17:00,153.1292,-27.3917,71.60,69.80,94.06,190.00,4.00,0.00,29.71,M,6.21,M,FEW,BKN,M,M,1500.00,11000.00,M,M,VCSH,YBBN 061700Z 19004KT 9999 VCSH FEW015 BKN110 22/21 Q1006 NOSIG
YBBN,2014-12-06 17:30,153.1292,-27.3917,71.60,69.80,94.06,210.00,3.00,0.00,29.71,M,6.21,M,FEW,BKN,M,M,1500.00,11000.00,M,M,M,YBBN 061730Z 21003KT 9999 FEW015 BKN110 22/21 Q1006
YBBN,2014-12-06 18:00,153.1292,-27.3917,69.80,69.80,100.00,0.00,0.00,0.00,29.71,M,6.21,M,FEW,BKN,M,M,2000.00,10000.00,M,M,M,YBBN 061800Z 00000KT 9999 FEW020 BKN100 21/21 Q1006 NOSIG
YBBN,2014-12-06 18:30,153.1292,-27.3917,71.60,69.80,94.06,0.00,0.00,0.00,29.71,M,6.21,M,FEW,BKN,M,M,1800.00,11000.00,M,M,M,YBBN 061830Z 00000KT 9999 FEW018 BKN110 22/21 Q1006
YBBN,2014-12-06 19:00,153.1292,-27.3917,71.60,69.80,94.06,0.00,0.00,0.00,29.74,M,6.21,M,SCT,BKN,M,M,2400.00,8600.00,M,M,//,YBBN 061900Z AUTO 00000KT 9999 // SCT024 BKN086 22/21 Q1007
YBBN,2014-12-06 19:30,153.1292,-27.3917,71.60,69.80,94.06,0.00,0.00,0.00,29.74,M,6.21,M,FEW,SCT,M,M,2300.00,10000.00,M,M,M,YBBN 061930Z 00000KT 9999 FEW023 SCT100 22/21 Q1007
YBBN,2014-12-06 20:00,153.1292,-27.3917,71.60,71.60,100.00,0.00,0.00,0.00,29.74,M,6.21,M,FEW,SCT,M,M,2300.00,11000.00,M,M,M,YBBN 062000Z 00000KT 9999 FEW023 SCT110 22/22 Q1007
YBBN,2014-12-06 20:30,153.1292,-27.3917,73.40,69.80,88.51,220.00,1.00,0.00,29.74,M,6.21,M,FEW,BKN,M,M,800.00,22000.00,M,M,M,YBBN 062030Z 22001KT 9999 FEW008 BKN220 23/21 Q1007
YBBN,2014-12-06 21:00,153.1292,-27.3917,75.20,69.80,83.32,280.00,5.00,0.00,29.77,M,6.21,M,SCT,BKN,M,M,2500.00,3100.00,M,M,//,YBBN 062100Z AUTO 28005KT 9999 // SCT025 BKN031 24/21 Q1008
YBBN,2014-12-06 21:30,153.1292,-27.3917,75.20,69.80,83.32,330.00,6.00,0.00,29.77,M,6.21,M,FEW,SCT,BKN,M,1500.00,2500.00,25000.00,M,VCSH,YBBN 062130Z 33006KT 9999 VCSH FEW015 SCT025 BKN250 24/21 Q1008
YBBN,2014-12-06 22:00,153.1292,-27.3917,77.00,69.80,78.48,350.00,7.00,0.00,29.77,M,6.21,M,FEW,BKN,M,M,1300.00,25000.00,M,M,M,YBBN 062200Z 35007KT 9999 FEW013 BKN250 25/21 Q1008
YBBN,2014-12-06 22:30,153.1292,-27.3917,77.00,69.80,78.48,340.00,7.00,0.00,29.77,M,6.21,M,FEW,BKN,M,M,1600.00,25000.00,M,M,M,YBBN 062230Z 34007KT 9999 FEW016 BKN250 25/21 Q1008
YBBN,2014-12-06 23:00,153.1292,-27.3917,78.80,68.00,69.52,350.00,9.00,0.00,29.77,M,6.21,M,BKN,BKN,M,M,3200.00,28000.00,M,M,M,YBBN 062300Z 35009KT 9999 BKN032 BKN280 26/20 Q1008
YBBN,2014-12-06 23:30,153.1292,-27.3917,80.60,66.20,61.58,340.00,9.00,0.00,29.77,M,6.21,M,BKN,BKN,M,M,3200.00,28000.00,M,M,M,YBBN 062330Z 34009KT 9999 BKN032 BKN280 27/19 Q1008
