#DEBUG: Format Typ    -> comma
#DEBUG: Time Period   -> 2013-05-16 00:00:00+00:00 2013-05-17 00:00:00+00:00
#DEBUG: Time Zone     -> Etc/UTC
#DEBUG: Data Contact   -> daryl herzmann akrherz@iastate.edu 515-294-5978
#DEBUG: Entries Found -> -1
station,valid,lon,lat,tmpf, dwpf, relh, drct, sknt, p01i, alti, mslp, vsby, gust, skyc1, skyc2, skyc3, skyc4, skyl1, skyl2, skyl3, skyl4, presentwx, metar
YBBN,2013-05-16 00:00,153.1292,-27.3917,62.60,46.40,55.37,270.00,6.00,0.00,29.97,M,6.21,M,M,M,M,M,M,M,M,M,M,YBBN 160000Z 27006KT CAVOK 17/08 Q1015 NOSIG
YBBN,2013-05-16 00:30,153.1292,-27.3917,62.60,46.40,55.37,240.00,5.00,0.00,29.94,M,6.21,M,M,M,M,M,M,M,M,M,M,YBBN 160030Z 24005KT CAVOK 17/08 Q1014 RMK 7AC093
YBBN,2013-05-16 01:00,153.1292,-27.3917,62.60,48.20,59.26,270.00,5.00,0.00,29.94,M,6.21,M,SCT,BKN,M,M,7900.00,9300.00,M,M,-RA,YBBN 160100Z 27005KT 9999 -RA SCT079 BKN093 17/09 Q1014 NOSIG
YBBN,2013-05-16 01:30,153.1292,-27.3917,62.60,48.20,59.26,310.00,6.00,0.00,29.94,M,6.21,M,SCT,BKN,M,M,5600.00,7600.00,M,M,-RA,YBBN 160130Z 31006KT 9999 -RA SCT056 BKN076 17/09 Q1014
YBBN,2013-05-16 02:00,153.1292,-27.3917,62.60,48.20,59.26,310.00,7.00,0.00,29.94,M,6.21,M,M,M,M,M,M,M,M,M,M,YBBN 160200Z 31007KT CAVOK 17/09 Q1014 NOSIG
YBBN,2013-05-16 02:30,153.1292,-27.3917,62.60,46.40,55.37,300.00,5.00,0.00,29.91,M,6.21,M,M,M,M,M,M,M,M,M,M,YBBN 160230Z 30005KT CAVOK 17/08 Q1013 RMK VIRGA 7SC079
YBBN,2013-05-16 03:00,153.1292,-27.3917,62.60,50.00,63.38,300.00,7.00,0.00,29.91,M,6.21,M,FEW,BKN,M,M,6100.00,8000.00,M,M,-RA,YBBN 160300Z 30007KT 9999 -RA FEW061 BKN080 17/10 Q1013 NOSIG
YBBN,2013-05-16 03:30,153.1292,-27.3917,62.60,51.80,67.75,310.00,6.00,0.00,29.91,M,6.21,M,FEW,BKN,BKN,M,4600.00,6400.00,8000.00,M,-RA,YBBN 160330Z 31006KT 9999 -RA FEW046 BKN064 BKN080 17/11 Q1013
YBBN,2013-05-16 04:00,153.1292,-27.3917,60.80,50.00,67.54,310.00,5.00,0.00,29.88,M,6.21,M,FEW,SCT,BKN,M,4500.00,6900.00,8000.00,M,-RA,YBBN 160400Z 31005KT 9999 -RA FEW045 SCT069 BKN080 16/10 Q1012
YBBN,2013-05-16 04:30,153.1292,-27.3917,60.80,50.00,67.54,300.00,8.00,0.00,29.88,M,6.21,M,FEW,BKN,M,M,4500.00,6900.00,M,M,-RA,YBBN 160430Z 30008KT 9999 -RA FEW045 BKN069 16/10 Q1012
YBBN,2013-05-16 05:00,153.1292,-27.3917,60.80,51.80,72.20,310.00,8.00,0.00,29.88,M,6.21,M,FEW,BKN,BKN,M,4900.00,8300.00,11000.00,M,VCSH,YBBN 160500Z 31008KT 9999 VCSH FEW049 BKN083 BKN110 16/11 Q1012 NOSIG
YBBN,2013-05-16 05:30,153.1292,-27.3917,60.80,51.80,72.20,300.00,7.00,0.00,29.88,M,6.21,M,M,M,M,M,M,M,M,M,M,YBBN 160530Z 30007KT CAVOK 16/11 Q1012 RMK VIRGA 7AC110
YBBN,2013-05-16 06:00,153.1292,-27.3917,60.80,51.80,72.20,330.00,5.00,0.00,29.88,M,6.21,M,M,M,M,M,M,M,M,M,M,YBBN 160600Z 33005KT CAVOK 16/11 Q1012 NOSIG
YBBN,2013-05-16 06:30,153.1292,-27.3917,60.80,50.00,67.54,330.00,5.00,0.00,29.88,M,6.21,M,M,M,M,M,M,M,M,M,M,YBBN 160630Z 33005KT CAVOK 16/10 Q1012 RMK VIRGA 7AC130
YBBN,2013-05-16 07:00,153.1292,-27.3917,59.00,50.00,72.01,330.00,7.00,0.00,29.91,M,6.21,M,M,M,M,M,M,M,M,M,M,YBBN 160700Z 33007KT CAVOK 15/10 Q1013 NOSIG
YBBN,2013-05-16 07:30,153.1292,-27.3917,59.00,51.80,76.98,330.00,8.00,0.00,29.91,M,6.21,M,M,M,M,M,M,M,M,M,M,YBBN 160730Z 33008KT CAVOK 15/11 Q1013 RMK VIRGA 7AC130
YBBN,2013-05-16 08:00,153.1292,-27.3917,59.00,51.80,76.98,320.00,6.00,0.00,29.91,M,6.21,M,M,M,M,M,M,M,M,M,M,YBBN 160800Z 32006KT CAVOK 15/11 Q1013 NOSIG
YBBN,2013-05-16 08:30,153.1292,-27.3917,59.00,51.80,76.98,350.00,2.00,0.00,29.91,M,6.21,M,M,M,M,M,M,M,M,M,M,YBBN 160830Z 35002KT CAVOK 15/11 Q1013 RMK 5AC170
YBBN,2013-05-16 09:00,153.1292,-27.3917,57.20,51.80,82.12,260.00,5.00,0.00,29.94,M,6.21,M,M,M,M,M,M,M,M,M,M,YBBN 160900Z 26005KT CAVOK 14/11 Q1014 RMK 5AC160
YBBN,2013-05-16 09:30,153.1292,-27.3917,57.20,50.00,76.82,260.00,8.00,0.00,29.94,M,6.21,M,M,M,M,M,M,M,M,M,M,YBBN 160930Z 26008KT CAVOK 14/10 Q1014
YBBN,2013-05-16 10:00,153.1292,-27.3917,57.20,50.00,76.82,280.00,6.00,0.00,29.94,M,6.21,M,M,M,M,M,M,M,M,M,M,YBBN 161000Z 28006KT CAVOK 14/10 Q1014
YBBN,2013-05-16 10:30,153.1292,-27.3917,57.20,50.00,76.82,280.00,6.00,0.00,29.94,M,6.21,M,M,M,M,M,M,M,M,M,M,YBBN 161030Z 28006KT CAVOK 14/10 Q1014
YBBN,2013-05-16 11:00,153.1292,-27.3917,57.20,50.00,76.82,290.00,6.00,0.00,29.94,M,6.21,M,M,M,M,M,M,M,M,M,M,YBBN 161100Z 29006KT CAVOK 14/10 Q1014
YBBN,2013-05-16 11:30,153.1292,-27.3917,55.40,50.00,81.99,280.00,6.00,0.00,29.94,M,6.21,M,M,M,M,M,M,M,M,M,M,YBBN 161130Z 28006KT CAVOK 13/10 Q1014
YBBN,2013-05-16 12:00,153.1292,-27.3917,55.40,50.00,81.99,270.00,7.00,0.00,29.94,M,6.21,M,M,M,M,M,M,M,M,M,M,YBBN 161200Z 27007KT CAVOK 13/10 Q1014 NOSIG
YBBN,2013-05-16 12:30,153.1292,-27.3917,53.60,48.20,81.87,320.00,5.00,0.00,29.97,M,6.21,M,M,M,M,M,M,M,M,M,M,YBBN 161230Z 32005KT CAVOK 12/09 Q1015
YBBN,2013-05-16 13:00,153.1292,-27.3917,51.80,48.20,87.47,350.00,5.00,0.00,29.94,M,6.21,M,M,M,M,M,M,M,M,M,M,YBBN 161300Z 35005KT CAVOK 11/09 Q1014
YBBN,2013-05-16 13:30,153.1292,-27.3917,51.80,48.20,87.47,330.00,4.00,0.00,29.94,M,6.21,M,M,M,M,M,M,M,M,M,M,YBBN 161330Z 33004KT CAVOK 11/09 Q1014
YBBN,2013-05-16 14:00,153.1292,-27.3917,51.80,48.20,87.47,340.00,5.00,0.00,29.94,M,6.21,M,M,M,M,M,M,M,M,M,M,YBBN 161400Z 34005KT CAVOK 11/09 Q1014
YBBN,2013-05-16 14:30,153.1292,-27.3917,51.80,48.20,87.47,330.00,4.00,0.00,29.94,M,6.21,M,M,M,M,M,M,M,M,M,M,YBBN 161430Z 33004KT CAVOK 11/09 Q1014
YBBN,2013-05-16 15:00,153.1292,-27.3917,51.80,48.20,87.47,0.00,0.00,0.00,29.94,M,6.21,M,M,M,M,M,M,M,M,M,M,YBBN 161500Z 00000KT CAVOK 11/09 Q1014
YBBN,2013-05-16 15:30,153.1292,-27.3917,53.60,48.20,81.87,240.00,5.00,0.00,29.94,M,6.21,M,M,M,M,M,M,M,M,M,M,YBBN 161530Z 24005KT CAVOK 12/09 Q1014
YBBN,2013-05-16 16:00,153.1292,-27.3917,53.60,48.20,81.87,230.00,7.00,0.00,29.94,M,6.21,M,M,M,M,M,M,M,M,M,M,YBBN 161600Z 23007KT CAVOK 12/09 Q1014
YBBN,2013-05-16 16:30,153.1292,-27.3917,53.60,48.20,81.87,220.00,5.00,0.00,29.94,M,6.21,M,M,M,M,M,M,M,M,M,M,YBBN 161630Z 22005KT CAVOK 12/09 Q1014
YBBN,2013-05-16 17:00,153.1292,-27.3917,53.60,48.20,81.87,210.00,4.00,0.00,29.94,M,6.21,M,M,M,M,M,M,M,M,M,M,YBBN 161700Z 21004KT CAVOK 12/09 Q1014
YBBN,2013-05-16 17:30,153.1292,-27.3917,53.60,48.20,81.87,50.00,3.00,0.00,29.94,M,6.21,M,M,M,M,M,M,M,M,M,M,YBBN 161730Z 05003KT CAVOK 12/09 Q1014
YBBN,2013-05-16 18:00,153.1292,-27.3917,55.40,48.20,76.66,160.00,2.00,0.00,29.94,M,6.21,M,M,M,M,M,M,M,M,M,M,YBBN 161800Z 16002KT CAVOK 13/09 Q1014 NOSIG
YBBN,2013-05-16 18:30,153.1292,-27.3917,53.60,48.20,81.87,0.00,0.00,0.00,29.94,M,6.21,M,M,M,M,M,M,M,M,M,M,YBBN 161830Z 00000KT CAVOK 12/09 Q1014
YBBN,2013-05-16 19:00,153.1292,-27.3917,51.80,48.20,87.47,250.00,9.00,0.00,29.94,M,6.21,M,M,M,M,M,M,M,M,M,M,YBBN 161900Z 25009KT CAVOK 11/09 Q1014
YBBN,2013-05-16 19:30,153.1292,-27.3917,53.60,46.40,76.50,260.00,9.00,0.00,29.94,M,6.21,M,M,M,M,M,M,M,M,M,M,YBBN 161930Z 26009KT CAVOK 12/08 Q1014
YBBN,2013-05-16 20:00,153.1292,-27.3917,53.60,46.40,76.50,260.00,7.00,0.00,29.97,M,6.21,M,M,M,M,M,M,M,M,M,M,YBBN 162000Z 26007KT CAVOK 12/08 Q1015 NOSIG
YBBN,2013-05-16 20:30,153.1292,-27.3917,53.60,44.60,71.45,290.00,5.00,0.00,29.97,M,6.21,M,M,M,M,M,M,M,M,M,M,YBBN 162030Z 29005KT CAVOK 12/07 Q1015
YBBN,2013-05-16 21:00,153.1292,-27.3917,51.80,48.20,87.47,300.00,4.00,0.00,29.97,M,6.21,M,M,M,M,M,M,M,M,M,M,YBBN 162100Z 30004KT CAVOK 11/09 Q1015 NOSIG
YBBN,2013-05-16 21:30,153.1292,-27.3917,57.20,48.20,71.83,310.00,5.00,0.00,30.00,M,6.21,M,M,M,M,M,M,M,M,M,M,YBBN 162130Z 31005KT CAVOK 14/09 Q1016
YBBN,2013-05-16 22:00,153.1292,-27.3917,59.00,50.00,72.01,330.00,5.00,0.00,30.00,M,6.21,M,M,M,M,M,M,M,M,M,M,YBBN 162200Z 33005KT CAVOK 15/10 Q1016 NOSIG
YBBN,2013-05-16 22:30,153.1292,-27.3917,62.60,50.00,63.38,350.00,5.00,0.00,30.00,M,6.21,M,FEW,M,M,M,3000.00,M,M,M,M,YBBN 162230Z 35005KT 9999 FEW030 17/10 Q1016
YBBN,2013-05-16 23:00,153.1292,-27.3917,64.40,50.00,59.50,330.00,5.00,0.00,30.00,M,6.21,M,M,M,M,M,M,M,M,M,M,YBBN 162300Z 33005KT CAVOK 18/10 Q1016
YBBN,2013-05-16 23:30,153.1292,-27.3917,66.20,46.40,48.83,340.00,4.00,0.00,30.00,M,6.21,M,M,M,M,M,M,M,M,M,M,YBBN 162330Z 34004KT CAVOK 19/08 Q1016
