#DEBUG: Format Typ    -> comma
#DEBUG: Time Period   -> 2013-11-18 00:00:00+00:00 2013-11-19 00:00:00+00:00
#DEBUG: Time Zone     -> Etc/UTC
#DEBUG: Data Contact   -> daryl herzmann akrherz@iastate.edu 515-294-5978
#DEBUG: Entries Found -> -1
station,valid,lon,lat,tmpf, dwpf, relh, drct, sknt, p01i, alti, mslp, vsby, gust, skyc1, skyc2, skyc3, skyc4, skyl1, skyl2, skyl3, skyl4, presentwx, metar
YBBN,2013-11-18 00:00,153.1292,-27.3917,73.40,57.20,56.88,190.00,3.00,0.00,29.83,M,6.21,M,FEW,M,M,M,2700.00,M,M,M,M,YBBN 180000Z 19003KT 9999 FEW027 23/14 Q1010 NOSIG
YBBN,2013-11-18 00:30,153.1292,-27.3917,73.40,59.00,60.67,50.00,8.00,0.00,29.83,M,6.21,M,SCT,M,M,M,3000.00,M,M,M,M,YBBN 180030Z 05008KT 9999 SCT030 23/15 Q1010
YBBN,2013-11-18 01:00,153.1292,-27.3917,75.20,59.00,57.12,360.00,7.00,0.00,29.80,M,6.21,M,SCT,M,M,M,3000.00,M,M,M,M,YBBN 180100Z 36007KT 9999 SCT030 24/15 Q1009
YBBN,2013-11-18 01:30,153.1292,-27.3917,75.20,60.80,60.90,30.00,11.00,0.00,29.80,M,6.21,M,FEW,M,M,M,3000.00,M,M,M,M,YBBN 180130Z 03011KT 9999 FEW030 24/16 Q1009
YBBN,2013-11-18 02:00,153.1292,-27.3917,73.40,60.80,64.69,30.00,13.00,0.00,29.77,M,6.21,M,SCT,M,M,M,3500.00,M,M,M,M,YBBN 180200Z 03013KT 9999 SCT035 23/16 Q1008 NOSIG
YBBN,2013-11-18 02:30,153.1292,-27.3917,75.20,60.80,60.90,20.00,13.00,0.00,29.77,M,6.21,M,BKN,M,M,M,4800.00,M,M,M,M,YBBN 180230Z 02013KT 9999 BKN048 24/16 Q1008
YBBN,2013-11-18 03:00,153.1292,-27.3917,75.20,60.80,60.90,20.00,15.00,0.00,29.77,M,6.21,M,SCT,M,M,M,4800.00,M,M,M,M,YBBN 180300Z 02015KT 9999 SCT048 24/16 Q1008 INTER 0500/0600 3000 SHRA BKN012
YBBN,2013-11-18 03:30,153.1292,-27.3917,77.00,60.80,57.36,40.00,13.00,0.00,29.74,M,6.21,M,FEW,M,M,M,4800.00,M,M,M,M,YBBN 180330Z 04013KT 9999 FEW048 25/16 Q1007 RMK CB TOPS TO NW SE
YBBN,2013-11-18 04:00,153.1292,-27.3917,77.00,59.00,53.80,40.00,14.00,0.00,29.71,M,6.21,M,FEW,M,M,M,4800.00,M,M,M,M,YBBN 180400Z 04014KT 9999 FEW048 25/15 Q1006
YBBN,2013-11-18 04:30,153.1292,-27.3917,77.00,57.20,50.43,40.00,13.00,0.00,29.71,M,6.21,M,FEW,SCT,M,M,6000.00,30000.00,M,M,M,YBBN 180430Z 04013KT 9999 FEW060CB SCT300 25/14 Q1006
YBBN,2013-11-18 05:00,153.1292,-27.3917,77.00,60.80,57.36,30.00,11.00,0.00,29.71,M,6.21,M,FEW,SCT,M,M,6000.00,30000.00,M,M,M,YBBN 180500Z 03011KT 9999 FEW060CB SCT300 25/16 Q1006 TEMPO 0530/0800 VRB20G35KT 2000 TSRA BKN015 SCT040CB
YBBN,2013-11-18 05:20,153.1292,-27.3917,73.40,62.60,68.94,10.00,14.00,0.00,29.71,M,6.21,M,SCT,BKN,M,M,6000.00,30000.00,M,M,VCTS -SHRA,YBBN 180520Z 01014KT 9999 VCTS -SHRA SCT060CB BKN300 23/17 Q1006
YBBN,2013-11-18 05:30,153.1292,-27.3917,73.40,62.60,68.94,10.00,14.00,0.00,29.71,M,6.21,M,SCT,BKN,M,M,6000.00,30000.00,M,M,-TSRA,YBBN 180530Z 01014KT 9999 -TSRA SCT060CB BKN300 23/17 Q1006
YBBN,2013-11-18 05:46,153.1292,-27.3917,75.20,62.60,64.91,10.00,14.00,0.00,29.68,M,6.21,M,FEW,M,M,M,5000.00,M,M,M,VCSH,YBBN 180546Z 01014KT 9999 VCSH FEW050CB 24/17 Q1005 RMK CB TO SW
YBBN,2013-11-18 06:00,153.1292,-27.3917,75.20,62.60,64.91,10.00,17.00,0.00,29.68,M,6.21,M,FEW,M,M,M,5000.00,M,M,M,M,YBBN 180600Z 01017KT 9999 FEW050CB 24/17 Q1005 TEMPO 0700/0900 VRB20G35KT 2000 TSRA BKN015 SCT040CB
YBBN,2013-11-18 06:30,153.1292,-27.3917,71.60,59.00,64.48,10.00,18.00,0.00,29.68,M,6.21,M,SCT,SCT,M,M,5000.00,30000.00,M,M,VCTS,YBBN 180630Z 01018KT 9999 VCTS SCT050CB SCT300 22/15 Q1005
YBBN,2013-11-18 06:37,153.1292,-27.3917,71.60,60.80,68.75,10.00,18.00,0.00,29.68,M,6.21,M,SCT,BKN,M,M,5000.00,30000.00,M,M,TSRA,YBBN 180637Z 01018KT 9999 TSRA SCT050CB BKN300 22/16 Q1005
YBBN,2013-11-18 06:53,153.1292,-27.3917,71.60,60.80,68.75,20.00,15.00,0.00,29.68,M,6.21,M,BKN,M,M,M,6000.00,M,M,M,TSRA,YBBN 180653Z 02015KT 9999 5000S TSRA BKN060CB 22/16 Q1005
YBBN,2013-11-18 07:00,153.1292,-27.3917,71.60,60.80,68.75,10.00,15.00,0.00,29.74,M,6.21,M,FEW,BKN,M,M,1000.00,6000.00,M,M,-TSRA,YBBN 180700Z 01015KT 9999 3000S -TSRA FEW010 BKN060CB 22/16 Q1007
YBBN,2013-11-18 07:03,153.1292,-27.3917,69.80,60.80,73.09,330.00,12.00,0.00,29.77,M,0.31,M,FEW,BKN,M,M,1000.00,6000.00,M,M,+TSRA,YBBN 180703Z 33012KT 0500 +TSRA FEW010 BKN060CB 21/16 Q1008
YBBN,2013-11-18 07:06,153.1292,-27.3917,62.60,59.00,88.00,250.00,23.00,0.00,29.77,M,0.31,M,SCT,BKN,M,M,2300.00,6000.00,M,M,+TSGR,YBBN 180706Z 25023KT 0500 0500S +TSGR SCT023 BKN060CB 17/15 Q1008
YBBN,2013-11-18 07:09,153.1292,-27.3917,62.60,51.80,67.75,210.00,22.00,0.00,29.74,M,3.73,M,SCT,BKN,M,M,500.00,6000.00,M,M,+TSGR,YBBN 180709Z 21022KT 6000 1500N +TSGR SCT005 BKN060CB 17/11 Q1007
YBBN,2013-11-18 07:12,153.1292,-27.3917,60.80,53.60,77.14,140.00,9.00,0.00,29.71,M,6.21,M,FEW,SCT,BKN,M,500.00,2300.00,6000.00,M,-TSRA,YBBN 180712Z 14009KT 9999 5000N -TSRA FEW005 SCT023 BKN060CB 16/12 Q1006 RETS
YBBN,2013-11-18 07:30,153.1292,-27.3917,60.80,57.20,87.92,30.00,6.00,0.00,29.77,M,6.21,M,FEW,BKN,FEW,M,500.00,10000.00,6000.00,M,-TSRA,YBBN 180730Z 03006KT 9999 -TSRA FEW005 BKN100 FEW060CB 16/14 Q1008 RETS
YBBN,2013-11-18 07:50,153.1292,-27.3917,62.60,59.00,88.00,30.00,13.00,0.00,29.77,M,6.21,M,FEW,BKN,FEW,M,500.00,10000.00,6000.00,M,M,YBBN 180750Z 03013KT 9999 FEW005 BKN100 FEW060CB 17/15 Q1008 RETS
YBBN,2013-11-18 08:00,153.1292,-27.3917,62.60,57.20,82.50,30.00,7.00,0.00,29.77,M,6.21,M,FEW,BKN,FEW,M,500.00,14000.00,6000.00,M,M,YBBN 180800Z 03007KT 9999 FEW005 BKN140 FEW060CB 17/14 Q1008 RETS NOSIG
YBBN,2013-11-18 08:30,153.1292,-27.3917,62.60,59.00,88.00,90.00,5.00,0.00,29.77,M,6.21,M,BKN,M,M,M,10500.00,M,M,M,VCSH,YBBN 180830Z 09005KT 9999 VCSH BKN105 17/15 Q1008
YBBN,2013-11-18 09:00,153.1292,-27.3917,64.40,60.80,88.09,90.00,4.00,0.00,29.77,M,6.21,M,M,M,M,M,M,M,M,M,M,YBBN 180900Z 09004KT CAVOK 18/16 Q1008 RMK 6AC105
YBBN,2013-11-18 09:30,153.1292,-27.3917,64.40,60.80,88.09,100.00,3.00,0.00,29.80,M,6.21,M,M,M,M,M,M,M,M,M,M,YBBN 180930Z 10003KT CAVOK 18/16 Q1009
YBBN,2013-11-18 10:00,153.1292,-27.3917,62.60,59.00,88.00,150.00,5.00,0.00,29.80,M,6.21,M,M,M,M,M,M,M,M,M,M,YBBN 181000Z 15005KT CAVOK 17/15 Q1009
YBBN,2013-11-18 10:30,153.1292,-27.3917,60.80,59.00,93.79,130.00,2.00,0.00,29.80,M,6.21,M,M,M,M,M,M,M,M,M,M,YBBN 181030Z 13002KT CAVOK 16/15 Q1009
YBBN,2013-11-18 11:00,153.1292,-27.3917,60.80,59.00,93.79,0.00,0.00,0.00,29.83,M,6.21,M,FEW,M,M,M,1700.00,M,M,M,M,YBBN 181100Z 00000KT 9999 FEW017 16/15 Q1010 NOSIG
YBBN,2013-11-18 11:30,153.1292,-27.3917,60.80,59.00,93.79,290.00,4.00,0.00,29.83,M,6.21,M,FEW,M,M,M,2100.00,M,M,M,M,YBBN 181130Z 29004KT 9999 FEW021 16/15 Q1010
YBBN,2013-11-18 12:00,153.1292,-27.3917,60.80,59.00,93.79,290.00,4.00,0.00,29.83,M,6.21,M,FEW,M,M,M,2100.00,M,M,M,M,YBBN 181200Z 29004KT 9999 FEW021 16/15 Q1010
YBBN,2013-11-18 12:30,153.1292,-27.3917,60.80,59.00,93.79,290.00,1.00,0.00,29.83,M,6.21,M,BKN,M,M,M,1700.00,M,M,M,M,YBBN 181230Z 29001KT 9999 BKN017 16/15 Q1010
YBBN,2013-11-18 13:00,153.1292,-27.3917,60.80,60.80,100.00,290.00,5.00,0.00,29.80,M,6.21,M,FEW,M,M,M,1700.00,M,M,M,M,YBBN 181300Z 29005KT 9999 FEW017 16/16 Q1009
YBBN,2013-11-18 13:30,153.1292,-27.3917,60.80,59.00,93.79,250.00,3.00,0.00,29.80,M,6.21,M,FEW,M,M,M,1700.00,M,M,M,M,YBBN 181330Z 25003KT 9999 FEW017 16/15 Q1009
YBBN,2013-11-18 14:00,153.1292,-27.3917,60.80,59.00,93.79,280.00,5.00,0.00,29.80,M,6.21,M,FEW,M,M,M,1400.00,M,M,M,M,YBBN 181400Z 28005KT 9999 FEW014 16/15 Q1009
YBBN,2013-11-18 14:30,153.1292,-27.3917,60.80,57.20,87.92,210.00,1.00,0.00,29.77,M,6.21,M,M,M,M,M,M,M,M,M,M,YBBN 181430Z 21001KT CAVOK 16/14 Q1008
YBBN,2013-11-18 15:00,153.1292,-27.3917,59.00,57.20,93.74,0.00,0.00,0.00,29.77,M,6.21,M,M,M,M,M,M,M,M,M,M,YBBN 181500Z 00000KT CAVOK 15/14 Q1008
YBBN,2013-11-18 15:30,153.1292,-27.3917,59.00,57.20,93.74,320.00,3.00,0.00,29.77,M,6.21,M,M,M,M,M,M,M,M,M,M,YBBN 181530Z 32003KT CAVOK 15/14 Q1008
YBBN,2013-11-18 16:00,153.1292,-27.3917,59.00,57.20,93.74,260.00,8.00,0.00,29.77,M,6.21,M,M,M,M,M,M,M,M,M,M,YBBN 181600Z 26008KT CAVOK 15/14 Q1008
YBBN,2013-11-18 16:30,153.1292,-27.3917,59.00,57.20,93.74,190.00,4.00,0.00,29.77,M,6.21,M,M,M,M,M,M,M,M,M,M,YBBN 181630Z 19004KT CAVOK 15/14 Q1008
YBBN,2013-11-18 17:00,153.1292,-27.3917,59.00,57.20,93.74,210.00,5.00,0.00,29.74,M,6.21,M,M,M,M,M,M,M,M,M,M,YBBN 181700Z 21005KT CAVOK 15/14 Q1007
YBBN,2013-11-18 17:30,153.1292,-27.3917,59.00,57.20,93.74,160.00,3.00,0.00,29.74,M,6.21,M,M,M,M,M,M,M,M,M,M,YBBN 181730Z 16003KT CAVOK 15/14 Q1007
YBBN,2013-11-18 18:00,153.1292,-27.3917,57.20,57.20,100.00,210.00,3.00,0.00,29.74,M,6.21,M,M,M,M,M,M,M,M,M,M,YBBN 181800Z 21003KT CAVOK 14/14 Q1007
YBBN,2013-11-18 18:30,153.1292,-27.3917,59.00,57.20,93.74,280.00,5.00,0.00,29.74,M,6.21,M,M,M,M,M,M,M,M,M,M,YBBN 181830Z 28005KT CAVOK 15/14 Q1007
YBBN,2013-11-18 19:00,153.1292,-27.3917,57.20,57.20,100.00,310.00,4.00,0.00,29.77,M,6.21,M,M,M,M,M,M,M,M,M,M,YBBN 181900Z 31004KT CAVOK 14/14 Q1008 NOSIG
YBBN,2013-11-18 19:30,153.1292,-27.3917,59.00,57.20,93.74,270.00,2.00,0.00,29.77,M,6.21,M,M,M,M,M,M,M,M,M,M,YBBN 181930Z 27002KT CAVOK 15/14 Q1008
YBBN,2013-11-18 20:00,153.1292,-27.3917,62.60,59.00,88.00,290.00,4.00,0.00,29.77,M,6.21,M,M,M,M,M,M,M,M,M,M,YBBN 182000Z 29004KT CAVOK 17/15 Q1008 NOSIG
YBBN,2013-11-18 20:30,153.1292,-27.3917,62.60,57.20,82.50,250.00,5.00,0.00,29.77,M,6.21,M,FEW,M,M,M,1800.00,M,M,M,M,YBBN 182030Z 25005KT 9999 FEW018 17/14 Q1008
YBBN,2013-11-18 21:00,153.1292,-27.3917,64.40,59.00,82.62,220.00,4.00,0.00,29.80,M,6.21,M,FEW,M,M,M,2200.00,M,M,M,M,YBBN 182100Z 22004KT 9999 FEW022 18/15 Q1009
YBBN,2013-11-18 21:30,153.1292,-27.3917,68.00,59.00,72.92,250.00,6.00,0.00,29.80,M,6.21,M,FEW,M,M,M,2800.00,M,M,M,M,YBBN 182130Z 25006KT 9999 FEW028 20/15 Q1009
YBBN,2013-11-18 22:00,153.1292,-27.3917,71.60,55.40,56.63,250.00,6.00,0.00,29.80,M,6.21,M,FEW,M,M,M,3800.00,M,M,M,M,YBBN 182200Z 25006KT 9999 FEW038 22/13 Q1009 NOSIG
YBBN,2013-11-18 22:30,153.1292,-27.3917,73.40,57.20,56.88,300.00,4.00,0.00,29.80,M,6.21,M,FEW,M,M,M,4000.00,M,M,M,M,YBBN 182230Z 30004KT 9999 FEW040 23/14 Q1009
YBBN,2013-11-18 23:00,153.1292,-27.3917,75.20,55.40,50.17,260.00,6.00,0.00,29.80,M,6.21,M,FEW,M,M,M,4800.00,M,M,M,M,YBBN 182300Z 26006KT 9999 FEW048 24/13 Q1009
YBBN,2013-11-18 23:30,153.1292,-27.3917,77.00,51.80,41.42,260.00,9.00,0.00,29.80,M,6.21,M,M,M,M,M,M,M,M,M,M,YBBN 182330Z 26009KT CAVOK 25/11 Q1009 RMK LATE TBRG 0.2 TIP
