#DEBUG: Format Typ    -> comma
#DEBUG: Time Period   -> 2014-03-10 00:00:00+00:00 2014-03-11 00:00:00+00:00
#DEBUG: Time Zone     -> Etc/UTC
#DEBUG: Data Contact   -> daryl herzmann akrherz@iastate.edu 515-294-5978
#DEBUG: Entries Found -> -1
station,valid,lon,lat,tmpf, dwpf, relh, drct, sknt, p01i, alti, mslp, vsby, gust, skyc1, skyc2, skyc3, skyc4, skyl1, skyl2, skyl3, skyl4, presentwx, metar
YBBN,2014-03-10 00:00,153.1292,-27.3917,78.80,60.80,54.05,110.00,12.00,0.00,30.12,M,6.21,M,FEW,M,M,M,4000.00,M,M,M,M,YBBN 100000Z 11012KT 9999 FEW040 26/16 Q1020 NOSIG
YBBN,2014-03-10 00:30,153.1292,-27.3917,78.80,60.80,54.05,120.00,13.00,0.00,30.09,M,6.21,M,SCT,M,M,M,3800.00,M,M,M,M,YBBN 100030Z 12013KT 9999 SCT038 26/16 Q1019
YBBN,2014-03-10 01:00,153.1292,-27.3917,78.80,60.80,54.05,120.00,12.00,0.00,30.09,M,6.21,M,SCT,M,M,M,3800.00,M,M,M,M,YBBN 100100Z 12012KT 9999 SCT038 26/16 Q1019
YBBN,2014-03-10 01:30,153.1292,-27.3917,78.80,59.00,50.69,120.00,13.00,0.00,30.09,M,6.21,M,SCT,M,M,M,3900.00,M,M,M,M,YBBN 100130Z 12013KT 9999 SCT039 26/15 Q1019
YBBN,2014-03-10 02:00,153.1292,-27.3917,78.80,59.00,50.69,120.00,12.00,0.00,30.09,M,6.21,M,SCT,M,M,M,3900.00,M,M,M,M,YBBN 100200Z 12012KT 9999 SCT039 26/15 Q1019 NOSIG
YBBN,2014-03-10 02:30,153.1292,-27.3917,80.60,59.00,47.79,130.00,12.00,0.00,30.09,M,6.21,M,SCT,M,M,M,3900.00,M,M,M,M,YBBN 100230Z 13012KT 9999 SCT039 27/15 Q1019
YBBN,2014-03-10 03:00,153.1292,-27.3917,80.60,57.20,44.80,130.00,13.00,0.00,30.09,M,6.21,M,SCT,M,M,M,3800.00,M,M,M,M,YBBN 100300Z 13013KT 9999 SCT038 27/14 Q1019 NOSIG
YBBN,2014-03-10 03:30,153.1292,-27.3917,80.60,57.20,44.80,120.00,13.00,0.00,30.06,M,6.21,M,FEW,M,M,M,3800.00,M,M,M,M,YBBN 100330Z 12013KT 9999 FEW038 27/14 Q1018
YBBN,2014-03-10 04:00,153.1292,-27.3917,78.80,55.40,44.52,130.00,12.00,0.00,30.06,M,6.21,M,FEW,BKN,M,M,3800.00,8500.00,M,M,M,YBBN 100400Z 13012KT 9999 FEW038 BKN085 26/13 Q1018 NOSIG
YBBN,2014-03-10 04:30,153.1292,-27.3917,78.80,59.00,50.69,120.00,13.00,0.00,30.06,M,6.21,M,FEW,BKN,M,M,3600.00,9000.00,M,M,M,YBBN 100430Z 12013KT 9999 FEW036 BKN090 26/15 Q1018
YBBN,2014-03-10 05:00,153.1292,-27.3917,78.80,57.20,47.52,130.00,12.00,0.00,30.06,M,6.21,M,FEW,BKN,M,M,3600.00,8600.00,M,M,M,YBBN 100500Z 13012KT 9999 FEW036 BKN086 26/14 Q1018 NOSIG
YBBN,2014-03-10 05:30,153.1292,-27.3917,78.80,55.40,44.52,120.00,12.00,0.00,30.06,M,6.21,M,FEW,BKN,M,M,3400.00,8400.00,M,M,M,YBBN 100530Z 12012KT 9999 FEW034 BKN084 26/13 Q1018
YBBN,2014-03-10 06:00,153.1292,-27.3917,78.80,57.20,47.52,120.00,13.00,0.00,30.06,M,6.21,23.00,FEW,BKN,M,M,3500.00,8600.00,M,M,M,YBBN 100600Z 12013G23KT 9999 FEW035 BKN086 26/14 Q1018
YBBN,2014-03-10 06:30,153.1292,-27.3917,77.00,57.20,50.43,120.00,11.00,0.00,30.06,M,6.21,M,FEW,BKN,M,M,3500.00,8600.00,M,M,M,YBBN 100630Z 12011KT 9999 FEW035 BKN086 25/14 Q1018
YBBN,2014-03-10 07:00,153.1292,-27.3917,77.00,59.00,53.80,120.00,10.00,0.00,30.06,M,6.21,M,FEW,BKN,M,M,3500.00,8800.00,M,M,M,YBBN 100700Z 12010KT 9999 FEW035 BKN088 25/15 Q1018
YBBN,2014-03-10 07:30,153.1292,-27.3917,77.00,59.00,53.80,120.00,10.00,0.00,30.06,M,6.21,M,FEW,BKN,M,M,3500.00,9000.00,M,M,M,YBBN 100730Z 12010KT 9999 FEW035 BKN090 25/15 Q1018
YBBN,2014-03-10 08:00,153.1292,-27.3917,75.20,60.80,60.90,130.00,9.00,0.00,30.06,M,6.21,M,FEW,BKN,M,M,3000.00,9000.00,M,M,M,YBBN 100800Z 13009KT 9999 FEW030 BKN090 24/16 Q1018
YBBN,2014-03-10 08:30,153.1292,-27.3917,75.20,59.00,57.12,130.00,11.00,0.00,30.09,M,6.21,M,FEW,BKN,M,M,3000.00,9200.00,M,M,M,YBBN 100830Z 13011KT 9999 FEW030 BKN092 24/15 Q1019
YBBN,2014-03-10 09:00,153.1292,-27.3917,75.20,60.80,60.90,130.00,9.00,0.00,30.09,M,6.21,M,FEW,SCT,M,M,3000.00,9200.00,M,M,M,YBBN 100900Z 13009KT 9999 FEW030 SCT092 24/16 Q1019
YBBN,2014-03-10 09:30,153.1292,-27.3917,75.20,60.80,60.90,130.00,9.00,0.00,30.09,M,6.21,M,FEW,SCT,M,M,3000.00,9300.00,M,M,M,YBBN 100930Z 13009KT 9999 FEW030 SCT093 24/16 Q1019 RMK DIST -SHRA NE
YBBN,2014-03-10 10:00,153.1292,-27.3917,73.40,60.80,64.69,130.00,9.00,0.00,30.12,M,6.21,M,FEW,M,M,M,2500.00,M,M,M,M,YBBN 101000Z 13009KT 9999 FEW025 23/16 Q1020 RMK DIST -SHRA NE
YBBN,2014-03-10 10:30,153.1292,-27.3917,73.40,62.60,68.94,130.00,9.00,0.00,30.12,M,6.21,M,FEW,SCT,M,M,2500.00,3200.00,M,M,M,YBBN 101030Z 13009KT 9999 FEW025 SCT032 23/17 Q1020 RMK DIST -SHRA N/NE
YBBN,2014-03-10 11:00,153.1292,-27.3917,75.20,62.60,64.91,120.00,8.00,0.00,30.12,M,6.21,M,FEW,SCT,M,M,2400.00,3000.00,M,M,M,YBBN 101100Z 12008KT 9999 FEW024 SCT030 24/17 Q1020 NOSIG
YBBN,2014-03-10 11:30,153.1292,-27.3917,75.20,60.80,60.90,120.00,8.00,0.00,30.12,M,6.21,M,FEW,M,M,M,3000.00,M,M,M,M,YBBN 101130Z 12008KT 9999 FEW030 24/16 Q1020
YBBN,2014-03-10 12:00,153.1292,-27.3917,75.20,60.80,60.90,120.00,9.00,0.00,30.12,M,6.21,M,FEW,M,M,M,3000.00,M,M,M,M,YBBN 101200Z 12009KT 9999 FEW030 24/16 Q1020 NOSIG
YBBN,2014-03-10 12:30,153.1292,-27.3917,75.20,60.80,60.90,130.00,8.00,0.00,30.12,M,6.21,M,FEW,M,M,M,2900.00,M,M,M,M,YBBN 101230Z 13008KT 9999 FEW029 24/16 Q1020
YBBN,2014-03-10 13:00,153.1292,-27.3917,71.60,60.80,68.75,120.00,7.00,0.00,30.09,M,6.21,M,FEW,M,M,M,2500.00,M,M,M,M,YBBN 101300Z 12007KT 9999 FEW025 22/16 Q1019 NOSIG
YBBN,2014-03-10 13:30,153.1292,-27.3917,69.80,60.80,73.09,170.00,6.00,0.00,30.09,M,6.21,M,FEW,M,M,M,2800.00,M,M,M,VCSH,YBBN 101330Z 17006KT 9999 VCSH FEW028 21/16 Q1019 RMK -SHRA E/NE
YBBN,2014-03-10 14:00,153.1292,-27.3917,69.80,60.80,73.09,170.00,6.00,0.00,30.09,M,6.21,M,FEW,M,M,M,2400.00,M,M,M,VCSH,YBBN 101400Z 17006KT 9999 VCSH FEW024 21/16 Q1019 RMK -SHRA N/NE
YBBN,2014-03-10 14:30,153.1292,-27.3917,69.80,60.80,73.09,190.00,5.00,0.00,30.09,M,6.21,M,FEW,SCT,M,M,2400.00,4900.00,M,M,M,YBBN 101430Z 19005KT 9999 FEW024 SCT049 21/16 Q1019 RMK DIST -SHRA N/NW
YBBN,2014-03-10 15:00,153.1292,-27.3917,69.80,62.60,77.90,190.00,4.00,0.00,30.09,M,6.21,M,FEW,SCT,M,M,2300.00,4900.00,M,M,M,YBBN 101500Z 19004KT 9999 FEW023 SCT049 21/17 Q1019 INTER 1600/1800 3000 SHRA BKN012
YBBN,2014-03-10 15:30,153.1292,-27.3917,68.00,62.60,82.86,190.00,6.00,0.00,30.09,M,6.21,M,FEW,M,M,M,2200.00,M,M,M,M,YBBN 101530Z 19006KT 9999 FEW022 20/17 Q1019 RMK DIST -SHRA SE
YBBN,2014-03-10 16:00,153.1292,-27.3917,68.00,60.80,77.75,210.00,5.00,0.00,30.06,M,6.21,M,FEW,M,M,M,2200.00,M,M,M,VCSH,YBBN 101600Z 21005KT 9999 VCSH FEW022 20/16 Q1018 INTER 1600/1900 3000 SHRA BKN012
YBBN,2014-03-10 16:30,153.1292,-27.3917,68.00,62.60,82.86,190.00,6.00,0.00,30.06,M,6.21,M,FEW,BKN,M,M,2000.00,6300.00,M,M,VCSH,YBBN 101630Z 19006KT 9999 VCSH FEW020 BKN063 20/17 Q1018 RMK SHRA W/SW
YBBN,2014-03-10 17:00,153.1292,-27.3917,66.20,62.60,88.18,200.00,7.00,0.00,30.03,M,6.21,M,FEW,SCT,M,M,2100.00,6400.00,M,M,VCSH,YBBN 101700Z 20007KT 9999 VCSH FEW021 SCT064 19/17 Q1017 INTER 1700/2000 3000 SHRA BKN012
YBBN,2014-03-10 17:30,153.1292,-27.3917,68.00,62.60,82.86,200.00,7.00,0.00,30.03,M,6.21,M,FEW,SCT,M,M,1900.00,2900.00,M,M,SHRA VCSH,YBBN 101730Z 20007KT 9999 SHRA VCSH FEW019 SCT029 20/17 Q1017 RMK VIS RED TO 8KM E/NE IN SHRA
YBBN,2014-03-10 18:00,153.1292,-27.3917,68.00,64.40,88.26,160.00,7.00,0.00,30.06,M,6.21,M,FEW,SCT,BKN,M,1800.00,2600.00,6400.00,M,VCSH,YBBN 101800Z 16007KT 9999 VCSH FEW018 SCT026 BKN064 20/18 Q1018
YBBN,2014-03-10 18:30,153.1292,-27.3917,68.00,62.60,82.86,190.00,5.00,0.00,30.06,M,6.21,M,FEW,SCT,M,M,1800.00,2600.00,M,M,VCSH,YBBN 101830Z 19005KT 9999 VCSH FEW018 SCT026 20/17 Q1018
YBBN,2014-03-10 19:00,153.1292,-27.3917,68.00,64.40,88.26,190.00,5.00,0.00,30.06,M,6.21,M,FEW,SCT,BKN,M,1800.00,2600.00,4400.00,M,VCSH,YBBN 101900Z 19005KT 9999 VCSH FEW018 SCT026 BKN044 20/18 Q1018 INTER 1900/2200 3000 SHRA BKN012
YBBN,2014-03-10 19:30,153.1292,-27.3917,68.00,64.40,88.26,190.00,6.00,0.00,30.06,M,6.21,M,FEW,SCT,BKN,M,900.00,2600.00,4300.00,M,-SHRA VCSH,YBBN 101930Z 19006KT 9999 -SHRA VCSH FEW009 SCT026 BKN043 20/18 Q1018 RMK VIS RED TO 9KM IN SHRA SW
YBBN,2014-03-10 20:00,153.1292,-27.3917,68.00,64.40,88.26,170.00,6.00,0.00,30.06,M,6.21,M,FEW,SCT,BKN,M,900.00,2600.00,4300.00,M,-SHRA VCSH,YBBN 102000Z 17006KT 9999 -SHRA VCSH FEW009 SCT026 BKN043 20/18 Q1018 INTER 2000/2300 3000 SHRA BKN012
YBBN,2014-03-10 20:30,153.1292,-27.3917,69.80,66.20,88.34,160.00,4.00,0.00,30.09,M,6.21,M,FEW,M,M,M,700.00,M,M,M,M,YBBN 102030Z 16004KT 9999 FEW007 21/19 Q1019
YBBN,2014-03-10 21:00,153.1292,-27.3917,69.80,66.20,88.34,130.00,5.00,0.00,30.09,M,4.97,M,FEW,BKN,BKN,M,700.00,2000.00,4300.00,M,-SHRA,YBBN 102100Z 13005KT 8000 -SHRA FEW007 BKN020 BKN043 21/19 Q1019
YBBN,2014-03-10 21:09,153.1292,-27.3917,69.80,66.20,88.34,120.00,5.00,0.00,30.09,M,6.21,M,FEW,BKN,BKN,M,700.00,2000.00,4300.00,M,-SHRA,YBBN 102109Z 12005KT 9999 4500S -SHRA FEW007 BKN020 BKN043 21/19 Q1019
YBBN,2014-03-10 21:14,153.1292,-27.3917,68.00,66.20,93.97,160.00,6.00,0.00,30.09,M,1.55,M,FEW,BKN,BKN,M,700.00,2200.00,4300.00,M,-SHRA,YBBN 102114Z 16006KT 2500 -SHRA FEW007 BKN022 BKN043 20/19 Q1019
YBBN,2014-03-10 21:30,153.1292,-27.3917,69.80,68.00,94.01,150.00,5.00,0.00,30.09,M,6.21,M,FEW,SCT,BKN,M,700.00,2000.00,6200.00,M,VCSH,YBBN 102130Z 15005KT 9999 VCSH FEW007 SCT020 BKN062 21/20 Q1019
YBBN,2014-03-10 22:00,153.1292,-27.3917,69.80,66.20,88.34,110.00,5.00,0.00,30.12,M,3.11,M,FEW,SCT,BKN,M,700.00,2300.00,6600.00,M,-SHRA,YBBN 102200Z 11005KT 5000 3000S -SHRA FEW007 SCT023 BKN066 21/19 Q1020
YBBN,2014-03-10 22:18,153.1292,-27.3917,71.60,68.00,88.43,100.00,5.00,0.00,30.12,M,6.21,M,FEW,SCT,BKN,M,700.00,1800.00,6000.00,M,VCSH,YBBN 102218Z 10005KT 9999 VCSH FEW007 SCT018 BKN060 22/20 Q1020
YBBN,2014-03-10 22:34,153.1292,-27.3917,71.60,66.20,83.09,120.00,5.00,0.00,30.12,M,2.49,M,FEW,SCT,BKN,M,700.00,2400.00,4300.00,M,-SHRA,YBBN 102234Z 12005KT 4000 3000S -SHRA FEW007 SCT024 BKN043 22/19 Q1020
YBBN,2014-03-10 22:46,153.1292,-27.3917,69.80,68.00,94.01,120.00,6.00,0.00,30.12,M,6.21,M,FEW,SCT,BKN,M,700.00,2000.00,4300.00,M,VCSH,YBBN 102246Z 12006KT 9999 VCSH FEW007 SCT020 BKN043 21/20 Q1020
YBBN,2014-03-10 23:00,153.1292,-27.3917,71.60,68.00,88.43,130.00,4.00,0.00,30.12,M,6.21,M,FEW,BKN,BKN,M,500.00,3000.00,6400.00,M,VCSH,YBBN 102300Z 13004KT 9999 VCSH FEW005 BKN030 BKN064 22/20 Q1020
YBBN,2014-03-10 23:30,153.1292,-27.3917,75.20,66.20,73.61,140.00,4.00,0.00,30.12,M,6.21,M,FEW,SCT,BKN,M,1000.00,3000.00,6000.00,M,M,YBBN 102330Z 14004KT 9999 FEW010 SCT030 BKN060 24/19 Q1020
