#DEBUG: Format Typ    -> comma
#DEBUG: Time Period   -> 2016-03-03 00:00:00+00:00 2016-03-04 00:00:00+00:00
#DEBUG: Time Zone     -> Etc/UTC
#DEBUG: Data Contact   -> daryl herzmann akrherz@iastate.edu 515-294-5978
#DEBUG: Entries Found -> -1
station,valid,lon,lat,tmpf, dwpf, relh, drct, sknt, p01i, alti, mslp, vsby, gust, skyc1, skyc2, skyc3, skyc4, skyl1, skyl2, skyl3, skyl4, presentwx, metar
YBBN,2016-03-03 00:00,153.1292,-27.3917,80.60,68.00,65.54,70.00,10.00,0.00,30.15,M,6.21,M,FEW,SCT,M,M,2000.00,2900.00,M,M,M,YBBN 030000Z 07010KT 9999 FEW020 SCT029 27/20 Q1021 NOSIG
YBBN,2016-03-03 00:30,153.1292,-27.3917,82.40,66.20,58.08,60.00,11.00,0.00,30.15,M,6.21,M,FEW,SCT,M,M,2400.00,2900.00,M,M,M,YBBN 030030Z 06011KT 9999 FEW024 SCT029 28/19 Q1021 NOSIG
YBBN,2016-03-03 01:00,153.1292,-27.3917,82.40,64.40,54.55,70.00,10.00,0.00,30.12,M,6.21,M,FEW,M,M,M,3100.00,M,M,M,M,YBBN 030100Z 07010KT 9999 FEW031 28/18 Q1020 NOSIG
YBBN,2016-03-03 01:30,153.1292,-27.3917,82.40,64.40,54.55,60.00,11.00,0.00,30.12,M,6.21,M,FEW,M,M,M,3600.00,M,M,M,M,YBBN 030130Z 06011KT 9999 FEW036 28/18 Q1020 NOSIG
YBBN,2016-03-03 02:00,153.1292,-27.3917,82.40,64.40,54.55,60.00,11.00,0.00,30.12,M,6.21,M,FEW,M,M,M,2500.00,M,M,M,M,YBBN 030200Z 06011KT 9999 FEW025 28/18 Q1020 NOSIG
YBBN,2016-03-03 02:30,153.1292,-27.3917,82.40,64.40,54.55,70.00,10.00,0.00,30.12,M,6.21,M,FEW,M,M,M,2500.00,M,M,M,M,YBBN 030230Z 07010KT 9999 FEW025 28/18 Q1020 NOSIG
YBBN,2016-03-03 03:00,153.1292,-27.3917,82.40,64.40,54.55,60.00,11.00,0.00,30.09,M,6.21,M,NCD,M,M,M,M,M,M,M,//,YBBN 030300Z AUTO 06011KT 9999 // NCD 28/18 Q1019
YBBN,2016-03-03 03:30,153.1292,-27.3917,82.40,64.40,54.55,60.00,11.00,0.00,30.09,M,6.21,M,FEW,M,M,M,3000.00,M,M,M,M,YBBN 030330Z 06011KT 9999 FEW030 28/18 Q1019 NOSIG
YBBN,2016-03-03 04:00,153.1292,-27.3917,82.40,66.20,58.08,70.00,9.00,0.00,30.09,M,6.21,M,FEW,M,M,M,2500.00,M,M,M,M,YBBN 030400Z 07009KT 9999 FEW025 28/19 Q1019
YBBN,2016-03-03 04:30,153.1292,-27.3917,82.40,66.20,58.08,60.00,11.00,0.00,30.09,M,6.21,M,FEW,M,M,M,2500.00,M,M,M,M,YBBN 030430Z 06011KT 9999 FEW025 28/19 Q1019 NOSIG
YBBN,2016-03-03 05:00,153.1292,-27.3917,82.40,66.20,58.08,70.00,11.00,0.00,30.09,M,6.21,M,FEW,M,M,M,2900.00,M,M,M,M,YBBN 030500Z 07011KT 9999 FEW029 28/19 Q1019
YBBN,2016-03-03 05:30,153.1292,-27.3917,82.40,66.20,58.08,60.00,11.00,0.00,30.09,M,6.21,M,FEW,M,M,M,2400.00,M,M,M,M,YBBN 030530Z 06011KT 9999 FEW024 28/19 Q1019 NOSIG
YBBN,2016-03-03 06:00,153.1292,-27.3917,80.60,66.20,61.58,70.00,9.00,0.00,30.09,M,6.21,M,FEW,M,M,M,2200.00,M,M,M,M,YBBN 030600Z 07009KT 9999 FEW022 27/19 Q1019
YBBN,2016-03-03 06:30,153.1292,-27.3917,80.60,66.20,61.58,70.00,11.00,0.00,30.09,M,6.21,M,FEW,M,M,M,2300.00,M,M,M,M,YBBN 030630Z 07011KT 9999 FEW023 27/19 Q1019 NOSIG
YBBN,2016-03-03 07:00,153.1292,-27.3917,80.60,66.20,61.58,70.00,10.00,0.00,30.09,M,6.21,M,FEW,SCT,M,M,2200.00,3000.00,M,M,M,YBBN 030700Z 07010KT 9999 FEW022 SCT030 27/19 Q1019
YBBN,2016-03-03 07:30,153.1292,-27.3917,78.80,66.20,65.33,80.00,8.00,0.00,30.09,M,6.21,M,FEW,BKN,M,M,2500.00,3000.00,M,M,M,YBBN 030730Z 08008KT 9999 FEW025 BKN030 26/19 Q1019 NOSIG
YBBN,2016-03-03 08:00,153.1292,-27.3917,78.80,68.00,69.52,90.00,8.00,0.00,30.12,M,6.21,M,FEW,BKN,M,M,1800.00,2700.00,M,M,M,YBBN 030800Z 09008KT 9999 FEW018 BKN027 26/20 Q1020
YBBN,2016-03-03 08:30,153.1292,-27.3917,78.80,68.00,69.52,80.00,9.00,0.00,30.12,M,6.21,M,FEW,SCT,M,M,1700.00,2400.00,M,M,SHRA,YBBN 030830Z 08009KT 9999 SHRA FEW017 SCT024 26/20 Q1020
YBBN,2016-03-03 09:00,153.1292,-27.3917,77.00,68.00,73.78,80.00,7.00,0.00,30.12,M,6.21,M,FEW,SCT,M,M,1700.00,2400.00,M,M,VCSH,YBBN 030900Z 08007KT 9999 VCSH FEW017 SCT024 25/20 Q1020
YBBN,2016-03-03 09:30,153.1292,-27.3917,77.00,68.00,73.78,80.00,9.00,0.00,30.12,M,6.21,M,FEW,SCT,M,M,1600.00,2300.00,M,M,VCSH,YBBN 030930Z 08009KT 9999 VCSH FEW016 SCT023 25/20 Q1020 NOSIG
YBBN,2016-03-03 10:00,153.1292,-27.3917,77.00,68.00,73.78,70.00,10.00,0.00,30.15,M,6.21,M,FEW,SCT,M,M,1600.00,2300.00,M,M,VCSH,YBBN 031000Z 07010KT 9999 VCSH FEW016 SCT023 25/20 Q1021 NOSIG
YBBN,2016-03-03 10:30,153.1292,-27.3917,77.00,68.00,73.78,70.00,8.00,0.00,30.15,M,6.21,M,FEW,BKN,M,M,1600.00,2300.00,M,M,M,YBBN 031030Z 07008KT 9999 FEW016 BKN023 25/20 Q1021 NOSIG
YBBN,2016-03-03 11:00,153.1292,-27.3917,77.00,66.20,69.33,70.00,9.00,0.00,30.15,M,6.21,M,FEW,SCT,M,M,1700.00,2300.00,M,M,M,YBBN 031100Z 07009KT 9999 FEW017 SCT023 25/19 Q1021 NOSIG
YBBN,2016-03-03 15:00,153.1292,-27.3917,75.20,66.20,73.61,100.00,5.00,0.00,30.12,M,6.21,M,FEW,M,M,M,2000.00,M,M,M,M,YBBN 031500Z 10005KT 9999 FEW020 24/19 Q1020 NOSIG
YBBN,2016-03-03 15:30,153.1292,-27.3917,75.20,66.20,73.61,90.00,5.00,0.00,30.09,M,6.21,M,FEW,M,M,M,2000.00,M,M,M,M,YBBN 031530Z 09005KT 9999 FEW020 24/19 Q1019 NOSIG
YBBN,2016-03-03 16:00,153.1292,-27.3917,75.20,66.20,73.61,100.00,5.00,0.00,30.09,M,6.21,M,FEW,M,M,M,2000.00,M,M,M,M,YBBN 031600Z 10005KT 9999 FEW020 24/19 Q1019 NOSIG
YBBN,2016-03-03 16:30,153.1292,-27.3917,75.20,64.40,69.14,100.00,4.00,0.00,30.09,M,6.21,M,FEW,M,M,M,1700.00,M,M,M,VCSH,YBBN 031630Z 10004KT 9999 VCSH FEW017 24/18 Q1019 NOSIG
YBBN,2016-03-03 17:00,153.1292,-27.3917,75.20,66.20,73.61,100.00,6.00,0.00,30.09,M,6.21,M,FEW,M,M,M,1700.00,M,M,M,M,YBBN 031700Z 10006KT 9999 FEW017 24/19 Q1019 NOSIG
YBBN,2016-03-03 17:30,153.1292,-27.3917,75.20,66.20,73.61,100.00,5.00,0.00,30.09,M,6.21,M,FEW,SCT,M,M,1900.00,2400.00,M,M,M,YBBN 031730Z 10005KT 9999 FEW019 SCT024 24/19 Q1019 NOSIG
YBBN,2016-03-03 18:00,153.1292,-27.3917,71.60,66.20,83.09,100.00,4.00,0.00,30.09,M,6.21,M,FEW,SCT,M,M,1900.00,2400.00,M,M,M,YBBN 031800Z 10004KT 9999 FEW019 SCT024 22/19 Q1019 NOSIG
YBBN,2016-03-03 19:00,153.1292,-27.3917,71.60,66.20,83.09,190.00,5.00,0.00,30.09,M,6.21,M,FEW,M,M,M,2000.00,M,M,M,VCSH,YBBN 031900Z 19005KT 9999 VCSH FEW020 22/19 Q1019 NOSIG
YBBN,2016-03-03 19:30,153.1292,-27.3917,71.60,66.20,83.09,190.00,4.00,0.00,30.09,M,6.21,M,FEW,M,M,M,2000.00,M,M,M,M,YBBN 031930Z 19004KT 9999 FEW020 22/19 Q1019 NOSIG
YBBN,2016-03-03 20:00,153.1292,-27.3917,71.60,66.20,83.09,200.00,4.00,0.00,30.09,M,6.21,M,FEW,M,M,M,2000.00,M,M,M,VCSH,YBBN 032000Z 20004KT 9999 VCSH FEW020 22/19 Q1019 NOSIG
YBBN,2016-03-03 20:30,153.1292,-27.3917,71.60,66.20,83.09,190.00,3.00,0.00,30.12,M,6.21,M,FEW,SCT,M,M,1900.00,2500.00,M,M,M,YBBN 032030Z 19003KT 9999 FEW019 SCT025 22/19 Q1020
YBBN,2016-03-03 21:00,153.1292,-27.3917,73.40,66.20,78.19,200.00,5.00,0.00,30.12,M,6.21,M,FEW,SCT,M,M,2000.00,2600.00,M,M,-SHRA,YBBN 032100Z 20005KT 9999 -SHRA FEW020 SCT026 23/19 Q1020
YBBN,2016-03-03 22:00,153.1292,-27.3917,75.20,69.80,83.32,150.00,1.00,0.00,30.12,M,6.21,M,FEW,SCT,M,M,2000.00,2600.00,M,M,VCSH,YBBN 032200Z 15001KT 9999 VCSH FEW020 SCT026 24/21 Q1020
YBBN,2016-03-03 22:30,153.1292,-27.3917,78.80,64.40,61.36,90.00,9.00,0.00,30.15,M,6.21,M,SCT,M,M,M,2600.00,M,M,M,M,YBBN 032230Z 09009KT 9999 SCT026 26/18 Q1021 NOSIG
YBBN,2016-03-03 23:00,153.1292,-27.3917,80.60,64.40,57.84,100.00,8.00,0.00,30.15,M,6.21,M,SCT,M,M,M,3000.00,M,M,M,M,YBBN 032300Z 10008KT 9999 SCT030 27/18 Q1021
YBBN,2016-03-03 23:30,153.1292,-27.3917,80.60,62.60,54.30,100.00,8.00,0.00,30.15,M,6.21,M,SCT,M,M,M,3300.00,M,M,M,M,YBBN 032330Z 10008KT 9999 SCT033 27/17 Q1021 NOSIG
