#DEBUG: Format Typ    -> comma
#DEBUG: Time Period   -> 2012-03-05 00:00:00+00:00 2012-03-06 00:00:00+00:00
#DEBUG: Time Zone     -> Etc/UTC
#DEBUG: Data Contact   -> daryl herzmann akrherz@iastate.edu 515-294-5978
#DEBUG: Entries Found -> -1
station,valid,lon,lat,tmpf, dwpf, relh, drct, sknt, p01i, alti, mslp, vsby, gust, skyc1, skyc2, skyc3, skyc4, skyl1, skyl2, skyl3, skyl4, presentwx, metar
YBBN,2012-03-05 00:00,153.1292,-27.3917,75.20,75.20,100.00,100.00,9.00,0.00,29.88,M,3.73,M,FEW,SCT,BKN,M,600.00,2500.00,5000.00,M,-RA,YBBN 050000Z 10009KT 6000 -RA FEW006 SCT025 BKN050 24/24 Q1012 RERA
YBBN,2012-03-05 00:23,153.1292,-27.3917,77.00,75.20,94.19,120.00,8.00,0.00,29.88,M,5.59,M,FEW,SCT,BKN,M,600.00,2300.00,4600.00,M,M,YBBN 050023Z 12008KT 9000 FEW006 SCT023 BKN046 25/24 Q1012
YBBN,2012-03-05 00:30,153.1292,-27.3917,77.00,75.20,94.19,110.00,8.00,0.00,29.88,M,6.21,M,FEW,SCT,BKN,M,900.00,2300.00,4600.00,M,VCSH,YBBN 050030Z 11008KT 9999 VCSH FEW009 SCT023 BKN046 25/24 Q1012
YBBN,2012-03-05 00:53,153.1292,-27.3917,77.00,75.20,94.19,130.00,8.00,0.00,29.85,M,3.73,M,FEW,SCT,M,M,800.00,1100.00,M,M,-RA,YBBN 050053Z 13008KT 6000 -RA FEW008 SCT011 25/24 Q1011
YBBN,2012-03-05 01:00,153.1292,-27.3917,77.00,75.20,94.19,120.00,8.00,0.00,29.85,M,4.35,M,FEW,SCT,M,M,800.00,1100.00,M,M,-RA,YBBN 050100Z 12008KT 7000 3000S -RA FEW008 SCT011 25/24 Q1011
YBBN,2012-03-05 01:14,153.1292,-27.3917,77.00,75.20,94.19,120.00,8.00,0.00,29.85,M,4.35,M,FEW,SCT,M,M,800.00,1300.00,M,M,-RA,YBBN 050114Z 12008KT 7000 5000SW -RA FEW008 SCT013 25/24 Q1011
YBBN,2012-03-05 01:30,153.1292,-27.3917,77.00,75.20,94.19,110.00,8.00,0.00,29.85,M,4.97,M,FEW,SCT,M,M,700.00,2800.00,M,M,-RA,YBBN 050130Z 11008KT 8000 2000N -RA FEW007 SCT028 25/24 Q1011
YBBN,2012-03-05 01:35,153.1292,-27.3917,77.00,75.20,94.19,110.00,8.00,0.00,29.85,M,4.35,M,FEW,SCT,M,M,800.00,2700.00,M,M,-RA,YBBN 050135Z 11008KT 7000 1000N -RA FEW008 SCT027 25/24 Q1011
YBBN,2012-03-05 01:51,153.1292,-27.3917,77.00,75.20,94.19,90.00,7.00,0.00,29.85,M,4.35,M,FEW,SCT,M,M,700.00,1900.00,M,M,-RA,YBBN 050151Z 09007KT 7000 4000W -RA FEW007 SCT019 25/24 Q1011
YBBN,2012-03-05 02:00,153.1292,-27.3917,77.00,75.20,94.19,100.00,7.00,0.00,29.85,M,4.35,M,FEW,BKN,M,M,800.00,1100.00,M,M,-RA,YBBN 050200Z 10007KT 7000 -RA FEW008 BKN011 25/24 Q1011
YBBN,2012-03-05 02:07,153.1292,-27.3917,77.00,75.20,94.19,90.00,9.00,0.00,29.83,M,3.11,M,FEW,BKN,M,M,800.00,1000.00,M,M,-RA,YBBN 050207Z 09009KT 5000 2000N -RA FEW008 BKN010 25/24 Q1010
YBBN,2012-03-05 02:30,153.1292,-27.3917,75.20,75.20,100.00,100.00,8.00,0.00,29.83,M,3.73,M,FEW,BKN,M,M,600.00,1200.00,M,M,-RA,YBBN 050230Z 10008KT 6000 4000NW -RA FEW006 BKN012 24/24 Q1010
YBBN,2012-03-05 03:00,153.1292,-27.3917,77.00,75.20,94.19,120.00,8.00,0.00,29.83,M,4.97,M,FEW,BKN,M,M,800.00,1400.00,M,M,-RA,YBBN 050300Z 12008KT 8000 -RA FEW008 BKN014 25/24 Q1010
YBBN,2012-03-05 03:35,153.1292,-27.3917,77.00,75.20,94.19,130.00,7.00,0.00,29.83,M,4.97,M,FEW,SCT,M,M,700.00,1300.00,M,M,-RA,YBBN 050335Z 13007KT 8000 3000SW -RA FEW007 SCT013 25/24 Q1010
YBBN,2012-03-05 04:00,153.1292,-27.3917,75.20,73.40,94.14,90.00,8.00,0.00,29.80,M,3.73,M,FEW,SCT,M,M,700.00,1300.00,M,M,-RA,YBBN 050400Z 09008KT 6000 -RA FEW007 SCT013 24/23 Q1009 RERA
YBBN,2012-03-05 04:30,153.1292,-27.3917,77.00,75.20,94.19,110.00,8.00,0.00,29.80,M,3.73,M,FEW,SCT,M,M,800.00,1100.00,M,M,-RA,YBBN 050430Z 11008KT 6000 4000N -RA FEW008 SCT011 25/24 Q1009 RERA
YBBN,2012-03-05 04:42,153.1292,-27.3917,77.00,75.20,94.19,110.00,8.00,0.00,29.80,M,4.35,M,FEW,SCT,M,M,800.00,1100.00,M,M,-RA,YBBN 050442Z 11008KT 7000 -RA FEW008 SCT011 25/24 Q1009
YBBN,2012-03-05 05:00,153.1292,-27.3917,77.00,73.40,88.67,110.00,8.00,0.00,29.80,M,5.59,M,FEW,SCT,BKN,M,900.00,2600.00,11000.00,M,-RA,YBBN 050500Z 11008KT 9000 -RA FEW009 SCT026 BKN110 25/23 Q1009
YBBN,2012-03-05 05:30,153.1292,-27.3917,77.00,75.20,94.19,90.00,9.00,0.00,29.80,M,4.97,M,FEW,SCT,BKN,M,900.00,1100.00,10000.00,M,-RA,YBBN 050530Z 09009KT 8000 -RA FEW009 SCT011 BKN100 25/24 Q1009
YBBN,2012-03-05 05:41,153.1292,-27.3917,75.20,75.20,100.00,90.00,8.00,0.00,29.80,M,4.35,M,FEW,SCT,M,M,700.00,1800.00,M,M,-RA,YBBN 050541Z 09008KT 7000 5000W -RA FEW007 SCT018 24/24 Q1009
YBBN,2012-03-05 06:00,153.1292,-27.3917,75.20,73.40,94.14,90.00,8.00,0.00,29.80,M,4.35,M,FEW,SCT,BKN,M,800.00,2000.00,6000.00,M,-RA,YBBN 050600Z 09008KT 7000 -RA FEW008 SCT020 BKN060 24/23 Q1009
YBBN,2012-03-05 06:19,153.1292,-27.3917,75.20,73.40,94.14,110.00,7.00,0.00,29.80,M,6.21,M,FEW,SCT,BKN,M,800.00,2800.00,6000.00,M,-RA,YBBN 050619Z 11007KT 9999 -RA FEW008 SCT028 BKN060 24/23 Q1009
YBBN,2012-03-05 06:30,153.1292,-27.3917,75.20,75.20,100.00,110.00,6.00,0.00,29.80,M,6.21,M,FEW,SCT,BKN,M,1000.00,2600.00,10000.00,M,-RA,YBBN 050630Z 11006KT 9999 -RA FEW010 SCT026 BKN100 24/24 Q1009
YBBN,2012-03-05 07:00,153.1292,-27.3917,77.00,75.20,94.19,90.00,6.00,0.00,29.80,M,6.21,M,FEW,SCT,M,M,900.00,2700.00,M,M,-RA,YBBN 050700Z 09006KT 9999 -RA FEW009 SCT027 25/24 Q1009
YBBN,2012-03-05 07:30,153.1292,-27.3917,77.00,73.40,88.67,90.00,6.00,0.00,29.80,M,5.59,M,FEW,SCT,M,M,1000.00,2000.00,M,M,-RA,YBBN 050730Z 09006KT 9000 -RA FEW010 SCT020 25/23 Q1009
YBBN,2012-03-05 07:41,153.1292,-27.3917,77.00,73.40,88.67,90.00,6.00,0.00,29.83,M,4.97,M,FEW,SCT,M,M,900.00,1300.00,M,M,-RA,YBBN 050741Z 09006KT 8000 -RA FEW009 SCT013 25/23 Q1010
YBBN,2012-03-05 08:00,153.1292,-27.3917,77.00,73.40,88.67,90.00,6.00,0.00,29.83,M,4.97,M,FEW,SCT,BKN,M,900.00,1300.00,2400.00,M,VCSH,YBBN 050800Z 09006KT 8000 VCSH FEW009 SCT013 BKN024 25/23 Q1010
YBBN,2012-03-05 08:30,153.1292,-27.3917,77.00,73.40,88.67,90.00,7.00,0.00,29.83,M,6.21,M,FEW,BKN,M,M,700.00,1200.00,M,M,-DZ VCSH,YBBN 050830Z 09007KT 9999 -DZ VCSH FEW007 BKN012 25/23 Q1010
YBBN,2012-03-05 09:00,153.1292,-27.3917,75.20,73.40,94.14,90.00,8.00,0.00,29.83,M,6.21,M,FEW,BKN,M,M,700.00,1300.00,M,M,-DZ VCSH,YBBN 050900Z 09008KT 9999 -DZ VCSH FEW007 BKN013 24/23 Q1010
YBBN,2012-03-05 09:30,153.1292,-27.3917,75.20,73.40,94.14,80.00,8.00,0.00,29.83,M,6.21,M,FEW,SCT,BKN,M,700.00,1300.00,15800.00,M,-DZ VCSH,YBBN 050930Z 08008KT 9999 -DZ VCSH FEW007 SCT013 BKN158 24/23 Q1010
YBBN,2012-03-05 09:48,153.1292,-27.3917,75.20,71.60,88.59,90.00,7.00,0.00,29.83,M,6.21,M,FEW,SCT,BKN,M,700.00,1600.00,16000.00,M,M,YBBN 050948Z 09007KT 9999 FEW007 SCT016 BKN160 24/22 Q1010
YBBN,2012-03-05 10:00,153.1292,-27.3917,75.20,71.60,88.59,90.00,7.00,0.00,29.83,M,6.21,M,FEW,SCT,BKN,M,700.00,1700.00,16500.00,M,M,YBBN 051000Z 09007KT 9999 FEW007 SCT017 BKN165 24/22 Q1010 RMK DIST SH S/NE
YBBN,2012-03-05 10:30,153.1292,-27.3917,75.20,71.60,88.59,90.00,6.00,0.00,29.85,M,6.21,M,FEW,SCT,BKN,M,800.00,1700.00,17000.00,M,M,YBBN 051030Z 09006KT 9999 FEW008 SCT017 BKN170 24/22 Q1011 RMK DIST SH S/NE
YBBN,2012-03-05 11:00,153.1292,-27.3917,75.20,71.60,88.59,110.00,5.00,0.00,29.85,M,6.21,M,FEW,BKN,M,M,800.00,1600.00,M,M,M,YBBN 051100Z 11005KT 9999 FEW008 BKN016 24/22 Q1011 RMK DIST SH S/NE
YBBN,2012-03-05 11:30,153.1292,-27.3917,77.00,73.40,88.67,90.00,6.00,0.00,29.85,M,6.21,M,FEW,BKN,M,M,800.00,1700.00,M,M,VCSH,YBBN 051130Z 09006KT 9999 VCSH FEW008 BKN017 25/23 Q1011
YBBN,2012-03-05 12:00,153.1292,-27.3917,77.00,71.60,83.44,90.00,7.00,0.00,29.85,M,6.21,M,SCT,SCT,BKN,M,900.00,1700.00,3700.00,M,VCSH,YBBN 051200Z 09007KT 9999 VCSH SCT009 SCT017 BKN037 25/22 Q1011
YBBN,2012-03-05 12:30,153.1292,-27.3917,75.20,71.60,88.59,90.00,6.00,0.00,29.85,M,6.21,M,FEW,SCT,BKN,M,900.00,1700.00,3800.00,M,M,YBBN 051230Z 09006KT 9999 FEW009 SCT017 BKN038 24/22 Q1011 RMK DIST SH SOUTH
YBBN,2012-03-05 13:00,153.1292,-27.3917,75.20,71.60,88.59,100.00,4.00,0.00,29.85,M,6.21,M,FEW,BKN,M,M,800.00,3800.00,M,M,M,YBBN 051300Z 10004KT 9999 FEW008 BKN038 24/22 Q1011 RMK DIST SH S/SE
YBBN,2012-03-05 13:30,153.1292,-27.3917,75.20,71.60,88.59,80.00,4.00,0.00,29.85,M,6.21,M,FEW,SCT,BKN,M,900.00,1700.00,4000.00,M,M,YBBN 051330Z 08004KT 9999 FEW009 SCT017 BKN040 24/22 Q1011 RMK DIST SH E/S
YBBN,2012-03-05 13:53,153.1292,-27.3917,75.20,73.40,94.14,140.00,4.00,0.00,29.85,M,3.73,M,FEW,SCT,BKN,M,800.00,1400.00,3800.00,M,-SHRA VCSH,YBBN 051353Z 14004KT 6000 -SHRA VCSH FEW008 SCT014 BKN038 24/23 Q1011
YBBN,2012-03-05 14:00,153.1292,-27.3917,75.20,73.40,94.14,120.00,4.00,0.00,29.83,M,3.73,M,FEW,SCT,BKN,M,800.00,1400.00,3800.00,M,-SHRA VCSH,YBBN 051400Z 12004KT 6000 -SHRA VCSH FEW008 SCT014 BKN038 24/23 Q1010
YBBN,2012-03-05 14:15,153.1292,-27.3917,75.20,73.40,94.14,150.00,4.00,0.00,29.83,M,6.21,M,FEW,SCT,BKN,M,800.00,3800.00,20000.00,M,-SHRA VCSH,YBBN 051415Z 15004KT 9999 -SHRA VCSH FEW008 SCT038 BKN200 24/23 Q1010
YBBN,2012-03-05 14:30,153.1292,-27.3917,75.20,73.40,94.14,190.00,4.00,0.00,29.83,M,6.21,M,FEW,SCT,BKN,M,900.00,3600.00,19000.00,M,VCSH,YBBN 051430Z 19004KT 9999 VCSH FEW009 SCT036 BKN190 24/23 Q1010
YBBN,2012-03-05 15:00,153.1292,-27.3917,73.40,73.40,100.00,190.00,4.00,0.00,29.83,M,3.73,M,FEW,SCT,BKN,M,700.00,1400.00,19000.00,M,-SHRA VCSH,YBBN 051500Z 19004KT 6000 -SHRA VCSH FEW007 SCT014 BKN190 23/23 Q1010
YBBN,2012-03-05 15:30,153.1292,-27.3917,73.40,73.40,100.00,310.00,3.00,0.00,29.83,M,3.11,M,FEW,SCT,BKN,M,900.00,1400.00,4200.00,M,SHRA VCSH,YBBN 051530Z 31003KT 5000 SHRA VCSH FEW009 SCT014 BKN042 23/23 Q1010
YBBN,2012-03-05 15:37,153.1292,-27.3917,73.40,73.40,100.00,40.00,2.00,0.00,29.83,M,1.86,M,FEW,SCT,BKN,M,900.00,1400.00,4300.00,M,SHRA,YBBN 051537Z 04002KT 3000 SHRA FEW009 SCT014 BKN043 23/23 Q1010
YBBN,2012-03-05 15:53,153.1292,-27.3917,73.40,73.40,100.00,130.00,5.00,0.00,29.83,M,3.11,M,FEW,SCT,BKN,M,500.00,900.00,3900.00,M,SHRA VCSH,YBBN 051553Z 13005KT 5000 SHRA VCSH FEW005 SCT009 BKN039 23/23 Q1010
YBBN,2012-03-05 16:00,153.1292,-27.3917,73.40,73.40,100.00,150.00,5.00,0.00,29.83,M,4.35,M,FEW,SCT,BKN,M,500.00,1000.00,4300.00,M,-SHRA VCSH,YBBN 051600Z 15005KT 7000 -SHRA VCSH FEW005 SCT010 BKN043 23/23 Q1010
YBBN,2012-03-05 16:24,153.1292,-27.3917,73.40,73.40,100.00,160.00,4.00,0.00,29.80,M,3.73,M,FEW,SCT,BKN,M,800.00,1300.00,4000.00,M,-SHRA VCSH,YBBN 051624Z 16004KT 6000 -SHRA VCSH FEW008 SCT013 BKN040 23/23 Q1009
YBBN,2012-03-05 16:30,153.1292,-27.3917,75.20,73.40,94.14,150.00,4.00,0.00,29.80,M,4.35,M,FEW,SCT,BKN,M,800.00,1300.00,4000.00,M,-SHRA VCSH,YBBN 051630Z 15004KT 7000 -SHRA VCSH FEW008 SCT013 BKN040 24/23 Q1009
YBBN,2012-03-05 17:00,153.1292,-27.3917,73.40,73.40,100.00,150.00,4.00,0.00,29.80,M,4.97,M,FEW,BKN,M,M,400.00,1200.00,M,M,-SHRA VCSH,YBBN 051700Z 15004KT 8000 -SHRA VCSH FEW004 BKN012 23/23 Q1009
YBBN,2012-03-05 17:21,153.1292,-27.3917,73.40,73.40,100.00,190.00,4.00,0.00,29.80,M,3.73,M,FEW,SCT,BKN,M,500.00,1000.00,4700.00,M,-SHRA VCSH,YBBN 051721Z 19004KT 6000 -SHRA VCSH FEW005 SCT010 BKN047 23/23 Q1009
YBBN,2012-03-05 17:30,153.1292,-27.3917,73.40,73.40,100.00,180.00,4.00,0.00,29.80,M,4.35,M,FEW,SCT,BKN,M,500.00,1000.00,5000.00,M,-SHRA VCSH,YBBN 051730Z 18004KT 7000 -SHRA VCSH FEW005 SCT010 BKN050 23/23 Q1009
YBBN,2012-03-05 17:43,153.1292,-27.3917,73.40,73.40,100.00,180.00,4.00,0.00,29.80,M,3.11,M,FEW,BKN,M,M,600.00,3800.00,M,M,SHRA VCSH,YBBN 051743Z 18004KT 5000 SHRA VCSH FEW006 BKN038 23/23 Q1009 RMK SH S/SE
YBBN,2012-03-05 18:00,153.1292,-27.3917,73.40,71.60,94.10,180.00,6.00,0.00,29.80,M,3.73,M,SCT,BKN,M,M,400.00,1000.00,M,M,SHRA VCSH,YBBN 051800Z 18006KT 6000 SHRA VCSH SCT004 BKN010 23/22 Q1009
YBBN,2012-03-05 18:17,153.1292,-27.3917,73.40,71.60,94.10,170.00,8.00,0.00,29.83,M,4.97,M,FEW,SCT,BKN,M,400.00,900.00,3900.00,M,-SHRA VCSH,YBBN 051817Z 17008KT 8000 -SHRA VCSH FEW004 SCT009 BKN039 23/22 Q1010 RESHRA
YBBN,2012-03-05 18:30,153.1292,-27.3917,73.40,69.80,88.51,170.00,7.00,0.00,29.83,M,3.73,M,FEW,SCT,BKN,M,300.00,900.00,5400.00,M,-SHRA VCSH,YBBN 051830Z 17007KT 6000 -SHRA VCSH FEW003 SCT009 BKN054 23/21 Q1010
YBBN,2012-03-05 18:51,153.1292,-27.3917,71.60,69.80,94.06,160.00,7.00,0.00,29.83,M,6.21,M,SCT,SCT,M,M,400.00,3900.00,M,M,-SHRA VCSH,YBBN 051851Z 16007KT 9999 -SHRA VCSH SCT004 SCT039 22/21 Q1010
YBBN,2012-03-05 19:00,153.1292,-27.3917,71.60,69.80,94.06,170.00,7.00,0.00,29.83,M,6.21,M,SCT,SCT,M,M,400.00,4000.00,M,M,VCSH,YBBN 051900Z 17007KT 9999 VCSH SCT004 SCT040 22/21 Q1010 INTER 1900/2200 3000 SHRA BKN010
YBBN,2012-03-05 19:30,153.1292,-27.3917,71.60,69.80,94.06,170.00,7.00,0.00,29.83,M,6.21,M,FEW,SCT,M,M,400.00,3600.00,M,M,VCSH,YBBN 051930Z 17007KT 9999 VCSH FEW004 SCT036 22/21 Q1010
YBBN,2012-03-05 20:00,153.1292,-27.3917,71.60,69.80,94.06,200.00,6.00,0.00,29.85,M,6.21,M,FEW,SCT,M,M,400.00,4800.00,M,M,VCSH,YBBN 052000Z 20006KT 9999 VCSH FEW004 SCT048 22/21 Q1011 INTER 2000/2300 3000 SHRA BKN010
YBBN,2012-03-05 20:30,153.1292,-27.3917,71.60,69.80,94.06,200.00,7.00,0.00,29.85,M,6.21,M,FEW,SCT,M,M,500.00,6400.00,M,M,VCSH,YBBN 052030Z 20007KT 9999 VCSH FEW005 SCT064 22/21 Q1011
YBBN,2012-03-05 21:00,153.1292,-27.3917,73.40,69.80,88.51,200.00,7.00,0.00,29.85,M,6.21,M,FEW,SCT,M,M,500.00,8000.00,M,M,M,YBBN 052100Z 20007KT 9999 FEW005 SCT080 23/21 Q1011
YBBN,2012-03-05 21:30,153.1292,-27.3917,73.40,69.80,88.51,210.00,8.00,0.00,29.88,M,6.21,M,FEW,SCT,M,M,500.00,8000.00,M,M,M,YBBN 052130Z 21008KT 9999 FEW005 SCT080 23/21 Q1012
YBBN,2012-03-05 22:00,153.1292,-27.3917,73.40,69.80,88.51,200.00,6.00,0.00,29.88,M,6.21,M,FEW,BKN,M,M,700.00,3600.00,M,M,M,YBBN 052200Z 20006KT 9999 FEW007 BKN036 23/21 Q1012
YBBN,2012-03-05 22:30,153.1292,-27.3917,75.20,69.80,83.32,170.00,9.00,0.00,29.88,M,6.21,M,FEW,SCT,BKN,M,1500.00,2000.00,3400.00,M,M,YBBN 052230Z 17009KT 9999 FEW015 SCT020 BKN034 24/21 Q1012
YBBN,2012-03-05 23:00,153.1292,-27.3917,75.20,68.00,78.34,170.00,9.00,0.00,29.88,M,6.21,M,FEW,BKN,M,M,1500.00,2000.00,M,M,M,YBBN 052300Z 17009KT 9999 FEW015 BKN020 24/20 Q1012 INTER 2300/0200 3000 SHRA BKN010 FM2300 MOD TURB BLW 5000FT
YBBN,2012-03-05 23:30,153.1292,-27.3917,75.20,66.20,73.61,180.00,12.00,0.00,29.88,M,6.21,M,FEW,BKN,M,M,1500.00,4000.00,M,M,M,YBBN 052330Z 18012KT 9999 FEW015 BKN040 24/19 Q1012
