#DEBUG: Format Typ    -> comma
#DEBUG: Time Period   -> 2015-04-21 00:00:00+00:00 2015-04-22 00:00:00+00:00
#DEBUG: Time Zone     -> Etc/UTC
#DEBUG: Data Contact   -> daryl herzmann akrherz@iastate.edu 515-294-5978
#DEBUG: Entries Found -> -1
station,valid,lon,lat,tmpf, dwpf, relh, drct, sknt, p01i, alti, mslp, vsby, gust, skyc1, skyc2, skyc3, skyc4, skyl1, skyl2, skyl3, skyl4, presentwx, metar
YBBN,2015-04-21 00:00,153.1292,-27.3917,66.20,41.00,39.72,240.00,16.00,0.00,30.00,M,6.21,M,FEW,SCT,M,M,4300.00,7400.00,M,M,M,YBBN 210000Z 24016KT 9999 FEW043 SCT074 19/05 Q1016 NOSIG
YBBN,2015-04-21 00:30,153.1292,-27.3917,66.20,42.80,42.57,240.00,11.00,0.00,30.00,M,6.21,M,FEW,SCT,BKN,M,4000.00,4300.00,5400.00,M,M,YBBN 210030Z 24011KT 9999 FEW040 SCT043 BKN054 19/06 Q1016
YBBN,2015-04-21 01:00,153.1292,-27.3917,66.20,41.00,39.72,250.00,12.00,0.00,30.00,M,6.21,M,FEW,BKN,M,M,4000.00,4400.00,M,M,M,YBBN 210100Z 25012KT 9999 FEW040 BKN044 19/05 Q1016 NOSIG
YBBN,2015-04-21 01:30,153.1292,-27.3917,66.20,39.20,37.03,230.00,13.00,0.00,30.00,M,6.21,M,FEW,SCT,BKN,M,4000.00,4300.00,5400.00,M,M,YBBN 210130Z 23013KT 9999 FEW040 SCT043 BKN054 19/04 Q1016
YBBN,2015-04-21 02:00,153.1292,-27.3917,68.00,41.00,37.32,250.00,11.00,0.00,30.00,M,6.21,M,FEW,BKN,M,M,4300.00,5300.00,M,M,M,YBBN 210200Z 25011KT 9999 FEW043 BKN053 20/05 Q1016
YBBN,2015-04-21 02:30,153.1292,-27.3917,71.60,41.00,33.00,260.00,12.00,0.00,29.97,M,6.21,M,FEW,SCT,M,M,4400.00,5600.00,M,M,M,YBBN 210230Z 26012KT 9999 FEW044 SCT056 22/05 Q1015
YBBN,2015-04-21 03:00,153.1292,-27.3917,69.80,41.00,35.09,250.00,12.00,0.00,29.97,M,6.21,M,FEW,SCT,M,M,4500.00,5400.00,M,M,M,YBBN 210300Z 25012KT 9999 FEW045 SCT054 21/05 Q1015
YBBN,2015-04-21 03:30,153.1292,-27.3917,69.80,41.00,35.09,250.00,11.00,0.00,29.97,M,6.21,M,FEW,SCT,M,M,2600.00,4600.00,M,M,M,YBBN 210330Z 25011KT 9999 FEW026 SCT046 21/05 Q1015
YBBN,2015-04-21 04:00,153.1292,-27.3917,69.80,42.80,37.61,260.00,13.00,0.00,29.94,M,6.21,M,FEW,M,M,M,2600.00,M,M,M,M,YBBN 210400Z 26013KT 9999 FEW026 21/06 Q1014
YBBN,2015-04-21 04:30,153.1292,-27.3917,69.80,42.80,37.61,230.00,12.00,0.00,29.94,M,6.21,M,FEW,M,M,M,4300.00,M,M,M,M,YBBN 210430Z 23012KT 9999 FEW043 21/06 Q1014
YBBN,2015-04-21 05:00,153.1292,-27.3917,68.00,42.80,40.00,220.00,16.00,0.00,29.94,M,6.21,M,FEW,M,M,M,4300.00,M,M,M,M,YBBN 210500Z 22016KT 9999 FEW043 20/06 Q1014 NOSIG
YBBN,2015-04-21 05:30,153.1292,-27.3917,68.00,42.80,40.00,240.00,17.00,0.00,29.94,M,6.21,M,FEW,M,M,M,4300.00,M,M,M,M,YBBN 210530Z 24017KT 9999 FEW043 20/06 Q1014
YBBN,2015-04-21 06:00,153.1292,-27.3917,66.20,42.80,42.57,240.00,15.00,0.00,29.97,M,6.21,M,FEW,M,M,M,4200.00,M,M,M,M,YBBN 210600Z 24015KT 9999 FEW042 19/06 Q1015 NOSIG
YBBN,2015-04-21 06:30,153.1292,-27.3917,66.20,42.80,42.57,250.00,17.00,0.00,29.97,M,6.21,M,FEW,M,M,M,4000.00,M,M,M,M,YBBN 210630Z 25017KT 9999 FEW040 19/06 Q1015
YBBN,2015-04-21 07:00,153.1292,-27.3917,64.40,41.00,42.28,250.00,15.00,0.00,29.97,M,6.21,M,FEW,M,M,M,4000.00,M,M,M,M,YBBN 210700Z 25015KT 9999 FEW040 18/05 Q1015 NOSIG
YBBN,2015-04-21 07:30,153.1292,-27.3917,62.60,42.80,48.28,250.00,14.00,0.00,29.97,M,6.21,M,FEW,M,M,M,3800.00,M,M,M,M,YBBN 210730Z 25014KT 9999 FEW038 17/06 Q1015
YBBN,2015-04-21 08:00,153.1292,-27.3917,60.80,42.80,51.45,250.00,13.00,0.00,29.97,M,6.21,M,FEW,M,M,M,3800.00,M,M,M,M,YBBN 210800Z 25013KT 9999 FEW038 16/06 Q1015 NOSIG
YBBN,2015-04-21 08:30,153.1292,-27.3917,59.00,42.80,54.86,250.00,8.00,0.00,30.00,M,6.21,M,M,M,M,M,M,M,M,M,M,YBBN 210830Z 25008KT CAVOK 15/06 Q1016
YBBN,2015-04-21 09:00,153.1292,-27.3917,59.00,42.80,54.86,250.00,6.00,0.00,30.00,M,6.21,M,M,M,M,M,M,M,M,M,M,YBBN 210900Z 25006KT CAVOK 15/06 Q1016
YBBN,2015-04-21 09:30,153.1292,-27.3917,59.00,41.00,51.18,260.00,6.00,0.00,30.00,M,6.21,M,M,M,M,M,M,M,M,M,M,YBBN 210930Z 26006KT CAVOK 15/05 Q1016
YBBN,2015-04-21 10:00,153.1292,-27.3917,57.20,42.80,58.52,270.00,5.00,0.00,30.00,M,6.21,M,M,M,M,M,M,M,M,M,M,YBBN 211000Z 27005KT CAVOK 14/06 Q1016 NOSIG
YBBN,2015-04-21 10:30,153.1292,-27.3917,59.00,41.00,51.18,250.00,11.00,0.00,30.00,M,6.21,M,M,M,M,M,M,M,M,M,M,YBBN 211030Z 25011KT CAVOK 15/05 Q1016
YBBN,2015-04-21 11:00,153.1292,-27.3917,57.20,41.00,54.60,250.00,12.00,0.00,30.00,M,6.21,M,M,M,M,M,M,M,M,M,M,YBBN 211100Z 25012KT CAVOK 14/05 Q1016 NOSIG
YBBN,2015-04-21 11:30,153.1292,-27.3917,57.20,41.00,54.60,250.00,10.00,0.00,30.00,M,6.21,M,M,M,M,M,M,M,M,M,M,YBBN 211130Z 25010KT CAVOK 14/05 Q1016
YBBN,2015-04-21 12:00,153.1292,-27.3917,57.20,41.00,54.60,250.00,11.00,0.00,30.00,M,6.21,M,M,M,M,M,M,M,M,M,M,YBBN 211200Z 25011KT CAVOK 14/05 Q1016 NOSIG
YBBN,2015-04-21 12:30,153.1292,-27.3917,57.20,41.00,54.60,260.00,7.00,0.00,30.00,M,6.21,M,M,M,M,M,M,M,M,M,M,YBBN 211230Z 26007KT CAVOK 14/05 Q1016
YBBN,2015-04-21 13:00,153.1292,-27.3917,57.20,42.80,58.52,260.00,5.00,0.00,30.00,M,6.21,M,M,M,M,M,M,M,M,M,M,YBBN 211300Z 26005KT CAVOK 14/06 Q1016
YBBN,2015-04-21 13:30,153.1292,-27.3917,55.40,42.80,62.46,250.00,7.00,0.00,29.97,M,6.21,M,M,M,M,M,M,M,M,M,M,YBBN 211330Z 25007KT CAVOK 13/06 Q1015
YBBN,2015-04-21 14:00,153.1292,-27.3917,55.40,42.80,62.46,210.00,3.00,0.00,29.97,M,6.21,M,M,M,M,M,M,M,M,M,M,YBBN 211400Z 21003KT CAVOK 13/06 Q1015 NOSIG
YBBN,2015-04-21 14:30,153.1292,-27.3917,55.40,42.80,62.46,200.00,3.00,0.00,29.97,M,6.21,M,M,M,M,M,M,M,M,M,M,YBBN 211430Z 20003KT CAVOK 13/06 Q1015
YBBN,2015-04-21 15:00,153.1292,-27.3917,55.40,42.80,62.46,210.00,3.00,0.00,29.94,M,6.21,M,M,M,M,M,M,M,M,M,M,YBBN 211500Z 21003KT CAVOK 13/06 Q1014 NOSIG
YBBN,2015-04-21 15:30,153.1292,-27.3917,53.60,44.60,71.45,290.00,4.00,0.00,29.94,M,6.21,M,M,M,M,M,M,M,M,M,M,YBBN 211530Z 29004KT CAVOK 12/07 Q1014
YBBN,2015-04-21 16:00,153.1292,-27.3917,53.60,44.60,71.45,280.00,5.00,0.00,29.94,M,6.21,M,M,M,M,M,M,M,M,M,M,YBBN 211600Z 28005KT CAVOK 12/07 Q1014 NOSIG
YBBN,2015-04-21 16:30,153.1292,-27.3917,53.60,44.60,71.45,320.00,4.00,0.00,29.91,M,6.21,M,M,M,M,M,M,M,M,M,M,YBBN 211630Z 32004KT CAVOK 12/07 Q1013
YBBN,2015-04-21 17:00,153.1292,-27.3917,53.60,44.60,71.45,330.00,4.00,0.00,29.91,M,6.21,M,M,M,M,M,M,M,M,M,M,YBBN 211700Z 33004KT CAVOK 12/07 Q1013 NOSIG
YBBN,2015-04-21 17:30,153.1292,-27.3917,53.60,44.60,71.45,270.00,1.00,0.00,29.91,M,6.21,M,M,M,M,M,M,M,M,M,M,YBBN 211730Z 27001KT CAVOK 12/07 Q1013
YBBN,2015-04-21 18:00,153.1292,-27.3917,53.60,46.40,76.50,0.00,0.00,0.00,29.91,M,6.21,M,M,M,M,M,M,M,M,M,M,YBBN 211800Z 00000KT CAVOK 12/08 Q1013 NOSIG
YBBN,2015-04-21 18:30,153.1292,-27.3917,53.60,46.40,76.50,200.00,1.00,0.00,29.91,M,6.21,M,M,M,M,M,M,M,M,M,M,YBBN 211830Z 20001KT CAVOK 12/08 Q1013
YBBN,2015-04-21 19:00,153.1292,-27.3917,55.40,46.40,71.64,230.00,11.00,0.00,29.91,M,6.21,M,M,M,M,M,M,M,M,M,M,YBBN 211900Z 23011KT CAVOK 13/08 Q1013 NOSIG
YBBN,2015-04-21 19:30,153.1292,-27.3917,53.60,48.20,81.87,240.00,10.00,0.00,29.94,M,6.21,M,M,M,M,M,M,M,M,M,M,YBBN 211930Z 24010KT CAVOK 12/09 Q1014
YBBN,2015-04-21 20:00,153.1292,-27.3917,53.60,48.20,81.87,260.00,5.00,0.00,29.94,M,6.21,M,FEW,M,M,M,2000.00,M,M,M,M,YBBN 212000Z 26005KT 9999 FEW020 12/09 Q1014 NOSIG
YBBN,2015-04-21 20:30,153.1292,-27.3917,55.40,48.20,76.66,240.00,8.00,0.00,29.94,M,6.21,M,FEW,M,M,M,1500.00,M,M,M,M,YBBN 212030Z 24008KT 9999 FEW015 13/09 Q1014
YBBN,2015-04-21 21:00,153.1292,-27.3917,57.20,48.20,71.83,260.00,7.00,0.00,29.94,M,6.21,M,FEW,M,M,M,1500.00,M,M,M,M,YBBN 212100Z 26007KT 9999 FEW015 14/09 Q1014
YBBN,2015-04-21 21:30,153.1292,-27.3917,59.00,50.00,72.01,260.00,6.00,0.00,29.94,M,6.21,M,FEW,M,M,M,1800.00,M,M,M,M,YBBN 212130Z 26006KT 9999 FEW018 15/10 Q1014
YBBN,2015-04-21 22:00,153.1292,-27.3917,60.80,48.20,63.15,240.00,6.00,0.00,29.94,M,6.21,M,FEW,M,M,M,1800.00,M,M,M,M,YBBN 212200Z 24006KT 9999 FEW018 16/09 Q1014 NOSIG
YBBN,2015-04-21 22:30,153.1292,-27.3917,62.60,50.00,63.38,270.00,9.00,0.00,29.94,M,6.21,M,FEW,M,M,M,2500.00,M,M,M,M,YBBN 212230Z 27009KT 9999 FEW025 17/10 Q1014
YBBN,2015-04-21 23:00,153.1292,-27.3917,64.40,48.20,55.63,260.00,8.00,0.00,29.94,M,6.21,M,FEW,M,M,M,2500.00,M,M,M,M,YBBN 212300Z 26008KT 9999 FEW025 18/09 Q1014 NOSIG
YBBN,2015-04-21 23:30,153.1292,-27.3917,64.40,48.20,55.63,230.00,10.00,0.00,29.94,M,6.21,M,FEW,M,M,M,2500.00,M,M,M,M,YBBN 212330Z 23010KT 9999 FEW025 18/09 Q1014
