#DEBUG: Format Typ    -> comma
#DEBUG: Time Period   -> 2011-11-13 00:00:00+00:00 2011-11-14 00:00:00+00:00
#DEBUG: Time Zone     -> Etc/UTC
#DEBUG: Data Contact   -> daryl herzmann akrherz@iastate.edu 515-294-5978
#DEBUG: Entries Found -> -1
station,valid,lon,lat,tmpf, dwpf, relh, drct, sknt, p01i, alti, mslp, vsby, gust, skyc1, skyc2, skyc3, skyc4, skyl1, skyl2, skyl3, skyl4, presentwx, metar
YBBN,2011-11-13 00:00,153.1292,-27.3917,77.00,60.80,57.36,30.00,9.00,M,30.03,M,6.21,M,FEW,SCT,BKN,M,2400.00,3000.00,30000.00,M,M,YBBN 130000Z 03009KT 9999 FEW024 SCT030 BKN300 25/16 Q1017 NOSIG
YBBN,2011-11-13 00:30,153.1292,-27.3917,78.80,62.60,57.60,40.00,10.00,M,30.03,M,6.21,M,SCT,BKN,M,M,3100.00,30000.00,M,M,M,YBBN 130030Z 04010KT 9999 SCT031 BKN300 26/17 Q1017
YBBN,2011-11-13 01:00,153.1292,-27.3917,78.80,64.40,61.36,40.00,12.00,M,30.03,M,6.21,M,FEW,SCT,BKN,M,3200.00,13000.00,30000.00,M,M,YBBN 130100Z 04012KT 9999 FEW032 SCT130 BKN300 26/18 Q1017 NOSIG
YBBN,2011-11-13 01:30,153.1292,-27.3917,78.80,64.40,61.36,30.00,14.00,M,30.00,M,6.21,M,FEW,SCT,BKN,M,3200.00,13000.00,30000.00,M,M,YBBN 130130Z 03014KT 9999 FEW032 SCT130 BKN300 26/18 Q1016
YBBN,2011-11-13 02:00,153.1292,-27.3917,78.80,64.40,61.36,20.00,14.00,M,30.00,M,6.21,M,FEW,SCT,BKN,M,3300.00,12500.00,30000.00,M,M,YBBN 130200Z 02014KT 9999 FEW033 SCT125 BKN300 26/18 Q1016 NOSIG
YBBN,2011-11-13 02:30,153.1292,-27.3917,78.80,64.40,61.36,30.00,16.00,M,29.97,M,6.21,M,FEW,BKN,M,M,3500.00,30000.00,M,M,M,YBBN 130230Z 03016KT 9999 FEW035 BKN300 26/18 Q1015
YBBN,2011-11-13 03:00,153.1292,-27.3917,78.80,62.60,57.60,30.00,17.00,M,29.97,M,6.21,M,FEW,BKN,M,M,3700.00,30000.00,M,M,M,YBBN 130300Z 03017KT 9999 FEW037 BKN300 26/17 Q1015 NOSIG
YBBN,2011-11-13 03:30,153.1292,-27.3917,78.80,64.40,61.36,20.00,17.00,M,29.97,M,6.21,M,FEW,BKN,M,M,3800.00,30000.00,M,M,M,YBBN 130330Z 02017KT 9999 FEW038 BKN300 26/18 Q1015
YBBN,2011-11-13 04:00,153.1292,-27.3917,78.80,64.40,61.36,20.00,17.00,M,29.94,M,6.21,M,FEW,BKN,M,M,3800.00,30000.00,M,M,M,YBBN 130400Z 02017KT 9999 FEW038 BKN300 26/18 Q1014 NOSIG
YBBN,2011-11-13 04:30,153.1292,-27.3917,78.80,64.40,61.36,20.00,17.00,M,29.94,M,6.21,M,FEW,BKN,M,M,3600.00,30000.00,M,M,M,YBBN 130430Z 02017KT 9999 FEW036 BKN300 26/18 Q1014
YBBN,2011-11-13 05:00,153.1292,-27.3917,78.80,62.60,57.60,20.00,18.00,M,29.94,M,6.21,M,FEW,BKN,M,M,3500.00,30000.00,M,M,M,YBBN 130500Z 02018KT 9999 FEW035 BKN300 26/17 Q1014 NOSIG
YBBN,2011-11-13 05:30,153.1292,-27.3917,77.00,64.40,65.12,20.00,18.00,M,29.91,M,6.21,M,FEW,BKN,M,M,3500.00,30000.00,M,M,M,YBBN 130530Z 02018KT 9999 FEW035 BKN300 25/18 Q1013
YBBN,2011-11-13 06:00,153.1292,-27.3917,77.00,64.40,65.12,20.00,17.00,M,29.91,M,6.21,M,FEW,BKN,M,M,3200.00,30000.00,M,M,M,YBBN 130600Z 02017KT 9999 FEW032 BKN300 25/18 Q1013 NOSIG
YBBN,2011-11-13 06:30,153.1292,-27.3917,75.20,64.40,69.14,20.00,17.00,M,29.91,M,6.21,M,FEW,BKN,M,M,2700.00,30000.00,M,M,M,YBBN 130630Z 02017KT 9999 FEW027 BKN300 24/18 Q1013
YBBN,2011-11-13 07:00,153.1292,-27.3917,75.20,64.40,69.14,20.00,16.00,M,29.94,M,6.21,M,FEW,BKN,M,M,2200.00,30000.00,M,M,M,YBBN 130700Z 02016KT 9999 FEW022 BKN300 24/18 Q1014 NOSIG
YBBN,2011-11-13 07:30,153.1292,-27.3917,73.40,64.40,73.44,20.00,15.00,M,29.94,M,6.21,M,FEW,SCT,BKN,M,2200.00,23000.00,30000.00,M,M,YBBN 130730Z 02015KT 9999 FEW022 SCT230 BKN300 23/18 Q1014
YBBN,2011-11-13 08:00,153.1292,-27.3917,73.40,64.40,73.44,20.00,16.00,M,29.94,M,6.21,M,FEW,SCT,BKN,M,2000.00,16000.00,30000.00,M,M,YBBN 130800Z 02016KT 9999 FEW020 SCT160 BKN300 23/18 Q1014 NOSIG
YBBN,2011-11-13 08:30,153.1292,-27.3917,73.40,62.60,68.94,10.00,17.00,M,29.97,M,6.21,M,FEW,SCT,BKN,M,2000.00,16000.00,30000.00,M,M,YBBN 130830Z 01017KT 9999 FEW020 SCT160 BKN300 23/17 Q1015
YBBN,2011-11-13 09:00,153.1292,-27.3917,73.40,64.40,73.44,20.00,16.00,M,29.97,M,6.21,M,FEW,BKN,BKN,M,2200.00,12000.00,30000.00,M,M,YBBN 130900Z 02016KT 9999 FEW022 BKN120 BKN300 23/18 Q1015 NOSIG
YBBN,2011-11-13 09:30,153.1292,-27.3917,73.40,64.40,73.44,10.00,15.00,M,30.00,M,6.21,M,SCT,BKN,BKN,M,2200.00,13000.00,30000.00,M,M,YBBN 130930Z 01015KT 9999 SCT022 BKN130 BKN300 23/18 Q1016
YBBN,2011-11-13 10:00,153.1292,-27.3917,73.40,64.40,73.44,10.00,14.00,M,30.00,M,6.21,M,BKN,BKN,BKN,M,2200.00,13000.00,30000.00,M,M,YBBN 131000Z 01014KT 9999 BKN022 BKN130 BKN300 23/18 Q1016 NOSIG
YBBN,2011-11-13 10:30,153.1292,-27.3917,73.40,64.40,73.44,10.00,13.00,M,30.00,M,6.21,M,BKN,BKN,BKN,M,2400.00,14000.00,30000.00,M,M,YBBN 131030Z 01013KT 9999 BKN024 BKN140 BKN300 23/18 Q1016
YBBN,2011-11-13 11:00,153.1292,-27.3917,73.40,66.20,78.19,20.00,14.00,M,30.00,M,6.21,M,BKN,BKN,BKN,M,2200.00,14000.00,30000.00,M,M,YBBN 131100Z 02014KT 9999 BKN022 BKN140 BKN300 23/19 Q1016 NOSIG
YBBN,2011-11-13 11:30,153.1292,-27.3917,73.40,66.20,78.19,30.00,11.00,M,30.00,M,6.21,M,BKN,M,M,M,2000.00,M,M,M,M,YBBN 131130Z 03011KT 9999 BKN020 23/19 Q1016
YBBN,2011-11-13 12:00,153.1292,-27.3917,73.40,66.20,78.19,30.00,14.00,M,30.00,M,6.21,M,BKN,M,M,M,2000.00,M,M,M,M,YBBN 131200Z 03014KT 9999 BKN020 23/19 Q1016 NOSIG
YBBN,2011-11-13 12:30,153.1292,-27.3917,73.40,66.20,78.19,20.00,15.00,M,30.00,M,6.21,M,BKN,M,M,M,2000.00,M,M,M,M,YBBN 131230Z 02015KT 9999 BKN020 23/19 Q1016
YBBN,2011-11-13 13:00,153.1292,-27.3917,73.40,66.20,78.19,20.00,13.00,M,30.00,M,6.21,M,BKN,M,M,M,2000.00,M,M,M,M,YBBN 131300Z 02013KT 9999 BKN020 23/19 Q1016 NOSIG
YBBN,2011-11-13 13:30,153.1292,-27.3917,73.40,66.20,78.19,20.00,14.00,M,30.00,M,6.21,M,BKN,M,M,M,2000.00,M,M,M,M,YBBN 131330Z 02014KT 9999 BKN020 23/19 Q1016
YBBN,2011-11-13 14:00,153.1292,-27.3917,73.40,64.40,73.44,10.00,11.00,M,30.00,M,6.21,M,FEW,BKN,M,M,1800.00,3500.00,M,M,M,YBBN 131400Z 01011KT 9999 FEW018 BKN035 23/18 Q1016 NOSIG
YBBN,2011-11-13 14:30,153.1292,-27.3917,73.40,66.20,78.19,10.00,10.00,M,30.00,M,6.21,M,FEW,BKN,M,M,2000.00,3500.00,M,M,M,YBBN 131430Z 01010KT 9999 FEW020 BKN035 23/19 Q1016
YBBN,2011-11-13 15:00,153.1292,-27.3917,73.40,66.20,78.19,20.00,9.00,M,30.00,M,6.21,M,FEW,BKN,M,M,2000.00,3500.00,M,M,M,YBBN 131500Z 02009KT 9999 FEW020 BKN035 23/19 Q1016 NOSIG
YBBN,2011-11-13 15:30,153.1292,-27.3917,73.40,66.20,78.19,10.00,9.00,M,30.00,M,6.21,M,SCT,BKN,M,M,2000.00,3500.00,M,M,M,YBBN 131530Z 01009KT 9999 SCT020 BKN035 23/19 Q1016
YBBN,2011-11-13 16:00,153.1292,-27.3917,71.60,68.00,88.43,360.00,6.00,M,30.00,M,6.21,M,SCT,BKN,M,M,2000.00,3500.00,M,M,-SHRA,YBBN 131600Z 36006KT 9999 -SHRA SCT020 BKN035 22/20 Q1016 NOSIG
YBBN,2011-11-13 16:30,153.1292,-27.3917,71.60,66.20,83.09,360.00,10.00,M,29.97,M,6.21,M,FEW,BKN,M,M,2000.00,4000.00,M,M,M,YBBN 131630Z 36010KT 9999 FEW020 BKN040 22/19 Q1015
YBBN,2011-11-13 17:00,153.1292,-27.3917,71.60,66.20,83.09,360.00,9.00,M,30.00,M,6.21,M,FEW,BKN,M,M,2000.00,4000.00,M,M,M,YBBN 131700Z 36009KT 9999 FEW020 BKN040 22/19 Q1016 NOSIG
YBBN,2011-11-13 17:30,153.1292,-27.3917,71.60,64.40,78.04,360.00,11.00,M,29.97,M,6.21,M,FEW,SCT,M,M,2000.00,25000.00,M,M,M,YBBN 131730Z 36011KT 9999 FEW020 SCT250 22/18 Q1015 RMK DISTANT LIGHTNING TO S
YBBN,2011-11-13 18:00,153.1292,-27.3917,71.60,64.40,78.04,340.00,7.00,M,30.00,M,6.21,M,FEW,SCT,M,M,2000.00,12000.00,M,M,M,YBBN 131800Z 34007KT 9999 FEW020 SCT120 22/18 Q1016 NOSIG
YBBN,2011-11-13 18:30,153.1292,-27.3917,71.60,64.40,78.04,330.00,7.00,M,30.00,M,6.21,M,FEW,SCT,BKN,M,2000.00,11000.00,25000.00,M,VCSH,YBBN 131830Z 33007KT 9999 VCSH FEW020 SCT110 BKN250 22/18 Q1016
YBBN,2011-11-13 19:30,153.1292,-27.3917,71.60,64.40,78.04,340.00,14.00,M,30.00,M,6.21,M,FEW,SCT,BKN,M,2000.00,11000.00,25000.00,M,M,YBBN 131930Z 34014KT 9999 FEW020 SCT110 BKN250 22/18 Q1016 RMK VIRGA
YBBN,2011-11-13 20:00,153.1292,-27.3917,71.60,64.40,78.04,340.00,11.00,M,30.00,M,6.21,M,FEW,BKN,M,M,2000.00,25000.00,M,M,M,YBBN 132000Z 34011KT 9999 FEW020 BKN250 22/18 Q1016 NOSIG
YBBN,2011-11-13 20:30,153.1292,-27.3917,73.40,64.40,73.44,350.00,10.00,M,30.00,M,6.21,M,FEW,BKN,M,M,2000.00,25000.00,M,M,M,YBBN 132030Z 35010KT 9999 FEW020 BKN250 23/18 Q1016
YBBN,2011-11-13 21:00,153.1292,-27.3917,75.20,64.40,69.14,350.00,14.00,M,30.00,M,6.21,M,FEW,BKN,M,M,1200.00,25000.00,M,M,M,YBBN 132100Z 35014KT 9999 FEW012 BKN250 24/18 Q1016 NOSIG
YBBN,2011-11-13 21:30,153.1292,-27.3917,77.00,62.60,61.13,350.00,14.00,M,30.00,M,6.21,M,FEW,BKN,M,M,1200.00,25000.00,M,M,M,YBBN 132130Z 35014KT 9999 FEW012 BKN250 25/17 Q1016
YBBN,2011-11-13 22:00,153.1292,-27.3917,77.00,62.60,61.13,350.00,13.00,M,30.00,M,6.21,M,FEW,SCT,M,M,2000.00,30000.00,M,M,M,YBBN 132200Z 35013KT 9999 FEW020 SCT300 25/17 Q1016 NOSIG
YBBN,2011-11-13 22:30,153.1292,-27.3917,77.00,64.40,65.12,340.00,11.00,M,30.00,M,6.21,M,FEW,M,M,M,2000.00,M,M,M,M,YBBN 132230Z 34011KT 9999 FEW020 25/18 Q1016
YBBN,2011-11-13 23:00,153.1292,-27.3917,78.80,64.40,61.36,10.00,13.00,M,30.00,M,6.21,M,FEW,M,M,M,2000.00,M,M,M,M,YBBN 132300Z 01013KT 9999 FEW020 26/18 Q1016 NOSIG
YBBN,2011-11-13 23:30,153.1292,-27.3917,78.80,62.60,57.60,20.00,13.00,M,30.00,M,6.21,M,FEW,M,M,M,2500.00,M,M,M,M,YBBN 132330Z 02013KT 9999 FEW025 26/17 Q1016
