#DEBUG: Format Typ    -> comma
#DEBUG: Time Period   -> 2013-02-14 00:00:00+00:00 2013-02-15 00:00:00+00:00
#DEBUG: Time Zone     -> Etc/UTC
#DEBUG: Data Contact   -> daryl herzmann akrherz@iastate.edu 515-294-5978
#DEBUG: Entries Found -> -1
station,valid,lon,lat,tmpf, dwpf, relh, drct, sknt, p01i, alti, mslp, vsby, gust, skyc1, skyc2, skyc3, skyc4, skyl1, skyl2, skyl3, skyl4, presentwx, metar
YBBN,2013-02-14 00:00,153.1292,-27.3917,78.80,64.40,61.36,120.00,10.00,0.00,30.06,M,6.21,M,SCT,M,M,M,3000.00,M,M,M,M,YBBN 140000Z 12010KT 9999 SCT030 26/18 Q1018
YBBN,2013-02-14 00:30,153.1292,-27.3917,78.80,64.40,61.36,120.00,12.00,0.00,30.06,M,6.21,M,SCT,M,M,M,3000.00,M,M,M,M,YBBN 140030Z 12012KT 9999 SCT030 26/18 Q1018
YBBN,2013-02-14 01:00,153.1292,-27.3917,80.60,64.40,57.84,110.00,11.00,0.00,30.06,M,6.21,M,SCT,M,M,M,3000.00,M,M,M,M,YBBN 140100Z 11011KT 9999 SCT030 27/18 Q1018
YBBN,2013-02-14 01:30,153.1292,-27.3917,80.60,64.40,57.84,120.00,11.00,0.00,30.03,M,6.21,M,FEW,M,M,M,3000.00,M,M,M,M,YBBN 140130Z 12011KT 9999 FEW030 27/18 Q1017
YBBN,2013-02-14 02:00,153.1292,-27.3917,82.40,66.20,58.08,110.00,12.00,0.00,30.03,M,6.21,M,FEW,M,M,M,3000.00,M,M,M,M,YBBN 140200Z 11012KT 9999 FEW030 28/19 Q1017 NOSIG
YBBN,2013-02-14 02:30,153.1292,-27.3917,80.60,62.60,54.30,110.00,12.00,0.00,30.03,M,6.21,M,FEW,M,M,M,3000.00,M,M,M,M,YBBN 140230Z 11012KT 9999 FEW030 27/17 Q1017
YBBN,2013-02-14 03:00,153.1292,-27.3917,80.60,66.20,61.58,100.00,12.00,0.00,30.00,M,6.21,M,FEW,M,M,M,3000.00,M,M,M,M,YBBN 140300Z 10012KT 9999 FEW030 27/19 Q1016
YBBN,2013-02-14 03:30,153.1292,-27.3917,80.60,64.40,57.84,100.00,13.00,0.00,30.00,M,6.21,M,FEW,SCT,M,M,3000.00,30000.00,M,M,M,YBBN 140330Z 10013KT 9999 FEW030 SCT300 27/18 Q1016
YBBN,2013-02-14 04:00,153.1292,-27.3917,82.40,66.20,58.08,100.00,13.00,0.00,30.00,M,6.21,M,FEW,BKN,M,M,3000.00,30000.00,M,M,VCSH,YBBN 140400Z 10013KT 9999 VCSH FEW030 BKN300 28/19 Q1016
YBBN,2013-02-14 04:30,153.1292,-27.3917,80.60,64.40,57.84,120.00,12.00,0.00,30.00,M,6.21,M,FEW,SCT,M,M,3000.00,30000.00,M,M,M,YBBN 140430Z 12012KT 9999 FEW030 SCT300 27/18 Q1016
YBBN,2013-02-14 05:00,153.1292,-27.3917,80.60,66.20,61.58,120.00,10.00,0.00,30.00,M,6.21,M,FEW,BKN,M,M,3000.00,30000.00,M,M,M,YBBN 140500Z 12010KT 9999 FEW030 BKN300 27/19 Q1016 NOSIG
YBBN,2013-02-14 05:30,153.1292,-27.3917,78.80,66.20,65.33,70.00,11.00,0.00,29.97,M,6.21,M,FEW,BKN,M,M,2800.00,30000.00,M,M,M,YBBN 140530Z 07011KT 9999 FEW028 BKN300 26/19 Q1015
YBBN,2013-02-14 06:00,153.1292,-27.3917,78.80,66.20,65.33,70.00,10.00,0.00,29.97,M,6.21,M,SCT,BKN,M,M,2800.00,30000.00,M,M,M,YBBN 140600Z 07010KT 9999 SCT028 BKN300 26/19 Q1015 NOSIG
YBBN,2013-02-14 06:30,153.1292,-27.3917,78.80,64.40,61.36,110.00,8.00,0.00,29.97,M,6.21,M,SCT,BKN,M,M,2800.00,30000.00,M,M,M,YBBN 140630Z 11008KT 9999 SCT028 BKN300 26/18 Q1015
YBBN,2013-02-14 07:00,153.1292,-27.3917,77.00,66.20,69.33,100.00,9.00,0.00,30.00,M,6.21,M,FEW,BKN,M,M,2800.00,30000.00,M,M,M,YBBN 140700Z 10009KT 9999 FEW028 BKN300 25/19 Q1016 NOSIG
YBBN,2013-02-14 07:30,153.1292,-27.3917,77.00,64.40,65.12,90.00,8.00,0.00,30.00,M,6.21,M,FEW,BKN,M,M,2800.00,27000.00,M,M,M,YBBN 140730Z 09008KT 9999 FEW028 BKN270 25/18 Q1016
YBBN,2013-02-14 08:00,153.1292,-27.3917,77.00,64.40,65.12,100.00,8.00,0.00,30.00,M,6.21,M,FEW,BKN,M,M,2800.00,27000.00,M,M,M,YBBN 140800Z 10008KT 9999 FEW028 BKN270 25/18 Q1016
YBBN,2013-02-14 08:30,153.1292,-27.3917,75.20,62.60,64.91,100.00,7.00,0.00,30.00,M,6.21,M,FEW,BKN,M,M,2600.00,27000.00,M,M,M,YBBN 140830Z 10007KT 9999 FEW026 BKN270 24/17 Q1016
YBBN,2013-02-14 09:00,153.1292,-27.3917,75.20,64.40,69.14,110.00,6.00,0.00,30.03,M,6.21,M,FEW,BKN,M,M,2600.00,27000.00,M,M,M,YBBN 140900Z 11006KT 9999 FEW026 BKN270 24/18 Q1017 NOSIG
YBBN,2013-02-14 09:30,153.1292,-27.3917,75.20,66.20,73.61,70.00,7.00,0.00,30.03,M,6.21,M,SCT,BKN,M,M,2600.00,27000.00,M,M,M,YBBN 140930Z 07007KT 9999 SCT026 BKN270 24/19 Q1017
YBBN,2013-02-14 10:00,153.1292,-27.3917,75.20,66.20,73.61,110.00,5.00,0.00,30.03,M,6.21,M,FEW,BKN,M,M,2600.00,27000.00,M,M,VCSH,YBBN 141000Z 11005KT 9999 VCSH FEW026 BKN270 24/19 Q1017 NOSIG
YBBN,2013-02-14 10:30,153.1292,-27.3917,75.20,64.40,69.14,100.00,6.00,0.00,30.03,M,6.21,M,FEW,BKN,M,M,2600.00,24500.00,M,M,M,YBBN 141030Z 10006KT 9999 FEW026 BKN245 24/18 Q1017
YBBN,2013-02-14 11:00,153.1292,-27.3917,75.20,66.20,73.61,110.00,5.00,0.00,30.03,M,6.21,M,FEW,SCT,BKN,M,2600.00,7700.00,24500.00,M,VCSH,YBBN 141100Z 11005KT 9999 VCSH FEW026 SCT077 BKN245 24/19 Q1017 NOSIG
YBBN,2013-02-14 11:30,153.1292,-27.3917,75.20,66.20,73.61,110.00,5.00,0.00,30.03,M,6.21,M,FEW,SCT,BKN,M,2600.00,7700.00,25000.00,M,M,YBBN 141130Z 11005KT 9999 FEW026 SCT077 BKN250 24/19 Q1017
YBBN,2013-02-14 12:00,153.1292,-27.3917,75.20,64.40,69.14,120.00,5.00,0.00,30.03,M,6.21,M,FEW,BKN,M,M,2600.00,25000.00,M,M,VCSH,YBBN 141200Z 12005KT 9999 VCSH FEW026 BKN250 24/18 Q1017
YBBN,2013-02-14 12:21,153.1292,-27.3917,73.40,66.20,78.19,130.00,5.00,0.00,30.03,M,6.21,M,FEW,BKN,M,M,2600.00,25000.00,M,M,SHRA,YBBN 141221Z 13005KT 9999 5000W SHRA FEW026 BKN250 23/19 Q1017
YBBN,2013-02-14 12:30,153.1292,-27.3917,73.40,66.20,78.19,90.00,11.00,0.00,30.06,M,6.21,M,FEW,SCT,BKN,M,2100.00,3200.00,25000.00,M,SHRA,YBBN 141230Z 09011KT 9999 2500W SHRA FEW021 SCT032 BKN250 23/19 Q1018
YBBN,2013-02-14 12:39,153.1292,-27.3917,71.60,68.00,88.43,90.00,8.00,0.00,30.06,M,3.11,M,FEW,SCT,BKN,M,2100.00,2400.00,3200.00,M,-SHRA,YBBN 141239Z 09008KT 5000 -SHRA FEW021 SCT024 BKN032 22/20 Q1018 RESHRA
YBBN,2013-02-14 12:56,153.1292,-27.3917,69.80,68.00,94.01,100.00,5.00,0.00,30.06,M,1.86,M,SCT,BKN,BKN,M,1200.00,2400.00,3200.00,M,SHRA,YBBN 141256Z 10005KT 3000 SHRA SCT012 BKN024 BKN032 21/20 Q1018 RESHRA
YBBN,2013-02-14 13:00,153.1292,-27.3917,71.60,68.00,88.43,70.00,4.00,0.00,30.03,M,3.11,M,SCT,BKN,BKN,M,1200.00,2400.00,3200.00,M,-SHRA,YBBN 141300Z 07004KT 5000 -SHRA SCT012 BKN024 BKN032 22/20 Q1017 RESHRA
YBBN,2013-02-14 13:30,153.1292,-27.3917,69.80,68.00,94.01,300.00,4.00,0.00,30.03,M,6.21,M,FEW,SCT,BKN,M,1400.00,3300.00,6400.00,M,M,YBBN 141330Z 30004KT 9999 FEW014 SCT033 BKN064 21/20 Q1017
YBBN,2013-02-14 14:00,153.1292,-27.3917,71.60,68.00,88.43,190.00,6.00,0.00,30.03,M,6.21,M,SCT,BKN,M,M,2600.00,7000.00,M,M,M,YBBN 141400Z 19006KT 9999 SCT026 BKN070 22/20 Q1017
YBBN,2013-02-14 14:30,153.1292,-27.3917,69.80,68.00,94.01,190.00,5.00,0.00,30.03,M,6.21,M,FEW,BKN,M,M,2600.00,7400.00,M,M,VCSH,YBBN 141430Z 19005KT 9999 VCSH FEW026 BKN074 21/20 Q1017
YBBN,2013-02-14 15:00,153.1292,-27.3917,71.60,66.20,83.09,190.00,5.00,0.00,30.00,M,6.21,M,FEW,BKN,M,M,2400.00,7400.00,M,M,M,YBBN 141500Z 19005KT 9999 FEW024 BKN074 22/19 Q1016 INTER 1600/1800 3000 SHRA BKN015
YBBN,2013-02-14 15:30,153.1292,-27.3917,69.80,66.20,88.34,190.00,6.00,0.00,30.00,M,6.21,M,FEW,SCT,BKN,M,2600.00,7400.00,22000.00,M,M,YBBN 141530Z 19006KT 9999 FEW026 SCT074 BKN220 21/19 Q1016
YBBN,2013-02-14 16:00,153.1292,-27.3917,69.80,66.20,88.34,190.00,6.00,0.00,30.00,M,6.21,M,FEW,SCT,M,M,2600.00,22000.00,M,M,M,YBBN 141600Z 19006KT 9999 FEW026 SCT220 21/19 Q1016
YBBN,2013-02-14 16:30,153.1292,-27.3917,69.80,66.20,88.34,190.00,7.00,0.00,29.97,M,6.21,M,FEW,SCT,M,M,2600.00,22000.00,M,M,M,YBBN 141630Z 19007KT 9999 FEW026 SCT220 21/19 Q1015
YBBN,2013-02-14 17:00,153.1292,-27.3917,69.80,66.20,88.34,200.00,6.00,0.00,29.97,M,6.21,M,M,M,M,M,M,M,M,M,M,YBBN 141700Z 20006KT CAVOK 21/19 Q1015
YBBN,2013-02-14 17:30,153.1292,-27.3917,69.80,66.20,88.34,200.00,6.00,0.00,29.97,M,6.21,M,FEW,SCT,M,M,2600.00,22000.00,M,M,M,YBBN 141730Z 20006KT 9999 FEW026 SCT220 21/19 Q1015
YBBN,2013-02-14 18:00,153.1292,-27.3917,69.80,66.20,88.34,190.00,7.00,0.00,29.97,M,6.21,M,FEW,SCT,M,M,2600.00,22000.00,M,M,M,YBBN 141800Z 19007KT 9999 FEW026 SCT220 21/19 Q1015 INTER 1830/2100 3000 SHRA BKN015
YBBN,2013-02-14 18:30,153.1292,-27.3917,68.00,66.20,93.97,200.00,6.00,0.00,29.97,M,6.21,M,FEW,SCT,M,M,2600.00,21000.00,M,M,M,YBBN 141830Z 20006KT 9999 FEW026 SCT210 20/19 Q1015
YBBN,2013-02-14 19:00,153.1292,-27.3917,69.80,66.20,88.34,190.00,6.00,0.00,29.97,M,6.21,M,FEW,BKN,M,M,3000.00,19000.00,M,M,M,YBBN 141900Z 19006KT 9999 FEW030 BKN190 21/19 Q1015 INTER 1900/2200 3000 SHRA BKN015
YBBN,2013-02-14 19:30,153.1292,-27.3917,69.80,66.20,88.34,190.00,7.00,0.00,30.00,M,6.21,M,SCT,BKN,M,M,2500.00,19000.00,M,M,M,YBBN 141930Z 19007KT 9999 SCT025 BKN190 21/19 Q1016
YBBN,2013-02-14 20:00,153.1292,-27.3917,69.80,66.20,88.34,190.00,6.00,0.00,30.00,M,6.21,M,SCT,SCT,M,M,2500.00,19000.00,M,M,M,YBBN 142000Z 19006KT 9999 SCT025 SCT190 21/19 Q1016 INTER 2000/2300 3000 SHRA BKN015
YBBN,2013-02-14 20:30,153.1292,-27.3917,69.80,66.20,88.34,200.00,8.00,0.00,30.00,M,6.21,M,FEW,SCT,M,M,2500.00,19000.00,M,M,M,YBBN 142030Z 20008KT 9999 FEW025 SCT190 21/19 Q1016
YBBN,2013-02-14 21:00,153.1292,-27.3917,71.60,66.20,83.09,180.00,7.00,0.00,30.00,M,6.21,M,FEW,BKN,M,M,2500.00,19000.00,M,M,M,YBBN 142100Z 18007KT 9999 FEW025 BKN190 22/19 Q1016 INTER 2100/2400 3000 SHRA BKN015
YBBN,2013-02-14 21:30,153.1292,-27.3917,73.40,68.00,83.21,170.00,8.00,0.00,30.03,M,6.21,M,FEW,BKN,M,M,2800.00,19000.00,M,M,M,YBBN 142130Z 17008KT 9999 FEW028 BKN190 23/20 Q1017
YBBN,2013-02-14 22:00,153.1292,-27.3917,75.20,68.00,78.34,170.00,9.00,0.00,30.03,M,6.21,M,FEW,BKN,M,M,2800.00,19000.00,M,M,M,YBBN 142200Z 17009KT 9999 FEW028 BKN190 24/20 Q1017
YBBN,2013-02-14 22:30,153.1292,-27.3917,77.00,68.00,73.78,150.00,8.00,0.00,30.03,M,6.21,M,FEW,SCT,BKN,M,2800.00,8500.00,30000.00,M,M,YBBN 142230Z 15008KT 9999 FEW028 SCT085 BKN300 25/20 Q1017
YBBN,2013-02-14 23:00,153.1292,-27.3917,77.00,68.00,73.78,140.00,9.00,0.00,30.03,M,6.21,M,FEW,SCT,BKN,M,2200.00,8900.00,30000.00,M,M,YBBN 142300Z 14009KT 9999 FEW022 SCT089 BKN300 25/20 Q1017 INTER 2330/0200 3000 SHRA BKN012
YBBN,2013-02-14 23:30,153.1292,-27.3917,78.80,66.20,65.33,130.00,10.00,0.00,30.03,M,6.21,M,SCT,BKN,M,M,2500.00,30000.00,M,M,M,YBBN 142330Z 13010KT 9999 SCT025 BKN300 26/19 Q1017
