#DEBUG: Format Typ    -> comma
#DEBUG: Time Period   -> 2014-05-26 00:00:00+00:00 2014-05-27 00:00:00+00:00
#DEBUG: Time Zone     -> Etc/UTC
#DEBUG: Data Contact   -> daryl herzmann akrherz@iastate.edu 515-294-5978
#DEBUG: Entries Found -> -1
station,valid,lon,lat,tmpf, dwpf, relh, drct, sknt, p01i, alti, mslp, vsby, gust, skyc1, skyc2, skyc3, skyc4, skyl1, skyl2, skyl3, skyl4, presentwx, metar
YBBN,2014-05-26 00:00,153.1292,-27.3917,73.40,55.40,53.29,210.00,6.00,0.00,30.24,M,6.21,M,M,M,M,M,M,M,M,M,M,YBBN 260000Z 21006KT CAVOK 23/13 Q1024
YBBN,2014-05-26 00:30,153.1292,-27.3917,75.20,55.40,50.17,330.00,3.00,0.00,30.24,M,6.21,M,M,M,M,M,M,M,M,M,M,YBBN 260030Z 33003KT CAVOK 24/13 Q1024
YBBN,2014-05-26 01:00,153.1292,-27.3917,77.00,55.40,47.25,350.00,4.00,0.00,30.21,M,6.21,M,M,M,M,M,M,M,M,M,M,YBBN 260100Z 35004KT CAVOK 25/13 Q1023 NOSIG
YBBN,2014-05-26 01:30,153.1292,-27.3917,77.00,55.40,47.25,360.00,6.00,0.00,30.21,M,6.21,M,FEW,BKN,M,M,3500.00,30000.00,M,M,M,YBBN 260130Z 36006KT 9999 FEW035 BKN300 25/13 Q1023
YBBN,2014-05-26 02:00,153.1292,-27.3917,77.00,55.40,47.25,350.00,6.00,0.00,30.18,M,6.21,M,FEW,BKN,M,M,3500.00,30000.00,M,M,M,YBBN 260200Z 35006KT 9999 FEW035 BKN300 25/13 Q1022 NOSIG
YBBN,2014-05-26 02:30,153.1292,-27.3917,78.80,55.40,44.52,20.00,6.00,0.00,30.18,M,6.21,M,FEW,BKN,M,M,3500.00,30000.00,M,M,M,YBBN 260230Z 02006KT 9999 FEW035 BKN300 26/13 Q1022
YBBN,2014-05-26 03:00,153.1292,-27.3917,78.80,53.60,41.69,30.00,6.00,0.00,30.18,M,6.21,M,FEW,BKN,M,M,3500.00,30000.00,M,M,M,YBBN 260300Z 03006KT 9999 FEW035 BKN300 26/12 Q1022 NOSIG
YBBN,2014-05-26 03:30,153.1292,-27.3917,78.80,53.60,41.69,20.00,7.00,0.00,30.15,M,6.21,M,FEW,BKN,M,M,3000.00,30000.00,M,M,M,YBBN 260330Z 02007KT 9999 FEW030 BKN300 26/12 Q1021
YBBN,2014-05-26 04:00,153.1292,-27.3917,78.80,55.40,44.52,20.00,8.00,0.00,30.15,M,6.21,M,FEW,BKN,M,M,3000.00,30000.00,M,M,M,YBBN 260400Z 02008KT 9999 FEW030 BKN300 26/13 Q1021 NOSIG
YBBN,2014-05-26 04:30,153.1292,-27.3917,77.00,51.80,41.42,20.00,9.00,0.00,30.15,M,6.21,M,FEW,SCT,M,M,3000.00,30000.00,M,M,M,YBBN 260430Z 02009KT 9999 FEW030 SCT300 25/11 Q1021
YBBN,2014-05-26 05:00,153.1292,-27.3917,77.00,51.80,41.42,30.00,9.00,0.00,30.15,M,6.21,M,FEW,SCT,M,M,3000.00,30000.00,M,M,M,YBBN 260500Z 03009KT 9999 FEW030 SCT300 25/11 Q1021 NOSIG
YBBN,2014-05-26 05:30,153.1292,-27.3917,75.20,55.40,50.17,30.00,8.00,0.00,30.15,M,6.21,M,FEW,M,M,M,3000.00,M,M,M,M,YBBN 260530Z 03008KT 9999 FEW030 24/13 Q1021
YBBN,2014-05-26 06:00,153.1292,-27.3917,75.20,59.00,57.12,20.00,8.00,0.00,30.15,M,6.21,M,FEW,M,M,M,3000.00,M,M,M,M,YBBN 260600Z 02008KT 9999 FEW030 24/15 Q1021 NOSIG
YBBN,2014-05-26 06:30,153.1292,-27.3917,71.60,60.80,68.75,30.00,8.00,0.00,30.15,M,6.21,M,FEW,M,M,M,3000.00,M,M,M,M,YBBN 260630Z 03008KT 9999 FEW030 22/16 Q1021
YBBN,2014-05-26 07:00,153.1292,-27.3917,68.00,62.60,82.86,30.00,6.00,0.00,30.15,M,6.21,M,FEW,M,M,M,2800.00,M,M,M,M,YBBN 260700Z 03006KT 9999 FEW028 20/17 Q1021
YBBN,2014-05-26 07:30,153.1292,-27.3917,66.20,62.60,88.18,20.00,5.00,0.00,30.18,M,6.21,M,FEW,M,M,M,2500.00,M,M,M,M,YBBN 260730Z 02005KT 9999 FEW025 19/17 Q1022
YBBN,2014-05-26 08:00,153.1292,-27.3917,66.20,62.60,88.18,0.00,0.00,0.00,30.18,M,6.21,M,FEW,M,M,M,2500.00,M,M,M,M,YBBN 260800Z 00000KT 9999 FEW025 19/17 Q1022 NOSIG
YBBN,2014-05-26 08:30,153.1292,-27.3917,66.20,62.60,88.18,360.00,2.00,0.00,30.18,M,6.21,M,M,M,M,M,M,M,M,M,M,YBBN 260830Z 36002KT CAVOK 19/17 Q1022
YBBN,2014-05-26 09:00,153.1292,-27.3917,66.20,64.40,93.92,0.00,0.00,0.00,30.21,M,6.21,M,M,M,M,M,M,M,M,M,M,YBBN 260900Z 00000KT CAVOK 19/18 Q1023 NOSIG
YBBN,2014-05-26 09:30,153.1292,-27.3917,64.40,64.40,100.00,0.00,0.00,0.00,30.21,M,6.21,M,M,M,M,M,M,M,M,M,M,YBBN 260930Z 00000KT CAVOK 18/18 Q1023
YBBN,2014-05-26 10:00,153.1292,-27.3917,64.40,62.60,93.88,0.00,0.00,0.00,30.21,M,6.21,M,M,M,M,M,M,M,M,M,M,YBBN 261000Z 00000KT CAVOK 18/17 Q1023 NOSIG
YBBN,2014-05-26 10:20,153.1292,-27.3917,64.40,62.60,93.88,0.00,0.00,0.00,30.24,M,6.21,M,CLR,M,M,M,M,M,M,M,MIFG,YBBN 261020Z 00000KT 9999 MIFG SKC 18/17 Q1024
YBBN,2014-05-26 10:30,153.1292,-27.3917,64.40,62.60,93.88,0.00,0.00,0.00,30.24,M,6.21,M,CLR,M,M,M,M,M,M,M,MIFG,YBBN 261030Z 00000KT 9999 MIFG SKC 18/17 Q1024
YBBN,2014-05-26 11:00,153.1292,-27.3917,62.60,62.60,100.00,0.00,0.00,0.00,30.24,M,6.21,M,CLR,M,M,M,M,M,M,M,MIFG,YBBN 261100Z 00000KT 9999 MIFG SKC 17/17 Q1024
YBBN,2014-05-26 11:06,153.1292,-27.3917,64.40,62.60,93.88,0.00,0.00,0.00,30.24,M,3.11,M,NCD,M,M,M,M,M,M,M,//,YBBN 261106Z AUTO 00000KT 5000 // NCD 18/17 Q1024
YBBN,2014-05-26 11:31,153.1292,-27.3917,62.60,60.80,93.83,30.00,1.00,0.00,30.24,M,6.21,M,CLR,M,M,M,M,M,M,M,MIFG,YBBN 261131Z 03001KT 9999 MIFG SKC 17/16 Q1024
YBBN,2014-05-26 12:00,153.1292,-27.3917,60.80,59.00,93.79,210.00,4.00,0.00,30.24,M,6.21,M,M,M,M,M,M,M,M,M,M,YBBN 261200Z 21004KT CAVOK 16/15 Q1024
YBBN,2014-05-26 12:30,153.1292,-27.3917,60.80,59.00,93.79,200.00,4.00,0.00,30.24,M,6.21,M,M,M,M,M,M,M,M,M,M,YBBN 261230Z 20004KT CAVOK 16/15 Q1024
YBBN,2014-05-26 13:00,153.1292,-27.3917,60.80,59.00,93.79,200.00,3.00,0.00,30.24,M,6.21,M,M,M,M,M,M,M,M,M,M,YBBN 261300Z 20003KT CAVOK 16/15 Q1024 NOSIG
YBBN,2014-05-26 13:30,153.1292,-27.3917,59.00,57.20,93.74,0.00,0.00,0.00,30.21,M,6.21,M,CLR,M,M,M,M,M,M,M,MIFG,YBBN 261330Z 00000KT 9999 MIFG SKC 15/14 Q1023
YBBN,2014-05-26 14:00,153.1292,-27.3917,60.80,59.00,93.79,230.00,3.00,0.00,30.21,M,6.21,M,CLR,M,M,M,M,M,M,M,MIFG,YBBN 261400Z 23003KT 9999 MIFG SKC 16/15 Q1023
YBBN,2014-05-26 14:30,153.1292,-27.3917,59.00,57.20,93.74,210.00,4.00,0.00,30.21,M,6.21,M,CLR,M,M,M,M,M,M,M,MIFG,YBBN 261430Z 21004KT 9999 MIFG SKC 15/14 Q1023
YBBN,2014-05-26 15:00,153.1292,-27.3917,59.00,57.20,93.74,230.00,3.00,0.00,30.21,M,6.21,M,FEW,M,M,M,1500.00,M,M,M,M,YBBN 261500Z 23003KT 9999 FEW015 15/14 Q1023
YBBN,2014-05-26 15:30,153.1292,-27.3917,57.20,57.20,100.00,250.00,4.00,0.00,30.21,M,6.21,M,M,M,M,M,M,M,M,M,M,YBBN 261530Z 25004KT CAVOK 14/14 Q1023
YBBN,2014-05-26 16:00,153.1292,-27.3917,57.20,57.20,100.00,230.00,5.00,0.00,30.18,M,6.21,M,M,M,M,M,M,M,M,M,M,YBBN 261600Z 23005KT CAVOK 14/14 Q1022 NOSIG
YBBN,2014-05-26 16:30,153.1292,-27.3917,59.00,57.20,93.74,200.00,4.00,0.00,30.18,M,6.21,M,M,M,M,M,M,M,M,M,M,YBBN 261630Z 20004KT CAVOK 15/14 Q1022
YBBN,2014-05-26 17:00,153.1292,-27.3917,59.00,57.20,93.74,200.00,5.00,0.00,30.18,M,6.21,M,M,M,M,M,M,M,M,M,M,YBBN 261700Z 20005KT CAVOK 15/14 Q1022 NOSIG
YBBN,2014-05-26 17:30,153.1292,-27.3917,57.20,57.20,100.00,210.00,7.00,0.00,30.18,M,6.21,M,M,M,M,M,M,M,M,M,M,YBBN 261730Z 21007KT CAVOK 14/14 Q1022
YBBN,2014-05-26 18:00,153.1292,-27.3917,59.00,57.20,93.74,200.00,7.00,0.00,30.18,M,6.21,M,M,M,M,M,M,M,M,M,M,YBBN 261800Z 20007KT CAVOK 15/14 Q1022 NOSIG
YBBN,2014-05-26 18:30,153.1292,-27.3917,57.20,57.20,100.00,210.00,7.00,0.00,30.18,M,6.21,M,M,M,M,M,M,M,M,M,M,YBBN 261830Z 21007KT CAVOK 14/14 Q1022
YBBN,2014-05-26 19:00,153.1292,-27.3917,59.00,57.20,93.74,200.00,6.00,0.00,30.18,M,6.21,M,M,M,M,M,M,M,M,M,M,YBBN 261900Z 20006KT CAVOK 15/14 Q1022 NOSIG
YBBN,2014-05-26 19:30,153.1292,-27.3917,59.00,57.20,93.74,200.00,8.00,0.00,30.18,M,6.21,M,M,M,M,M,M,M,M,M,M,YBBN 261930Z 20008KT CAVOK 15/14 Q1022
YBBN,2014-05-26 20:00,153.1292,-27.3917,57.20,55.40,93.69,200.00,7.00,0.00,30.18,M,6.21,M,FEW,M,M,M,2500.00,M,M,M,M,YBBN 262000Z 20007KT 9999 FEW025 14/13 Q1022 NOSIG
YBBN,2014-05-26 20:30,153.1292,-27.3917,57.20,55.40,93.69,200.00,8.00,0.00,30.21,M,6.21,M,FEW,M,M,M,2500.00,M,M,M,M,YBBN 262030Z 20008KT 9999 FEW025 14/13 Q1023 RMK HAZE TO SW
YBBN,2014-05-26 21:00,153.1292,-27.3917,59.00,57.20,93.74,200.00,7.00,0.00,30.21,M,6.21,M,FEW,M,M,M,2500.00,M,M,M,M,YBBN 262100Z 20007KT 9999 FEW025 15/14 Q1023 NOSIG
YBBN,2014-05-26 21:30,153.1292,-27.3917,60.80,59.00,93.79,200.00,6.00,0.00,30.21,M,6.21,M,FEW,M,M,M,2500.00,M,M,M,M,YBBN 262130Z 20006KT 9999 FEW025 16/15 Q1023 RMK HAZE TO SW
YBBN,2014-05-26 22:00,153.1292,-27.3917,64.40,59.00,82.62,200.00,6.00,0.00,30.21,M,6.21,M,FEW,M,M,M,2500.00,M,M,M,M,YBBN 262200Z 20006KT 9999 FEW025 18/15 Q1023 NOSIG
YBBN,2014-05-26 22:30,153.1292,-27.3917,66.20,60.80,82.74,220.00,9.00,0.00,30.21,M,6.21,M,FEW,SCT,M,M,2500.00,30000.00,M,M,M,YBBN 262230Z 22009KT 9999 FEW025 SCT300 19/16 Q1023 RMK HAZE TO SW
YBBN,2014-05-26 23:00,153.1292,-27.3917,68.00,59.00,72.92,210.00,7.00,0.00,30.21,M,6.21,M,FEW,BKN,M,M,2500.00,30000.00,M,M,M,YBBN 262300Z 21007KT 9999 FEW025 BKN300 20/15 Q1023 NOSIG
YBBN,2014-05-26 23:30,153.1292,-27.3917,69.80,59.00,68.55,210.00,8.00,0.00,30.21,M,6.21,M,FEW,BKN,M,M,2500.00,30000.00,M,M,M,YBBN 262330Z 21008KT 9999 FEW025 BKN300 21/15 Q1023 RMK HAZE TO SW
