#DEBUG: Format Typ    -> comma
#DEBUG: Time Period   -> 2012-12-03 00:00:00+00:00 2012-12-04 00:00:00+00:00
#DEBUG: Time Zone     -> Etc/UTC
#DEBUG: Data Contact   -> daryl herzmann akrherz@iastate.edu 515-294-5978
#DEBUG: Entries Found -> -1
station,valid,lon,lat,tmpf, dwpf, relh, drct, sknt, p01i, alti, mslp, vsby, gust, skyc1, skyc2, skyc3, skyc4, skyl1, skyl2, skyl3, skyl4, presentwx, metar
YBBN,2012-12-03 00:00,153.1292,-27.3917,82.40,66.20,58.08,30.00,13.00,0.00,29.85,M,6.21,M,FEW,SCT,M,M,3200.00,16000.00,M,M,M,YBBN 030000Z 03013KT 9999 FEW032 SCT160 28/19 Q1011 RMK FU
YBBN,2012-12-03 00:30,153.1292,-27.3917,80.60,68.00,65.54,30.00,17.00,0.00,29.85,M,6.21,M,FEW,BKN,M,M,3000.00,16000.00,M,M,M,YBBN 030030Z 03017KT 9999 FEW030 BKN160 27/20 Q1011 RMK FU
YBBN,2012-12-03 01:00,153.1292,-27.3917,82.40,69.80,65.74,20.00,15.00,0.00,29.83,M,6.21,M,FEW,BKN,M,M,3000.00,16500.00,M,M,M,YBBN 030100Z 02015KT 9999 FEW030 BKN165 28/21 Q1010 RMK FU/CASTELLANUS CLOUD
YBBN,2012-12-03 01:30,153.1292,-27.3917,80.60,68.00,65.54,20.00,15.00,0.00,29.83,M,6.21,M,FEW,BKN,M,M,2300.00,17000.00,M,M,M,YBBN 030130Z 02015KT 9999 FEW023 BKN170 27/20 Q1010
YBBN,2012-12-03 02:00,153.1292,-27.3917,82.40,68.00,61.81,10.00,13.00,0.00,29.83,M,6.21,M,FEW,SCT,BKN,M,2800.00,17500.00,25000.00,M,M,YBBN 030200Z 01013KT 9999 FEW028 SCT175 BKN250 28/20 Q1010
YBBN,2012-12-03 02:30,153.1292,-27.3917,84.20,68.00,58.32,20.00,15.00,0.00,29.80,M,6.21,M,FEW,SCT,BKN,M,3200.00,17500.00,25000.00,M,M,YBBN 030230Z 02015KT 9999 FEW032 SCT175 BKN250 29/20 Q1009
YBBN,2012-12-03 03:00,153.1292,-27.3917,84.20,68.00,58.32,20.00,15.00,0.00,29.80,M,6.21,M,FEW,SCT,BKN,M,3500.00,18000.00,27000.00,M,M,YBBN 030300Z 02015KT 9999 FEW035 SCT180 BKN270 29/20 Q1009
YBBN,2012-12-03 03:30,153.1292,-27.3917,84.20,69.80,62.03,20.00,15.00,0.00,29.77,M,6.21,M,FEW,SCT,BKN,M,3800.00,18000.00,27000.00,M,M,YBBN 030330Z 02015KT 9999 FEW038 SCT180 BKN270 29/21 Q1008
YBBN,2012-12-03 04:00,153.1292,-27.3917,82.40,69.80,65.74,20.00,16.00,0.00,29.77,M,6.21,M,FEW,SCT,BKN,M,4000.00,18000.00,27000.00,M,M,YBBN 030400Z 02016KT 9999 FEW040 SCT180 BKN270 28/21 Q1008
YBBN,2012-12-03 04:30,153.1292,-27.3917,82.40,69.80,65.74,10.00,15.00,0.00,29.77,M,6.21,M,FEW,SCT,BKN,M,4000.00,18000.00,25000.00,M,M,YBBN 030430Z 01015KT 9999 FEW040 SCT180 BKN250 28/21 Q1008 RMK FU NW NOSIG
YBBN,2012-12-03 05:00,153.1292,-27.3917,80.60,69.80,69.71,20.00,18.00,0.00,29.77,M,6.21,M,FEW,SCT,BKN,M,3800.00,18000.00,22000.00,M,M,YBBN 030500Z 02018KT 9999 FEW038 SCT180 BKN220 27/21 Q1008
YBBN,2012-12-03 05:30,153.1292,-27.3917,80.60,69.80,69.71,20.00,18.00,0.00,29.74,M,6.21,M,FEW,SCT,M,M,3700.00,22000.00,M,M,M,YBBN 030530Z 02018KT 9999 FEW037 SCT220 27/21 Q1007
YBBN,2012-12-03 06:00,153.1292,-27.3917,80.60,68.00,65.54,20.00,18.00,0.00,29.74,M,6.21,M,FEW,BKN,M,M,3500.00,30000.00,M,M,M,YBBN 030600Z 02018KT 9999 FEW035 BKN300 27/20 Q1007 INTER 0830/0900 3000 SHRA BKN010
YBBN,2012-12-03 06:30,153.1292,-27.3917,78.80,69.80,73.95,10.00,16.00,0.00,29.74,M,6.21,M,FEW,BKN,M,M,3200.00,30000.00,M,M,M,YBBN 030630Z 01016KT 9999 FEW032 BKN300 26/21 Q1007
YBBN,2012-12-03 07:00,153.1292,-27.3917,80.60,69.80,69.71,20.00,17.00,0.00,29.74,M,6.21,M,M,M,M,M,M,M,M,M,M,YBBN 030700Z 02017KT CAVOK 27/21 Q1007
YBBN,2012-12-03 07:30,153.1292,-27.3917,77.00,69.80,78.48,10.00,17.00,0.00,29.74,M,6.21,M,M,M,M,M,M,M,M,M,M,YBBN 030730Z 01017KT CAVOK 25/21 Q1007 RMK DIST CB TOP SOUTH
YBBN,2012-12-03 08:00,153.1292,-27.3917,78.80,69.80,73.95,10.00,16.00,0.00,29.74,M,6.21,M,FEW,SCT,M,M,1800.00,15000.00,M,M,M,YBBN 030800Z 01016KT 9999 FEW018 SCT150 26/21 Q1007 RMK DIST CB TOPS S/SW
YBBN,2012-12-03 08:30,153.1292,-27.3917,77.00,71.60,83.44,10.00,16.00,0.00,29.74,M,6.21,M,FEW,SCT,M,M,1000.00,14000.00,M,M,M,YBBN 030830Z 01016KT 9999 FEW010 SCT140 25/22 Q1007 RMK CB TOPS STH
YBBN,2012-12-03 09:00,153.1292,-27.3917,77.00,69.80,78.48,10.00,17.00,0.00,29.74,M,6.21,M,FEW,SCT,M,M,1000.00,14000.00,M,M,M,YBBN 030900Z 01017KT 9999 FEW010 SCT140 25/21 Q1007 INTER 0930/1200 3000 SHRA BKN010
YBBN,2012-12-03 09:30,153.1292,-27.3917,77.00,71.60,83.44,10.00,17.00,0.00,29.77,M,6.21,M,FEW,BKN,M,M,1000.00,12000.00,M,M,M,YBBN 030930Z 01017KT 9999 FEW010 BKN120 25/22 Q1008
YBBN,2012-12-03 10:00,153.1292,-27.3917,77.00,71.60,83.44,10.00,15.00,0.00,29.74,M,6.21,M,FEW,SCT,M,M,1200.00,14000.00,M,M,M,YBBN 031000Z 01015KT 9999 FEW012 SCT140 25/22 Q1007
YBBN,2012-12-03 10:30,153.1292,-27.3917,77.00,71.60,83.44,10.00,9.00,0.00,29.80,M,6.21,M,SCT,BKN,M,M,1500.00,8000.00,M,M,VCSH,YBBN 031030Z 01009KT 9999 VCSH SCT015 BKN080 25/22 Q1009
YBBN,2012-12-03 11:00,153.1292,-27.3917,77.00,73.40,88.67,60.00,7.00,0.00,29.80,M,6.21,M,FEW,SCT,BKN,M,1900.00,2500.00,8500.00,M,-SHRA VCSH,YBBN 031100Z 06007KT 9999 -SHRA VCSH FEW019 SCT025 BKN085 25/23 Q1009
YBBN,2012-12-03 11:30,153.1292,-27.3917,77.00,71.60,83.44,70.00,7.00,0.00,29.80,M,6.21,M,FEW,SCT,M,M,1700.00,8000.00,M,M,M,YBBN 031130Z 07007KT 9999 FEW017 SCT080 25/22 Q1009
YBBN,2012-12-03 12:00,153.1292,-27.3917,77.00,69.80,78.48,70.00,9.00,0.00,29.80,M,6.21,M,FEW,SCT,M,M,1700.00,9000.00,M,M,M,YBBN 031200Z 07009KT 9999 FEW017 SCT090 25/21 Q1009
YBBN,2012-12-03 12:30,153.1292,-27.3917,77.00,71.60,83.44,70.00,8.00,0.00,29.80,M,6.21,M,M,M,M,M,M,M,M,M,M,YBBN 031230Z 07008KT CAVOK 25/22 Q1009
YBBN,2012-12-03 13:00,153.1292,-27.3917,77.00,71.60,83.44,50.00,11.00,0.00,29.77,M,6.21,M,FEW,SCT,M,M,1500.00,10000.00,M,M,M,YBBN 031300Z 05011KT 9999 FEW015 SCT100 25/22 Q1008 NOSIG
YBBN,2012-12-03 13:30,153.1292,-27.3917,77.00,68.00,73.78,30.00,17.00,0.00,29.77,M,6.21,M,M,M,M,M,M,M,M,M,M,YBBN 031330Z 03017KT CAVOK 25/20 Q1008
YBBN,2012-12-03 14:00,153.1292,-27.3917,77.00,69.80,78.48,20.00,16.00,0.00,29.77,M,6.21,M,M,M,M,M,M,M,M,M,M,YBBN 031400Z 02016KT CAVOK 25/21 Q1008 RMK 7AC090
YBBN,2012-12-03 14:30,153.1292,-27.3917,77.00,68.00,73.78,20.00,18.00,0.00,29.74,M,6.21,M,M,M,M,M,M,M,M,M,M,YBBN 031430Z 02018KT CAVOK 25/20 Q1007
YBBN,2012-12-03 15:00,153.1292,-27.3917,75.20,69.80,83.32,10.00,17.00,0.00,29.74,M,6.21,M,M,M,M,M,M,M,M,M,M,YBBN 031500Z 01017KT CAVOK 24/21 Q1007 TEMPO 1600/1800 BKN012
YBBN,2012-12-03 15:30,153.1292,-27.3917,75.20,68.00,78.34,10.00,16.00,0.00,29.71,M,6.21,M,M,M,M,M,M,M,M,M,M,YBBN 031530Z 01016KT CAVOK 24/20 Q1006
YBBN,2012-12-03 16:00,153.1292,-27.3917,75.20,68.00,78.34,360.00,12.00,0.00,29.71,M,6.21,M,M,M,M,M,M,M,M,M,M,YBBN 031600Z 36012KT CAVOK 24/20 Q1006 TEMPO 1600/1900 BKN012
YBBN,2012-12-03 16:30,153.1292,-27.3917,75.20,68.00,78.34,360.00,12.00,0.00,29.71,M,6.21,M,M,M,M,M,M,M,M,M,M,YBBN 031630Z 36012KT CAVOK 24/20 Q1006
YBBN,2012-12-03 17:00,153.1292,-27.3917,75.20,66.20,73.61,350.00,9.00,0.00,29.71,M,6.21,M,M,M,M,M,M,M,M,M,M,YBBN 031700Z 35009KT CAVOK 24/19 Q1006
YBBN,2012-12-03 17:30,153.1292,-27.3917,73.40,66.20,78.19,330.00,9.00,0.00,29.68,M,6.21,M,M,M,M,M,M,M,M,M,M,YBBN 031730Z 33009KT CAVOK 23/19 Q1005
YBBN,2012-12-03 18:00,153.1292,-27.3917,73.40,66.20,78.19,330.00,8.00,0.00,29.68,M,6.21,M,M,M,M,M,M,M,M,M,M,YBBN 031800Z 33008KT CAVOK 23/19 Q1005
YBBN,2012-12-03 18:30,153.1292,-27.3917,71.60,66.20,83.09,340.00,8.00,0.00,29.68,M,6.21,M,M,M,M,M,M,M,M,M,M,YBBN 031830Z 34008KT CAVOK 22/19 Q1005
YBBN,2012-12-03 19:00,153.1292,-27.3917,71.60,66.20,83.09,350.00,6.00,0.00,29.68,M,6.21,M,M,M,M,M,M,M,M,M,M,YBBN 031900Z 35006KT CAVOK 22/19 Q1005
YBBN,2012-12-03 19:30,153.1292,-27.3917,73.40,66.20,78.19,330.00,9.00,0.00,29.68,M,6.21,M,FEW,M,M,M,3500.00,M,M,M,M,YBBN 031930Z 33009KT 9999 FEW035 23/19 Q1005
YBBN,2012-12-03 20:00,153.1292,-27.3917,75.20,66.20,73.61,330.00,9.00,0.00,29.71,M,6.21,M,FEW,M,M,M,3500.00,M,M,M,M,YBBN 032000Z 33009KT 9999 FEW035 24/19 Q1006 NOSIG
YBBN,2012-12-03 20:30,153.1292,-27.3917,75.20,66.20,73.61,330.00,9.00,0.00,29.68,M,6.21,M,FEW,M,M,M,1500.00,M,M,M,M,YBBN 032030Z 33009KT 9999 FEW015 24/19 Q1005 RMK HAZE
YBBN,2012-12-03 21:00,153.1292,-27.3917,78.80,66.20,65.33,340.00,9.00,0.00,29.68,M,6.21,M,FEW,M,M,M,1500.00,M,M,M,M,YBBN 032100Z 34009KT 9999 FEW015 26/19 Q1005 NOSIG
YBBN,2012-12-03 21:30,153.1292,-27.3917,78.80,66.20,65.33,350.00,8.00,0.00,29.68,M,6.21,M,FEW,M,M,M,1500.00,M,M,M,M,YBBN 032130Z 35008KT 9999 FEW015 26/19 Q1005 RMK HAZE
YBBN,2012-12-03 22:00,153.1292,-27.3917,80.60,66.20,61.58,350.00,8.00,0.00,29.68,M,6.21,M,M,M,M,M,M,M,M,M,M,YBBN 032200Z 35008KT CAVOK 27/19 Q1005 RMK HAZE
YBBN,2012-12-03 22:30,153.1292,-27.3917,80.60,66.20,61.58,10.00,9.00,0.00,29.68,M,6.21,M,M,M,M,M,M,M,M,M,M,YBBN 032230Z 01009KT CAVOK 27/19 Q1005 RMK HAZE
YBBN,2012-12-03 23:00,153.1292,-27.3917,84.20,68.00,58.32,20.00,11.00,0.00,29.68,M,6.21,M,FEW,M,M,M,3500.00,M,M,M,M,YBBN 032300Z 02011KT 9999 FEW035 29/20 Q1005 RMK HAZE
YBBN,2012-12-03 23:30,153.1292,-27.3917,84.20,68.00,58.32,20.00,9.00,0.00,29.65,M,6.21,M,FEW,M,M,M,3500.00,M,M,M,M,YBBN 032330Z 02009KT 9999 FEW035 29/20 Q1004
