#DEBUG: Format Typ    -> comma
#DEBUG: Time Period   -> 2013-06-03 00:00:00+00:00 2013-06-04 00:00:00+00:00
#DEBUG: Time Zone     -> Etc/UTC
#DEBUG: Data Contact   -> daryl herzmann akrherz@iastate.edu 515-294-5978
#DEBUG: Entries Found -> -1
station,valid,lon,lat,tmpf, dwpf, relh, drct, sknt, p01i, alti, mslp, vsby, gust, skyc1, skyc2, skyc3, skyc4, skyl1, skyl2, skyl3, skyl4, presentwx, metar
YBBN,2013-06-03 00:00,153.1292,-27.3917,64.40,44.60,48.55,210.00,15.00,0.00,30.00,M,6.21,M,FEW,M,M,M,2000.00,M,M,M,M,YBBN 030000Z 21015KT 9999 FEW020 18/07 Q1016 FM0000 MOD TURB BLW 5000FT
YBBN,2013-06-03 00:30,153.1292,-27.3917,66.20,46.40,48.83,200.00,12.00,0.00,30.00,M,6.21,M,FEW,M,M,M,2500.00,M,M,M,M,YBBN 030030Z 20012KT 9999 FEW025 19/08 Q1016
YBBN,2013-06-03 01:00,153.1292,-27.3917,68.00,42.80,40.00,200.00,11.00,0.00,30.00,M,6.21,M,FEW,M,M,M,2500.00,M,M,M,M,YBBN 030100Z 20011KT 9999 FEW025 20/06 Q1016
YBBN,2013-06-03 01:30,153.1292,-27.3917,68.00,42.80,40.00,210.00,14.00,0.00,30.00,M,6.21,M,FEW,M,M,M,2800.00,M,M,M,M,YBBN 030130Z 21014KT 9999 FEW028 20/06 Q1016
YBBN,2013-06-03 02:00,153.1292,-27.3917,69.80,42.80,37.61,220.00,13.00,0.00,29.97,M,6.21,M,FEW,M,M,M,3000.00,M,M,M,M,YBBN 030200Z 22013KT 9999 FEW030 21/06 Q1015 NOSIG
YBBN,2013-06-03 02:30,153.1292,-27.3917,69.80,39.20,32.72,210.00,14.00,0.00,29.97,M,6.21,M,FEW,M,M,M,3000.00,M,M,M,M,YBBN 030230Z 21014KT 9999 FEW030 21/04 Q1015
YBBN,2013-06-03 03:00,153.1292,-27.3917,69.80,39.20,32.72,200.00,11.00,0.00,29.97,M,6.21,M,FEW,M,M,M,3300.00,M,M,M,M,YBBN 030300Z 20011KT 9999 FEW033 21/04 Q1015 NOSIG
YBBN,2013-06-03 03:30,153.1292,-27.3917,69.80,39.20,32.72,200.00,12.00,0.00,29.97,M,6.21,M,FEW,M,M,M,3500.00,M,M,M,M,YBBN 030330Z 20012KT 9999 FEW035 21/04 Q1015
YBBN,2013-06-03 04:00,153.1292,-27.3917,69.80,41.00,35.09,200.00,12.00,0.00,29.97,M,6.21,M,FEW,M,M,M,3500.00,M,M,M,M,YBBN 030400Z 20012KT 9999 FEW035 21/05 Q1015
YBBN,2013-06-03 04:30,153.1292,-27.3917,69.80,39.20,32.72,200.00,11.00,0.00,29.97,M,6.21,M,FEW,M,M,M,3500.00,M,M,M,M,YBBN 030430Z 20011KT 9999 FEW035 21/04 Q1015
YBBN,2013-06-03 05:00,153.1292,-27.3917,69.80,39.20,32.72,190.00,9.00,0.00,29.97,M,6.21,M,FEW,M,M,M,3500.00,M,M,M,M,YBBN 030500Z 19009KT 9999 FEW035 21/04 Q1015 NOSIG
YBBN,2013-06-03 05:30,153.1292,-27.3917,69.80,41.00,35.09,220.00,12.00,0.00,29.97,M,6.21,M,FEW,M,M,M,3500.00,M,M,M,M,YBBN 030530Z 22012KT 9999 FEW035 21/05 Q1015
YBBN,2013-06-03 06:00,153.1292,-27.3917,68.00,39.20,34.80,190.00,9.00,0.00,29.97,M,6.21,M,FEW,M,M,M,3500.00,M,M,M,M,YBBN 030600Z 19009KT 9999 FEW035 20/04 Q1015 NOSIG
YBBN,2013-06-03 06:30,153.1292,-27.3917,68.00,41.00,37.32,210.00,10.00,0.00,30.00,M,6.21,M,NCD,M,M,M,M,M,M,M,//,YBBN 030630Z AUTO 21010KT 9999 // NCD 20/05 Q1016
YBBN,2013-06-03 07:00,153.1292,-27.3917,66.20,41.00,39.72,190.00,7.00,0.00,30.00,M,6.21,M,FEW,M,M,M,3000.00,M,M,M,M,YBBN 030700Z 19007KT 9999 FEW030 19/05 Q1016 NOSIG
YBBN,2013-06-03 07:30,153.1292,-27.3917,64.40,44.60,48.55,190.00,6.00,0.00,30.03,M,6.21,M,FEW,M,M,M,3000.00,M,M,M,M,YBBN 030730Z 19006KT 9999 FEW030 18/07 Q1017
YBBN,2013-06-03 08:00,153.1292,-27.3917,62.60,44.60,51.72,190.00,4.00,0.00,30.03,M,6.21,M,FEW,M,M,M,3000.00,M,M,M,M,YBBN 030800Z 19004KT 9999 FEW030 17/07 Q1017 NOSIG
YBBN,2013-06-03 08:30,153.1292,-27.3917,62.60,42.80,48.28,150.00,4.00,0.00,30.03,M,6.21,M,FEW,M,M,M,3000.00,M,M,M,M,YBBN 030830Z 15004KT 9999 FEW030 17/06 Q1017
YBBN,2013-06-03 09:00,153.1292,-27.3917,57.20,46.40,67.12,220.00,4.00,0.00,30.06,M,6.21,M,M,M,M,M,M,M,M,M,M,YBBN 030900Z 22004KT CAVOK 14/08 Q1018 NOSIG
YBBN,2013-06-03 09:30,153.1292,-27.3917,57.20,46.40,67.12,0.00,0.00,0.00,30.06,M,6.21,M,M,M,M,M,M,M,M,M,M,YBBN 030930Z 00000KT CAVOK 14/08 Q1018
YBBN,2013-06-03 10:00,153.1292,-27.3917,57.20,44.60,62.69,0.00,0.00,0.00,30.06,M,6.21,M,M,M,M,M,M,M,M,M,M,YBBN 031000Z 00000KT CAVOK 14/07 Q1018
YBBN,2013-06-03 10:30,153.1292,-27.3917,57.20,48.20,71.83,0.00,0.00,0.00,30.09,M,6.21,M,M,M,M,M,M,M,M,M,M,YBBN 031030Z 00000KT CAVOK 14/09 Q1019
YBBN,2013-06-03 11:00,153.1292,-27.3917,55.40,48.20,76.66,230.00,4.00,0.00,30.09,M,6.21,M,M,M,M,M,M,M,M,M,M,YBBN 031100Z 23004KT CAVOK 13/09 Q1019
YBBN,2013-06-03 11:30,153.1292,-27.3917,53.60,46.40,76.50,200.00,4.00,0.00,30.09,M,6.21,M,M,M,M,M,M,M,M,M,M,YBBN 031130Z 20004KT CAVOK 12/08 Q1019
YBBN,2013-06-03 12:00,153.1292,-27.3917,53.60,48.20,81.87,260.00,4.00,0.00,30.09,M,6.21,M,M,M,M,M,M,M,M,M,M,YBBN 031200Z 26004KT CAVOK 12/09 Q1019
YBBN,2013-06-03 12:30,153.1292,-27.3917,51.80,48.20,87.47,230.00,4.00,0.00,30.12,M,6.21,M,M,M,M,M,M,M,M,M,M,YBBN 031230Z 23004KT CAVOK 11/09 Q1020
YBBN,2013-06-03 13:00,153.1292,-27.3917,51.80,46.40,81.74,230.00,5.00,0.00,30.12,M,6.21,M,M,M,M,M,M,M,M,M,M,YBBN 031300Z 23005KT CAVOK 11/08 Q1020 NOSIG
YBBN,2013-06-03 13:30,153.1292,-27.3917,51.80,46.40,81.74,250.00,6.00,0.00,30.12,M,6.21,M,M,M,M,M,M,M,M,M,M,YBBN 031330Z 25006KT CAVOK 11/08 Q1020
YBBN,2013-06-03 14:00,153.1292,-27.3917,50.00,46.40,87.37,230.00,5.00,0.00,30.12,M,6.21,M,M,M,M,M,M,M,M,M,M,YBBN 031400Z 23005KT CAVOK 10/08 Q1020
YBBN,2013-06-03 14:30,153.1292,-27.3917,50.00,46.40,87.37,210.00,5.00,0.00,30.12,M,6.21,M,M,M,M,M,M,M,M,M,M,YBBN 031430Z 21005KT CAVOK 10/08 Q1020
YBBN,2013-06-03 15:00,153.1292,-27.3917,50.00,46.40,87.37,230.00,4.00,0.00,30.12,M,6.21,M,M,M,M,M,M,M,M,M,M,YBBN 031500Z 23004KT CAVOK 10/08 Q1020
YBBN,2013-06-03 15:30,153.1292,-27.3917,48.20,46.40,93.45,220.00,6.00,0.00,30.15,M,6.21,M,M,M,M,M,M,M,M,M,M,YBBN 031530Z 22006KT CAVOK 09/08 Q1021
YBBN,2013-06-03 16:00,153.1292,-27.3917,51.80,46.40,81.74,210.00,6.00,0.00,30.12,M,6.21,M,M,M,M,M,M,M,M,M,M,YBBN 031600Z 21006KT CAVOK 11/08 Q1020
YBBN,2013-06-03 16:30,153.1292,-27.3917,51.80,46.40,81.74,210.00,8.00,0.00,30.12,M,6.21,M,M,M,M,M,M,M,M,M,M,YBBN 031630Z 21008KT CAVOK 11/08 Q1020
YBBN,2013-06-03 17:00,153.1292,-27.3917,50.00,46.40,87.37,210.00,6.00,0.00,30.12,M,6.21,M,M,M,M,M,M,M,M,M,M,YBBN 031700Z 21006KT CAVOK 10/08 Q1020 NOSIG
YBBN,2013-06-03 17:30,153.1292,-27.3917,48.20,46.40,93.45,210.00,6.00,0.00,30.12,M,6.21,M,M,M,M,M,M,M,M,M,M,YBBN 031730Z 21006KT CAVOK 09/08 Q1020
YBBN,2013-06-03 18:00,153.1292,-27.3917,50.00,46.40,87.37,200.00,6.00,0.00,30.12,M,6.21,M,M,M,M,M,M,M,M,M,M,YBBN 031800Z 20006KT CAVOK 10/08 Q1020 NOSIG
YBBN,2013-06-03 18:30,153.1292,-27.3917,53.60,44.60,71.45,190.00,6.00,0.00,30.12,M,6.21,M,M,M,M,M,M,M,M,M,M,YBBN 031830Z 19006KT CAVOK 12/07 Q1020
YBBN,2013-06-03 19:00,153.1292,-27.3917,50.00,44.60,81.61,200.00,7.00,0.00,30.12,M,6.21,M,M,M,M,M,M,M,M,M,M,YBBN 031900Z 20007KT CAVOK 10/07 Q1020 NOSIG
YBBN,2013-06-03 19:30,153.1292,-27.3917,51.80,44.60,76.34,200.00,8.00,0.00,30.15,M,6.21,M,M,M,M,M,M,M,M,M,M,YBBN 031930Z 20008KT CAVOK 11/07 Q1021
YBBN,2013-06-03 20:00,153.1292,-27.3917,50.00,44.60,81.61,200.00,7.00,0.00,30.18,M,6.21,M,M,M,M,M,M,M,M,M,M,YBBN 032000Z 20007KT CAVOK 10/07 Q1022
YBBN,2013-06-03 20:30,153.1292,-27.3917,53.60,42.80,66.70,200.00,9.00,0.00,30.18,M,6.21,M,M,M,M,M,M,M,M,M,M,YBBN 032030Z 20009KT CAVOK 12/06 Q1022
YBBN,2013-06-03 21:00,153.1292,-27.3917,50.00,46.40,87.37,210.00,9.00,0.00,30.18,M,6.21,M,M,M,M,M,M,M,M,M,M,YBBN 032100Z 21009KT CAVOK 10/08 Q1022 NOSIG
YBBN,2013-06-03 21:30,153.1292,-27.3917,53.60,46.40,76.50,200.00,8.00,0.00,30.18,M,6.21,M,M,M,M,M,M,M,M,M,M,YBBN 032130Z 20008KT CAVOK 12/08 Q1022
YBBN,2013-06-03 22:00,153.1292,-27.3917,55.40,46.40,71.64,210.00,9.00,0.00,30.21,M,6.21,M,M,M,M,M,M,M,M,M,M,YBBN 032200Z 21009KT CAVOK 13/08 Q1023 NOSIG
YBBN,2013-06-03 22:30,153.1292,-27.3917,59.00,42.80,54.86,210.00,10.00,0.00,30.21,M,6.21,M,M,M,M,M,M,M,M,M,M,YBBN 032230Z 21010KT CAVOK 15/06 Q1023
YBBN,2013-06-03 23:00,153.1292,-27.3917,60.80,42.80,51.45,210.00,14.00,0.00,30.21,M,6.21,M,M,M,M,M,M,M,M,M,M,YBBN 032300Z 21014KT CAVOK 16/06 Q1023 NOSIG
YBBN,2013-06-03 23:30,153.1292,-27.3917,62.60,41.00,45.04,210.00,13.00,0.00,30.24,M,6.21,M,M,M,M,M,M,M,M,M,M,YBBN 032330Z 21013KT CAVOK 17/05 Q1024
