#DEBUG: Format Typ    -> comma
#DEBUG: Time Period   -> 2010-11-09 00:00:00+00:00 2010-11-10 00:00:00+00:00
#DEBUG: Time Zone     -> Etc/UTC
#DEBUG: Data Contact   -> daryl herzmann akrherz@iastate.edu 515-294-5978
#DEBUG: Entries Found -> -1
station,valid,lon,lat,tmpf, dwpf, relh, drct, sknt, p01i, alti, mslp, vsby, gust, skyc1, skyc2, skyc3, skyc4, skyl1, skyl2, skyl3, skyl4, presentwx, metar
YBBN,2010-11-09 00:00,153.1292,-27.3917,75.20,64.40,69.14,60.00,10.00,M,30.24,M,6.21,M,SCT,BKN,M,M,2800.00,5000.00,M,M,M,YBBN 090000Z 06010KT 9999 SCT028 BKN050 24/18 Q1024 NOSIG
YBBN,2010-11-09 00:30,153.1292,-27.3917,77.00,64.40,65.12,50.00,12.00,M,30.24,M,6.21,M,SCT,BKN,M,M,2500.00,5000.00,M,M,M,YBBN 090030Z 05012KT 9999 SCT025 BKN050 25/18 Q1024 NOSIG
YBBN,2010-11-09 01:00,153.1292,-27.3917,75.20,62.60,64.91,60.00,11.00,M,30.24,M,6.21,M,FEW,BKN,M,M,2600.00,4500.00,M,M,M,YBBN 090100Z 06011KT 9999 FEW026 BKN045 24/17 Q1024 NOSIG
YBBN,2010-11-09 01:30,153.1292,-27.3917,75.20,62.60,64.91,60.00,11.00,M,30.24,M,6.21,M,FEW,BKN,M,M,2700.00,4600.00,M,M,M,YBBN 090130Z 06011KT 9999 FEW027 BKN046 24/17 Q1024 NOSIG
YBBN,2010-11-09 02:00,153.1292,-27.3917,77.00,62.60,61.13,60.00,11.00,M,30.24,M,6.21,M,FEW,BKN,M,M,2800.00,4600.00,M,M,M,YBBN 090200Z 06011KT 9999 FEW028 BKN046 25/17 Q1024 NOSIG
YBBN,2010-11-09 02:30,153.1292,-27.3917,77.00,62.60,61.13,50.00,12.00,M,30.24,M,6.21,M,FEW,BKN,BKN,M,3000.00,4700.00,27000.00,M,M,YBBN 090230Z 05012KT 9999 FEW030 BKN047 BKN270 25/17 Q1024 NOSIG
YBBN,2010-11-09 03:00,153.1292,-27.3917,77.00,62.60,61.13,60.00,13.00,M,30.24,M,6.21,M,FEW,BKN,BKN,M,3000.00,6500.00,27000.00,M,M,YBBN 090300Z 06013KT 9999 FEW030 BKN065 BKN270 25/17 Q1024 NOSIG
YBBN,2010-11-09 03:30,153.1292,-27.3917,77.00,62.60,61.13,50.00,12.00,M,30.21,M,6.21,M,FEW,BKN,BKN,M,2900.00,6000.00,27000.00,M,M,YBBN 090330Z 05012KT 9999 FEW029 BKN060 BKN270 25/17 Q1023 NOSIG
YBBN,2010-11-09 04:00,153.1292,-27.3917,77.00,62.60,61.13,60.00,13.00,M,30.21,M,6.21,M,FEW,SCT,BKN,M,3000.00,6000.00,27000.00,M,M,YBBN 090400Z 06013KT 9999 FEW030 SCT060 BKN270 25/17 Q1023 NOSIG
YBBN,2010-11-09 04:30,153.1292,-27.3917,77.00,62.60,61.13,60.00,12.00,M,30.21,M,6.21,M,FEW,BKN,M,M,3000.00,6000.00,M,M,M,YBBN 090430Z 06012KT 9999 FEW030 BKN060 25/17 Q1023 NOSIG
YBBN,2010-11-09 05:00,153.1292,-27.3917,75.20,62.60,64.91,60.00,11.00,M,30.21,M,6.21,M,FEW,BKN,M,M,3000.00,6000.00,M,M,M,YBBN 090500Z 06011KT 9999 FEW030 BKN060 24/17 Q1023 NOSIG
YBBN,2010-11-09 05:30,153.1292,-27.3917,75.20,62.60,64.91,50.00,11.00,M,30.21,M,6.21,M,FEW,BKN,M,M,2700.00,6000.00,M,M,M,YBBN 090530Z 05011KT 9999 FEW027 BKN060 24/17 Q1023 NOSIG
YBBN,2010-11-09 06:00,153.1292,-27.3917,75.20,62.60,64.91,70.00,10.00,M,30.21,M,6.21,M,FEW,BKN,M,M,2700.00,6000.00,M,M,M,YBBN 090600Z 07010KT 9999 FEW027 BKN060 24/17 Q1023 NOSIG
YBBN,2010-11-09 06:30,153.1292,-27.3917,75.20,62.60,64.91,70.00,10.00,M,30.21,M,6.21,M,FEW,BKN,M,M,2700.00,6000.00,M,M,M,YBBN 090630Z 07010KT 9999 FEW027 BKN060 24/17 Q1023 NOSIG
YBBN,2010-11-09 07:00,153.1292,-27.3917,75.20,62.60,64.91,60.00,11.00,M,30.24,M,6.21,M,FEW,BKN,M,M,2700.00,6000.00,M,M,M,YBBN 090700Z 06011KT 9999 FEW027 BKN060 24/17 Q1024 NOSIG
YBBN,2010-11-09 07:30,153.1292,-27.3917,73.40,62.60,68.94,60.00,9.00,M,30.24,M,6.21,M,FEW,BKN,BKN,M,2700.00,6000.00,27000.00,M,M,YBBN 090730Z 06009KT 9999 FEW027 BKN060 BKN270 23/17 Q1024 NOSIG
YBBN,2010-11-09 08:00,153.1292,-27.3917,73.40,62.60,68.94,70.00,8.00,M,30.24,M,6.21,M,SCT,BKN,BKN,M,2700.00,6000.00,27000.00,M,M,YBBN 090800Z 07008KT 9999 SCT027 BKN060 BKN270 23/17 Q1024 NOSIG
YBBN,2010-11-09 08:30,153.1292,-27.3917,73.40,64.40,73.44,70.00,9.00,M,30.24,M,6.21,M,BKN,SCT,M,M,2200.00,5700.00,M,M,VCSH,YBBN 090830Z 07009KT 9999 VCSH BKN022 SCT057 23/18 Q1024 RMK SH TO NE AND E NOSIG
YBBN,2010-11-09 10:00,153.1292,-27.3917,68.00,64.40,88.26,60.00,7.00,M,30.27,M,6.21,M,FEW,SCT,BKN,M,3000.00,4000.00,10000.00,M,VCSH,YBBN 091000Z 06007KT 9999 VCSH FEW030 SCT040 BKN100 20/18 Q1025 NOSIG
YBBN,2010-11-09 10:30,153.1292,-27.3917,68.00,64.40,88.26,70.00,4.00,M,30.27,M,6.21,M,FEW,SCT,M,M,2500.00,10000.00,M,M,M,YBBN 091030Z 07004KT 9999 FEW025 SCT100 20/18 Q1025 NOSIG
YBBN,2010-11-09 11:00,153.1292,-27.3917,68.00,64.40,88.26,0.00,0.00,M,30.27,M,6.21,M,BKN,BKN,M,M,2400.00,10000.00,M,M,M,YBBN 091100Z 00000KT 9999 BKN024 BKN100 20/18 Q1025 NOSIG
YBBN,2010-11-09 11:30,153.1292,-27.3917,68.00,66.20,93.97,70.00,5.00,M,30.27,M,6.21,M,FEW,SCT,BKN,M,1200.00,2400.00,10000.00,M,-SHRA,YBBN 091130Z 07005KT 9999 -SHRA FEW012 SCT024 BKN100 20/19 Q1025 NOSIG
YBBN,2010-11-09 12:00,153.1292,-27.3917,71.60,64.40,78.04,70.00,8.00,M,30.27,M,6.21,M,BKN,BKN,M,M,2400.00,10000.00,M,M,M,YBBN 091200Z 07008KT 9999 BKN024 BKN100 22/18 Q1025 NOSIG
YBBN,2010-11-09 12:30,153.1292,-27.3917,71.60,62.60,73.27,70.00,7.00,M,30.27,M,6.21,M,FEW,SCT,BKN,M,1200.00,2200.00,10000.00,M,VCSH,YBBN 091230Z 07007KT 9999 VCSH FEW012 SCT022 BKN100 22/17 Q1025 NOSIG
YBBN,2010-11-09 13:00,153.1292,-27.3917,71.60,62.60,73.27,60.00,7.00,M,30.24,M,6.21,M,FEW,SCT,BKN,M,1200.00,2200.00,3800.00,M,VCSH,YBBN 091300Z 06007KT 9999 VCSH FEW012 SCT022 BKN038 22/17 Q1024 NOSIG
YBBN,2010-11-09 13:30,153.1292,-27.3917,71.60,62.60,73.27,60.00,9.00,M,30.24,M,5.59,M,FEW,SCT,BKN,M,1200.00,2200.00,4200.00,M,-SHRA,YBBN 091330Z 06009KT 9000 -SHRA FEW012 SCT022 BKN042 22/17 Q1024 NOSIG
YBBN,2010-11-09 14:00,153.1292,-27.3917,71.60,62.60,73.27,60.00,8.00,M,30.24,M,5.59,M,FEW,SCT,BKN,M,1200.00,2200.00,4200.00,M,-SHRA,YBBN 091400Z 06008KT 9000 -SHRA FEW012 SCT022 BKN042 22/17 Q1024 NOSIG
YBBN,2010-11-09 14:30,153.1292,-27.3917,69.80,64.40,82.98,70.00,6.00,M,30.24,M,4.97,M,FEW,SCT,BKN,M,1200.00,2200.00,4200.00,M,SHRA,YBBN 091430Z 07006KT 8000 SHRA FEW012 SCT022 BKN042 21/18 Q1024 NOSIG
YBBN,2010-11-09 15:00,153.1292,-27.3917,69.80,62.60,77.90,70.00,8.00,M,30.21,M,6.21,M,FEW,SCT,M,M,1200.00,2200.00,M,M,VCSH,YBBN 091500Z 07008KT 9999 VCSH FEW012 SCT022 21/17 Q1023 NOSIG
YBBN,2010-11-09 15:30,153.1292,-27.3917,69.80,62.60,77.90,70.00,8.00,M,30.21,M,6.21,M,FEW,SCT,M,M,1200.00,2200.00,M,M,VCSH,YBBN 091530Z 07008KT 9999 VCSH FEW012 SCT022 21/17 Q1023 NOSIG
YBBN,2010-11-09 16:00,153.1292,-27.3917,69.80,62.60,77.90,90.00,5.00,M,30.21,M,6.21,M,FEW,SCT,M,M,1200.00,2200.00,M,M,M,YBBN 091600Z 09005KT 9999 FEW012 SCT022 21/17 Q1023 NOSIG
YBBN,2010-11-09 16:30,153.1292,-27.3917,69.80,62.60,77.90,110.00,5.00,M,30.21,M,6.21,M,FEW,M,M,M,1200.00,M,M,M,M,YBBN 091630Z 11005KT 9999 FEW012 21/17 Q1023 NOSIG
YBBN,2010-11-09 17:00,153.1292,-27.3917,69.80,60.80,73.09,80.00,5.00,M,30.21,M,6.21,M,FEW,SCT,M,M,1200.00,3000.00,M,M,M,YBBN 091700Z 08005KT 9999 FEW012 SCT030 21/16 Q1023 NOSIG
YBBN,2010-11-09 17:30,153.1292,-27.3917,69.80,62.60,77.90,80.00,4.00,M,30.21,M,6.21,M,FEW,SCT,M,M,1200.00,24000.00,M,M,M,YBBN 091730Z 08004KT 9999 FEW012 SCT240 21/17 Q1023 NOSIG
YBBN,2010-11-09 18:00,153.1292,-27.3917,68.00,62.60,82.86,70.00,4.00,M,30.21,M,6.21,M,FEW,SCT,M,M,2400.00,24000.00,M,M,M,YBBN 091800Z 07004KT 9999 FEW024 SCT240 20/17 Q1023 NOSIG
YBBN,2010-11-09 18:30,153.1292,-27.3917,66.20,62.60,88.18,90.00,4.00,M,30.21,M,6.21,M,FEW,SCT,M,M,2400.00,35000.00,M,M,-SHRA,YBBN 091830Z 09004KT 9999 -SHRA FEW024 SCT350 19/17 Q1023 NOSIG
YBBN,2010-11-09 19:00,153.1292,-27.3917,64.40,62.60,93.88,100.00,1.00,M,30.21,M,6.21,M,FEW,SCT,M,M,2200.00,35000.00,M,M,M,YBBN 091900Z 10001KT 9999 FEW022 SCT350 18/17 Q1023 NOSIG
YBBN,2010-11-09 19:30,153.1292,-27.3917,64.40,62.60,93.88,90.00,3.00,M,30.21,M,6.21,M,FEW,SCT,M,M,2200.00,35000.00,M,M,M,YBBN 091930Z 09003KT 9999 FEW022 SCT350 18/17 Q1023 NOSIG
YBBN,2010-11-09 20:00,153.1292,-27.3917,68.00,64.40,88.26,10.00,4.00,M,30.21,M,6.21,M,FEW,SCT,M,M,2200.00,35000.00,M,M,M,YBBN 092000Z 01004KT 9999 FEW022 SCT350 20/18 Q1023 NOSIG
YBBN,2010-11-09 20:30,153.1292,-27.3917,69.80,64.40,82.98,60.00,7.00,M,30.21,M,6.21,M,FEW,SCT,M,M,2900.00,35000.00,M,M,M,YBBN 092030Z 06007KT 9999 FEW029 SCT350 21/18 Q1023 NOSIG
YBBN,2010-11-09 21:00,153.1292,-27.3917,73.40,60.80,64.69,60.00,8.00,M,30.24,M,6.21,M,SCT,SCT,M,M,2900.00,35000.00,M,M,M,YBBN 092100Z 06008KT 9999 SCT029 SCT350 23/16 Q1024 NOSIG
YBBN,2010-11-09 21:30,153.1292,-27.3917,73.40,62.60,68.94,60.00,8.00,M,30.24,M,6.21,M,SCT,SCT,M,M,2900.00,35000.00,M,M,M,YBBN 092130Z 06008KT 9999 SCT029 SCT350 23/17 Q1024 NOSIG
YBBN,2010-11-09 22:00,153.1292,-27.3917,75.20,62.60,64.91,50.00,8.00,M,30.24,M,6.21,M,SCT,SCT,M,M,2900.00,35000.00,M,M,M,YBBN 092200Z 05008KT 9999 SCT029 SCT350 24/17 Q1024 NOSIG
YBBN,2010-11-09 22:30,153.1292,-27.3917,75.20,60.80,60.90,40.00,9.00,M,30.24,M,6.21,M,SCT,SCT,M,M,3000.00,35000.00,M,M,M,YBBN 092230Z 04009KT 9999 SCT030 SCT350 24/16 Q1024 NOSIG
YBBN,2010-11-09 23:00,153.1292,-27.3917,75.20,60.80,60.90,70.00,8.00,M,30.21,M,6.21,M,FEW,SCT,M,M,3000.00,35000.00,M,M,M,YBBN 092300Z 07008KT 9999 FEW030 SCT350 24/16 Q1023 NOSIG
YBBN,2010-11-09 23:30,153.1292,-27.3917,77.00,60.80,57.36,50.00,8.00,M,30.21,M,6.21,M,FEW,M,M,M,3500.00,M,M,M,M,YBBN 092330Z 05008KT 9999 FEW035 25/16 Q1023 NOSIG
