#DEBUG: Format Typ    -> comma
#DEBUG: Time Period   -> 2011-10-28 00:00:00+00:00 2011-10-29 00:00:00+00:00
#DEBUG: Time Zone     -> Etc/UTC
#DEBUG: Data Contact   -> daryl herzmann akrherz@iastate.edu 515-294-5978
#DEBUG: Entries Found -> -1
station,valid,lon,lat,tmpf, dwpf, relh, drct, sknt, p01i, alti, mslp, vsby, gust, skyc1, skyc2, skyc3, skyc4, skyl1, skyl2, skyl3, skyl4, presentwx, metar
YBBN,2011-10-28 00:00,153.1292,-27.3917,71.60,59.00,64.48,120.00,9.00,M,30.06,M,6.21,M,SCT,BKN,M,M,3000.00,4000.00,M,M,M,YBBN 280000Z 12009KT 9999 SCT030 BKN040 22/15 Q1018 NOSIG
YBBN,2011-10-28 00:30,153.1292,-27.3917,73.40,57.20,56.88,130.00,10.00,M,30.06,M,6.21,M,FEW,BKN,M,M,3000.00,4000.00,M,M,M,YBBN 280030Z 13010KT 9999 FEW030 BKN040 23/14 Q1018
YBBN,2011-10-28 01:00,153.1292,-27.3917,73.40,59.00,60.67,110.00,9.00,M,30.06,M,6.21,M,FEW,BKN,M,M,3500.00,4000.00,M,M,M,YBBN 280100Z 11009KT 9999 FEW035 BKN040 23/15 Q1018 NOSIG
YBBN,2011-10-28 01:30,153.1292,-27.3917,75.20,59.00,57.12,130.00,10.00,M,30.06,M,6.21,M,FEW,BKN,M,M,3500.00,4000.00,M,M,M,YBBN 280130Z 13010KT 9999 FEW035 BKN040 24/15 Q1018
YBBN,2011-10-28 02:00,153.1292,-27.3917,75.20,59.00,57.12,130.00,10.00,M,30.06,M,6.21,M,FEW,BKN,M,M,4000.00,5000.00,M,M,M,YBBN 280200Z 13010KT 9999 FEW040 BKN050 24/15 Q1018 NOSIG
YBBN,2011-10-28 02:30,153.1292,-27.3917,73.40,59.00,60.67,130.00,9.00,M,30.03,M,6.21,M,SCT,BKN,M,M,3500.00,5000.00,M,M,M,YBBN 280230Z 13009KT 9999 SCT035 BKN050 23/15 Q1017
YBBN,2011-10-28 03:00,153.1292,-27.3917,73.40,59.00,60.67,120.00,10.00,M,30.03,M,6.21,M,SCT,BKN,M,M,3500.00,5000.00,M,M,M,YBBN 280300Z 12010KT 9999 SCT035 BKN050 23/15 Q1017 NOSIG
YBBN,2011-10-28 03:30,153.1292,-27.3917,73.40,59.00,60.67,120.00,9.00,M,30.03,M,6.21,M,SCT,BKN,M,M,3500.00,5000.00,M,M,M,YBBN 280330Z 12009KT 9999 SCT035 BKN050 23/15 Q1017
YBBN,2011-10-28 04:00,153.1292,-27.3917,73.40,59.00,60.67,120.00,9.00,M,30.00,M,6.21,M,SCT,BKN,M,M,3500.00,5000.00,M,M,M,YBBN 280400Z 12009KT 9999 SCT035 BKN050 23/15 Q1016 NOSIG
YBBN,2011-10-28 04:30,153.1292,-27.3917,73.40,59.00,60.67,120.00,10.00,M,30.00,M,6.21,M,FEW,BKN,M,M,3500.00,5500.00,M,M,M,YBBN 280430Z 12010KT 9999 FEW035 BKN055 23/15 Q1016
YBBN,2011-10-28 05:00,153.1292,-27.3917,71.60,59.00,64.48,130.00,8.00,M,30.00,M,6.21,M,FEW,BKN,M,M,4000.00,5500.00,M,M,M,YBBN 280500Z 13008KT 9999 FEW040 BKN055 22/15 Q1016 NOSIG
YBBN,2011-10-28 05:30,153.1292,-27.3917,71.60,59.00,64.48,90.00,8.00,M,30.00,M,6.21,M,SCT,BKN,M,M,4000.00,5500.00,M,M,M,YBBN 280530Z 09008KT 9999 SCT040 BKN055 22/15 Q1016
YBBN,2011-10-28 06:00,153.1292,-27.3917,71.60,60.80,68.75,100.00,7.00,M,30.00,M,6.21,M,SCT,BKN,M,M,2500.00,5500.00,M,M,M,YBBN 280600Z 10007KT 9999 SCT025 BKN055 22/16 Q1016 NOSIG
YBBN,2011-10-28 06:30,153.1292,-27.3917,71.60,60.80,68.75,100.00,6.00,M,30.00,M,6.21,M,FEW,BKN,M,M,2500.00,5000.00,M,M,M,YBBN 280630Z 10006KT 9999 FEW025 BKN050 22/16 Q1016
YBBN,2011-10-28 07:00,153.1292,-27.3917,69.80,60.80,73.09,100.00,7.00,M,30.00,M,6.21,M,FEW,SCT,M,M,2000.00,5000.00,M,M,M,YBBN 280700Z 10007KT 9999 FEW020 SCT050 21/16 Q1016 NOSIG
YBBN,2011-10-28 07:30,153.1292,-27.3917,69.80,60.80,73.09,100.00,6.00,M,30.00,M,6.21,M,SCT,SCT,M,M,2200.00,5000.00,M,M,M,YBBN 280730Z 10006KT 9999 SCT022 SCT050 21/16 Q1016
YBBN,2011-10-28 08:00,153.1292,-27.3917,69.80,60.80,73.09,100.00,6.00,M,30.03,M,6.21,M,SCT,BKN,BKN,M,2200.00,4000.00,24000.00,M,M,YBBN 280800Z 10006KT 9999 SCT022 BKN040 BKN240 21/16 Q1017 NOSIG
YBBN,2011-10-28 08:30,153.1292,-27.3917,69.80,60.80,73.09,90.00,6.00,M,30.03,M,6.21,M,FEW,SCT,BKN,M,2000.00,2200.00,5000.00,M,M,YBBN 280830Z 09006KT 9999 FEW020 SCT022 BKN050 21/16 Q1017
YBBN,2011-10-28 09:00,153.1292,-27.3917,69.80,60.80,73.09,90.00,6.00,M,30.03,M,6.21,M,FEW,BKN,BKN,M,2000.00,3500.00,24000.00,M,M,YBBN 280900Z 09006KT 9999 FEW020 BKN035 BKN240 21/16 Q1017 NOSIG
YBBN,2011-10-28 09:30,153.1292,-27.3917,69.80,59.00,68.55,90.00,6.00,M,30.03,M,6.21,M,FEW,BKN,M,M,1500.00,3200.00,M,M,M,YBBN 280930Z 09006KT 9999 FEW015 BKN032 21/15 Q1017
YBBN,2011-10-28 10:00,153.1292,-27.3917,69.80,60.80,73.09,70.00,6.00,M,30.06,M,6.21,M,FEW,BKN,M,M,2200.00,3200.00,M,M,-DZ,YBBN 281000Z 07006KT 9999 -DZ FEW022 BKN032 21/16 Q1018 NOSIG
YBBN,2011-10-28 10:30,153.1292,-27.3917,69.80,60.80,73.09,70.00,5.00,M,30.06,M,6.21,M,FEW,BKN,M,M,2100.00,3000.00,M,M,M,YBBN 281030Z 07005KT 9999 FEW021 BKN030 21/16 Q1018
YBBN,2011-10-28 11:00,153.1292,-27.3917,69.80,60.80,73.09,60.00,6.00,M,30.06,M,6.21,M,FEW,BKN,M,M,2100.00,3000.00,M,M,M,YBBN 281100Z 06006KT 9999 FEW021 BKN030 21/16 Q1018 NOSIG
YBBN,2011-10-28 11:30,153.1292,-27.3917,69.80,60.80,73.09,60.00,5.00,M,30.06,M,6.21,M,FEW,BKN,M,M,2100.00,2800.00,M,M,M,YBBN 281130Z 06005KT 9999 FEW021 BKN028 21/16 Q1018
YBBN,2011-10-28 12:00,153.1292,-27.3917,69.80,60.80,73.09,60.00,5.00,M,30.06,M,6.21,M,FEW,BKN,M,M,2100.00,2900.00,M,M,M,YBBN 281200Z 06005KT 9999 FEW021 BKN029 21/16 Q1018 NOSIG
YBBN,2011-10-28 12:30,153.1292,-27.3917,69.80,60.80,73.09,50.00,6.00,M,30.03,M,6.21,M,FEW,SCT,BKN,M,2100.00,2900.00,3800.00,M,M,YBBN 281230Z 05006KT 9999 FEW021 SCT029 BKN038 21/16 Q1017
YBBN,2011-10-28 13:00,153.1292,-27.3917,68.00,60.80,77.75,50.00,6.00,M,30.03,M,6.21,M,FEW,BKN,M,M,2200.00,3600.00,M,M,M,YBBN 281300Z 05006KT 9999 FEW022 BKN036 20/16 Q1017 NOSIG
YBBN,2011-10-28 13:30,153.1292,-27.3917,66.20,60.80,82.74,40.00,6.00,M,30.03,M,6.21,M,FEW,BKN,M,M,2200.00,3500.00,M,M,M,YBBN 281330Z 04006KT 9999 FEW022 BKN035 19/16 Q1017
YBBN,2011-10-28 14:00,153.1292,-27.3917,66.20,60.80,82.74,40.00,6.00,M,30.00,M,6.21,M,FEW,SCT,M,M,2000.00,3400.00,M,M,M,YBBN 281400Z 04006KT 9999 FEW020 SCT034 19/16 Q1016 NOSIG
YBBN,2011-10-28 14:30,153.1292,-27.3917,68.00,60.80,77.75,40.00,5.00,M,30.00,M,6.21,M,FEW,BKN,M,M,2000.00,3400.00,M,M,M,YBBN 281430Z 04005KT 9999 FEW020 BKN034 20/16 Q1016
YBBN,2011-10-28 15:00,153.1292,-27.3917,68.00,60.80,77.75,30.00,6.00,M,30.00,M,6.21,M,FEW,BKN,M,M,2000.00,3400.00,M,M,M,YBBN 281500Z 03006KT 9999 FEW020 BKN034 20/16 Q1016 NOSIG
YBBN,2011-10-28 15:30,153.1292,-27.3917,68.00,60.80,77.75,20.00,6.00,M,29.97,M,6.21,M,FEW,BKN,M,M,2100.00,3400.00,M,M,M,YBBN 281530Z 02006KT 9999 FEW021 BKN034 20/16 Q1015
YBBN,2011-10-28 16:00,153.1292,-27.3917,68.00,60.80,77.75,10.00,6.00,M,29.97,M,6.21,M,FEW,BKN,M,M,2100.00,3200.00,M,M,M,YBBN 281600Z 01006KT 9999 FEW021 BKN032 20/16 Q1015 NOSIG
YBBN,2011-10-28 16:30,153.1292,-27.3917,68.00,60.80,77.75,360.00,6.00,M,29.97,M,6.21,M,FEW,BKN,M,M,2100.00,2900.00,M,M,M,YBBN 281630Z 36006KT 9999 FEW021 BKN029 20/16 Q1015
YBBN,2011-10-28 17:00,153.1292,-27.3917,68.00,62.60,82.86,320.00,7.00,M,29.97,M,6.21,M,FEW,BKN,M,M,2100.00,3100.00,M,M,M,YBBN 281700Z 32007KT 9999 FEW021 BKN031 20/17 Q1015 NOSIG
YBBN,2011-10-28 17:30,153.1292,-27.3917,68.00,60.80,77.75,310.00,6.00,M,29.97,M,6.21,M,FEW,BKN,M,M,2100.00,3100.00,M,M,M,YBBN 281730Z 31006KT 9999 FEW021 BKN031 20/16 Q1015
YBBN,2011-10-28 18:00,153.1292,-27.3917,68.00,60.80,77.75,310.00,4.00,M,29.97,M,6.21,M,BKN,M,M,M,3000.00,M,M,M,M,YBBN 281800Z 31004KT 9999 BKN030 20/16 Q1015 NOSIG
YBBN,2011-10-28 18:30,153.1292,-27.3917,68.00,60.80,77.75,300.00,5.00,M,29.97,M,6.21,M,BKN,M,M,M,3000.00,M,M,M,M,YBBN 281830Z 30005KT 9999 BKN030 20/16 Q1015
YBBN,2011-10-28 19:00,153.1292,-27.3917,68.00,59.00,72.92,310.00,6.00,M,29.97,M,6.21,M,FEW,BKN,M,M,2000.00,3000.00,M,M,M,YBBN 281900Z 31006KT 9999 FEW020 BKN030 20/15 Q1015 NOSIG
YBBN,2011-10-28 19:30,153.1292,-27.3917,68.00,60.80,77.75,300.00,5.00,M,29.97,M,6.21,M,FEW,BKN,M,M,2000.00,2900.00,M,M,M,YBBN 281930Z 30005KT 9999 FEW020 BKN029 20/16 Q1015
YBBN,2011-10-28 20:00,153.1292,-27.3917,68.00,60.80,77.75,320.00,6.00,M,29.97,M,6.21,M,FEW,BKN,M,M,2000.00,3000.00,M,M,M,YBBN 282000Z 32006KT 9999 FEW020 BKN030 20/16 Q1015 NOSIG
YBBN,2011-10-28 20:30,153.1292,-27.3917,68.00,60.80,77.75,310.00,5.00,M,29.97,M,6.21,M,FEW,BKN,M,M,2000.00,3000.00,M,M,M,YBBN 282030Z 31005KT 9999 FEW020 BKN030 20/16 Q1015
YBBN,2011-10-28 21:00,153.1292,-27.3917,69.80,60.80,73.09,310.00,7.00,M,29.97,M,6.21,M,FEW,BKN,M,M,2000.00,3000.00,M,M,M,YBBN 282100Z 31007KT 9999 FEW020 BKN030 21/16 Q1015 NOSIG
YBBN,2011-10-28 21:30,153.1292,-27.3917,69.80,60.80,73.09,310.00,6.00,M,30.00,M,6.21,M,FEW,BKN,M,M,2000.00,3000.00,M,M,M,YBBN 282130Z 31006KT 9999 FEW020 BKN030 21/16 Q1016
YBBN,2011-10-28 22:00,153.1292,-27.3917,71.60,59.00,64.48,320.00,7.00,M,30.00,M,6.21,M,FEW,BKN,M,M,2500.00,3000.00,M,M,M,YBBN 282200Z 32007KT 9999 FEW025 BKN030 22/15 Q1016 NOSIG
YBBN,2011-10-28 22:30,153.1292,-27.3917,71.60,59.00,64.48,340.00,6.00,M,30.00,M,6.21,M,FEW,BKN,M,M,2500.00,3000.00,M,M,M,YBBN 282230Z 34006KT 9999 FEW025 BKN030 22/15 Q1016
YBBN,2011-10-28 23:00,153.1292,-27.3917,71.60,59.00,64.48,360.00,7.00,M,30.00,M,6.21,M,FEW,BKN,M,M,2500.00,2800.00,M,M,M,YBBN 282300Z 36007KT 9999 FEW025 BKN028 22/15 Q1016 NOSIG
YBBN,2011-10-28 23:30,153.1292,-27.3917,71.60,59.00,64.48,10.00,6.00,M,30.00,M,6.21,M,FEW,BKN,M,M,2500.00,2800.00,M,M,M,YBBN 282330Z 01006KT 9999 FEW025 BKN028 22/15 Q1016
