#DEBUG: Format Typ    -> comma
#DEBUG: Time Period   -> 2010-09-03 00:00:00+00:00 2010-09-04 00:00:00+00:00
#DEBUG: Time Zone     -> Etc/UTC
#DEBUG: Data Contact   -> daryl herzmann akrherz@iastate.edu 515-294-5978
#DEBUG: Entries Found -> -1
station,valid,lon,lat,tmpf, dwpf, relh, drct, sknt, p01i, alti, mslp, vsby, gust, skyc1, skyc2, skyc3, skyc4, skyl1, skyl2, skyl3, skyl4, presentwx, metar
YBBN,2010-09-03 00:00,153.1292,-27.3917,77.00,57.20,50.43,110.00,7.00,M,30.12,M,4.97,M,FEW,M,M,M,9000.00,M,M,M,M,YBBN 030000Z 11007KT 8000 FEW090 25/14 Q1020 RMK SMOKE NOSIG
YBBN,2010-09-03 00:30,153.1292,-27.3917,77.00,59.00,53.80,120.00,7.00,M,30.12,M,4.97,M,FEW,M,M,M,8500.00,M,M,M,M,YBBN 030030Z 12007KT 8000 FEW085 25/15 Q1020 RMK SMOKE NOSIG
YBBN,2010-09-03 01:00,153.1292,-27.3917,77.00,62.60,61.13,150.00,10.00,M,30.12,M,6.21,M,FEW,M,M,M,3500.00,M,M,M,M,YBBN 030100Z 15010KT 9999 FEW035 25/17 Q1020 RMK SMOKE NOSIG
YBBN,2010-09-03 01:30,153.1292,-27.3917,75.20,66.20,73.61,120.00,13.00,M,30.12,M,6.21,M,FEW,M,M,M,3800.00,M,M,M,M,YBBN 030130Z 12013KT 9999 FEW038 24/19 Q1020 RMK SMOKE NOSIG
YBBN,2010-09-03 02:00,153.1292,-27.3917,77.00,66.20,69.33,120.00,11.00,M,30.09,M,6.21,M,SCT,M,M,M,2400.00,M,M,M,M,YBBN 030200Z 12011KT 9999 SCT024 25/19 Q1019 RMK SMOKE NOSIG
YBBN,2010-09-03 02:30,153.1292,-27.3917,77.00,62.60,61.13,120.00,13.00,M,30.09,M,6.21,M,FEW,FEW,M,M,2500.00,2500.00,M,M,M,YBBN 030230Z 12013KT 9999 FEW025 FEW025TCU 25/17 Q1019 RMK SMOKE NOSIG
YBBN,2010-09-03 03:00,153.1292,-27.3917,77.00,62.60,61.13,130.00,13.00,M,30.09,M,6.21,M,FEW,FEW,M,M,2800.00,2800.00,M,M,M,YBBN 030300Z 13013KT 9999 FEW028 FEW028TCU 25/17 Q1019 RMK SMOKE NOSIG
YBBN,2010-09-03 03:30,153.1292,-27.3917,75.20,62.60,64.91,120.00,14.00,M,30.06,M,6.21,M,FEW,FEW,M,M,3000.00,3000.00,M,M,M,YBBN 030330Z 12014KT 9999 FEW030 FEW030TCU 24/17 Q1018 RMK SMOKE NOSIG
YBBN,2010-09-03 04:00,153.1292,-27.3917,75.20,62.60,64.91,120.00,14.00,M,30.06,M,6.21,M,FEW,FEW,M,M,3200.00,3200.00,M,M,M,YBBN 030400Z 12014KT 9999 FEW032 FEW032TCU 24/17 Q1018 NOSIG
YBBN,2010-09-03 04:30,153.1292,-27.3917,75.20,64.40,69.14,120.00,11.00,M,30.06,M,6.21,M,FEW,M,M,M,3500.00,M,M,M,M,YBBN 030430Z 12011KT 9999 FEW035 24/18 Q1018 NOSIG
YBBN,2010-09-03 05:00,153.1292,-27.3917,75.20,64.40,69.14,130.00,12.00,M,30.06,M,6.21,M,FEW,M,M,M,3800.00,M,M,M,M,YBBN 030500Z 13012KT 9999 FEW038 24/18 Q1018 NOSIG
YBBN,2010-09-03 05:30,153.1292,-27.3917,73.40,64.40,73.44,130.00,11.00,M,30.09,M,6.21,M,SCT,M,M,M,3800.00,M,M,M,M,YBBN 030530Z 13011KT 9999 SCT038 23/18 Q1019 NOSIG
YBBN,2010-09-03 06:00,153.1292,-27.3917,73.40,62.60,68.94,130.00,12.00,M,30.09,M,6.21,M,FEW,M,M,M,3800.00,M,M,M,M,YBBN 030600Z 13012KT 9999 FEW038 23/17 Q1019 NOSIG
YBBN,2010-09-03 06:30,153.1292,-27.3917,71.60,64.40,78.04,120.00,9.00,M,30.09,M,6.21,M,FEW,M,M,M,4000.00,M,M,M,M,YBBN 030630Z 12009KT 9999 FEW040 22/18 Q1019 NOSIG
YBBN,2010-09-03 07:00,153.1292,-27.3917,71.60,64.40,78.04,130.00,9.00,M,30.09,M,6.21,M,SCT,M,M,M,3000.00,M,M,M,M,YBBN 030700Z 13009KT 9999 SCT030 22/18 Q1019 NOSIG
YBBN,2010-09-03 07:30,153.1292,-27.3917,69.80,64.40,82.98,130.00,8.00,M,30.12,M,6.21,M,FEW,M,M,M,3000.00,M,M,M,M,YBBN 030730Z 13008KT 9999 FEW030 21/18 Q1020 NOSIG
YBBN,2010-09-03 08:00,153.1292,-27.3917,69.80,64.40,82.98,130.00,8.00,M,30.12,M,6.21,M,FEW,M,M,M,3500.00,M,M,M,M,YBBN 030800Z 13008KT 9999 FEW035 21/18 Q1020 NOSIG
YBBN,2010-09-03 08:30,153.1292,-27.3917,69.80,64.40,82.98,120.00,7.00,M,30.12,M,6.21,M,FEW,M,M,M,2500.00,M,M,M,M,YBBN 030830Z 12007KT 9999 FEW025 21/18 Q1020 NOSIG
YBBN,2010-09-03 09:00,153.1292,-27.3917,69.80,64.40,82.98,130.00,7.00,M,30.15,M,6.21,M,FEW,M,M,M,2500.00,M,M,M,M,YBBN 030900Z 13007KT 9999 FEW025 21/18 Q1021 NOSIG
YBBN,2010-09-03 09:30,153.1292,-27.3917,69.80,64.40,82.98,130.00,7.00,M,30.15,M,6.21,M,FEW,M,M,M,2500.00,M,M,M,M,YBBN 030930Z 13007KT 9999 FEW025 21/18 Q1021 NOSIG
YBBN,2010-09-03 10:00,153.1292,-27.3917,69.80,64.40,82.98,130.00,8.00,M,30.15,M,6.21,M,FEW,BKN,M,M,2500.00,6000.00,M,M,M,YBBN 031000Z 13008KT 9999 FEW025 BKN060 21/18 Q1021 NOSIG
YBBN,2010-09-03 10:30,153.1292,-27.3917,69.80,64.40,82.98,120.00,7.00,M,30.18,M,6.21,M,M,M,M,M,M,M,M,M,M,YBBN 031030Z 12007KT CAVOK 21/18 Q1022 RMK 7SC060 NOSIG
YBBN,2010-09-03 11:00,153.1292,-27.3917,69.80,64.40,82.98,110.00,7.00,M,30.18,M,6.21,M,FEW,BKN,M,M,2500.00,6000.00,M,M,M,YBBN 031100Z 11007KT 9999 FEW025 BKN060 21/18 Q1022 NOSIG
YBBN,2010-09-03 11:30,153.1292,-27.3917,69.80,64.40,82.98,110.00,6.00,M,30.18,M,6.21,M,FEW,SCT,BKN,M,2300.00,3200.00,6000.00,M,M,YBBN 031130Z 11006KT 9999 FEW023 SCT032 BKN060 21/18 Q1022 NOSIG
YBBN,2010-09-03 12:00,153.1292,-27.3917,69.80,64.40,82.98,130.00,6.00,M,30.15,M,6.21,M,FEW,SCT,M,M,3300.00,6000.00,M,M,M,YBBN 031200Z 13006KT 9999 FEW033 SCT060 21/18 Q1021 NOSIG
YBBN,2010-09-03 12:30,153.1292,-27.3917,69.80,64.40,82.98,130.00,5.00,M,30.15,M,6.21,M,FEW,BKN,M,M,3300.00,6000.00,M,M,M,YBBN 031230Z 13005KT 9999 FEW033 BKN060 21/18 Q1021 NOSIG
YBBN,2010-09-03 13:00,153.1292,-27.3917,69.80,62.60,77.90,110.00,6.00,M,30.15,M,6.21,M,M,M,M,M,M,M,M,M,M,YBBN 031300Z 11006KT CAVOK 21/17 Q1021 NOSIG
YBBN,2010-09-03 13:30,153.1292,-27.3917,68.00,64.40,88.26,110.00,5.00,M,30.15,M,6.21,M,FEW,M,M,M,3300.00,M,M,M,M,YBBN 031330Z 11005KT 9999 FEW033 20/18 Q1021 NOSIG
YBBN,2010-09-03 14:00,153.1292,-27.3917,68.00,64.40,88.26,110.00,5.00,M,30.15,M,6.21,M,FEW,BKN,M,M,2500.00,3400.00,M,M,M,YBBN 031400Z 11005KT 9999 FEW025 BKN034 20/18 Q1021 NOSIG
YBBN,2010-09-03 14:30,153.1292,-27.3917,69.80,64.40,82.98,120.00,5.00,M,30.12,M,6.21,M,SCT,BKN,M,M,1800.00,2500.00,M,M,M,YBBN 031430Z 12005KT 9999 SCT018 BKN025 21/18 Q1020 NOSIG
YBBN,2010-09-03 15:00,153.1292,-27.3917,68.00,64.40,88.26,130.00,5.00,M,30.12,M,6.21,M,FEW,SCT,M,M,1800.00,2500.00,M,M,M,YBBN 031500Z 13005KT 9999 FEW018 SCT025 20/18 Q1020 NOSIG
YBBN,2010-09-03 15:30,153.1292,-27.3917,68.00,64.40,88.26,130.00,4.00,M,30.12,M,6.21,M,FEW,SCT,M,M,1800.00,2500.00,M,M,M,YBBN 031530Z 13004KT 9999 FEW018 SCT025 20/18 Q1020 NOSIG
YBBN,2010-09-03 16:00,153.1292,-27.3917,68.00,64.40,88.26,130.00,4.00,M,30.12,M,6.21,M,FEW,BKN,M,M,1600.00,6000.00,M,M,M,YBBN 031600Z 13004KT 9999 FEW016 BKN060 20/18 Q1020 NOSIG
YBBN,2010-09-03 16:30,153.1292,-27.3917,68.00,64.40,88.26,100.00,5.00,M,30.09,M,6.21,M,FEW,BKN,M,M,1600.00,4000.00,M,M,M,YBBN 031630Z 10005KT 9999 FEW016 BKN040 20/18 Q1019 NOSIG
YBBN,2010-09-03 17:00,153.1292,-27.3917,68.00,64.40,88.26,110.00,5.00,M,30.09,M,6.21,M,FEW,BKN,M,M,1600.00,4000.00,M,M,M,YBBN 031700Z 11005KT 9999 FEW016 BKN040 20/18 Q1019 NOSIG
YBBN,2010-09-03 17:30,153.1292,-27.3917,68.00,66.20,93.97,90.00,5.00,M,30.06,M,6.21,M,FEW,BKN,M,M,1600.00,4400.00,M,M,M,YBBN 031730Z 09005KT 9999 FEW016 BKN044 20/19 Q1018 NOSIG
YBBN,2010-09-03 18:00,153.1292,-27.3917,69.80,66.20,88.34,60.00,8.00,M,30.06,M,6.21,M,FEW,SCT,M,M,1600.00,4500.00,M,M,M,YBBN 031800Z 06008KT 9999 FEW016 SCT045 21/19 Q1018 NOSIG
YBBN,2010-09-03 18:30,153.1292,-27.3917,68.00,64.40,88.26,30.00,8.00,M,30.06,M,6.21,M,FEW,SCT,M,M,1600.00,6000.00,M,M,M,YBBN 031830Z 03008KT 9999 FEW016 SCT060 20/18 Q1018 NOSIG
YBBN,2010-09-03 19:00,153.1292,-27.3917,68.00,64.40,88.26,30.00,7.00,M,30.09,M,6.21,M,FEW,SCT,BKN,M,1600.00,3500.00,6000.00,M,M,YBBN 031900Z 03007KT 9999 FEW016 SCT035 BKN060 20/18 Q1019 NOSIG
YBBN,2010-09-03 19:30,153.1292,-27.3917,68.00,64.40,88.26,20.00,7.00,M,30.09,M,6.21,M,FEW,BKN,M,M,2500.00,4000.00,M,M,M,YBBN 031930Z 02007KT 9999 FEW025 BKN040 20/18 Q1019 NOSIG
YBBN,2010-09-03 20:00,153.1292,-27.3917,68.00,66.20,93.97,10.00,6.00,M,30.09,M,6.21,M,FEW,SCT,BKN,M,2000.00,3000.00,4500.00,M,M,YBBN 032000Z 01006KT 9999 FEW020 SCT030 BKN045 20/19 Q1019 NOSIG
YBBN,2010-09-03 20:30,153.1292,-27.3917,66.20,64.40,93.92,10.00,6.00,M,30.12,M,6.21,M,FEW,M,M,M,2000.00,M,M,M,M,YBBN 032030Z 01006KT 9999 FEW020 19/18 Q1020 NOSIG
YBBN,2010-09-03 21:00,153.1292,-27.3917,68.00,66.20,93.97,350.00,5.00,M,30.12,M,6.21,M,FEW,M,M,M,3000.00,M,M,M,M,YBBN 032100Z 35005KT 9999 FEW030 20/19 Q1020 NOSIG
YBBN,2010-09-03 21:30,153.1292,-27.3917,69.80,66.20,88.34,350.00,6.00,M,30.12,M,6.21,M,FEW,M,M,M,2500.00,M,M,M,M,YBBN 032130Z 35006KT 9999 FEW025 21/19 Q1020 NOSIG
YBBN,2010-09-03 22:00,153.1292,-27.3917,71.60,64.40,78.04,360.00,6.00,M,30.12,M,6.21,M,FEW,M,M,M,2500.00,M,M,M,M,YBBN 032200Z 36006KT 9999 FEW025 22/18 Q1020 NOSIG
YBBN,2010-09-03 22:30,153.1292,-27.3917,71.60,66.20,83.09,10.00,7.00,M,30.15,M,6.21,M,FEW,M,M,M,2500.00,M,M,M,M,YBBN 032230Z 01007KT 9999 FEW025 22/19 Q1021 NOSIG
YBBN,2010-09-03 23:00,153.1292,-27.3917,73.40,64.40,73.44,20.00,9.00,M,30.15,M,6.21,M,FEW,M,M,M,2500.00,M,M,M,M,YBBN 032300Z 02009KT 9999 FEW025 23/18 Q1021 NOSIG
YBBN,2010-09-03 23:30,153.1292,-27.3917,73.40,64.40,73.44,20.00,11.00,M,30.15,M,6.21,M,FEW,M,M,M,2800.00,M,M,M,M,YBBN 032330Z 02011KT 9999 FEW028 23/18 Q1021 NOSIG
