#DEBUG: Format Typ    -> comma
#DEBUG: Time Period   -> 2012-02-18 00:00:00+00:00 2012-02-19 00:00:00+00:00
#DEBUG: Time Zone     -> Etc/UTC
#DEBUG: Data Contact   -> daryl herzmann akrherz@iastate.edu 515-294-5978
#DEBUG: Entries Found -> -1
station,valid,lon,lat,tmpf, dwpf, relh, drct, sknt, p01i, alti, mslp, vsby, gust, skyc1, skyc2, skyc3, skyc4, skyl1, skyl2, skyl3, skyl4, presentwx, metar
YBBN,2012-02-18 00:00,153.1292,-27.3917,78.80,68.00,69.52,100.00,9.00,0.00,30.00,M,6.21,M,FEW,BKN,M,M,2200.00,2500.00,M,M,VCSH,YBBN 180000Z 10009KT 9999 VCSH FEW022 BKN025 26/20 Q1016 RMK SH NE
YBBN,2012-02-18 00:30,153.1292,-27.3917,78.80,69.80,73.95,110.00,9.00,0.00,30.00,M,6.21,M,FEW,BKN,M,M,2200.00,2700.00,M,M,VCSH,YBBN 180030Z 11009KT 9999 VCSH FEW022 BKN027 26/21 Q1016
YBBN,2012-02-18 01:00,153.1292,-27.3917,80.60,68.00,65.54,110.00,9.00,0.00,30.00,M,6.21,M,FEW,SCT,BKN,M,1700.00,2700.00,3400.00,M,VCSH,YBBN 180100Z 11009KT 9999 VCSH FEW017 SCT027 BKN034 27/20 Q1016 NOSIG
YBBN,2012-02-18 01:30,153.1292,-27.3917,80.60,69.80,69.71,100.00,10.00,0.00,30.00,M,6.21,M,FEW,BKN,M,M,1800.00,2800.00,M,M,VCSH,YBBN 180130Z 10010KT 9999 VCSH FEW018 BKN028 27/21 Q1016
YBBN,2012-02-18 02:00,153.1292,-27.3917,80.60,69.80,69.71,110.00,12.00,0.00,29.97,M,6.21,M,FEW,SCT,M,M,1700.00,2800.00,M,M,VCSH,YBBN 180200Z 11012KT 9999 VCSH FEW017 SCT028 27/21 Q1015
YBBN,2012-02-18 02:30,153.1292,-27.3917,80.60,69.80,69.71,120.00,10.00,0.00,29.97,M,6.21,M,FEW,SCT,BKN,M,2000.00,2800.00,4400.00,M,VCSH,YBBN 180230Z 12010KT 9999 VCSH FEW020 SCT028 BKN044 27/21 Q1015
YBBN,2012-02-18 03:00,153.1292,-27.3917,78.80,71.60,78.62,120.00,9.00,0.00,29.97,M,6.21,M,FEW,SCT,M,M,2000.00,2800.00,M,M,-SHRA VCSH,YBBN 180300Z 12009KT 9999 -SHRA VCSH FEW020 SCT028 26/22 Q1015
YBBN,2012-02-18 03:30,153.1292,-27.3917,80.60,68.00,65.54,110.00,10.00,0.00,29.97,M,6.21,M,FEW,SCT,FEW,M,2000.00,2800.00,2900.00,M,VCSH,YBBN 180330Z 11010KT 9999 VCSH FEW020 SCT028 FEW029TCU 27/20 Q1015 RMK SH E/NE
YBBN,2012-02-18 04:00,153.1292,-27.3917,82.40,69.80,65.74,90.00,9.00,0.00,29.97,M,6.21,M,FEW,SCT,BKN,M,2200.00,2800.00,6200.00,M,VCSH,YBBN 180400Z 09009KT 9999 VCSH FEW022 SCT028 BKN062 28/21 Q1015
YBBN,2012-02-18 04:30,153.1292,-27.3917,82.40,69.80,65.74,90.00,8.00,0.00,29.94,M,6.21,M,FEW,SCT,M,M,2300.00,2900.00,M,M,M,YBBN 180430Z 09008KT 9999 FEW023 SCT029 28/21 Q1014 RMK DIST SH NORTH
YBBN,2012-02-18 05:00,153.1292,-27.3917,80.60,68.00,65.54,100.00,8.00,0.00,29.94,M,6.21,M,FEW,SCT,M,M,2400.00,2900.00,M,M,M,YBBN 180500Z 10008KT 9999 FEW024 SCT029 27/20 Q1014
YBBN,2012-02-18 05:30,153.1292,-27.3917,80.60,69.80,69.71,100.00,9.00,0.00,29.94,M,6.21,M,FEW,SCT,M,M,2500.00,3200.00,M,M,M,YBBN 180530Z 10009KT 9999 FEW025 SCT032 27/21 Q1014
YBBN,2012-02-18 06:00,153.1292,-27.3917,80.60,69.80,69.71,90.00,8.00,0.00,29.94,M,6.21,M,FEW,M,M,M,2400.00,M,M,M,M,YBBN 180600Z 09008KT 9999 FEW024 27/21 Q1014 NOSIG
YBBN,2012-02-18 06:30,153.1292,-27.3917,80.60,68.00,65.54,90.00,7.00,0.00,29.94,M,6.21,M,FEW,M,M,M,2800.00,M,M,M,M,YBBN 180630Z 09007KT 9999 FEW028 27/20 Q1014
YBBN,2012-02-18 07:00,153.1292,-27.3917,80.60,69.80,69.71,80.00,8.00,0.00,29.94,M,6.21,M,FEW,M,M,M,2700.00,M,M,M,M,YBBN 180700Z 08008KT 9999 FEW027 27/21 Q1014 NOSIG
YBBN,2012-02-18 07:30,153.1292,-27.3917,78.80,68.00,69.52,90.00,7.00,0.00,29.94,M,6.21,M,FEW,SCT,M,M,2500.00,25000.00,M,M,M,YBBN 180730Z 09007KT 9999 FEW025 SCT250 26/20 Q1014
YBBN,2012-02-18 08:00,153.1292,-27.3917,78.80,69.80,73.95,80.00,5.00,0.00,29.94,M,6.21,M,FEW,SCT,M,M,2500.00,25000.00,M,M,M,YBBN 180800Z 08005KT 9999 FEW025 SCT250 26/21 Q1014
YBBN,2012-02-18 08:30,153.1292,-27.3917,78.80,69.80,73.95,90.00,5.00,0.00,29.97,M,6.21,M,FEW,SCT,M,M,2500.00,25000.00,M,M,M,YBBN 180830Z 09005KT 9999 FEW025 SCT250 26/21 Q1015
YBBN,2012-02-18 09:00,153.1292,-27.3917,77.00,71.60,83.44,110.00,5.00,0.00,29.97,M,6.21,M,FEW,SCT,M,M,2000.00,25000.00,M,M,M,YBBN 180900Z 11005KT 9999 FEW020 SCT250 25/22 Q1015 NOSIG
YBBN,2012-02-18 09:30,153.1292,-27.3917,77.00,69.80,78.48,100.00,6.00,0.00,29.97,M,6.21,M,FEW,M,M,M,2000.00,M,M,M,M,YBBN 180930Z 10006KT 9999 FEW020 25/21 Q1015
YBBN,2012-02-18 10:00,153.1292,-27.3917,77.00,71.60,83.44,90.00,6.00,0.00,29.97,M,6.21,M,FEW,M,M,M,2000.00,M,M,M,M,YBBN 181000Z 09006KT 9999 FEW020 25/22 Q1015 NOSIG
YBBN,2012-02-18 10:30,153.1292,-27.3917,77.00,69.80,78.48,90.00,5.00,0.00,30.00,M,6.21,M,FEW,M,M,M,2000.00,M,M,M,M,YBBN 181030Z 09005KT 9999 FEW020 25/21 Q1016
YBBN,2012-02-18 11:00,153.1292,-27.3917,77.00,71.60,83.44,90.00,4.00,0.00,30.00,M,6.21,M,FEW,M,M,M,2000.00,M,M,M,M,YBBN 181100Z 09004KT 9999 FEW020 25/22 Q1016 NOSIG
YBBN,2012-02-18 11:30,153.1292,-27.3917,77.00,71.60,83.44,110.00,5.00,0.00,30.00,M,6.21,M,FEW,SCT,M,M,1500.00,2000.00,M,M,M,YBBN 181130Z 11005KT 9999 FEW015 SCT020 25/22 Q1016
YBBN,2012-02-18 12:00,153.1292,-27.3917,75.20,71.60,88.59,150.00,5.00,0.00,30.00,M,6.21,M,FEW,SCT,M,M,1300.00,1900.00,M,M,M,YBBN 181200Z 15005KT 9999 FEW013 SCT019 24/22 Q1016
YBBN,2012-02-18 12:30,153.1292,-27.3917,75.20,71.60,88.59,160.00,5.00,0.00,30.00,M,6.21,M,FEW,M,M,M,1500.00,M,M,M,M,YBBN 181230Z 16005KT 9999 FEW015 24/22 Q1016
YBBN,2012-02-18 13:00,153.1292,-27.3917,75.20,71.60,88.59,110.00,4.00,0.00,30.00,M,6.21,M,FEW,M,M,M,1500.00,M,M,M,M,YBBN 181300Z 11004KT 9999 FEW015 24/22 Q1016 NOSIG
YBBN,2012-02-18 13:30,153.1292,-27.3917,75.20,71.60,88.59,150.00,4.00,0.00,30.00,M,6.21,M,FEW,M,M,M,1500.00,M,M,M,M,YBBN 181330Z 15004KT 9999 FEW015 24/22 Q1016
YBBN,2012-02-18 14:00,153.1292,-27.3917,75.20,71.60,88.59,160.00,3.00,0.00,30.00,M,6.21,M,FEW,M,M,M,1500.00,M,M,M,M,YBBN 181400Z 16003KT 9999 FEW015 24/22 Q1016 NOSIG
YBBN,2012-02-18 14:30,153.1292,-27.3917,73.40,71.60,94.10,210.00,5.00,0.00,30.00,M,6.21,M,FEW,M,M,M,1600.00,M,M,M,M,YBBN 181430Z 21005KT 9999 FEW016 23/22 Q1016
YBBN,2012-02-18 15:00,153.1292,-27.3917,73.40,69.80,88.51,210.00,6.00,0.00,29.97,M,6.21,M,FEW,M,M,M,2000.00,M,M,M,M,YBBN 181500Z 21006KT 9999 FEW020 23/21 Q1015
YBBN,2012-02-18 15:30,153.1292,-27.3917,71.60,69.80,94.06,220.00,6.00,0.00,29.97,M,6.21,M,FEW,M,M,M,2000.00,M,M,M,M,YBBN 181530Z 22006KT 9999 FEW020 22/21 Q1015
YBBN,2012-02-18 16:00,153.1292,-27.3917,73.40,69.80,88.51,200.00,6.00,0.00,29.97,M,6.21,M,FEW,M,M,M,2000.00,M,M,M,M,YBBN 181600Z 20006KT 9999 FEW020 23/21 Q1015 NOSIG
YBBN,2012-02-18 16:30,153.1292,-27.3917,71.60,69.80,94.06,200.00,3.00,0.00,29.97,M,6.21,M,FEW,M,M,M,2000.00,M,M,M,M,YBBN 181630Z 20003KT 9999 FEW020 22/21 Q1015
YBBN,2012-02-18 17:00,153.1292,-27.3917,69.80,68.00,94.01,220.00,5.00,0.00,29.97,M,6.21,M,FEW,M,M,M,2000.00,M,M,M,M,YBBN 181700Z 22005KT 9999 FEW020 21/20 Q1015
YBBN,2012-02-18 17:30,153.1292,-27.3917,71.60,68.00,88.43,210.00,5.00,0.00,29.97,M,6.21,M,FEW,M,M,M,2000.00,M,M,M,M,YBBN 181730Z 21005KT 9999 FEW020 22/20 Q1015
YBBN,2012-02-18 18:00,153.1292,-27.3917,71.60,68.00,88.43,200.00,5.00,0.00,29.97,M,6.21,M,FEW,M,M,M,2000.00,M,M,M,M,YBBN 181800Z 20005KT 9999 FEW020 22/20 Q1015 NOSIG
YBBN,2012-02-18 18:30,153.1292,-27.3917,69.80,68.00,94.01,220.00,5.00,0.00,29.97,M,6.21,M,FEW,M,M,M,2000.00,M,M,M,M,YBBN 181830Z 22005KT 9999 FEW020 21/20 Q1015
YBBN,2012-02-18 19:00,153.1292,-27.3917,69.80,68.00,94.01,200.00,5.00,0.00,29.97,M,6.21,M,FEW,M,M,M,2000.00,M,M,M,M,YBBN 181900Z 20005KT 9999 FEW020 21/20 Q1015
YBBN,2012-02-18 19:30,153.1292,-27.3917,69.80,68.00,94.01,200.00,6.00,0.00,29.97,M,6.21,M,FEW,M,M,M,2500.00,M,M,M,M,YBBN 181930Z 20006KT 9999 FEW025 21/20 Q1015
YBBN,2012-02-18 20:00,153.1292,-27.3917,69.80,68.00,94.01,210.00,7.00,0.00,30.00,M,6.21,M,FEW,M,M,M,2200.00,M,M,M,M,YBBN 182000Z 21007KT 9999 FEW022 21/20 Q1016 NOSIG
YBBN,2012-02-18 20:30,153.1292,-27.3917,71.60,68.00,88.43,210.00,5.00,0.00,30.00,M,6.21,M,FEW,SCT,M,M,1100.00,1300.00,M,M,M,YBBN 182030Z 21005KT 9999 FEW011 SCT013 22/20 Q1016
YBBN,2012-02-18 21:00,153.1292,-27.3917,71.60,68.00,88.43,220.00,7.00,0.00,30.00,M,6.21,M,FEW,SCT,M,M,1300.00,1500.00,M,M,M,YBBN 182100Z 22007KT 9999 FEW013 SCT015 22/20 Q1016
YBBN,2012-02-18 21:30,153.1292,-27.3917,75.20,69.80,83.32,210.00,8.00,0.00,30.00,M,6.21,M,FEW,SCT,M,M,1600.00,4700.00,M,M,M,YBBN 182130Z 21008KT 9999 FEW016 SCT047 24/21 Q1016
YBBN,2012-02-18 22:00,153.1292,-27.3917,77.00,68.00,73.78,220.00,7.00,0.00,30.03,M,6.21,M,FEW,SCT,M,M,2300.00,4700.00,M,M,M,YBBN 182200Z 22007KT 9999 FEW023 SCT047 25/20 Q1017 RMK DIST SH SE
YBBN,2012-02-18 22:30,153.1292,-27.3917,78.80,69.80,73.95,210.00,6.00,0.00,30.03,M,6.21,M,FEW,SCT,FEW,M,2600.00,4700.00,2700.00,M,M,YBBN 182230Z 21006KT 9999 FEW026 SCT047 FEW027TCU 26/21 Q1017 RMK DIST SH EAST
YBBN,2012-02-18 23:00,153.1292,-27.3917,80.60,69.80,69.71,190.00,6.00,0.00,30.03,M,6.21,M,FEW,SCT,FEW,M,2600.00,4800.00,2700.00,M,M,YBBN 182300Z 19006KT 9999 FEW026 SCT048 FEW027TCU 27/21 Q1017 NOSIG
YBBN,2012-02-18 23:30,153.1292,-27.3917,78.80,68.00,69.52,110.00,6.00,0.00,30.03,M,6.21,M,SCT,M,M,M,2600.00,M,M,M,M,YBBN 182330Z 11006KT 9999 SCT026 26/20 Q1017
