#DEBUG: Format Typ    -> comma
#DEBUG: Time Period   -> 2011-09-22 00:00:00+00:00 2011-09-23 00:00:00+00:00
#DEBUG: Time Zone     -> Etc/UTC
#DEBUG: Data Contact   -> daryl herzmann akrherz@iastate.edu 515-294-5978
#DEBUG: Entries Found -> -1
station,valid,lon,lat,tmpf, dwpf, relh, drct, sknt, p01i, alti, mslp, vsby, gust, skyc1, skyc2, skyc3, skyc4, skyl1, skyl2, skyl3, skyl4, presentwx, metar
YBBN,2011-09-22 00:00,153.1292,-27.3917,69.80,50.00,49.37,120.00,7.00,M,30.27,M,6.21,M,FEW,M,M,M,3600.00,M,M,M,M,YBBN 220000Z 12007KT 9999 FEW036 21/10 Q1025 NOSIG
YBBN,2011-09-22 00:30,153.1292,-27.3917,73.40,51.80,46.71,120.00,8.00,M,30.24,M,6.21,M,FEW,M,M,M,3800.00,M,M,M,M,YBBN 220030Z 12008KT 9999 FEW038 23/11 Q1024 NOSIG
YBBN,2011-09-22 01:00,153.1292,-27.3917,73.40,50.00,43.69,110.00,8.00,M,30.24,M,6.21,M,FEW,M,M,M,3800.00,M,M,M,M,YBBN 220100Z 11008KT 9999 FEW038 23/10 Q1024 NOSIG
YBBN,2011-09-22 01:30,153.1292,-27.3917,71.60,50.00,46.43,120.00,9.00,M,30.24,M,6.21,M,FEW,M,M,M,3800.00,M,M,M,M,YBBN 220130Z 12009KT 9999 FEW038 22/10 Q1024 NOSIG
YBBN,2011-09-22 02:00,153.1292,-27.3917,71.60,50.00,46.43,130.00,8.00,M,30.24,M,6.21,M,FEW,M,M,M,4000.00,M,M,M,M,YBBN 220200Z 13008KT 9999 FEW040 22/10 Q1024 NOSIG
YBBN,2011-09-22 02:30,153.1292,-27.3917,71.60,51.80,49.64,120.00,7.00,M,30.21,M,6.21,M,FEW,M,M,M,4100.00,M,M,M,M,YBBN 220230Z 12007KT 9999 FEW041 22/11 Q1023 NOSIG
YBBN,2011-09-22 03:00,153.1292,-27.3917,71.60,50.00,46.43,140.00,8.00,M,30.21,M,6.21,M,FEW,M,M,M,4100.00,M,M,M,M,YBBN 220300Z 14008KT 9999 FEW041 22/10 Q1023 NOSIG
YBBN,2011-09-22 03:30,153.1292,-27.3917,71.60,50.00,46.43,140.00,8.00,M,30.18,M,6.21,M,FEW,M,M,M,4100.00,M,M,M,M,YBBN 220330Z 14008KT 9999 FEW041 22/10 Q1022 NOSIG
YBBN,2011-09-22 04:00,153.1292,-27.3917,71.60,50.00,46.43,130.00,9.00,M,30.18,M,6.21,M,FEW,M,M,M,4100.00,M,M,M,M,YBBN 220400Z 13009KT 9999 FEW041 22/10 Q1022 NOSIG
YBBN,2011-09-22 04:30,153.1292,-27.3917,71.60,50.00,46.43,130.00,8.00,M,30.18,M,6.21,M,FEW,M,M,M,4100.00,M,M,M,M,YBBN 220430Z 13008KT 9999 FEW041 22/10 Q1022 NOSIG
YBBN,2011-09-22 05:00,153.1292,-27.3917,71.60,50.00,46.43,110.00,7.00,M,30.15,M,6.21,M,FEW,M,M,M,4100.00,M,M,M,M,YBBN 220500Z 11007KT 9999 FEW041 22/10 Q1021 NOSIG
YBBN,2011-09-22 05:30,153.1292,-27.3917,71.60,51.80,49.64,70.00,10.00,M,30.15,M,6.21,M,FEW,M,M,M,3600.00,M,M,M,M,YBBN 220530Z 07010KT 9999 FEW036 22/11 Q1021 NOSIG
YBBN,2011-09-22 06:00,153.1292,-27.3917,69.80,53.60,56.38,70.00,11.00,M,30.15,M,6.21,M,FEW,M,M,M,3600.00,M,M,M,M,YBBN 220600Z 07011KT 9999 FEW036 21/12 Q1021 NOSIG
YBBN,2011-09-22 06:30,153.1292,-27.3917,69.80,51.80,52.77,70.00,9.00,M,30.15,M,6.21,M,FEW,M,M,M,3600.00,M,M,M,M,YBBN 220630Z 07009KT 9999 FEW036 21/11 Q1021 NOSIG
YBBN,2011-09-22 07:00,153.1292,-27.3917,68.00,53.60,59.97,70.00,11.00,M,30.18,M,6.21,M,FEW,M,M,M,3500.00,M,M,M,M,YBBN 220700Z 07011KT 9999 FEW035 20/12 Q1022 NOSIG
YBBN,2011-09-22 07:30,153.1292,-27.3917,68.00,51.80,56.13,70.00,8.00,M,30.18,M,6.21,M,FEW,M,M,M,3300.00,M,M,M,M,YBBN 220730Z 07008KT 9999 FEW033 20/11 Q1022 NOSIG
YBBN,2011-09-22 08:00,153.1292,-27.3917,66.20,53.60,63.82,80.00,7.00,M,30.18,M,6.21,M,FEW,M,M,M,3200.00,M,M,M,M,YBBN 220800Z 08007KT 9999 FEW032 19/12 Q1022 NOSIG
YBBN,2011-09-22 08:30,153.1292,-27.3917,66.20,51.80,59.74,80.00,7.00,M,30.18,M,6.21,M,FEW,M,M,M,3200.00,M,M,M,M,YBBN 220830Z 08007KT 9999 FEW032 19/11 Q1022 NOSIG
YBBN,2011-09-22 09:00,153.1292,-27.3917,66.20,53.60,63.82,90.00,6.00,M,30.21,M,6.21,M,SCT,M,M,M,3200.00,M,M,M,M,YBBN 220900Z 09006KT 9999 SCT032 19/12 Q1023 NOSIG
YBBN,2011-09-22 09:30,153.1292,-27.3917,66.20,53.60,63.82,90.00,6.00,M,30.21,M,6.21,M,FEW,M,M,M,3200.00,M,M,M,M,YBBN 220930Z 09006KT 9999 FEW032 19/12 Q1023 NOSIG
YBBN,2011-09-22 10:00,153.1292,-27.3917,64.40,53.60,67.95,100.00,5.00,M,30.21,M,6.21,M,FEW,M,M,M,3200.00,M,M,M,M,YBBN 221000Z 10005KT 9999 FEW032 18/12 Q1023 NOSIG
YBBN,2011-09-22 10:30,153.1292,-27.3917,64.40,53.60,67.95,90.00,4.00,M,30.21,M,6.21,M,FEW,M,M,M,3200.00,M,M,M,M,YBBN 221030Z 09004KT 9999 FEW032 18/12 Q1023 NOSIG
YBBN,2011-09-22 11:00,153.1292,-27.3917,64.40,53.60,67.95,90.00,4.00,M,30.24,M,6.21,M,BKN,M,M,M,3400.00,M,M,M,M,YBBN 221100Z 09004KT 9999 BKN034 18/12 Q1024 NOSIG
YBBN,2011-09-22 11:30,153.1292,-27.3917,64.40,53.60,67.95,80.00,4.00,M,30.21,M,6.21,M,BKN,M,M,M,3400.00,M,M,M,M,YBBN 221130Z 08004KT 9999 BKN034 18/12 Q1023 NOSIG
YBBN,2011-09-22 12:00,153.1292,-27.3917,64.40,53.60,67.95,90.00,4.00,M,30.21,M,6.21,M,BKN,M,M,M,3400.00,M,M,M,M,YBBN 221200Z 09004KT 9999 BKN034 18/12 Q1023 NOSIG
YBBN,2011-09-22 12:30,153.1292,-27.3917,62.60,55.40,77.29,90.00,4.00,M,30.21,M,6.21,M,SCT,M,M,M,3400.00,M,M,M,M,YBBN 221230Z 09004KT 9999 SCT034 17/13 Q1023 NOSIG
YBBN,2011-09-22 13:00,153.1292,-27.3917,60.80,53.60,77.14,90.00,3.00,M,30.21,M,6.21,M,SCT,M,M,M,3400.00,M,M,M,M,YBBN 221300Z 09003KT 9999 SCT034 16/12 Q1023 NOSIG
YBBN,2011-09-22 13:30,153.1292,-27.3917,59.00,51.80,76.98,110.00,3.00,M,30.21,M,6.21,M,BKN,M,M,M,3400.00,M,M,M,M,YBBN 221330Z 11003KT 9999 BKN034 15/11 Q1023 NOSIG
YBBN,2011-09-22 14:00,153.1292,-27.3917,60.80,55.40,82.37,0.00,0.00,M,30.21,M,6.21,M,BKN,M,M,M,3400.00,M,M,M,M,YBBN 221400Z 00000KT 9999 BKN034 16/13 Q1023 NOSIG
YBBN,2011-09-22 14:30,153.1292,-27.3917,59.00,53.60,82.25,260.00,3.00,M,30.21,M,6.21,M,BKN,M,M,M,3400.00,M,M,M,M,YBBN 221430Z 26003KT 9999 BKN034 15/12 Q1023 NOSIG
YBBN,2011-09-22 15:00,153.1292,-27.3917,59.00,53.60,82.25,220.00,4.00,M,30.18,M,6.21,M,BKN,M,M,M,3400.00,M,M,M,M,YBBN 221500Z 22004KT 9999 BKN034 15/12 Q1022 NOSIG
YBBN,2011-09-22 15:30,153.1292,-27.3917,57.20,53.60,87.74,330.00,4.00,M,30.18,M,6.21,M,FEW,M,M,M,3400.00,M,M,M,M,YBBN 221530Z 33004KT 9999 FEW034 14/12 Q1022 NOSIG
YBBN,2011-09-22 16:00,153.1292,-27.3917,55.40,51.80,87.65,0.00,0.00,M,30.18,M,6.21,M,FEW,M,M,M,3400.00,M,M,M,M,YBBN 221600Z 00000KT 9999 FEW034 13/11 Q1022 NOSIG
YBBN,2011-09-22 16:30,153.1292,-27.3917,53.60,51.80,93.60,230.00,5.00,M,30.15,M,6.21,M,FEW,M,M,M,3400.00,M,M,M,M,YBBN 221630Z 23005KT 9999 FEW034 12/11 Q1021 NOSIG
YBBN,2011-09-22 17:00,153.1292,-27.3917,53.60,51.80,93.60,230.00,6.00,M,30.15,M,6.21,M,FEW,M,M,M,3400.00,M,M,M,M,YBBN 221700Z 23006KT 9999 FEW034 12/11 Q1021 NOSIG
YBBN,2011-09-22 17:30,153.1292,-27.3917,53.60,51.80,93.60,220.00,5.00,M,30.15,M,6.21,M,FEW,M,M,M,3400.00,M,M,M,M,YBBN 221730Z 22005KT 9999 FEW034 12/11 Q1021 NOSIG
YBBN,2011-09-22 18:00,153.1292,-27.3917,53.60,51.80,93.60,230.00,7.00,M,30.18,M,6.21,M,FEW,M,M,M,3400.00,M,M,M,M,YBBN 221800Z 23007KT 9999 FEW034 12/11 Q1022 NOSIG
YBBN,2011-09-22 18:30,153.1292,-27.3917,53.60,51.80,93.60,240.00,6.00,M,30.15,M,6.21,M,FEW,M,M,M,3400.00,M,M,M,M,YBBN 221830Z 24006KT 9999 FEW034 12/11 Q1021 NOSIG
YBBN,2011-09-22 19:00,153.1292,-27.3917,53.60,51.80,93.60,240.00,4.00,M,30.15,M,6.21,M,FEW,M,M,M,3400.00,M,M,M,M,YBBN 221900Z 24004KT 9999 FEW034 12/11 Q1021 NOSIG
YBBN,2011-09-22 19:30,153.1292,-27.3917,53.60,51.80,93.60,220.00,7.00,M,30.18,M,6.21,M,FEW,M,M,M,3400.00,M,M,M,M,YBBN 221930Z 22007KT 9999 FEW034 12/11 Q1022 NOSIG
YBBN,2011-09-22 20:00,153.1292,-27.3917,53.60,51.80,93.60,220.00,6.00,M,30.18,M,6.21,M,FEW,M,M,M,3400.00,M,M,M,M,YBBN 222000Z 22006KT 9999 FEW034 12/11 Q1022 NOSIG
YBBN,2011-09-22 20:30,153.1292,-27.3917,57.20,53.60,87.74,200.00,7.00,M,30.18,M,6.21,M,FEW,M,M,M,3300.00,M,M,M,M,YBBN 222030Z 20007KT 9999 FEW033 14/12 Q1022 RMK HZ/FU SOUTH NOSIG
YBBN,2011-09-22 21:00,153.1292,-27.3917,59.00,53.60,82.25,220.00,8.00,M,30.18,M,6.21,M,FEW,M,M,M,3300.00,M,M,M,M,YBBN 222100Z 22008KT 9999 FEW033 15/12 Q1022 RMK HZ/FU SOUTH NOSIG
YBBN,2011-09-22 21:30,153.1292,-27.3917,60.80,53.60,77.14,240.00,9.00,M,30.21,M,6.21,M,FEW,M,M,M,3500.00,M,M,M,M,YBBN 222130Z 24009KT 9999 FEW035 16/12 Q1023 RMK HZ/FU SOUTH NOSIG
YBBN,2011-09-22 22:00,153.1292,-27.3917,64.40,53.60,67.95,230.00,6.00,M,30.21,M,6.21,M,FEW,M,M,M,3500.00,M,M,M,M,YBBN 222200Z 23006KT 9999 FEW035 18/12 Q1023 RMK HZ/FU SOUTH NOSIG
YBBN,2011-09-22 22:30,153.1292,-27.3917,66.20,53.60,63.82,280.00,4.00,M,30.18,M,6.21,M,FEW,M,M,M,3500.00,M,M,M,M,YBBN 222230Z 28004KT 9999 FEW035 19/12 Q1022 RMK HZ NOSIG
YBBN,2011-09-22 23:00,153.1292,-27.3917,69.80,53.60,56.38,10.00,7.00,M,30.18,M,6.21,M,FEW,M,M,M,3000.00,M,M,M,M,YBBN 222300Z 01007KT 9999 FEW030 21/12 Q1022 RMK HZ NOSIG
YBBN,2011-09-22 23:30,153.1292,-27.3917,71.60,53.60,53.03,350.00,5.00,M,30.18,M,6.21,M,FEW,M,M,M,2800.00,M,M,M,M,YBBN 222330Z 35005KT 9999 FEW028 22/12 Q1022 RMK HZ NOSIG
