#DEBUG: Format Typ    -> comma
#DEBUG: Time Period   -> 2015-12-07 00:00:00+00:00 2015-12-08 00:00:00+00:00
#DEBUG: Time Zone     -> Etc/UTC
#DEBUG: Data Contact   -> daryl herzmann akrherz@iastate.edu 515-294-5978
#DEBUG: Entries Found -> -1
station,valid,lon,lat,tmpf, dwpf, relh, drct, sknt, p01i, alti, mslp, vsby, gust, skyc1, skyc2, skyc3, skyc4, skyl1, skyl2, skyl3, skyl4, presentwx, metar
YBBN,2015-12-07 01:30,153.1292,-27.3917,78.80,64.40,61.36,100.00,9.00,0.00,30.12,M,6.21,M,SCT,M,M,M,3500.00,M,M,M,M,YBBN 070130Z 10009KT 070V130 9999 SCT035 26/18 Q1020
YBBN,2015-12-07 02:00,153.1292,-27.3917,80.60,64.40,57.84,90.00,9.00,0.00,30.09,M,6.21,M,SCT,M,M,M,3500.00,M,M,M,M,YBBN 070200Z 09009KT 9999 SCT035 27/18 Q1019 NOSIG
YBBN,2015-12-07 02:30,153.1292,-27.3917,80.60,64.40,57.84,60.00,12.00,0.00,30.09,M,6.21,M,SCT,M,M,M,3500.00,M,M,M,M,YBBN 070230Z 06012KT 9999 SCT035 27/18 Q1019 NOSIG
YBBN,2015-12-07 03:00,153.1292,-27.3917,80.60,64.40,57.84,80.00,9.00,0.00,30.09,M,6.21,M,SCT,M,M,M,3500.00,M,M,M,M,YBBN 070300Z 08009KT 9999 SCT035 27/18 Q1019 NOSIG
YBBN,2015-12-07 03:30,153.1292,-27.3917,80.60,64.40,57.84,70.00,10.00,0.00,30.06,M,6.21,M,FEW,M,M,M,3500.00,M,M,M,M,YBBN 070330Z 07010KT 9999 FEW035 27/18 Q1018 NOSIG
YBBN,2015-12-07 04:00,153.1292,-27.3917,80.60,64.40,57.84,60.00,11.00,0.00,30.06,M,6.21,M,FEW,M,M,M,3500.00,M,M,M,M,YBBN 070400Z 06011KT 9999 FEW035 27/18 Q1018
YBBN,2015-12-07 04:30,153.1292,-27.3917,80.60,64.40,57.84,60.00,11.00,0.00,30.06,M,6.21,M,FEW,M,M,M,3500.00,M,M,M,M,YBBN 070430Z 06011KT 9999 FEW035 27/18 Q1018 NOSIG
YBBN,2015-12-07 05:00,153.1292,-27.3917,80.60,64.40,57.84,60.00,10.00,0.00,30.03,M,6.21,M,FEW,SCT,M,M,3500.00,30000.00,M,M,M,YBBN 070500Z 06010KT 9999 FEW035 SCT300 27/18 Q1017 NOSIG
YBBN,2015-12-07 05:30,153.1292,-27.3917,80.60,62.60,54.30,60.00,10.00,0.00,30.03,M,6.21,M,FEW,SCT,M,M,3500.00,30000.00,M,M,M,YBBN 070530Z 06010KT 9999 FEW035 SCT300 27/17 Q1017
YBBN,2015-12-07 06:00,153.1292,-27.3917,78.80,62.60,57.60,60.00,11.00,0.00,30.03,M,6.21,M,FEW,SCT,M,M,3500.00,30000.00,M,M,M,YBBN 070600Z 06011KT 9999 FEW035 SCT300 26/17 Q1017 NOSIG
YBBN,2015-12-07 06:30,153.1292,-27.3917,78.80,64.40,61.36,60.00,10.00,0.00,30.06,M,6.21,M,FEW,SCT,M,M,3500.00,30000.00,M,M,M,YBBN 070630Z 06010KT 9999 FEW035 SCT300 26/18 Q1018
YBBN,2015-12-07 07:00,153.1292,-27.3917,77.00,64.40,65.12,70.00,9.00,0.00,30.06,M,6.21,M,FEW,M,M,M,3500.00,M,M,M,M,YBBN 070700Z 07009KT 9999 FEW035 25/18 Q1018 NOSIG
YBBN,2015-12-07 07:30,153.1292,-27.3917,77.00,64.40,65.12,60.00,9.00,0.00,30.06,M,6.21,M,FEW,M,M,M,3500.00,M,M,M,M,YBBN 070730Z 06009KT 9999 FEW035 25/18 Q1018 NOSIG
YBBN,2015-12-07 10:00,153.1292,-27.3917,75.20,64.40,69.14,90.00,7.00,0.00,30.12,M,6.21,M,FEW,BKN,M,M,2400.00,2700.00,M,M,M,YBBN 071000Z 09007KT 9999 FEW024 BKN027 24/18 Q1020 NOSIG
YBBN,2015-12-07 10:30,153.1292,-27.3917,75.20,64.40,69.14,110.00,7.00,0.00,30.15,M,6.21,M,FEW,SCT,BKN,M,2400.00,2700.00,3400.00,M,M,YBBN 071030Z 11007KT 9999 FEW024 SCT027 BKN034 24/18 Q1021 NOSIG
YBBN,2015-12-07 11:00,153.1292,-27.3917,75.20,64.40,69.14,110.00,7.00,0.00,30.15,M,6.21,M,FEW,SCT,BKN,M,2400.00,2700.00,3400.00,M,M,YBBN 071100Z 11007KT 9999 FEW024 SCT027 BKN034 24/18 Q1021 NOSIG
YBBN,2015-12-07 13:00,153.1292,-27.3917,73.40,64.40,73.44,120.00,2.00,0.00,30.15,M,6.21,M,FEW,SCT,M,M,2200.00,30000.00,M,M,M,YBBN 071300Z 12002KT 9999 FEW022 SCT300 23/18 Q1021
YBBN,2015-12-07 15:30,153.1292,-27.3917,69.80,64.40,82.98,160.00,4.00,0.00,30.12,M,6.21,M,FEW,SCT,M,M,2600.00,30000.00,M,M,M,YBBN 071530Z 16004KT 9999 FEW026 SCT300 21/18 Q1020 NOSIG
YBBN,2015-12-07 16:00,153.1292,-27.3917,69.80,62.60,77.90,160.00,4.00,0.00,30.12,M,6.21,M,FEW,M,M,M,2500.00,M,M,M,M,YBBN 071600Z 16004KT 9999 FEW025 21/17 Q1020 NOSIG
YBBN,2015-12-07 16:30,153.1292,-27.3917,69.80,62.60,77.90,170.00,5.00,0.00,30.12,M,6.21,M,FEW,M,M,M,2500.00,M,M,M,M,YBBN 071630Z 17005KT 9999 FEW025 21/17 Q1020 NOSIG
YBBN,2015-12-07 17:00,153.1292,-27.3917,68.00,62.60,82.86,170.00,3.00,0.00,30.09,M,6.21,M,FEW,M,M,M,2500.00,M,M,M,M,YBBN 071700Z 17003KT 9999 FEW025 20/17 Q1019 NOSIG
YBBN,2015-12-07 17:30,153.1292,-27.3917,68.00,62.60,82.86,220.00,4.00,0.00,30.09,M,6.21,M,FEW,SCT,M,M,2500.00,30000.00,M,M,M,YBBN 071730Z 22004KT 9999 FEW025 SCT300 20/17 Q1019 NOSIG
YBBN,2015-12-07 18:00,153.1292,-27.3917,68.00,62.60,82.86,210.00,1.00,0.00,30.12,M,6.21,M,FEW,M,M,M,2500.00,M,M,M,M,YBBN 071800Z 21001KT 9999 FEW025 20/17 Q1020 NOSIG
YBBN,2015-12-07 18:30,153.1292,-27.3917,66.20,62.60,88.18,210.00,4.00,0.00,30.12,M,6.21,M,FEW,M,M,M,2500.00,M,M,M,M,YBBN 071830Z 21004KT 9999 FEW025 19/17 Q1020 NOSIG
YBBN,2015-12-07 19:00,153.1292,-27.3917,66.20,62.60,88.18,180.00,3.00,0.00,30.12,M,6.21,M,FEW,M,M,M,2700.00,M,M,M,M,YBBN 071900Z 18003KT 9999 FEW027 19/17 Q1020 NOSIG
YBBN,2015-12-07 19:30,153.1292,-27.3917,68.00,62.60,82.86,190.00,3.00,0.00,30.12,M,6.21,M,FEW,M,M,M,2700.00,M,M,M,M,YBBN 071930Z 19003KT 9999 FEW027 20/17 Q1020 NOSIG
YBBN,2015-12-07 20:00,153.1292,-27.3917,71.60,64.40,78.04,200.00,5.00,0.00,30.12,M,6.21,M,FEW,M,M,M,2700.00,M,M,M,M,YBBN 072000Z 20005KT 9999 FEW027 22/18 Q1020 NOSIG
YBBN,2015-12-07 22:30,153.1292,-27.3917,80.60,64.40,57.84,20.00,6.00,0.00,30.15,M,6.21,M,SCT,M,M,M,3000.00,M,M,M,M,YBBN 072230Z 02006KT 350V090 9999 SCT030 27/18 Q1021 NOSIG
YBBN,2015-12-07 23:00,153.1292,-27.3917,80.60,64.40,57.84,30.00,8.00,0.00,30.15,M,6.21,M,FEW,M,M,M,3000.00,M,M,M,M,YBBN 072300Z 03008KT 9999 FEW030 27/18 Q1021 NOSIG
YBBN,2015-12-07 23:30,153.1292,-27.3917,78.80,64.40,61.36,20.00,8.00,0.00,30.18,M,6.21,M,SCT,M,M,M,3000.00,M,M,M,M,YBBN 072330Z 02008KT 9999 SCT030 26/18 Q1022 NOSIG
