#DEBUG: Format Typ    -> comma
#DEBUG: Time Period   -> 2012-11-01 00:00:00+00:00 2012-11-02 00:00:00+00:00
#DEBUG: Time Zone     -> Etc/UTC
#DEBUG: Data Contact   -> daryl herzmann akrherz@iastate.edu 515-294-5978
#DEBUG: Entries Found -> -1
station,valid,lon,lat,tmpf, dwpf, relh, drct, sknt, p01i, alti, mslp, vsby, gust, skyc1, skyc2, skyc3, skyc4, skyl1, skyl2, skyl3, skyl4, presentwx, metar
YBBN,2012-11-01 00:00,153.1292,-27.3917,77.00,59.00,53.80,10.00,9.00,0.00,29.94,M,6.21,M,FEW,M,M,M,3000.00,M,M,M,M,YBBN 010000Z 01009KT 9999 FEW030 25/15 Q1014 NOSIG
YBBN,2012-11-01 00:30,153.1292,-27.3917,77.00,60.80,57.36,30.00,11.00,0.00,29.91,M,6.21,M,FEW,M,M,M,3000.00,M,M,M,M,YBBN 010030Z 03011KT 9999 FEW030 25/16 Q1013
YBBN,2012-11-01 01:00,153.1292,-27.3917,77.00,62.60,61.13,30.00,13.00,0.00,29.91,M,6.21,M,FEW,M,M,M,3000.00,M,M,M,M,YBBN 010100Z 03013KT 9999 FEW030 25/17 Q1013 NOSIG
YBBN,2012-11-01 01:30,153.1292,-27.3917,77.00,64.40,65.12,10.00,14.00,0.00,29.88,M,6.21,M,FEW,M,M,M,2800.00,M,M,M,M,YBBN 010130Z 01014KT 9999 FEW028 25/18 Q1012
YBBN,2012-11-01 02:00,153.1292,-27.3917,77.00,64.40,65.12,30.00,14.00,0.00,29.88,M,6.21,M,FEW,M,M,M,3000.00,M,M,M,M,YBBN 010200Z 03014KT 9999 FEW030 25/18 Q1012 NOSIG
YBBN,2012-11-01 02:30,153.1292,-27.3917,78.80,62.60,57.60,20.00,14.00,0.00,29.85,M,6.21,M,FEW,M,M,M,3000.00,M,M,M,M,YBBN 010230Z 02014KT 9999 FEW030 26/17 Q1011
YBBN,2012-11-01 03:00,153.1292,-27.3917,78.80,64.40,61.36,20.00,15.00,0.00,29.85,M,6.21,M,FEW,M,M,M,3000.00,M,M,M,M,YBBN 010300Z 02015KT 9999 FEW030 26/18 Q1011
YBBN,2012-11-01 03:30,153.1292,-27.3917,77.00,64.40,65.12,10.00,16.00,0.00,29.83,M,6.21,M,FEW,SCT,M,M,3000.00,26000.00,M,M,M,YBBN 010330Z 01016KT 9999 FEW030 SCT260 25/18 Q1010
YBBN,2012-11-01 04:00,153.1292,-27.3917,78.80,66.20,65.33,20.00,17.00,0.00,29.80,M,6.21,M,FEW,SCT,M,M,3000.00,26000.00,M,M,M,YBBN 010400Z 02017KT 9999 FEW030 SCT260 26/19 Q1009 FM0500 02016G26KT 9999 FEW035
YBBN,2012-11-01 04:30,153.1292,-27.3917,77.00,64.40,65.12,10.00,18.00,0.00,29.80,M,6.21,M,FEW,BKN,M,M,3000.00,26000.00,M,M,M,YBBN 010430Z 01018KT 9999 FEW030 BKN260 25/18 Q1009
YBBN,2012-11-01 05:00,153.1292,-27.3917,77.00,62.60,61.13,10.00,18.00,0.00,29.80,M,6.21,M,FEW,BKN,M,M,3000.00,26000.00,M,M,M,YBBN 010500Z 01018KT 9999 FEW030 BKN260 25/17 Q1009 FM0500 01017G26KT 9999 FEW035
YBBN,2012-11-01 05:30,153.1292,-27.3917,77.00,62.60,61.13,10.00,19.00,0.00,29.77,M,6.21,M,FEW,BKN,M,M,3000.00,26000.00,M,M,M,YBBN 010530Z 01019KT 9999 FEW030 BKN260 25/17 Q1008
YBBN,2012-11-01 06:00,153.1292,-27.3917,75.20,64.40,69.14,10.00,18.00,0.00,29.77,M,6.21,M,FEW,BKN,M,M,3000.00,26000.00,M,M,M,YBBN 010600Z 01018KT 9999 FEW030 BKN260 24/18 Q1008 NOSIG
YBBN,2012-11-01 06:25,153.1292,-27.3917,75.20,66.20,73.61,10.00,18.00,0.00,29.77,M,6.21,28.00,FEW,BKN,M,M,3000.00,26000.00,M,M,M,YBBN 010625Z 01018G28KT 9999 FEW030 BKN260 24/19 Q1008
YBBN,2012-11-01 06:30,153.1292,-27.3917,75.20,64.40,69.14,10.00,18.00,0.00,29.77,M,6.21,M,FEW,SCT,M,M,3000.00,26000.00,M,M,M,YBBN 010630Z 01018KT 9999 FEW030 SCT260 24/18 Q1008
YBBN,2012-11-01 07:00,153.1292,-27.3917,73.40,66.20,78.19,10.00,17.00,0.00,29.77,M,6.21,M,FEW,BKN,M,M,3000.00,26000.00,M,M,M,YBBN 010700Z 01017KT 9999 FEW030 BKN260 23/19 Q1008
YBBN,2012-11-01 07:30,153.1292,-27.3917,73.40,68.00,83.21,360.00,16.00,0.00,29.77,M,6.21,M,FEW,SCT,M,M,3000.00,26000.00,M,M,M,YBBN 010730Z 36016KT 9999 FEW030 SCT260 23/20 Q1008
YBBN,2012-11-01 08:00,153.1292,-27.3917,73.40,68.00,83.21,360.00,18.00,0.00,29.77,M,6.21,M,FEW,M,M,M,1700.00,M,M,M,M,YBBN 010800Z 36018KT 9999 FEW017 23/20 Q1008
YBBN,2012-11-01 08:30,153.1292,-27.3917,73.40,68.00,83.21,360.00,17.00,0.00,29.80,M,6.21,M,FEW,M,M,M,2000.00,M,M,M,M,YBBN 010830Z 36017KT 9999 FEW020 23/20 Q1009
YBBN,2012-11-01 09:00,153.1292,-27.3917,71.60,68.00,88.43,360.00,16.00,0.00,29.80,M,6.21,M,FEW,M,M,M,2000.00,M,M,M,M,YBBN 010900Z 36016KT 9999 FEW020 22/20 Q1009
YBBN,2012-11-01 09:30,153.1292,-27.3917,73.40,68.00,83.21,360.00,16.00,0.00,29.80,M,6.21,M,FEW,M,M,M,2000.00,M,M,M,M,YBBN 010930Z 36016KT 9999 FEW020 23/20 Q1009
YBBN,2012-11-01 10:00,153.1292,-27.3917,73.40,68.00,83.21,360.00,15.00,0.00,29.80,M,6.21,M,FEW,M,M,M,2000.00,M,M,M,M,YBBN 011000Z 36015KT 9999 FEW020 23/20 Q1009 NOSIG
YBBN,2012-11-01 10:30,153.1292,-27.3917,71.60,68.00,88.43,360.00,15.00,0.00,29.80,M,6.21,M,M,M,M,M,M,M,M,M,M,YBBN 011030Z 36015KT CAVOK 22/20 Q1009
YBBN,2012-11-01 11:00,153.1292,-27.3917,71.60,68.00,88.43,360.00,12.00,0.00,29.80,M,6.21,M,M,M,M,M,M,M,M,M,M,YBBN 011100Z 36012KT CAVOK 22/20 Q1009 NOSIG
YBBN,2012-11-01 11:30,153.1292,-27.3917,71.60,68.00,88.43,360.00,12.00,0.00,29.77,M,6.21,M,M,M,M,M,M,M,M,M,M,YBBN 011130Z 36012KT CAVOK 22/20 Q1008 RMK 3CS260
YBBN,2012-11-01 12:00,153.1292,-27.3917,71.60,68.00,88.43,360.00,12.00,0.00,29.77,M,6.21,M,M,M,M,M,M,M,M,M,M,YBBN 011200Z 36012KT CAVOK 22/20 Q1008 NOSIG
YBBN,2012-11-01 12:30,153.1292,-27.3917,71.60,66.20,83.09,360.00,13.00,0.00,29.74,M,6.21,M,M,M,M,M,M,M,M,M,M,YBBN 011230Z 36013KT CAVOK 22/19 Q1007
YBBN,2012-11-01 13:00,153.1292,-27.3917,71.60,66.20,83.09,360.00,12.00,0.00,29.74,M,6.21,M,M,M,M,M,M,M,M,M,M,YBBN 011300Z 36012KT CAVOK 22/19 Q1007
YBBN,2012-11-01 13:30,153.1292,-27.3917,71.60,66.20,83.09,360.00,14.00,0.00,29.74,M,6.21,M,M,M,M,M,M,M,M,M,M,YBBN 011330Z 36014KT CAVOK 22/19 Q1007
YBBN,2012-11-01 14:00,153.1292,-27.3917,71.60,66.20,83.09,360.00,15.00,0.00,29.71,M,6.21,M,M,M,M,M,M,M,M,M,M,YBBN 011400Z 36015KT CAVOK 22/19 Q1006 NOSIG
YBBN,2012-11-01 14:30,153.1292,-27.3917,69.80,66.20,88.34,360.00,13.00,0.00,29.71,M,6.21,M,M,M,M,M,M,M,M,M,M,YBBN 011430Z 36013KT CAVOK 21/19 Q1006
YBBN,2012-11-01 15:00,153.1292,-27.3917,69.80,66.20,88.34,360.00,13.00,0.00,29.71,M,6.21,M,M,M,M,M,M,M,M,M,M,YBBN 011500Z 36013KT CAVOK 21/19 Q1006 NOSIG
YBBN,2012-11-01 15:30,153.1292,-27.3917,69.80,66.20,88.34,360.00,13.00,0.00,29.68,M,6.21,M,M,M,M,M,M,M,M,M,M,YBBN 011530Z 36013KT CAVOK 21/19 Q1005
YBBN,2012-11-01 16:00,153.1292,-27.3917,69.80,66.20,88.34,360.00,10.00,0.00,29.68,M,6.21,M,M,M,M,M,M,M,M,M,M,YBBN 011600Z 36010KT CAVOK 21/19 Q1005 NOSIG
YBBN,2012-11-01 16:30,153.1292,-27.3917,69.80,66.20,88.34,360.00,11.00,0.00,29.68,M,6.21,M,M,M,M,M,M,M,M,M,M,YBBN 011630Z 36011KT CAVOK 21/19 Q1005
YBBN,2012-11-01 17:00,153.1292,-27.3917,66.20,64.40,93.92,360.00,7.00,0.00,29.68,M,6.21,M,M,M,M,M,M,M,M,M,M,YBBN 011700Z 36007KT CAVOK 19/18 Q1005
YBBN,2012-11-01 17:30,153.1292,-27.3917,66.20,64.40,93.92,210.00,7.00,0.00,29.68,M,6.21,M,M,M,M,M,M,M,M,M,M,YBBN 011730Z 21007KT CAVOK 19/18 Q1005
YBBN,2012-11-01 18:00,153.1292,-27.3917,66.20,62.60,88.18,210.00,6.00,0.00,29.68,M,6.21,M,M,M,M,M,M,M,M,M,M,YBBN 011800Z 21006KT CAVOK 19/17 Q1005 FM1900 24008KT 9999 SCT010 FM2000 18010KT 9999 SCT020
YBBN,2012-11-01 18:30,153.1292,-27.3917,64.40,62.60,93.88,0.00,0.00,0.00,29.71,M,6.21,M,M,M,M,M,M,M,M,M,M,YBBN 011830Z 00000KT CAVOK 18/17 Q1006
YBBN,2012-11-01 19:00,153.1292,-27.3917,66.20,64.40,93.92,180.00,4.00,0.00,29.71,M,6.21,M,M,M,M,M,M,M,M,M,M,YBBN 011900Z 18004KT CAVOK 19/18 Q1006 FM2000 18010KT 9999 SCT025 BKN080
YBBN,2012-11-01 19:30,153.1292,-27.3917,66.20,64.40,93.92,10.00,2.00,0.00,29.71,M,6.21,M,M,M,M,M,M,M,M,M,M,YBBN 011930Z 01002KT CAVOK 19/18 Q1006 RMK 4AC145
YBBN,2012-11-01 20:00,153.1292,-27.3917,68.00,66.20,93.97,10.00,7.00,0.00,29.71,M,6.21,M,M,M,M,M,M,M,M,M,M,YBBN 012000Z 01007KT CAVOK 20/19 Q1006
YBBN,2012-11-01 20:30,153.1292,-27.3917,71.60,66.20,83.09,360.00,9.00,0.00,29.71,M,6.21,M,M,M,M,M,M,M,M,M,M,YBBN 012030Z 36009KT CAVOK 22/19 Q1006 RMK 5AC145
YBBN,2012-11-01 21:00,153.1292,-27.3917,71.60,66.20,83.09,10.00,4.00,0.00,29.74,M,6.21,M,M,M,M,M,M,M,M,M,M,YBBN 012100Z 01004KT CAVOK 22/19 Q1007 RMK 5AC145
YBBN,2012-11-01 21:30,153.1292,-27.3917,75.20,66.20,73.61,0.00,0.00,0.00,29.74,M,6.21,M,M,M,M,M,M,M,M,M,M,YBBN 012130Z 00000KT CAVOK 24/19 Q1007
YBBN,2012-11-01 22:00,153.1292,-27.3917,77.00,66.20,69.33,110.00,7.00,0.00,29.74,M,6.21,M,M,M,M,M,M,M,M,M,M,YBBN 012200Z 11007KT CAVOK 25/19 Q1007
YBBN,2012-11-01 22:30,153.1292,-27.3917,75.20,64.40,69.14,120.00,12.00,0.00,29.77,M,6.21,M,FEW,SCT,M,M,2400.00,14500.00,M,M,M,YBBN 012230Z 12012KT 9999 FEW024 SCT145 24/18 Q1008
YBBN,2012-11-01 23:00,153.1292,-27.3917,77.00,66.20,69.33,110.00,13.00,0.00,29.80,M,6.21,M,FEW,SCT,M,M,2800.00,14500.00,M,M,M,YBBN 012300Z 11013KT 9999 FEW028 SCT145 25/19 Q1009
YBBN,2012-11-01 23:36,153.1292,-27.3917,78.80,62.60,57.60,110.00,15.00,0.00,29.80,M,6.21,25.00,FEW,SCT,M,M,3600.00,14500.00,M,M,M,YBBN 012336Z 11015G25KT 9999 FEW036 SCT145 26/17 Q1009
