#DEBUG: Format Typ    -> comma
#DEBUG: Time Period   -> 2016-09-17 00:00:00+00:00 2016-09-18 00:00:00+00:00
#DEBUG: Time Zone     -> Etc/UTC
#DEBUG: Data Contact   -> daryl herzmann akrherz@iastate.edu 515-294-5978
#DEBUG: Entries Found -> -1
station,valid,lon,lat,tmpf, dwpf, relh, drct, sknt, p01i, alti, mslp, vsby, gust, skyc1, skyc2, skyc3, skyc4, skyl1, skyl2, skyl3, skyl4, presentwx, metar
YBBN,2016-09-17 01:00,153.1292,-27.3917,71.60,59.00,64.48,90.00,7.00,0.00,30.18,M,6.21,M,FEW,SCT,M,M,3000.00,5000.00,M,M,M,YBBN 170100Z 09007KT 9999 FEW030 SCT050 22/15 Q1022 NOSIG
YBBN,2016-09-17 01:30,153.1292,-27.3917,71.60,57.20,60.44,70.00,9.00,0.00,30.18,M,6.21,M,FEW,SCT,M,M,3000.00,5200.00,M,M,M,YBBN 170130Z 07009KT 040V110 9999 FEW030 SCT052 22/14 Q1022 NOSIG
YBBN,2016-09-17 02:00,153.1292,-27.3917,73.40,57.20,56.88,60.00,11.00,0.00,30.15,M,6.21,M,FEW,M,M,M,3000.00,M,M,M,M,YBBN 170200Z 06011KT 9999 FEW030 23/14 Q1021 NOSIG
YBBN,2016-09-17 02:30,153.1292,-27.3917,73.40,59.00,60.67,60.00,10.00,0.00,30.15,M,6.21,M,FEW,M,M,M,3000.00,M,M,M,M,YBBN 170230Z 06010KT 9999 FEW030 23/15 Q1021 NOSIG
YBBN,2016-09-17 03:00,153.1292,-27.3917,73.40,57.20,56.88,70.00,11.00,0.00,30.12,M,6.21,M,FEW,M,M,M,3000.00,M,M,M,M,YBBN 170300Z 07011KT 9999 FEW030 23/14 Q1020
YBBN,2016-09-17 03:30,153.1292,-27.3917,73.40,57.20,56.88,70.00,11.00,0.00,30.12,M,6.21,M,FEW,M,M,M,3000.00,M,M,M,M,YBBN 170330Z 07011KT 9999 FEW030 23/14 Q1020 NOSIG
YBBN,2016-09-17 04:00,153.1292,-27.3917,71.60,57.20,60.44,50.00,14.00,0.00,30.09,M,6.21,M,FEW,M,M,M,3000.00,M,M,M,M,YBBN 170400Z 05014KT 9999 FEW030 22/14 Q1019 NOSIG
YBBN,2016-09-17 04:30,153.1292,-27.3917,71.60,57.20,60.44,50.00,15.00,0.00,30.06,M,6.21,M,FEW,M,M,M,2800.00,M,M,M,M,YBBN 170430Z 05015KT 9999 FEW028 22/14 Q1018 NOSIG
YBBN,2016-09-17 05:00,153.1292,-27.3917,71.60,57.20,60.44,50.00,12.00,0.00,30.06,M,6.21,M,FEW,M,M,M,2800.00,M,M,M,M,YBBN 170500Z 05012KT 9999 FEW028 22/14 Q1018
YBBN,2016-09-17 05:30,153.1292,-27.3917,71.60,57.20,60.44,50.00,10.00,0.00,30.09,M,6.21,M,FEW,BKN,M,M,2800.00,6000.00,M,M,M,YBBN 170530Z 05010KT 9999 FEW028 BKN060 22/14 Q1019 NOSIG
YBBN,2016-09-17 06:00,153.1292,-27.3917,71.60,59.00,64.48,50.00,11.00,0.00,30.09,M,6.21,M,FEW,SCT,M,M,2800.00,6000.00,M,M,M,YBBN 170600Z 05011KT 9999 FEW028 SCT060 22/15 Q1019 NOSIG
YBBN,2016-09-17 06:30,153.1292,-27.3917,71.60,59.00,64.48,50.00,11.00,0.00,30.09,M,6.21,M,FEW,M,M,M,2500.00,M,M,M,M,YBBN 170630Z 05011KT 9999 FEW025 22/15 Q1019 NOSIG
YBBN,2016-09-17 07:00,153.1292,-27.3917,69.80,59.00,68.55,40.00,10.00,0.00,30.09,M,6.21,M,FEW,M,M,M,2500.00,M,M,M,M,YBBN 170700Z 04010KT 9999 FEW025 21/15 Q1019
YBBN,2016-09-17 07:30,153.1292,-27.3917,69.80,59.00,68.55,50.00,8.00,0.00,30.09,M,6.21,M,FEW,SCT,M,M,2500.00,6500.00,M,M,M,YBBN 170730Z 05008KT 9999 FEW025 SCT065 21/15 Q1019 NOSIG
YBBN,2016-09-17 08:00,153.1292,-27.3917,68.00,59.00,72.92,50.00,9.00,0.00,30.09,M,6.21,M,FEW,M,M,M,2500.00,M,M,M,M,YBBN 170800Z 05009KT 9999 FEW025 20/15 Q1019 NOSIG
YBBN,2016-09-17 08:30,153.1292,-27.3917,69.80,60.80,73.09,50.00,9.00,0.00,30.09,M,6.21,M,FEW,SCT,M,M,2500.00,18000.00,M,M,M,YBBN 170830Z 05009KT 9999 FEW025 SCT180 21/16 Q1019 NOSIG
YBBN,2016-09-17 09:00,153.1292,-27.3917,68.00,60.80,77.75,50.00,6.00,0.00,30.12,M,6.21,M,FEW,SCT,M,M,2500.00,18000.00,M,M,M,YBBN 170900Z 05006KT 9999 FEW025 SCT180 20/16 Q1020 NOSIG
YBBN,2016-09-17 09:30,153.1292,-27.3917,68.00,60.80,77.75,50.00,7.00,0.00,30.12,M,6.21,M,FEW,SCT,M,M,2500.00,4800.00,M,M,M,YBBN 170930Z 05007KT 9999 FEW025 SCT048 20/16 Q1020
YBBN,2016-09-17 10:00,153.1292,-27.3917,68.00,60.80,77.75,60.00,6.00,0.00,30.12,M,6.21,M,FEW,SCT,M,M,2500.00,4600.00,M,M,M,YBBN 171000Z 06006KT 9999 FEW025 SCT046 20/16 Q1020
YBBN,2016-09-17 10:30,153.1292,-27.3917,68.00,60.80,77.75,50.00,7.00,0.00,30.12,M,6.21,M,FEW,SCT,M,M,2500.00,4600.00,M,M,M,YBBN 171030Z 05007KT 9999 FEW025 SCT046 20/16 Q1020 NOSIG
YBBN,2016-09-17 11:00,153.1292,-27.3917,69.80,60.80,73.09,50.00,8.00,0.00,30.12,M,6.21,M,SCT,M,M,M,4600.00,M,M,M,M,YBBN 171100Z 05008KT 9999 SCT046 21/16 Q1020 NOSIG
YBBN,2016-09-17 11:30,153.1292,-27.3917,68.00,62.60,82.86,40.00,8.00,0.00,30.12,M,6.21,M,SCT,M,M,M,4600.00,M,M,M,M,YBBN 171130Z 04008KT 9999 SCT046 20/17 Q1020 NOSIG
YBBN,2016-09-17 12:00,153.1292,-27.3917,68.00,62.60,82.86,40.00,9.00,0.00,30.09,M,6.21,M,M,M,M,M,M,M,M,M,M,YBBN 171200Z 04009KT CAVOK 20/17 Q1019 NOSIG
YBBN,2016-09-17 12:30,153.1292,-27.3917,68.00,62.60,82.86,40.00,9.00,0.00,30.09,M,6.21,M,FEW,SCT,M,M,2500.00,4100.00,M,M,M,YBBN 171230Z 04009KT 9999 FEW025 SCT041 20/17 Q1019 NOSIG
YBBN,2016-09-17 13:00,153.1292,-27.3917,68.00,62.60,82.86,40.00,10.00,0.00,30.09,M,6.21,M,FEW,SCT,M,M,2500.00,4300.00,M,M,M,YBBN 171300Z 04010KT 9999 FEW025 SCT043 20/17 Q1019 NOSIG
YBBN,2016-09-17 13:30,153.1292,-27.3917,68.00,62.60,82.86,40.00,7.00,0.00,30.09,M,6.21,M,FEW,BKN,M,M,3000.00,4100.00,M,M,M,YBBN 171330Z 04007KT 9999 FEW030 BKN041 20/17 Q1019 NOSIG
YBBN,2016-09-17 14:00,153.1292,-27.3917,68.00,62.60,82.86,30.00,8.00,0.00,30.09,M,6.21,M,FEW,BKN,M,M,3000.00,3900.00,M,M,M,YBBN 171400Z 03008KT 9999 FEW030 BKN039 20/17 Q1019 NOSIG
YBBN,2016-09-17 14:30,153.1292,-27.3917,69.80,62.60,77.90,50.00,7.00,0.00,30.06,M,6.21,M,FEW,SCT,M,M,2700.00,3700.00,M,M,M,YBBN 171430Z 05007KT 9999 FEW027 SCT037 21/17 Q1018 NOSIG
YBBN,2016-09-17 15:00,153.1292,-27.3917,69.80,62.60,77.90,50.00,7.00,0.00,30.06,M,6.21,M,FEW,SCT,M,M,2900.00,3800.00,M,M,M,YBBN 171500Z 05007KT 9999 FEW029 SCT038 21/17 Q1018
YBBN,2016-09-17 15:30,153.1292,-27.3917,69.80,64.40,82.98,40.00,6.00,0.00,30.03,M,6.21,M,FEW,SCT,M,M,2200.00,3900.00,M,M,VCSH,YBBN 171530Z 04006KT 9999 VCSH FEW022 SCT039 21/18 Q1017 NOSIG
YBBN,2016-09-17 16:30,153.1292,-27.3917,68.00,66.20,93.97,30.00,6.00,0.00,30.00,M,6.21,M,FEW,BKN,M,M,1400.00,2700.00,M,M,-DZ,YBBN 171630Z 03006KT 9999 -DZ FEW014 BKN027 20/19 Q1016 NOSIG
YBBN,2016-09-17 17:00,153.1292,-27.3917,68.00,66.20,93.97,330.00,6.00,0.00,30.03,M,6.21,M,FEW,SCT,BKN,M,1500.00,2200.00,4600.00,M,VCSH,YBBN 171700Z 33006KT 9999 VCSH FEW015 SCT022 BKN046 20/19 Q1017
YBBN,2016-09-17 17:30,153.1292,-27.3917,68.00,66.20,93.97,300.00,2.00,0.00,30.00,M,6.21,M,FEW,BKN,M,M,1800.00,4800.00,M,M,VCSH,YBBN 171730Z 30002KT 9999 VCSH FEW018 BKN048 20/19 Q1016 NOSIG
YBBN,2016-09-17 18:00,153.1292,-27.3917,68.00,66.20,93.97,0.00,0.00,0.00,30.00,M,6.21,M,FEW,BKN,M,M,2000.00,5400.00,M,M,VCSH,YBBN 171800Z 00000KT 9999 VCSH FEW020 BKN054 20/19 Q1016
YBBN,2016-09-17 19:00,153.1292,-27.3917,66.20,64.40,93.92,0.00,0.00,0.00,30.00,M,6.21,M,FEW,BKN,BKN,M,2000.00,5000.00,13000.00,M,VCSH,YBBN 171900Z 00000KT 9999 VCSH FEW020 BKN050 BKN130 19/18 Q1016
YBBN,2016-09-17 19:30,153.1292,-27.3917,66.20,64.40,93.92,0.00,0.00,0.00,30.00,M,6.21,M,FEW,SCT,BKN,M,2500.00,5000.00,13000.00,M,VCSH,YBBN 171930Z 00000KT 9999 VCSH FEW025 SCT050 BKN130 19/18 Q1016 NOSIG
YBBN,2016-09-17 20:00,153.1292,-27.3917,66.20,64.40,93.92,230.00,4.00,0.00,30.00,M,6.21,M,FEW,SCT,BKN,M,1700.00,5000.00,13000.00,M,VCSH,YBBN 172000Z 23004KT 9999 VCSH FEW017 SCT050 BKN130 19/18 Q1016
YBBN,2016-09-17 21:00,153.1292,-27.3917,68.00,64.40,88.26,0.00,0.00,0.00,30.00,M,5.59,M,FEW,SCT,BKN,M,1800.00,2800.00,6500.00,M,-RA,YBBN 172100Z 00000KT 9000 -RA FEW018 SCT028 BKN065 20/18 Q1016
YBBN,2016-09-17 21:30,153.1292,-27.3917,68.00,64.40,88.26,0.00,0.00,0.00,30.00,M,5.59,M,FEW,SCT,BKN,M,1800.00,3400.00,6000.00,M,-RA,YBBN 172130Z 00000KT 9000 -RA FEW018 SCT034 BKN060 20/18 Q1016
YBBN,2016-09-17 22:00,153.1292,-27.3917,68.00,64.40,88.26,280.00,4.00,0.00,30.03,M,5.59,M,FEW,SCT,BKN,M,2000.00,3500.00,4600.00,M,-RA,YBBN 172200Z 28004KT 9000 -RA FEW020 SCT035 BKN046 20/18 Q1017
YBBN,2016-09-17 23:00,153.1292,-27.3917,69.80,66.20,88.34,330.00,6.00,0.00,30.00,M,4.97,16.00,FEW,BKN,FEW,M,2000.00,4600.00,2800.00,M,M,YBBN 172300Z 33006G16KT 310V010 8000 FEW020 BKN046 FEW028TCU 21/19 Q1016
