#DEBUG: Format Typ    -> comma
#DEBUG: Time Period   -> 2012-08-23 00:00:00+00:00 2012-08-24 00:00:00+00:00
#DEBUG: Time Zone     -> Etc/UTC
#DEBUG: Data Contact   -> daryl herzmann akrherz@iastate.edu 515-294-5978
#DEBUG: Entries Found -> -1
station,valid,lon,lat,tmpf, dwpf, relh, drct, sknt, p01i, alti, mslp, vsby, gust, skyc1, skyc2, skyc3, skyc4, skyl1, skyl2, skyl3, skyl4, presentwx, metar
YBBN,2012-08-23 00:00,153.1292,-27.3917,71.60,62.60,73.27,360.00,7.00,0.00,30.09,M,6.21,M,FEW,M,M,M,2200.00,M,M,M,M,YBBN 230000Z 36007KT 9999 FEW022 22/17 Q1019 NOSIG
YBBN,2012-08-23 00:30,153.1292,-27.3917,73.40,62.60,68.94,10.00,8.00,0.00,30.09,M,6.21,M,SCT,SCT,M,M,2500.00,3000.00,M,M,M,YBBN 230030Z 01008KT 9999 SCT025 SCT030 23/17 Q1019
YBBN,2012-08-23 01:00,153.1292,-27.3917,73.40,62.60,68.94,30.00,7.00,0.00,30.06,M,6.21,M,SCT,SCT,M,M,3000.00,3400.00,M,M,M,YBBN 230100Z 03007KT 9999 SCT030 SCT034 23/17 Q1018
YBBN,2012-08-23 01:30,153.1292,-27.3917,75.20,62.60,64.91,30.00,8.00,0.00,30.06,M,6.21,M,FEW,SCT,M,M,3200.00,3600.00,M,M,M,YBBN 230130Z 03008KT 9999 FEW032 SCT036 24/17 Q1018
YBBN,2012-08-23 02:00,153.1292,-27.3917,73.40,64.40,73.44,30.00,11.00,0.00,30.06,M,6.21,M,FEW,M,M,M,3500.00,M,M,M,M,YBBN 230200Z 03011KT 9999 FEW035 23/18 Q1018
YBBN,2012-08-23 02:30,153.1292,-27.3917,73.40,64.40,73.44,30.00,13.00,0.00,30.03,M,6.21,M,FEW,M,M,M,3800.00,M,M,M,M,YBBN 230230Z 03013KT 9999 FEW038 23/18 Q1017
YBBN,2012-08-23 03:00,153.1292,-27.3917,75.20,64.40,69.14,30.00,12.00,0.00,30.03,M,6.21,M,FEW,M,M,M,4000.00,M,M,M,M,YBBN 230300Z 03012KT 9999 FEW040 24/18 Q1017
YBBN,2012-08-23 03:30,153.1292,-27.3917,75.20,64.40,69.14,30.00,13.00,0.00,30.00,M,6.21,M,FEW,M,M,M,4000.00,M,M,M,M,YBBN 230330Z 03013KT 9999 FEW040 24/18 Q1016
YBBN,2012-08-23 04:00,153.1292,-27.3917,73.40,64.40,73.44,30.00,15.00,0.00,30.00,M,6.21,M,FEW,M,M,M,4000.00,M,M,M,M,YBBN 230400Z 03015KT 9999 FEW040 23/18 Q1016
YBBN,2012-08-23 04:30,153.1292,-27.3917,73.40,64.40,73.44,30.00,14.00,0.00,30.00,M,6.21,M,FEW,M,M,M,4000.00,M,M,M,M,YBBN 230430Z 03014KT 9999 FEW040 23/18 Q1016
YBBN,2012-08-23 05:00,153.1292,-27.3917,73.40,64.40,73.44,20.00,15.00,0.00,29.97,M,6.21,M,FEW,M,M,M,4000.00,M,M,M,M,YBBN 230500Z 02015KT 9999 FEW040 23/18 Q1015
YBBN,2012-08-23 05:30,153.1292,-27.3917,71.60,64.40,78.04,20.00,16.00,0.00,29.97,M,6.21,M,FEW,M,M,M,4000.00,M,M,M,M,YBBN 230530Z 02016KT 9999 FEW040 22/18 Q1015
YBBN,2012-08-23 06:00,153.1292,-27.3917,71.60,64.40,78.04,20.00,16.00,0.00,29.97,M,6.21,M,FEW,M,M,M,4000.00,M,M,M,M,YBBN 230600Z 02016KT 9999 FEW040 22/18 Q1015 NOSIG
YBBN,2012-08-23 06:30,153.1292,-27.3917,69.80,64.40,82.98,20.00,16.00,0.00,29.97,M,6.21,M,FEW,M,M,M,4000.00,M,M,M,M,YBBN 230630Z 02016KT 9999 FEW040 21/18 Q1015
YBBN,2012-08-23 07:00,153.1292,-27.3917,69.80,64.40,82.98,20.00,15.00,0.00,29.97,M,6.21,M,FEW,M,M,M,4000.00,M,M,M,M,YBBN 230700Z 02015KT 9999 FEW040 21/18 Q1015
YBBN,2012-08-23 07:30,153.1292,-27.3917,68.00,64.40,88.26,10.00,15.00,0.00,29.97,M,6.21,M,FEW,M,M,M,3500.00,M,M,M,M,YBBN 230730Z 01015KT 9999 FEW035 20/18 Q1015
YBBN,2012-08-23 08:00,153.1292,-27.3917,68.00,66.20,93.97,10.00,15.00,0.00,29.97,M,6.21,M,FEW,M,M,M,3500.00,M,M,M,M,YBBN 230800Z 01015KT 9999 FEW035 20/19 Q1015
YBBN,2012-08-23 08:30,153.1292,-27.3917,68.00,66.20,93.97,10.00,13.00,0.00,29.97,M,6.21,M,FEW,M,M,M,3000.00,M,M,M,M,YBBN 230830Z 01013KT 9999 FEW030 20/19 Q1015
YBBN,2012-08-23 09:00,153.1292,-27.3917,68.00,66.20,93.97,10.00,15.00,0.00,30.00,M,6.21,M,FEW,M,M,M,3000.00,M,M,M,M,YBBN 230900Z 01015KT 9999 FEW030 20/19 Q1016
YBBN,2012-08-23 09:30,153.1292,-27.3917,68.00,64.40,88.26,10.00,13.00,0.00,30.00,M,6.21,M,FEW,M,M,M,3000.00,M,M,M,M,YBBN 230930Z 01013KT 9999 FEW030 20/18 Q1016
YBBN,2012-08-23 10:00,153.1292,-27.3917,68.00,66.20,93.97,360.00,14.00,0.00,30.00,M,6.21,M,FEW,M,M,M,3000.00,M,M,M,M,YBBN 231000Z 36014KT 9999 FEW030 20/19 Q1016 NOSIG
YBBN,2012-08-23 10:30,153.1292,-27.3917,68.00,64.40,88.26,360.00,15.00,0.00,30.00,M,6.21,M,M,M,M,M,M,M,M,M,M,YBBN 231030Z 36015KT CAVOK 20/18 Q1016
YBBN,2012-08-23 11:00,153.1292,-27.3917,68.00,66.20,93.97,360.00,12.00,0.00,30.03,M,6.21,M,M,M,M,M,M,M,M,M,M,YBBN 231100Z 36012KT CAVOK 20/19 Q1017 NOSIG
YBBN,2012-08-23 11:30,153.1292,-27.3917,68.00,64.40,88.26,360.00,9.00,0.00,30.03,M,6.21,M,M,M,M,M,M,M,M,M,M,YBBN 231130Z 36009KT CAVOK 20/18 Q1017 RMK HZ
YBBN,2012-08-23 12:00,153.1292,-27.3917,66.20,64.40,93.92,10.00,10.00,0.00,30.06,M,6.21,M,M,M,M,M,M,M,M,M,M,YBBN 231200Z 01010KT CAVOK 19/18 Q1018 NOSIG
YBBN,2012-08-23 12:30,153.1292,-27.3917,66.20,62.60,88.18,360.00,11.00,0.00,30.06,M,6.21,M,M,M,M,M,M,M,M,M,M,YBBN 231230Z 36011KT CAVOK 19/17 Q1018
YBBN,2012-08-23 13:00,153.1292,-27.3917,66.20,62.60,88.18,10.00,13.00,0.00,30.03,M,6.21,M,M,M,M,M,M,M,M,M,M,YBBN 231300Z 01013KT CAVOK 19/17 Q1017
YBBN,2012-08-23 13:30,153.1292,-27.3917,66.20,62.60,88.18,10.00,14.00,0.00,30.03,M,6.21,M,M,M,M,M,M,M,M,M,M,YBBN 231330Z 01014KT CAVOK 19/17 Q1017
YBBN,2012-08-23 14:00,153.1292,-27.3917,66.20,62.60,88.18,360.00,12.00,0.00,30.06,M,6.21,M,M,M,M,M,M,M,M,M,M,YBBN 231400Z 36012KT CAVOK 19/17 Q1018 NOSIG
YBBN,2012-08-23 14:30,153.1292,-27.3917,66.20,62.60,88.18,350.00,10.00,0.00,30.06,M,6.21,M,M,M,M,M,M,M,M,M,M,YBBN 231430Z 35010KT CAVOK 19/17 Q1018
YBBN,2012-08-23 15:00,153.1292,-27.3917,66.20,62.60,88.18,350.00,10.00,0.00,30.06,M,6.21,M,M,M,M,M,M,M,M,M,M,YBBN 231500Z 35010KT CAVOK 19/17 Q1018
YBBN,2012-08-23 15:30,153.1292,-27.3917,64.40,62.60,93.88,360.00,9.00,0.00,30.06,M,6.21,M,M,M,M,M,M,M,M,M,M,YBBN 231530Z 36009KT CAVOK 18/17 Q1018
YBBN,2012-08-23 16:00,153.1292,-27.3917,66.20,62.60,88.18,360.00,12.00,0.00,30.03,M,6.21,M,M,M,M,M,M,M,M,M,M,YBBN 231600Z 36012KT CAVOK 19/17 Q1017
YBBN,2012-08-23 16:30,153.1292,-27.3917,66.20,62.60,88.18,360.00,11.00,0.00,30.03,M,6.21,M,M,M,M,M,M,M,M,M,M,YBBN 231630Z 36011KT CAVOK 19/17 Q1017
YBBN,2012-08-23 17:00,153.1292,-27.3917,66.20,62.60,88.18,350.00,10.00,0.00,30.03,M,6.21,M,FEW,BKN,M,M,3000.00,21000.00,M,M,M,YBBN 231700Z 35010KT 9999 FEW030 BKN210 19/17 Q1017
YBBN,2012-08-23 17:30,153.1292,-27.3917,66.20,62.60,88.18,10.00,16.00,0.00,29.97,M,6.21,M,M,M,M,M,M,M,M,M,M,YBBN 231730Z 01016KT CAVOK 19/17 Q1015 RMK 6AC170
YBBN,2012-08-23 18:00,153.1292,-27.3917,66.20,62.60,88.18,360.00,17.00,0.00,30.00,M,6.21,M,M,M,M,M,M,M,M,M,M,YBBN 231800Z 36017KT CAVOK 19/17 Q1016
YBBN,2012-08-23 18:30,153.1292,-27.3917,66.20,62.60,88.18,360.00,10.00,0.00,30.00,M,6.21,M,M,M,M,M,M,M,M,M,M,YBBN 231830Z 36010KT CAVOK 19/17 Q1016
YBBN,2012-08-23 19:00,153.1292,-27.3917,66.20,62.60,88.18,350.00,11.00,0.00,30.00,M,6.21,M,M,M,M,M,M,M,M,M,M,YBBN 231900Z 35011KT CAVOK 19/17 Q1016
YBBN,2012-08-23 19:30,153.1292,-27.3917,66.20,62.60,88.18,350.00,10.00,0.00,30.03,M,6.21,M,M,M,M,M,M,M,M,M,M,YBBN 231930Z 35010KT CAVOK 19/17 Q1017 RMK 7AC180
YBBN,2012-08-23 20:00,153.1292,-27.3917,68.00,64.40,88.26,350.00,14.00,0.00,30.03,M,6.21,M,FEW,BKN,M,M,3000.00,20000.00,M,M,M,YBBN 232000Z 35014KT 9999 FEW030 BKN200 20/18 Q1017 NOSIG
YBBN,2012-08-23 20:30,153.1292,-27.3917,68.00,62.60,82.86,330.00,10.00,0.00,30.06,M,6.21,M,FEW,SCT,BKN,M,3000.00,16000.00,20000.00,M,M,YBBN 232030Z 33010KT 9999 FEW030 SCT160 BKN200 20/17 Q1018
YBBN,2012-08-23 21:00,153.1292,-27.3917,68.00,62.60,82.86,350.00,7.00,0.00,30.06,M,6.21,M,FEW,SCT,BKN,M,3000.00,16000.00,20000.00,M,M,YBBN 232100Z 35007KT 9999 FEW030 SCT160 BKN200 20/17 Q1018
YBBN,2012-08-23 21:30,153.1292,-27.3917,68.00,64.40,88.26,350.00,10.00,0.00,30.06,M,6.21,M,FEW,SCT,BKN,M,3000.00,16000.00,22000.00,M,M,YBBN 232130Z 35010KT 9999 FEW030 SCT160 BKN220 20/18 Q1018
YBBN,2012-08-23 22:00,153.1292,-27.3917,68.00,64.40,88.26,360.00,9.00,0.00,30.09,M,6.21,M,FEW,SCT,BKN,M,3000.00,16000.00,22000.00,M,M,YBBN 232200Z 36009KT 9999 FEW030 SCT160 BKN220 20/18 Q1019 NOSIG
YBBN,2012-08-23 22:30,153.1292,-27.3917,69.80,64.40,82.98,360.00,12.00,0.00,30.09,M,6.21,M,FEW,BKN,M,M,3000.00,22000.00,M,M,M,YBBN 232230Z 36012KT 9999 FEW030 BKN220 21/18 Q1019
YBBN,2012-08-23 23:00,153.1292,-27.3917,69.80,64.40,82.98,360.00,12.00,0.00,30.09,M,6.21,M,FEW,BKN,M,M,3000.00,22000.00,M,M,M,YBBN 232300Z 36012KT 9999 FEW030 BKN220 21/18 Q1019
YBBN,2012-08-23 23:30,153.1292,-27.3917,69.80,64.40,82.98,360.00,12.00,0.00,30.06,M,6.21,M,FEW,SCT,M,M,3000.00,22000.00,M,M,M,YBBN 232330Z 36012KT 9999 FEW030 SCT220 21/18 Q1018
