#DEBUG: Format Typ    -> comma
#DEBUG: Time Period   -> 2016-09-04 00:00:00+00:00 2016-09-05 00:00:00+00:00
#DEBUG: Time Zone     -> Etc/UTC
#DEBUG: Data Contact   -> daryl herzmann akrherz@iastate.edu 515-294-5978
#DEBUG: Entries Found -> -1
station,valid,lon,lat,tmpf, dwpf, relh, drct, sknt, p01i, alti, mslp, vsby, gust, skyc1, skyc2, skyc3, skyc4, skyl1, skyl2, skyl3, skyl4, presentwx, metar
YBBN,2016-09-04 00:00,153.1292,-27.3917,68.00,41.00,37.32,220.00,13.00,0.00,30.18,M,6.21,M,M,M,M,M,M,M,M,M,M,YBBN 040000Z 22013KT CAVOK 20/05 Q1022 NOSIG
YBBN,2016-09-04 00:30,153.1292,-27.3917,69.80,41.00,35.09,230.00,13.00,0.00,30.18,M,6.21,M,M,M,M,M,M,M,M,M,M,YBBN 040030Z 23013KT CAVOK 21/05 Q1022 NOSIG
YBBN,2016-09-04 01:00,153.1292,-27.3917,69.80,41.00,35.09,210.00,9.00,0.00,30.18,M,6.21,M,M,M,M,M,M,M,M,M,M,YBBN 040100Z 21009KT CAVOK 21/05 Q1022
YBBN,2016-09-04 02:00,153.1292,-27.3917,71.60,39.20,30.77,70.00,5.00,0.00,30.15,M,6.21,M,M,M,M,M,M,M,M,M,M,YBBN 040200Z 07005KT CAVOK 22/04 Q1021
YBBN,2016-09-04 02:30,153.1292,-27.3917,71.60,41.00,33.00,90.00,8.00,0.00,30.15,M,6.21,M,M,M,M,M,M,M,M,M,M,YBBN 040230Z 09008KT CAVOK 22/05 Q1021 NOSIG
YBBN,2016-09-04 03:00,153.1292,-27.3917,71.60,39.20,30.77,50.00,11.00,0.00,30.15,M,6.21,M,M,M,M,M,M,M,M,M,M,YBBN 040300Z 05011KT CAVOK 22/04 Q1021
YBBN,2016-09-04 03:30,153.1292,-27.3917,71.60,37.40,28.68,40.00,11.00,0.00,30.15,M,6.21,M,M,M,M,M,M,M,M,M,M,YBBN 040330Z 04011KT CAVOK 22/03 Q1021 NOSIG
YBBN,2016-09-04 04:00,153.1292,-27.3917,71.60,41.00,33.00,50.00,11.00,0.00,30.15,M,6.21,M,M,M,M,M,M,M,M,M,M,YBBN 040400Z 05011KT CAVOK 22/05 Q1021 NOSIG
YBBN,2016-09-04 04:30,153.1292,-27.3917,69.80,37.40,30.49,50.00,12.00,0.00,30.15,M,6.21,M,M,M,M,M,M,M,M,M,M,YBBN 040430Z 05012KT CAVOK 21/03 Q1021
YBBN,2016-09-04 05:00,153.1292,-27.3917,69.80,46.40,43.13,60.00,11.00,0.00,30.15,M,6.21,M,M,M,M,M,M,M,M,M,M,YBBN 040500Z 06011KT CAVOK 21/08 Q1021
YBBN,2016-09-04 05:30,153.1292,-27.3917,68.00,46.40,45.88,60.00,10.00,0.00,30.15,M,6.21,M,M,M,M,M,M,M,M,M,M,YBBN 040530Z 06010KT CAVOK 20/08 Q1021 NOSIG
YBBN,2016-09-04 06:00,153.1292,-27.3917,68.00,44.60,42.85,60.00,11.00,0.00,30.15,M,6.21,M,M,M,M,M,M,M,M,M,M,YBBN 040600Z 06011KT CAVOK 20/07 Q1021 NOSIG
YBBN,2016-09-04 06:30,153.1292,-27.3917,68.00,46.40,45.88,60.00,8.00,0.00,30.18,M,6.21,M,M,M,M,M,M,M,M,M,M,YBBN 040630Z 06008KT CAVOK 20/08 Q1022 NOSIG
YBBN,2016-09-04 07:00,153.1292,-27.3917,66.20,48.20,52.25,70.00,7.00,0.00,30.18,M,6.21,M,M,M,M,M,M,M,M,M,M,YBBN 040700Z 07007KT CAVOK 19/09 Q1022
YBBN,2016-09-04 07:30,153.1292,-27.3917,64.40,48.20,55.63,90.00,5.00,0.00,30.18,M,6.21,M,M,M,M,M,M,M,M,M,M,YBBN 040730Z 09005KT CAVOK 18/09 Q1022 NOSIG
YBBN,2016-09-04 08:00,153.1292,-27.3917,64.40,50.00,59.50,100.00,5.00,0.00,30.18,M,6.21,M,M,M,M,M,M,M,M,M,M,YBBN 040800Z 10005KT CAVOK 18/10 Q1022
YBBN,2016-09-04 08:30,153.1292,-27.3917,64.40,51.80,63.60,110.00,4.00,0.00,30.21,M,6.21,M,M,M,M,M,M,M,M,M,M,YBBN 040830Z 11004KT CAVOK 18/11 Q1023 NOSIG
YBBN,2016-09-04 09:00,153.1292,-27.3917,62.60,51.80,67.75,0.00,0.00,0.00,30.21,M,6.21,M,M,M,M,M,M,M,M,M,M,YBBN 040900Z 00000KT CAVOK 17/11 Q1023 NOSIG
YBBN,2016-09-04 09:30,153.1292,-27.3917,62.60,53.60,72.38,160.00,4.00,0.00,30.24,M,6.21,M,M,M,M,M,M,M,M,M,M,YBBN 040930Z 16004KT CAVOK 17/12 Q1024 NOSIG
YBBN,2016-09-04 10:00,153.1292,-27.3917,62.60,53.60,72.38,180.00,4.00,0.00,30.24,M,6.21,M,FEW,BKN,M,M,4000.00,30000.00,M,M,M,YBBN 041000Z 18004KT 9999 FEW040 BKN300 17/12 Q1024
YBBN,2016-09-04 10:30,153.1292,-27.3917,62.60,53.60,72.38,170.00,4.00,0.00,30.27,M,6.21,M,FEW,BKN,M,M,4000.00,30000.00,M,M,M,YBBN 041030Z 17004KT 9999 FEW040 BKN300 17/12 Q1025 NOSIG
YBBN,2016-09-04 11:00,153.1292,-27.3917,62.60,53.60,72.38,170.00,3.00,0.00,30.27,M,6.21,M,FEW,SCT,M,M,4500.00,30000.00,M,M,M,YBBN 041100Z 17003KT 9999 FEW045 SCT300 17/12 Q1025
YBBN,2016-09-04 11:30,153.1292,-27.3917,62.60,53.60,72.38,190.00,5.00,0.00,30.27,M,6.21,M,FEW,BKN,M,M,4000.00,30000.00,M,M,M,YBBN 041130Z 19005KT 9999 FEW040 BKN300 17/12 Q1025 NOSIG
YBBN,2016-09-04 12:00,153.1292,-27.3917,60.80,51.80,72.20,180.00,4.00,0.00,30.27,M,6.21,M,FEW,BKN,M,M,3500.00,30000.00,M,M,M,YBBN 041200Z 18004KT 9999 FEW035 BKN300 16/11 Q1025 NOSIG
YBBN,2016-09-04 12:30,153.1292,-27.3917,60.80,51.80,72.20,170.00,5.00,0.00,30.27,M,6.21,M,FEW,BKN,M,M,3500.00,30000.00,M,M,M,YBBN 041230Z 17005KT 9999 FEW035 BKN300 16/11 Q1025 NOSIG
YBBN,2016-09-04 13:00,153.1292,-27.3917,60.80,51.80,72.20,170.00,4.00,0.00,30.27,M,6.21,M,FEW,BKN,M,M,3500.00,30000.00,M,M,M,YBBN 041300Z 17004KT 9999 FEW035 BKN300 16/11 Q1025 NOSIG
YBBN,2016-09-04 13:30,153.1292,-27.3917,60.80,51.80,72.20,170.00,5.00,0.00,30.27,M,6.21,M,M,M,M,M,M,M,M,M,M,YBBN 041330Z 17005KT CAVOK 16/11 Q1025 NOSIG
YBBN,2016-09-04 14:00,153.1292,-27.3917,60.80,51.80,72.20,170.00,6.00,0.00,30.27,M,6.21,M,FEW,BKN,M,M,4000.00,30000.00,M,M,M,YBBN 041400Z 17006KT 9999 FEW040 BKN300 16/11 Q1025
YBBN,2016-09-04 14:30,153.1292,-27.3917,59.00,51.80,76.98,190.00,5.00,0.00,30.27,M,6.21,M,M,M,M,M,M,M,M,M,M,YBBN 041430Z 19005KT CAVOK 15/11 Q1025 NOSIG
YBBN,2016-09-04 15:00,153.1292,-27.3917,59.00,51.80,76.98,190.00,5.00,0.00,30.27,M,6.21,M,M,M,M,M,M,M,M,M,M,YBBN 041500Z 19005KT CAVOK 15/11 Q1025
YBBN,2016-09-04 15:30,153.1292,-27.3917,57.20,50.00,76.82,200.00,4.00,0.00,30.27,M,6.21,M,M,M,M,M,M,M,M,M,M,YBBN 041530Z 20004KT CAVOK 14/10 Q1025 NOSIG
YBBN,2016-09-04 16:00,153.1292,-27.3917,57.20,50.00,76.82,210.00,5.00,0.00,30.27,M,6.21,M,M,M,M,M,M,M,M,M,M,YBBN 041600Z 21005KT CAVOK 14/10 Q1025
YBBN,2016-09-04 16:30,153.1292,-27.3917,57.20,50.00,76.82,200.00,6.00,0.00,30.27,M,6.21,M,M,M,M,M,M,M,M,M,M,YBBN 041630Z 20006KT CAVOK 14/10 Q1025 NOSIG
YBBN,2016-09-04 17:00,153.1292,-27.3917,55.40,50.00,81.99,200.00,6.00,0.00,30.27,M,6.21,M,M,M,M,M,M,M,M,M,M,YBBN 041700Z 20006KT CAVOK 13/10 Q1025 NOSIG
YBBN,2016-09-04 17:30,153.1292,-27.3917,53.60,50.00,87.56,200.00,7.00,0.00,30.27,M,6.21,M,M,M,M,M,M,M,M,M,M,YBBN 041730Z 20007KT CAVOK 12/10 Q1025 NOSIG
YBBN,2016-09-04 18:00,153.1292,-27.3917,55.40,50.00,81.99,200.00,7.00,0.00,30.27,M,6.21,M,FEW,SCT,M,M,4000.00,30000.00,M,M,M,YBBN 041800Z 20007KT 9999 FEW040 SCT300 13/10 Q1025
YBBN,2016-09-04 18:30,153.1292,-27.3917,55.40,50.00,81.99,200.00,7.00,0.00,30.30,M,6.21,M,SCT,M,M,M,4500.00,M,M,M,M,YBBN 041830Z 20007KT 9999 SCT045 13/10 Q1026 NOSIG
YBBN,2016-09-04 19:00,153.1292,-27.3917,53.60,48.20,81.87,210.00,8.00,0.00,30.30,M,6.21,M,M,M,M,M,M,M,M,M,M,YBBN 041900Z 21008KT CAVOK 12/09 Q1026
YBBN,2016-09-04 19:30,153.1292,-27.3917,55.40,50.00,81.99,200.00,8.00,0.00,30.30,M,6.21,M,M,M,M,M,M,M,M,M,M,YBBN 041930Z 20008KT CAVOK 13/10 Q1026 NOSIG
YBBN,2016-09-04 20:00,153.1292,-27.3917,53.60,48.20,81.87,210.00,7.00,0.00,30.33,M,6.21,M,M,M,M,M,M,M,M,M,M,YBBN 042000Z 21007KT CAVOK 12/09 Q1027 NOSIG
YBBN,2016-09-04 21:00,153.1292,-27.3917,57.20,50.00,76.82,210.00,9.00,0.00,30.33,M,6.21,M,M,M,M,M,M,M,M,M,M,YBBN 042100Z 21009KT CAVOK 14/10 Q1027
YBBN,2016-09-04 23:00,153.1292,-27.3917,64.40,50.00,59.50,210.00,10.00,0.00,30.36,M,6.21,M,M,M,M,M,M,M,M,M,M,YBBN 042300Z 21010KT CAVOK 18/10 Q1028
