#DEBUG: Format Typ    -> comma
#DEBUG: Time Period   -> 2011-04-03 00:00:00+00:00 2011-04-04 00:00:00+00:00
#DEBUG: Time Zone     -> Etc/UTC
#DEBUG: Data Contact   -> daryl herzmann akrherz@iastate.edu 515-294-5978
#DEBUG: Entries Found -> -1
station,valid,lon,lat,tmpf, dwpf, relh, drct, sknt, p01i, alti, mslp, vsby, gust, skyc1, skyc2, skyc3, skyc4, skyl1, skyl2, skyl3, skyl4, presentwx, metar
YBBN,2011-04-03 00:00,153.1292,-27.3917,78.80,62.60,57.60,150.00,9.00,M,30.15,M,6.21,M,SCT,M,M,M,2800.00,M,M,M,VCSH,YBBN 030000Z 15009KT 9999 VCSH SCT028 26/17 Q1021 NOSIG
YBBN,2011-04-03 00:30,153.1292,-27.3917,78.80,62.60,57.60,140.00,12.00,M,30.15,M,6.21,M,BKN,SCT,M,M,2900.00,4800.00,M,M,VCSH,YBBN 030030Z 14012KT 9999 VCSH BKN029 SCT048 26/17 Q1021 NOSIG
YBBN,2011-04-03 01:00,153.1292,-27.3917,77.00,64.40,65.12,140.00,10.00,M,30.15,M,6.21,M,BKN,SCT,M,M,2900.00,4800.00,M,M,VCSH,YBBN 030100Z 14010KT 9999 VCSH BKN029 SCT048 25/18 Q1021 NOSIG
YBBN,2011-04-03 01:30,153.1292,-27.3917,77.00,62.60,61.13,130.00,11.00,M,30.15,M,6.21,M,SCT,BKN,M,M,2900.00,4100.00,M,M,VCSH,YBBN 030130Z 13011KT 9999 VCSH SCT029 BKN041 25/17 Q1021 NOSIG
YBBN,2011-04-03 02:00,153.1292,-27.3917,75.20,64.40,69.14,170.00,11.00,M,30.15,M,6.21,M,SCT,SCT,BKN,M,3000.00,5800.00,7200.00,M,VCSH,YBBN 030200Z 17011KT 9999 VCSH SCT030 SCT058 BKN072 24/18 Q1021 NOSIG
YBBN,2011-04-03 02:30,153.1292,-27.3917,73.40,62.60,68.94,170.00,10.00,M,30.15,M,6.21,M,FEW,BKN,M,M,3000.00,5600.00,M,M,VCSH,YBBN 030230Z 17010KT 9999 VCSH FEW030 BKN056 23/17 Q1021 NOSIG
YBBN,2011-04-03 03:00,153.1292,-27.3917,73.40,60.80,64.69,150.00,8.00,M,30.12,M,6.21,M,FEW,OVC,M,M,1500.00,5700.00,M,M,VCSH,YBBN 030300Z 15008KT 9999 VCSH FEW015 OVC057 23/16 Q1020 NOSIG
YBBN,2011-04-03 03:30,153.1292,-27.3917,75.20,60.80,60.90,150.00,7.00,M,30.12,M,6.21,M,FEW,BKN,BKN,M,1500.00,5200.00,6500.00,M,VCSH,YBBN 030330Z 15007KT 9999 VCSH FEW015 BKN052 BKN065 24/16 Q1020 NOSIG
YBBN,2011-04-03 04:00,153.1292,-27.3917,75.20,60.80,60.90,150.00,8.00,M,30.12,M,6.21,M,FEW,BKN,BKN,M,1500.00,5800.00,6800.00,M,VCSH,YBBN 030400Z 15008KT 9999 VCSH FEW015 BKN058 BKN068 24/16 Q1020 NOSIG
YBBN,2011-04-03 04:30,153.1292,-27.3917,75.20,62.60,64.91,130.00,8.00,M,30.12,M,6.21,M,FEW,SCT,BKN,M,1500.00,3500.00,6400.00,M,VCSH,YBBN 030430Z 13008KT 9999 VCSH FEW015 SCT035 BKN064 24/17 Q1020 NOSIG
YBBN,2011-04-03 05:00,153.1292,-27.3917,77.00,60.80,57.36,130.00,9.00,M,30.12,M,6.21,M,SCT,BKN,M,M,3500.00,7100.00,M,M,VCSH,YBBN 030500Z 13009KT 9999 VCSH SCT035 BKN071 25/16 Q1020 NOSIG
YBBN,2011-04-03 05:30,153.1292,-27.3917,75.20,59.00,57.12,140.00,9.00,M,30.12,M,6.21,M,SCT,BKN,M,M,3500.00,4700.00,M,M,VCSH,YBBN 030530Z 14009KT 9999 VCSH SCT035 BKN047 24/15 Q1020 NOSIG
YBBN,2011-04-03 06:00,153.1292,-27.3917,75.20,57.20,53.55,140.00,9.00,M,30.12,M,6.21,M,FEW,SCT,BKN,M,1700.00,3000.00,5900.00,M,VCSH,YBBN 030600Z 14009KT 9999 VCSH FEW017 SCT030 BKN059 24/14 Q1020 NOSIG
YBBN,2011-04-03 06:30,153.1292,-27.3917,75.20,59.00,57.12,130.00,9.00,M,30.12,M,6.21,M,FEW,SCT,M,M,1700.00,5900.00,M,M,M,YBBN 030630Z 13009KT 9999 FEW017 SCT059 24/15 Q1020 NOSIG
YBBN,2011-04-03 07:00,153.1292,-27.3917,75.20,59.00,57.12,130.00,9.00,M,30.12,M,6.21,M,FEW,M,M,M,3500.00,M,M,M,M,YBBN 030700Z 13009KT 9999 FEW035 24/15 Q1020 NOSIG
YBBN,2011-04-03 07:30,153.1292,-27.3917,75.20,59.00,57.12,140.00,8.00,M,30.12,M,6.21,M,FEW,SCT,M,M,3500.00,7200.00,M,M,M,YBBN 030730Z 14008KT 9999 FEW035 SCT072 24/15 Q1020 NOSIG
YBBN,2011-04-03 08:00,153.1292,-27.3917,73.40,59.00,60.67,140.00,7.00,M,30.12,M,6.21,M,FEW,SCT,M,M,3500.00,7400.00,M,M,M,YBBN 030800Z 14007KT 9999 FEW035 SCT074 23/15 Q1020 NOSIG
YBBN,2011-04-03 08:30,153.1292,-27.3917,73.40,60.80,64.69,130.00,7.00,M,30.15,M,6.21,M,M,M,M,M,M,M,M,M,M,YBBN 030830Z 13007KT CAVOK 23/16 Q1021 NOSIG
YBBN,2011-04-03 09:00,153.1292,-27.3917,73.40,59.00,60.67,140.00,7.00,M,30.15,M,6.21,M,M,M,M,M,M,M,M,M,M,YBBN 030900Z 14007KT CAVOK 23/15 Q1021 NOSIG
YBBN,2011-04-03 09:30,153.1292,-27.3917,73.40,59.00,60.67,140.00,5.00,M,30.15,M,6.21,M,M,M,M,M,M,M,M,M,M,YBBN 030930Z 14005KT CAVOK 23/15 Q1021 NOSIG
YBBN,2011-04-03 10:00,153.1292,-27.3917,71.60,60.80,68.75,150.00,5.00,M,30.18,M,6.21,M,FEW,M,M,M,3800.00,M,M,M,M,YBBN 031000Z 15005KT 9999 FEW038 22/16 Q1022 NOSIG
YBBN,2011-04-03 10:30,153.1292,-27.3917,71.60,60.80,68.75,180.00,5.00,M,30.18,M,6.21,M,SCT,M,M,M,3800.00,M,M,M,M,YBBN 031030Z 18005KT 9999 SCT038 22/16 Q1022 NOSIG
YBBN,2011-04-03 11:00,153.1292,-27.3917,69.80,60.80,73.09,200.00,5.00,M,30.15,M,6.21,M,FEW,M,M,M,3800.00,M,M,M,M,YBBN 031100Z 20005KT 9999 FEW038 21/16 Q1021 NOSIG
YBBN,2011-04-03 11:30,153.1292,-27.3917,68.00,60.80,77.75,210.00,5.00,M,30.18,M,6.21,M,FEW,M,M,M,3800.00,M,M,M,M,YBBN 031130Z 21005KT 9999 FEW038 20/16 Q1022 NOSIG
YBBN,2011-04-03 12:00,153.1292,-27.3917,66.20,60.80,82.74,210.00,3.00,M,30.18,M,6.21,M,FEW,M,M,M,3800.00,M,M,M,M,YBBN 031200Z 21003KT 9999 FEW038 19/16 Q1022 NOSIG
YBBN,2011-04-03 12:30,153.1292,-27.3917,66.20,60.80,82.74,210.00,5.00,M,30.18,M,6.21,M,FEW,M,M,M,3800.00,M,M,M,M,YBBN 031230Z 21005KT 9999 FEW038 19/16 Q1022 NOSIG
YBBN,2011-04-03 13:00,153.1292,-27.3917,66.20,60.80,82.74,210.00,6.00,M,30.18,M,6.21,M,SCT,M,M,M,4400.00,M,M,M,M,YBBN 031300Z 21006KT 9999 SCT044 19/16 Q1022 NOSIG
YBBN,2011-04-03 13:30,153.1292,-27.3917,66.20,60.80,82.74,210.00,6.00,M,30.15,M,6.21,M,FEW,M,M,M,4200.00,M,M,M,M,YBBN 031330Z 21006KT 9999 FEW042 19/16 Q1021 NOSIG
YBBN,2011-04-03 14:00,153.1292,-27.3917,64.40,60.80,88.09,210.00,5.00,M,30.15,M,6.21,M,FEW,SCT,M,M,4200.00,7000.00,M,M,M,YBBN 031400Z 21005KT 9999 FEW042 SCT070 18/16 Q1021 NOSIG
YBBN,2011-04-03 14:30,153.1292,-27.3917,66.20,60.80,82.74,210.00,6.00,M,30.15,M,6.21,M,FEW,SCT,M,M,4000.00,5500.00,M,M,M,YBBN 031430Z 21006KT 9999 FEW040 SCT055 19/16 Q1021 NOSIG
YBBN,2011-04-03 15:00,153.1292,-27.3917,66.20,60.80,82.74,210.00,6.00,M,30.15,M,6.21,M,FEW,SCT,M,M,4200.00,6500.00,M,M,M,YBBN 031500Z 21006KT 9999 FEW042 SCT065 19/16 Q1021 NOSIG
YBBN,2011-04-03 15:30,153.1292,-27.3917,66.20,60.80,82.74,210.00,5.00,M,30.15,M,6.21,M,FEW,SCT,M,M,4200.00,7000.00,M,M,M,YBBN 031530Z 21005KT 9999 FEW042 SCT070 19/16 Q1021 NOSIG
YBBN,2011-04-03 16:00,153.1292,-27.3917,64.40,60.80,88.09,210.00,4.00,M,30.12,M,6.21,M,FEW,SCT,M,M,4200.00,7200.00,M,M,M,YBBN 031600Z 21004KT 9999 FEW042 SCT072 18/16 Q1020 NOSIG
YBBN,2011-04-03 16:30,153.1292,-27.3917,66.20,60.80,82.74,210.00,7.00,M,30.12,M,6.21,M,FEW,M,M,M,4200.00,M,M,M,M,YBBN 031630Z 21007KT 9999 FEW042 19/16 Q1020 NOSIG
YBBN,2011-04-03 17:00,153.1292,-27.3917,64.40,60.80,88.09,210.00,7.00,M,30.12,M,6.21,M,FEW,M,M,M,3500.00,M,M,M,M,YBBN 031700Z 21007KT 9999 FEW035 18/16 Q1020 NOSIG
YBBN,2011-04-03 17:30,153.1292,-27.3917,66.20,60.80,82.74,210.00,6.00,M,30.12,M,6.21,M,SCT,M,M,M,4200.00,M,M,M,M,YBBN 031730Z 21006KT 9999 SCT042 19/16 Q1020 NOSIG
YBBN,2011-04-03 18:00,153.1292,-27.3917,64.40,60.80,88.09,220.00,6.00,M,30.12,M,6.21,M,FEW,SCT,M,M,3500.00,4800.00,M,M,M,YBBN 031800Z 22006KT 9999 FEW035 SCT048 18/16 Q1020 NOSIG
YBBN,2011-04-03 18:30,153.1292,-27.3917,64.40,60.80,88.09,220.00,6.00,M,30.15,M,6.21,M,FEW,SCT,M,M,3500.00,4500.00,M,M,M,YBBN 031830Z 22006KT 9999 FEW035 SCT045 18/16 Q1021 NOSIG
YBBN,2011-04-03 19:00,153.1292,-27.3917,64.40,60.80,88.09,220.00,7.00,M,30.15,M,6.21,M,FEW,SCT,M,M,3500.00,4500.00,M,M,M,YBBN 031900Z 22007KT 9999 FEW035 SCT045 18/16 Q1021 NOSIG
YBBN,2011-04-03 19:30,153.1292,-27.3917,64.40,59.00,82.62,220.00,9.00,M,30.15,M,6.21,M,FEW,M,M,M,3500.00,M,M,M,M,YBBN 031930Z 22009KT 9999 FEW035 18/15 Q1021 NOSIG
YBBN,2011-04-03 20:00,153.1292,-27.3917,62.60,59.00,88.00,220.00,8.00,M,30.15,M,6.21,M,FEW,M,M,M,3500.00,M,M,M,M,YBBN 032000Z 22008KT 9999 FEW035 17/15 Q1021 NOSIG
YBBN,2011-04-03 20:30,153.1292,-27.3917,64.40,60.80,88.09,210.00,9.00,M,30.18,M,6.21,M,FEW,SCT,M,M,3500.00,5000.00,M,M,M,YBBN 032030Z 21009KT 9999 FEW035 SCT050 18/16 Q1022 NOSIG
YBBN,2011-04-03 21:00,153.1292,-27.3917,64.40,60.80,88.09,210.00,8.00,M,30.18,M,6.21,M,SCT,M,M,M,4000.00,M,M,M,M,YBBN 032100Z 21008KT 9999 SCT040 18/16 Q1022 NOSIG
YBBN,2011-04-03 21:30,153.1292,-27.3917,66.20,60.80,82.74,220.00,9.00,M,30.18,M,6.21,M,SCT,SCT,M,M,4000.00,6000.00,M,M,M,YBBN 032130Z 22009KT 9999 SCT040 SCT060 19/16 Q1022 NOSIG
YBBN,2011-04-03 22:00,153.1292,-27.3917,68.00,60.80,77.75,220.00,10.00,M,30.18,M,6.21,M,SCT,BKN,M,M,4000.00,7000.00,M,M,M,YBBN 032200Z 22010KT 9999 SCT040 BKN070 20/16 Q1022 NOSIG
YBBN,2011-04-03 22:30,153.1292,-27.3917,71.60,60.80,68.75,210.00,9.00,M,30.21,M,6.21,M,FEW,M,M,M,4000.00,M,M,M,M,YBBN 032230Z 21009KT 9999 FEW040 22/16 Q1023 NOSIG
YBBN,2011-04-03 23:00,153.1292,-27.3917,75.20,59.00,57.12,190.00,8.00,M,30.21,M,6.21,M,FEW,M,M,M,4000.00,M,M,M,M,YBBN 032300Z 19008KT 9999 FEW040 24/15 Q1023 NOSIG
YBBN,2011-04-03 23:30,153.1292,-27.3917,75.20,59.00,57.12,180.00,10.00,M,30.21,M,6.21,M,FEW,M,M,M,4000.00,M,M,M,M,YBBN 032330Z 18010KT 9999 FEW040 24/15 Q1023 NOSIG
