#DEBUG: Format Typ    -> comma
#DEBUG: Time Period   -> 2012-11-26 00:00:00+00:00 2012-11-27 00:00:00+00:00
#DEBUG: Time Zone     -> Etc/UTC
#DEBUG: Data Contact   -> daryl herzmann akrherz@iastate.edu 515-294-5978
#DEBUG: Entries Found -> -1
station,valid,lon,lat,tmpf, dwpf, relh, drct, sknt, p01i, alti, mslp, vsby, gust, skyc1, skyc2, skyc3, skyc4, skyl1, skyl2, skyl3, skyl4, presentwx, metar
YBBN,2012-11-26 00:00,153.1292,-27.3917,78.80,60.80,54.05,10.00,9.00,0.00,30.06,M,6.21,M,FEW,M,M,M,3500.00,M,M,M,M,YBBN 260000Z 01009KT 9999 FEW035 26/16 Q1018
YBBN,2012-11-26 00:30,153.1292,-27.3917,78.80,62.60,57.60,20.00,9.00,0.00,30.06,M,6.21,M,FEW,M,M,M,3500.00,M,M,M,M,YBBN 260030Z 02009KT 9999 FEW035 26/17 Q1018
YBBN,2012-11-26 01:00,153.1292,-27.3917,78.80,59.00,50.69,20.00,8.00,0.00,30.06,M,6.21,M,FEW,M,M,M,4000.00,M,M,M,M,YBBN 260100Z 02008KT 9999 FEW040 26/15 Q1018 NOSIG
YBBN,2012-11-26 01:30,153.1292,-27.3917,78.80,57.20,47.52,30.00,8.00,0.00,30.06,M,6.21,M,FEW,M,M,M,4500.00,M,M,M,M,YBBN 260130Z 03008KT 9999 FEW045 26/14 Q1018
YBBN,2012-11-26 02:00,153.1292,-27.3917,80.60,60.80,50.95,10.00,7.00,0.00,30.03,M,6.21,M,FEW,M,M,M,4500.00,M,M,M,M,YBBN 260200Z 01007KT 9999 FEW045 27/16 Q1017 NOSIG
YBBN,2012-11-26 02:30,153.1292,-27.3917,78.80,59.00,50.69,30.00,9.00,0.00,30.03,M,6.21,M,FEW,M,M,M,4500.00,M,M,M,M,YBBN 260230Z 03009KT 9999 FEW045 26/15 Q1017
YBBN,2012-11-26 03:00,153.1292,-27.3917,78.80,60.80,54.05,30.00,9.00,0.00,30.03,M,6.21,M,FEW,SCT,M,M,4500.00,30000.00,M,M,M,YBBN 260300Z 03009KT 9999 FEW045 SCT300 26/16 Q1017
YBBN,2012-11-26 03:30,153.1292,-27.3917,80.60,59.00,47.79,30.00,9.00,0.00,30.03,M,6.21,M,FEW,SCT,M,M,4500.00,30000.00,M,M,M,YBBN 260330Z 03009KT 9999 FEW045 SCT300 27/15 Q1017
YBBN,2012-11-26 04:00,153.1292,-27.3917,80.60,60.80,50.95,50.00,10.00,0.00,30.00,M,6.21,M,FEW,SCT,M,M,4500.00,30000.00,M,M,M,YBBN 260400Z 05010KT 9999 FEW045 SCT300 27/16 Q1016
YBBN,2012-11-26 04:30,153.1292,-27.3917,80.60,59.00,47.79,40.00,10.00,0.00,30.00,M,6.21,M,FEW,SCT,M,M,4500.00,30000.00,M,M,M,YBBN 260430Z 04010KT 9999 FEW045 SCT300 27/15 Q1016
YBBN,2012-11-26 05:00,153.1292,-27.3917,80.60,57.20,44.80,50.00,11.00,0.00,30.00,M,6.21,M,FEW,SCT,M,M,4500.00,30000.00,M,M,M,YBBN 260500Z 05011KT 9999 FEW045 SCT300 27/14 Q1016
YBBN,2012-11-26 05:30,153.1292,-27.3917,78.80,62.60,57.60,40.00,11.00,0.00,29.97,M,6.21,M,FEW,SCT,M,M,4500.00,30000.00,M,M,M,YBBN 260530Z 04011KT 9999 FEW045 SCT300 26/17 Q1015
YBBN,2012-11-26 06:00,153.1292,-27.3917,78.80,62.60,57.60,30.00,11.00,0.00,29.97,M,6.21,M,FEW,SCT,M,M,4500.00,30000.00,M,M,M,YBBN 260600Z 03011KT 9999 FEW045 SCT300 26/17 Q1015
YBBN,2012-11-26 06:30,153.1292,-27.3917,78.80,60.80,54.05,20.00,12.00,0.00,30.00,M,6.21,M,FEW,SCT,M,M,4500.00,30000.00,M,M,M,YBBN 260630Z 02012KT 9999 FEW045 SCT300 26/16 Q1016
YBBN,2012-11-26 07:00,153.1292,-27.3917,77.00,62.60,61.13,20.00,11.00,0.00,30.00,M,6.21,M,FEW,BKN,M,M,4500.00,30000.00,M,M,M,YBBN 260700Z 02011KT 9999 FEW045 BKN300 25/17 Q1016
YBBN,2012-11-26 07:30,153.1292,-27.3917,75.20,62.60,64.91,20.00,12.00,0.00,30.00,M,6.21,M,M,M,M,M,M,M,M,M,M,YBBN 260730Z 02012KT CAVOK 24/17 Q1016
YBBN,2012-11-26 08:00,153.1292,-27.3917,75.20,60.80,60.90,20.00,11.00,0.00,30.00,M,6.21,M,M,M,M,M,M,M,M,M,M,YBBN 260800Z 02011KT CAVOK 24/16 Q1016 NOSIG
YBBN,2012-11-26 08:30,153.1292,-27.3917,73.40,60.80,64.69,20.00,11.00,0.00,30.00,M,6.21,M,M,M,M,M,M,M,M,M,M,YBBN 260830Z 02011KT CAVOK 23/16 Q1016
YBBN,2012-11-26 09:00,153.1292,-27.3917,73.40,62.60,68.94,20.00,13.00,0.00,30.03,M,6.21,M,M,M,M,M,M,M,M,M,M,YBBN 260900Z 02013KT CAVOK 23/17 Q1017
YBBN,2012-11-26 09:30,153.1292,-27.3917,73.40,62.60,68.94,30.00,12.00,0.00,30.03,M,6.21,M,M,M,M,M,M,M,M,M,M,YBBN 260930Z 03012KT CAVOK 23/17 Q1017
YBBN,2012-11-26 10:00,153.1292,-27.3917,73.40,62.60,68.94,20.00,12.00,0.00,30.03,M,6.21,M,FEW,BKN,M,M,4000.00,30000.00,M,M,M,YBBN 261000Z 02012KT 9999 FEW040 BKN300 23/17 Q1017 NOSIG
YBBN,2012-11-26 10:30,153.1292,-27.3917,73.40,62.60,68.94,20.00,12.00,0.00,30.06,M,6.21,M,FEW,BKN,M,M,4000.00,30000.00,M,M,M,YBBN 261030Z 02012KT 9999 FEW040 BKN300 23/17 Q1018
YBBN,2012-11-26 11:00,153.1292,-27.3917,73.40,62.60,68.94,20.00,11.00,0.00,30.06,M,6.21,M,FEW,BKN,M,M,4000.00,30000.00,M,M,M,YBBN 261100Z 02011KT 9999 FEW040 BKN300 23/17 Q1018 NOSIG
YBBN,2012-11-26 11:30,153.1292,-27.3917,73.40,62.60,68.94,20.00,11.00,0.00,30.06,M,6.21,M,FEW,BKN,M,M,4000.00,30000.00,M,M,M,YBBN 261130Z 02011KT 9999 FEW040 BKN300 23/17 Q1018
YBBN,2012-11-26 12:00,153.1292,-27.3917,73.40,62.60,68.94,20.00,11.00,0.00,30.06,M,6.21,M,FEW,BKN,M,M,4000.00,30000.00,M,M,M,YBBN 261200Z 02011KT 9999 FEW040 BKN300 23/17 Q1018 NOSIG
YBBN,2012-11-26 12:30,153.1292,-27.3917,73.40,64.40,73.44,20.00,11.00,0.00,30.06,M,6.21,M,FEW,BKN,M,M,4000.00,30000.00,M,M,M,YBBN 261230Z 02011KT 9999 FEW040 BKN300 23/18 Q1018
YBBN,2012-11-26 13:00,153.1292,-27.3917,73.40,62.60,68.94,10.00,11.00,0.00,30.06,M,6.21,M,FEW,BKN,M,M,2600.00,30000.00,M,M,M,YBBN 261300Z 01011KT 9999 FEW026 BKN300 23/17 Q1018
YBBN,2012-11-26 13:30,153.1292,-27.3917,73.40,64.40,73.44,10.00,10.00,0.00,30.03,M,6.21,M,SCT,BKN,M,M,2800.00,30000.00,M,M,M,YBBN 261330Z 01010KT 9999 SCT028 BKN300 23/18 Q1017
YBBN,2012-11-26 14:00,153.1292,-27.3917,73.40,64.40,73.44,10.00,11.00,0.00,30.03,M,6.21,M,BKN,BKN,M,M,2500.00,30000.00,M,M,M,YBBN 261400Z 01011KT 9999 BKN025 BKN300 23/18 Q1017
YBBN,2012-11-26 14:30,153.1292,-27.3917,71.60,62.60,73.27,320.00,6.00,0.00,30.03,M,6.21,M,BKN,BKN,M,M,2700.00,30000.00,M,M,M,YBBN 261430Z 32006KT 9999 BKN027 BKN300 22/17 Q1017
YBBN,2012-11-26 15:00,153.1292,-27.3917,69.80,62.60,77.90,280.00,2.00,0.00,30.03,M,6.21,M,BKN,BKN,M,M,2700.00,30000.00,M,M,M,YBBN 261500Z 28002KT 9999 BKN027 BKN300 21/17 Q1017
YBBN,2012-11-26 15:30,153.1292,-27.3917,69.80,62.60,77.90,250.00,5.00,0.00,30.03,M,6.21,M,SCT,BKN,M,M,2900.00,30000.00,M,M,M,YBBN 261530Z 25005KT 9999 SCT029 BKN300 21/17 Q1017
YBBN,2012-11-26 16:00,153.1292,-27.3917,69.80,62.60,77.90,250.00,4.00,0.00,30.03,M,6.21,M,FEW,BKN,M,M,2900.00,30000.00,M,M,M,YBBN 261600Z 25004KT 9999 FEW029 BKN300 21/17 Q1017 NOSIG
YBBN,2012-11-26 16:30,153.1292,-27.3917,68.00,62.60,82.86,210.00,3.00,0.00,30.03,M,6.21,M,FEW,BKN,M,M,2900.00,30000.00,M,M,M,YBBN 261630Z 21003KT 9999 FEW029 BKN300 20/17 Q1017
YBBN,2012-11-26 17:00,153.1292,-27.3917,68.00,62.60,82.86,220.00,2.00,0.00,30.00,M,6.21,M,FEW,BKN,M,M,2900.00,30000.00,M,M,M,YBBN 261700Z 22002KT 9999 FEW029 BKN300 20/17 Q1016
YBBN,2012-11-26 17:30,153.1292,-27.3917,66.20,62.60,88.18,210.00,5.00,0.00,30.00,M,6.21,M,FEW,BKN,M,M,2900.00,30000.00,M,M,M,YBBN 261730Z 21005KT 9999 FEW029 BKN300 19/17 Q1016
YBBN,2012-11-26 18:00,153.1292,-27.3917,66.20,62.60,88.18,210.00,4.00,0.00,30.03,M,6.21,M,FEW,BKN,M,M,2900.00,30000.00,M,M,M,YBBN 261800Z 21004KT 9999 FEW029 BKN300 19/17 Q1017
YBBN,2012-11-26 18:30,153.1292,-27.3917,68.00,62.60,82.86,210.00,5.00,0.00,30.03,M,6.21,M,SCT,BKN,M,M,2500.00,30000.00,M,M,M,YBBN 261830Z 21005KT 9999 SCT025 BKN300 20/17 Q1017
YBBN,2012-11-26 19:00,153.1292,-27.3917,68.00,64.40,88.26,210.00,5.00,0.00,30.03,M,6.21,M,SCT,BKN,BKN,M,2300.00,3800.00,30000.00,M,M,YBBN 261900Z 21005KT 9999 SCT023 BKN038 BKN300 20/18 Q1017
YBBN,2012-11-26 19:30,153.1292,-27.3917,68.00,64.40,88.26,210.00,5.00,0.00,30.03,M,6.21,M,SCT,BKN,BKN,M,2300.00,5200.00,30000.00,M,M,YBBN 261930Z 21005KT 9999 SCT023 BKN052 BKN300 20/18 Q1017
YBBN,2012-11-26 20:00,153.1292,-27.3917,68.00,64.40,88.26,190.00,5.00,0.00,30.06,M,6.21,M,SCT,BKN,BKN,M,2300.00,5600.00,30000.00,M,VCSH,YBBN 262000Z 19005KT 9999 VCSH SCT023 BKN056 BKN300 20/18 Q1018
YBBN,2012-11-26 20:30,153.1292,-27.3917,69.80,64.40,82.98,210.00,7.00,0.00,30.06,M,6.21,M,FEW,BKN,M,M,2200.00,30000.00,M,M,VCSH,YBBN 262030Z 21007KT 9999 VCSH FEW022 BKN300 21/18 Q1018
YBBN,2012-11-26 21:00,153.1292,-27.3917,71.60,64.40,78.04,220.00,7.00,0.00,30.06,M,6.21,M,FEW,BKN,M,M,2200.00,30000.00,M,M,M,YBBN 262100Z 22007KT 9999 FEW022 BKN300 22/18 Q1018
YBBN,2012-11-26 21:30,153.1292,-27.3917,73.40,64.40,73.44,210.00,5.00,0.00,30.06,M,6.21,M,FEW,BKN,M,M,2300.00,30000.00,M,M,M,YBBN 262130Z 21005KT 9999 FEW023 BKN300 23/18 Q1018
YBBN,2012-11-26 22:00,153.1292,-27.3917,75.20,64.40,69.14,340.00,5.00,0.00,30.06,M,6.21,M,FEW,BKN,M,M,2300.00,30000.00,M,M,M,YBBN 262200Z 34005KT 9999 FEW023 BKN300 24/18 Q1018
YBBN,2012-11-26 22:30,153.1292,-27.3917,77.00,64.40,65.12,10.00,6.00,0.00,30.06,M,6.21,M,FEW,BKN,M,M,2300.00,30000.00,M,M,M,YBBN 262230Z 01006KT 9999 FEW023 BKN300 25/18 Q1018
YBBN,2012-11-26 23:00,153.1292,-27.3917,77.00,64.40,65.12,360.00,7.00,0.00,30.06,M,6.21,M,FEW,BKN,M,M,2500.00,30000.00,M,M,M,YBBN 262300Z 36007KT 9999 FEW025 BKN300 25/18 Q1018
YBBN,2012-11-26 23:30,153.1292,-27.3917,78.80,60.80,54.05,10.00,8.00,0.00,30.06,M,6.21,M,FEW,BKN,M,M,3000.00,30000.00,M,M,M,YBBN 262330Z 01008KT 9999 FEW030 BKN300 26/16 Q1018
