#DEBUG: Format Typ    -> comma
#DEBUG: Time Period   -> 2011-05-08 00:00:00+00:00 2011-05-09 00:00:00+00:00
#DEBUG: Time Zone     -> Etc/UTC
#DEBUG: Data Contact   -> daryl herzmann akrherz@iastate.edu 515-294-5978
#DEBUG: Entries Found -> -1
station,valid,lon,lat,tmpf, dwpf, relh, drct, sknt, p01i, alti, mslp, vsby, gust, skyc1, skyc2, skyc3, skyc4, skyl1, skyl2, skyl3, skyl4, presentwx, metar
YBBN,2011-05-08 00:00,153.1292,-27.3917,68.00,53.60,59.97,260.00,4.00,M,30.00,M,6.21,M,FEW,BKN,M,M,3500.00,22000.00,M,M,M,YBBN 080000Z 26004KT 9999 FEW035 BKN220 20/12 Q1016 NOSIG
YBBN,2011-05-08 00:30,153.1292,-27.3917,68.00,53.60,59.97,290.00,3.00,M,30.00,M,6.21,M,FEW,BKN,M,M,3500.00,22000.00,M,M,M,YBBN 080030Z 29003KT 9999 FEW035 BKN220 20/12 Q1016 NOSIG
YBBN,2011-05-08 01:00,153.1292,-27.3917,69.80,53.60,56.38,350.00,3.00,M,30.00,M,6.21,M,FEW,BKN,BKN,M,3500.00,18000.00,22000.00,M,M,YBBN 080100Z 35003KT 9999 FEW035 BKN180 BKN220 21/12 Q1016 NOSIG
YBBN,2011-05-08 01:30,153.1292,-27.3917,69.80,55.40,60.21,10.00,5.00,M,29.97,M,6.21,M,FEW,SCT,BKN,M,3500.00,19000.00,21000.00,M,M,YBBN 080130Z 01005KT 9999 FEW035 SCT190 BKN210 21/13 Q1015 NOSIG
YBBN,2011-05-08 02:00,153.1292,-27.3917,71.60,55.40,56.63,10.00,5.00,M,29.94,M,6.21,M,FEW,BKN,M,M,3500.00,20000.00,M,M,M,YBBN 080200Z 01005KT 9999 FEW035 BKN200 22/13 Q1014 NOSIG
YBBN,2011-05-08 02:30,153.1292,-27.3917,71.60,51.80,49.64,360.00,6.00,M,29.94,M,6.21,M,FEW,SCT,BKN,M,3500.00,19000.00,23000.00,M,M,YBBN 080230Z 36006KT 9999 FEW035 SCT190 BKN230 22/11 Q1014 NOSIG
YBBN,2011-05-08 03:00,153.1292,-27.3917,71.60,55.40,56.63,20.00,6.00,M,29.91,M,6.21,M,FEW,BKN,M,M,3500.00,22000.00,M,M,M,YBBN 080300Z 02006KT 9999 FEW035 BKN220 22/13 Q1013 NOSIG
YBBN,2011-05-08 03:30,153.1292,-27.3917,69.80,55.40,60.21,30.00,7.00,M,29.91,M,6.21,M,FEW,SCT,M,M,3500.00,24000.00,M,M,M,YBBN 080330Z 03007KT 9999 FEW035 SCT240 21/13 Q1013 NOSIG
YBBN,2011-05-08 04:00,153.1292,-27.3917,71.60,55.40,56.63,30.00,8.00,M,29.91,M,6.21,M,FEW,SCT,M,M,3500.00,22000.00,M,M,M,YBBN 080400Z 03008KT 9999 FEW035 SCT220 22/13 Q1013 NOSIG
YBBN,2011-05-08 04:30,153.1292,-27.3917,71.60,57.20,60.44,50.00,8.00,M,29.91,M,6.21,M,FEW,SCT,M,M,3500.00,22000.00,M,M,M,YBBN 080430Z 05008KT 9999 FEW035 SCT220 22/14 Q1013 NOSIG
YBBN,2011-05-08 05:00,153.1292,-27.3917,69.80,57.20,64.26,50.00,10.00,M,29.88,M,6.21,M,FEW,SCT,M,M,3500.00,24000.00,M,M,M,YBBN 080500Z 05010KT 9999 FEW035 SCT240 21/14 Q1012 NOSIG
YBBN,2011-05-08 05:30,153.1292,-27.3917,69.80,57.20,64.26,40.00,10.00,M,29.88,M,6.21,M,FEW,SCT,BKN,M,3200.00,19000.00,24000.00,M,M,YBBN 080530Z 04010KT 9999 FEW032 SCT190 BKN240 21/14 Q1012 NOSIG
YBBN,2011-05-08 06:00,153.1292,-27.3917,68.00,59.00,72.92,30.00,10.00,M,29.88,M,6.21,M,FEW,BKN,M,M,3200.00,24000.00,M,M,M,YBBN 080600Z 03010KT 9999 FEW032 BKN240 20/15 Q1012 NOSIG
YBBN,2011-05-08 06:30,153.1292,-27.3917,68.00,57.20,68.35,20.00,10.00,M,29.88,M,6.21,M,FEW,BKN,M,M,3200.00,24000.00,M,M,M,YBBN 080630Z 02010KT 9999 FEW032 BKN240 20/14 Q1012 NOSIG
YBBN,2011-05-08 07:00,153.1292,-27.3917,68.00,59.00,72.92,10.00,10.00,M,29.88,M,6.21,M,FEW,BKN,M,M,3200.00,22000.00,M,M,M,YBBN 080700Z 01010KT 9999 FEW032 BKN220 20/15 Q1012 NOSIG
YBBN,2011-05-08 07:30,153.1292,-27.3917,68.00,59.00,72.92,10.00,9.00,M,29.88,M,6.21,M,FEW,SCT,BKN,M,3000.00,19000.00,22000.00,M,M,YBBN 080730Z 01009KT 9999 FEW030 SCT190 BKN220 20/15 Q1012 NOSIG
YBBN,2011-05-08 08:00,153.1292,-27.3917,66.20,59.00,77.60,20.00,9.00,M,29.88,M,6.21,M,FEW,SCT,M,M,3000.00,19000.00,M,M,M,YBBN 080800Z 02009KT 9999 FEW030 SCT190 19/15 Q1012 NOSIG
YBBN,2011-05-08 08:30,153.1292,-27.3917,66.20,59.00,77.60,10.00,8.00,M,29.88,M,6.21,M,FEW,SCT,M,M,3000.00,22000.00,M,M,M,YBBN 080830Z 01008KT 9999 FEW030 SCT220 19/15 Q1012 NOSIG
YBBN,2011-05-08 09:00,153.1292,-27.3917,66.20,59.00,77.60,360.00,8.00,M,29.91,M,6.21,M,M,M,M,M,M,M,M,M,M,YBBN 080900Z 36008KT CAVOK 19/15 Q1013 NOSIG
YBBN,2011-05-08 09:30,153.1292,-27.3917,64.40,59.00,82.62,360.00,7.00,M,29.91,M,6.21,M,M,M,M,M,M,M,M,M,M,YBBN 080930Z 36007KT CAVOK 18/15 Q1013 NOSIG
YBBN,2011-05-08 10:00,153.1292,-27.3917,66.20,60.80,82.74,340.00,7.00,M,29.91,M,6.21,M,FEW,SCT,M,M,3000.00,22000.00,M,M,M,YBBN 081000Z 34007KT 9999 FEW030 SCT220 19/16 Q1013 NOSIG
YBBN,2011-05-08 10:30,153.1292,-27.3917,64.40,59.00,82.62,350.00,5.00,M,29.91,M,6.21,M,FEW,SCT,M,M,3000.00,22000.00,M,M,M,YBBN 081030Z 35005KT 9999 FEW030 SCT220 18/15 Q1013 NOSIG
YBBN,2011-05-08 11:00,153.1292,-27.3917,64.40,59.00,82.62,340.00,5.00,M,29.94,M,6.21,M,FEW,BKN,M,M,3000.00,25000.00,M,M,M,YBBN 081100Z 34005KT 9999 FEW030 BKN250 18/15 Q1014 NOSIG
YBBN,2011-05-08 11:30,153.1292,-27.3917,64.40,60.80,88.09,350.00,8.00,M,29.91,M,6.21,M,FEW,SCT,BKN,M,3000.00,18000.00,26000.00,M,M,YBBN 081130Z 35008KT 9999 FEW030 SCT180 BKN260 18/16 Q1013 NOSIG
YBBN,2011-05-08 12:00,153.1292,-27.3917,64.40,59.00,82.62,350.00,6.00,M,29.91,M,6.21,M,FEW,BKN,M,M,3000.00,18000.00,M,M,M,YBBN 081200Z 35006KT 9999 FEW030 BKN180 18/15 Q1013 NOSIG
YBBN,2011-05-08 12:30,153.1292,-27.3917,66.20,59.00,77.60,350.00,7.00,M,29.91,M,6.21,M,FEW,SCT,BKN,M,3000.00,6000.00,10000.00,M,M,YBBN 081230Z 35007KT 9999 FEW030 SCT060 BKN100 19/15 Q1013 NOSIG
YBBN,2011-05-08 13:00,153.1292,-27.3917,66.20,59.00,77.60,360.00,8.00,M,29.91,M,6.21,M,M,M,M,M,M,M,M,M,M,YBBN 081300Z 36008KT CAVOK 19/15 Q1013 NOSIG
YBBN,2011-05-08 13:30,153.1292,-27.3917,66.20,59.00,77.60,350.00,7.00,M,29.88,M,6.21,M,M,M,M,M,M,M,M,M,M,YBBN 081330Z 35007KT CAVOK 19/15 Q1012 RMK 7AC110 NOSIG
YBBN,2011-05-08 14:00,153.1292,-27.3917,64.40,59.00,82.62,330.00,6.00,M,29.88,M,6.21,M,M,M,M,M,M,M,M,M,M,YBBN 081400Z 33006KT CAVOK 18/15 Q1012 RMK 5SC065 7AC100 NOSIG
YBBN,2011-05-08 14:30,153.1292,-27.3917,64.40,59.00,82.62,300.00,6.00,M,29.88,M,6.21,M,M,M,M,M,M,M,M,M,M,YBBN 081430Z 30006KT CAVOK 18/15 Q1012 RMK 5SC057 7AC095 NOSIG
YBBN,2011-05-08 15:00,153.1292,-27.3917,64.40,60.80,88.09,320.00,4.00,M,29.88,M,6.21,M,BKN,OVC,M,M,5000.00,9000.00,M,M,-RA,YBBN 081500Z 32004KT 9999 -RA BKN050 OVC090 18/16 Q1012 NOSIG
YBBN,2011-05-08 15:30,153.1292,-27.3917,62.60,60.80,93.83,360.00,4.00,M,29.88,M,6.21,M,BKN,OVC,M,M,4000.00,9000.00,M,M,-RA,YBBN 081530Z 36004KT 9999 -RA BKN040 OVC090 17/16 Q1012 NOSIG
YBBN,2011-05-08 16:00,153.1292,-27.3917,62.60,60.80,93.83,350.00,4.00,M,29.88,M,6.21,M,FEW,BKN,OVC,M,3400.00,5000.00,9000.00,M,-RA,YBBN 081600Z 35004KT 9999 -RA FEW034 BKN050 OVC090 17/16 Q1012 NOSIG
YBBN,2011-05-08 16:30,153.1292,-27.3917,62.60,60.80,93.83,10.00,4.00,M,29.88,M,6.21,M,FEW,SCT,OVC,M,1500.00,4000.00,9000.00,M,-RA,YBBN 081630Z 01004KT 9999 -RA FEW015 SCT040 OVC090 17/16 Q1012 NOSIG
YBBN,2011-05-08 17:00,153.1292,-27.3917,62.60,60.80,93.83,350.00,6.00,M,29.88,M,6.21,M,FEW,SCT,OVC,M,1200.00,3500.00,9000.00,M,-RA,YBBN 081700Z 35006KT 9999 -RA FEW012 SCT035 OVC090 17/16 Q1012 NOSIG
YBBN,2011-05-08 17:30,153.1292,-27.3917,62.60,60.80,93.83,340.00,5.00,M,29.88,M,6.21,M,FEW,OVC,M,M,1200.00,8800.00,M,M,-RA,YBBN 081730Z 34005KT 9999 -RA FEW012 OVC088 17/16 Q1012 NOSIG
YBBN,2011-05-08 18:00,153.1292,-27.3917,62.60,60.80,93.83,310.00,5.00,M,29.85,M,6.21,M,FEW,OVC,M,M,1200.00,8800.00,M,M,-RA,YBBN 081800Z 31005KT 9999 -RA FEW012 OVC088 17/16 Q1011 NOSIG
YBBN,2011-05-08 18:30,153.1292,-27.3917,62.60,60.80,93.83,300.00,6.00,M,29.88,M,6.21,M,FEW,OVC,M,M,1200.00,9000.00,M,M,-RA,YBBN 081830Z 30006KT 9999 -RA FEW012 OVC090 17/16 Q1012 NOSIG
YBBN,2011-05-08 19:00,153.1292,-27.3917,62.60,60.80,93.83,290.00,6.00,M,29.88,M,5.59,M,FEW,SCT,OVC,M,1200.00,6000.00,9000.00,M,-RA,YBBN 081900Z 29006KT 9000 -RA FEW012 SCT060 OVC090 17/16 Q1012 NOSIG
