#DEBUG: Format Typ    -> comma
#DEBUG: Time Period   -> 2015-10-01 00:00:00+00:00 2015-10-02 00:00:00+00:00
#DEBUG: Time Zone     -> Etc/UTC
#DEBUG: Data Contact   -> daryl herzmann akrherz@iastate.edu 515-294-5978
#DEBUG: Entries Found -> -1
station,valid,lon,lat,tmpf, dwpf, relh, drct, sknt, p01i, alti, mslp, vsby, gust, skyc1, skyc2, skyc3, skyc4, skyl1, skyl2, skyl3, skyl4, presentwx, metar
YBBN,2015-10-01 00:00,153.1292,-27.3917,73.40,53.60,49.90,10.00,6.00,0.00,30.30,M,6.21,M,FEW,M,M,M,4200.00,M,M,M,M,YBBN 010000Z 01006KT 9999 FEW042 23/12 Q1026 NOSIG
YBBN,2015-10-01 00:30,153.1292,-27.3917,73.40,53.60,49.90,20.00,5.00,0.00,30.30,M,6.21,M,FEW,M,M,M,4600.00,M,M,M,M,YBBN 010030Z 02005KT 9999 FEW046 23/12 Q1026
YBBN,2015-10-01 01:00,153.1292,-27.3917,75.20,53.60,46.98,10.00,6.00,0.00,30.30,M,6.21,M,FEW,M,M,M,4800.00,M,M,M,M,YBBN 010100Z 01006KT 9999 FEW048 24/12 Q1026 NOSIG
YBBN,2015-10-01 01:30,153.1292,-27.3917,75.20,55.40,50.17,20.00,9.00,0.00,30.30,M,6.21,M,FEW,M,M,M,4600.00,M,M,M,M,YBBN 010130Z 02009KT 9999 FEW046 24/13 Q1026
YBBN,2015-10-01 02:00,153.1292,-27.3917,75.20,51.80,43.97,30.00,9.00,0.00,30.27,M,6.21,M,M,M,M,M,M,M,M,M,M,YBBN 010200Z 03009KT CAVOK 24/11 Q1025 NOSIG
YBBN,2015-10-01 02:30,153.1292,-27.3917,77.00,53.60,44.25,40.00,11.00,0.00,30.27,M,6.21,M,M,M,M,M,M,M,M,M,M,YBBN 010230Z 04011KT CAVOK 25/12 Q1025
YBBN,2015-10-01 03:00,153.1292,-27.3917,77.00,51.80,41.42,40.00,12.00,0.00,30.27,M,6.21,M,FEW,M,M,M,5300.00,M,M,M,M,YBBN 010300Z 04012KT 9999 FEW053TCU 25/11 Q1025
YBBN,2015-10-01 03:30,153.1292,-27.3917,75.20,55.40,50.17,40.00,11.00,0.00,30.24,M,6.21,M,FEW,M,M,M,4500.00,M,M,M,M,YBBN 010330Z 04011KT 9999 FEW045TCU 24/13 Q1024 RMK DIST CB TOP TO SW
YBBN,2015-10-01 04:00,153.1292,-27.3917,77.00,57.20,50.43,40.00,11.00,0.00,30.24,M,6.21,M,FEW,M,M,M,4400.00,M,M,M,M,YBBN 010400Z 04011KT 9999 FEW044TCU 25/14 Q1024 NOSIG
YBBN,2015-10-01 04:30,153.1292,-27.3917,75.20,59.00,57.12,30.00,11.00,0.00,30.24,M,6.21,M,FEW,M,M,M,4000.00,M,M,M,M,YBBN 010430Z 03011KT 9999 FEW040TCU 24/15 Q1024 RMK DIST CB TOP TO SW
YBBN,2015-10-01 05:00,153.1292,-27.3917,75.20,59.00,57.12,30.00,11.00,0.00,30.24,M,6.21,M,FEW,FEW,M,M,3500.00,3700.00,M,M,M,YBBN 010500Z 03011KT 9999 FEW035 FEW037TCU 24/15 Q1024
YBBN,2015-10-01 05:30,153.1292,-27.3917,73.40,59.00,60.67,10.00,11.00,0.00,30.24,M,6.21,M,FEW,FEW,M,M,3300.00,3500.00,M,M,VCSH,YBBN 010530Z 01011KT 9999 VCSH FEW033 FEW035TCU 23/15 Q1024
YBBN,2015-10-01 06:00,153.1292,-27.3917,73.40,60.80,64.69,20.00,13.00,0.00,30.24,M,6.21,M,FEW,SCT,M,M,2800.00,16000.00,M,M,M,YBBN 010600Z 02013KT 9999 FEW028 SCT160 23/16 Q1024
YBBN,2015-10-01 06:30,153.1292,-27.3917,71.60,60.80,68.75,20.00,9.00,0.00,30.24,M,6.21,M,FEW,FEW,M,M,2600.00,3000.00,M,M,M,YBBN 010630Z 02009KT 9999 FEW026 FEW030CB 22/16 Q1024 RMK TS TO SSW
YBBN,2015-10-01 07:00,153.1292,-27.3917,69.80,60.80,73.09,10.00,10.00,0.00,30.27,M,6.21,M,FEW,M,M,M,2200.00,M,M,M,M,YBBN 010700Z 01010KT 9999 FEW022 21/16 Q1025
YBBN,2015-10-01 07:30,153.1292,-27.3917,69.80,60.80,73.09,10.00,8.00,0.00,30.30,M,6.21,M,FEW,M,M,M,2000.00,M,M,M,VCSH,YBBN 010730Z 01008KT 9999 VCSH FEW020 21/16 Q1026 RMK CB TOP TO SW
YBBN,2015-10-01 08:00,153.1292,-27.3917,68.00,60.80,77.75,20.00,6.00,0.00,30.30,M,6.21,M,FEW,M,M,M,2000.00,M,M,M,M,YBBN 010800Z 02006KT 9999 FEW020 20/16 Q1026
YBBN,2015-10-01 08:30,153.1292,-27.3917,66.20,60.80,82.74,10.00,6.00,0.00,30.30,M,6.21,M,FEW,M,M,M,2500.00,M,M,M,M,YBBN 010830Z 01006KT 9999 FEW025 19/16 Q1026 RMK LIGHTNING TO SW
YBBN,2015-10-01 09:00,153.1292,-27.3917,66.20,62.60,88.18,10.00,6.00,0.00,30.33,M,6.21,M,FEW,M,M,M,3000.00,M,M,M,M,YBBN 010900Z 01006KT 9999 FEW030 19/17 Q1027
YBBN,2015-10-01 09:30,153.1292,-27.3917,68.00,60.80,77.75,330.00,5.00,0.00,30.36,M,6.21,M,M,M,M,M,M,M,M,M,M,YBBN 010930Z 33005KT CAVOK 20/16 Q1028
YBBN,2015-10-01 10:00,153.1292,-27.3917,66.20,60.80,82.74,20.00,5.00,0.00,30.33,M,6.21,M,M,M,M,M,M,M,M,M,M,YBBN 011000Z 02005KT CAVOK 19/16 Q1027
YBBN,2015-10-01 10:30,153.1292,-27.3917,64.40,60.80,88.09,10.00,6.00,0.00,30.36,M,6.21,M,M,M,M,M,M,M,M,M,M,YBBN 011030Z 01006KT CAVOK 18/16 Q1028
YBBN,2015-10-01 11:00,153.1292,-27.3917,64.40,60.80,88.09,20.00,4.00,0.00,30.36,M,6.21,M,M,M,M,M,M,M,M,M,M,YBBN 011100Z 02004KT CAVOK 18/16 Q1028
YBBN,2015-10-01 11:30,153.1292,-27.3917,64.40,60.80,88.09,20.00,5.00,0.00,30.36,M,6.21,M,M,M,M,M,M,M,M,M,M,YBBN 011130Z 02005KT CAVOK 18/16 Q1028
YBBN,2015-10-01 12:00,153.1292,-27.3917,62.60,60.80,93.83,10.00,5.00,0.00,30.36,M,6.21,M,M,M,M,M,M,M,M,M,M,YBBN 011200Z 01005KT CAVOK 17/16 Q1028
YBBN,2015-10-01 12:30,153.1292,-27.3917,64.40,60.80,88.09,10.00,5.00,0.00,30.36,M,6.21,M,M,M,M,M,M,M,M,M,M,YBBN 011230Z 01005KT CAVOK 18/16 Q1028
YBBN,2015-10-01 13:00,153.1292,-27.3917,64.40,60.80,88.09,0.00,0.00,0.00,30.36,M,6.21,M,M,M,M,M,M,M,M,M,M,YBBN 011300Z 00000KT CAVOK 18/16 Q1028
YBBN,2015-10-01 13:30,153.1292,-27.3917,62.60,60.80,93.83,0.00,0.00,0.00,30.36,M,6.21,M,M,M,M,M,M,M,M,M,M,YBBN 011330Z 00000KT CAVOK 17/16 Q1028
YBBN,2015-10-01 14:00,153.1292,-27.3917,62.60,60.80,93.83,10.00,2.00,0.00,30.36,M,6.21,M,NSC,M,M,M,M,M,M,M,MIFG,YBBN 011400Z 01002KT 9999 MIFG NSC 17/16 Q1028
YBBN,2015-10-01 14:30,153.1292,-27.3917,60.80,59.00,93.79,230.00,3.00,0.00,30.36,M,6.21,M,NSC,M,M,M,M,M,M,M,MIFG,YBBN 011430Z 23003KT 9999 MIFG NSC 16/15 Q1028
YBBN,2015-10-01 15:00,153.1292,-27.3917,62.60,59.00,88.00,200.00,4.00,0.00,30.36,M,6.21,M,NSC,M,M,M,M,M,M,M,MIFG,YBBN 011500Z 20004KT 9999 MIFG NSC 17/15 Q1028
YBBN,2015-10-01 15:30,153.1292,-27.3917,60.80,59.00,93.79,200.00,4.00,0.00,30.36,M,6.21,M,NSC,M,M,M,M,M,M,M,MIFG,YBBN 011530Z 20004KT 9999 MIFG NSC 16/15 Q1028
YBBN,2015-10-01 16:00,153.1292,-27.3917,60.80,59.00,93.79,0.00,0.00,0.00,30.36,M,6.21,M,NSC,M,M,M,M,M,M,M,MIFG,YBBN 011600Z 00000KT 9999 MIFG NSC 16/15 Q1028
YBBN,2015-10-01 16:30,153.1292,-27.3917,59.00,57.20,93.74,200.00,3.00,0.00,30.36,M,6.21,M,FEW,M,M,M,4500.00,M,M,M,MIFG,YBBN 011630Z 20003KT 9999 MIFG FEW045 15/14 Q1028
YBBN,2015-10-01 17:00,153.1292,-27.3917,59.00,57.20,93.74,190.00,5.00,0.00,30.36,M,6.21,M,FEW,M,M,M,2500.00,M,M,M,MIFG,YBBN 011700Z 19005KT 9999 MIFG FEW025 15/14 Q1028
YBBN,2015-10-01 17:30,153.1292,-27.3917,59.00,57.20,93.74,200.00,7.00,0.00,30.36,M,6.21,M,FEW,M,M,M,2500.00,M,M,M,M,YBBN 011730Z 20007KT 9999 FEW025 15/14 Q1028
YBBN,2015-10-01 18:00,153.1292,-27.3917,60.80,59.00,93.79,210.00,7.00,0.00,30.36,M,6.21,M,FEW,M,M,M,4500.00,M,M,M,M,YBBN 011800Z 21007KT 9999 FEW045 16/15 Q1028
YBBN,2015-10-01 18:30,153.1292,-27.3917,59.00,57.20,93.74,200.00,7.00,0.00,30.36,M,6.21,M,M,M,M,M,M,M,M,M,M,YBBN 011830Z 20007KT CAVOK 15/14 Q1028
YBBN,2015-10-01 19:00,153.1292,-27.3917,57.20,55.40,93.69,210.00,9.00,0.00,30.36,M,6.21,M,M,M,M,M,M,M,M,M,M,YBBN 011900Z 21009KT CAVOK 14/13 Q1028
YBBN,2015-10-01 19:30,153.1292,-27.3917,59.00,57.20,93.74,200.00,8.00,0.00,30.39,M,6.21,M,M,M,M,M,M,M,M,M,M,YBBN 011930Z 20008KT CAVOK 15/14 Q1029 RMK MISTY
YBBN,2015-10-01 20:00,153.1292,-27.3917,59.00,57.20,93.74,200.00,8.00,0.00,30.39,M,6.21,M,M,M,M,M,M,M,M,M,M,YBBN 012000Z 20008KT CAVOK 15/14 Q1029 NOSIG
YBBN,2015-10-01 20:30,153.1292,-27.3917,60.80,57.20,87.92,200.00,8.00,0.00,30.39,M,6.21,M,M,M,M,M,M,M,M,M,M,YBBN 012030Z 20008KT CAVOK 16/14 Q1029 RMK HAZE
YBBN,2015-10-01 21:00,153.1292,-27.3917,62.60,59.00,88.00,200.00,8.00,0.00,30.42,M,6.21,M,M,M,M,M,M,M,M,M,M,YBBN 012100Z 20008KT CAVOK 17/15 Q1030
YBBN,2015-10-01 21:30,153.1292,-27.3917,64.40,59.00,82.62,210.00,9.00,0.00,30.42,M,6.21,M,M,M,M,M,M,M,M,M,M,YBBN 012130Z 21009KT CAVOK 18/15 Q1030
YBBN,2015-10-01 22:00,153.1292,-27.3917,68.00,59.00,72.92,210.00,8.00,0.00,30.45,M,6.21,M,FEW,M,M,M,3000.00,M,M,M,M,YBBN 012200Z 21008KT 9999 FEW030 20/15 Q1031
YBBN,2015-10-01 22:30,153.1292,-27.3917,69.80,59.00,68.55,230.00,8.00,0.00,30.45,M,6.21,M,FEW,M,M,M,3000.00,M,M,M,M,YBBN 012230Z 23008KT 9999 FEW030 21/15 Q1031
YBBN,2015-10-01 23:00,153.1292,-27.3917,71.60,57.20,60.44,230.00,6.00,0.00,30.45,M,6.21,M,FEW,M,M,M,3000.00,M,M,M,M,YBBN 012300Z 23006KT 170V250 9999 FEW030 22/14 Q1031
YBBN,2015-10-01 23:30,153.1292,-27.3917,73.40,55.40,53.29,220.00,6.00,0.00,30.42,M,6.21,M,FEW,M,M,M,3000.00,M,M,M,M,YBBN 012330Z 22006KT 170V250 9999 FEW030 23/13 Q1030
