#DEBUG: Format Typ    -> comma
#DEBUG: Time Period   -> 2015-09-03 00:00:00+00:00 2015-09-04 00:00:00+00:00
#DEBUG: Time Zone     -> Etc/UTC
#DEBUG: Data Contact   -> daryl herzmann akrherz@iastate.edu 515-294-5978
#DEBUG: Entries Found -> -1
station,valid,lon,lat,tmpf, dwpf, relh, drct, sknt, p01i, alti, mslp, vsby, gust, skyc1, skyc2, skyc3, skyc4, skyl1, skyl2, skyl3, skyl4, presentwx, metar
YBBN,2015-09-03 00:00,153.1292,-27.3917,69.80,64.40,82.98,350.00,15.00,0.00,29.85,M,6.21,M,FEW,SCT,BKN,M,2000.00,3500.00,5500.00,M,M,YBBN 030000Z 35015KT 9999 FEW020 SCT035 BKN055 21/18 Q1011
YBBN,2015-09-03 00:30,153.1292,-27.3917,69.80,64.40,82.98,350.00,12.00,0.00,29.85,M,6.21,M,FEW,SCT,BKN,M,1300.00,3500.00,5500.00,M,VCSH,YBBN 030030Z 35012KT 9999 VCSH FEW013 SCT035 BKN055 21/18 Q1011
YBBN,2015-09-03 01:00,153.1292,-27.3917,69.80,53.60,56.38,360.00,12.00,0.00,29.83,M,6.21,M,FEW,SCT,BKN,M,1300.00,3500.00,6000.00,M,VCSH,YBBN 030100Z 36012KT 9999 VCSH FEW013 SCT035 BKN060 21/12 Q1010 RMK SHRA TO NW
YBBN,2015-09-03 01:30,153.1292,-27.3917,71.60,50.00,46.43,260.00,14.00,0.00,29.83,M,6.21,M,FEW,SCT,M,M,1800.00,4500.00,M,M,M,YBBN 030130Z 26014KT 9999 FEW018TCU SCT045 22/10 Q1010 RMK TCU TO NNE
YBBN,2015-09-03 02:00,153.1292,-27.3917,75.20,44.60,33.57,250.00,22.00,0.00,29.83,M,6.21,M,FEW,SCT,FEW,M,2000.00,6500.00,2500.00,M,M,YBBN 030200Z 25022KT 9999 FEW020 SCT065 FEW025TCU 24/07 Q1010
YBBN,2015-09-03 02:30,153.1292,-27.3917,75.20,42.80,31.34,250.00,23.00,0.00,29.80,M,6.21,M,M,M,M,M,M,M,M,M,M,YBBN 030230Z 25023KT CAVOK 24/06 Q1009 RMK DIST CU TOPS TO NE
YBBN,2015-09-03 02:41,153.1292,-27.3917,75.20,42.80,31.34,260.00,19.00,0.00,29.80,M,6.21,29.00,M,M,M,M,M,M,M,M,M,YBBN 030241Z 26019G29KT CAVOK 24/06 Q1009
YBBN,2015-09-03 03:00,153.1292,-27.3917,75.20,42.80,31.34,260.00,23.00,0.00,29.80,M,6.21,M,M,M,M,M,M,M,M,M,M,YBBN 030300Z 26023KT CAVOK 24/06 Q1009 RMK HAZE
YBBN,2015-09-03 03:30,153.1292,-27.3917,75.20,41.00,29.23,270.00,17.00,0.00,29.80,M,6.21,M,NCD,M,M,M,M,M,M,M,//,YBBN 030330Z AUTO 27017KT 9999 // NCD 24/05 Q1009
YBBN,2015-09-03 03:49,153.1292,-27.3917,77.00,41.00,27.53,280.00,17.00,0.00,29.77,M,6.21,27.00,M,M,M,M,M,M,M,M,M,YBBN 030349Z 28017G27KT CAVOK 25/05 Q1008 RMK HAZE
YBBN,2015-09-03 04:00,153.1292,-27.3917,75.20,41.00,29.23,290.00,17.00,0.00,29.77,M,6.21,M,FEW,M,M,M,4000.00,M,M,M,M,YBBN 030400Z 29017KT 9999 FEW040 24/05 Q1008
YBBN,2015-09-03 04:30,153.1292,-27.3917,77.00,37.40,23.93,300.00,18.00,0.00,29.77,M,6.21,28.00,FEW,M,M,M,4000.00,M,M,M,M,YBBN 030430Z 30018G28KT 9999 FEW040 25/03 Q1008
YBBN,2015-09-03 04:51,153.1292,-27.3917,77.00,30.20,17.94,260.00,21.00,0.00,29.77,M,6.21,M,FEW,M,M,M,4000.00,M,M,M,M,YBBN 030451Z 26021KT 9999 FEW040 25/M01 Q1008
YBBN,2015-09-03 05:00,153.1292,-27.3917,77.00,32.00,19.30,270.00,22.00,0.00,29.77,M,6.21,M,FEW,M,M,M,4000.00,M,M,M,M,YBBN 030500Z 27022KT 9999 FEW040 25/00 Q1008
YBBN,2015-09-03 05:09,153.1292,-27.3917,77.00,32.00,19.30,280.00,20.00,0.00,29.77,M,6.21,30.00,FEW,M,M,M,4000.00,M,M,M,M,YBBN 030509Z 28020G30KT 9999 FEW040 25/M00 Q1008
YBBN,2015-09-03 05:30,153.1292,-27.3917,77.00,26.60,15.48,270.00,22.00,0.00,29.77,M,6.21,M,FEW,M,M,M,4000.00,M,M,M,M,YBBN 030530Z 27022KT 9999 FEW040 25/M03 Q1008
YBBN,2015-09-03 05:39,153.1292,-27.3917,77.00,26.60,15.48,270.00,21.00,0.00,29.77,M,6.21,31.00,FEW,M,M,M,4000.00,M,M,M,M,YBBN 030539Z 27021G31KT 9999 FEW040 25/M03 Q1008
YBBN,2015-09-03 06:03,153.1292,-27.3917,75.20,28.40,17.70,250.00,26.00,0.00,29.80,M,6.21,39.00,M,M,M,M,M,M,M,M,M,YBBN 030603Z 25026G39KT CAVOK 24/M02 Q1009
YBBN,2015-09-03 06:30,153.1292,-27.3917,73.40,28.40,18.80,270.00,19.00,0.00,29.80,M,6.21,M,M,M,M,M,M,M,M,M,M,YBBN 030630Z 27019KT CAVOK 23/M02 Q1009
YBBN,2015-09-03 06:39,153.1292,-27.3917,73.40,30.20,20.23,260.00,21.00,0.00,29.80,M,6.21,31.00,M,M,M,M,M,M,M,M,M,YBBN 030639Z 26021G31KT CAVOK 23/M01 Q1009 RMK HAZE
YBBN,2015-09-03 07:00,153.1292,-27.3917,73.40,32.00,21.76,260.00,20.00,0.00,29.83,M,6.21,31.00,M,M,M,M,M,M,M,M,M,YBBN 030700Z 26020G31KT CAVOK 23/00 Q1010
YBBN,2015-09-03 07:30,153.1292,-27.3917,71.60,33.80,24.86,270.00,18.00,0.00,29.85,M,6.21,M,FEW,M,M,M,4000.00,M,M,M,M,YBBN 030730Z 27018KT 9999 FEW040 22/01 Q1011
YBBN,2015-09-03 08:00,153.1292,-27.3917,71.60,33.80,24.86,270.00,10.00,0.00,29.85,M,6.21,M,FEW,M,M,M,3500.00,M,M,M,M,YBBN 030800Z 27010KT 9999 FEW035 22/01 Q1011
YBBN,2015-09-03 08:10,153.1292,-27.3917,69.80,35.60,28.39,270.00,17.00,0.00,29.85,M,6.21,M,FEW,M,M,M,3500.00,M,M,M,M,YBBN 030810Z 27017KT 9999 FEW035 21/02 Q1011
YBBN,2015-09-03 08:30,153.1292,-27.3917,69.80,35.60,28.39,270.00,15.00,0.00,29.88,M,6.21,M,FEW,M,M,M,3500.00,M,M,M,M,YBBN 030830Z 27015KT 9999 FEW035 21/02 Q1012
YBBN,2015-09-03 09:00,153.1292,-27.3917,68.00,37.40,32.43,270.00,13.00,0.00,29.88,M,6.21,M,FEW,M,M,M,3500.00,M,M,M,M,YBBN 030900Z 27013KT 9999 FEW035 20/03 Q1012
YBBN,2015-09-03 09:30,153.1292,-27.3917,68.00,37.40,32.43,260.00,13.00,0.00,29.91,M,6.21,M,FEW,M,M,M,3500.00,M,M,M,M,YBBN 030930Z 26013KT 9999 FEW035 20/03 Q1013
YBBN,2015-09-03 10:00,153.1292,-27.3917,68.00,35.60,30.20,250.00,13.00,0.00,29.91,M,6.21,M,M,M,M,M,M,M,M,M,M,YBBN 031000Z 25013KT CAVOK 20/02 Q1013
YBBN,2015-09-03 10:30,153.1292,-27.3917,66.20,37.40,34.51,250.00,13.00,0.00,29.94,M,6.21,M,M,M,M,M,M,M,M,M,M,YBBN 031030Z 25013KT CAVOK 19/03 Q1014
YBBN,2015-09-03 11:00,153.1292,-27.3917,64.40,37.40,36.74,250.00,12.00,0.00,29.94,M,6.21,M,M,M,M,M,M,M,M,M,M,YBBN 031100Z 25012KT CAVOK 18/03 Q1014
YBBN,2015-09-03 11:30,153.1292,-27.3917,64.40,39.20,39.43,250.00,8.00,0.00,29.97,M,6.21,M,M,M,M,M,M,M,M,M,M,YBBN 031130Z 25008KT CAVOK 18/04 Q1015
YBBN,2015-09-03 11:57,153.1292,-27.3917,62.60,39.20,42.00,250.00,15.00,0.00,29.97,M,6.21,M,M,M,M,M,M,M,M,M,M,YBBN 031157Z 25015KT CAVOK 17/04 Q1015
YBBN,2015-09-03 12:00,153.1292,-27.3917,62.60,39.20,42.00,250.00,15.00,0.00,29.97,M,6.21,M,M,M,M,M,M,M,M,M,M,YBBN 031200Z 25015KT CAVOK 17/04 Q1015
YBBN,2015-09-03 12:30,153.1292,-27.3917,62.60,39.20,42.00,230.00,14.00,0.00,29.97,M,6.21,M,M,M,M,M,M,M,M,M,M,YBBN 031230Z 23014KT CAVOK 17/04 Q1015
YBBN,2015-09-03 13:00,153.1292,-27.3917,60.80,41.00,48.00,250.00,8.00,0.00,29.97,M,6.21,M,M,M,M,M,M,M,M,M,M,YBBN 031300Z 25008KT CAVOK 16/05 Q1015
YBBN,2015-09-03 13:30,153.1292,-27.3917,60.80,41.00,48.00,250.00,12.00,0.00,29.97,M,6.21,M,M,M,M,M,M,M,M,M,M,YBBN 031330Z 25012KT CAVOK 16/05 Q1015
YBBN,2015-09-03 14:00,153.1292,-27.3917,60.80,41.00,48.00,180.00,3.00,0.00,29.97,M,6.21,M,M,M,M,M,M,M,M,M,M,YBBN 031400Z 18003KT CAVOK 16/05 Q1015
YBBN,2015-09-03 14:30,153.1292,-27.3917,59.00,41.00,51.18,230.00,6.00,0.00,29.97,M,6.21,M,M,M,M,M,M,M,M,M,M,YBBN 031430Z 23006KT CAVOK 15/05 Q1015
YBBN,2015-09-03 15:00,153.1292,-27.3917,59.00,39.20,47.72,250.00,11.00,0.00,29.94,M,6.21,M,M,M,M,M,M,M,M,M,M,YBBN 031500Z 25011KT CAVOK 15/04 Q1014
YBBN,2015-09-03 15:30,153.1292,-27.3917,57.20,41.00,54.60,210.00,6.00,0.00,29.97,M,6.21,M,M,M,M,M,M,M,M,M,M,YBBN 031530Z 21006KT CAVOK 14/05 Q1015
YBBN,2015-09-03 16:00,153.1292,-27.3917,59.00,41.00,51.18,210.00,6.00,0.00,29.94,M,6.21,M,M,M,M,M,M,M,M,M,M,YBBN 031600Z 21006KT CAVOK 15/05 Q1014
YBBN,2015-09-03 16:30,153.1292,-27.3917,53.60,41.00,62.23,220.00,7.00,0.00,29.94,M,6.21,M,M,M,M,M,M,M,M,M,M,YBBN 031630Z 22007KT CAVOK 12/05 Q1014
YBBN,2015-09-03 17:00,153.1292,-27.3917,55.40,41.00,58.27,240.00,13.00,0.00,29.94,M,6.21,M,M,M,M,M,M,M,M,M,M,YBBN 031700Z 24013KT CAVOK 13/05 Q1014
YBBN,2015-09-03 17:30,153.1292,-27.3917,55.40,41.00,58.27,240.00,9.00,0.00,29.94,M,6.21,M,NCD,M,M,M,M,M,M,M,//,YBBN 031730Z AUTO 24009KT 9999 // NCD 13/05 Q1014
YBBN,2015-09-03 18:00,153.1292,-27.3917,55.40,41.00,58.27,240.00,8.00,0.00,29.94,M,6.21,M,M,M,M,M,M,M,M,M,M,YBBN 031800Z 24008KT CAVOK 13/05 Q1014
YBBN,2015-09-03 18:30,153.1292,-27.3917,55.40,41.00,58.27,260.00,11.00,0.00,29.94,M,6.21,M,M,M,M,M,M,M,M,M,M,YBBN 031830Z 26011KT CAVOK 13/05 Q1014
YBBN,2015-09-03 19:00,153.1292,-27.3917,55.40,41.00,58.27,250.00,9.00,0.00,29.97,M,6.21,M,M,M,M,M,M,M,M,M,M,YBBN 031900Z 25009KT CAVOK 13/05 Q1015
YBBN,2015-09-03 19:30,153.1292,-27.3917,53.60,41.00,62.23,0.00,0.00,0.00,29.97,M,6.21,M,M,M,M,M,M,M,M,M,M,YBBN 031930Z 00000KT CAVOK 12/05 Q1015
YBBN,2015-09-03 20:00,153.1292,-27.3917,51.80,42.80,71.26,0.00,0.00,0.00,30.00,M,6.21,M,M,M,M,M,M,M,M,M,M,YBBN 032000Z 00000KT CAVOK 11/06 Q1016 NOSIG
YBBN,2015-09-03 20:30,153.1292,-27.3917,55.40,42.80,62.46,240.00,8.00,0.00,30.00,M,6.21,M,M,M,M,M,M,M,M,M,M,YBBN 032030Z 24008KT CAVOK 13/06 Q1016
YBBN,2015-09-03 21:00,153.1292,-27.3917,57.20,42.80,58.52,310.00,5.00,0.00,30.03,M,6.21,M,M,M,M,M,M,M,M,M,M,YBBN 032100Z 31005KT CAVOK 14/06 Q1017
YBBN,2015-09-03 21:30,153.1292,-27.3917,60.80,42.80,51.45,250.00,8.00,0.00,30.03,M,6.21,M,M,M,M,M,M,M,M,M,M,YBBN 032130Z 25008KT CAVOK 16/06 Q1017
YBBN,2015-09-03 22:00,153.1292,-27.3917,62.60,42.80,48.28,240.00,9.00,0.00,30.06,M,6.21,M,M,M,M,M,M,M,M,M,M,YBBN 032200Z 24009KT CAVOK 17/06 Q1018
YBBN,2015-09-03 22:30,153.1292,-27.3917,64.40,41.00,42.28,230.00,11.00,0.00,30.06,M,6.21,M,M,M,M,M,M,M,M,M,M,YBBN 032230Z 23011KT CAVOK 18/05 Q1018
YBBN,2015-09-03 23:00,153.1292,-27.3917,66.20,41.00,39.72,210.00,14.00,0.00,30.06,M,6.21,M,M,M,M,M,M,M,M,M,M,YBBN 032300Z 21014KT CAVOK 19/05 Q1018
YBBN,2015-09-03 23:30,153.1292,-27.3917,66.20,41.00,39.72,210.00,10.00,0.00,30.06,M,6.21,M,M,M,M,M,M,M,M,M,M,YBBN 032330Z 21010KT CAVOK 19/05 Q1018
