#DEBUG: Format Typ    -> comma
#DEBUG: Time Period   -> 2015-01-21 00:00:00+00:00 2015-01-22 00:00:00+00:00
#DEBUG: Time Zone     -> Etc/UTC
#DEBUG: Data Contact   -> daryl herzmann akrherz@iastate.edu 515-294-5978
#DEBUG: Entries Found -> -1
station,valid,lon,lat,tmpf, dwpf, relh, drct, sknt, p01i, alti, mslp, vsby, gust, skyc1, skyc2, skyc3, skyc4, skyl1, skyl2, skyl3, skyl4, presentwx, metar
YBBN,2015-01-21 00:00,153.1292,-27.3917,82.40,62.60,51.21,60.00,10.00,0.00,29.80,M,6.21,M,SCT,BKN,M,M,3500.00,30000.00,M,M,M,YBBN 210000Z 06010KT 9999 SCT035 BKN300 28/17 Q1009
YBBN,2015-01-21 00:30,153.1292,-27.3917,84.20,64.40,51.47,40.00,10.00,0.00,29.80,M,6.21,M,SCT,BKN,M,M,3500.00,30000.00,M,M,M,YBBN 210030Z 04010KT 9999 SCT035 BKN300 29/18 Q1009
YBBN,2015-01-21 01:00,153.1292,-27.3917,82.40,66.20,58.08,50.00,10.00,0.00,29.80,M,6.21,M,SCT,BKN,M,M,3500.00,30000.00,M,M,M,YBBN 210100Z 05010KT 9999 SCT035 BKN300 28/19 Q1009
YBBN,2015-01-21 01:30,153.1292,-27.3917,84.20,64.40,51.47,50.00,10.00,0.00,29.80,M,6.21,M,SCT,BKN,M,M,3500.00,30000.00,M,M,M,YBBN 210130Z 05010KT 9999 SCT035 BKN300 29/18 Q1009
YBBN,2015-01-21 02:00,153.1292,-27.3917,84.20,64.40,51.47,50.00,10.00,0.00,29.80,M,6.21,M,SCT,BKN,M,M,3800.00,30000.00,M,M,M,YBBN 210200Z 05010KT 9999 SCT038 BKN300 29/18 Q1009
YBBN,2015-01-21 02:30,153.1292,-27.3917,84.20,64.40,51.47,40.00,11.00,0.00,29.80,M,6.21,M,FEW,BKN,M,M,4000.00,30000.00,M,M,M,YBBN 210230Z 04011KT 9999 FEW040 BKN300 29/18 Q1009
YBBN,2015-01-21 03:00,153.1292,-27.3917,84.20,66.20,54.80,30.00,11.00,0.00,29.80,M,6.21,M,FEW,BKN,M,M,4000.00,30000.00,M,M,M,YBBN 210300Z 03011KT 9999 FEW040 BKN300 29/19 Q1009
YBBN,2015-01-21 03:30,153.1292,-27.3917,84.20,68.00,58.32,70.00,9.00,0.00,29.77,M,6.21,M,FEW,BKN,M,M,4000.00,30000.00,M,M,M,YBBN 210330Z 07009KT 9999 FEW040 BKN300 29/20 Q1008
YBBN,2015-01-21 04:00,153.1292,-27.3917,82.40,66.20,58.08,60.00,10.00,0.00,29.77,M,6.21,M,FEW,BKN,M,M,2500.00,30000.00,M,M,M,YBBN 210400Z 06010KT 9999 FEW025 BKN300 28/19 Q1008
YBBN,2015-01-21 04:30,153.1292,-27.3917,82.40,68.00,61.81,90.00,9.00,0.00,29.77,M,6.21,M,FEW,SCT,BKN,M,2500.00,3300.00,30000.00,M,M,YBBN 210430Z 09009KT 9999 FEW025 SCT033 BKN300 28/20 Q1008
YBBN,2015-01-21 05:00,153.1292,-27.3917,82.40,68.00,61.81,70.00,12.00,0.00,29.74,M,6.21,M,FEW,SCT,BKN,M,2500.00,3300.00,30000.00,M,M,YBBN 210500Z 07012KT 9999 FEW025 SCT033 BKN300 28/20 Q1007
YBBN,2015-01-21 05:30,153.1292,-27.3917,82.40,68.00,61.81,70.00,11.00,0.00,29.74,M,6.21,M,FEW,SCT,BKN,M,2500.00,3300.00,30000.00,M,M,YBBN 210530Z 07011KT 9999 FEW025 SCT033 BKN300 28/20 Q1007
YBBN,2015-01-21 06:00,153.1292,-27.3917,82.40,68.00,61.81,70.00,12.00,0.00,29.74,M,6.21,M,FEW,SCT,BKN,M,2500.00,3300.00,30000.00,M,M,YBBN 210600Z 07012KT 9999 FEW025 SCT033 BKN300 28/20 Q1007
YBBN,2015-01-21 06:30,153.1292,-27.3917,82.40,66.20,58.08,70.00,10.00,0.00,29.74,M,6.21,M,SCT,BKN,M,M,3000.00,30000.00,M,M,M,YBBN 210630Z 07010KT 9999 SCT030 BKN300 28/19 Q1007
YBBN,2015-01-21 07:00,153.1292,-27.3917,80.60,64.40,57.84,70.00,9.00,0.00,29.77,M,6.21,M,SCT,SCT,BKN,M,3000.00,12000.00,30000.00,M,M,YBBN 210700Z 07009KT 9999 SCT030 SCT120 BKN300 27/18 Q1008
YBBN,2015-01-21 07:30,153.1292,-27.3917,80.60,66.20,61.58,60.00,9.00,0.00,29.77,M,6.21,M,SCT,BKN,M,M,3000.00,20000.00,M,M,M,YBBN 210730Z 06009KT 9999 SCT030 BKN200 27/19 Q1008
YBBN,2015-01-21 07:59,153.1292,-27.3917,73.40,68.00,83.21,30.00,19.00,0.00,29.77,M,6.21,M,BKN,SCT,BKN,M,2900.00,5900.00,30000.00,M,-SHRA,YBBN 210759Z 03019KT 9999 -SHRA BKN029 SCT059 BKN300 23/20 Q1008
YBBN,2015-01-21 08:00,153.1292,-27.3917,73.40,68.00,83.21,30.00,19.00,0.00,29.77,M,6.21,M,BKN,SCT,BKN,M,2900.00,5900.00,30000.00,M,-SHRA,YBBN 210800Z 03019KT 9999 -SHRA BKN029 SCT059 BKN300 23/20 Q1008
YBBN,2015-01-21 09:30,153.1292,-27.3917,75.20,69.80,83.32,90.00,4.00,0.00,29.80,M,6.21,M,SCT,BKN,M,M,2700.00,11000.00,M,M,VCSH,YBBN 210930Z 09004KT 9999 VCSH SCT027 BKN110 24/21 Q1009
YBBN,2015-01-21 10:00,153.1292,-27.3917,77.00,68.00,73.78,90.00,7.00,0.00,29.80,M,6.21,M,SCT,BKN,M,M,3000.00,18000.00,M,M,M,YBBN 211000Z 09007KT 9999 SCT030 BKN180 25/20 Q1009
YBBN,2015-01-21 10:30,153.1292,-27.3917,77.00,68.00,73.78,90.00,7.00,0.00,29.80,M,6.21,M,SCT,BKN,M,M,3000.00,19000.00,M,M,VCSH,YBBN 211030Z 09007KT 9999 VCSH SCT030 BKN190 25/20 Q1009
YBBN,2015-01-21 11:00,153.1292,-27.3917,78.80,68.00,69.52,90.00,8.00,0.00,29.80,M,6.21,M,FEW,BKN,M,M,2900.00,17500.00,M,M,VCSH,YBBN 211100Z 09008KT 9999 VCSH FEW029 BKN175 26/20 Q1009 NOSIG
YBBN,2015-01-21 11:30,153.1292,-27.3917,78.80,66.20,65.33,100.00,8.00,0.00,29.80,M,6.21,M,FEW,SCT,M,M,2900.00,17000.00,M,M,M,YBBN 211130Z 10008KT 9999 FEW029 SCT170 26/19 Q1009
YBBN,2015-01-21 12:00,153.1292,-27.3917,78.80,68.00,69.52,100.00,9.00,0.00,29.80,M,6.21,M,FEW,SCT,BKN,M,2900.00,17000.00,26000.00,M,M,YBBN 211200Z 10009KT 9999 FEW029 SCT170 BKN260 26/20 Q1009
YBBN,2015-01-21 12:30,153.1292,-27.3917,78.80,68.00,69.52,90.00,7.00,0.00,29.83,M,6.21,M,BKN,BKN,M,M,2500.00,26000.00,M,M,M,YBBN 211230Z 09007KT 9999 BKN025 BKN260 26/20 Q1010
YBBN,2015-01-21 13:00,153.1292,-27.3917,78.80,68.00,69.52,110.00,6.00,0.00,29.83,M,6.21,M,BKN,SCT,M,M,2500.00,17500.00,M,M,M,YBBN 211300Z 11006KT 9999 BKN025 SCT175 26/20 Q1010
YBBN,2015-01-21 13:30,153.1292,-27.3917,78.80,68.00,69.52,110.00,5.00,0.00,29.83,M,6.21,M,BKN,BKN,M,M,2500.00,26000.00,M,M,M,YBBN 211330Z 11005KT 9999 BKN025 BKN260 26/20 Q1010
YBBN,2015-01-21 14:00,153.1292,-27.3917,78.80,68.00,69.52,100.00,5.00,0.00,29.80,M,6.21,M,SCT,SCT,BKN,M,2500.00,17000.00,26000.00,M,VCSH,YBBN 211400Z 10005KT 9999 VCSH SCT025 SCT170 BKN260 26/20 Q1009
YBBN,2015-01-21 14:30,153.1292,-27.3917,77.00,68.00,73.78,110.00,5.00,0.00,29.80,M,6.21,M,SCT,BKN,M,M,2600.00,26000.00,M,M,VCSH,YBBN 211430Z 11005KT 9999 VCSH SCT026 BKN260 25/20 Q1009
YBBN,2015-01-21 15:00,153.1292,-27.3917,75.20,69.80,83.32,120.00,6.00,0.00,29.80,M,6.21,M,SCT,BKN,M,M,2500.00,24000.00,M,M,VCSH,YBBN 211500Z 12006KT 9999 VCSH SCT025 BKN240 24/21 Q1009
YBBN,2015-01-21 15:30,153.1292,-27.3917,75.20,69.80,83.32,160.00,4.00,0.00,29.80,M,6.21,M,FEW,SCT,BKN,M,2600.00,17000.00,23000.00,M,M,YBBN 211530Z 16004KT 9999 FEW026 SCT170 BKN230 24/21 Q1009
YBBN,2015-01-21 16:00,153.1292,-27.3917,77.00,69.80,78.48,130.00,3.00,0.00,29.77,M,6.21,M,SCT,SCT,BKN,M,2600.00,18000.00,23000.00,M,M,YBBN 211600Z 13003KT 9999 SCT026 SCT180 BKN230 25/21 Q1008
YBBN,2015-01-21 16:30,153.1292,-27.3917,77.00,69.80,78.48,130.00,7.00,0.00,29.77,M,6.21,M,SCT,SCT,BKN,M,2600.00,18500.00,23000.00,M,M,YBBN 211630Z 13007KT 9999 SCT026 SCT185 BKN230 25/21 Q1008
YBBN,2015-01-21 17:00,153.1292,-27.3917,75.20,69.80,83.32,160.00,7.00,0.00,29.74,M,6.21,M,BKN,BKN,M,M,2200.00,19000.00,M,M,VCSH,YBBN 211700Z 16007KT 9999 VCSH BKN022 BKN190 24/21 Q1007
YBBN,2015-01-21 17:30,153.1292,-27.3917,75.20,68.00,78.34,160.00,5.00,0.00,29.77,M,6.21,M,BKN,BKN,M,M,2500.00,19000.00,M,M,-SHRA,YBBN 211730Z 16005KT 9999 -SHRA BKN025 BKN190 24/20 Q1008
YBBN,2015-01-21 18:00,153.1292,-27.3917,73.40,68.00,83.21,170.00,6.00,0.00,29.74,M,6.21,M,BKN,M,M,M,2300.00,M,M,M,-SHRA,YBBN 211800Z 17006KT 9999 -SHRA BKN023 23/20 Q1007
YBBN,2015-01-21 18:30,153.1292,-27.3917,73.40,69.80,88.51,120.00,5.00,0.00,29.77,M,6.21,M,SCT,BKN,M,M,1700.00,2200.00,M,M,SHRA,YBBN 211830Z 12005KT 9999 SHRA SCT017 BKN022 23/21 Q1008
YBBN,2015-01-21 19:00,153.1292,-27.3917,73.40,69.80,88.51,180.00,3.00,0.00,29.77,M,6.21,M,FEW,SCT,BKN,M,1000.00,2100.00,5000.00,M,-SHRA,YBBN 211900Z 18003KT 9999 -SHRA FEW010 SCT021 BKN050 23/21 Q1008 RESHRA NOSIG
YBBN,2015-01-21 19:30,153.1292,-27.3917,73.40,69.80,88.51,170.00,5.00,0.00,29.77,M,6.21,M,FEW,SCT,BKN,M,1700.00,2000.00,7300.00,M,VCSH,YBBN 211930Z 17005KT 9999 VCSH FEW017 SCT020 BKN073 23/21 Q1008 RESHRA
YBBN,2015-01-21 20:00,153.1292,-27.3917,73.40,69.80,88.51,180.00,4.00,0.00,29.77,M,6.21,M,FEW,SCT,BKN,M,1000.00,2600.00,19000.00,M,VCSH,YBBN 212000Z 18004KT 9999 VCSH FEW010 SCT026 BKN190 23/21 Q1008 NOSIG
YBBN,2015-01-21 20:30,153.1292,-27.3917,73.40,71.60,94.10,190.00,5.00,0.00,29.77,M,6.21,M,FEW,SCT,BKN,M,1000.00,2500.00,30000.00,M,VCSH,YBBN 212030Z 19005KT 9999 VCSH FEW010 SCT025 BKN300 23/22 Q1008
YBBN,2015-01-21 21:00,153.1292,-27.3917,75.20,71.60,88.59,180.00,5.00,0.00,29.80,M,6.21,M,FEW,SCT,BKN,M,1000.00,2000.00,30000.00,M,-SHRA,YBBN 212100Z 18005KT 9999 -SHRA FEW010 SCT020 BKN300 24/22 Q1009
YBBN,2015-01-21 21:30,153.1292,-27.3917,77.00,71.60,83.44,170.00,5.00,0.00,29.80,M,6.21,M,FEW,BKN,M,M,1000.00,30000.00,M,M,VCSH,YBBN 212130Z 17005KT 9999 VCSH FEW010 BKN300 25/22 Q1009
YBBN,2015-01-21 22:00,153.1292,-27.3917,80.60,71.60,74.11,150.00,6.00,0.00,29.80,M,6.21,M,FEW,BKN,M,M,1200.00,30000.00,M,M,M,YBBN 212200Z 15006KT 9999 FEW012 BKN300 27/22 Q1009
YBBN,2015-01-21 22:30,153.1292,-27.3917,80.60,69.80,69.71,130.00,6.00,0.00,29.80,M,6.21,M,FEW,SCT,BKN,M,1200.00,2000.00,30000.00,M,M,YBBN 212230Z 13006KT 9999 FEW012 SCT020 BKN300 27/21 Q1009
YBBN,2015-01-21 23:00,153.1292,-27.3917,82.40,69.80,65.74,130.00,8.00,0.00,29.80,M,6.21,M,FEW,SCT,BKN,M,1200.00,2000.00,30000.00,M,VCSH,YBBN 212300Z 13008KT 9999 VCSH FEW012 SCT020 BKN300 28/21 Q1009
YBBN,2015-01-21 23:30,153.1292,-27.3917,80.60,69.80,69.71,120.00,8.00,0.00,29.80,M,6.21,M,FEW,SCT,BKN,M,1000.00,2000.00,30000.00,M,M,YBBN 212330Z 12008KT 9999 FEW010 SCT020 BKN300 27/21 Q1009
