#DEBUG: Format Typ    -> comma
#DEBUG: Time Period   -> 2012-08-17 00:00:00+00:00 2012-08-18 00:00:00+00:00
#DEBUG: Time Zone     -> Etc/UTC
#DEBUG: Data Contact   -> daryl herzmann akrherz@iastate.edu 515-294-5978
#DEBUG: Entries Found -> -1
station,valid,lon,lat,tmpf, dwpf, relh, drct, sknt, p01i, alti, mslp, vsby, gust, skyc1, skyc2, skyc3, skyc4, skyl1, skyl2, skyl3, skyl4, presentwx, metar
YBBN,2012-08-17 00:00,153.1292,-27.3917,66.20,51.80,59.74,360.00,8.00,0.00,29.97,M,6.21,M,M,M,M,M,M,M,M,M,M,YBBN 170000Z 36008KT CAVOK 19/11 Q1015
YBBN,2012-08-17 00:30,153.1292,-27.3917,68.00,50.00,52.51,10.00,8.00,0.00,29.97,M,6.21,M,M,M,M,M,M,M,M,M,M,YBBN 170030Z 01008KT CAVOK 20/10 Q1015
YBBN,2012-08-17 01:00,153.1292,-27.3917,69.80,51.80,52.77,10.00,9.00,0.00,29.94,M,6.21,M,M,M,M,M,M,M,M,M,M,YBBN 170100Z 01009KT CAVOK 21/11 Q1014
YBBN,2012-08-17 01:30,153.1292,-27.3917,71.60,53.60,53.03,20.00,12.00,0.00,29.94,M,6.21,M,M,M,M,M,M,M,M,M,M,YBBN 170130Z 02012KT CAVOK 22/12 Q1014
YBBN,2012-08-17 02:00,153.1292,-27.3917,71.60,53.60,53.03,20.00,11.00,0.00,29.91,M,6.21,M,FEW,M,M,M,4600.00,M,M,M,M,YBBN 170200Z 02011KT 9999 FEW046 22/12 Q1013
YBBN,2012-08-17 02:30,153.1292,-27.3917,71.60,53.60,53.03,30.00,13.00,0.00,29.88,M,6.21,M,FEW,M,M,M,4800.00,M,M,M,M,YBBN 170230Z 03013KT 9999 FEW048 22/12 Q1012
YBBN,2012-08-17 03:00,153.1292,-27.3917,73.40,57.20,56.88,30.00,15.00,0.00,29.88,M,6.21,M,FEW,M,M,M,4800.00,M,M,M,M,YBBN 170300Z 03015KT 9999 FEW048 23/14 Q1012
YBBN,2012-08-17 03:30,153.1292,-27.3917,73.40,57.20,56.88,30.00,15.00,0.00,29.85,M,6.21,M,FEW,M,M,M,4600.00,M,M,M,M,YBBN 170330Z 03015KT 9999 FEW046 23/14 Q1011
YBBN,2012-08-17 04:00,153.1292,-27.3917,71.60,59.00,64.48,20.00,14.00,0.00,29.85,M,6.21,M,FEW,M,M,M,4500.00,M,M,M,M,YBBN 170400Z 02014KT 9999 FEW045 22/15 Q1011
YBBN,2012-08-17 04:30,153.1292,-27.3917,73.40,57.20,56.88,10.00,17.00,0.00,29.83,M,6.21,M,FEW,M,M,M,4500.00,M,M,M,M,YBBN 170430Z 01017KT 9999 FEW045 23/14 Q1010
YBBN,2012-08-17 05:00,153.1292,-27.3917,71.60,57.20,60.44,10.00,16.00,0.00,29.83,M,6.21,M,FEW,SCT,M,M,4500.00,12000.00,M,M,M,YBBN 170500Z 01016KT 9999 FEW045 SCT120 22/14 Q1010
YBBN,2012-08-17 05:30,153.1292,-27.3917,71.60,59.00,64.48,20.00,15.00,0.00,29.83,M,6.21,M,FEW,M,M,M,4400.00,M,M,M,M,YBBN 170530Z 02015KT 9999 FEW044 22/15 Q1010
YBBN,2012-08-17 06:00,153.1292,-27.3917,69.80,57.20,64.26,10.00,15.00,0.00,29.83,M,6.21,M,FEW,M,M,M,4400.00,M,M,M,M,YBBN 170600Z 01015KT 9999 FEW044 21/14 Q1010 NOSIG
YBBN,2012-08-17 06:30,153.1292,-27.3917,69.80,59.00,68.55,10.00,14.00,0.00,29.83,M,6.21,M,FEW,M,M,M,4200.00,M,M,M,M,YBBN 170630Z 01014KT 9999 FEW042 21/15 Q1010
YBBN,2012-08-17 07:00,153.1292,-27.3917,68.00,57.20,68.35,10.00,13.00,0.00,29.83,M,6.21,M,FEW,M,M,M,4200.00,M,M,M,M,YBBN 170700Z 01013KT 9999 FEW042 20/14 Q1010 NOSIG
YBBN,2012-08-17 07:30,153.1292,-27.3917,68.00,57.20,68.35,10.00,14.00,0.00,29.83,M,6.21,M,FEW,M,M,M,4000.00,M,M,M,M,YBBN 170730Z 01014KT 9999 FEW040 20/14 Q1010 RMK HAZE
YBBN,2012-08-17 08:00,153.1292,-27.3917,66.20,57.20,72.74,360.00,13.00,0.00,29.83,M,6.21,M,M,M,M,M,M,M,M,M,M,YBBN 170800Z 36013KT CAVOK 19/14 Q1010
YBBN,2012-08-17 08:30,153.1292,-27.3917,66.20,59.00,77.60,360.00,12.00,0.00,29.83,M,6.21,M,M,M,M,M,M,M,M,M,M,YBBN 170830Z 36012KT CAVOK 19/15 Q1010
YBBN,2012-08-17 09:00,153.1292,-27.3917,66.20,59.00,77.60,360.00,13.00,0.00,29.85,M,6.21,M,M,M,M,M,M,M,M,M,M,YBBN 170900Z 36013KT CAVOK 19/15 Q1011 NOSIG
YBBN,2012-08-17 09:30,153.1292,-27.3917,64.40,59.00,82.62,360.00,10.00,0.00,29.85,M,6.21,M,M,M,M,M,M,M,M,M,M,YBBN 170930Z 36010KT CAVOK 18/15 Q1011
YBBN,2012-08-17 10:00,153.1292,-27.3917,64.40,59.00,82.62,360.00,11.00,0.00,29.85,M,6.21,M,M,M,M,M,M,M,M,M,M,YBBN 171000Z 36011KT CAVOK 18/15 Q1011 NOSIG
YBBN,2012-08-17 10:30,153.1292,-27.3917,64.40,59.00,82.62,350.00,7.00,0.00,29.85,M,6.21,M,M,M,M,M,M,M,M,M,M,YBBN 171030Z 35007KT CAVOK 18/15 Q1011
YBBN,2012-08-17 11:00,153.1292,-27.3917,62.60,57.20,82.50,350.00,7.00,0.00,29.85,M,6.21,M,M,M,M,M,M,M,M,M,M,YBBN 171100Z 35007KT CAVOK 17/14 Q1011
YBBN,2012-08-17 11:30,153.1292,-27.3917,64.40,57.20,77.45,340.00,9.00,0.00,29.85,M,6.21,M,M,M,M,M,M,M,M,M,M,YBBN 171130Z 34009KT CAVOK 18/14 Q1011
YBBN,2012-08-17 12:00,153.1292,-27.3917,64.40,57.20,77.45,350.00,8.00,0.00,29.85,M,6.21,M,M,M,M,M,M,M,M,M,M,YBBN 171200Z 35008KT CAVOK 18/14 Q1011
YBBN,2012-08-17 12:30,153.1292,-27.3917,62.60,57.20,82.50,350.00,8.00,0.00,29.85,M,6.21,M,FEW,SCT,FEW,M,3500.00,14000.00,4000.00,M,M,YBBN 171230Z 35008KT 9999 FEW035 SCT140 FEW040CB 17/14 Q1011 RMK LIGHTNING TO S
YBBN,2012-08-17 13:00,153.1292,-27.3917,62.60,57.20,82.50,350.00,8.00,0.00,29.85,M,6.21,M,FEW,SCT,M,M,3500.00,13000.00,M,M,-SHRA,YBBN 171300Z 35008KT 9999 -SHRA FEW035 SCT130 17/14 Q1011 RMK LIGHTNING TO SE
YBBN,2012-08-17 13:30,153.1292,-27.3917,64.40,53.60,67.95,350.00,12.00,0.00,29.85,M,6.21,M,FEW,M,M,M,3500.00,M,M,M,VCSH,YBBN 171330Z 35012KT 9999 VCSH FEW035 18/12 Q1011 RMK DIST LIGHTNING TO SE
YBBN,2012-08-17 14:00,153.1292,-27.3917,64.40,53.60,67.95,350.00,13.00,0.00,29.85,M,6.21,M,FEW,SCT,M,M,3000.00,11000.00,M,M,VCSH,YBBN 171400Z 35013KT 9999 VCSH FEW030 SCT110 18/12 Q1011
YBBN,2012-08-17 14:30,153.1292,-27.3917,64.40,53.60,67.95,350.00,11.00,0.00,29.85,M,6.21,M,M,M,M,M,M,M,M,M,M,YBBN 171430Z 35011KT CAVOK 18/12 Q1011
YBBN,2012-08-17 15:00,153.1292,-27.3917,62.60,53.60,72.38,340.00,9.00,0.00,29.88,M,6.21,M,M,M,M,M,M,M,M,M,M,YBBN 171500Z 34009KT CAVOK 17/12 Q1012 FM1700 26013KT CAVOK
YBBN,2012-08-17 15:30,153.1292,-27.3917,62.60,51.80,67.75,290.00,6.00,0.00,29.88,M,6.21,M,M,M,M,M,M,M,M,M,M,YBBN 171530Z 29006KT CAVOK 17/11 Q1012
YBBN,2012-08-17 16:00,153.1292,-27.3917,60.80,50.00,67.54,330.00,8.00,0.00,29.88,M,6.21,M,M,M,M,M,M,M,M,M,M,YBBN 171600Z 33008KT CAVOK 16/10 Q1012
YBBN,2012-08-17 16:30,153.1292,-27.3917,59.00,50.00,72.01,230.00,6.00,0.00,29.88,M,6.21,M,M,M,M,M,M,M,M,M,M,YBBN 171630Z 23006KT CAVOK 15/10 Q1012
YBBN,2012-08-17 17:00,153.1292,-27.3917,62.60,37.40,39.14,300.00,6.00,0.00,29.88,M,6.21,M,M,M,M,M,M,M,M,M,M,YBBN 171700Z 30006KT CAVOK 17/03 Q1012
YBBN,2012-08-17 17:30,153.1292,-27.3917,57.20,39.20,50.91,280.00,4.00,0.00,29.88,M,6.21,M,M,M,M,M,M,M,M,M,M,YBBN 171730Z 28004KT CAVOK 14/04 Q1012
YBBN,2012-08-17 18:00,153.1292,-27.3917,57.20,37.40,47.44,260.00,8.00,0.00,29.88,M,6.21,M,M,M,M,M,M,M,M,M,M,YBBN 171800Z 26008KT CAVOK 14/03 Q1012 NOSIG
YBBN,2012-08-17 18:30,153.1292,-27.3917,57.20,35.60,44.19,290.00,5.00,0.00,29.91,M,6.21,M,M,M,M,M,M,M,M,M,M,YBBN 171830Z 29005KT CAVOK 14/02 Q1013
YBBN,2012-08-17 19:00,153.1292,-27.3917,59.00,33.80,38.56,250.00,7.00,0.00,29.91,M,6.21,M,M,M,M,M,M,M,M,M,M,YBBN 171900Z 25007KT CAVOK 15/01 Q1013
YBBN,2012-08-17 19:30,153.1292,-27.3917,57.20,33.80,41.13,250.00,7.00,0.00,29.91,M,6.21,M,M,M,M,M,M,M,M,M,M,YBBN 171930Z 25007KT CAVOK 14/01 Q1013
YBBN,2012-08-17 20:00,153.1292,-27.3917,55.40,33.80,43.90,0.00,0.00,0.00,29.94,M,6.21,M,M,M,M,M,M,M,M,M,M,YBBN 172000Z 00000KT CAVOK 13/01 Q1014
YBBN,2012-08-17 20:30,153.1292,-27.3917,53.60,35.60,50.36,350.00,3.00,0.00,29.94,M,6.21,M,M,M,M,M,M,M,M,M,M,YBBN 172030Z 35003KT CAVOK 12/02 Q1014
YBBN,2012-08-17 21:00,153.1292,-27.3917,57.20,28.40,33.05,310.00,6.00,0.00,29.97,M,6.21,M,M,M,M,M,M,M,M,M,M,YBBN 172100Z 31006KT CAVOK 14/M02 Q1015
YBBN,2012-08-17 21:30,153.1292,-27.3917,60.80,23.00,23.23,260.00,10.00,0.00,29.97,M,6.21,M,M,M,M,M,M,M,M,M,M,YBBN 172130Z 26010KT CAVOK 16/M05 Q1015
YBBN,2012-08-17 22:00,153.1292,-27.3917,62.60,21.20,20.20,260.00,11.00,0.00,30.00,M,6.21,M,M,M,M,M,M,M,M,M,M,YBBN 172200Z 26011KT CAVOK 17/M06 Q1016
YBBN,2012-08-17 22:30,153.1292,-27.3917,62.60,19.40,18.71,260.00,14.00,0.00,30.00,M,6.21,M,M,M,M,M,M,M,M,M,M,YBBN 172230Z 26014KT CAVOK 17/M07 Q1016
YBBN,2012-08-17 23:00,153.1292,-27.3917,62.60,19.40,18.71,240.00,13.00,0.00,30.00,M,6.21,M,M,M,M,M,M,M,M,M,M,YBBN 172300Z 24013KT CAVOK 17/M07 Q1016
YBBN,2012-08-17 23:30,153.1292,-27.3917,64.40,19.40,17.56,250.00,15.00,0.00,30.00,M,6.21,M,M,M,M,M,M,M,M,M,M,YBBN 172330Z 25015KT CAVOK 18/M07 Q1016
