#DEBUG: Format Typ    -> comma
#DEBUG: Time Period   -> 2011-09-04 00:00:00+00:00 2011-09-05 00:00:00+00:00
#DEBUG: Time Zone     -> Etc/UTC
#DEBUG: Data Contact   -> daryl herzmann akrherz@iastate.edu 515-294-5978
#DEBUG: Entries Found -> -1
station,valid,lon,lat,tmpf, dwpf, relh, drct, sknt, p01i, alti, mslp, vsby, gust, skyc1, skyc2, skyc3, skyc4, skyl1, skyl2, skyl3, skyl4, presentwx, metar
YBBN,2011-09-04 00:00,153.1292,-27.3917,64.40,51.80,63.60,170.00,7.00,M,30.36,M,6.21,M,FEW,SCT,M,M,2500.00,5500.00,M,M,M,YBBN 040000Z 17007KT 9999 FEW025 SCT055 18/11 Q1028 NOSIG
YBBN,2011-09-04 00:30,153.1292,-27.3917,66.20,53.60,63.82,170.00,8.00,M,30.36,M,6.21,M,FEW,SCT,M,M,2500.00,7000.00,M,M,M,YBBN 040030Z 17008KT 9999 FEW025 SCT070 19/12 Q1028 NOSIG
YBBN,2011-09-04 01:00,153.1292,-27.3917,66.20,51.80,59.74,140.00,7.00,M,30.36,M,6.21,M,SCT,BKN,M,M,2500.00,6000.00,M,M,M,YBBN 040100Z 14007KT 9999 SCT025 BKN060 19/11 Q1028 NOSIG
YBBN,2011-09-04 01:30,153.1292,-27.3917,68.00,51.80,56.13,130.00,8.00,M,30.33,M,6.21,M,SCT,BKN,M,M,3000.00,7000.00,M,M,VCSH,YBBN 040130Z 13008KT 9999 VCSH SCT030 BKN070 20/11 Q1027 NOSIG
YBBN,2011-09-04 02:00,153.1292,-27.3917,68.00,51.80,56.13,150.00,8.00,M,30.33,M,6.21,M,SCT,BKN,M,M,3000.00,6000.00,M,M,VCSH,YBBN 040200Z 15008KT 9999 VCSH SCT030 BKN060 20/11 Q1027 NOSIG
YBBN,2011-09-04 02:30,153.1292,-27.3917,68.00,51.80,56.13,150.00,9.00,M,30.33,M,6.21,M,SCT,BKN,M,M,3000.00,6000.00,M,M,VCSH,YBBN 040230Z 15009KT 9999 VCSH SCT030 BKN060 20/11 Q1027 NOSIG
YBBN,2011-09-04 03:00,153.1292,-27.3917,68.00,51.80,56.13,140.00,9.00,M,30.30,M,6.21,M,SCT,SCT,M,M,3000.00,6000.00,M,M,M,YBBN 040300Z 14009KT 9999 SCT030 SCT060 20/11 Q1026 NOSIG
YBBN,2011-09-04 04:00,153.1292,-27.3917,68.00,51.80,56.13,130.00,10.00,M,30.30,M,6.21,M,FEW,SCT,M,M,3000.00,8000.00,M,M,M,YBBN 040400Z 13010KT 9999 FEW030 SCT080 20/11 Q1026 NOSIG
YBBN,2011-09-04 04:30,153.1292,-27.3917,69.80,51.80,52.77,140.00,11.00,M,30.30,M,6.21,M,SCT,M,M,M,3200.00,M,M,M,M,YBBN 040430Z 14011KT 9999 SCT032 21/11 Q1026 NOSIG
YBBN,2011-09-04 05:00,153.1292,-27.3917,69.80,50.00,49.37,130.00,9.00,M,30.27,M,6.21,M,FEW,M,M,M,3500.00,M,M,M,M,YBBN 040500Z 13009KT 9999 FEW035 21/10 Q1025 NOSIG
YBBN,2011-09-04 05:30,153.1292,-27.3917,68.00,51.80,56.13,120.00,10.00,M,30.27,M,6.21,M,FEW,M,M,M,3500.00,M,M,M,M,YBBN 040530Z 12010KT 9999 FEW035 20/11 Q1025 NOSIG
YBBN,2011-09-04 06:00,153.1292,-27.3917,68.00,51.80,56.13,130.00,9.00,M,30.27,M,6.21,M,FEW,M,M,M,3500.00,M,M,M,M,YBBN 040600Z 13009KT 9999 FEW035 20/11 Q1025 NOSIG
YBBN,2011-09-04 06:30,153.1292,-27.3917,66.20,51.80,59.74,120.00,9.00,M,30.27,M,6.21,M,FEW,M,M,M,3500.00,M,M,M,M,YBBN 040630Z 12009KT 9999 FEW035 19/11 Q1025 NOSIG
YBBN,2011-09-04 07:00,153.1292,-27.3917,66.20,51.80,59.74,120.00,7.00,M,30.30,M,6.21,M,FEW,M,M,M,3000.00,M,M,M,M,YBBN 040700Z 12007KT 9999 FEW030 19/11 Q1026 NOSIG
YBBN,2011-09-04 07:30,153.1292,-27.3917,64.40,51.80,63.60,110.00,7.00,M,30.30,M,6.21,M,FEW,M,M,M,3000.00,M,M,M,M,YBBN 040730Z 11007KT 9999 FEW030 18/11 Q1026 NOSIG
YBBN,2011-09-04 08:00,153.1292,-27.3917,64.40,51.80,63.60,110.00,6.00,M,30.30,M,6.21,M,FEW,M,M,M,3000.00,M,M,M,M,YBBN 040800Z 11006KT 9999 FEW030 18/11 Q1026 NOSIG
YBBN,2011-09-04 13:30,153.1292,-27.3917,55.40,53.60,93.65,210.00,6.00,M,30.33,M,6.21,M,M,M,M,M,M,M,M,M,M,YBBN 041330Z 21006KT CAVOK 13/12 Q1027 RMK 5SC072 INTER 1400/1630 3000 SHRA BKN012
YBBN,2011-09-04 14:00,153.1292,-27.3917,55.40,51.80,87.65,220.00,6.00,M,30.33,M,6.21,M,M,M,M,M,M,M,M,M,M,YBBN 041400Z 22006KT CAVOK 13/11 Q1027 RMK 5SC072 INTER 1400/1700 3000 SHRA BKN012
YBBN,2011-09-04 18:00,153.1292,-27.3917,57.20,57.20,100.00,220.00,8.00,M,30.30,M,6.21,M,FEW,SCT,BKN,M,500.00,2700.00,4700.00,M,VCSH,YBBN 041800Z 22008KT 9999 VCSH FEW005 SCT027 BKN047 14/14 Q1026 RMK VCSH TO ENE INTER 1800/2100 3000 SHRA BKN012
