#DEBUG: Format Typ    -> comma
#DEBUG: Time Period   -> 2016-06-05 00:00:00+00:00 2016-06-06 00:00:00+00:00
#DEBUG: Time Zone     -> Etc/UTC
#DEBUG: Data Contact   -> daryl herzmann akrherz@iastate.edu 515-294-5978
#DEBUG: Entries Found -> -1
station,valid,lon,lat,tmpf, dwpf, relh, drct, sknt, p01i, alti, mslp, vsby, gust, skyc1, skyc2, skyc3, skyc4, skyl1, skyl2, skyl3, skyl4, presentwx, metar
YBBN,2016-06-05 00:00,153.1292,-27.3917,64.40,50.00,59.50,250.00,21.00,0.00,29.56,M,6.21,M,FEW,M,M,M,3000.00,M,M,M,M,YBBN 050000Z 25021KT 9999 FEW030 18/10 Q1001
YBBN,2016-06-05 00:28,153.1292,-27.3917,64.40,48.20,55.63,250.00,20.00,0.00,29.53,M,6.21,30.00,FEW,M,M,M,2800.00,M,M,M,M,YBBN 050028Z 25020G30KT 9999 FEW028 18/09 Q1000
YBBN,2016-06-05 01:13,153.1292,-27.3917,66.20,50.00,55.88,270.00,22.00,0.00,29.53,M,6.21,32.00,SCT,M,M,M,3000.00,M,M,M,M,YBBN 050113Z 27022G32KT 9999 SCT030 19/10 Q1000
YBBN,2016-06-05 02:17,153.1292,-27.3917,66.20,48.20,52.25,270.00,23.00,0.00,29.50,M,6.21,36.00,FEW,M,M,M,3500.00,M,M,M,M,YBBN 050217Z 27023G36KT 9999 FEW035 19/09 Q0999
YBBN,2016-06-05 02:32,153.1292,-27.3917,66.20,46.40,48.83,270.00,25.00,0.00,29.50,M,6.21,35.00,NCD,M,M,M,M,M,M,M,//,YBBN 050232Z AUTO 27025G35KT 9999 // NCD 19/08 Q0999
YBBN,2016-06-05 03:00,153.1292,-27.3917,66.20,46.40,48.83,270.00,28.00,0.00,29.50,M,6.21,M,SCT,M,M,M,3800.00,M,M,M,//,YBBN 050300Z AUTO 27028KT 9999 // SCT038 19/08 Q0999
YBBN,2016-06-05 03:09,153.1292,-27.3917,66.20,48.20,52.25,260.00,26.00,0.00,29.50,M,6.21,36.00,SCT,M,M,M,3800.00,M,M,M,//,YBBN 050309Z AUTO 26026G36KT 9999 // SCT038 19/09 Q0999
YBBN,2016-06-05 03:45,153.1292,-27.3917,66.20,46.40,48.83,270.00,24.00,0.00,29.50,M,6.21,37.00,SCT,M,M,M,3800.00,M,M,M,M,YBBN 050345Z 27024G37KT 9999 SCT038 19/08 Q0999
YBBN,2016-06-05 04:00,153.1292,-27.3917,66.20,48.20,52.25,250.00,23.00,0.00,29.50,M,6.21,M,SCT,M,M,M,3800.00,M,M,M,M,YBBN 050400Z 25023KT 9999 SCT038 19/09 Q0999
YBBN,2016-06-05 05:00,153.1292,-27.3917,62.60,46.40,55.37,260.00,26.00,0.00,29.50,M,6.21,M,FEW,BKN,M,M,3800.00,7500.00,M,M,M,YBBN 050500Z 26026KT 9999 FEW038 BKN075 17/08 Q0999
YBBN,2016-06-05 07:00,153.1292,-27.3917,60.80,46.40,59.01,260.00,23.00,0.00,29.50,M,6.21,M,FEW,BKN,M,M,2000.00,7500.00,M,M,M,YBBN 050700Z 26023KT 9999 FEW020 BKN075 16/08 Q0999
YBBN,2016-06-05 07:04,153.1292,-27.3917,60.80,46.40,59.01,260.00,22.00,0.00,29.50,M,6.21,32.00,FEW,BKN,M,M,2000.00,7500.00,M,M,M,YBBN 050704Z 26022G32KT 9999 FEW020 BKN075 16/08 Q0999
YBBN,2016-06-05 08:00,153.1292,-27.3917,60.80,44.60,55.12,260.00,21.00,0.00,29.53,M,6.21,M,FEW,SCT,M,M,2000.00,8000.00,M,M,M,YBBN 050800Z 26021KT 9999 FEW020 SCT080 16/07 Q1000
YBBN,2016-06-05 08:15,153.1292,-27.3917,59.00,44.60,58.77,260.00,20.00,0.00,29.56,M,6.21,30.00,FEW,M,M,M,2000.00,M,M,M,M,YBBN 050815Z 26020G30KT 9999 FEW020 15/07 Q1001
YBBN,2016-06-05 08:30,153.1292,-27.3917,59.00,44.60,58.77,260.00,20.00,0.00,29.56,M,6.21,30.00,FEW,M,M,M,2000.00,M,M,M,M,YBBN 050830Z 26020G30KT 9999 FEW020 15/07 Q1001
YBBN,2016-06-05 09:13,153.1292,-27.3917,59.00,46.40,62.92,260.00,20.00,0.00,29.59,M,6.21,31.00,FEW,M,M,M,2000.00,M,M,M,M,YBBN 050913Z 26020G31KT 9999 FEW020 15/08 Q1002
YBBN,2016-06-05 10:00,153.1292,-27.3917,59.00,46.40,62.92,260.00,19.00,0.00,29.59,M,6.21,29.00,FEW,M,M,M,2000.00,M,M,M,M,YBBN 051000Z 26019G29KT 9999 FEW020 15/08 Q1002
YBBN,2016-06-05 10:49,153.1292,-27.3917,59.00,46.40,62.92,270.00,18.00,0.00,29.59,M,6.21,32.00,FEW,M,M,M,2000.00,M,M,M,M,YBBN 051049Z 27018G32KT 9999 FEW020 15/08 Q1002
YBBN,2016-06-05 11:00,153.1292,-27.3917,59.00,46.40,62.92,260.00,18.00,0.00,29.62,M,6.21,29.00,FEW,M,M,M,2000.00,M,M,M,M,YBBN 051100Z 26018G29KT 9999 FEW020 15/08 Q1003
YBBN,2016-06-05 12:00,153.1292,-27.3917,59.00,48.20,67.33,260.00,19.00,0.00,29.62,M,6.21,M,FEW,M,M,M,2000.00,M,M,M,M,YBBN 051200Z 26019KT 9999 FEW020 15/09 Q1003
YBBN,2016-06-05 12:19,153.1292,-27.3917,59.00,48.20,67.33,260.00,19.00,0.00,29.62,M,6.21,30.00,FEW,M,M,M,2000.00,M,M,M,M,YBBN 051219Z 26019G30KT 9999 FEW020 15/09 Q1003
YBBN,2016-06-05 12:30,153.1292,-27.3917,59.00,48.20,67.33,260.00,22.00,0.00,29.62,M,6.21,33.00,FEW,M,M,M,2000.00,M,M,M,M,YBBN 051230Z 26022G33KT 9999 FEW020 15/09 Q1003
YBBN,2016-06-05 13:00,153.1292,-27.3917,60.80,46.40,59.01,260.00,21.00,0.00,29.62,M,6.21,M,FEW,M,M,M,2000.00,M,M,M,M,YBBN 051300Z 26021KT 9999 FEW020 16/08 Q1003
YBBN,2016-06-05 13:02,153.1292,-27.3917,60.80,46.40,59.01,260.00,22.00,0.00,29.62,M,6.21,33.00,FEW,M,M,M,2000.00,M,M,M,M,YBBN 051302Z 26022G33KT 9999 FEW020 16/08 Q1003
YBBN,2016-06-05 13:35,153.1292,-27.3917,60.80,46.40,59.01,260.00,23.00,0.00,29.59,M,6.21,33.00,FEW,M,M,M,2000.00,M,M,M,M,YBBN 051335Z 26023G33KT 9999 FEW020 16/08 Q1002
YBBN,2016-06-05 14:00,153.1292,-27.3917,60.80,46.40,59.01,260.00,26.00,0.00,29.59,M,6.21,M,FEW,M,M,M,2000.00,M,M,M,M,YBBN 051400Z 26026KT 9999 FEW020 16/08 Q1002
YBBN,2016-06-05 14:10,153.1292,-27.3917,60.80,46.40,59.01,260.00,23.00,0.00,29.59,M,6.21,33.00,FEW,M,M,M,2000.00,M,M,M,M,YBBN 051410Z 26023G33KT 9999 FEW020 16/08 Q1002
YBBN,2016-06-05 14:30,153.1292,-27.3917,59.00,46.40,62.92,260.00,22.00,0.00,29.59,M,6.21,32.00,FEW,M,M,M,2000.00,M,M,M,M,YBBN 051430Z 26022G32KT 9999 FEW020 15/08 Q1002
YBBN,2016-06-05 15:00,153.1292,-27.3917,59.00,46.40,62.92,250.00,21.00,0.00,29.62,M,6.21,M,FEW,M,M,M,2000.00,M,M,M,M,YBBN 051500Z 25021KT 9999 FEW020 15/08 Q1003
YBBN,2016-06-05 15:12,153.1292,-27.3917,59.00,46.40,62.92,250.00,21.00,0.00,29.62,M,6.21,31.00,FEW,M,M,M,2000.00,M,M,M,M,YBBN 051512Z 25021G31KT 9999 FEW020 15/08 Q1003
YBBN,2016-06-05 15:30,153.1292,-27.3917,59.00,46.40,62.92,260.00,22.00,0.00,29.62,M,6.21,32.00,FEW,M,M,M,2000.00,M,M,M,M,YBBN 051530Z 26022G32KT 9999 FEW020 15/08 Q1003
YBBN,2016-06-05 16:00,153.1292,-27.3917,59.00,46.40,62.92,250.00,22.00,0.00,29.59,M,6.21,34.00,FEW,M,M,M,2000.00,M,M,M,M,YBBN 051600Z 25022G34KT 9999 FEW020 15/08 Q1002
YBBN,2016-06-05 16:30,153.1292,-27.3917,59.00,44.60,58.77,260.00,24.00,0.00,29.62,M,6.21,34.00,M,M,M,M,M,M,M,M,M,YBBN 051630Z 26024G34KT CAVOK 15/07 Q1003
YBBN,2016-06-05 17:00,153.1292,-27.3917,59.00,44.60,58.77,250.00,20.00,0.00,29.62,M,6.21,M,FEW,M,M,M,2000.00,M,M,M,M,YBBN 051700Z 25020KT 9999 FEW020 15/07 Q1003
YBBN,2016-06-05 17:13,153.1292,-27.3917,59.00,44.60,58.77,260.00,22.00,0.00,29.59,M,6.21,33.00,FEW,M,M,M,2000.00,M,M,M,M,YBBN 051713Z 26022G33KT 9999 FEW020 15/07 Q1002
YBBN,2016-06-05 17:30,153.1292,-27.3917,59.00,44.60,58.77,250.00,22.00,0.00,29.62,M,6.21,32.00,M,M,M,M,M,M,M,M,M,YBBN 051730Z 25022G32KT CAVOK 15/07 Q1003
YBBN,2016-06-05 18:00,153.1292,-27.3917,59.00,44.60,58.77,250.00,17.00,0.00,29.62,M,6.21,27.00,M,M,M,M,M,M,M,M,M,YBBN 051800Z 25017G27KT CAVOK 15/07 Q1003
YBBN,2016-06-05 19:00,153.1292,-27.3917,59.00,42.80,54.86,250.00,19.00,0.00,29.62,M,6.21,M,FEW,M,M,M,2000.00,M,M,M,M,YBBN 051900Z 25019KT 9999 FEW020 15/06 Q1003
YBBN,2016-06-05 19:11,153.1292,-27.3917,59.00,42.80,54.86,270.00,18.00,0.00,29.65,M,6.21,28.00,FEW,M,M,M,2000.00,M,M,M,M,YBBN 051911Z 27018G28KT 9999 FEW020 15/06 Q1004
YBBN,2016-06-05 19:30,153.1292,-27.3917,59.00,41.00,51.18,270.00,17.00,0.00,29.65,M,6.21,27.00,M,M,M,M,M,M,M,M,M,YBBN 051930Z 27017G27KT CAVOK 15/05 Q1004
YBBN,2016-06-05 20:00,153.1292,-27.3917,57.20,41.00,54.60,270.00,16.00,0.00,29.65,M,6.21,26.00,M,M,M,M,M,M,M,M,M,YBBN 052000Z 27016G26KT CAVOK 14/05 Q1004
YBBN,2016-06-05 21:00,153.1292,-27.3917,57.20,39.20,50.91,270.00,20.00,0.00,29.65,M,6.21,M,FEW,SCT,M,M,2400.00,18000.00,M,M,M,YBBN 052100Z 27020KT 9999 FEW024 SCT180 14/04 Q1004
YBBN,2016-06-05 23:00,153.1292,-27.3917,60.80,39.20,44.76,250.00,24.00,0.00,29.71,M,6.21,M,FEW,SCT,BKN,M,2500.00,16000.00,23000.00,M,M,YBBN 052300Z 25024KT 9999 FEW025 SCT160 BKN230 16/04 Q1006
YBBN,2016-06-05 23:51,153.1292,-27.3917,62.60,41.00,45.04,260.00,21.00,0.00,29.71,M,6.21,31.00,FEW,BKN,M,M,2000.00,22000.00,M,M,M,YBBN 052351Z 26021G31KT 9999 FEW020 BKN220 17/05 Q1006
