#DEBUG: Format Typ    -> comma
#DEBUG: Time Period   -> 2010-10-29 00:00:00+00:00 2010-10-30 00:00:00+00:00
#DEBUG: Time Zone     -> Etc/UTC
#DEBUG: Data Contact   -> daryl herzmann akrherz@iastate.edu 515-294-5978
#DEBUG: Entries Found -> -1
station,valid,lon,lat,tmpf, dwpf, relh, drct, sknt, p01i, alti, mslp, vsby, gust, skyc1, skyc2, skyc3, skyc4, skyl1, skyl2, skyl3, skyl4, presentwx, metar
YBBN,2010-10-29 00:00,153.1292,-27.3917,75.20,59.00,57.12,110.00,7.00,M,30.06,M,6.21,M,SCT,M,M,M,2500.00,M,M,M,M,YBBN 290000Z 11007KT 9999 SCT025 24/15 Q1018 NOSIG
YBBN,2010-10-29 00:30,153.1292,-27.3917,75.20,59.00,57.12,120.00,7.00,M,30.06,M,6.21,M,SCT,M,M,M,2500.00,M,M,M,M,YBBN 290030Z 12007KT 9999 SCT025 24/15 Q1018 NOSIG
YBBN,2010-10-29 01:00,153.1292,-27.3917,75.20,59.00,57.12,130.00,7.00,M,30.06,M,6.21,M,SCT,M,M,M,3000.00,M,M,M,M,YBBN 290100Z 13007KT 9999 SCT030 24/15 Q1018 NOSIG
YBBN,2010-10-29 01:30,153.1292,-27.3917,75.20,59.00,57.12,110.00,7.00,M,30.06,M,6.21,M,SCT,M,M,M,3200.00,M,M,M,M,YBBN 290130Z 11007KT 9999 SCT032 24/15 Q1018 NOSIG
YBBN,2010-10-29 02:00,153.1292,-27.3917,75.20,59.00,57.12,90.00,9.00,M,30.06,M,6.21,M,SCT,M,M,M,3200.00,M,M,M,M,YBBN 290200Z 09009KT 9999 SCT032 24/15 Q1018 NOSIG
YBBN,2010-10-29 02:30,153.1292,-27.3917,77.00,59.00,53.80,100.00,9.00,M,30.06,M,6.21,M,FEW,M,M,M,3500.00,M,M,M,M,YBBN 290230Z 10009KT 9999 FEW035 25/15 Q1018 NOSIG
YBBN,2010-10-29 03:00,153.1292,-27.3917,75.20,59.00,57.12,90.00,9.00,M,30.03,M,6.21,M,FEW,M,M,M,3500.00,M,M,M,M,YBBN 290300Z 09009KT 9999 FEW035 24/15 Q1017 NOSIG
YBBN,2010-10-29 03:30,153.1292,-27.3917,75.20,57.20,53.55,120.00,11.00,M,30.03,M,6.21,M,FEW,M,M,M,3800.00,M,M,M,M,YBBN 290330Z 12011KT 9999 FEW038 24/14 Q1017 NOSIG
YBBN,2010-10-29 04:00,153.1292,-27.3917,77.00,59.00,53.80,90.00,9.00,M,30.00,M,6.21,M,FEW,M,M,M,3800.00,M,M,M,M,YBBN 290400Z 09009KT 9999 FEW038 25/15 Q1016 NOSIG
YBBN,2010-10-29 04:30,153.1292,-27.3917,77.00,59.00,53.80,60.00,11.00,M,30.00,M,6.21,M,FEW,M,M,M,4000.00,M,M,M,M,YBBN 290430Z 06011KT 9999 FEW040 25/15 Q1016 NOSIG
YBBN,2010-10-29 05:00,153.1292,-27.3917,75.20,60.80,60.90,60.00,12.00,M,30.00,M,6.21,M,FEW,M,M,M,4000.00,M,M,M,M,YBBN 290500Z 06012KT 9999 FEW040 24/16 Q1016 NOSIG
YBBN,2010-10-29 05:30,153.1292,-27.3917,75.20,59.00,57.12,70.00,12.00,M,30.00,M,6.21,M,FEW,M,M,M,3800.00,M,M,M,M,YBBN 290530Z 07012KT 9999 FEW038 24/15 Q1016 NOSIG
YBBN,2010-10-29 06:00,153.1292,-27.3917,75.20,59.00,57.12,60.00,11.00,M,30.00,M,6.21,M,FEW,M,M,M,3800.00,M,M,M,M,YBBN 290600Z 06011KT 9999 FEW038 24/15 Q1016 NOSIG
YBBN,2010-10-29 06:30,153.1292,-27.3917,73.40,59.00,60.67,70.00,10.00,M,30.03,M,6.21,M,FEW,M,M,M,3600.00,M,M,M,M,YBBN 290630Z 07010KT 9999 FEW036 23/15 Q1017 NOSIG
YBBN,2010-10-29 07:00,153.1292,-27.3917,73.40,59.00,60.67,70.00,9.00,M,30.03,M,6.21,M,FEW,SCT,M,M,2500.00,34000.00,M,M,M,YBBN 290700Z 07009KT 9999 FEW025 SCT340 23/15 Q1017 NOSIG
YBBN,2010-10-29 07:30,153.1292,-27.3917,71.60,59.00,64.48,60.00,8.00,M,30.03,M,6.21,M,FEW,SCT,M,M,3500.00,34000.00,M,M,M,YBBN 290730Z 06008KT 9999 FEW035 SCT340 22/15 Q1017 NOSIG
YBBN,2010-10-29 08:00,153.1292,-27.3917,71.60,59.00,64.48,50.00,8.00,M,30.03,M,6.21,M,FEW,BKN,M,M,2800.00,34000.00,M,M,M,YBBN 290800Z 05008KT 9999 FEW028 BKN340 22/15 Q1017 NOSIG
YBBN,2010-10-29 08:30,153.1292,-27.3917,71.60,59.00,64.48,60.00,7.00,M,30.06,M,6.21,M,FEW,SCT,M,M,2500.00,34000.00,M,M,M,YBBN 290830Z 06007KT 9999 FEW025 SCT340 22/15 Q1018 NOSIG
YBBN,2010-10-29 09:00,153.1292,-27.3917,71.60,59.00,64.48,60.00,8.00,M,30.06,M,6.21,M,FEW,SCT,M,M,2500.00,34000.00,M,M,M,YBBN 290900Z 06008KT 9999 FEW025 SCT340 22/15 Q1018 NOSIG
YBBN,2010-10-29 09:30,153.1292,-27.3917,71.60,59.00,64.48,50.00,7.00,M,30.06,M,6.21,M,FEW,SCT,M,M,2500.00,34000.00,M,M,M,YBBN 290930Z 05007KT 9999 FEW025 SCT340 22/15 Q1018 NOSIG
YBBN,2010-10-29 10:00,153.1292,-27.3917,69.80,60.80,73.09,60.00,7.00,M,30.06,M,6.21,M,FEW,SCT,M,M,2500.00,34000.00,M,M,M,YBBN 291000Z 06007KT 9999 FEW025 SCT340 21/16 Q1018 NOSIG
YBBN,2010-10-29 10:30,153.1292,-27.3917,69.80,60.80,73.09,70.00,6.00,M,30.09,M,6.21,M,FEW,SCT,M,M,2500.00,34000.00,M,M,M,YBBN 291030Z 07006KT 9999 FEW025 SCT340 21/16 Q1019 NOSIG
YBBN,2010-10-29 11:00,153.1292,-27.3917,69.80,60.80,73.09,70.00,6.00,M,30.06,M,6.21,M,FEW,SCT,M,M,3000.00,34000.00,M,M,M,YBBN 291100Z 07006KT 9999 FEW030 SCT340 21/16 Q1018 NOSIG
YBBN,2010-10-29 11:30,153.1292,-27.3917,68.00,60.80,77.75,60.00,7.00,M,30.06,M,6.21,M,FEW,M,M,M,3000.00,M,M,M,M,YBBN 291130Z 06007KT 9999 FEW030 20/16 Q1018 NOSIG
YBBN,2010-10-29 12:00,153.1292,-27.3917,68.00,60.80,77.75,70.00,6.00,M,30.06,M,6.21,M,FEW,M,M,M,3000.00,M,M,M,M,YBBN 291200Z 07006KT 9999 FEW030 20/16 Q1018 NOSIG
YBBN,2010-10-29 12:30,153.1292,-27.3917,69.80,60.80,73.09,70.00,6.00,M,30.06,M,6.21,M,FEW,M,M,M,2200.00,M,M,M,M,YBBN 291230Z 07006KT 9999 FEW022 21/16 Q1018 NOSIG
YBBN,2010-10-29 13:00,153.1292,-27.3917,68.00,60.80,77.75,60.00,6.00,M,30.06,M,6.21,M,FEW,M,M,M,2200.00,M,M,M,M,YBBN 291300Z 06006KT 9999 FEW022 20/16 Q1018 NOSIG
YBBN,2010-10-29 13:30,153.1292,-27.3917,68.00,60.80,77.75,60.00,5.00,M,30.06,M,6.21,M,FEW,M,M,M,2200.00,M,M,M,M,YBBN 291330Z 06005KT 9999 FEW022 20/16 Q1018 NOSIG
YBBN,2010-10-29 14:00,153.1292,-27.3917,68.00,60.80,77.75,70.00,5.00,M,30.06,M,6.21,M,SCT,M,M,M,2400.00,M,M,M,M,YBBN 291400Z 07005KT 9999 SCT024 20/16 Q1018 NOSIG
YBBN,2010-10-29 14:30,153.1292,-27.3917,68.00,60.80,77.75,70.00,5.00,M,30.03,M,6.21,M,SCT,M,M,M,2400.00,M,M,M,M,YBBN 291430Z 07005KT 9999 SCT024 20/16 Q1017 NOSIG
YBBN,2010-10-29 15:00,153.1292,-27.3917,68.00,60.80,77.75,70.00,5.00,M,30.03,M,6.21,M,FEW,M,M,M,2400.00,M,M,M,M,YBBN 291500Z 07005KT 9999 FEW024 20/16 Q1017 NOSIG
YBBN,2010-10-29 15:30,153.1292,-27.3917,68.00,60.80,77.75,70.00,5.00,M,30.03,M,6.21,M,FEW,M,M,M,2400.00,M,M,M,M,YBBN 291530Z 07005KT 9999 FEW024 20/16 Q1017 NOSIG
YBBN,2010-10-29 16:00,153.1292,-27.3917,68.00,60.80,77.75,60.00,5.00,M,30.00,M,6.21,M,FEW,M,M,M,2400.00,M,M,M,M,YBBN 291600Z 06005KT 9999 FEW024 20/16 Q1016 NOSIG
YBBN,2010-10-29 16:30,153.1292,-27.3917,66.20,60.80,82.74,60.00,5.00,M,30.00,M,6.21,M,SCT,M,M,M,2400.00,M,M,M,M,YBBN 291630Z 06005KT 9999 SCT024 19/16 Q1016 NOSIG
YBBN,2010-10-29 17:00,153.1292,-27.3917,66.20,60.80,82.74,80.00,5.00,M,30.00,M,6.21,M,FEW,SCT,M,M,2400.00,34000.00,M,M,M,YBBN 291700Z 08005KT 9999 FEW024 SCT340 19/16 Q1016 NOSIG
YBBN,2010-10-29 17:30,153.1292,-27.3917,66.20,60.80,82.74,70.00,5.00,M,30.00,M,6.21,M,FEW,M,M,M,2600.00,M,M,M,M,YBBN 291730Z 07005KT 9999 FEW026 19/16 Q1016 NOSIG
YBBN,2010-10-29 18:00,153.1292,-27.3917,62.60,60.80,93.83,80.00,5.00,M,30.00,M,6.21,M,FEW,M,M,M,2600.00,M,M,M,M,YBBN 291800Z 08005KT 9999 FEW026 17/16 Q1016 NOSIG
YBBN,2010-10-29 18:30,153.1292,-27.3917,62.60,60.80,93.83,210.00,4.00,M,30.03,M,6.21,M,FEW,SCT,M,M,2400.00,34000.00,M,M,M,YBBN 291830Z 21004KT 9999 FEW024 SCT340 17/16 Q1017 NOSIG
YBBN,2010-10-29 19:00,153.1292,-27.3917,62.60,60.80,93.83,220.00,5.00,M,30.03,M,6.21,M,FEW,SCT,M,M,2400.00,34000.00,M,M,M,YBBN 291900Z 22005KT 9999 FEW024 SCT340 17/16 Q1017 NOSIG
YBBN,2010-10-29 19:30,153.1292,-27.3917,62.60,60.80,93.83,240.00,5.00,M,30.06,M,6.21,M,FEW,M,M,M,2500.00,M,M,M,M,YBBN 291930Z 24005KT 9999 FEW025 17/16 Q1018 NOSIG
YBBN,2010-10-29 20:00,153.1292,-27.3917,64.40,62.60,93.88,230.00,7.00,M,30.06,M,6.21,M,FEW,M,M,M,2500.00,M,M,M,M,YBBN 292000Z 23007KT 9999 FEW025 18/17 Q1018 NOSIG
YBBN,2010-10-29 20:30,153.1292,-27.3917,66.20,62.60,88.18,210.00,5.00,M,30.06,M,6.21,M,FEW,M,M,M,2500.00,M,M,M,M,YBBN 292030Z 21005KT 9999 FEW025 19/17 Q1018 NOSIG
YBBN,2010-10-29 21:00,153.1292,-27.3917,68.00,62.60,82.86,210.00,5.00,M,30.06,M,6.21,M,FEW,M,M,M,2300.00,M,M,M,M,YBBN 292100Z 21005KT 9999 FEW023 20/17 Q1018 NOSIG
YBBN,2010-10-29 21:30,153.1292,-27.3917,71.60,62.60,73.27,220.00,5.00,M,30.09,M,6.21,M,FEW,M,M,M,2500.00,M,M,M,M,YBBN 292130Z 22005KT 9999 FEW025 22/17 Q1019 NOSIG
YBBN,2010-10-29 22:00,153.1292,-27.3917,73.40,62.60,68.94,130.00,4.00,M,30.09,M,6.21,M,FEW,M,M,M,2500.00,M,M,M,M,YBBN 292200Z 13004KT 9999 FEW025 23/17 Q1019 NOSIG
YBBN,2010-10-29 22:30,153.1292,-27.3917,71.60,60.80,68.75,70.00,6.00,M,30.09,M,6.21,M,SCT,M,M,M,2500.00,M,M,M,M,YBBN 292230Z 07006KT 9999 SCT025 22/16 Q1019 NOSIG
YBBN,2010-10-29 23:00,153.1292,-27.3917,73.40,60.80,64.69,60.00,8.00,M,30.09,M,6.21,M,SCT,M,M,M,2500.00,M,M,M,M,YBBN 292300Z 06008KT 9999 SCT025 23/16 Q1019 NOSIG
YBBN,2010-10-29 23:30,153.1292,-27.3917,75.20,60.80,60.90,70.00,7.00,M,30.09,M,6.21,M,SCT,M,M,M,2700.00,M,M,M,M,YBBN 292330Z 07007KT 9999 SCT027 24/16 Q1019 NOSIG
