#DEBUG: Format Typ    -> comma
#DEBUG: Time Period   -> 2016-11-06 00:00:00+00:00 2016-11-07 00:00:00+00:00
#DEBUG: Time Zone     -> Etc/UTC
#DEBUG: Data Contact   -> daryl herzmann akrherz@iastate.edu 515-294-5978
#DEBUG: Entries Found -> -1
station,valid,lon,lat,tmpf, dwpf, relh, drct, sknt, p01i, alti, mslp, vsby, gust, skyc1, skyc2, skyc3, skyc4, skyl1, skyl2, skyl3, skyl4, presentwx, metar
YBBN,2016-11-06 00:00,153.1292,-27.3917,78.80,57.20,47.52,50.00,8.00,0.00,29.83,M,6.21,M,M,M,M,M,M,M,M,M,M,YBBN 060000Z 05008KT CAVOK 26/14 Q1010
YBBN,2016-11-06 00:30,153.1292,-27.3917,80.60,55.40,41.97,30.00,9.00,0.00,29.83,M,6.21,M,M,M,M,M,M,M,M,M,M,YBBN 060030Z 03009KT CAVOK 27/13 Q1010 NOSIG
YBBN,2016-11-06 01:00,153.1292,-27.3917,80.60,57.20,44.80,30.00,10.00,0.00,29.80,M,6.21,M,M,M,M,M,M,M,M,M,M,YBBN 060100Z 03010KT CAVOK 27/14 Q1009 NOSIG
YBBN,2016-11-06 01:30,153.1292,-27.3917,80.60,59.00,47.79,40.00,11.00,0.00,29.80,M,6.21,M,FEW,M,M,M,4000.00,M,M,M,M,YBBN 060130Z 04011KT 9999 FEW040 27/15 Q1009
YBBN,2016-11-06 02:00,153.1292,-27.3917,82.40,57.20,42.25,40.00,13.00,0.00,29.77,M,6.21,M,M,M,M,M,M,M,M,M,M,YBBN 060200Z 04013KT CAVOK 28/14 Q1008
YBBN,2016-11-06 02:30,153.1292,-27.3917,82.40,53.60,37.07,40.00,14.00,0.00,29.77,M,6.21,M,M,M,M,M,M,M,M,M,M,YBBN 060230Z 04014KT CAVOK 28/12 Q1008 NOSIG
YBBN,2016-11-06 03:00,153.1292,-27.3917,84.20,51.80,32.73,60.00,12.00,0.00,29.74,M,6.21,M,M,M,M,M,M,M,M,M,M,YBBN 060300Z 06012KT CAVOK 29/11 Q1007
YBBN,2016-11-06 03:30,153.1292,-27.3917,82.40,60.80,48.05,50.00,13.00,0.00,29.74,M,6.21,M,M,M,M,M,M,M,M,M,M,YBBN 060330Z 05013KT CAVOK 28/16 Q1007 NOSIG
YBBN,2016-11-06 04:00,153.1292,-27.3917,82.40,60.80,48.05,50.00,14.00,0.00,29.74,M,6.21,M,M,M,M,M,M,M,M,M,M,YBBN 060400Z 05014KT CAVOK 28/16 Q1007
YBBN,2016-11-06 04:30,153.1292,-27.3917,80.60,62.60,54.30,50.00,14.00,0.00,29.74,M,6.21,M,M,M,M,M,M,M,M,M,M,YBBN 060430Z 05014KT CAVOK 27/17 Q1007 NOSIG
YBBN,2016-11-06 05:00,153.1292,-27.3917,80.60,62.60,54.30,50.00,10.00,0.00,29.74,M,6.21,M,M,M,M,M,M,M,M,M,M,YBBN 060500Z 05010KT CAVOK 27/17 Q1007
YBBN,2016-11-06 05:30,153.1292,-27.3917,78.80,64.40,61.36,50.00,10.00,0.00,29.74,M,6.21,M,M,M,M,M,M,M,M,M,M,YBBN 060530Z 05010KT CAVOK 26/18 Q1007 NOSIG
YBBN,2016-11-06 06:00,153.1292,-27.3917,78.80,62.60,57.60,30.00,7.00,0.00,29.74,M,6.21,M,M,M,M,M,M,M,M,M,M,YBBN 060600Z 03007KT CAVOK 26/17 Q1007
YBBN,2016-11-06 06:30,153.1292,-27.3917,77.00,66.20,69.33,20.00,10.00,0.00,29.74,M,6.21,M,M,M,M,M,M,M,M,M,M,YBBN 060630Z 02010KT CAVOK 25/19 Q1007 NOSIG
YBBN,2016-11-06 07:00,153.1292,-27.3917,77.00,66.20,69.33,10.00,9.00,0.00,29.77,M,6.21,M,M,M,M,M,M,M,M,M,M,YBBN 060700Z 01009KT CAVOK 25/19 Q1008
YBBN,2016-11-06 07:30,153.1292,-27.3917,75.20,66.20,73.61,10.00,8.00,0.00,29.77,M,6.21,M,FEW,SCT,M,M,2000.00,24000.00,M,M,M,YBBN 060730Z 01008KT 9999 FEW020 SCT240 24/19 Q1008 NOSIG
YBBN,2016-11-06 08:00,153.1292,-27.3917,73.40,66.20,78.19,20.00,7.00,0.00,29.80,M,6.21,M,M,M,M,M,M,M,M,M,M,YBBN 060800Z 02007KT CAVOK 23/19 Q1009
YBBN,2016-11-06 08:30,153.1292,-27.3917,71.60,66.20,83.09,30.00,7.00,0.00,29.80,M,6.21,M,FEW,BKN,M,M,4000.00,24000.00,M,M,M,YBBN 060830Z 03007KT 9999 FEW040 BKN240 22/19 Q1009 NOSIG
YBBN,2016-11-06 09:00,153.1292,-27.3917,71.60,64.40,78.04,30.00,4.00,0.00,29.83,M,6.21,M,M,M,M,M,M,M,M,M,M,YBBN 060900Z 03004KT CAVOK 22/18 Q1010
YBBN,2016-11-06 09:30,153.1292,-27.3917,71.60,64.40,78.04,40.00,6.00,0.00,29.85,M,6.21,M,M,M,M,M,M,M,M,M,M,YBBN 060930Z 04006KT CAVOK 22/18 Q1011 NOSIG
YBBN,2016-11-06 10:00,153.1292,-27.3917,71.60,64.40,78.04,30.00,7.00,0.00,29.85,M,6.21,M,M,M,M,M,M,M,M,M,M,YBBN 061000Z 03007KT CAVOK 22/18 Q1011
YBBN,2016-11-06 10:30,153.1292,-27.3917,73.40,64.40,73.44,50.00,6.00,0.00,29.85,M,6.21,M,M,M,M,M,M,M,M,M,M,YBBN 061030Z 05006KT CAVOK 23/18 Q1011 NOSIG
YBBN,2016-11-06 11:00,153.1292,-27.3917,71.60,66.20,83.09,50.00,7.00,0.00,29.88,M,6.21,M,FEW,SCT,M,M,4000.00,24000.00,M,M,M,YBBN 061100Z 05007KT 9999 FEW040 SCT240 22/19 Q1012
YBBN,2016-11-06 11:30,153.1292,-27.3917,71.60,66.20,83.09,40.00,5.00,0.00,29.88,M,6.21,M,FEW,SCT,M,M,4000.00,24000.00,M,M,M,YBBN 061130Z 04005KT 9999 FEW040 SCT240 22/19 Q1012 NOSIG
YBBN,2016-11-06 12:00,153.1292,-27.3917,69.80,66.20,88.34,40.00,6.00,0.00,29.88,M,6.21,M,FEW,SCT,M,M,4000.00,24000.00,M,M,M,YBBN 061200Z 04006KT 9999 FEW040 SCT240 21/19 Q1012
YBBN,2016-11-06 12:30,153.1292,-27.3917,69.80,66.20,88.34,30.00,6.00,0.00,29.88,M,6.21,M,FEW,M,M,M,3000.00,M,M,M,M,YBBN 061230Z 03006KT 9999 FEW030 21/19 Q1012 NOSIG
YBBN,2016-11-06 13:00,153.1292,-27.3917,69.80,66.20,88.34,20.00,6.00,0.00,29.88,M,6.21,M,FEW,M,M,M,2800.00,M,M,M,M,YBBN 061300Z 02006KT 9999 FEW028 21/19 Q1012
YBBN,2016-11-06 13:30,153.1292,-27.3917,69.80,66.20,88.34,10.00,6.00,0.00,29.88,M,6.21,M,SCT,M,M,M,1400.00,M,M,M,M,YBBN 061330Z 01006KT 9999 SCT014 21/19 Q1012
YBBN,2016-11-06 14:00,153.1292,-27.3917,71.60,68.00,88.43,70.00,4.00,0.00,29.88,M,6.21,M,BKN,M,M,M,1400.00,M,M,M,M,YBBN 061400Z 07004KT 9999 BKN014 22/20 Q1012
YBBN,2016-11-06 14:30,153.1292,-27.3917,73.40,68.00,83.21,70.00,5.00,0.00,29.88,M,6.21,M,SCT,M,M,M,1400.00,M,M,M,M,YBBN 061430Z 07005KT 9999 SCT014 23/20 Q1012
YBBN,2016-11-06 15:00,153.1292,-27.3917,71.60,66.20,83.09,70.00,5.00,0.00,29.88,M,6.21,M,FEW,M,M,M,1800.00,M,M,M,M,YBBN 061500Z 07005KT 9999 FEW018 22/19 Q1012
YBBN,2016-11-06 15:30,153.1292,-27.3917,71.60,66.20,83.09,70.00,4.00,0.00,29.88,M,6.21,M,FEW,M,M,M,1800.00,M,M,M,M,YBBN 061530Z 07004KT 9999 FEW018 22/19 Q1012 NOSIG
YBBN,2016-11-06 16:00,153.1292,-27.3917,71.60,66.20,83.09,80.00,4.00,0.00,29.88,M,6.21,M,FEW,M,M,M,2000.00,M,M,M,M,YBBN 061600Z 08004KT 9999 FEW020 22/19 Q1012
YBBN,2016-11-06 16:30,153.1292,-27.3917,73.40,68.00,83.21,90.00,3.00,0.00,29.88,M,6.21,M,SCT,M,M,M,1700.00,M,M,M,M,YBBN 061630Z 09003KT 9999 SCT017 23/20 Q1012 NOSIG
YBBN,2016-11-06 17:00,153.1292,-27.3917,73.40,64.40,73.44,60.00,6.00,0.00,29.88,M,6.21,M,SCT,M,M,M,2000.00,M,M,M,M,YBBN 061700Z 06006KT 9999 SCT020 23/18 Q1012
YBBN,2016-11-06 17:30,153.1292,-27.3917,73.40,62.60,68.94,70.00,8.00,0.00,29.88,M,6.21,M,FEW,M,M,M,2500.00,M,M,M,M,YBBN 061730Z 07008KT 9999 FEW025 23/17 Q1012 NOSIG
YBBN,2016-11-06 18:00,153.1292,-27.3917,73.40,64.40,73.44,70.00,8.00,0.00,29.91,M,6.21,M,FEW,M,M,M,3000.00,M,M,M,M,YBBN 061800Z 07008KT 9999 FEW030 23/18 Q1013
YBBN,2016-11-06 18:30,153.1292,-27.3917,71.60,64.40,78.04,70.00,8.00,0.00,29.91,M,6.21,M,FEW,SCT,M,M,2800.00,3300.00,M,M,M,YBBN 061830Z 07008KT 9999 FEW028 SCT033 22/18 Q1013 NOSIG
YBBN,2016-11-06 19:00,153.1292,-27.3917,73.40,64.40,73.44,70.00,8.00,0.00,29.94,M,6.21,M,FEW,SCT,M,M,2300.00,3000.00,M,M,M,YBBN 061900Z 07008KT 9999 FEW023 SCT030 23/18 Q1014
YBBN,2016-11-06 19:30,153.1292,-27.3917,73.40,64.40,73.44,60.00,9.00,0.00,29.94,M,6.21,M,FEW,M,M,M,2700.00,M,M,M,M,YBBN 061930Z 06009KT 9999 FEW027 23/18 Q1014 NOSIG
YBBN,2016-11-06 20:00,153.1292,-27.3917,73.40,64.40,73.44,60.00,10.00,0.00,29.94,M,6.21,M,FEW,M,M,M,2800.00,M,M,M,M,YBBN 062000Z 06010KT 9999 FEW028 23/18 Q1014 NOSIG
YBBN,2016-11-06 20:30,153.1292,-27.3917,73.40,64.40,73.44,70.00,11.00,0.00,29.97,M,6.21,M,FEW,M,M,M,2300.00,M,M,M,M,YBBN 062030Z 07011KT 9999 FEW023 23/18 Q1015 NOSIG
YBBN,2016-11-06 21:00,153.1292,-27.3917,75.20,62.60,64.91,70.00,10.00,0.00,29.97,M,6.21,M,FEW,M,M,M,2200.00,M,M,M,M,YBBN 062100Z 07010KT 9999 FEW022 24/17 Q1015
YBBN,2016-11-06 21:30,153.1292,-27.3917,75.20,62.60,64.91,70.00,11.00,0.00,29.97,M,6.21,M,FEW,M,M,M,2400.00,M,M,M,M,YBBN 062130Z 07011KT 9999 FEW024 24/17 Q1015
YBBN,2016-11-06 22:00,153.1292,-27.3917,77.00,62.60,61.13,70.00,10.00,0.00,29.97,M,6.21,M,FEW,M,M,M,2600.00,M,M,M,M,YBBN 062200Z 07010KT 9999 FEW026 25/17 Q1015 NOSIG
YBBN,2016-11-06 22:30,153.1292,-27.3917,77.00,62.60,61.13,70.00,12.00,0.00,29.97,M,6.21,M,FEW,M,M,M,2500.00,M,M,M,M,YBBN 062230Z 07012KT 9999 FEW025 25/17 Q1015 NOSIG
YBBN,2016-11-06 23:00,153.1292,-27.3917,77.00,62.60,61.13,40.00,12.00,0.00,29.97,M,6.21,M,SCT,M,M,M,2600.00,M,M,M,M,YBBN 062300Z 04012KT 9999 SCT026 25/17 Q1015
YBBN,2016-11-06 23:30,153.1292,-27.3917,77.00,62.60,61.13,30.00,12.00,0.00,29.97,M,6.21,M,SCT,M,M,M,2600.00,M,M,M,M,YBBN 062330Z 03012KT 9999 SCT026 25/17 Q1015 NOSIG
