#DEBUG: Format Typ    -> comma
#DEBUG: Time Period   -> 2014-12-08 00:00:00+00:00 2014-12-09 00:00:00+00:00
#DEBUG: Time Zone     -> Etc/UTC
#DEBUG: Data Contact   -> daryl herzmann akrherz@iastate.edu 515-294-5978
#DEBUG: Entries Found -> -1
station,valid,lon,lat,tmpf, dwpf, relh, drct, sknt, p01i, alti, mslp, vsby, gust, skyc1, skyc2, skyc3, skyc4, skyl1, skyl2, skyl3, skyl4, presentwx, metar
YBBN,2014-12-08 00:00,153.1292,-27.3917,82.40,75.20,78.90,20.00,16.00,0.00,29.85,M,6.21,M,FEW,SCT,BKN,M,800.00,3200.00,4000.00,M,M,YBBN 080000Z 02016KT 9999 FEW008 SCT032 BKN040 28/24 Q1011 NOSIG
YBBN,2014-12-08 00:30,153.1292,-27.3917,84.20,75.20,74.44,20.00,18.00,0.00,29.85,M,6.21,M,FEW,SCT,BKN,M,1000.00,3200.00,4000.00,M,M,YBBN 080030Z 02018KT 9999 FEW010 SCT032 BKN040 29/24 Q1011
YBBN,2014-12-08 01:00,153.1292,-27.3917,84.20,75.20,74.44,20.00,19.00,0.00,29.85,M,6.21,M,FEW,SCT,BKN,M,1200.00,3500.00,36000.00,M,M,YBBN 080100Z 02019KT 9999 FEW012 SCT035 BKN360 29/24 Q1011
YBBN,2014-12-08 01:30,153.1292,-27.3917,82.40,75.20,78.90,10.00,20.00,0.00,29.85,M,6.21,M,FEW,SCT,BKN,M,1000.00,3500.00,36000.00,M,M,YBBN 080130Z 01020KT 9999 FEW010 SCT035 BKN360 28/24 Q1011
YBBN,2014-12-08 02:00,153.1292,-27.3917,82.40,75.20,78.90,20.00,21.00,0.00,29.83,M,6.21,M,SCT,BKN,M,M,3500.00,36000.00,M,M,M,YBBN 080200Z 02021KT 9999 SCT035 BKN360 28/24 Q1010
YBBN,2014-12-08 02:30,153.1292,-27.3917,82.40,75.20,78.90,10.00,20.00,0.00,29.83,M,6.21,M,SCT,SCT,BKN,M,3500.00,16000.00,36000.00,M,M,YBBN 080230Z 01020KT 9999 SCT035 SCT160 BKN360 28/24 Q1010
YBBN,2014-12-08 03:00,153.1292,-27.3917,80.60,75.20,83.66,10.00,21.00,0.00,29.83,M,4.97,M,FEW,SCT,BKN,M,3500.00,16000.00,30000.00,M,M,YBBN 080300Z 01021KT 8000 FEW035 SCT160 BKN300 27/24 Q1010
YBBN,2014-12-08 03:30,153.1292,-27.3917,78.80,75.20,88.75,20.00,21.00,0.00,29.80,M,4.97,M,FEW,SCT,BKN,M,3500.00,16000.00,30000.00,M,M,YBBN 080330Z 02021KT 8000 FEW035 SCT160 BKN300 26/24 Q1009 RMK HZ
YBBN,2014-12-08 04:00,153.1292,-27.3917,80.60,75.20,83.66,10.00,20.00,0.00,29.80,M,4.97,M,FEW,SCT,BKN,M,3500.00,16000.00,20000.00,M,-SHRA,YBBN 080400Z 01020KT 8000 -SHRA FEW035 SCT160 BKN200 27/24 Q1009 RMK HZ
YBBN,2014-12-08 04:30,153.1292,-27.3917,78.80,75.20,88.75,10.00,19.00,0.00,29.80,M,4.97,M,FEW,SCT,BKN,M,3500.00,16000.00,22000.00,M,VCSH,YBBN 080430Z 01019KT 8000 VCSH FEW035 SCT160 BKN220 26/24 Q1009 RMK HZ
YBBN,2014-12-08 05:00,153.1292,-27.3917,80.60,75.20,83.66,10.00,17.00,0.00,29.83,M,4.97,M,FEW,SCT,BKN,M,3500.00,16000.00,20000.00,M,VCSH,YBBN 080500Z 01017KT 8000 VCSH FEW035 SCT160 BKN200 27/24 Q1010 TEMPO 0500/0800 VRB20G40KT 2000 TSRA BKN010 SCT030CB
YBBN,2014-12-08 05:30,153.1292,-27.3917,80.60,75.20,83.66,10.00,17.00,0.00,29.83,M,4.97,M,FEW,SCT,BKN,M,3500.00,4000.00,20000.00,M,-SHRA,YBBN 080530Z 01017KT 8000 -SHRA FEW035 SCT040 BKN200 27/24 Q1010
YBBN,2014-12-08 05:51,153.1292,-27.3917,80.60,75.20,83.66,10.00,19.00,0.00,29.80,M,4.35,M,FEW,SCT,BKN,FEW,3500.00,4000.00,20000.00,3500.00,TSRA -SHRA,YBBN 080551Z 01019KT 7000 TSRA -SHRA FEW035 SCT040 BKN200 FEW035CB 27/24 Q1009
YBBN,2014-12-08 06:00,153.1292,-27.3917,78.80,75.20,88.75,360.00,18.00,0.00,29.80,M,4.35,M,FEW,SCT,BKN,FEW,1000.00,3200.00,5500.00,3200.00,TSRA -SHRA,YBBN 080600Z 36018KT 7000 TSRA -SHRA FEW010 SCT032 BKN055 FEW032CB 26/24 Q1009 RETS
YBBN,2014-12-08 06:19,153.1292,-27.3917,78.80,75.20,88.75,360.00,19.00,0.00,29.80,M,4.97,M,FEW,SCT,BKN,M,1000.00,3200.00,5500.00,M,VCTS -SHRA,YBBN 080619Z 36019KT 8000 VCTS -SHRA FEW010 SCT032CB BKN055 26/24 Q1009
YBBN,2014-12-08 06:30,153.1292,-27.3917,78.80,75.20,88.75,10.00,19.00,0.00,29.80,M,4.97,M,FEW,SCT,BKN,M,1000.00,3200.00,5000.00,M,VCTS -SHRA,YBBN 080630Z 01019KT 8000 VCTS -SHRA FEW010 SCT032CB BKN050 26/24 Q1009 RMK HZ
YBBN,2014-12-08 06:53,153.1292,-27.3917,78.80,73.40,83.55,310.00,9.00,0.00,29.85,M,4.97,M,FEW,SCT,BKN,SCT,400.00,1000.00,5000.00,3000.00,TSRA -SHRA,YBBN 080653Z 31009KT 8000 TSRA -SHRA FEW004 SCT010 BKN050 SCT030CB 26/23 Q1011
YBBN,2014-12-08 07:00,153.1292,-27.3917,77.00,71.60,83.44,280.00,10.00,0.00,29.85,M,6.21,M,FEW,SCT,BKN,SCT,400.00,1000.00,5000.00,3000.00,TSRA -SHRA,YBBN 080700Z 28010KT 9999 TSRA -SHRA FEW004 SCT010 BKN050 SCT030CB 25/22 Q1011
YBBN,2014-12-08 07:09,153.1292,-27.3917,75.20,69.80,83.32,190.00,16.00,0.00,29.85,M,6.21,M,FEW,SCT,BKN,FEW,400.00,2200.00,6000.00,3000.00,VCTS -SHRA,YBBN 080709Z 19016KT 9999 VCTS -SHRA FEW004 SCT022 BKN060 FEW030CB 24/21 Q1011 RETS
YBBN,2014-12-08 07:30,153.1292,-27.3917,75.20,69.80,83.32,150.00,6.00,0.00,29.85,M,6.21,M,FEW,SCT,BKN,FEW,500.00,2000.00,14000.00,2800.00,-RA,YBBN 080730Z 15006KT 9999 -RA FEW005 SCT020 BKN140 FEW028CB 24/21 Q1011
YBBN,2014-12-08 08:00,153.1292,-27.3917,75.20,71.60,88.59,50.00,8.00,0.00,29.85,M,6.21,M,FEW,SCT,BKN,M,800.00,4000.00,14000.00,M,VCSH,YBBN 080800Z 05008KT 9999 VCSH FEW008 SCT040 BKN140 24/22 Q1011 FM0800 01014KT 9999 -SHRA SCT020 BKN080 INTER 0800/1000 3000 SHRA BKN013
YBBN,2014-12-08 08:30,153.1292,-27.3917,75.20,71.60,88.59,90.00,4.00,0.00,29.83,M,6.21,M,FEW,SCT,BKN,M,1000.00,18000.00,30000.00,M,M,YBBN 080830Z 09004KT 9999 FEW010 SCT180 BKN300 24/22 Q1010
YBBN,2014-12-08 09:00,153.1292,-27.3917,75.20,71.60,88.59,0.00,0.00,0.00,29.88,M,6.21,M,FEW,BKN,M,M,1000.00,30000.00,M,M,M,YBBN 080900Z 00000KT 9999 FEW010 BKN300 24/22 Q1012 FM0900 01014KT 9999 -SHRA SCT020 BKN080
YBBN,2014-12-08 09:30,153.1292,-27.3917,75.20,69.80,83.32,140.00,2.00,0.00,29.88,M,6.21,M,FEW,BKN,M,M,1000.00,13500.00,M,M,VCSH,YBBN 080930Z 14002KT 9999 VCSH FEW010 BKN135 24/21 Q1012
YBBN,2014-12-08 10:00,153.1292,-27.3917,75.20,69.80,83.32,50.00,5.00,0.00,29.91,M,6.21,M,FEW,SCT,BKN,M,1200.00,13000.00,18000.00,M,M,YBBN 081000Z 05005KT 9999 FEW012 SCT130 BKN180 24/21 Q1013 TEMPO 1200/1300 9999 NSW BKN012
YBBN,2014-12-08 10:30,153.1292,-27.3917,75.20,69.80,83.32,60.00,4.00,0.00,29.88,M,6.21,M,FEW,SCT,M,M,1200.00,15000.00,M,M,M,YBBN 081030Z 06004KT 9999 FEW012 SCT150 24/21 Q1012
YBBN,2014-12-08 11:00,153.1292,-27.3917,73.40,69.80,88.51,30.00,5.00,0.00,29.88,M,6.21,M,FEW,M,M,M,1200.00,M,M,M,M,YBBN 081100Z 03005KT 9999 FEW012 23/21 Q1012
YBBN,2014-12-08 11:30,153.1292,-27.3917,73.40,68.00,83.21,20.00,5.00,0.00,29.88,M,6.21,M,M,M,M,M,M,M,M,M,M,YBBN 081130Z 02005KT CAVOK 23/20 Q1012
YBBN,2014-12-08 12:00,153.1292,-27.3917,73.40,68.00,83.21,0.00,0.00,0.00,29.91,M,6.21,M,M,M,M,M,M,M,M,M,M,YBBN 081200Z 00000KT CAVOK 23/20 Q1013
YBBN,2014-12-08 12:30,153.1292,-27.3917,71.60,68.00,88.43,40.00,5.00,0.00,29.91,M,6.21,M,M,M,M,M,M,M,M,M,M,YBBN 081230Z 04005KT CAVOK 22/20 Q1013
YBBN,2014-12-08 13:00,153.1292,-27.3917,73.40,69.80,88.51,40.00,5.00,0.00,29.91,M,6.21,M,M,M,M,M,M,M,M,M,M,YBBN 081300Z 04005KT CAVOK 23/21 Q1013
YBBN,2014-12-08 13:30,153.1292,-27.3917,73.40,68.00,83.21,50.00,5.00,0.00,29.91,M,6.21,M,M,M,M,M,M,M,M,M,M,YBBN 081330Z 05005KT CAVOK 23/20 Q1013
YBBN,2014-12-08 14:00,153.1292,-27.3917,73.40,69.80,88.51,30.00,8.00,0.00,29.91,M,6.21,M,SCT,BKN,M,M,1100.00,30000.00,M,M,M,YBBN 081400Z 03008KT 9999 SCT011 BKN300 23/21 Q1013
YBBN,2014-12-08 14:30,153.1292,-27.3917,73.40,69.80,88.51,10.00,13.00,0.00,29.88,M,6.21,M,FEW,BKN,M,M,1100.00,30000.00,M,M,M,YBBN 081430Z 01013KT 9999 FEW011 BKN300 23/21 Q1012
YBBN,2014-12-08 15:00,153.1292,-27.3917,73.40,69.80,88.51,350.00,13.00,0.00,29.88,M,6.21,M,FEW,BKN,M,M,1100.00,30000.00,M,M,M,YBBN 081500Z 35013KT 9999 FEW011 BKN300 23/21 Q1012
YBBN,2014-12-08 15:30,153.1292,-27.3917,73.40,69.80,88.51,350.00,11.00,0.00,29.88,M,6.21,M,FEW,BKN,M,M,1100.00,30000.00,M,M,M,YBBN 081530Z 35011KT 9999 FEW011 BKN300 23/21 Q1012
YBBN,2014-12-08 16:00,153.1292,-27.3917,71.60,68.00,88.43,290.00,6.00,0.00,29.88,M,6.21,M,FEW,BKN,M,M,1100.00,30000.00,M,M,M,YBBN 081600Z 29006KT 9999 FEW011 BKN300 22/20 Q1012
YBBN,2014-12-08 16:30,153.1292,-27.3917,71.60,68.00,88.43,310.00,4.00,0.00,29.88,M,6.21,M,FEW,SCT,BKN,M,1100.00,10500.00,30000.00,M,M,YBBN 081630Z 31004KT 9999 FEW011 SCT105 BKN300 22/20 Q1012
YBBN,2014-12-08 17:00,153.1292,-27.3917,69.80,68.00,94.01,330.00,5.00,0.00,29.88,M,6.21,M,FEW,SCT,BKN,M,1100.00,10500.00,30000.00,M,M,YBBN 081700Z 33005KT 9999 FEW011 SCT105 BKN300 21/20 Q1012 NOSIG
YBBN,2014-12-08 17:30,153.1292,-27.3917,71.60,68.00,88.43,330.00,4.00,0.00,29.88,M,6.21,M,FEW,BKN,M,M,1100.00,30000.00,M,M,M,YBBN 081730Z 33004KT 9999 FEW011 BKN300 22/20 Q1012
YBBN,2014-12-08 18:00,153.1292,-27.3917,71.60,69.80,94.06,320.00,4.00,0.00,29.88,M,6.21,M,FEW,SCT,BKN,M,1100.00,10500.00,30000.00,M,M,YBBN 081800Z 32004KT 9999 FEW011 SCT105 BKN300 22/21 Q1012
YBBN,2014-12-08 18:30,153.1292,-27.3917,69.80,68.00,94.01,360.00,5.00,0.00,29.88,M,6.21,M,FEW,SCT,BKN,M,1100.00,19000.00,25000.00,M,M,YBBN 081830Z 36005KT 9999 FEW011 SCT190 BKN250 21/20 Q1012
YBBN,2014-12-08 19:00,153.1292,-27.3917,71.60,68.00,88.43,360.00,7.00,0.00,29.88,M,6.21,M,M,M,M,M,M,M,M,M,M,YBBN 081900Z 36007KT CAVOK 22/20 Q1012
YBBN,2014-12-08 19:30,153.1292,-27.3917,73.40,69.80,88.51,10.00,9.00,0.00,29.91,M,6.21,M,FEW,BKN,M,M,1100.00,18000.00,M,M,M,YBBN 081930Z 01009KT 9999 FEW011 BKN180 23/21 Q1013
YBBN,2014-12-08 20:00,153.1292,-27.3917,75.20,69.80,83.32,360.00,10.00,0.00,29.91,M,6.21,M,FEW,BKN,BKN,M,1200.00,17500.00,25000.00,M,M,YBBN 082000Z 36010KT 9999 FEW012 BKN175 BKN250 24/21 Q1013
YBBN,2014-12-08 20:30,153.1292,-27.3917,75.20,69.80,83.32,350.00,8.00,0.00,29.91,M,6.21,M,FEW,BKN,BKN,M,3000.00,17000.00,25000.00,M,M,YBBN 082030Z 35008KT 9999 FEW030 BKN170 BKN250 24/21 Q1013
YBBN,2014-12-08 21:00,153.1292,-27.3917,77.00,69.80,78.48,350.00,9.00,0.00,29.94,M,6.21,M,FEW,BKN,BKN,M,2500.00,16000.00,25000.00,M,M,YBBN 082100Z 35009KT 9999 FEW025 BKN160 BKN250 25/21 Q1014 NOSIG
YBBN,2014-12-08 21:30,153.1292,-27.3917,77.00,69.80,78.48,320.00,7.00,0.00,29.94,M,6.21,M,FEW,BKN,BKN,M,1000.00,17000.00,25000.00,M,M,YBBN 082130Z 32007KT 9999 FEW010 BKN170 BKN250 25/21 Q1014
YBBN,2014-12-08 22:00,153.1292,-27.3917,78.80,69.80,73.95,320.00,6.00,0.00,29.94,M,6.21,M,FEW,BKN,BKN,M,1800.00,17000.00,25000.00,M,M,YBBN 082200Z 32006KT 9999 FEW018 BKN170 BKN250 26/21 Q1014
YBBN,2014-12-08 22:30,153.1292,-27.3917,80.60,66.20,61.58,330.00,6.00,0.00,29.94,M,6.21,M,FEW,SCT,BKN,M,2000.00,17000.00,25000.00,M,M,YBBN 082230Z 33006KT 9999 FEW020 SCT170 BKN250 27/19 Q1014
YBBN,2014-12-08 23:00,153.1292,-27.3917,80.60,69.80,69.71,360.00,11.00,0.00,29.94,M,6.21,M,FEW,BKN,M,M,2100.00,25000.00,M,M,M,YBBN 082300Z 36011KT 9999 FEW021 BKN250 27/21 Q1014 NOSIG
YBBN,2014-12-08 23:30,153.1292,-27.3917,80.60,69.80,69.71,360.00,11.00,0.00,29.94,M,6.21,M,FEW,SCT,M,M,2200.00,25000.00,M,M,M,YBBN 082330Z 36011KT 9999 FEW022 SCT250 27/21 Q1014
