#DEBUG: Format Typ    -> comma
#DEBUG: Time Period   -> 2014-10-10 00:00:00+00:00 2014-10-11 00:00:00+00:00
#DEBUG: Time Zone     -> Etc/UTC
#DEBUG: Data Contact   -> daryl herzmann akrherz@iastate.edu 515-294-5978
#DEBUG: Entries Found -> -1
station,valid,lon,lat,tmpf, dwpf, relh, drct, sknt, p01i, alti, mslp, vsby, gust, skyc1, skyc2, skyc3, skyc4, skyl1, skyl2, skyl3, skyl4, presentwx, metar
YBBN,2014-10-10 00:00,153.1292,-27.3917,73.40,53.60,49.90,60.00,9.00,0.00,30.12,M,6.21,M,SCT,M,M,M,3800.00,M,M,M,M,YBBN 100000Z 06009KT 9999 SCT038 23/12 Q1020
YBBN,2014-10-10 00:30,153.1292,-27.3917,73.40,53.60,49.90,20.00,11.00,0.00,30.12,M,6.21,M,FEW,M,M,M,3800.00,M,M,M,M,YBBN 100030Z 02011KT 9999 FEW038 23/12 Q1020
YBBN,2014-10-10 01:00,153.1292,-27.3917,73.40,51.80,46.71,30.00,10.00,0.00,30.09,M,6.21,M,FEW,M,M,M,4000.00,M,M,M,M,YBBN 100100Z 03010KT 9999 FEW040 23/11 Q1019 NOSIG
YBBN,2014-10-10 01:30,153.1292,-27.3917,73.40,50.00,43.69,30.00,11.00,0.00,30.09,M,6.21,M,FEW,M,M,M,4300.00,M,M,M,M,YBBN 100130Z 03011KT 9999 FEW043 23/10 Q1019
YBBN,2014-10-10 02:00,153.1292,-27.3917,73.40,51.80,46.71,40.00,11.00,0.00,30.06,M,6.21,M,FEW,M,M,M,4500.00,M,M,M,M,YBBN 100200Z 04011KT 9999 FEW045 23/11 Q1018 NOSIG
YBBN,2014-10-10 02:30,153.1292,-27.3917,75.20,53.60,46.98,30.00,10.00,0.00,30.06,M,6.21,M,FEW,M,M,M,4500.00,M,M,M,M,YBBN 100230Z 03010KT 9999 FEW045 24/12 Q1018
YBBN,2014-10-10 03:00,153.1292,-27.3917,73.40,51.80,46.71,30.00,13.00,0.00,30.06,M,6.21,M,FEW,M,M,M,4500.00,M,M,M,M,YBBN 100300Z 03013KT 9999 FEW045 23/11 Q1018 NOSIG
YBBN,2014-10-10 03:30,153.1292,-27.3917,75.20,53.60,46.98,30.00,11.00,0.00,30.03,M,6.21,M,FEW,M,M,M,4500.00,M,M,M,M,YBBN 100330Z 03011KT 9999 FEW045 24/12 Q1017
YBBN,2014-10-10 04:00,153.1292,-27.3917,75.20,53.60,46.98,60.00,10.00,0.00,30.03,M,6.21,M,FEW,M,M,M,4500.00,M,M,M,M,YBBN 100400Z 06010KT 9999 FEW045 24/12 Q1017 NOSIG
YBBN,2014-10-10 04:30,153.1292,-27.3917,73.40,53.60,49.90,50.00,11.00,0.00,30.03,M,6.21,M,FEW,M,M,M,4500.00,M,M,M,M,YBBN 100430Z 05011KT 9999 FEW045 23/12 Q1017
YBBN,2014-10-10 05:00,153.1292,-27.3917,73.40,53.60,49.90,30.00,13.00,0.00,30.00,M,6.21,M,FEW,M,M,M,4500.00,M,M,M,M,YBBN 100500Z 03013KT 9999 FEW045 23/12 Q1016
YBBN,2014-10-10 05:30,153.1292,-27.3917,73.40,51.80,46.71,40.00,12.00,0.00,30.00,M,6.21,M,FEW,M,M,M,4500.00,M,M,M,M,YBBN 100530Z 04012KT 9999 FEW045 23/11 Q1016
YBBN,2014-10-10 06:00,153.1292,-27.3917,73.40,51.80,46.71,50.00,12.00,0.00,30.00,M,6.21,M,FEW,M,M,M,4500.00,M,M,M,M,YBBN 100600Z 05012KT 9999 FEW045 23/11 Q1016 NOSIG
YBBN,2014-10-10 06:30,153.1292,-27.3917,71.60,53.60,53.03,60.00,12.00,0.00,30.00,M,6.21,M,FEW,M,M,M,4500.00,M,M,M,M,YBBN 100630Z 06012KT 9999 FEW045 22/12 Q1016
YBBN,2014-10-10 07:00,153.1292,-27.3917,69.80,53.60,56.38,60.00,10.00,0.00,30.03,M,6.21,M,FEW,M,M,M,4500.00,M,M,M,M,YBBN 100700Z 06010KT 9999 FEW045 21/12 Q1017 NOSIG
YBBN,2014-10-10 07:30,153.1292,-27.3917,69.80,53.60,56.38,60.00,9.00,0.00,30.03,M,6.21,M,M,M,M,M,M,M,M,M,M,YBBN 100730Z 06009KT CAVOK 21/12 Q1017
YBBN,2014-10-10 08:00,153.1292,-27.3917,68.00,55.40,64.04,60.00,10.00,0.00,30.03,M,6.21,M,M,M,M,M,M,M,M,M,M,YBBN 100800Z 06010KT CAVOK 20/13 Q1017 NOSIG
YBBN,2014-10-10 08:30,153.1292,-27.3917,68.00,55.40,64.04,50.00,9.00,0.00,30.03,M,6.21,M,M,M,M,M,M,M,M,M,M,YBBN 100830Z 05009KT CAVOK 20/13 Q1017
YBBN,2014-10-10 09:00,153.1292,-27.3917,68.00,55.40,64.04,60.00,9.00,0.00,30.03,M,6.21,M,M,M,M,M,M,M,M,M,M,YBBN 100900Z 06009KT CAVOK 20/13 Q1017 NOSIG
YBBN,2014-10-10 09:30,153.1292,-27.3917,68.00,55.40,64.04,50.00,8.00,0.00,30.06,M,6.21,M,FEW,M,M,M,3500.00,M,M,M,M,YBBN 100930Z 05008KT 9999 FEW035 20/13 Q1018
YBBN,2014-10-10 10:00,153.1292,-27.3917,68.00,55.40,64.04,50.00,8.00,0.00,30.06,M,6.21,M,FEW,M,M,M,3500.00,M,M,M,M,YBBN 101000Z 05008KT 9999 FEW035 20/13 Q1018 NOSIG
YBBN,2014-10-10 10:30,153.1292,-27.3917,68.00,55.40,64.04,50.00,8.00,0.00,30.06,M,6.21,M,FEW,SCT,M,M,3500.00,8000.00,M,M,M,YBBN 101030Z 05008KT 9999 FEW035 SCT080 20/13 Q1018
YBBN,2014-10-10 11:00,153.1292,-27.3917,68.00,53.60,59.97,50.00,7.00,0.00,30.06,M,6.21,M,SCT,SCT,M,M,3500.00,8000.00,M,M,M,YBBN 101100Z 05007KT 9999 SCT035 SCT080 20/12 Q1018
YBBN,2014-10-10 11:30,153.1292,-27.3917,68.00,55.40,64.04,50.00,7.00,0.00,30.09,M,6.21,M,FEW,SCT,BKN,M,2800.00,3600.00,8000.00,M,M,YBBN 101130Z 05007KT 9999 FEW028 SCT036 BKN080 20/13 Q1019
YBBN,2014-10-10 12:00,153.1292,-27.3917,68.00,55.40,64.04,50.00,8.00,0.00,30.06,M,6.21,M,FEW,SCT,M,M,2800.00,3600.00,M,M,M,YBBN 101200Z 05008KT 9999 FEW028 SCT036 20/13 Q1018 NOSIG
YBBN,2014-10-10 12:30,153.1292,-27.3917,68.00,55.40,64.04,50.00,6.00,0.00,30.06,M,6.21,M,SCT,M,M,M,3500.00,M,M,M,M,YBBN 101230Z 05006KT 9999 SCT035 20/13 Q1018
YBBN,2014-10-10 13:00,153.1292,-27.3917,68.00,55.40,64.04,40.00,6.00,0.00,30.06,M,6.21,M,SCT,M,M,M,3500.00,M,M,M,M,YBBN 101300Z 04006KT 9999 SCT035 20/13 Q1018
YBBN,2014-10-10 13:30,153.1292,-27.3917,66.20,55.40,68.15,40.00,6.00,0.00,30.06,M,6.21,M,SCT,M,M,M,3200.00,M,M,M,M,YBBN 101330Z 04006KT 9999 SCT032 19/13 Q1018
YBBN,2014-10-10 14:00,153.1292,-27.3917,66.20,55.40,68.15,50.00,7.00,0.00,30.06,M,6.21,M,SCT,M,M,M,3200.00,M,M,M,M,YBBN 101400Z 05007KT 9999 SCT032 19/13 Q1018 NOSIG
YBBN,2014-10-10 14:30,153.1292,-27.3917,66.20,55.40,68.15,40.00,6.00,0.00,30.06,M,6.21,M,SCT,SCT,M,M,3200.00,32000.00,M,M,M,YBBN 101430Z 04006KT 9999 SCT032 SCT320 19/13 Q1018
YBBN,2014-10-10 15:00,153.1292,-27.3917,64.40,57.20,77.45,30.00,7.00,0.00,30.06,M,6.21,M,SCT,SCT,M,M,3200.00,32000.00,M,M,M,YBBN 101500Z 03007KT 9999 SCT032 SCT320 18/14 Q1018 NOSIG
YBBN,2014-10-10 15:30,153.1292,-27.3917,66.20,55.40,68.15,40.00,6.00,0.00,30.03,M,6.21,M,FEW,BKN,M,M,2500.00,32000.00,M,M,M,YBBN 101530Z 04006KT 9999 FEW025 BKN320 19/13 Q1017
YBBN,2014-10-10 16:00,153.1292,-27.3917,66.20,55.40,68.15,40.00,6.00,0.00,30.03,M,6.21,M,FEW,BKN,M,M,2500.00,32000.00,M,M,M,YBBN 101600Z 04006KT 9999 FEW025 BKN320 19/13 Q1017 NOSIG
YBBN,2014-10-10 16:30,153.1292,-27.3917,64.40,55.40,72.56,40.00,6.00,0.00,30.03,M,6.21,M,FEW,SCT,BKN,M,2500.00,20000.00,32000.00,M,M,YBBN 101630Z 04006KT 9999 FEW025 SCT200 BKN320 18/13 Q1017
YBBN,2014-10-10 17:00,153.1292,-27.3917,64.40,55.40,72.56,30.00,6.00,0.00,30.03,M,6.21,M,FEW,SCT,BKN,M,2500.00,20000.00,32000.00,M,M,YBBN 101700Z 03006KT 9999 FEW025 SCT200 BKN320 18/13 Q1017 NOSIG
YBBN,2014-10-10 17:30,153.1292,-27.3917,64.40,55.40,72.56,30.00,5.00,0.00,30.03,M,6.21,M,FEW,SCT,BKN,M,2200.00,4600.00,20000.00,M,M,YBBN 101730Z 03005KT 9999 FEW022 SCT046 BKN200 18/13 Q1017
YBBN,2014-10-10 18:00,153.1292,-27.3917,64.40,57.20,77.45,20.00,4.00,0.00,30.03,M,6.21,M,FEW,SCT,BKN,M,2200.00,4600.00,19000.00,M,M,YBBN 101800Z 02004KT 9999 FEW022 SCT046 BKN190 18/14 Q1017 NOSIG
YBBN,2014-10-10 18:30,153.1292,-27.3917,62.60,57.20,82.50,240.00,4.00,0.00,30.03,M,6.21,M,FEW,BKN,BKN,M,1800.00,4500.00,19000.00,M,M,YBBN 101830Z 24004KT 9999 FEW018 BKN045 BKN190 17/14 Q1017
YBBN,2014-10-10 19:00,153.1292,-27.3917,64.40,57.20,77.45,220.00,5.00,0.00,30.06,M,6.21,M,FEW,BKN,M,M,1800.00,4500.00,M,M,M,YBBN 101900Z 22005KT 9999 FEW018 BKN045 18/14 Q1018
YBBN,2014-10-10 19:30,153.1292,-27.3917,64.40,57.20,77.45,250.00,6.00,0.00,30.06,M,6.21,M,FEW,SCT,BKN,M,1800.00,4500.00,19000.00,M,M,YBBN 101930Z 25006KT 9999 FEW018 SCT045 BKN190 18/14 Q1018
YBBN,2014-10-10 20:00,153.1292,-27.3917,64.40,59.00,82.62,290.00,1.00,0.00,30.06,M,6.21,M,FEW,SCT,BKN,M,2000.00,4500.00,16000.00,M,M,YBBN 102000Z 29001KT 9999 FEW020 SCT045 BKN160 18/15 Q1018 NOSIG
YBBN,2014-10-10 20:30,153.1292,-27.3917,66.20,57.20,72.74,250.00,4.00,0.00,30.06,M,6.21,M,FEW,BKN,BKN,M,2500.00,5600.00,27000.00,M,M,YBBN 102030Z 25004KT 9999 FEW025 BKN056 BKN270 19/14 Q1018
YBBN,2014-10-10 21:00,153.1292,-27.3917,66.20,57.20,72.74,220.00,6.00,0.00,30.09,M,6.21,M,FEW,SCT,BKN,M,2500.00,4500.00,5600.00,M,M,YBBN 102100Z 22006KT 9999 FEW025 SCT045 BKN056 19/14 Q1019
YBBN,2014-10-10 21:30,153.1292,-27.3917,68.00,57.20,68.35,200.00,5.00,0.00,30.09,M,6.21,M,FEW,BKN,BKN,M,2800.00,5400.00,27000.00,M,M,YBBN 102130Z 20005KT 9999 FEW028 BKN054 BKN270 20/14 Q1019
YBBN,2014-10-10 22:00,153.1292,-27.3917,69.80,57.20,64.26,210.00,3.00,0.00,30.09,M,6.21,M,FEW,SCT,BKN,M,2800.00,5600.00,10500.00,M,M,YBBN 102200Z 21003KT 9999 FEW028 SCT056 BKN105 21/14 Q1019
YBBN,2014-10-10 22:30,153.1292,-27.3917,69.80,57.20,64.26,290.00,4.00,0.00,30.09,M,6.21,M,FEW,BKN,M,M,2800.00,27000.00,M,M,M,YBBN 102230Z 29004KT 9999 FEW028 BKN270 21/14 Q1019
YBBN,2014-10-10 23:00,153.1292,-27.3917,71.60,55.40,56.63,280.00,3.00,0.00,30.09,M,6.21,M,FEW,BKN,M,M,2800.00,27000.00,M,M,M,YBBN 102300Z 28003KT 9999 FEW028 BKN270 22/13 Q1019 FM2330 03012KT 9999 SCT035
YBBN,2014-10-10 23:30,153.1292,-27.3917,73.40,55.40,53.29,20.00,7.00,0.00,30.09,M,6.21,M,FEW,BKN,M,M,3300.00,27000.00,M,M,M,YBBN 102330Z 02007KT 9999 FEW033 BKN270 23/13 Q1019
