#DEBUG: Format Typ    -> comma
#DEBUG: Time Period   -> 2015-04-07 00:00:00+00:00 2015-04-08 00:00:00+00:00
#DEBUG: Time Zone     -> Etc/UTC
#DEBUG: Data Contact   -> daryl herzmann akrherz@iastate.edu 515-294-5978
#DEBUG: Entries Found -> -1
station,valid,lon,lat,tmpf, dwpf, relh, drct, sknt, p01i, alti, mslp, vsby, gust, skyc1, skyc2, skyc3, skyc4, skyl1, skyl2, skyl3, skyl4, presentwx, metar
YBBN,2015-04-07 00:00,153.1292,-27.3917,80.60,68.00,65.54,350.00,11.00,0.00,29.85,M,6.21,M,FEW,SCT,BKN,M,3000.00,17000.00,30000.00,M,M,YBBN 070000Z 35011KT 9999 FEW030 SCT170 BKN300 27/20 Q1011
YBBN,2015-04-07 00:30,153.1292,-27.3917,84.20,66.20,54.80,310.00,9.00,0.00,29.85,M,6.21,M,FEW,SCT,BKN,M,3300.00,17000.00,30000.00,M,M,YBBN 070030Z 31009KT 9999 FEW033 SCT170 BKN300 29/19 Q1011
YBBN,2015-04-07 01:00,153.1292,-27.3917,82.40,64.40,54.55,310.00,13.00,0.00,29.85,M,6.21,M,FEW,BKN,M,M,3300.00,17000.00,M,M,M,YBBN 070100Z 31013KT 9999 FEW033 BKN170 28/18 Q1011
YBBN,2015-04-07 01:15,153.1292,-27.3917,82.40,62.60,51.21,300.00,15.00,0.00,29.85,M,6.21,26.00,FEW,BKN,M,M,3500.00,16000.00,M,M,M,YBBN 070115Z 30015G26KT 9999 FEW035 BKN160 28/17 Q1011
YBBN,2015-04-07 01:30,153.1292,-27.3917,80.60,62.60,54.30,290.00,16.00,0.00,29.85,M,6.21,M,FEW,BKN,BKN,M,2600.00,12000.00,16000.00,M,-SHRA,YBBN 070130Z 29016KT 9999 -SHRA FEW026 BKN120 BKN160 27/17 Q1011
YBBN,2015-04-07 02:00,153.1292,-27.3917,78.80,66.20,65.33,280.00,10.00,0.00,29.83,M,6.21,M,FEW,SCT,BKN,M,3000.00,5500.00,11000.00,M,-SHRA,YBBN 070200Z 28010KT 9999 -SHRA FEW030 SCT055 BKN110 26/19 Q1010
YBBN,2015-04-07 02:30,153.1292,-27.3917,78.80,64.40,61.36,360.00,6.00,0.00,29.80,M,6.21,M,FEW,BKN,M,M,3500.00,11000.00,M,M,VCSH,YBBN 070230Z 36006KT 9999 VCSH FEW035 BKN110 26/18 Q1009
YBBN,2015-04-07 03:00,153.1292,-27.3917,78.80,66.20,65.33,350.00,8.00,0.00,29.80,M,6.21,M,FEW,BKN,M,M,3500.00,12000.00,M,M,M,YBBN 070300Z 35008KT 9999 FEW035 BKN120 26/19 Q1009
YBBN,2015-04-07 03:30,153.1292,-27.3917,78.80,66.20,65.33,10.00,9.00,0.00,29.80,M,6.21,M,FEW,BKN,M,M,3500.00,12000.00,M,M,M,YBBN 070330Z 01009KT 9999 FEW035 BKN120 26/19 Q1009
YBBN,2015-04-07 04:00,153.1292,-27.3917,77.00,64.40,65.12,350.00,10.00,0.00,29.80,M,6.21,M,FEW,BKN,BKN,M,1700.00,12000.00,30000.00,M,M,YBBN 070400Z 35010KT 9999 FEW017 BKN120 BKN300 25/18 Q1009
YBBN,2015-04-07 04:30,153.1292,-27.3917,77.00,66.20,69.33,360.00,10.00,0.00,29.80,M,6.21,M,FEW,SCT,BKN,M,3000.00,10000.00,30000.00,M,M,YBBN 070430Z 36010KT 9999 FEW030 SCT100 BKN300 25/19 Q1009
YBBN,2015-04-07 05:00,153.1292,-27.3917,78.80,66.20,65.33,360.00,9.00,0.00,29.80,M,6.21,M,FEW,SCT,BKN,M,3000.00,12000.00,30000.00,M,M,YBBN 070500Z 36009KT 9999 FEW030 SCT120 BKN300 26/19 Q1009 NOSIG
YBBN,2015-04-07 05:30,153.1292,-27.3917,78.80,66.20,65.33,350.00,10.00,0.00,29.80,M,6.21,M,FEW,BKN,M,M,3000.00,30000.00,M,M,M,YBBN 070530Z 35010KT 9999 FEW030 BKN300 26/19 Q1009
YBBN,2015-04-07 06:00,153.1292,-27.3917,78.80,68.00,69.52,360.00,9.00,0.00,29.80,M,6.21,M,FEW,BKN,M,M,3000.00,30000.00,M,M,M,YBBN 070600Z 36009KT 9999 FEW030 BKN300 26/20 Q1009 NOSIG
YBBN,2015-04-07 06:30,153.1292,-27.3917,78.80,69.80,73.95,20.00,9.00,0.00,29.80,M,6.21,M,FEW,BKN,M,M,3000.00,30000.00,M,M,M,YBBN 070630Z 02009KT 9999 FEW030 BKN300 26/21 Q1009
YBBN,2015-04-07 07:00,153.1292,-27.3917,77.00,69.80,78.48,20.00,9.00,0.00,29.83,M,6.21,M,FEW,BKN,M,M,3000.00,30000.00,M,M,M,YBBN 070700Z 02009KT 9999 FEW030 BKN300 25/21 Q1010 NOSIG
YBBN,2015-04-07 07:30,153.1292,-27.3917,77.00,69.80,78.48,10.00,7.00,0.00,29.83,M,6.21,M,FEW,BKN,M,M,3000.00,30000.00,M,M,M,YBBN 070730Z 01007KT 9999 FEW030 BKN300 25/21 Q1010
YBBN,2015-04-07 08:00,153.1292,-27.3917,75.20,69.80,83.32,360.00,9.00,0.00,29.85,M,6.21,M,FEW,BKN,M,M,3000.00,30000.00,M,M,M,YBBN 070800Z 36009KT 9999 FEW030 BKN300 24/21 Q1011
YBBN,2015-04-07 08:30,153.1292,-27.3917,75.20,71.60,88.59,350.00,8.00,0.00,29.85,M,6.21,M,FEW,BKN,M,M,2800.00,30000.00,M,M,M,YBBN 070830Z 35008KT 9999 FEW028 BKN300 24/22 Q1011
YBBN,2015-04-07 09:00,153.1292,-27.3917,75.20,69.80,83.32,350.00,7.00,0.00,29.85,M,6.21,M,FEW,SCT,M,M,2800.00,30000.00,M,M,M,YBBN 070900Z 35007KT 9999 FEW028 SCT300 24/21 Q1011
YBBN,2015-04-07 09:30,153.1292,-27.3917,75.20,69.80,83.32,310.00,6.00,0.00,29.88,M,6.21,M,FEW,SCT,M,M,2800.00,30000.00,M,M,M,YBBN 070930Z 31006KT 9999 FEW028 SCT300 24/21 Q1012
YBBN,2015-04-07 10:00,153.1292,-27.3917,75.20,69.80,83.32,290.00,6.00,0.00,29.88,M,6.21,M,FEW,SCT,M,M,2800.00,30000.00,M,M,M,YBBN 071000Z 29006KT 9999 FEW028 SCT300 24/21 Q1012
YBBN,2015-04-07 10:30,153.1292,-27.3917,75.20,68.00,78.34,290.00,7.00,0.00,29.91,M,6.21,M,FEW,SCT,M,M,2800.00,30000.00,M,M,M,YBBN 071030Z 29007KT 9999 FEW028 SCT300 24/20 Q1013
YBBN,2015-04-07 11:00,153.1292,-27.3917,73.40,60.80,64.69,250.00,8.00,0.00,29.91,M,6.21,M,FEW,BKN,M,M,2800.00,30000.00,M,M,M,YBBN 071100Z 25008KT 9999 FEW028 BKN300 23/16 Q1013
YBBN,2015-04-07 11:30,153.1292,-27.3917,71.60,57.20,60.44,260.00,9.00,0.00,29.91,M,6.21,M,FEW,BKN,M,M,2800.00,30000.00,M,M,M,YBBN 071130Z 26009KT 9999 FEW028 BKN300 22/14 Q1013
YBBN,2015-04-07 12:00,153.1292,-27.3917,69.80,51.80,52.77,240.00,12.00,0.00,29.94,M,6.21,M,FEW,BKN,M,M,2800.00,30000.00,M,M,M,YBBN 071200Z 24012KT 9999 FEW028 BKN300 21/11 Q1014
YBBN,2015-04-07 12:30,153.1292,-27.3917,68.00,53.60,59.97,230.00,12.00,0.00,29.94,M,6.21,M,FEW,BKN,M,M,2800.00,30000.00,M,M,M,YBBN 071230Z 23012KT 9999 FEW028 BKN300 20/12 Q1014
YBBN,2015-04-07 13:00,153.1292,-27.3917,69.80,51.80,52.77,230.00,8.00,0.00,29.94,M,6.21,M,FEW,BKN,M,M,2800.00,30000.00,M,M,M,YBBN 071300Z 23008KT 9999 FEW028 BKN300 21/11 Q1014
YBBN,2015-04-07 13:30,153.1292,-27.3917,68.00,50.00,52.51,230.00,7.00,0.00,29.94,M,6.21,M,FEW,SCT,M,M,2800.00,30000.00,M,M,M,YBBN 071330Z 23007KT 9999 FEW028 SCT300 20/10 Q1014
YBBN,2015-04-07 14:00,153.1292,-27.3917,68.00,50.00,52.51,240.00,8.00,0.00,29.94,M,6.21,M,FEW,SCT,M,M,2800.00,30000.00,M,M,M,YBBN 071400Z 24008KT 9999 FEW028 SCT300 20/10 Q1014
YBBN,2015-04-07 14:30,153.1292,-27.3917,66.20,50.00,55.88,230.00,9.00,0.00,29.94,M,6.21,M,FEW,SCT,M,M,2800.00,30000.00,M,M,M,YBBN 071430Z 23009KT 9999 FEW028 SCT300 19/10 Q1014
YBBN,2015-04-07 15:00,153.1292,-27.3917,66.20,46.40,48.83,240.00,9.00,0.00,29.94,M,6.21,M,FEW,SCT,M,M,2800.00,30000.00,M,M,M,YBBN 071500Z 24009KT 9999 FEW028 SCT300 19/08 Q1014
YBBN,2015-04-07 15:30,153.1292,-27.3917,64.40,46.40,51.98,240.00,9.00,0.00,29.94,M,6.21,M,FEW,SCT,M,M,2800.00,30000.00,M,M,M,YBBN 071530Z 24009KT 9999 FEW028 SCT300 18/08 Q1014
YBBN,2015-04-07 16:00,153.1292,-27.3917,62.60,48.20,59.26,250.00,9.00,0.00,29.94,M,6.21,M,FEW,SCT,M,M,2800.00,30000.00,M,M,M,YBBN 071600Z 25009KT 9999 FEW028 SCT300 17/09 Q1014
YBBN,2015-04-07 16:30,153.1292,-27.3917,62.60,46.40,55.37,250.00,12.00,0.00,29.94,M,6.21,M,FEW,SCT,M,M,2800.00,30000.00,M,M,M,YBBN 071630Z 25012KT 9999 FEW028 SCT300 17/08 Q1014
YBBN,2015-04-07 17:00,153.1292,-27.3917,64.40,44.60,48.55,250.00,10.00,0.00,29.94,M,6.21,M,FEW,SCT,M,M,2800.00,30000.00,M,M,M,YBBN 071700Z 25010KT 9999 FEW028 SCT300 18/07 Q1014
YBBN,2015-04-07 17:30,153.1292,-27.3917,64.40,42.80,45.32,240.00,9.00,0.00,29.94,M,6.21,M,FEW,SCT,M,M,2800.00,30000.00,M,M,M,YBBN 071730Z 24009KT 9999 FEW028 SCT300 18/06 Q1014
YBBN,2015-04-07 18:00,153.1292,-27.3917,62.60,42.80,48.28,240.00,11.00,0.00,29.94,M,6.21,M,FEW,SCT,M,M,2800.00,30000.00,M,M,M,YBBN 071800Z 24011KT 9999 FEW028 SCT300 17/06 Q1014
YBBN,2015-04-07 18:30,153.1292,-27.3917,62.60,42.80,48.28,240.00,14.00,0.00,29.97,M,6.21,M,FEW,SCT,M,M,2800.00,30000.00,M,M,M,YBBN 071830Z 24014KT 9999 FEW028 SCT300 17/06 Q1015
YBBN,2015-04-07 19:00,153.1292,-27.3917,62.60,41.00,45.04,240.00,13.00,0.00,29.97,M,6.21,M,FEW,SCT,M,M,2800.00,30000.00,M,M,M,YBBN 071900Z 24013KT 9999 FEW028 SCT300 17/05 Q1015
YBBN,2015-04-07 19:30,153.1292,-27.3917,62.60,39.20,42.00,290.00,3.00,0.00,29.97,M,6.21,M,FEW,SCT,M,M,2800.00,30000.00,M,M,M,YBBN 071930Z 29003KT 9999 FEW028 SCT300 17/04 Q1015
YBBN,2015-04-07 20:00,153.1292,-27.3917,60.80,39.20,44.76,30.00,1.00,0.00,30.00,M,6.21,M,FEW,SCT,M,M,2800.00,30000.00,M,M,M,YBBN 072000Z 03001KT 9999 FEW028 SCT300 16/04 Q1016
YBBN,2015-04-07 20:30,153.1292,-27.3917,60.80,39.20,44.76,240.00,7.00,0.00,30.00,M,6.21,M,M,M,M,M,M,M,M,M,M,YBBN 072030Z 24007KT CAVOK 16/04 Q1016
YBBN,2015-04-07 21:00,153.1292,-27.3917,60.80,39.20,44.76,230.00,10.00,0.00,30.03,M,6.21,M,M,M,M,M,M,M,M,M,M,YBBN 072100Z 23010KT CAVOK 16/04 Q1017
YBBN,2015-04-07 21:30,153.1292,-27.3917,64.40,37.40,36.74,230.00,12.00,0.00,30.00,M,6.21,M,M,M,M,M,M,M,M,M,M,YBBN 072130Z 23012KT CAVOK 18/03 Q1016
YBBN,2015-04-07 22:00,153.1292,-27.3917,66.20,35.60,32.14,230.00,15.00,0.00,30.03,M,6.21,M,M,M,M,M,M,M,M,M,M,YBBN 072200Z 23015KT CAVOK 19/02 Q1017
YBBN,2015-04-07 22:30,153.1292,-27.3917,68.00,35.60,30.20,250.00,10.00,0.00,30.03,M,6.21,M,M,M,M,M,M,M,M,M,M,YBBN 072230Z 25010KT CAVOK 20/02 Q1017
YBBN,2015-04-07 23:00,153.1292,-27.3917,69.80,33.80,26.43,240.00,12.00,0.00,30.03,M,6.21,M,M,M,M,M,M,M,M,M,M,YBBN 072300Z 24012KT CAVOK 21/01 Q1017 NOSIG
YBBN,2015-04-07 23:30,153.1292,-27.3917,69.80,33.80,26.43,240.00,15.00,0.00,30.03,M,6.21,M,M,M,M,M,M,M,M,M,M,YBBN 072330Z 24015KT CAVOK 21/01 Q1017
