#DEBUG: Format Typ    -> comma
#DEBUG: Time Period   -> 2014-11-05 00:00:00+00:00 2014-11-06 00:00:00+00:00
#DEBUG: Time Zone     -> Etc/UTC
#DEBUG: Data Contact   -> daryl herzmann akrherz@iastate.edu 515-294-5978
#DEBUG: Entries Found -> -1
station,valid,lon,lat,tmpf, dwpf, relh, drct, sknt, p01i, alti, mslp, vsby, gust, skyc1, skyc2, skyc3, skyc4, skyl1, skyl2, skyl3, skyl4, presentwx, metar
YBBN,2014-11-05 00:00,153.1292,-27.3917,75.20,55.40,50.17,20.00,9.00,0.00,30.12,M,6.21,M,SCT,M,M,M,4000.00,M,M,M,M,YBBN 050000Z 02009KT 9999 SCT040 24/13 Q1020
YBBN,2014-11-05 00:30,153.1292,-27.3917,75.20,55.40,50.17,20.00,11.00,0.00,30.12,M,6.21,M,SCT,M,M,M,4000.00,M,M,M,M,YBBN 050030Z 02011KT 9999 SCT040 24/13 Q1020
YBBN,2014-11-05 01:00,153.1292,-27.3917,75.20,55.40,50.17,30.00,10.00,0.00,30.12,M,6.21,M,FEW,M,M,M,4000.00,M,M,M,M,YBBN 050100Z 03010KT 9999 FEW040 24/13 Q1020 NOSIG
YBBN,2014-11-05 01:30,153.1292,-27.3917,75.20,53.60,46.98,20.00,11.00,0.00,30.09,M,6.21,M,FEW,M,M,M,4000.00,M,M,M,M,YBBN 050130Z 02011KT 9999 FEW040 24/12 Q1019
YBBN,2014-11-05 02:00,153.1292,-27.3917,77.00,53.60,44.25,30.00,10.00,0.00,30.09,M,6.21,M,FEW,SCT,M,M,4000.00,30000.00,M,M,M,YBBN 050200Z 03010KT 9999 FEW040 SCT300 25/12 Q1019 NOSIG
YBBN,2014-11-05 02:30,153.1292,-27.3917,75.20,55.40,50.17,30.00,11.00,0.00,30.09,M,6.21,M,FEW,SCT,M,M,3800.00,30000.00,M,M,M,YBBN 050230Z 03011KT 9999 FEW038 SCT300 24/13 Q1019
YBBN,2014-11-05 03:00,153.1292,-27.3917,75.20,53.60,46.98,40.00,10.00,0.00,30.06,M,6.21,M,FEW,SCT,M,M,3800.00,30000.00,M,M,M,YBBN 050300Z 04010KT 9999 FEW038 SCT300 24/12 Q1018 NOSIG
YBBN,2014-11-05 03:30,153.1292,-27.3917,77.00,55.40,47.25,40.00,12.00,0.00,30.06,M,6.21,M,FEW,SCT,M,M,3800.00,30000.00,M,M,M,YBBN 050330Z 04012KT 9999 FEW038 SCT300 25/13 Q1018
YBBN,2014-11-05 04:00,153.1292,-27.3917,75.20,55.40,50.17,40.00,13.00,0.00,30.03,M,6.21,M,FEW,M,M,M,3800.00,M,M,M,M,YBBN 050400Z 04013KT 9999 FEW038 24/13 Q1017 NOSIG
YBBN,2014-11-05 04:30,153.1292,-27.3917,75.20,55.40,50.17,40.00,12.00,0.00,30.03,M,6.21,M,FEW,M,M,M,3800.00,M,M,M,M,YBBN 050430Z 04012KT 9999 FEW038 24/13 Q1017
YBBN,2014-11-05 05:00,153.1292,-27.3917,75.20,55.40,50.17,40.00,15.00,0.00,30.00,M,6.21,M,FEW,M,M,M,3800.00,M,M,M,M,YBBN 050500Z 04015KT 9999 FEW038 24/13 Q1016
YBBN,2014-11-05 05:30,153.1292,-27.3917,73.40,55.40,53.29,30.00,14.00,0.00,30.00,M,6.21,M,FEW,M,M,M,3800.00,M,M,M,M,YBBN 050530Z 03014KT 9999 FEW038 23/13 Q1016
YBBN,2014-11-05 06:00,153.1292,-27.3917,75.20,55.40,50.17,20.00,13.00,0.00,30.00,M,6.21,M,FEW,M,M,M,3600.00,M,M,M,M,YBBN 050600Z 02013KT 9999 FEW036 24/13 Q1016
YBBN,2014-11-05 06:30,153.1292,-27.3917,73.40,55.40,53.29,40.00,13.00,0.00,30.00,M,6.21,M,FEW,M,M,M,3600.00,M,M,M,M,YBBN 050630Z 04013KT 9999 FEW036 23/13 Q1016
YBBN,2014-11-05 07:00,153.1292,-27.3917,73.40,53.60,49.90,40.00,12.00,0.00,30.00,M,6.21,M,FEW,M,M,M,3500.00,M,M,M,M,YBBN 050700Z 04012KT 9999 FEW035 23/12 Q1016
YBBN,2014-11-05 07:30,153.1292,-27.3917,71.60,53.60,53.03,40.00,11.00,0.00,30.00,M,6.21,M,FEW,M,M,M,3500.00,M,M,M,M,YBBN 050730Z 04011KT 9999 FEW035 22/12 Q1016
YBBN,2014-11-05 08:00,153.1292,-27.3917,69.80,55.40,60.21,40.00,12.00,0.00,30.00,M,6.21,M,FEW,SCT,M,M,3500.00,30000.00,M,M,M,YBBN 050800Z 04012KT 9999 FEW035 SCT300 21/13 Q1016
YBBN,2014-11-05 08:30,153.1292,-27.3917,69.80,55.40,60.21,20.00,13.00,0.00,30.00,M,6.21,M,FEW,SCT,M,M,3200.00,30000.00,M,M,M,YBBN 050830Z 02013KT 9999 FEW032 SCT300 21/13 Q1016
YBBN,2014-11-05 09:00,153.1292,-27.3917,69.80,55.40,60.21,20.00,12.00,0.00,30.03,M,6.21,M,FEW,BKN,M,M,3200.00,30000.00,M,M,M,YBBN 050900Z 02012KT 9999 FEW032 BKN300 21/13 Q1017
YBBN,2014-11-05 09:30,153.1292,-27.3917,69.80,57.20,64.26,30.00,13.00,0.00,30.03,M,6.21,M,FEW,BKN,M,M,3200.00,28000.00,M,M,M,YBBN 050930Z 03013KT 9999 FEW032 BKN280 21/14 Q1017
YBBN,2014-11-05 10:00,153.1292,-27.3917,69.80,57.20,64.26,10.00,12.00,0.00,30.03,M,6.21,M,FEW,SCT,BKN,M,2700.00,3100.00,28000.00,M,M,YBBN 051000Z 01012KT 9999 FEW027 SCT031 BKN280 21/14 Q1017
YBBN,2014-11-05 10:30,153.1292,-27.3917,69.80,57.20,64.26,10.00,14.00,0.00,30.03,M,6.21,M,FEW,SCT,BKN,M,2600.00,3200.00,25000.00,M,M,YBBN 051030Z 01014KT 9999 FEW026 SCT032 BKN250 21/14 Q1017
YBBN,2014-11-05 11:00,153.1292,-27.3917,69.80,57.20,64.26,10.00,14.00,0.00,30.03,M,6.21,M,FEW,SCT,BKN,M,2600.00,3200.00,25000.00,M,M,YBBN 051100Z 01014KT 9999 FEW026 SCT032 BKN250 21/14 Q1017
YBBN,2014-11-05 11:30,153.1292,-27.3917,69.80,57.20,64.26,10.00,9.00,0.00,30.03,M,6.21,M,FEW,SCT,BKN,M,2500.00,3200.00,25000.00,M,M,YBBN 051130Z 01009KT 9999 FEW025 SCT032 BKN250 21/14 Q1017
YBBN,2014-11-05 12:00,153.1292,-27.3917,69.80,57.20,64.26,10.00,10.00,0.00,30.03,M,6.21,M,FEW,SCT,BKN,M,2500.00,3200.00,25000.00,M,M,YBBN 051200Z 01010KT 9999 FEW025 SCT032 BKN250 21/14 Q1017
YBBN,2014-11-05 12:30,153.1292,-27.3917,69.80,57.20,64.26,10.00,12.00,0.00,30.03,M,6.21,M,FEW,SCT,BKN,M,2400.00,3200.00,24000.00,M,M,YBBN 051230Z 01012KT 9999 FEW024 SCT032 BKN240 21/14 Q1017
YBBN,2014-11-05 13:00,153.1292,-27.3917,69.80,57.20,64.26,320.00,8.00,0.00,30.09,M,6.21,M,FEW,BKN,FEW,M,2300.00,3200.00,3400.00,M,M,YBBN 051300Z 32008KT 9999 FEW023 BKN032 FEW034TCU 21/14 Q1019
YBBN,2014-11-05 13:30,153.1292,-27.3917,69.80,57.20,64.26,230.00,10.00,0.00,30.09,M,6.21,M,FEW,SCT,BKN,FEW,2200.00,3200.00,9800.00,3400.00,-SHRA,YBBN 051330Z 23010KT 9999 -SHRA FEW022 SCT032 BKN098 FEW034TCU 21/14 Q1019 RMK -SHRA S/SE
YBBN,2014-11-05 14:00,153.1292,-27.3917,68.00,55.40,64.04,220.00,10.00,0.00,30.09,M,6.21,M,FEW,SCT,BKN,FEW,2000.00,3200.00,10800.00,3400.00,SHRA,YBBN 051400Z 22010KT 9999 SHRA FEW020 SCT032 BKN108 FEW034TCU 20/13 Q1019
YBBN,2014-11-05 14:30,153.1292,-27.3917,68.00,57.20,68.35,140.00,1.00,0.00,30.06,M,6.21,M,FEW,SCT,BKN,M,2300.00,3000.00,11500.00,M,VCSH,YBBN 051430Z 14001KT 9999 VCSH FEW023 SCT030 BKN115 20/14 Q1018 RMK -SHRA N/SE
YBBN,2014-11-05 15:00,153.1292,-27.3917,68.00,57.20,68.35,50.00,2.00,0.00,30.03,M,6.21,M,FEW,SCT,BKN,M,3000.00,11500.00,13800.00,M,VCSH,YBBN 051500Z 05002KT 9999 VCSH FEW030 SCT115 BKN138 20/14 Q1017
YBBN,2014-11-05 15:30,153.1292,-27.3917,66.20,57.20,72.74,360.00,5.00,0.00,30.00,M,6.21,M,FEW,SCT,BKN,M,2600.00,11500.00,13400.00,M,-SHRA,YBBN 051530Z 36005KT 9999 -SHRA FEW026 SCT115 BKN134 19/14 Q1016 RMK -SHRA W/SW
YBBN,2014-11-05 16:00,153.1292,-27.3917,68.00,57.20,68.35,330.00,15.00,0.00,29.94,M,6.21,M,FEW,SCT,BKN,M,2600.00,11500.00,13000.00,M,-SHRA,YBBN 051600Z 33015KT 9999 -SHRA FEW026 SCT115 BKN130 20/14 Q1014 NOSIG
YBBN,2014-11-05 16:14,153.1292,-27.3917,68.00,57.20,68.35,350.00,19.00,0.00,29.88,M,6.21,M,FEW,SCT,BKN,M,2300.00,7600.00,11000.00,M,-SHRA,YBBN 051614Z 35019KT 9999 -SHRA FEW023 SCT076 BKN110 20/14 Q1012
YBBN,2014-11-05 16:30,153.1292,-27.3917,69.80,59.00,68.55,360.00,22.00,0.00,29.88,M,6.21,M,FEW,SCT,BKN,M,2300.00,7800.00,12000.00,M,-SHRA,YBBN 051630Z 36022KT 9999 -SHRA FEW023 SCT078 BKN120 21/15 Q1012
YBBN,2014-11-05 16:48,153.1292,-27.3917,69.80,57.20,64.26,310.00,12.00,0.00,29.91,M,6.21,26.00,FEW,SCT,BKN,M,2400.00,7600.00,13700.00,M,-SHRA,YBBN 051648Z 31012G26KT 9999 -SHRA FEW024 SCT076 BKN137 21/14 Q1013
YBBN,2014-11-05 17:00,153.1292,-27.3917,69.80,57.20,64.26,290.00,7.00,0.00,29.94,M,6.21,M,FEW,SCT,BKN,M,2500.00,13700.00,16500.00,M,VCSH,YBBN 051700Z 29007KT 9999 VCSH FEW025 SCT137 BKN165 21/14 Q1014
YBBN,2014-11-05 17:30,153.1292,-27.3917,68.00,55.40,64.04,260.00,9.00,0.00,29.94,M,6.21,M,FEW,SCT,BKN,M,2200.00,14000.00,18000.00,M,M,YBBN 051730Z 26009KT 9999 FEW022 SCT140 BKN180 20/13 Q1014 RMK DIST -SHRA NE
YBBN,2014-11-05 18:00,153.1292,-27.3917,66.20,55.40,68.15,230.00,8.00,0.00,29.94,M,6.21,M,FEW,SCT,BKN,M,2800.00,16000.00,19500.00,M,M,YBBN 051800Z 23008KT 9999 FEW028 SCT160 BKN195 19/13 Q1014 NOSIG
YBBN,2014-11-05 18:30,153.1292,-27.3917,64.40,57.20,77.45,200.00,6.00,0.00,29.94,M,6.21,M,FEW,SCT,BKN,M,2500.00,18000.00,23000.00,M,M,YBBN 051830Z 20006KT 9999 FEW025 SCT180 BKN230 18/14 Q1014
YBBN,2014-11-05 19:00,153.1292,-27.3917,64.40,57.20,77.45,190.00,6.00,0.00,29.94,M,6.21,M,FEW,SCT,BKN,M,2800.00,20000.00,24000.00,M,M,YBBN 051900Z 19006KT 9999 FEW028 SCT200 BKN240 18/14 Q1014 NOSIG
YBBN,2014-11-05 19:30,153.1292,-27.3917,66.20,57.20,72.74,200.00,6.00,0.00,29.94,M,6.21,M,FEW,BKN,M,M,2800.00,24000.00,M,M,M,YBBN 051930Z 20006KT 9999 FEW028 BKN240 19/14 Q1014
YBBN,2014-11-05 20:00,153.1292,-27.3917,64.40,59.00,82.62,210.00,6.00,0.00,29.97,M,6.21,M,FEW,BKN,M,M,2800.00,24000.00,M,M,M,YBBN 052000Z 21006KT 9999 FEW028 BKN240 18/15 Q1015 NOSIG
YBBN,2014-11-05 20:30,153.1292,-27.3917,66.20,59.00,77.60,200.00,7.00,0.00,29.97,M,6.21,M,M,M,M,M,M,M,M,M,M,YBBN 052030Z 20007KT CAVOK 19/15 Q1015
YBBN,2014-11-05 21:00,153.1292,-27.3917,66.20,59.00,77.60,190.00,5.00,0.00,29.97,M,6.21,M,M,M,M,M,M,M,M,M,M,YBBN 052100Z 19005KT CAVOK 19/15 Q1015 FM2200 35010KT 9999 SCT035
YBBN,2014-11-05 21:30,153.1292,-27.3917,71.60,59.00,64.48,210.00,4.00,0.00,29.97,M,6.21,M,M,M,M,M,M,M,M,M,M,YBBN 052130Z 21004KT CAVOK 22/15 Q1015
YBBN,2014-11-05 22:00,153.1292,-27.3917,71.60,57.20,60.44,360.00,4.00,0.00,29.97,M,6.21,M,FEW,M,M,M,2500.00,M,M,M,M,YBBN 052200Z 36004KT 9999 FEW025 22/14 Q1015 NOSIG
YBBN,2014-11-05 22:30,153.1292,-27.3917,75.20,55.40,50.17,10.00,7.00,0.00,30.00,M,6.21,M,FEW,M,M,M,2500.00,M,M,M,M,YBBN 052230Z 01007KT 9999 FEW025 24/13 Q1016
YBBN,2014-11-05 23:00,153.1292,-27.3917,77.00,55.40,47.25,30.00,8.00,0.00,29.97,M,6.21,M,FEW,M,M,M,2500.00,M,M,M,M,YBBN 052300Z 03008KT 9999 FEW025 25/13 Q1015
YBBN,2014-11-05 23:30,153.1292,-27.3917,77.00,57.20,50.43,20.00,9.00,0.00,29.97,M,6.21,M,FEW,M,M,M,2800.00,M,M,M,M,YBBN 052330Z 02009KT 9999 FEW028 25/14 Q1015
