#DEBUG: Format Typ    -> comma
#DEBUG: Time Period   -> 2010-11-22 00:00:00+00:00 2010-11-23 00:00:00+00:00
#DEBUG: Time Zone     -> Etc/UTC
#DEBUG: Data Contact   -> daryl herzmann akrherz@iastate.edu 515-294-5978
#DEBUG: Entries Found -> -1
station,valid,lon,lat,tmpf, dwpf, relh, drct, sknt, p01i, alti, mslp, vsby, gust, skyc1, skyc2, skyc3, skyc4, skyl1, skyl2, skyl3, skyl4, presentwx, metar
YBBN,2010-11-22 01:30,153.1292,-27.3917,77.00,55.40,47.25,100.00,14.00,M,30.15,M,6.21,M,FEW,SCT,M,M,3500.00,22000.00,M,M,M,YBBN 220130Z 10014KT 9999 FEW035 SCT220 25/13 Q1021 NOSIG
YBBN,2010-11-22 02:00,153.1292,-27.3917,77.00,57.20,50.43,100.00,12.00,M,30.15,M,6.21,M,FEW,SCT,M,M,3500.00,22000.00,M,M,M,YBBN 220200Z 10012KT 9999 FEW035 SCT220 25/14 Q1021 NOSIG
YBBN,2010-11-22 02:30,153.1292,-27.3917,77.00,59.00,53.80,100.00,13.00,M,30.15,M,6.21,M,FEW,SCT,M,M,3500.00,21000.00,M,M,M,YBBN 220230Z 10013KT 9999 FEW035 SCT210 25/15 Q1021 NOSIG
YBBN,2010-11-22 03:00,153.1292,-27.3917,77.00,59.00,53.80,110.00,12.00,M,30.12,M,6.21,M,FEW,SCT,M,M,3500.00,6000.00,M,M,M,YBBN 220300Z 11012KT 9999 FEW035 SCT060 25/15 Q1020 NOSIG
YBBN,2010-11-22 03:30,153.1292,-27.3917,77.00,57.20,50.43,100.00,12.00,M,30.12,M,6.21,M,FEW,BKN,M,M,3500.00,7800.00,M,M,M,YBBN 220330Z 10012KT 9999 FEW035 BKN078 25/14 Q1020 NOSIG
YBBN,2010-11-22 04:00,153.1292,-27.3917,77.00,55.40,47.25,110.00,12.00,M,30.12,M,6.21,M,FEW,SCT,M,M,3500.00,22000.00,M,M,M,YBBN 220400Z 11012KT 9999 FEW035 SCT220 25/13 Q1020 NOSIG
YBBN,2010-11-22 04:30,153.1292,-27.3917,77.00,55.40,47.25,100.00,12.00,M,30.12,M,6.21,M,FEW,BKN,M,M,3500.00,25000.00,M,M,M,YBBN 220430Z 10012KT 9999 FEW035 BKN250 25/13 Q1020 NOSIG
YBBN,2010-11-22 05:00,153.1292,-27.3917,77.00,57.20,50.43,110.00,11.00,M,30.12,M,6.21,M,FEW,SCT,M,M,3500.00,25000.00,M,M,M,YBBN 220500Z 11011KT 9999 FEW035 SCT250 25/14 Q1020 NOSIG
YBBN,2010-11-22 05:30,153.1292,-27.3917,75.20,59.00,57.12,110.00,10.00,M,30.12,M,6.21,M,FEW,SCT,M,M,3500.00,6500.00,M,M,M,YBBN 220530Z 11010KT 9999 FEW035 SCT065 24/15 Q1020 NOSIG
YBBN,2010-11-22 06:00,153.1292,-27.3917,75.20,59.00,57.12,100.00,11.00,M,30.12,M,6.21,M,FEW,SCT,M,M,3500.00,6700.00,M,M,VCSH,YBBN 220600Z 10011KT 9999 VCSH FEW035 SCT067 24/15 Q1020 NOSIG
YBBN,2010-11-22 06:30,153.1292,-27.3917,71.60,62.60,73.27,130.00,12.00,M,30.12,M,6.21,M,FEW,BKN,M,M,3500.00,6800.00,M,M,VCSH,YBBN 220630Z 13012KT 9999 VCSH FEW035 BKN068 22/17 Q1020 NOSIG
YBBN,2010-11-22 07:00,153.1292,-27.3917,71.60,60.80,68.75,140.00,8.00,M,30.12,M,6.21,M,FEW,SCT,M,M,3500.00,6500.00,M,M,VCSH,YBBN 220700Z 14008KT 9999 VCSH FEW035 SCT065 22/16 Q1020 NOSIG
YBBN,2010-11-22 07:30,153.1292,-27.3917,71.60,60.80,68.75,130.00,9.00,M,30.12,M,6.21,M,FEW,SCT,M,M,3500.00,6500.00,M,M,M,YBBN 220730Z 13009KT 9999 FEW035 SCT065 22/16 Q1020 NOSIG
YBBN,2010-11-22 08:00,153.1292,-27.3917,71.60,59.00,64.48,140.00,8.00,M,30.15,M,6.21,M,FEW,SCT,M,M,3500.00,6500.00,M,M,M,YBBN 220800Z 14008KT 9999 FEW035 SCT065 22/15 Q1021 NOSIG
YBBN,2010-11-22 08:30,153.1292,-27.3917,71.60,60.80,68.75,130.00,7.00,M,30.15,M,6.21,M,FEW,SCT,M,M,3500.00,6500.00,M,M,M,YBBN 220830Z 13007KT 9999 FEW035 SCT065 22/16 Q1021 NOSIG
YBBN,2010-11-22 09:00,153.1292,-27.3917,71.60,57.20,60.44,100.00,8.00,M,30.15,M,6.21,M,FEW,SCT,M,M,3500.00,6000.00,M,M,M,YBBN 220900Z 10008KT 9999 FEW035 SCT060 22/14 Q1021 NOSIG
YBBN,2010-11-22 09:30,153.1292,-27.3917,71.60,57.20,60.44,110.00,8.00,M,30.15,M,6.21,M,FEW,SCT,M,M,3500.00,5500.00,M,M,M,YBBN 220930Z 11008KT 9999 FEW035 SCT055 22/14 Q1021 NOSIG
YBBN,2010-11-22 10:00,153.1292,-27.3917,71.60,57.20,60.44,110.00,9.00,M,30.18,M,6.21,M,FEW,M,M,M,3500.00,M,M,M,M,YBBN 221000Z 11009KT 9999 FEW035 22/14 Q1022 NOSIG
YBBN,2010-11-22 10:30,153.1292,-27.3917,71.60,59.00,64.48,100.00,9.00,M,30.18,M,6.21,M,FEW,SCT,M,M,3500.00,27000.00,M,M,M,YBBN 221030Z 10009KT 9999 FEW035 SCT270 22/15 Q1022 NOSIG
YBBN,2010-11-22 11:00,153.1292,-27.3917,71.60,59.00,64.48,100.00,10.00,M,30.18,M,6.21,M,FEW,BKN,M,M,3500.00,27000.00,M,M,M,YBBN 221100Z 10010KT 9999 FEW035 BKN270 22/15 Q1022 NOSIG
YBBN,2010-11-22 11:30,153.1292,-27.3917,71.60,59.00,64.48,100.00,13.00,M,30.18,M,6.21,M,M,M,M,M,M,M,M,M,M,YBBN 221130Z 10013KT CAVOK 22/15 Q1022 NOSIG
YBBN,2010-11-22 12:00,153.1292,-27.3917,71.60,57.20,60.44,110.00,10.00,M,30.18,M,6.21,M,FEW,SCT,M,M,3500.00,27000.00,M,M,M,YBBN 221200Z 11010KT 9999 FEW035 SCT270 22/14 Q1022 NOSIG
YBBN,2010-11-22 12:30,153.1292,-27.3917,71.60,57.20,60.44,110.00,11.00,M,30.18,M,6.21,M,M,M,M,M,M,M,M,M,M,YBBN 221230Z 11011KT CAVOK 22/14 Q1022 NOSIG
YBBN,2010-11-22 13:00,153.1292,-27.3917,71.60,57.20,60.44,110.00,9.00,M,30.18,M,6.21,M,M,M,M,M,M,M,M,M,M,YBBN 221300Z 11009KT CAVOK 22/14 Q1022 NOSIG
YBBN,2010-11-22 13:30,153.1292,-27.3917,71.60,57.20,60.44,110.00,8.00,M,30.18,M,6.21,M,M,M,M,M,M,M,M,M,M,YBBN 221330Z 11008KT CAVOK 22/14 Q1022 NOSIG
YBBN,2010-11-22 14:00,153.1292,-27.3917,71.60,57.20,60.44,110.00,11.00,M,30.15,M,6.21,M,FEW,BKN,BKN,M,3500.00,6900.00,27000.00,M,VCSH,YBBN 221400Z 11011KT 9999 VCSH FEW035 BKN069 BKN270 22/14 Q1021 NOSIG
YBBN,2010-11-22 14:30,153.1292,-27.3917,71.60,59.00,64.48,110.00,11.00,M,30.15,M,6.21,M,FEW,BKN,M,M,3000.00,24000.00,M,M,M,YBBN 221430Z 11011KT 9999 FEW030 BKN240 22/15 Q1021 NOSIG
YBBN,2010-11-22 15:00,153.1292,-27.3917,71.60,59.00,64.48,110.00,10.00,M,30.15,M,6.21,M,M,M,M,M,M,M,M,M,M,YBBN 221500Z 11010KT CAVOK 22/15 Q1021 NOSIG
YBBN,2010-11-22 15:30,153.1292,-27.3917,71.60,57.20,60.44,110.00,9.00,M,30.15,M,6.21,M,M,M,M,M,M,M,M,M,M,YBBN 221530Z 11009KT CAVOK 22/14 Q1021 NOSIG
YBBN,2010-11-22 16:00,153.1292,-27.3917,71.60,57.20,60.44,110.00,9.00,M,30.12,M,6.21,M,M,M,M,M,M,M,M,M,M,YBBN 221600Z 11009KT CAVOK 22/14 Q1020 NOSIG
YBBN,2010-11-22 17:30,153.1292,-27.3917,71.60,57.20,60.44,100.00,10.00,M,30.15,M,6.21,M,M,M,M,M,M,M,M,M,M,YBBN 221730Z 10010KT CAVOK 22/14 Q1021 RMK 6SC069 INTER 1930/2030 3000 SHRA BKN015
YBBN,2010-11-22 18:00,153.1292,-27.3917,71.60,55.40,56.63,110.00,11.00,M,30.15,M,6.21,M,M,M,M,M,M,M,M,M,M,YBBN 221800Z 11011KT CAVOK 22/13 Q1021 RMK 7SC069 INTER 1930/2100 3000 SHRA BKN015
YBBN,2010-11-22 21:00,153.1292,-27.3917,75.20,55.40,50.17,100.00,10.00,M,30.21,M,6.21,M,FEW,SCT,M,M,2200.00,7100.00,M,M,M,YBBN 222100Z 10010KT 9999 FEW022 SCT071 24/13 Q1023 NOSIG
YBBN,2010-11-22 21:30,153.1292,-27.3917,73.40,57.20,56.88,100.00,10.00,M,30.21,M,6.21,M,FEW,BKN,M,M,2500.00,7200.00,M,M,M,YBBN 222130Z 10010KT 9999 FEW025 BKN072 23/14 Q1023 NOSIG
YBBN,2010-11-22 22:00,153.1292,-27.3917,73.40,55.40,53.29,110.00,13.00,M,30.21,M,6.21,M,FEW,BKN,M,M,3000.00,7400.00,M,M,M,YBBN 222200Z 11013KT 9999 FEW030 BKN074 23/13 Q1023 NOSIG
YBBN,2010-11-22 22:30,153.1292,-27.3917,75.20,55.40,50.17,100.00,15.00,M,30.21,M,6.21,M,FEW,BKN,M,M,3200.00,7400.00,M,M,M,YBBN 222230Z 10015KT 9999 FEW032 BKN074 24/13 Q1023 NOSIG
YBBN,2010-11-22 23:00,153.1292,-27.3917,75.20,55.40,50.17,100.00,14.00,M,30.21,M,6.21,24.00,FEW,BKN,M,M,3500.00,7500.00,M,M,M,YBBN 222300Z 10014G24KT 9999 FEW035 BKN075 24/13 Q1023 NOSIG
YBBN,2010-11-22 23:30,153.1292,-27.3917,77.00,55.40,47.25,100.00,14.00,M,30.21,M,6.21,M,FEW,BKN,M,M,3500.00,7500.00,M,M,M,YBBN 222330Z 10014KT 9999 FEW035 BKN075 25/13 Q1023 NOSIG
