#DEBUG: Format Typ    -> comma
#DEBUG: Time Period   -> 2013-02-22 00:00:00+00:00 2013-02-23 00:00:00+00:00
#DEBUG: Time Zone     -> Etc/UTC
#DEBUG: Data Contact   -> daryl herzmann akrherz@iastate.edu 515-294-5978
#DEBUG: Entries Found -> -1
station,valid,lon,lat,tmpf, dwpf, relh, drct, sknt, p01i, alti, mslp, vsby, gust, skyc1, skyc2, skyc3, skyc4, skyl1, skyl2, skyl3, skyl4, presentwx, metar
YBBN,2013-02-22 00:00,153.1292,-27.3917,78.80,62.60,57.60,230.00,19.00,0.00,29.65,M,6.21,M,SCT,BKN,M,M,3700.00,16000.00,M,M,-SHRA,YBBN 220000Z 23019KT 9999 -SHRA SCT037 BKN160 26/17 Q1004
YBBN,2013-02-22 00:12,153.1292,-27.3917,77.00,62.60,61.13,230.00,20.00,0.00,29.65,M,6.21,32.00,SCT,BKN,M,M,3700.00,16000.00,M,M,M,YBBN 220012Z 23020G32KT 9999 SCT037 BKN160 25/17 Q1004
YBBN,2013-02-22 00:30,153.1292,-27.3917,78.80,62.60,57.60,220.00,20.00,0.00,29.65,M,6.21,M,BKN,BKN,M,M,3800.00,16000.00,M,M,M,YBBN 220030Z 22020KT 9999 BKN038 BKN160 26/17 Q1004
YBBN,2013-02-22 01:00,153.1292,-27.3917,80.60,62.60,54.30,230.00,18.00,0.00,29.65,M,6.21,M,BKN,BKN,M,M,4000.00,16000.00,M,M,M,YBBN 220100Z 23018KT 9999 BKN040 BKN160 27/17 Q1004
YBBN,2013-02-22 01:30,153.1292,-27.3917,82.40,64.40,54.55,230.00,21.00,0.00,29.65,M,6.21,M,SCT,BKN,M,M,4000.00,16000.00,M,M,M,YBBN 220130Z 23021KT 9999 SCT040 BKN160 28/18 Q1004
YBBN,2013-02-22 02:00,153.1292,-27.3917,78.80,64.40,61.36,250.00,17.00,0.00,29.62,M,6.21,M,SCT,BKN,M,M,4000.00,5000.00,M,M,M,YBBN 220200Z 25017KT 9999 SCT040 BKN050 26/18 Q1003 NOSIG
YBBN,2013-02-22 02:30,153.1292,-27.3917,80.60,64.40,57.84,220.00,16.00,0.00,29.62,M,6.21,M,SCT,BKN,M,M,4000.00,5000.00,M,M,M,YBBN 220230Z 22016KT 9999 SCT040 BKN050 27/18 Q1003
YBBN,2013-02-22 02:56,153.1292,-27.3917,82.40,62.60,51.21,250.00,21.00,0.00,29.62,M,6.21,M,SCT,SCT,BKN,M,4000.00,12000.00,27000.00,M,M,YBBN 220256Z 25021KT 9999 SCT040 SCT120 BKN270 28/17 Q1003
YBBN,2013-02-22 03:00,153.1292,-27.3917,82.40,64.40,54.55,240.00,20.00,0.00,29.59,M,6.21,M,SCT,BKN,BKN,M,4200.00,12000.00,27000.00,M,M,YBBN 220300Z 24020KT 9999 SCT042 BKN120 BKN270 28/18 Q1002 NOSIG
YBBN,2013-02-22 03:08,153.1292,-27.3917,80.60,64.40,57.84,230.00,21.00,0.00,29.62,M,6.21,33.00,BKN,BKN,M,M,4300.00,14000.00,M,M,M,YBBN 220308Z 23021G33KT 9999 BKN043 BKN140 27/18 Q1003
YBBN,2013-02-22 03:30,153.1292,-27.3917,82.40,64.40,54.55,240.00,20.00,0.00,29.59,M,6.21,M,SCT,BKN,BKN,M,4300.00,16000.00,27000.00,M,M,YBBN 220330Z 24020KT 9999 SCT043 BKN160 BKN270 28/18 Q1002
YBBN,2013-02-22 03:42,153.1292,-27.3917,82.40,62.60,51.21,210.00,17.00,0.00,29.59,M,6.21,M,FEW,BKN,BKN,M,4300.00,12000.00,27000.00,M,M,YBBN 220342Z 21017KT 9999 FEW043 BKN120 BKN270 28/17 Q1002
YBBN,2013-02-22 04:00,153.1292,-27.3917,82.40,64.40,54.55,230.00,22.00,0.00,29.59,M,6.21,M,FEW,BKN,M,M,4500.00,11500.00,M,M,M,YBBN 220400Z 23022KT 9999 FEW045 BKN115 28/18 Q1002 FM0415 24018KT 9999 -SHRA SCT040
YBBN,2013-02-22 04:25,153.1292,-27.3917,82.40,62.60,51.21,220.00,21.00,0.00,29.59,M,6.21,31.00,FEW,SCT,BKN,M,3000.00,11500.00,27000.00,M,M,YBBN 220425Z 22021G31KT 9999 FEW030 SCT115 BKN270 28/17 Q1002
YBBN,2013-02-22 04:34,153.1292,-27.3917,84.20,60.80,45.34,220.00,23.00,0.00,29.59,M,6.21,33.00,FEW,BKN,M,M,3000.00,18000.00,M,M,M,YBBN 220434Z 22023G33KT 9999 FEW030 BKN180 29/16 Q1002
YBBN,2013-02-22 04:47,153.1292,-27.3917,82.40,60.80,48.05,250.00,25.00,0.00,29.59,M,6.21,M,FEW,BKN,M,M,3000.00,18000.00,M,M,M,YBBN 220447Z 25025KT 9999 FEW030 BKN180 28/16 Q1002
YBBN,2013-02-22 04:56,153.1292,-27.3917,82.40,60.80,48.05,240.00,28.00,0.00,29.59,M,6.21,38.00,FEW,BKN,M,M,3000.00,18000.00,M,M,M,YBBN 220456Z 24028G38KT 9999 FEW030 BKN180 28/16 Q1002
YBBN,2013-02-22 05:00,153.1292,-27.3917,80.60,59.00,47.79,230.00,28.00,0.00,29.59,M,6.21,38.00,FEW,BKN,M,M,3000.00,14000.00,M,M,M,YBBN 220500Z 23028G38KT 9999 FEW030 BKN140 27/15 Q1002
YBBN,2013-02-22 05:30,153.1292,-27.3917,84.20,59.00,42.52,230.00,23.00,0.00,29.56,M,6.21,33.00,FEW,BKN,M,M,3000.00,11000.00,M,M,M,YBBN 220530Z 23023G33KT 9999 FEW030 BKN110 29/15 Q1001
YBBN,2013-02-22 06:00,153.1292,-27.3917,82.40,59.00,45.07,220.00,21.00,0.00,29.56,M,6.21,31.00,FEW,BKN,M,M,3000.00,11000.00,M,M,M,YBBN 220600Z 22021G31KT 9999 FEW030 BKN110 28/15 Q1001
YBBN,2013-02-22 06:30,153.1292,-27.3917,82.40,57.20,42.25,230.00,18.00,0.00,29.56,M,6.21,28.00,FEW,BKN,M,M,4000.00,11000.00,M,M,M,YBBN 220630Z 23018G28KT 9999 FEW040 BKN110 28/14 Q1001
YBBN,2013-02-22 07:00,153.1292,-27.3917,82.40,57.20,42.25,250.00,15.00,0.00,29.56,M,6.21,M,FEW,BKN,M,M,4300.00,27000.00,M,M,M,YBBN 220700Z 25015KT 9999 FEW043 BKN270 28/14 Q1001 FM0830 30014KT 9999 -SHRA FEW030
YBBN,2013-02-22 07:30,153.1292,-27.3917,80.60,59.00,47.79,260.00,17.00,0.00,29.56,M,6.21,M,FEW,BKN,M,M,4300.00,27000.00,M,M,M,YBBN 220730Z 26017KT 9999 FEW043 BKN270 27/15 Q1001
YBBN,2013-02-22 08:00,153.1292,-27.3917,80.60,60.80,50.95,280.00,10.00,0.00,29.56,M,6.21,M,FEW,BKN,M,M,4000.00,28000.00,M,M,M,YBBN 220800Z 28010KT 9999 FEW040 BKN280 27/16 Q1001
YBBN,2013-02-22 08:30,153.1292,-27.3917,80.60,62.60,54.30,310.00,9.00,0.00,29.56,M,6.21,M,FEW,SCT,BKN,M,4000.00,13500.00,28000.00,M,M,YBBN 220830Z 31009KT 9999 FEW040 SCT135 BKN280 27/17 Q1001
YBBN,2013-02-22 09:00,153.1292,-27.3917,78.80,62.60,57.60,310.00,10.00,0.00,29.56,M,6.21,M,FEW,SCT,BKN,M,4000.00,6000.00,28000.00,M,M,YBBN 220900Z 31010KT 9999 FEW040 SCT060 BKN280 26/17 Q1001 NOSIG
YBBN,2013-02-22 09:30,153.1292,-27.3917,78.80,64.40,61.36,300.00,8.00,0.00,29.56,M,6.21,M,FEW,SCT,BKN,M,4000.00,13500.00,28000.00,M,VCSH,YBBN 220930Z 30008KT 9999 VCSH FEW040 SCT135 BKN280 26/18 Q1001
YBBN,2013-02-22 10:00,153.1292,-27.3917,78.80,62.60,57.60,330.00,10.00,0.00,29.56,M,6.21,M,FEW,SCT,BKN,M,4000.00,13500.00,28000.00,M,M,YBBN 221000Z 33010KT 9999 FEW040 SCT135 BKN280 26/17 Q1001 NOSIG
YBBN,2013-02-22 10:30,153.1292,-27.3917,78.80,59.00,50.69,310.00,12.00,0.00,29.56,M,6.21,M,FEW,BKN,M,M,4000.00,11000.00,M,M,VCSH,YBBN 221030Z 31012KT 9999 VCSH FEW040 BKN110 26/15 Q1001
YBBN,2013-02-22 10:54,153.1292,-27.3917,71.60,62.60,73.27,230.00,20.00,0.00,29.59,M,6.21,M,FEW,BKN,M,M,1800.00,6000.00,M,M,-SHRA,YBBN 221054Z 23020KT 9999 -SHRA FEW018 BKN060 22/17 Q1002
YBBN,2013-02-22 11:00,153.1292,-27.3917,71.60,62.60,73.27,220.00,17.00,0.00,29.59,M,6.21,M,FEW,SCT,BKN,M,1800.00,6000.00,10500.00,M,VCSH,YBBN 221100Z 22017KT 9999 VCSH FEW018 SCT060 BKN105 22/17 Q1002 FM1110 30010KT 9999 -SHRA FEW030
YBBN,2013-02-22 11:30,153.1292,-27.3917,71.60,64.40,78.04,260.00,3.00,0.00,29.59,M,6.21,M,FEW,SCT,BKN,M,2000.00,6000.00,10000.00,M,M,YBBN 221130Z 26003KT 9999 FEW020 SCT060 BKN100 22/18 Q1002
YBBN,2013-02-22 12:00,153.1292,-27.3917,77.00,59.00,53.80,300.00,9.00,0.00,29.59,M,6.21,M,FEW,SCT,BKN,M,3000.00,10000.00,14000.00,M,M,YBBN 221200Z 30009KT 9999 FEW030 SCT100 BKN140 25/15 Q1002 NOSIG
YBBN,2013-02-22 12:30,153.1292,-27.3917,77.00,57.20,50.43,330.00,10.00,0.00,29.56,M,6.21,M,FEW,SCT,BKN,M,3000.00,14000.00,28000.00,M,M,YBBN 221230Z 33010KT 9999 FEW030 SCT140 BKN280 25/14 Q1001
YBBN,2013-02-22 13:00,153.1292,-27.3917,77.00,57.20,50.43,290.00,11.00,0.00,29.56,M,6.21,M,FEW,BKN,M,M,3000.00,28000.00,M,M,M,YBBN 221300Z 29011KT 9999 FEW030 BKN280 25/14 Q1001 NOSIG
YBBN,2013-02-22 13:30,153.1292,-27.3917,77.00,57.20,50.43,290.00,11.00,0.00,29.56,M,6.21,M,FEW,BKN,M,M,3000.00,28000.00,M,M,M,YBBN 221330Z 29011KT 9999 FEW030 BKN280 25/14 Q1001
YBBN,2013-02-22 14:00,153.1292,-27.3917,77.00,57.20,50.43,310.00,12.00,0.00,29.56,M,6.21,M,FEW,BKN,M,M,3000.00,28000.00,M,M,M,YBBN 221400Z 31012KT 9999 FEW030 BKN280 25/14 Q1001 NOSIG
YBBN,2013-02-22 14:30,153.1292,-27.3917,75.20,59.00,57.12,310.00,9.00,0.00,29.56,M,6.21,M,FEW,BKN,M,M,3000.00,28000.00,M,M,M,YBBN 221430Z 31009KT 9999 FEW030 BKN280 24/15 Q1001
YBBN,2013-02-22 15:00,153.1292,-27.3917,75.20,59.00,57.12,310.00,13.00,0.00,29.56,M,6.21,M,FEW,BKN,M,M,3000.00,28000.00,M,M,M,YBBN 221500Z 31013KT 9999 FEW030 BKN280 24/15 Q1001
YBBN,2013-02-22 15:30,153.1292,-27.3917,75.20,59.00,57.12,320.00,10.00,0.00,29.56,M,6.21,M,FEW,BKN,M,M,4000.00,28000.00,M,M,M,YBBN 221530Z 32010KT 9999 FEW040 BKN280 24/15 Q1001
YBBN,2013-02-22 16:00,153.1292,-27.3917,75.20,59.00,57.12,310.00,11.00,0.00,29.56,M,6.21,M,FEW,BKN,M,M,4000.00,28000.00,M,M,M,YBBN 221600Z 31011KT 9999 FEW040 BKN280 24/15 Q1001
YBBN,2013-02-22 16:30,153.1292,-27.3917,75.20,59.00,57.12,310.00,11.00,0.00,29.56,M,6.21,M,FEW,BKN,M,M,4200.00,28000.00,M,M,M,YBBN 221630Z 31011KT 9999 FEW042 BKN280 24/15 Q1001
YBBN,2013-02-22 17:00,153.1292,-27.3917,73.40,59.00,60.67,310.00,10.00,0.00,29.56,M,6.21,M,FEW,BKN,M,M,4200.00,28000.00,M,M,M,YBBN 221700Z 31010KT 9999 FEW042 BKN280 23/15 Q1001 NOSIG
YBBN,2013-02-22 17:30,153.1292,-27.3917,73.40,59.00,60.67,320.00,8.00,0.00,29.59,M,6.21,M,FEW,BKN,M,M,4200.00,28000.00,M,M,M,YBBN 221730Z 32008KT 9999 FEW042 BKN280 23/15 Q1002
YBBN,2013-02-22 18:00,153.1292,-27.3917,73.40,59.00,60.67,330.00,10.00,0.00,29.59,M,6.21,M,FEW,BKN,M,M,4200.00,28000.00,M,M,M,YBBN 221800Z 33010KT 9999 FEW042 BKN280 23/15 Q1002 NOSIG
YBBN,2013-02-22 18:30,153.1292,-27.3917,71.60,60.80,68.75,330.00,10.00,0.00,29.59,M,6.21,M,FEW,BKN,M,M,4200.00,28000.00,M,M,M,YBBN 221830Z 33010KT 9999 FEW042 BKN280 22/16 Q1002
YBBN,2013-02-22 19:00,153.1292,-27.3917,71.60,59.00,64.48,340.00,11.00,0.00,29.62,M,6.21,M,FEW,SCT,M,M,4200.00,28000.00,M,M,M,YBBN 221900Z 34011KT 9999 FEW042 SCT280 22/15 Q1003
YBBN,2013-02-22 19:30,153.1292,-27.3917,71.60,60.80,68.75,340.00,14.00,0.00,29.62,M,6.21,M,FEW,SCT,M,M,4200.00,28000.00,M,M,M,YBBN 221930Z 34014KT 9999 FEW042 SCT280 22/16 Q1003
YBBN,2013-02-22 20:00,153.1292,-27.3917,73.40,60.80,64.69,350.00,13.00,0.00,29.65,M,6.21,M,FEW,M,M,M,4200.00,M,M,M,M,YBBN 222000Z 35013KT 9999 FEW042 23/16 Q1004
YBBN,2013-02-22 20:30,153.1292,-27.3917,73.40,60.80,64.69,330.00,13.00,0.00,29.65,M,6.21,M,FEW,M,M,M,4200.00,M,M,M,M,YBBN 222030Z 33013KT 9999 FEW042 23/16 Q1004
YBBN,2013-02-22 21:00,153.1292,-27.3917,75.20,60.80,60.90,320.00,7.00,0.00,29.68,M,6.21,M,FEW,M,M,M,4000.00,M,M,M,M,YBBN 222100Z 32007KT 9999 FEW040 24/16 Q1005
YBBN,2013-02-22 21:30,153.1292,-27.3917,77.00,60.80,57.36,330.00,9.00,0.00,29.71,M,6.21,M,FEW,M,M,M,4200.00,M,M,M,M,YBBN 222130Z 33009KT 9999 FEW042 25/16 Q1006
YBBN,2013-02-22 22:00,153.1292,-27.3917,78.80,59.00,50.69,330.00,10.00,0.00,29.71,M,6.21,M,FEW,M,M,M,4200.00,M,M,M,M,YBBN 222200Z 33010KT 9999 FEW042 26/15 Q1006
YBBN,2013-02-22 22:30,153.1292,-27.3917,78.80,60.80,54.05,320.00,11.00,0.00,29.71,M,6.21,M,FEW,M,M,M,4000.00,M,M,M,M,YBBN 222230Z 32011KT 9999 FEW040 26/16 Q1006
YBBN,2013-02-22 23:00,153.1292,-27.3917,80.60,60.80,50.95,320.00,9.00,0.00,29.74,M,6.21,M,FEW,M,M,M,4000.00,M,M,M,M,YBBN 222300Z 32009KT 9999 FEW040 27/16 Q1007
YBBN,2013-02-22 23:30,153.1292,-27.3917,82.40,60.80,48.05,340.00,10.00,0.00,29.74,M,6.21,M,FEW,M,M,M,4000.00,M,M,M,M,YBBN 222330Z 34010KT 9999 FEW040 28/16 Q1007
