#DEBUG: Format Typ    -> comma
#DEBUG: Time Period   -> 2010-08-25 00:00:00+00:00 2010-08-26 00:00:00+00:00
#DEBUG: Time Zone     -> Etc/UTC
#DEBUG: Data Contact   -> daryl herzmann akrherz@iastate.edu 515-294-5978
#DEBUG: Entries Found -> -1
station,valid,lon,lat,tmpf, dwpf, relh, drct, sknt, p01i, alti, mslp, vsby, gust, skyc1, skyc2, skyc3, skyc4, skyl1, skyl2, skyl3, skyl4, presentwx, metar
YBBN,2010-08-25 00:00,153.1292,-27.3917,60.80,44.60,55.12,270.00,8.00,M,29.94,M,6.21,M,FEW,BKN,BKN,M,3000.00,13000.00,20000.00,M,M,YBBN 250000Z 27008KT 9999 FEW030 BKN130 BKN200 16/07 Q1014 NOSIG
YBBN,2010-08-25 00:30,153.1292,-27.3917,60.80,44.60,55.12,270.00,10.00,M,29.91,M,6.21,M,FEW,BKN,BKN,M,3000.00,13000.00,18000.00,M,M,YBBN 250030Z 27010KT 9999 FEW030 BKN130 BKN180 16/07 Q1013 NOSIG
YBBN,2010-08-25 01:00,153.1292,-27.3917,60.80,44.60,55.12,270.00,12.00,M,29.91,M,6.21,M,FEW,BKN,BKN,M,4000.00,14000.00,19000.00,M,M,YBBN 250100Z 27012KT 9999 FEW040 BKN140 BKN190 16/07 Q1013 NOSIG
YBBN,2010-08-25 01:30,153.1292,-27.3917,62.60,44.60,51.72,270.00,13.00,M,29.88,M,6.21,M,FEW,BKN,BKN,M,4000.00,14000.00,25000.00,M,M,YBBN 250130Z 27013KT 9999 FEW040 BKN140 BKN250 17/07 Q1012 NOSIG
YBBN,2010-08-25 02:00,153.1292,-27.3917,62.60,44.60,51.72,260.00,15.00,M,29.88,M,6.21,M,FEW,BKN,BKN,M,4000.00,14000.00,22000.00,M,M,YBBN 250200Z 26015KT 9999 FEW040 BKN140 BKN220 17/07 Q1012 NOSIG
YBBN,2010-08-25 02:30,153.1292,-27.3917,62.60,44.60,51.72,270.00,10.00,M,29.85,M,6.21,M,FEW,BKN,BKN,M,3500.00,14000.00,22000.00,M,M,YBBN 250230Z 27010KT 9999 FEW035 BKN140 BKN220 17/07 Q1011 NOSIG
YBBN,2010-08-25 03:00,153.1292,-27.3917,62.60,44.60,51.72,290.00,7.00,M,29.85,M,6.21,M,FEW,BKN,M,M,3500.00,14000.00,M,M,M,YBBN 250300Z 29007KT 9999 FEW035 BKN140 17/07 Q1011 NOSIG
YBBN,2010-08-25 03:30,153.1292,-27.3917,64.40,42.80,45.32,290.00,10.00,M,29.83,M,6.21,M,FEW,BKN,M,M,3500.00,14000.00,M,M,M,YBBN 250330Z 29010KT 9999 FEW035 BKN140 18/06 Q1010 NOSIG
YBBN,2010-08-25 04:00,153.1292,-27.3917,64.40,42.80,45.32,280.00,9.00,M,29.83,M,6.21,M,FEW,BKN,M,M,3500.00,14000.00,M,M,M,YBBN 250400Z 28009KT 9999 FEW035 BKN140 18/06 Q1010 NOSIG
YBBN,2010-08-25 05:00,153.1292,-27.3917,64.40,44.60,48.55,280.00,12.00,M,29.83,M,6.21,M,FEW,BKN,M,M,3500.00,13000.00,M,M,M,YBBN 250500Z 28012KT 9999 FEW035 BKN130 18/07 Q1010 RMK VIRGA NOSIG
YBBN,2010-08-25 05:30,153.1292,-27.3917,64.40,44.60,48.55,310.00,8.00,M,29.83,M,6.21,M,FEW,BKN,M,M,3500.00,12000.00,M,M,M,YBBN 250530Z 31008KT 9999 FEW035 BKN120 18/07 Q1010 NOSIG
YBBN,2010-08-25 06:00,153.1292,-27.3917,64.40,44.60,48.55,290.00,8.00,M,29.83,M,6.21,M,FEW,SCT,BKN,M,3500.00,11000.00,13000.00,M,M,YBBN 250600Z 29008KT 9999 FEW035 SCT110 BKN130 18/07 Q1010 NOSIG
YBBN,2010-08-25 06:30,153.1292,-27.3917,62.60,44.60,51.72,290.00,7.00,M,29.83,M,6.21,M,FEW,SCT,BKN,M,3500.00,11000.00,13000.00,M,M,YBBN 250630Z 29007KT 9999 FEW035 SCT110 BKN130 17/07 Q1010 NOSIG
YBBN,2010-08-25 07:00,153.1292,-27.3917,62.60,46.40,55.37,290.00,7.00,M,29.83,M,6.21,M,FEW,BKN,BKN,M,3500.00,11000.00,15000.00,M,M,YBBN 250700Z 29007KT 9999 FEW035 BKN110 BKN150 17/08 Q1010 NOSIG
YBBN,2010-08-25 07:30,153.1292,-27.3917,62.60,46.40,55.37,300.00,5.00,M,29.85,M,6.21,M,FEW,BKN,M,M,3500.00,10000.00,M,M,M,YBBN 250730Z 30005KT 9999 FEW035 BKN100 17/08 Q1011 NOSIG
YBBN,2010-08-25 08:00,153.1292,-27.3917,62.60,46.40,55.37,290.00,7.00,M,29.85,M,6.21,M,FEW,BKN,M,M,3000.00,10000.00,M,M,M,YBBN 250800Z 29007KT 9999 FEW030 BKN100 17/08 Q1011 NOSIG
YBBN,2010-08-25 08:30,153.1292,-27.3917,62.60,46.40,55.37,310.00,7.00,M,29.85,M,6.21,M,FEW,OVC,M,M,3000.00,12000.00,M,M,M,YBBN 250830Z 31007KT 9999 FEW030 OVC120 17/08 Q1011 NOSIG
YBBN,2010-08-25 09:00,153.1292,-27.3917,62.60,46.40,55.37,290.00,6.00,M,29.85,M,6.21,M,FEW,OVC,M,M,2500.00,10000.00,M,M,M,YBBN 250900Z 29006KT 9999 FEW025 OVC100 17/08 Q1011 NOSIG
YBBN,2010-08-25 09:30,153.1292,-27.3917,62.60,46.40,55.37,310.00,6.00,M,29.88,M,6.21,M,FEW,BKN,M,M,2500.00,10000.00,M,M,M,YBBN 250930Z 31006KT 9999 FEW025 BKN100 17/08 Q1012 NOSIG
YBBN,2010-08-25 10:00,153.1292,-27.3917,60.80,46.40,59.01,320.00,6.00,M,29.88,M,6.21,M,FEW,BKN,M,M,2500.00,11000.00,M,M,M,YBBN 251000Z 32006KT 9999 FEW025 BKN110 16/08 Q1012 NOSIG
YBBN,2010-08-25 10:30,153.1292,-27.3917,60.80,46.40,59.01,280.00,7.00,M,29.88,M,6.21,M,M,M,M,M,M,M,M,M,M,YBBN 251030Z 28007KT CAVOK 16/08 Q1012 RMK 8AC100 NOSIG
YBBN,2010-08-25 11:00,153.1292,-27.3917,60.80,46.40,59.01,340.00,5.00,M,29.88,M,6.21,M,M,M,M,M,M,M,M,M,M,YBBN 251100Z 34005KT CAVOK 16/08 Q1012 RMK 8AC095 NOSIG
YBBN,2010-08-25 11:30,153.1292,-27.3917,60.80,46.40,59.01,330.00,6.00,M,29.88,M,6.21,M,FEW,OVC,M,M,3000.00,9000.00,M,M,VCSH,YBBN 251130Z 33006KT 9999 VCSH FEW030 OVC090 16/08 Q1012 NOSIG
YBBN,2010-08-25 12:00,153.1292,-27.3917,60.80,46.40,59.01,310.00,6.00,M,29.88,M,6.21,M,FEW,OVC,M,M,3000.00,9000.00,M,M,M,YBBN 251200Z 31006KT 9999 FEW030 OVC090 16/08 Q1012 NOSIG
YBBN,2010-08-25 12:30,153.1292,-27.3917,59.00,48.20,67.33,330.00,8.00,M,29.88,M,6.21,M,FEW,OVC,M,M,3000.00,9500.00,M,M,M,YBBN 251230Z 33008KT 9999 FEW030 OVC095 15/09 Q1012 NOSIG
YBBN,2010-08-25 13:00,153.1292,-27.3917,59.00,48.20,67.33,320.00,9.00,M,29.88,M,6.21,M,FEW,OVC,M,M,3000.00,10000.00,M,M,M,YBBN 251300Z 32009KT 9999 FEW030 OVC100 15/09 Q1012 NOSIG
YBBN,2010-08-25 13:30,153.1292,-27.3917,59.00,48.20,67.33,330.00,11.00,M,29.88,M,6.21,M,FEW,SCT,BKN,M,300.00,6500.00,9500.00,M,M,YBBN 251330Z 33011KT 9999 FEW003 SCT065 BKN095 15/09 Q1012 NOSIG
YBBN,2010-08-25 14:00,153.1292,-27.3917,59.00,50.00,72.01,320.00,12.00,M,29.88,M,6.21,M,FEW,BKN,BKN,M,3000.00,6000.00,9000.00,M,M,YBBN 251400Z 32012KT 9999 FEW030 BKN060 BKN090 15/10 Q1012 NOSIG
YBBN,2010-08-25 14:30,153.1292,-27.3917,59.00,48.20,67.33,300.00,10.00,M,29.88,M,6.21,M,FEW,SCT,BKN,M,3000.00,6500.00,13000.00,M,M,YBBN 251430Z 30010KT 9999 FEW030 SCT065 BKN130 15/09 Q1012 NOSIG
YBBN,2010-08-25 15:00,153.1292,-27.3917,57.20,50.00,76.82,310.00,10.00,M,29.88,M,6.21,M,FEW,SCT,BKN,M,3000.00,5500.00,13000.00,M,M,YBBN 251500Z 31010KT 9999 FEW030 SCT055 BKN130 14/10 Q1012 NOSIG
YBBN,2010-08-25 15:30,153.1292,-27.3917,57.20,50.00,76.82,310.00,9.00,M,29.88,M,6.21,M,M,M,M,M,M,M,M,M,M,YBBN 251530Z 31009KT CAVOK 14/10 Q1012 RMK 7AC160 NOSIG
YBBN,2010-08-25 16:00,153.1292,-27.3917,57.20,50.00,76.82,320.00,7.00,M,29.85,M,6.21,M,M,M,M,M,M,M,M,M,M,YBBN 251600Z 32007KT CAVOK 14/10 Q1011 RMK 7AC130 NOSIG
YBBN,2010-08-25 16:30,153.1292,-27.3917,57.20,50.00,76.82,300.00,7.00,M,29.85,M,6.21,M,M,M,M,M,M,M,M,M,M,YBBN 251630Z 30007KT CAVOK 14/10 Q1011 RMK 7AC130 NOSIG
YBBN,2010-08-25 17:00,153.1292,-27.3917,57.20,48.20,71.83,350.00,7.00,M,29.85,M,6.21,M,FEW,SCT,BKN,M,3000.00,6500.00,15000.00,M,M,YBBN 251700Z 35007KT 9999 FEW030 SCT065 BKN150 14/09 Q1011 NOSIG
YBBN,2010-08-25 17:30,153.1292,-27.3917,57.20,48.20,71.83,330.00,6.00,M,29.85,M,6.21,M,FEW,OVC,M,M,3000.00,17000.00,M,M,M,YBBN 251730Z 33006KT 9999 FEW030 OVC170 14/09 Q1011 NOSIG
YBBN,2010-08-25 18:00,153.1292,-27.3917,57.20,48.20,71.83,300.00,11.00,M,29.85,M,6.21,M,FEW,BKN,M,M,3000.00,17000.00,M,M,M,YBBN 251800Z 30011KT 9999 FEW030 BKN170 14/09 Q1011 NOSIG
YBBN,2010-08-25 18:30,153.1292,-27.3917,57.20,48.20,71.83,300.00,11.00,M,29.85,M,6.21,M,FEW,SCT,BKN,M,3000.00,6000.00,19000.00,M,M,YBBN 251830Z 30011KT 9999 FEW030 SCT060 BKN190 14/09 Q1011 NOSIG
YBBN,2010-08-25 19:00,153.1292,-27.3917,57.20,46.40,67.12,290.00,9.00,M,29.85,M,6.21,M,M,M,M,M,M,M,M,M,M,YBBN 251900Z 29009KT CAVOK 14/08 Q1011 RMK 7AC200 NOSIG
YBBN,2010-08-25 19:30,153.1292,-27.3917,59.00,44.60,58.77,280.00,11.00,M,29.85,M,6.21,M,FEW,BKN,M,M,3000.00,20000.00,M,M,M,YBBN 251930Z 28011KT 9999 FEW030 BKN200 15/07 Q1011 NOSIG
YBBN,2010-08-25 20:00,153.1292,-27.3917,57.20,44.60,62.69,280.00,10.00,M,29.88,M,6.21,M,FEW,SCT,BKN,M,3000.00,17000.00,22000.00,M,M,YBBN 252000Z 28010KT 9999 FEW030 SCT170 BKN220 14/07 Q1012 NOSIG
YBBN,2010-08-25 20:30,153.1292,-27.3917,59.00,44.60,58.77,290.00,13.00,M,29.88,M,6.21,M,FEW,BKN,M,M,3000.00,22000.00,M,M,M,YBBN 252030Z 29013KT 9999 FEW030 BKN220 15/07 Q1012 NOSIG
YBBN,2010-08-25 21:00,153.1292,-27.3917,57.20,44.60,62.69,280.00,11.00,M,29.88,M,6.21,M,FEW,BKN,M,M,3000.00,24000.00,M,M,M,YBBN 252100Z 28011KT 9999 FEW030 BKN240 14/07 Q1012 NOSIG
YBBN,2010-08-25 21:30,153.1292,-27.3917,57.20,46.40,67.12,250.00,13.00,M,29.88,M,6.21,M,FEW,BKN,M,M,3000.00,24000.00,M,M,M,YBBN 252130Z 25013KT 9999 FEW030 BKN240 14/08 Q1012 NOSIG
YBBN,2010-08-25 22:00,153.1292,-27.3917,57.20,44.60,62.69,260.00,13.00,M,29.91,M,6.21,M,FEW,BKN,M,M,3000.00,24000.00,M,M,M,YBBN 252200Z 26013KT 9999 FEW030 BKN240 14/07 Q1013 NOSIG
YBBN,2010-08-25 22:30,153.1292,-27.3917,57.20,42.80,58.52,270.00,17.00,M,29.91,M,6.21,M,FEW,BKN,M,M,3000.00,24000.00,M,M,M,YBBN 252230Z 27017KT 9999 FEW030 BKN240 14/06 Q1013 NOSIG
YBBN,2010-08-25 23:00,153.1292,-27.3917,57.20,42.80,58.52,270.00,18.00,M,29.91,M,6.21,M,FEW,BKN,M,M,1700.00,25000.00,M,M,M,YBBN 252300Z 27018KT 9999 FEW017 BKN250 14/06 Q1013 NOSIG
YBBN,2010-08-25 23:30,153.1292,-27.3917,59.00,42.80,54.86,270.00,15.00,M,29.88,M,6.21,M,FEW,BKN,M,M,1700.00,25000.00,M,M,M,YBBN 252330Z 27015KT 9999 FEW017 BKN250 15/06 Q1012 NOSIG
