#DEBUG: Format Typ    -> comma
#DEBUG: Time Period   -> 2014-10-23 00:00:00+00:00 2014-10-24 00:00:00+00:00
#DEBUG: Time Zone     -> Etc/UTC
#DEBUG: Data Contact   -> daryl herzmann akrherz@iastate.edu 515-294-5978
#DEBUG: Entries Found -> -1
station,valid,lon,lat,tmpf, dwpf, relh, drct, sknt, p01i, alti, mslp, vsby, gust, skyc1, skyc2, skyc3, skyc4, skyl1, skyl2, skyl3, skyl4, presentwx, metar
YBBN,2014-10-23 00:00,153.1292,-27.3917,71.60,50.00,46.43,10.00,10.00,0.00,30.15,M,6.21,M,FEW,M,M,M,4000.00,M,M,M,M,YBBN 230000Z 01010KT 9999 FEW040 22/10 Q1021 NOSIG
YBBN,2014-10-23 00:30,153.1292,-27.3917,73.40,50.00,43.69,20.00,9.00,0.00,30.15,M,6.21,M,FEW,M,M,M,4800.00,M,M,M,M,YBBN 230030Z 02009KT 9999 FEW048 23/10 Q1021
YBBN,2014-10-23 01:00,153.1292,-27.3917,75.20,51.80,43.97,10.00,12.00,0.00,30.15,M,6.21,M,FEW,M,M,M,4800.00,M,M,M,M,YBBN 230100Z 01012KT 9999 FEW048 24/11 Q1021
YBBN,2014-10-23 01:30,153.1292,-27.3917,75.20,51.80,43.97,30.00,13.00,0.00,30.12,M,6.21,M,FEW,M,M,M,4800.00,M,M,M,M,YBBN 230130Z 03013KT 9999 FEW048 24/11 Q1020
YBBN,2014-10-23 02:00,153.1292,-27.3917,73.40,51.80,46.71,30.00,13.00,0.00,30.12,M,6.21,M,FEW,M,M,M,4600.00,M,M,M,M,YBBN 230200Z 03013KT 9999 FEW046 23/11 Q1020
YBBN,2014-10-23 02:30,153.1292,-27.3917,75.20,53.60,46.98,30.00,14.00,0.00,30.09,M,6.21,M,FEW,M,M,M,4800.00,M,M,M,M,YBBN 230230Z 03014KT 9999 FEW048 24/12 Q1019
YBBN,2014-10-23 03:00,153.1292,-27.3917,75.20,53.60,46.98,30.00,14.00,0.00,30.09,M,6.21,M,FEW,M,M,M,4600.00,M,M,M,M,YBBN 230300Z 03014KT 9999 FEW046 24/12 Q1019 NOSIG
YBBN,2014-10-23 03:30,153.1292,-27.3917,75.20,53.60,46.98,30.00,15.00,0.00,30.06,M,6.21,M,FEW,M,M,M,4800.00,M,M,M,M,YBBN 230330Z 03015KT 9999 FEW048 24/12 Q1018
YBBN,2014-10-23 04:00,153.1292,-27.3917,75.20,51.80,43.97,30.00,13.00,0.00,30.06,M,6.21,M,M,M,M,M,M,M,M,M,M,YBBN 230400Z 03013KT CAVOK 24/11 Q1018 NOSIG
YBBN,2014-10-23 04:30,153.1292,-27.3917,75.20,57.20,53.55,30.00,13.00,0.00,30.03,M,6.21,M,FEW,M,M,M,4200.00,M,M,M,M,YBBN 230430Z 03013KT 9999 FEW042 24/14 Q1017
YBBN,2014-10-23 05:00,153.1292,-27.3917,75.20,59.00,57.12,10.00,13.00,0.00,30.03,M,6.21,M,FEW,M,M,M,4000.00,M,M,M,M,YBBN 230500Z 01013KT 9999 FEW040 24/15 Q1017 NOSIG
YBBN,2014-10-23 05:30,153.1292,-27.3917,73.40,59.00,60.67,10.00,14.00,0.00,30.03,M,6.21,M,FEW,M,M,M,3600.00,M,M,M,M,YBBN 230530Z 01014KT 9999 FEW036 23/15 Q1017
YBBN,2014-10-23 06:00,153.1292,-27.3917,73.40,55.40,53.29,10.00,15.00,0.00,30.03,M,6.21,M,FEW,SCT,M,M,3800.00,28000.00,M,M,M,YBBN 230600Z 01015KT 9999 FEW038 SCT280 23/13 Q1017 NOSIG
YBBN,2014-10-23 06:30,153.1292,-27.3917,73.40,57.20,56.88,10.00,15.00,0.00,30.03,M,6.21,M,FEW,SCT,M,M,3600.00,28000.00,M,M,M,YBBN 230630Z 01015KT 9999 FEW036 SCT280 23/14 Q1017
YBBN,2014-10-23 07:00,153.1292,-27.3917,71.60,57.20,60.44,10.00,14.00,0.00,30.06,M,6.21,M,FEW,SCT,M,M,3400.00,28000.00,M,M,M,YBBN 230700Z 01014KT 9999 FEW034 SCT280 22/14 Q1018 NOSIG
YBBN,2014-10-23 07:30,153.1292,-27.3917,69.80,55.40,60.21,10.00,14.00,0.00,30.06,M,6.21,M,FEW,BKN,M,M,3200.00,28000.00,M,M,M,YBBN 230730Z 01014KT 9999 FEW032 BKN280 21/13 Q1018
YBBN,2014-10-23 08:00,153.1292,-27.3917,69.80,55.40,60.21,10.00,11.00,0.00,30.09,M,6.21,M,FEW,SCT,M,M,3000.00,28000.00,M,M,M,YBBN 230800Z 01011KT 9999 FEW030 SCT280 21/13 Q1019
YBBN,2014-10-23 08:30,153.1292,-27.3917,68.00,57.20,68.35,10.00,12.00,0.00,30.09,M,6.21,M,FEW,SCT,M,M,3000.00,28000.00,M,M,M,YBBN 230830Z 01012KT 9999 FEW030 SCT280 20/14 Q1019 RMK LIGHTNING SEEN SW
YBBN,2014-10-23 09:00,153.1292,-27.3917,69.80,55.40,60.21,30.00,12.00,0.00,30.12,M,6.21,M,FEW,SCT,M,M,3200.00,28000.00,M,M,M,YBBN 230900Z 03012KT 9999 FEW032CB SCT280 21/13 Q1020
YBBN,2014-10-23 09:30,153.1292,-27.3917,68.00,55.40,64.04,30.00,10.00,0.00,30.12,M,6.21,M,M,M,M,M,M,M,M,M,M,YBBN 230930Z 03010KT CAVOK 20/13 Q1020
YBBN,2014-10-23 10:00,153.1292,-27.3917,68.00,57.20,68.35,30.00,9.00,0.00,30.12,M,6.21,M,M,M,M,M,M,M,M,M,M,YBBN 231000Z 03009KT CAVOK 20/14 Q1020
YBBN,2014-10-23 10:30,153.1292,-27.3917,68.00,57.20,68.35,30.00,9.00,0.00,30.15,M,6.21,M,M,M,M,M,M,M,M,M,M,YBBN 231030Z 03009KT CAVOK 20/14 Q1021
YBBN,2014-10-23 11:00,153.1292,-27.3917,68.00,57.20,68.35,30.00,6.00,0.00,30.15,M,6.21,M,M,M,M,M,M,M,M,M,M,YBBN 231100Z 03006KT CAVOK 20/14 Q1021
YBBN,2014-10-23 11:30,153.1292,-27.3917,68.00,57.20,68.35,30.00,8.00,0.00,30.15,M,6.21,M,M,M,M,M,M,M,M,M,M,YBBN 231130Z 03008KT CAVOK 20/14 Q1021
YBBN,2014-10-23 12:00,153.1292,-27.3917,68.00,57.20,68.35,20.00,9.00,0.00,30.15,M,6.21,M,M,M,M,M,M,M,M,M,M,YBBN 231200Z 02009KT CAVOK 20/14 Q1021
YBBN,2014-10-23 12:30,153.1292,-27.3917,68.00,55.40,64.04,20.00,10.00,0.00,30.15,M,6.21,M,M,M,M,M,M,M,M,M,M,YBBN 231230Z 02010KT CAVOK 20/13 Q1021
YBBN,2014-10-23 13:00,153.1292,-27.3917,68.00,55.40,64.04,20.00,10.00,0.00,30.15,M,6.21,M,M,M,M,M,M,M,M,M,M,YBBN 231300Z 02010KT CAVOK 20/13 Q1021
YBBN,2014-10-23 13:30,153.1292,-27.3917,68.00,55.40,64.04,10.00,11.00,0.00,30.15,M,6.21,M,M,M,M,M,M,M,M,M,M,YBBN 231330Z 01011KT CAVOK 20/13 Q1021
YBBN,2014-10-23 14:00,153.1292,-27.3917,68.00,57.20,68.35,10.00,9.00,0.00,30.15,M,6.21,M,M,M,M,M,M,M,M,M,M,YBBN 231400Z 01009KT CAVOK 20/14 Q1021
YBBN,2014-10-23 14:30,153.1292,-27.3917,66.20,59.00,77.60,10.00,9.00,0.00,30.15,M,6.21,M,FEW,M,M,M,2500.00,M,M,M,M,YBBN 231430Z 01009KT 9999 FEW025 19/15 Q1021
YBBN,2014-10-23 15:00,153.1292,-27.3917,66.20,57.20,72.74,310.00,6.00,0.00,30.12,M,6.21,M,FEW,M,M,M,2500.00,M,M,M,M,YBBN 231500Z 31006KT 9999 FEW025 19/14 Q1020 NOSIG
YBBN,2014-10-23 15:30,153.1292,-27.3917,64.40,57.20,77.45,290.00,6.00,0.00,30.12,M,6.21,M,FEW,M,M,M,2500.00,M,M,M,M,YBBN 231530Z 29006KT 9999 FEW025 18/14 Q1020
YBBN,2014-10-23 16:00,153.1292,-27.3917,64.40,55.40,72.56,300.00,5.00,0.00,30.12,M,6.21,M,FEW,M,M,M,3000.00,M,M,M,M,YBBN 231600Z 30005KT 9999 FEW030 18/13 Q1020 NOSIG
YBBN,2014-10-23 16:30,153.1292,-27.3917,64.40,55.40,72.56,300.00,6.00,0.00,30.12,M,6.21,M,SCT,M,M,M,2800.00,M,M,M,M,YBBN 231630Z 30006KT 9999 SCT028 18/13 Q1020
YBBN,2014-10-23 17:00,153.1292,-27.3917,64.40,57.20,77.45,300.00,4.00,0.00,30.12,M,6.21,M,SCT,M,M,M,3000.00,M,M,M,M,YBBN 231700Z 30004KT 9999 SCT030 18/14 Q1020 NOSIG
YBBN,2014-10-23 17:30,153.1292,-27.3917,62.60,55.40,77.29,300.00,2.00,0.00,30.12,M,6.21,M,BKN,M,M,M,3200.00,M,M,M,M,YBBN 231730Z 30002KT 9999 BKN032 17/13 Q1020
YBBN,2014-10-23 18:00,153.1292,-27.3917,64.40,57.20,77.45,0.00,0.00,0.00,30.12,M,6.21,M,BKN,M,M,M,3200.00,M,M,M,M,YBBN 231800Z 00000KT 9999 BKN032 18/14 Q1020
YBBN,2014-10-23 18:30,153.1292,-27.3917,64.40,55.40,72.56,300.00,5.00,0.00,30.15,M,6.21,M,BKN,M,M,M,3400.00,M,M,M,M,YBBN 231830Z 30005KT 9999 BKN034 18/13 Q1021
YBBN,2014-10-23 19:00,153.1292,-27.3917,64.40,57.20,77.45,330.00,1.00,0.00,30.15,M,6.21,M,BKN,M,M,M,3500.00,M,M,M,M,YBBN 231900Z 33001KT 9999 BKN035 18/14 Q1021 NOSIG
YBBN,2014-10-23 19:30,153.1292,-27.3917,64.40,57.20,77.45,300.00,1.00,0.00,30.15,M,6.21,M,BKN,M,M,M,3500.00,M,M,M,M,YBBN 231930Z 30001KT 9999 BKN035 18/14 Q1021
YBBN,2014-10-23 20:00,153.1292,-27.3917,66.20,57.20,72.74,0.00,0.00,0.00,30.18,M,6.21,M,SCT,M,M,M,3500.00,M,M,M,M,YBBN 232000Z 00000KT 9999 SCT035 19/14 Q1022 NOSIG
YBBN,2014-10-23 20:30,153.1292,-27.3917,68.00,55.40,64.04,280.00,3.00,0.00,30.18,M,6.21,M,BKN,M,M,M,3600.00,M,M,M,M,YBBN 232030Z 28003KT 9999 BKN036 20/13 Q1022
YBBN,2014-10-23 21:00,153.1292,-27.3917,69.80,55.40,60.21,260.00,4.00,0.00,30.18,M,6.21,M,FEW,M,M,M,2800.00,M,M,M,M,YBBN 232100Z 26004KT 9999 FEW028 21/13 Q1022 FM2330 03014KT 9999 SCT035
YBBN,2014-10-23 21:30,153.1292,-27.3917,69.80,55.40,60.21,320.00,4.00,0.00,30.18,M,6.21,M,FEW,M,M,M,1800.00,M,M,M,M,YBBN 232130Z 32004KT 9999 FEW018 21/13 Q1022
YBBN,2014-10-23 22:00,153.1292,-27.3917,71.60,55.40,56.63,360.00,7.00,0.00,30.18,M,6.21,M,FEW,M,M,M,3200.00,M,M,M,M,YBBN 232200Z 36007KT 9999 FEW032 22/13 Q1022 FM2300 03013KT 9999 FEW035
YBBN,2014-10-23 22:30,153.1292,-27.3917,73.40,55.40,53.29,340.00,7.00,0.00,30.18,M,6.21,M,FEW,M,M,M,3400.00,M,M,M,M,YBBN 232230Z 34007KT 9999 FEW034 23/13 Q1022
YBBN,2014-10-23 23:00,153.1292,-27.3917,73.40,55.40,53.29,360.00,8.00,0.00,30.18,M,6.21,M,FEW,M,M,M,3400.00,M,M,M,M,YBBN 232300Z 36008KT 9999 FEW034 23/13 Q1022 FM2315 03013KT 9999 FEW035
YBBN,2014-10-23 23:30,153.1292,-27.3917,73.40,57.20,56.88,350.00,9.00,0.00,30.18,M,6.21,M,FEW,M,M,M,3300.00,M,M,M,M,YBBN 232330Z 35009KT 9999 FEW033 23/14 Q1022
