#DEBUG: Format Typ    -> comma
#DEBUG: Time Period   -> 2012-01-05 00:00:00+00:00 2012-01-06 00:00:00+00:00
#DEBUG: Time Zone     -> Etc/UTC
#DEBUG: Data Contact   -> daryl herzmann akrherz@iastate.edu 515-294-5978
#DEBUG: Entries Found -> -1
station,valid,lon,lat,tmpf, dwpf, relh, drct, sknt, p01i, alti, mslp, vsby, gust, skyc1, skyc2, skyc3, skyc4, skyl1, skyl2, skyl3, skyl4, presentwx, metar
YBBN,2012-01-05 00:00,153.1292,-27.3917,78.80,64.40,61.36,70.00,10.00,M,29.97,M,6.21,M,SCT,   ,   ,   ,2500.00,M,M,M,M,YBBN 050000Z 07010KT 9999 SCT025 26/18 Q1015 NOSIG
YBBN,2012-01-05 00:30,153.1292,-27.3917,78.80,64.40,61.36,70.00,10.00,M,29.97,M,6.21,M,FEW,   ,   ,   ,3000.00,M,M,M,M,YBBN 050030Z 07010KT 9999 FEW030 26/18 Q1015
YBBN,2012-01-05 01:00,153.1292,-27.3917,78.80,64.40,61.36,80.00,9.00,M,29.97,M,6.21,19.00,SCT,   ,   ,   ,3000.00,M,M,M,M,YBBN 050100Z 08009G19KT 9999 SCT030 26/18 Q1015
YBBN,2012-01-05 01:30,153.1292,-27.3917,78.80,62.60,57.60,70.00,10.00,M,29.97,M,6.21,M,SCT,   ,   ,   ,3000.00,M,M,M,M,YBBN 050130Z 07010KT 9999 SCT030 26/17 Q1015
YBBN,2012-01-05 02:00,153.1292,-27.3917,78.80,62.60,57.60,70.00,11.00,M,29.97,M,6.21,M,FEW,   ,   ,   ,3000.00,M,M,M,M,YBBN 050200Z 07011KT 9999 FEW030 26/17 Q1015
YBBN,2012-01-05 02:30,153.1292,-27.3917,80.60,62.60,54.30,80.00,10.00,M,29.94,M,6.21,M,SCT,   ,   ,   ,3000.00,M,M,M,M,YBBN 050230Z 08010KT 9999 SCT030 27/17 Q1014
YBBN,2012-01-05 03:00,153.1292,-27.3917,80.60,62.60,54.30,60.00,13.00,M,29.94,M,6.21,M,FEW,   ,   ,   ,3500.00,M,M,M,M,YBBN 050300Z 06013KT 9999 FEW035 27/17 Q1014 NOSIG
YBBN,2012-01-05 03:30,153.1292,-27.3917,80.60,62.60,54.30,70.00,12.00,M,29.94,M,6.21,M,FEW,   ,   ,   ,3500.00,M,M,M,M,YBBN 050330Z 07012KT 9999 FEW035 27/17 Q1014
YBBN,2012-01-05 04:00,153.1292,-27.3917,80.60,62.60,54.30,60.00,12.00,M,29.94,M,6.21,M,FEW,   ,   ,   ,3500.00,M,M,M,M,YBBN 050400Z 06012KT 9999 FEW035 27/17 Q1014 NOSIG
YBBN,2012-01-05 04:30,153.1292,-27.3917,78.80,62.60,57.60,70.00,12.00,M,29.91,M,6.21,M,FEW,SCT,   ,   ,3500.00,5200.00,M,M,M,YBBN 050430Z 07012KT 9999 FEW035 SCT052 26/17 Q1013
YBBN,2012-01-05 05:00,153.1292,-27.3917,78.80,62.60,57.60,70.00,10.00,M,29.91,M,6.21,M,FEW,   ,   ,   ,3500.00,M,M,M,M,YBBN 050500Z 07010KT 9999 FEW035 26/17 Q1013 NOSIG
YBBN,2012-01-05 05:30,153.1292,-27.3917,78.80,62.60,57.60,60.00,11.00,M,29.91,M,6.21,M,FEW,BKN,   ,   ,3500.00,5000.00,M,M,M,YBBN 050530Z 06011KT 9999 FEW035 BKN050 26/17 Q1013 RMK FU TO NW
YBBN,2012-01-05 06:00,153.1292,-27.3917,78.80,60.80,54.05,70.00,10.00,M,29.91,M,6.21,M,FEW,BKN,   ,   ,3500.00,5000.00,M,M,M,YBBN 050600Z 07010KT 9999 FEW035 BKN050 26/16 Q1013
YBBN,2012-01-05 06:30,153.1292,-27.3917,77.00,60.80,57.36,70.00,9.00,M,29.91,M,6.21,M,FEW,BKN,   ,   ,3500.00,4500.00,M,M,M,YBBN 050630Z 07009KT 9999 FEW035 BKN045 25/16 Q1013
YBBN,2012-01-05 07:00,153.1292,-27.3917,77.00,60.80,57.36,70.00,10.00,M,29.91,M,6.21,M,FEW,BKN,   ,   ,3000.00,4800.00,M,M,M,YBBN 050700Z 07010KT 9999 FEW030 BKN048 25/16 Q1013 NOSIG
YBBN,2012-01-05 07:30,153.1292,-27.3917,75.20,60.80,60.90,60.00,9.00,M,29.91,M,6.21,M,FEW,BKN,   ,   ,2800.00,5000.00,M,M,M,YBBN 050730Z 06009KT 9999 FEW028 BKN050 24/16 Q1013
YBBN,2012-01-05 08:00,153.1292,-27.3917,75.20,60.80,60.90,70.00,9.00,M,29.91,M,6.21,M,FEW,SCT,BKN,   ,2500.00,5600.00,32000.00,M,M,YBBN 050800Z 07009KT 9999 FEW025 SCT056 BKN320 24/16 Q1013 NOSIG
YBBN,2012-01-05 08:30,153.1292,-27.3917,75.20,62.60,64.91,60.00,8.00,M,29.94,M,6.21,M,FEW,SCT,BKN,   ,2500.00,5400.00,32000.00,M,M,YBBN 050830Z 06008KT 9999 FEW025 SCT054 BKN320 24/17 Q1014
YBBN,2012-01-05 09:00,153.1292,-27.3917,75.20,62.60,64.91,60.00,8.00,M,29.94,M,6.21,M,FEW,SCT,BKN,   ,2600.00,5600.00,32000.00,M,M,YBBN 050900Z 06008KT 9999 FEW026 SCT056 BKN320 24/17 Q1014
YBBN,2012-01-05 09:30,153.1292,-27.3917,75.20,62.60,64.91,70.00,6.00,M,29.97,M,6.21,M,SCT,BKN,   ,   ,2800.00,4100.00,M,M,M,YBBN 050930Z 07006KT 9999 SCT028 BKN041 24/17 Q1015
YBBN,2012-01-05 10:00,153.1292,-27.3917,73.40,62.60,68.94,50.00,7.00,M,29.97,M,6.21,M,FEW,   ,   ,   ,2800.00,M,M,M,M,YBBN 051000Z 05007KT 9999 FEW028 23/17 Q1015
YBBN,2012-01-05 10:30,153.1292,-27.3917,73.40,62.60,68.94,60.00,5.00,M,29.97,M,6.21,M,FEW,SCT,   ,   ,3000.00,32000.00,M,M,M,YBBN 051030Z 06005KT 9999 FEW030 SCT320 23/17 Q1015
YBBN,2012-01-05 11:00,153.1292,-27.3917,71.60,62.60,73.27,50.00,4.00,M,29.97,M,6.21,M,FEW,BKN,   ,   ,3000.00,32000.00,M,M,M,YBBN 051100Z 05004KT 9999 FEW030 BKN320 22/17 Q1015
YBBN,2012-01-05 11:30,153.1292,-27.3917,73.40,60.80,64.69,90.00,4.00,M,29.94,M,6.21,M,FEW,BKN,   ,   ,3000.00,32000.00,M,M,M,YBBN 051130Z 09004KT 9999 FEW030 BKN320 23/16 Q1014
YBBN,2012-01-05 12:00,153.1292,-27.3917,73.40,62.60,68.94,100.00,3.00,M,29.97,M,6.21,M,FEW,BKN,   ,   ,3000.00,32000.00,M,M,M,YBBN 051200Z 10003KT 9999 FEW030 BKN320 23/17 Q1015
YBBN,2012-01-05 12:30,153.1292,-27.3917,73.40,62.60,68.94,110.00,2.00,M,29.94,M,6.21,M,FEW,SCT,BKN,   ,3000.00,5500.00,32000.00,M,M,YBBN 051230Z 11002KT 9999 FEW030 SCT055 BKN320 23/17 Q1014
YBBN,2012-01-05 13:00,153.1292,-27.3917,73.40,62.60,68.94,100.00,3.00,M,29.94,M,6.21,M,FEW,BKN,BKN,   ,3000.00,4700.00,21000.00,M,M,YBBN 051300Z 10003KT 9999 FEW030 BKN047 BKN210 23/17 Q1014
YBBN,2012-01-05 13:30,153.1292,-27.3917,73.40,62.60,68.94,100.00,4.00,M,29.94,M,6.21,M,SCT,BKN,BKN,   ,4700.00,18000.00,21000.00,M,M,YBBN 051330Z 10004KT 9999 SCT047 BKN180 BKN210 23/17 Q1014
YBBN,2012-01-05 14:00,153.1292,-27.3917,73.40,60.80,64.69,100.00,3.00,M,29.91,M,6.21,M,FEW,BKN,BKN,   ,4500.00,18000.00,22000.00,M,M,YBBN 051400Z 10003KT 9999 FEW045 BKN180 BKN220 23/16 Q1013
YBBN,2012-01-05 14:30,153.1292,-27.3917,71.60,62.60,73.27,70.00,2.00,M,29.88,M,6.21,M,FEW,SCT,BKN,   ,4500.00,18000.00,21000.00,M,M,YBBN 051430Z 07002KT 9999 FEW045 SCT180 BKN210 22/17 Q1012
YBBN,2012-01-05 15:00,153.1292,-27.3917,71.60,62.60,73.27,100.00,2.00,M,29.88,M,6.21,M,FEW,BKN,BKN,   ,3000.00,16000.00,21000.00,M,VCSH,YBBN 051500Z 10002KT 9999 VCSH FEW030 BKN160 BKN210 22/17 Q1012
YBBN,2012-01-05 15:30,153.1292,-27.3917,69.80,60.80,73.09,0.00,0.00,M,29.88,M,6.21,M,FEW,SCT,BKN,   ,3000.00,18000.00,21000.00,M,M,YBBN 051530Z 00000KT 9999 FEW030 SCT180 BKN210 21/16 Q1012
YBBN,2012-01-05 16:00,153.1292,-27.3917,69.80,62.60,77.90,0.00,0.00,M,29.85,M,6.21,M,FEW,SCT,BKN,   ,3000.00,18000.00,21000.00,M,M,YBBN 051600Z 00000KT 9999 FEW030 SCT180 BKN210 21/17 Q1011
YBBN,2012-01-05 16:30,153.1292,-27.3917,69.80,62.60,77.90,0.00,0.00,M,29.85,M,6.21,M,FEW,SCT,   ,   ,3000.00,21000.00,M,M,M,YBBN 051630Z 00000KT 9999 FEW030 SCT210 21/17 Q1011
YBBN,2012-01-05 17:00,153.1292,-27.3917,69.80,62.60,77.90,0.00,0.00,M,29.85,M,6.21,M,FEW,SCT,   ,   ,2500.00,21000.00,M,M,M,YBBN 051700Z 00000KT 9999 FEW025 SCT210 21/17 Q1011
YBBN,2012-01-05 17:30,153.1292,-27.3917,68.00,62.60,82.86,230.00,5.00,M,29.85,M,6.21,M,FEW,SCT,   ,   ,2500.00,17000.00,M,M,M,YBBN 051730Z 23005KT 9999 FEW025 SCT170 20/17 Q1011
YBBN,2012-01-05 18:00,153.1292,-27.3917,68.00,62.60,82.86,210.00,5.00,M,29.85,M,6.21,M,FEW,   ,   ,   ,2500.00,M,M,M,M,YBBN 051800Z 21005KT 9999 FEW025 20/17 Q1011
YBBN,2012-01-05 18:30,153.1292,-27.3917,66.20,62.60,88.18,0.00,0.00,M,29.85,M,6.21,M,FEW,   ,   ,   ,2500.00,M,M,M,M,YBBN 051830Z 00000KT 9999 FEW025 19/17 Q1011
YBBN,2012-01-05 19:00,153.1292,-27.3917,66.20,62.60,88.18,240.00,1.00,M,29.85,M,6.21,M,FEW,   ,   ,   ,2500.00,M,M,M,M,YBBN 051900Z 24001KT 9999 FEW025 19/17 Q1011
YBBN,2012-01-05 19:30,153.1292,-27.3917,66.20,62.60,88.18,0.00,0.00,M,29.85,M,6.21,M,FEW,   ,   ,   ,2500.00,M,M,M,M,YBBN 051930Z 00000KT 9999 FEW025 19/17 Q1011
YBBN,2012-01-05 20:00,153.1292,-27.3917,68.00,64.40,88.26,270.00,3.00,M,29.88,M,6.21,M,FEW,   ,   ,   ,2500.00,M,M,M,M,YBBN 052000Z 27003KT 9999 FEW025 20/18 Q1012
YBBN,2012-01-05 20:30,153.1292,-27.3917,71.60,62.60,73.27,270.00,5.00,M,29.88,M,6.21,M,FEW,   ,   ,   ,2500.00,M,M,M,M,YBBN 052030Z 27005KT 9999 FEW025 22/17 Q1012
YBBN,2012-01-05 21:00,153.1292,-27.3917,73.40,62.60,68.94,260.00,5.00,M,29.88,M,6.21,M,FEW,   ,   ,   ,2500.00,M,M,M,M,YBBN 052100Z 26005KT 9999 FEW025 23/17 Q1012
YBBN,2012-01-05 21:30,153.1292,-27.3917,75.20,62.60,64.91,320.00,4.00,M,29.88,M,6.21,M,FEW,   ,   ,   ,2600.00,M,M,M,M,YBBN 052130Z 32004KT 9999 FEW026 24/17 Q1012
YBBN,2012-01-05 22:00,153.1292,-27.3917,75.20,62.60,64.91,330.00,5.00,M,29.88,M,6.21,M,SCT,   ,   ,   ,2600.00,M,M,M,M,YBBN 052200Z 33005KT 9999 SCT026 24/17 Q1012 NOSIG
YBBN,2012-01-05 22:30,153.1292,-27.3917,75.20,62.60,64.91,350.00,6.00,M,29.88,M,6.21,M,FEW,BKN,   ,   ,2600.00,3200.00,M,M,M,YBBN 052230Z 35006KT 9999 FEW026 BKN032 24/17 Q1012
YBBN,2012-01-05 23:00,153.1292,-27.3917,77.00,62.60,61.13,360.00,7.00,M,29.88,M,6.21,M,FEW,BKN,   ,   ,2600.00,3200.00,M,M,M,YBBN 052300Z 36007KT 9999 FEW026 BKN032 25/17 Q1012 NOSIG
YBBN,2012-01-05 23:30,153.1292,-27.3917,77.00,62.60,61.13,330.00,7.00,M,29.88,M,6.21,M,FEW,BKN,   ,   ,2600.00,3400.00,M,M,M,YBBN 052330Z 33007KT 9999 FEW026 BKN034 25/17 Q1012
