"","station","valid","lon","lat","tmpf","dwpf","relh","drct","sknt","p01i","alti","mslp","vsby","gust","skyc1","skyc2","skyc3","skyc4","skyl1","skyl2","skyl3","skyl4","presentwx","metar"
"1","YBBN","2011-03-24 00:00",153.1292,-27.3917,82.4,57.2,42.25,230,8,"M",29.8,"M",6.21,"M","M","M","M","M","M","M","M","M","M","YBBN 240000Z 23008KT CAVOK 28/14 Q1009 NOSIG"
