"","station","valid","lon","lat","tmpf","dwpf","relh","drct","sknt","p01i","alti","mslp","vsby","gust","skyc1","skyc2","skyc3","skyc4","skyl1","skyl2","skyl3","skyl4","presentwx","metar"
"1","YBBN","2010-12-31 00:00",153.1292,-27.3917,80.6,62.6,54.3,120,10,"M",29.97,"M",6.21,"M","SCT","M","M","M",3800,"M","M","M","M","YBBN 310000Z 12010KT 9999 SCT038 27/17 Q1015 NOSIG"
