"","station","valid","lon","lat","tmpf","dwpf","relh","drct","sknt","p01i","alti","mslp","vsby","gust","skyc1","skyc2","skyc3","skyc4","skyl1","skyl2","skyl3","skyl4","presentwx","metar"
"1","YBBN","2014-07-30 00:00",153.1292,-27.3917,66.2,39.2,37.03,270,5,0,30.18,"M",6.21,"M","M","M","M","M","M","M","M","M","M","YBBN 300000Z 27005KT CAVOK 19/04 Q1022 NOSIG"
