"","station","valid","lon","lat","tmpf","dwpf","relh","drct","sknt","p01i","alti","mslp","vsby","gust","skyc1","skyc2","skyc3","skyc4","skyl1","skyl2","skyl3","skyl4","presentwx","metar"
"1","YBBN","2013-05-19 00:00",153.1292,-27.3917,62.6,33.8,33.93,250,15,0,30.06,"M",6.21,"M","M","M","M","M","M","M","M","M","M","YBBN 190000Z 25015KT CAVOK 17/01 Q1018 NOSIG"
