"","station","valid","lon","lat","tmpf","dwpf","relh","drct","sknt","p01i","alti","mslp","vsby","gust","skyc1","skyc2","skyc3","skyc4","skyl1","skyl2","skyl3","skyl4","presentwx","metar"
"1","YBBN","2014-07-19 00:00",153.1292,-27.3917,57.2,28.4,33.05,220,11,0,30.09,"M",6.21,"M","M","M","M","M","M","M","M","M","M","YBBN 190000Z 22011KT CAVOK 14/M02 Q1019 FM0001 MOD TURB BLW 5000FT TILL 0200"
