"","station","valid","lon","lat","tmpf","dwpf","relh","drct","sknt","p01i","alti","mslp","vsby","gust","skyc1","skyc2","skyc3","skyc4","skyl1","skyl2","skyl3","skyl4","presentwx","metar"
"1","YBBN","2013-12-04 00:00",153.1292,-27.3917,75.2,59,57.12,10,7,0,29.88,"M",6.21,"M","FEW","M","M","M","3000.00","M","M","M","M","YBBN 040000Z 01007KT 9999 FEW030 24/15 Q1012 NOSIG"
