"","station","valid","lon","lat","tmpf","dwpf","relh","drct","sknt","p01i","alti","mslp","vsby","gust","skyc1","skyc2","skyc3","skyc4","skyl1","skyl2","skyl3","skyl4","presentwx","metar"
"1","YBBN","2014-01-15 00:00",153.1292,-27.3917,82.4,64.4,54.55,70,13,0,30.15,"M",6.21,"M","SCT","M","M","M",3500,"M","M","M","M","YBBN 150000Z 07013KT 9999 SCT035 28/18 Q1021 NOSIG"
