"","station","valid","lon","lat","tmpf","dwpf","relh","drct","sknt","p01i","alti","mslp","vsby","gust","skyc1","skyc2","skyc3","skyc4","skyl1","skyl2","skyl3","skyl4","presentwx","metar"
"1","YBBN","2015-01-16 00:00",153.1292,-27.3917,86,68,55.04,70,8,0,29.77,"M",6.21,"M","FEW","M","M","M",2800,"M","M","M","M","YBBN 160000Z 07008KT 9999 FEW028 30/20 Q1008 NOSIG"
