"","station","valid","lon","lat","tmpf","dwpf","relh","drct","sknt","p01i","alti","mslp","vsby","gust","skyc1","skyc2","skyc3","skyc4","skyl1","skyl2","skyl3","skyl4","presentwx","metar"
"1","YBBN","2010-09-16 00:00",153.1292,-27.3917,68,41,37.32,290,5,"M",30.06,"M",6.21,"M","M","M","M","M","M","M","M","M","M","YBBN 160000Z 29005KT CAVOK 20/05 Q1018 RMK 6AC130 NOSIG"
