"","station","valid","lon","lat","tmpf","dwpf","relh","drct","sknt","p01i","alti","mslp","vsby","gust","skyc1","skyc2","skyc3","skyc4","skyl1","skyl2","skyl3","skyl4","presentwx","metar"
"1","YBBN","2015-06-25 00:00",153.1292,-27.3917,59,57.2,93.74,210,8,0,30.18,"M",6.21,"M","FEW","SCT","BKN","M","600.00","10000.00","16000.00","M","M","YBBN 250000Z 21008KT 9999 FEW006 SCT100 BKN160 15/14 Q1022"
