"","station","valid","lon","lat","tmpf","dwpf","relh","drct","sknt","p01i","alti","mslp","vsby","gust","skyc1","skyc2","skyc3","skyc4","skyl1","skyl2","skyl3","skyl4","presentwx","metar"
"1","YBBN","2012-01-21 00:00",153.1292,-27.3917,80.6,62.6,54.3,110,8,0,29.88,"M",6.21,"M","BKN","BKN","   ",NA,3700,"4300.00","M","M","M","YBBN 210000Z 11008KT 9999 BKN037 BKN043 27/17 Q1012"
