"","station","valid","lon","lat","tmpf","dwpf","relh","drct","sknt","p01i","alti","mslp","vsby","gust","skyc1","skyc2","skyc3","skyc4","skyl1","skyl2","skyl3","skyl4","presentwx","metar"
"1","YBBN","2016-12-13 00:00",153.1292,-27.3917,77,60.8,57.36,60,10,0,30.12,"M",6.21,"M","SCT","M","M","M",3800,"M","M","M","M","YBBN 130000Z 06010KT 050V110 9999 SCT038 25/16 Q1020 NOSIG"
