"","station","valid","lon","lat","tmpf","dwpf","relh","drct","sknt","p01i","alti","mslp","vsby","gust","skyc1","skyc2","skyc3","skyc4","skyl1","skyl2","skyl3","skyl4","presentwx","metar"
"1","YBBN","2013-09-08 00:00",153.1292,-27.3917,71.6,55.4,56.63,360,9,0,30.27,"M",6.21,"M","M","M","M","M","M","M","M","M","M","YBBN 080000Z 36009KT CAVOK 22/13 Q1025 NOSIG"
