"","station","valid","lon","lat","tmpf","dwpf","relh","drct","sknt","p01i","alti","mslp","vsby","gust","skyc1","skyc2","skyc3","skyc4","skyl1","skyl2","skyl3","skyl4","presentwx","metar"
"1","YBBN","2013-02-25 00:00",153.1292,-27.3917,77,69.8,78.48,70,12,0,29.94,"M",3.73,"M","FEW","SCT","BKN","M",800,"3000.00","5500.00","M","-RA","YBBN 250000Z 07012KT 6000 -RA FEW008 SCT030 BKN055 25/21 Q1014"
