"","station","valid","lon","lat","tmpf","dwpf","relh","drct","sknt","p01i","alti","mslp","vsby","gust","skyc1","skyc2","skyc3","skyc4","skyl1","skyl2","skyl3","skyl4","presentwx","metar"
"1","YBBN","2012-06-02 00:00",153.1292,-27.3917,66.2,62.6,88.18,210,7,0,30.09,"M",5.59,"M","FEW","SCT","BKN","M",3000,6000,"14000.00","M","VCSH","YBBN 020000Z 21007KT 9000 VCSH FEW030 SCT060 BKN140 19/17 Q1019 TEMPO 0000/0300 3000 SHRA BKN010"
