"","station","valid","lon","lat","tmpf","dwpf","relh","drct","sknt","p01i","alti","mslp","vsby","gust","skyc1","skyc2","skyc3","skyc4","skyl1","skyl2","skyl3","skyl4","presentwx","metar"
"1","YBBN","2013-12-12 00:00",153.1292,-27.3917,78.8,71.6,78.62,360,8,0,29.8,"M",6.21,"M","FEW","SCT","BKN","M","1800.00","11000.00","23000.00","M","-SHRA","YBBN 120000Z 36008KT 9999 -SHRA FEW018 SCT110 BKN230 26/22 Q1009 RMK VIRGA/HZ"
