"","station","valid","lon","lat","tmpf","dwpf","relh","drct","sknt","p01i","alti","mslp","vsby","gust","skyc1","skyc2","skyc3","skyc4","skyl1","skyl2","skyl3","skyl4","presentwx","metar"
"1","YBBN","2014-12-29 00:00",153.1292,-27.3917,80.6,71.6,74.11,360,6,0,29.83,"M",6.21,"M","SCT","SCT","BKN","M","2500.00","6200.00","30000.00","M","M","YBBN 290000Z 36006KT 9999 SCT025 SCT062 BKN300 27/22 Q1010 INTER 0000/0300 3000 SHRA BKN010"
