"","station","valid","lon","lat","tmpf","dwpf","relh","drct","sknt","p01i","alti","mslp","vsby","gust","skyc1","skyc2","skyc3","skyc4","skyl1","skyl2","skyl3","skyl4","presentwx","metar"
"1","YBBN","2014-07-15 00:00",153.1292,-27.3917,60.8,55.4,82.37,210,5,0,30.24,"M",6.21,"M","FEW","BKN","BKN","M","3000.00","6000.00","17000.00","M","M","YBBN 150000Z 21005KT 9999 FEW030 BKN060 BKN170 16/13 Q1024 NOSIG"
