"","station","valid","lon","lat","tmpf","dwpf","relh","drct","sknt","p01i","alti","mslp","vsby","gust","skyc1","skyc2","skyc3","skyc4","skyl1","skyl2","skyl3","skyl4","presentwx","metar"
"1","YBBN","2014-12-11 00:00",153.1292,-27.3917,84.2,75.2,74.44,30,13,0,29.8,"M",6.21,"M","SCT","M","M","M",3000,"M","M","M","M","YBBN 110000Z 03013KT 9999 SCT030 29/24 Q1009"
