"","station","valid","lon","lat","tmpf","dwpf","relh","drct","sknt","p01i","alti","mslp","vsby","gust","skyc1","skyc2","skyc3","skyc4","skyl1","skyl2","skyl3","skyl4","presentwx","metar"
"1","YBBN","2011-07-28 00:00",153.1292,-27.3917,62.6,39.2,42,220,9,"M",30.33,"M",6.21,"M","FEW","M","M","M","3200.00","M","M","M","M","YBBN 280000Z 22009KT 9999 FEW032 17/04 Q1027 NOSIG"
