"","station","valid","lon","lat","tmpf","dwpf","relh","drct","sknt","p01i","alti","mslp","vsby","gust","skyc1","skyc2","skyc3","skyc4","skyl1","skyl2","skyl3","skyl4","presentwx","metar"
"1","YBBN","2010-10-15 00:00",153.1292,-27.3917,75.2,64.4,69.14,10,12,"M",29.8,"M",6.21,"M","FEW","SCT","M","M",2500,"17000.00","M","M","M","YBBN 150000Z 01012KT 9999 FEW025 SCT170 24/18 Q1009 NOSIG"
