"","station","valid","lon","lat","tmpf","dwpf","relh","drct","sknt","p01i","alti","mslp","vsby","gust","skyc1","skyc2","skyc3","skyc4","skyl1","skyl2","skyl3","skyl4","presentwx","metar"
"1","YBBN","2014-03-14 00:00",153.1292,-27.3917,75.2,62.6,64.91,110,6,0,30.03,"M",6.21,"M","SCT","SCT","M","M",2700,"6800.00","M","M","-SHRA","YBBN 140000Z 11006KT 9999 -SHRA SCT027 SCT068 24/17 Q1017"
