"","station","valid","lon","lat","tmpf","dwpf","relh","drct","sknt","p01i","alti","mslp","vsby","gust","skyc1","skyc2","skyc3","skyc4","skyl1","skyl2","skyl3","skyl4","presentwx","metar"
"1","YBBN","2015-12-15 00:00",153.1292,-27.3917,78.8,62.6,57.6,70,7,0,30,"M",6.21,"M","FEW","BKN","M","M",3500,"3900.00","M","M","M","YBBN 150000Z 07007KT 9999 FEW035 BKN039 26/17 Q1016 NOSIG"
