"","station","valid","lon","lat","tmpf","dwpf","relh","drct","sknt","p01i","alti","mslp","vsby","gust","skyc1","skyc2","skyc3","skyc4","skyl1","skyl2","skyl3","skyl4","presentwx","metar"
"1","YBBN","2015-09-01 00:00",153.1292,-27.3917,66.2,39.2,37.03,260,7,0,30.03,"M",6.21,"M","M","M","M","M","M","M","M","M","M","YBBN 010000Z 26007KT 230V300 CAVOK 19/04 Q1017 NOSIG"
