"","station","valid","lon","lat","tmpf","dwpf","relh","drct","sknt","p01i","alti","mslp","vsby","gust","skyc1","skyc2","skyc3","skyc4","skyl1","skyl2","skyl3","skyl4","presentwx","metar"
"1","YBBN","2016-01-30 00:00",153.1292,-27.3917,84.2,75.2,74.44,360,10,0,29.74,"M",6.21,"M","FEW","SCT","BKN","M","1900.00","12000.00","17000.00","M","VCSH","YBBN 300000Z 36010KT 9999 VCSH FEW019 SCT120 BKN170 29/24 Q1007 NOSIG"
