"","station","valid","lon","lat","tmpf","dwpf","relh","drct","sknt","p01i","alti","mslp","vsby","gust","skyc1","skyc2","skyc3","skyc4","skyl1","skyl2","skyl3","skyl4","presentwx","metar"
"1","YBBN","2015-12-14 00:00",153.1292,-27.3917,78.8,62.6,57.6,110,5,0,30.06,"M",6.21,"M","FEW","BKN","M","M","3800.00","33000.00","M","M","M","YBBN 140000Z 11005KT 080V170 9999 FEW038 BKN330 26/17 Q1018 NOSIG"
