"","station","valid","lon","lat","tmpf","dwpf","relh","drct","sknt","p01i","alti","mslp","vsby","gust","skyc1","skyc2","skyc3","skyc4","skyl1","skyl2","skyl3","skyl4","presentwx","metar"
"1","YBBN","2012-07-02 00:00",153.1292,-27.3917,59,30.2,33.35,240,11,0,30.09,"M",6.21,"M","M","M","M","M","M","M","M","M","M","YBBN 020000Z 24011KT CAVOK 15/M01 Q1019"
