"","station","valid","lon","lat","tmpf","dwpf","relh","drct","sknt","p01i","alti","mslp","vsby","gust","skyc1","skyc2","skyc3","skyc4","skyl1","skyl2","skyl3","skyl4","presentwx","metar"
"1","YBBN","2010-07-22 00:00",153.1292,-27.3917,60.8,41,48,200,8,"M",30.27,"M",6.21,"M","FEW","M","M","M","3000.00","M","M","M","M","YBBN 220000Z 20008KT 9999 FEW030 16/05 Q1025 NOSIG"
