"","station","valid","lon","lat","tmpf","dwpf","relh","drct","sknt","p01i","alti","mslp","vsby","gust","skyc1","skyc2","skyc3","skyc4","skyl1","skyl2","skyl3","skyl4","presentwx","metar"
"1","YBBN","2012-07-12 00:00",153.1292,-27.3917,68,64.4,88.26,30,2,0,30.15,"M",2.49,"M","FEW","BKN","BKN","M",1600,"3000.00","4200.00","M","-SHRA","YBBN 120000Z 03002KT 4000 -SHRA FEW016 BKN030 BKN042 20/18 Q1021"
