"","station","valid","lon","lat","tmpf","dwpf","relh","drct","sknt","p01i","alti","mslp","vsby","gust","skyc1","skyc2","skyc3","skyc4","skyl1","skyl2","skyl3","skyl4","presentwx","metar"
"1","YBBN","2013-09-06 00:00",153.1292,-27.3917,69.8,51.8,52.77,210,6,0,30.39,"M",6.21,"M","FEW","M","M","M","3500.00","M","M","M","M","YBBN 060000Z 21006KT 9999 FEW035 21/11 Q1029 NOSIG"
