"","station","valid","lon","lat","tmpf","dwpf","relh","drct","sknt","p01i","alti","mslp","vsby","gust","skyc1","skyc2","skyc3","skyc4","skyl1","skyl2","skyl3","skyl4","presentwx","metar"
"1","YBBN","2014-08-02 00:00",153.1292,-27.3917,62.6,15.8,16.02,220,14,0,30.21,"M",6.21,"M","M","M","M","M","M","M","M","M","M","YBBN 020000Z 22014KT CAVOK 17/M09 Q1023"
