"","station","valid","lon","lat","tmpf","dwpf","relh","drct","sknt","p01i","alti","mslp","vsby","gust","skyc1","skyc2","skyc3","skyc4","skyl1","skyl2","skyl3","skyl4","presentwx","metar"
"1","YBBN","2015-06-15 00:00",153.1292,-27.3917,66.2,60.8,82.74,190,6,0,30.27,"M",6.21,"M","FEW","SCT","BKN","M",1200,"3800.00","5200.00","M","-DZ","YBBN 150000Z 19006KT 9999 -DZ FEW012 SCT038 BKN052 19/16 Q1025"
