"","station","valid","lon","lat","tmpf","dwpf","relh","drct","sknt","p01i","alti","mslp","vsby","gust","skyc1","skyc2","skyc3","skyc4","skyl1","skyl2","skyl3","skyl4","presentwx","metar"
"1","YBBN","2012-12-13 00:00",153.1292,-27.3917,75.2,57.2,53.55,120,9,0,30.12,"M",6.21,"M","BKN","M","M","M",3500,"M","M","M","VCSH","YBBN 130000Z 12009KT 9999 VCSH BKN035 24/14 Q1020 INTER 0000/0200 3000 SHRA BKN012"
