"","station","valid","lon","lat","tmpf","dwpf","relh","drct","sknt","p01i","alti","mslp","vsby","gust","skyc1","skyc2","skyc3","skyc4","skyl1","skyl2","skyl3","skyl4","presentwx","metar"
"1","YBBN","2014-08-09 00:00",153.1292,-27.3917,66.2,51.8,59.74,180,7,0,30.39,"M",6.21,"M","FEW","BKN","BKN","M",3500,"5800.00","8000.00","M","M","YBBN 090000Z 18007KT 9999 FEW035 BKN058 BKN080 19/11 Q1029 FM0200 11010KT 9999 -SHRA SCT030 SCT060"
