"","station","valid","lon","lat","tmpf","dwpf","relh","drct","sknt","p01i","alti","mslp","vsby","gust","skyc1","skyc2","skyc3","skyc4","skyl1","skyl2","skyl3","skyl4","presentwx","metar"
"1","YBBN","2016-11-28 00:00",153.1292,-27.3917,78.8,62.6,57.6,350,8,0,30,"M",6.21,"M","SCT","M","M","M","3000.00","M","M","M","M","YBBN 280000Z 35008KT 9999 SCT030 26/17 Q1016"
