"","station","valid","lon","lat","tmpf","dwpf","relh","drct","sknt","p01i","alti","mslp","vsby","gust","skyc1","skyc2","skyc3","skyc4","skyl1","skyl2","skyl3","skyl4","presentwx","metar"
"1","YBBN","2014-02-06 00:00",153.1292,-27.3917,77,57.2,50.43,120,11,0,29.97,"M",6.21,"M","SCT","BKN","M","M",3500,"6000.00","M","M","M","YBBN 060000Z 12011KT 9999 SCT035 BKN060 25/14 Q1015 NOSIG"
