"","station","valid","lon","lat","tmpf","dwpf","relh","drct","sknt","p01i","alti","mslp","vsby","gust","skyc1","skyc2","skyc3","skyc4","skyl1","skyl2","skyl3","skyl4","presentwx","metar"
"1","YBBN","2015-06-30 00:00",153.1292,-27.3917,66.2,59,77.6,220,9,0,30.36,"M",6.21,"M","FEW","SCT","M","M","2200.00","4500.00","M","M","M","YBBN 300000Z 22009KT 9999 FEW022 SCT045 19/15 Q1028 NOSIG"
