"","station","valid","lon","lat","tmpf","dwpf","relh","drct","sknt","p01i","alti","mslp","vsby","gust","skyc1","skyc2","skyc3","skyc4","skyl1","skyl2","skyl3","skyl4","presentwx","metar"
"1","YBBN","2011-04-07 00:00",153.1292,-27.3917,75.2,60.8,60.9,170,10,"M",30.24,"M",6.21,"M","FEW","SCT","M","M",2200,"2800.00","M","M","VCSH","YBBN 070000Z 17010KT 9999 VCSH FEW022 SCT028 24/16 Q1024 RMK SH S INTER 0000/0300 3000 SHRA BKN012"
