"","station","valid","lon","lat","tmpf","dwpf","relh","drct","sknt","p01i","alti","mslp","vsby","gust","skyc1","skyc2","skyc3","skyc4","skyl1","skyl2","skyl3","skyl4","presentwx","metar"
"1","YBBN","2012-12-25 00:00",153.1292,-27.3917,82.4,64.4,54.55,30,10,0,29.91,"M",6.21,"M","FEW","SCT","M","M","2800.00","8500.00","M","M","M","YBBN 250000Z 03010KT 9999 FEW028 SCT085 28/18 Q1013"
