"","station","valid","lon","lat","tmpf","dwpf","relh","drct","sknt","p01i","alti","mslp","vsby","gust","skyc1","skyc2","skyc3","skyc4","skyl1","skyl2","skyl3","skyl4","presentwx","metar"
"1","YBBN","2015-06-24 00:00",153.1292,-27.3917,60.8,57.2,87.92,190,8,0,30.27,"M",5.59,"M","FEW","BKN","M","M","700.00","4000.00","M","M","-DZ","YBBN 240000Z 19008KT 9000 -DZ FEW007 BKN040 16/14 Q1025"
