"","station","valid","lon","lat","tmpf","dwpf","relh","drct","sknt","p01i","alti","mslp","vsby","gust","skyc1","skyc2","skyc3","skyc4","skyl1","skyl2","skyl3","skyl4","presentwx","metar"
"1","YBBN","2015-08-20 00:00",153.1292,-27.3917,68,53.6,59.97,170,6,0,30.33,"M",6.21,"M","FEW","SCT","M","M",3000,8000,"M","M","M","YBBN 200000Z 17006KT 9999 FEW030 SCT080 20/12 Q1027"
