"","station","valid","lon","lat","tmpf","dwpf","relh","drct","sknt","p01i","alti","mslp","vsby","gust","skyc1","skyc2","skyc3","skyc4","skyl1","skyl2","skyl3","skyl4","presentwx","metar"
"1","YBBN","2014-08-27 00:00",153.1292,-27.3917,68,50,52.51,230,10,0,30,"M",6.21,"M","FEW","M","M","M","3000.00","M","M","M","M","YBBN 270000Z 23010KT 9999 FEW030 20/10 Q1016 FM0100 20010KT 9999 -SHRA FEW025 SCT040"
