"","station","valid","lon","lat","tmpf","dwpf","relh","drct","sknt","p01i","alti","mslp","vsby","gust","skyc1","skyc2","skyc3","skyc4","skyl1","skyl2","skyl3","skyl4","presentwx","metar"
"1","YBBN","2011-03-06 00:00",153.1292,-27.3917,77,60.8,57.36,150,11,"M",30.12,"M",6.21,"M","SCT","M","M","M",3200,"M","M","M","M","YBBN 060000Z 15011KT 9999 SCT032 25/16 Q1020 NOSIG"
