"","station","valid","lon","lat","tmpf","dwpf","relh","drct","sknt","p01i","alti","mslp","vsby","gust","skyc1","skyc2","skyc3","skyc4","skyl1","skyl2","skyl3","skyl4","presentwx","metar"
"1","YBBN","2010-07-19 00:00",153.1292,-27.3917,64.4,51.8,63.6,190,5,"M",30.12,"M",6.21,"M","FEW","BKN","M","M","2500.00","9000.00","M","M","M","YBBN 190000Z 19005KT 9999 FEW025 BKN090 18/11 Q1020 RMK SMOKE NOSIG"
