"","station","valid","lon","lat","tmpf","dwpf","relh","drct","sknt","p01i","alti","mslp","vsby","gust","skyc1","skyc2","skyc3","skyc4","skyl1","skyl2","skyl3","skyl4","presentwx","metar"
"1","YBBN","2014-01-31 00:00",153.1292,-27.3917,75.2,60.8,60.9,80,11,0,29.94,"M",6.21,"M","FEW","BKN","M","M",3800,4900,"M","M","VCSH","YBBN 310000Z 08011KT 9999 VCSH FEW038 BKN049 24/16 Q1014 NOSIG"
