"","station","valid","lon","lat","tmpf","dwpf","relh","drct","sknt","p01i","alti","mslp","vsby","gust","skyc1","skyc2","skyc3","skyc4","skyl1","skyl2","skyl3","skyl4","presentwx","metar"
"1","YBBN","2015-03-23 00:00",153.1292,-27.3917,75.2,68,78.34,130,7,0,30.06,"M",6.21,"M","FEW","SCT","M","M",1500,"1800.00","M","M","M","YBBN 230000Z 13007KT 9999 FEW015 SCT018 24/20 Q1018"
