"","station","valid","lon","lat","tmpf","dwpf","relh","drct","sknt","p01i","alti","mslp","vsby","gust","skyc1","skyc2","skyc3","skyc4","skyl1","skyl2","skyl3","skyl4","presentwx","metar"
"1","YBBN","2016-03-03 00:00",153.1292,-27.3917,80.6,68,65.54,70,10,0,30.15,"M",6.21,"M","FEW","SCT","M","M","2000.00","2900.00","M","M","M","YBBN 030000Z 07010KT 9999 FEW020 SCT029 27/20 Q1021 NOSIG"
