"","station","valid","lon","lat","tmpf","dwpf","relh","drct","sknt","p01i","alti","mslp","vsby","gust","skyc1","skyc2","skyc3","skyc4","skyl1","skyl2","skyl3","skyl4","presentwx","metar"
"1","YBBN","2011-06-20 00:00",153.1292,-27.3917,60.8,44.6,55.12,290,4,"M",30.06,"M",6.21,"M","M","M","M","M","M","M","M","M","M","YBBN 200000Z 29004KT CAVOK 16/07 Q1018 NOSIG"
