"","station","valid","lon","lat","tmpf","dwpf","relh","drct","sknt","p01i","alti","mslp","vsby","gust","skyc1","skyc2","skyc3","skyc4","skyl1","skyl2","skyl3","skyl4","presentwx","metar"
"1","YBBN","2015-08-29 00:00",153.1292,-27.3917,68,50,52.51,180,6,0,30.18,"M",6.21,"M","FEW","BKN","M","M",4500,"20000.00","M","M","M","YBBN 290000Z 18006KT 9999 FEW045 BKN200 20/10 Q1022"
