"","station","valid","lon","lat","tmpf","dwpf","relh","drct","sknt","p01i","alti","mslp","vsby","gust","skyc1","skyc2","skyc3","skyc4","skyl1","skyl2","skyl3","skyl4","presentwx","metar"
"1","YBBN","2016-10-06 00:00",153.1292,-27.3917,75.2,32,20.49,230,8,0,30.18,"M",6.21,"M","M","M","M","M","M","M","M","M","M","YBBN 060000Z 23008KT CAVOK 24/M00 Q1022 NOSIG"
