"","station","valid","lon","lat","tmpf","dwpf","relh","drct","sknt","p01i","alti","mslp","vsby","gust","skyc1","skyc2","skyc3","skyc4","skyl1","skyl2","skyl3","skyl4","presentwx","metar"
"1","YBBN","2014-06-10 00:00",153.1292,-27.3917,68,50,52.51,200,9,0,30.21,"M",6.21,"M","FEW","M","M","M","3500.00","M","M","M","M","YBBN 100000Z 20009KT 9999 FEW035 20/10 Q1023 NOSIG"
