"","station","valid","lon","lat","tmpf","dwpf","relh","drct","sknt","p01i","alti","mslp","vsby","gust","skyc1","skyc2","skyc3","skyc4","skyl1","skyl2","skyl3","skyl4","presentwx","metar"
"1","YBBN","2012-04-15 00:00",153.1292,-27.3917,71.6,66.2,83.09,190,5,0,30.21,"M",4.35,"M","FEW","SCT","BKN","M",500,1200,"8000.00","M","VCSH","YBBN 150000Z 19005KT 7000 VCSH FEW005 SCT012 BKN080 22/19 Q1023"
